$H
G21
G17
G90
G1 Z0F20000
G1 F15000

(Start Layer)

(Start Block)


G1X39.7903Y-53.5622
G1Z5F20000
(Plotting speed under)
G1 F4000


G1X39.7354Y-50.1243

G1X39.4187Y-46.9023

G1X38.8348Y-43.9996

G1X37.8979Y-41.0710

G1X36.6363Y-38.3310

G1X35.1223Y-35.9072

G1X33.3534Y-33.7648

G1X31.3736Y-31.9525

G1X30.3023Y-31.1688

G1X29.2281Y-30.5042

G1X28.0480Y-29.8954

G1X26.8226Y-29.3920

G1X25.5707Y-28.9997

G1X24.3557Y-28.7364

G1X23.1335Y-28.5794

G1X21.8066Y-28.5355

G1X20.5665Y-28.6104

G1X19.3550Y-28.7964

G1X18.0902Y-29.1161

G1X16.9375Y-29.5261

G1X15.8138Y-30.0486

G1X14.7479Y-30.6711

G1X13.7441Y-31.3921

G1X12.8046Y-32.2108

G1X11.7079Y-33.3970

G1X10.7103Y-34.7794

G1X9.8747Y-36.2794

G1X9.1921Y-37.8845

G1X8.6164Y-39.7174

G1X8.1808Y-41.6979

G1X7.8781Y-43.8038

G1X7.6833Y-46.2236

G1X7.6064Y-49.1442

G1X7.6585Y-52.3615

G1X8.1418Y-60.8400

G1X9.2963Y-76.3985

G1X9.6999Y-79.5933

G1X10.2288Y-82.0201

G1X10.6228Y-83.1928

G1X11.0909Y-84.1903

G1X11.6622Y-85.0429

G1X12.3224Y-85.7149

G1X13.3087Y-86.3556

G1X15.8332Y-87.4523

G1X17.3579Y-88.2567

G1X19.1745Y-89.4078

G1X21.4328Y-91.0194

G1X24.6469Y-93.5150

G1X27.8559Y-96.1831

G1X31.1392Y-99.0953

G1X34.1543Y-101.9522

G1X37.3847Y-105.2395

G1X40.4858Y-108.6461

G1X43.9089Y-112.7140

G1X50.9240Y-121.5477

G1X54.2821Y-125.1754

G1X55.9744Y-126.8359

G1X57.5016Y-128.0411

G1X58.8337Y-128.7473

G1X60.1240Y-129.0849

G1X60.9150Y-129.1199

G1X61.6317Y-129.0501

G1X62.9585Y-128.6759

G1X64.2708Y-128.0337

G1X65.7141Y-127.0524

G1X67.2307Y-125.7299

G1X68.7061Y-124.1782

G1X70.1936Y-122.3246

G1X71.4439Y-120.5305

G1X72.7665Y-118.3419

G1X73.8716Y-116.2453

G1X74.9317Y-113.9096

G1X75.8225Y-111.6408

G1X76.6093Y-109.2525

G1X77.2818Y-106.8099

G1X77.8098Y-104.4106

G1X78.2398Y-101.8348

G1X78.5432Y-99.2033

G1X78.7366Y-95.1553

G1X78.6197Y-91.1097

G1X78.1637Y-86.9150

G1X77.4061Y-82.8383

G1X76.2160Y-78.3604

G1X74.5910Y-73.7193

G1X72.6497Y-69.1502

G1X69.5464Y-62.4641

G1X68.4210Y-59.5283

G1X67.9919Y-57.8309

G1X67.8252Y-56.3471

G1X67.9119Y-55.0015

G1X68.2498Y-53.7458

G1X68.8068Y-52.6458

G1X69.5306Y-51.6888

G1X70.5613Y-50.7180

G1X71.7006Y-49.9188

G1X73.1434Y-49.1555

G1X74.6407Y-48.5671

G1X76.2925Y-48.0941

G1X78.0845Y-47.7550

G1X79.8916Y-47.5724

G1X81.7186Y-47.5339

G1X83.7558Y-47.6633

G1X85.4770Y-47.9160

G1X87.2932Y-48.3193

G1X89.1763Y-48.9068

G1X90.8917Y-49.6383

G1X91.9211Y-50.2892

G1X91.9966Y-50.4556

G1X91.7973Y-50.5098

G1X89.5897Y-50.3545

G1X87.8748Y-50.4475

G1X86.3862Y-50.7072

G1X84.6109Y-51.1871

G1X81.3759Y-52.3678

G1X73.0467Y-55.9102

G1X68.0899Y-57.8554

G1X63.1121Y-59.5385

G1X58.1227Y-60.9189

G1X53.3123Y-61.9341

G1X48.9085Y-62.5495

G1X46.8731Y-62.7054

G1X45.0166Y-62.7496

G1X43.3831Y-62.6755

G1X42.0823Y-62.4995

G1X40.8607Y-62.1640

G1X39.9710Y-61.7050

G1X39.3699Y-61.1606

G1X38.9455Y-60.3968

G1X38.7358Y-59.5703

G1X38.6634Y-58.6971

G1X38.8188Y-53.1484

G1X38.7323Y-50.5021

G1X38.4229Y-47.8589

G1X37.9127Y-45.4538

G1X36.9841Y-42.6291

G1X35.7435Y-40.0248

G1X34.1756Y-37.6314

G1X32.3992Y-35.6163

G1X31.3382Y-34.6602

G1X30.2249Y-33.8123

G1X29.0982Y-33.0997

G1X27.9208Y-32.4886

G1X26.6714Y-31.9825

G1X25.4883Y-31.6238

G1X24.1984Y-31.3644

G1X22.9695Y-31.2398

G1X21.6432Y-31.2382

G1X20.4159Y-31.3643

G1X19.2307Y-31.6056

G1X17.9781Y-31.9998

G1X16.8348Y-32.4989

G1X15.7531Y-33.1123

G1X14.7371Y-33.8388

G1X13.7907Y-34.6776

G1X12.6959Y-35.9077

G1X11.7677Y-37.2623

G1X10.9647Y-38.7937

G1X10.2690Y-40.5752

G1X9.7471Y-42.4268

G1X9.3438Y-44.5015

G1X9.0646Y-46.7811

G1X8.9014Y-49.3078

G1X8.8574Y-53.2810

G1X9.0213Y-58.3134

G1X10.1326Y-75.5387

G1X10.4367Y-78.3449

G1X10.8064Y-80.5303

G1X11.2689Y-82.2921

G1X11.8758Y-83.7714

G1X12.6688Y-84.9688

G1X13.5726Y-85.7945

G1X14.3004Y-86.2370

G1X16.8095Y-87.3910

G1X18.4226Y-88.2737

G1X20.4905Y-89.6206

G1X23.0188Y-91.4721

G1X27.8241Y-95.3603

G1X32.5446Y-99.5792

G1X36.0412Y-102.9899

G1X39.3675Y-106.4979

G1X43.3048Y-111.0089

G1X50.3064Y-119.5416

G1X52.5060Y-121.8771

G1X55.1862Y-124.3860

G1X56.9509Y-125.7421

G1X58.4637Y-126.5368

G1X59.2202Y-126.7781

G1X60.0323Y-126.9187

G1X61.4644Y-126.8647

G1X62.7786Y-126.5024

G1X64.1044Y-125.8571

G1X65.4690Y-124.9271

G1X66.8264Y-123.7565

G1X68.2126Y-122.3009

G1X69.5557Y-120.6455

G1X70.8641Y-118.7576

G1X72.0439Y-116.8020

G1X73.1522Y-114.6706

G1X74.1295Y-112.5102

G1X75.0322Y-110.1533

G1X75.8192Y-107.7219

G1X76.4624Y-105.2656

G1X76.9765Y-102.7950

G1X77.3526Y-100.3723

G1X77.6111Y-97.8689

G1X77.7692Y-93.9149

G1X77.6049Y-89.7969

G1X77.1487Y-85.8753

G1X76.3417Y-81.7037

G1X75.1502Y-77.3839

G1X73.7318Y-73.3523

G1X72.2122Y-69.6889

G1X68.4531Y-61.5441

G1X67.4390Y-58.8519

G1X67.0239Y-57.2060

G1X66.8600Y-55.7006

G1X66.9435Y-54.4025

G1X67.2808Y-53.1335

G1X67.8166Y-52.0521

G1X68.6139Y-50.9921

G1X69.5932Y-50.0662

G1X70.7769Y-49.2252

G1X72.2683Y-48.4320

G1X73.7815Y-47.8328

G1X75.4573Y-47.3485

G1X77.2612Y-47.0034

G1X79.1732Y-46.8103

G1X81.1107Y-46.7809

G1X83.0481Y-46.9171

G1X85.0308Y-47.2323

G1X87.0653Y-47.7396

G1X88.7990Y-48.3586

G1X90.1912Y-49.0703

G1X90.6186Y-49.3941

G1X90.8173Y-49.6650

G1X90.7644Y-49.8854

G1X90.4571Y-50.0433

G1X87.3215Y-50.7511

G1X84.6840Y-51.6470

G1X81.6201Y-52.9597

G1X74.1370Y-56.4325

G1X70.1185Y-58.1572

G1X65.3706Y-59.9610

G1X60.6139Y-61.4849

G1X57.7541Y-62.2610

G1X54.9103Y-62.9248

G1X52.2060Y-63.4524

G1X49.4960Y-63.8717

G1X46.9777Y-64.1486

G1X44.6191Y-64.2837

G1X42.6341Y-64.2657

G1X40.9736Y-64.0980

G1X39.6991Y-63.7893

G1X38.8292Y-63.3903

G1X38.1260Y-62.7822

G1X37.7492Y-62.0808

G1X37.5929Y-61.3520

G1X37.5339Y-60.4418

G1X37.8540Y-55.1893

G1X37.8527Y-52.5977

G1X37.6431Y-50.1283

G1X37.2273Y-47.8019

G1X36.4136Y-45.0495

G1X35.2846Y-42.5019

G1X33.8867Y-40.2384

G1X32.2077Y-38.2342

G1X31.2294Y-37.3121

G1X30.1954Y-36.4881

G1X29.1465Y-35.7930

G1X28.0627Y-35.2008

G1X26.8439Y-34.6794

G1X25.6793Y-34.3089

G1X24.5034Y-34.0575

G1X23.2884Y-33.9235

G1X22.0673Y-33.9157

G1X20.8475Y-34.0400

G1X19.6701Y-34.2914

G1X18.6065Y-34.6395

G1X17.5581Y-35.1093

G1X16.4776Y-35.7464

G1X15.5725Y-36.4251

G1X14.6810Y-37.2542

G1X13.6690Y-38.4531

G1X12.7886Y-39.8158

G1X12.0255Y-41.3732

G1X11.4182Y-43.0308

G1X10.9313Y-44.8465

G1X10.5481Y-46.9009

G1X10.2729Y-49.2166

G1X10.1101Y-51.7406

G1X10.0500Y-55.5990

G1X10.1713Y-60.5250

G1X11.0100Y-75.1032

G1X11.3011Y-77.9465

G1X11.6849Y-80.2860

G1X12.1856Y-82.1803

G1X12.7860Y-83.6154

G1X13.4936Y-84.6989

G1X14.4047Y-85.5767

G1X15.3592Y-86.1749

G1X17.6583Y-87.2810

G1X19.0187Y-88.0248

G1X22.2005Y-90.1385

G1X24.5747Y-91.9306

G1X27.1138Y-93.9794

G1X32.2817Y-98.5113

G1X35.6751Y-101.7680

G1X38.9816Y-105.1822

G1X42.7778Y-109.4098

G1X50.0565Y-117.9643

G1X51.6312Y-119.5871

G1X53.8508Y-121.5883

G1X55.9795Y-123.2377

G1X57.7961Y-124.2495

G1X58.6753Y-124.5545

G1X59.5850Y-124.7380

G1X60.4891Y-124.7707

G1X61.2984Y-124.6846

G1X62.5494Y-124.3305

G1X63.7784Y-123.7443

G1X65.1612Y-122.8154

G1X66.4766Y-121.6753

G1X67.7932Y-120.2931

G1X69.1114Y-118.6404

G1X70.3372Y-116.8510

G1X71.4993Y-114.8703

G1X72.5306Y-112.8434

G1X73.4902Y-110.6320

G1X74.3162Y-108.4066

G1X74.9976Y-106.1992

G1X75.5959Y-103.8581

G1X76.0530Y-101.5781

G1X76.4209Y-99.1088

G1X76.6658Y-96.5901

G1X76.7868Y-92.7608

G1X76.6205Y-88.9262

G1X76.1255Y-84.8343

G1X75.3754Y-81.0440

G1X74.2921Y-77.0479

G1X72.7627Y-72.6722

G1X70.9926Y-68.4732

G1X67.7325Y-61.4763

G1X66.5248Y-58.3826

G1X66.0839Y-56.6989

G1X65.9070Y-55.1691

G1X65.9912Y-53.7667

G1X66.3095Y-52.5620

G1X66.8331Y-51.4734

G1X67.6099Y-50.4164

G1X68.5527Y-49.4936

G1X69.8111Y-48.5764

G1X71.2591Y-47.7888

G1X72.7495Y-47.1769

G1X74.3987Y-46.6780

G1X76.2125Y-46.3088

G1X78.0333Y-46.1009

G1X79.9675Y-46.0471

G1X82.0225Y-46.1769

G1X83.9306Y-46.4706

G1X85.9918Y-46.9798

G1X87.5659Y-47.5490

G1X88.8606Y-48.2253

G1X89.5811Y-48.8844

G1X89.6774Y-49.1349

G1X89.5932Y-49.4724

G1X88.9365Y-49.9792

G1X84.2011Y-52.1990

G1X75.4417Y-56.6903

G1X72.4746Y-58.1014

G1X69.3462Y-59.4752

G1X66.3658Y-60.6667

G1X63.2299Y-61.7928

G1X60.0005Y-62.8153

G1X56.8323Y-63.6840

G1X53.6298Y-64.4261

G1X50.5381Y-65.0090

G1X47.4428Y-65.4501

G1X44.5925Y-65.7074

G1X42.1151Y-65.7731

G1X40.0780Y-65.6469

G1X38.7407Y-65.3948

G1X37.7253Y-65.0046

G1X37.0132Y-64.4473

G1X36.6048Y-63.7481

G1X36.4673Y-63.0718

G1X36.4364Y-62.0225

G1X36.8917Y-57.1819

G1X36.9724Y-54.6361

G1X36.8465Y-52.2965

G1X36.4936Y-49.9452

G1X35.8012Y-47.3620

G1X34.7685Y-44.8691

G1X33.4582Y-42.6487

G1X31.9213Y-40.7480

G1X31.0182Y-39.8677

G1X30.0661Y-39.0829

G1X29.0520Y-38.3899

G1X27.9908Y-37.7978

G1X26.8945Y-37.3188

G1X25.7869Y-36.9591

G1X24.6756Y-36.7175

G1X23.5766Y-36.5949

G1X22.4598Y-36.5864

G1X21.3427Y-36.7004

G1X20.3038Y-36.9226

G1X19.2071Y-37.2903

G1X18.2556Y-37.7351

G1X17.2652Y-38.3433

G1X16.4450Y-38.9830

G1X15.6283Y-39.7717

G1X14.6690Y-40.9549

G1X13.8582Y-42.2625

G1X13.1566Y-43.7445

G1X12.5445Y-45.4761

G1X12.0619Y-47.3651

G1X11.7035Y-49.3783

G1X11.4381Y-51.6708

G1X11.2736Y-54.1915

G1X11.1984Y-58.0740

G1X11.2827Y-62.7592

G1X11.5769Y-69.4512

G1X11.9442Y-75.3559

G1X12.2346Y-78.0940

G1X12.6121Y-80.2935

G1X13.0988Y-82.0776

G1X13.7201Y-83.5245

G1X14.4036Y-84.5530

G1X15.3223Y-85.4399

G1X16.2804Y-86.0590

G1X19.9203Y-87.9683

G1X22.8775Y-89.9329

G1X27.3020Y-93.3658

G1X32.0600Y-97.4903

G1X35.5313Y-100.7709

G1X38.8142Y-104.1010

G1X42.2756Y-107.8569

G1X49.2126Y-115.7499

G1X50.9242Y-117.5076

G1X52.3804Y-118.8169

G1X54.9715Y-120.7919

G1X56.1045Y-121.4977

G1X57.0933Y-121.9944

G1X58.0881Y-122.3614

G1X58.9974Y-122.5610

G1X60.0267Y-122.6300

G1X60.9456Y-122.5405

G1X62.2187Y-122.1941

G1X63.4700Y-121.6010

G1X64.6892Y-120.7952

G1X66.0206Y-119.6619

G1X67.2901Y-118.3266

G1X68.5094Y-116.8061

G1X69.7075Y-115.0413

G1X70.8014Y-113.1711

G1X71.8227Y-111.1233

G1X72.7044Y-109.0692

G1X73.4881Y-106.9000

G1X74.1700Y-104.6529

G1X74.7415Y-102.3000

G1X75.1904Y-99.9293

G1X75.5049Y-97.6231

G1X75.7113Y-95.2207

G1X75.7981Y-91.4868

G1X75.5959Y-87.6720

G1X75.1236Y-83.9633

G1X74.3520Y-80.1116

G1X73.1010Y-75.6670

G1X71.5790Y-71.4731

G1X69.6275Y-66.9585

G1X66.7376Y-60.7819

G1X65.6018Y-57.8690

G1X65.1550Y-56.1732

G1X64.9678Y-54.6855

G1X65.0350Y-53.2641

G1X65.3519Y-52.0007

G1X65.9184Y-50.8190

G1X66.6543Y-49.8150

G1X67.6021Y-48.8734

G1X68.8544Y-47.9483

G1X70.2550Y-47.1690

G1X71.8508Y-46.5004

G1X73.6203Y-45.9655

G1X75.3512Y-45.6156

G1X77.2898Y-45.4008

G1X79.2138Y-45.3641

G1X81.3230Y-45.5233

G1X83.2450Y-45.8467

G1X85.1400Y-46.3570

G1X86.6548Y-46.9618

G1X87.8488Y-47.6867

G1X88.4557Y-48.3735

G1X88.5637Y-48.7628

G1X88.4550Y-49.2369

G1X88.1580Y-49.6518

G1X87.6240Y-50.1378

G1X85.6093Y-51.5062

G1X80.9193Y-54.3626

G1X76.7806Y-56.7259

G1X72.8884Y-58.7495

G1X68.9607Y-60.5740

G1X65.1756Y-62.1195

G1X61.6944Y-63.3606

G1X58.3103Y-64.4061

G1X54.8656Y-65.3114

G1X51.4836Y-66.0450

G1X48.0866Y-66.6226

G1X44.7646Y-67.0169

G1X41.8023Y-67.1888

G1X39.3577Y-67.1309

G1X37.8024Y-66.9121

G1X36.6290Y-66.5252

G1X35.9051Y-66.0092

G1X35.4886Y-65.2883

G1X35.3666Y-64.6296

G1X35.3775Y-63.5930

G1X35.9373Y-59.1489

G1X36.0992Y-56.6206

G1X36.0459Y-54.3744

G1X35.7661Y-52.0743

G1X35.1592Y-49.5624

G1X34.2088Y-47.1242

G1X33.0197Y-45.0223

G1X31.5558Y-43.1562

G1X29.8372Y-41.5825

G1X28.9384Y-40.9547

G1X27.9484Y-40.3890

G1X26.9106Y-39.9258

G1X25.9121Y-39.5958

G1X24.7883Y-39.3516

G1X23.7437Y-39.2447

G1X22.7191Y-39.2517

G1X21.7005Y-39.3732

G1X20.7704Y-39.5910

G1X19.7775Y-39.9473

G1X18.8429Y-40.4162

G1X18.0023Y-40.9677

G1X17.2127Y-41.6220

G1X16.4763Y-42.3794

G1X15.5935Y-43.5349

G1X14.8294Y-44.8436

G1X14.1620Y-46.3463

G1X13.6006Y-48.0365

G1X13.1559Y-49.8685

G1X12.8010Y-51.9538

G1X12.5446Y-54.2642

G1X12.3824Y-56.8044

G1X12.2998Y-60.6909

G1X12.3604Y-65.1199

G1X12.5913Y-71.0176

G1X12.8924Y-75.7794

G1X13.1735Y-78.2904

G1X13.5528Y-80.3799

G1X14.0540Y-82.1137

G1X14.6846Y-83.5036

G1X15.4111Y-84.5399

G1X16.3252Y-85.3870

G1X17.3845Y-86.0617

G1X20.7051Y-87.8509

G1X23.5801Y-89.7559

G1X27.5591Y-92.8187

G1X32.0148Y-96.6377

G1X35.1551Y-99.5528

G1X38.2446Y-102.6075

G1X41.8535Y-106.4071

G1X48.4805Y-113.6908

G1X50.3248Y-115.5513

G1X52.0242Y-117.0306

G1X53.2534Y-117.9550

G1X54.7088Y-118.9108

G1X55.6941Y-119.4711

G1X56.8159Y-119.9789

G1X57.7687Y-120.2859

G1X58.7791Y-120.4732

G1X59.6924Y-120.5069

G1X60.5829Y-120.4169

G1X61.7583Y-120.1035

G1X62.9799Y-119.5516

G1X64.2540Y-118.7255

G1X65.4736Y-117.6993

G1X66.7200Y-116.4060

G1X67.8766Y-114.9618

G1X69.0077Y-113.3064

G1X70.0674Y-111.4786

G1X71.0230Y-109.5639

G1X71.8807Y-107.5341

G1X72.6330Y-105.4411

G1X73.2603Y-103.3259

G1X73.8034Y-101.0836

G1X74.2133Y-98.8904

G1X74.5387Y-96.4776

G1X74.7341Y-94.1255

G1X74.8031Y-90.3959

G1X74.5973Y-86.7551

G1X74.0988Y-82.9414

G1X73.3419Y-79.2717

G1X72.3027Y-75.5313

G1X70.8515Y-71.4094

G1X69.2883Y-67.6784

G1X65.6926Y-59.9349

G1X64.6232Y-57.1273

G1X64.2049Y-55.4706

G1X64.0364Y-53.9469

G1X64.1219Y-52.6111

G1X64.4546Y-51.3395

G1X65.0001Y-50.2190

G1X65.7875Y-49.1487

G1X66.8173Y-48.1471

G1X68.0568Y-47.2511

G1X69.4997Y-46.4614

G1X71.0380Y-45.8258

G1X72.7349Y-45.3146

G1X74.5149Y-44.9565

G1X76.3457Y-44.7575

G1X78.2918Y-44.7263

G1X80.3201Y-44.8889

G1X82.2632Y-45.2268

G1X83.9996Y-45.7143

G1X85.4849Y-46.3368

G1X86.6003Y-47.0496

G1X87.2786Y-47.8199

G1X87.4710Y-48.3993

G1X87.4338Y-48.9135

G1X87.2332Y-49.4137

G1X86.7941Y-50.0435

G1X85.2388Y-51.5306

G1X82.5685Y-53.5610

G1X78.8644Y-56.0465

G1X74.9977Y-58.3580

G1X71.0076Y-60.4614

G1X66.9730Y-62.3172

G1X63.3965Y-63.7466

G1X59.7687Y-65.0017

G1X56.0964Y-66.0825

G1X52.4585Y-66.9719

G1X48.6439Y-67.7128

G1X45.0310Y-68.2254

G1X41.6715Y-68.5085

G1X38.8020Y-68.5363

G1X37.0035Y-68.3656

G1X35.7452Y-68.0440

G1X34.8699Y-67.5355

G1X34.6113Y-67.2154

G1X34.4364Y-66.8235

G1X34.3142Y-66.1078

G1X34.3716Y-65.0279

G1X34.9980Y-61.0700

G1X35.2428Y-58.4933

G1X35.2495Y-56.3104

G1X35.0339Y-54.0868

G1X34.4936Y-51.6260

G1X33.6478Y-49.3318

G1X32.5294Y-47.2809

G1X31.1657Y-45.5041

G1X29.5630Y-44.0175

G1X27.8259Y-42.9133

G1X26.8931Y-42.4953

G1X25.9126Y-42.1754

G1X24.9948Y-41.9797

G1X23.9626Y-41.8790

G1X23.0495Y-41.8962

G1X22.1306Y-42.0183

G1X21.2047Y-42.2562

G1X20.3153Y-42.6050

G1X19.4854Y-43.0522

G1X18.7330Y-43.5766

G1X17.9819Y-44.2373

G1X17.2998Y-44.9840

G1X16.4772Y-46.1296

G1X15.7391Y-47.4809

G1X15.1143Y-48.9925

G1X14.6000Y-50.6501

G1X14.1691Y-52.5472

G1X13.8439Y-54.5803

G1X13.5969Y-56.9202

G1X13.4449Y-59.3592

G1X13.3577Y-63.0161

G1X13.3955Y-67.0927

G1X13.5722Y-72.1312

G1X13.8259Y-76.0573

G1X14.1178Y-78.5367

G1X14.4947Y-80.4857

G1X14.9789Y-82.0834

G1X15.5978Y-83.4087

G1X16.3497Y-84.4598

G1X17.2440Y-85.2872

G1X18.2142Y-85.9250

G1X21.7241Y-87.8828

G1X24.2765Y-89.5824

G1X27.9823Y-92.4142

G1X32.0127Y-95.8293

G1X34.9041Y-98.4661

G1X37.8721Y-101.3323

G1X41.2410Y-104.7712

G1X48.1532Y-112.0875

G1X49.8960Y-113.7747

G1X51.3389Y-115.0140

G1X53.8686Y-116.7393

G1X56.1419Y-117.8601

G1X57.2196Y-118.1982

G1X58.1234Y-118.3705

G1X59.1394Y-118.4232

G1X60.0651Y-118.3408

G1X61.3011Y-118.0250

G1X62.4872Y-117.4977

G1X63.6774Y-116.7497

G1X64.8994Y-115.7419

G1X66.0620Y-114.5514

G1X67.2312Y-113.1079

G1X68.3130Y-111.5156

G1X69.3169Y-109.7876

G1X70.2136Y-107.9702

G1X71.0487Y-105.9920

G1X71.7615Y-103.9689

G1X72.3940Y-101.8092

G1X72.9009Y-99.6302

G1X73.3074Y-97.3580

G1X73.5853Y-95.1486

G1X73.7590Y-92.8442

G1X73.8054Y-89.3085

G1X73.5831Y-85.6826

G1X73.1152Y-82.1966

G1X72.3909Y-78.6441

G1X71.2463Y-74.5538

G1X69.7372Y-70.3512

G1X67.9978Y-66.2879

G1X64.9906Y-59.8473

G1X63.7596Y-56.6996

G1X63.3128Y-54.9868

G1X63.1356Y-53.4411

G1X63.2235Y-52.0232

G1X63.5632Y-50.7448

G1X64.1505Y-49.5620

G1X64.9386Y-48.5090

G1X65.9799Y-47.5079

G1X67.1644Y-46.6528

G1X68.6001Y-45.8612

G1X70.2030Y-45.1987

G1X71.9559Y-44.6792

G1X73.6608Y-44.3459

G1X75.5172Y-44.1587

G1X77.4932Y-44.1504

G1X79.5336Y-44.3432

G1X81.3215Y-44.6844

G1X83.0104Y-45.1983

G1X84.4472Y-45.8598

G1X85.4631Y-46.5729

G1X86.1419Y-47.3855

G1X86.3699Y-47.9538

G1X86.4192Y-48.5954

G1X86.2704Y-49.2663

G1X85.9151Y-50.0041

G1X85.3973Y-50.7510

G1X84.6564Y-51.6082

G1X82.4961Y-53.6265

G1X79.4031Y-56.0311

G1X75.9470Y-58.3571

G1X72.1620Y-60.5753

G1X68.2887Y-62.5460

G1X64.7310Y-64.1175

G1X61.0809Y-65.5143

G1X57.3214Y-66.7421

G1X53.4513Y-67.7965

G1X49.5403Y-68.6555

G1X45.6443Y-69.3052

G1X41.8864Y-69.7207

G1X38.6536Y-69.8627

G1X36.5878Y-69.7781

G1X34.9841Y-69.5008

G1X33.9939Y-69.0547

G1X33.6540Y-68.7335

G1X33.4632Y-68.3862

G1X33.3233Y-67.6707

G1X33.3609Y-66.8806

G1X34.1362Y-62.5957

G1X34.4211Y-60.1684

G1X34.4689Y-58.0169

G1X34.3056Y-55.9583

G1X33.8429Y-53.6473

G1X33.0507Y-51.3937

G1X31.9715Y-49.3815

G1X30.6521Y-47.6720

G1X29.1466Y-46.3061

G1X27.5106Y-45.3097

G1X25.7897Y-44.6974

G1X24.0512Y-44.4882

G1X22.4227Y-44.6704

G1X21.6057Y-44.9136

G1X20.8188Y-45.2570

G1X20.0938Y-45.6821

G1X19.3482Y-46.2465

G1X18.0877Y-47.5823

G1X17.3333Y-48.7001

G1X16.6458Y-50.0336

G1X16.0461Y-51.5707

G1X15.5512Y-53.2675

G1X15.1586Y-55.0952

G1X14.8327Y-57.2449

G1X14.4550Y-62.0455

G1X14.3763Y-65.4305

G1X14.4077Y-69.1739

G1X14.5501Y-73.3033

G1X14.7718Y-76.4949

G1X15.0507Y-78.7191

G1X15.4328Y-80.5879

G1X15.9304Y-82.1387

G1X16.5359Y-83.3754

G1X17.2879Y-84.3952

G1X18.2476Y-85.2654

G1X19.2274Y-85.9082

G1X22.5944Y-87.8318

G1X24.9298Y-89.3847

G1X28.2371Y-91.8808

G1X31.8940Y-94.9267

G1X35.0613Y-97.7660

G1X38.2189Y-100.7694

G1X47.9073Y-110.5784

G1X49.5532Y-112.1018

G1X51.0441Y-113.3229

G1X52.1037Y-114.0722

G1X53.3084Y-114.7888

G1X54.6035Y-115.4437

G1X55.7541Y-115.8982

G1X56.7474Y-116.1822

G1X57.7461Y-116.3416

G1X58.7513Y-116.3723

G1X59.6653Y-116.2722

G1X60.7945Y-115.9801

G1X62.0122Y-115.4454

G1X63.2261Y-114.6765

G1X64.3368Y-113.7631

G1X65.4546Y-112.6224

G1X66.5144Y-111.3206

G1X67.5673Y-109.7852

G1X68.5389Y-108.1061

G1X69.4342Y-106.2893

G1X70.1826Y-104.4892

G1X70.8919Y-102.4700

G1X71.4822Y-100.4091

G1X71.9781Y-98.2483

G1X72.3424Y-96.1523

G1X72.6203Y-93.8732

G1X72.7767Y-91.6549

G1X72.8023Y-88.1072

G1X72.5748Y-84.6903

G1X72.0965Y-81.2044

G1X71.3274Y-77.5544

G1X70.2396Y-73.7426

G1X68.8659Y-69.9082

G1X67.3980Y-66.4166

G1X64.0100Y-59.1022

G1X62.8849Y-56.1903

G1X62.4457Y-54.5039

G1X62.2637Y-53.0097

G1X62.3280Y-51.6119

G1X62.6577Y-50.2858

G1X63.1687Y-49.1898

G1X63.9201Y-48.1215

G1X64.9088Y-47.1173

G1X66.0423Y-46.2504

G1X67.3873Y-45.4622

G1X68.9175Y-44.7835

G1X70.4849Y-44.2703

G1X72.2037Y-43.8835

G1X74.0528Y-43.6529

G1X75.8852Y-43.6084

G1X77.7634Y-43.7328

G1X79.5138Y-44.0106

G1X81.1005Y-44.4263

G1X82.5406Y-44.9909

G1X83.7133Y-45.6655

G1X84.6393Y-46.4874

G1X85.0507Y-47.0723

G1X85.3159Y-47.7342

G1X85.4007Y-48.5035

G1X85.2988Y-49.2244

G1X85.0144Y-50.0312

G1X84.5547Y-50.8847

G1X83.8891Y-51.8351

G1X83.0299Y-52.8561

G1X80.6676Y-55.1600

G1X77.5771Y-57.6404

G1X74.2429Y-59.9214

G1X70.5302Y-62.1077

G1X67.0258Y-63.8925

G1X63.3252Y-65.5230

G1X59.5431Y-66.9489

G1X55.5970Y-68.2014

G1X51.5547Y-69.2541

G1X47.4786Y-70.0916

G1X43.4427Y-70.6990

G1X39.6033Y-71.0486

G1X36.8098Y-71.1085

G1X34.6931Y-70.9408

G1X33.8098Y-70.7473

G1X33.2507Y-70.5236

G1X32.7957Y-70.1950

G1X32.5538Y-69.8617

G1X32.3994Y-69.2374

G1X32.4247Y-68.4033

G1X33.3158Y-64.0993

G1X33.6551Y-61.5801

G1X33.7197Y-59.5129

G1X33.5792Y-57.5779

G1X33.1138Y-55.2494

G1X32.3591Y-53.1533

G1X31.2792Y-51.2122

G1X29.9484Y-49.5919

G1X28.6464Y-48.4945

G1X27.1735Y-47.6671

G1X25.6277Y-47.1883

G1X24.0555Y-47.0796

G1X22.5790Y-47.3389

G1X21.1839Y-47.9568

G1X19.9337Y-48.9046

G1X18.7778Y-50.2472

G1X18.0554Y-51.4214

G1X17.4408Y-52.7276

G1X16.8968Y-54.2434

G1X16.4517Y-55.8865

G1X16.0879Y-57.6937

G1X15.7925Y-59.7476

G1X15.4370Y-64.4137

G1X15.3650Y-67.5615

G1X15.3935Y-70.9354

G1X15.5186Y-74.3445

G1X15.7224Y-76.9844

G1X15.9953Y-78.9830

G1X16.3607Y-80.6621

G1X16.8636Y-82.1590

G1X17.4334Y-83.2904

G1X18.2253Y-84.3453

G1X19.2509Y-85.2555

G1X23.4398Y-87.7697

G1X25.6614Y-89.2467

G1X28.6793Y-91.5029

G1X32.0287Y-94.2523

G1X34.8477Y-96.7277

G1X37.8272Y-99.4866

G1X47.2801Y-108.7234

G1X50.2895Y-111.3103

G1X52.4051Y-112.7065

G1X54.5831Y-113.7183

G1X56.4851Y-114.2488

G1X57.4267Y-114.3608

G1X58.3384Y-114.3563

G1X59.5378Y-114.1789

G1X60.7801Y-113.7721

G1X61.9386Y-113.1757

G1X63.1056Y-112.3565

G1X64.2857Y-111.2863

G1X65.3170Y-110.1322

G1X66.4127Y-108.6596

G1X67.3771Y-107.1044

G1X68.2539Y-105.4400

G1X69.1107Y-103.4964

G1X69.7665Y-101.7219

G1X70.4061Y-99.6184

G1X70.8961Y-97.6054

G1X71.3146Y-95.3440

G1X71.5939Y-93.2030

G1X71.7662Y-90.9974

G1X71.8198Y-87.6356

G1X71.6089Y-84.0770

G1X71.1511Y-80.6425

G1X70.4374Y-77.1477

G1X69.4051Y-73.4239

G1X67.9841Y-69.3954

G1X66.4133Y-65.6512

G1X63.0560Y-58.3610

G1X62.0193Y-55.6279

G1X61.5928Y-53.9561

G1X61.4163Y-52.4499

G1X61.4940Y-51.0311

G1X61.8183Y-49.7553

G1X62.3360Y-48.6486

G1X63.0551Y-47.6235

G1X63.9926Y-46.6533

G1X65.1350Y-45.7636

G1X66.4548Y-44.9790

G1X67.9356Y-44.3107

G1X69.5692Y-43.7709

G1X71.2458Y-43.3967

G1X73.0552Y-43.1773

G1X74.7250Y-43.1396

G1X76.5652Y-43.2574

G1X78.3645Y-43.5477

G1X79.9519Y-43.9800

G1X81.3197Y-44.5357

G1X82.4953Y-45.2285

G1X83.4313Y-46.0577

G1X83.9040Y-46.6976

G1X84.2426Y-47.4449

G1X84.3867Y-48.1358

G1X84.3840Y-48.9398

G1X84.2018Y-49.8324

G1X83.8715Y-50.7063

G1X83.3950Y-51.6154

G1X82.7042Y-52.6625

G1X80.8238Y-54.8881

G1X78.2579Y-57.2962

G1X75.2642Y-59.6387

G1X71.9439Y-61.8520

G1X68.6279Y-63.7587

G1X65.0824Y-65.5219

G1X61.4079Y-67.0913

G1X57.5919Y-68.4763

G1X53.5475Y-69.6988

G1X49.5380Y-70.6817

G1X45.5066Y-71.4518

G1X41.4518Y-72.0042

G1X37.5679Y-72.2926

G1X34.5331Y-72.2550

G1X33.4786Y-72.1250

G1X32.6141Y-71.9101

G1X32.0880Y-71.6453

G1X31.6965Y-71.2144

G1X31.5290Y-70.6518

G1X31.5534Y-69.8347

G1X32.5648Y-65.4610

G1X32.9334Y-62.9978

G1X33.0133Y-60.9295

G1X32.8687Y-58.9803

G1X32.3727Y-56.6586

G1X31.5713Y-54.6155

G1X30.4672Y-52.8217

G1X29.7988Y-52.0285

G1X29.1093Y-51.3670

G1X27.9139Y-50.5112

G1X26.5544Y-49.9020

G1X25.1462Y-49.6270

G1X23.8497Y-49.6866

G1X22.5284Y-50.0823

G1X21.3728Y-50.7586

G1X20.3453Y-51.6947

G1X19.4004Y-52.9419

G1X18.7491Y-54.1127

G1X18.1728Y-55.4649

G1X17.6911Y-56.9424

G1X17.2810Y-58.6024

G1X16.9457Y-60.4368

G1X16.6811Y-62.4759

G1X16.3732Y-67.1175

G1X16.3790Y-73.0693

G1X16.5079Y-75.6821

G1X16.7111Y-77.7810

G1X17.0036Y-79.5761

G1X17.3888Y-81.0893

G1X17.8687Y-82.3529

G1X18.4463Y-83.4014

G1X19.1874Y-84.3343

G1X20.1667Y-85.1915

G1X24.2598Y-87.6938

G1X26.2745Y-89.0275

G1X29.0067Y-91.0390

G1X31.9901Y-93.4378

G1X37.4197Y-98.2092

G1X46.7240Y-106.9776

G1X48.5247Y-108.5318

G1X49.8988Y-109.5984

G1X52.0050Y-110.9343

G1X54.1983Y-111.8796

G1X56.2269Y-112.3514

G1X57.1565Y-112.4120

G1X58.0879Y-112.3662

G1X59.2771Y-112.1329

G1X60.4189Y-111.7141

G1X61.5730Y-111.0869

G1X62.6847Y-110.2702

G1X63.7334Y-109.2953

G1X64.7943Y-108.0866

G1X65.7524Y-106.7684

G1X66.6624Y-105.2880

G1X67.4904Y-103.6880

G1X68.2336Y-101.9945

G1X68.9256Y-100.0967

G1X69.4961Y-98.1914

G1X69.9774Y-96.1705

G1X70.3591Y-94.0642

G1X70.6325Y-91.8780

G1X70.7895Y-89.7321

G1X70.8189Y-86.3300

G1X70.5993Y-82.9914

G1X70.1279Y-79.5673

G1X69.4027Y-76.1138

G1X68.2725Y-72.1595

G1X66.9204Y-68.4088

G1X65.2065Y-64.3710

G1X62.4714Y-58.4293

G1X61.2228Y-55.1986

G1X60.7968Y-53.5569

G1X60.6093Y-52.0321

G1X60.6766Y-50.6079

G1X60.9917Y-49.3165

G1X61.5202Y-48.1715

G1X62.2148Y-47.1698

G1X63.1333Y-46.2052

G1X64.2783Y-45.3041

G1X65.5312Y-44.5507

G1X66.9543Y-43.8967

G1X68.5338Y-43.3638

G1X70.1415Y-42.9956

G1X71.7879Y-42.7859

G1X73.5251Y-42.7305

G1X75.3579Y-42.8446

G1X77.0919Y-43.1227

G1X78.6965Y-43.5622

G1X80.0434Y-44.1141

G1X81.2320Y-44.8139

G1X82.1557Y-45.6033

G1X82.6911Y-46.2620

G1X83.0943Y-46.9955

G1X83.3418Y-47.7759

G1X83.4356Y-48.6021

G1X83.3840Y-49.4280

G1X83.1823Y-50.3438

G1X82.8369Y-51.2913

G1X82.3518Y-52.2736

G1X80.9140Y-54.4168

G1X78.8639Y-56.7303

G1X76.3927Y-59.0014

G1X73.5523Y-61.2025

G1X70.5579Y-63.1951

G1X67.2294Y-65.1077

G1X63.7577Y-66.8252

G1X60.1500Y-68.3550

G1X56.3667Y-69.7149

G1X52.4668Y-70.8822

G1X48.3949Y-71.8689

G1X44.3608Y-72.6270

G1X39.7811Y-73.2218

G1X35.6929Y-73.4680

G1X34.1547Y-73.4513

G1X32.8213Y-73.3407

G1X31.8225Y-73.1270

G1X31.2099Y-72.8350

G1X30.9295Y-72.5379

G1X30.7655Y-72.1754

G1X30.7408Y-71.2903

G1X32.0678Y-65.7923

G1X32.3142Y-63.7818

G1X32.3407Y-61.8486

G1X32.1577Y-60.0653

G1X31.7703Y-58.3754

G1X31.1932Y-56.8322

G1X30.3924Y-55.3839

G1X29.2069Y-53.9444

G1X27.8973Y-52.9271

G1X27.1430Y-52.5405

G1X26.4487Y-52.2959

G1X25.6487Y-52.1387

G1X24.9029Y-52.1100

G1X24.2547Y-52.1796

G1X23.5144Y-52.3728

G1X22.8448Y-52.6621

G1X22.1458Y-53.0953

G1X20.9721Y-54.1960

G1X19.9251Y-55.7302

G1X19.3508Y-56.9092

G1X18.8456Y-58.2519

G1X18.4150Y-59.7412

G1X18.0433Y-61.4458

G1X17.5249Y-65.3171

G1X17.2919Y-69.8775

G1X17.3595Y-74.8211

G1X17.5044Y-76.8875

G1X17.7157Y-78.5865

G1X18.0136Y-80.1046

G1X18.3881Y-81.3864

G1X18.8732Y-82.5355

G1X19.4458Y-83.4913

G1X20.1822Y-84.3658

G1X21.1664Y-85.2002

G1X26.9575Y-88.8581

G1X29.3808Y-90.6159

G1X32.0050Y-92.6792

G1X36.9880Y-96.9335

G1X46.0265Y-105.1473

G1X47.8938Y-106.7091

G1X49.5458Y-107.9457

G1X51.7083Y-109.2479

G1X52.7512Y-109.7102

G1X53.8208Y-110.0748

G1X54.9383Y-110.3472

G1X55.9533Y-110.4786

G1X56.8664Y-110.4977

G1X57.8817Y-110.3927

G1X58.9872Y-110.1191

G1X60.1375Y-109.6451

G1X61.2920Y-108.9554

G1X62.3019Y-108.1639

G1X63.3234Y-107.1667

G1X64.3146Y-105.9816

G1X65.2503Y-104.6402

G1X66.0997Y-103.1859

G1X66.8702Y-101.6267

G1X67.5929Y-99.8781

G1X68.1961Y-98.1165

G1X68.7356Y-96.1770

G1X69.1520Y-94.2671

G1X69.4755Y-92.2893

G1X69.6915Y-90.3647

G1X69.8222Y-88.2642

G1X69.8248Y-85.1293

G1X69.5964Y-81.8940

G1X69.1403Y-78.6693

G1X68.4810Y-75.5114

G1X67.5116Y-72.0146

G1X66.1779Y-68.1955

G1X64.7604Y-64.7546

G1X61.5260Y-57.6161

G1X60.4634Y-54.8067

G1X60.0206Y-53.0859

G1X59.8402Y-51.5716

G1X59.9068Y-50.1617

G1X60.2239Y-48.8589

G1X60.7365Y-47.7419

G1X61.4186Y-46.7458

G1X62.3211Y-45.7888

G1X63.4378Y-44.9020

G1X64.6566Y-44.1614

G1X66.0534Y-43.5148

G1X67.6079Y-42.9898

G1X69.1765Y-42.6339

G1X70.7870Y-42.4369

G1X72.5235Y-42.3902

G1X74.2552Y-42.5070

G1X75.9324Y-42.7854

G1X77.4230Y-43.1990

G1X78.7702Y-43.7504

G1X79.9557Y-44.4406

G1X80.9248Y-45.2435

G1X81.4648Y-45.8622

G1X81.9174Y-46.5741

G1X82.2390Y-47.3330

G1X82.4298Y-48.1376

G1X82.4900Y-48.9865

G1X82.4171Y-49.8952

G1X82.2249Y-50.7904

G1X81.8955Y-51.7675

G1X80.8542Y-53.8182

G1X79.2892Y-56.0111

G1X77.2818Y-58.2274

G1X74.8518Y-60.4456

G1X72.2457Y-62.4678

G1X69.3312Y-64.4180

G1X66.1403Y-66.2616

G1X62.7888Y-67.9307

G1X59.2566Y-69.4391

G1X55.5559Y-70.7791

G1X51.7377Y-71.9322

G1X47.8226Y-72.8947

G1X42.3932Y-73.8886

G1X39.5699Y-74.2500

G1X37.0537Y-74.4741

G1X34.8052Y-74.5760

G1X32.8665Y-74.5464

G1X31.4804Y-74.3868

G1X30.5945Y-74.0877

G1X30.2802Y-73.8437

G1X30.0700Y-73.4830

G1X29.9912Y-73.0898

G1X30.0102Y-72.6508

G1X31.4197Y-67.2222

G1X31.6847Y-65.3435

G1X31.7417Y-63.4413

G1X31.5963Y-61.7950

G1X31.2607Y-60.2244

G1X30.7479Y-58.7919

G1X30.0229Y-57.4449

G1X28.9237Y-56.1016

G1X27.6984Y-55.1754

G1X27.0186Y-54.8516

G1X26.3269Y-54.6423

G1X25.6193Y-54.5475

G1X24.9587Y-54.5672

G1X24.3519Y-54.6804

G1X23.6848Y-54.9168

G1X23.0404Y-55.2685

G1X22.4644Y-55.7004

G1X21.3489Y-56.9316

G1X20.4407Y-58.4785

G1X19.9201Y-59.7083

G1X19.4967Y-60.9967

G1X18.7923Y-64.2039

G1X18.3678Y-67.9444

G1X18.2172Y-72.2063

G1X18.3381Y-76.1838

G1X18.7281Y-79.3148

G1X19.0281Y-80.5878

G1X19.3812Y-81.6463

G1X19.8181Y-82.6001

G1X20.3817Y-83.4969

G1X21.1750Y-84.4008

G1X22.0770Y-85.1521

G1X27.6144Y-88.6688

G1X29.8115Y-90.2375

G1X32.2004Y-92.0752

G1X36.6771Y-95.7891

G1X45.2818Y-103.3259

G1X47.2085Y-104.8871

G1X48.9555Y-106.1592

G1X51.2411Y-107.4966

G1X52.2846Y-107.9447

G1X53.3742Y-108.2941

G1X54.4716Y-108.5250

G1X55.5664Y-108.6357

G1X56.6034Y-108.6102

G1X57.6506Y-108.4470

G1X58.7386Y-108.1180

G1X59.8462Y-107.5984

G1X60.8063Y-106.9879

G1X61.8274Y-106.1562

G1X62.7800Y-105.1916

G1X63.7529Y-103.9952

G1X64.5945Y-102.7500

G1X65.4025Y-101.3361

G1X66.1324Y-99.8157

G1X66.7543Y-98.2790

G1X67.3553Y-96.4864

G1X67.8381Y-94.7027

G1X68.2323Y-92.8510

G1X68.5338Y-90.9428

G1X68.8525Y-87.0067

G1X68.8386Y-83.9354

G1X68.6104Y-80.8894

G1X68.1828Y-77.8676

G1X67.5209Y-74.6889

G1X66.4780Y-70.9677

G1X65.1821Y-67.2932

G1X63.7033Y-63.7167

G1X60.7464Y-57.1135

G1X59.6891Y-54.2565

G1X59.2777Y-52.5836

G1X59.1126Y-51.0887

G1X59.1889Y-49.6961

G1X59.5036Y-48.4289

G1X60.0004Y-47.3415

G1X60.6867Y-46.3353

G1X61.5534Y-45.4134

G1X62.6134Y-44.5626

G1X63.8372Y-43.8131

G1X65.2110Y-43.1776

G1X66.6362Y-42.6951

G1X68.1332Y-42.3526

G1X69.6745Y-42.1573

G1X71.4416Y-42.1124

G1X73.1143Y-42.2280

G1X74.6555Y-42.4832

G1X76.1296Y-42.8862

G1X77.4459Y-43.4151

G1X78.6055Y-44.0664

G1X79.6311Y-44.8688

G1X80.2544Y-45.5328

G1X80.7198Y-46.1875

G1X81.0990Y-46.9193

G1X81.3663Y-47.6954

G1X81.5204Y-48.5070

G1X81.5628Y-49.4067

G1X81.4863Y-50.3140

G1X81.3018Y-51.2310

G1X80.5840Y-53.2103

G1X79.4027Y-55.3189

G1X77.8090Y-57.4629

G1X75.8040Y-59.6394

G1X73.5391Y-61.6991

G1X70.9421Y-63.7174

G1X68.1309Y-65.6014

G1X65.1502Y-67.3329

G1X61.8664Y-68.9816

G1X58.5105Y-70.4295

G1X54.9572Y-71.7358

G1X51.3637Y-72.8464

G1X48.2967Y-73.6415

G1X45.3297Y-74.2865

G1X42.2531Y-74.8323

G1X39.2373Y-75.2467

G1X36.1362Y-75.5388

G1X33.4843Y-75.6489

G1X31.4159Y-75.5718

G1X30.1943Y-75.3272

G1X29.7727Y-75.1049

G1X29.5452Y-74.8780

G1X29.3716Y-74.4577

G1X29.3545Y-73.9782

G1X29.5063Y-73.1710

G1X30.4080Y-70.2896

G1X30.8708Y-68.4113

G1X31.1394Y-66.5462

G1X31.1856Y-64.6757

G1X31.0454Y-63.2237

G1X30.7211Y-61.7658

G1X30.2104Y-60.4081

G1X29.5645Y-59.2680

G1X28.5809Y-58.1236

G1X28.0090Y-57.6684

G1X27.3729Y-57.2996

G1X26.7861Y-57.0721

G1X26.0902Y-56.9316

G1X25.4308Y-56.9238

G1X24.8033Y-57.0314

G1X23.6619Y-57.5401

G1X22.6070Y-58.4434

G1X21.6351Y-59.7865

G1X20.8421Y-61.4445

G1X20.0492Y-64.0355

G1X19.4960Y-67.1703

G1X19.1977Y-70.7533

G1X19.1613Y-74.6378

G1X19.3690Y-77.7569

G1X19.8036Y-80.1935

G1X20.4868Y-82.1380

G1X20.9039Y-82.9102

G1X21.4390Y-83.6659

G1X22.2436Y-84.5091

G1X23.1569Y-85.2320

G1X28.2479Y-88.4611

G1X32.1948Y-91.3208

G1X36.2361Y-94.5599

G1X44.7670Y-101.7430

G1X47.0019Y-103.4686

G1X48.7482Y-104.6617

G1X51.0823Y-105.9237

G1X52.1477Y-106.3260

G1X53.2368Y-106.6165

G1X54.3768Y-106.7920

G1X55.4098Y-106.8279

G1X56.4391Y-106.7383

G1X57.4643Y-106.5129

G1X58.5164Y-106.1245

G1X59.5035Y-105.6062

G1X60.5147Y-104.9023

G1X61.4560Y-104.0723

G1X62.4246Y-103.0219

G1X63.2759Y-101.9018

G1X64.0589Y-100.6807

G1X64.8156Y-99.2798

G1X65.4958Y-97.7788

G1X66.0995Y-96.1841

G1X67.0292Y-92.8801

G1X67.6390Y-89.2838

G1X67.8963Y-85.5507

G1X67.8608Y-82.7206

G1X67.6274Y-79.7849

G1X67.1820Y-76.7517

G1X66.5497Y-73.7733

G1X65.6283Y-70.4581

G1X64.4034Y-66.9128

G1X63.0810Y-63.6368

G1X60.1768Y-57.0523

G1X59.0236Y-53.9400

G1X58.6087Y-52.2651

G1X58.4370Y-50.7826

G1X58.4928Y-49.4571

G1X58.7861Y-48.1663

G1X59.2318Y-47.1271

G1X59.8515Y-46.1608

G1X60.6664Y-45.2402

G1X61.6899Y-44.3757

G1X62.8291Y-43.6438

G1X64.1296Y-43.0098

G1X65.4860Y-42.5230

G1X66.9800Y-42.1585

G1X68.5856Y-41.9435

G1X70.1064Y-41.8926

G1X71.7344Y-41.9835

G1X73.3397Y-42.2314

G1X74.8059Y-42.6193

G1X76.1718Y-43.1560

G1X77.3559Y-43.8077

G1X78.3415Y-44.5467

G1X78.9932Y-45.1896

G1X79.5097Y-45.8435

G1X79.9319Y-46.5426

G1X80.2591Y-47.2863

G1X80.4893Y-48.0710

G1X80.6219Y-48.8957

G1X80.6548Y-49.8026

G1X80.5802Y-50.7290

G1X80.1274Y-52.6391

G1X79.2888Y-54.6181

G1X78.0784Y-56.6527

G1X76.4816Y-58.7529

G1X74.5594Y-60.8282

G1X72.3792Y-62.8184

G1X69.9749Y-64.7071

G1X67.2936Y-66.5331

G1X64.3939Y-68.2474

G1X61.3837Y-69.7928

G1X58.2193Y-71.1999

G1X54.8994Y-72.4684

G1X51.8280Y-73.4737

G1X48.5434Y-74.3867

G1X45.2097Y-75.1555

G1X41.7311Y-75.7986

G1X38.1315Y-76.2971

G1X34.6440Y-76.6050

G1X31.7791Y-76.6709

G1X29.9584Y-76.4954

G1X29.3700Y-76.2877

G1X28.9993Y-75.9931

G1X28.8225Y-75.6119

G1X28.7894Y-75.1997

G1X28.9519Y-74.3427

G1X29.8846Y-71.5259

G1X30.3900Y-69.5586

G1X30.6570Y-67.7051

G1X30.6857Y-65.8694

G1X30.5152Y-64.4185

G1X30.2023Y-63.1718

G1X29.7085Y-61.9676

G1X29.1308Y-61.0246

G1X28.1399Y-59.9923

G1X27.6205Y-59.6464

G1X27.0366Y-59.3835

G1X26.4387Y-59.2383

G1X25.8365Y-59.2123

G1X25.2373Y-59.3062

G1X24.6484Y-59.5201

G1X24.0775Y-59.8535

G1X23.5707Y-60.2672

G1X22.6559Y-61.3599

G1X21.8629Y-62.8096

G1X21.1795Y-64.6811

G1X20.5831Y-67.2765

G1X20.2140Y-70.1949

G1X20.0623Y-73.5215

G1X20.1525Y-76.7344

G1X20.4431Y-79.1146

G1X20.9164Y-81.0013

G1X21.6189Y-82.5975

G1X22.5507Y-83.8823

G1X23.3099Y-84.6112

G1X24.1460Y-85.2496

G1X28.8634Y-88.2365

G1X32.2506Y-90.6267

G1X35.9074Y-93.4540

G1X44.3355Y-100.2667

G1X46.5550Y-101.9044

G1X48.3751Y-103.0876

G1X49.6464Y-103.7902

G1X50.7683Y-104.3002

G1X51.8250Y-104.6723

G1X52.9362Y-104.9304

G1X54.0481Y-105.0565

G1X55.1547Y-105.0468

G1X56.2552Y-104.8888

G1X57.3119Y-104.5824

G1X58.3292Y-104.1328

G1X59.2775Y-103.5620

G1X60.1741Y-102.8721

G1X61.0677Y-102.0250

G1X61.9188Y-101.0434

G1X62.7009Y-99.9692

G1X63.4917Y-98.6749

G1X64.1604Y-97.3738

G1X65.3243Y-94.4428

G1X66.1889Y-91.2159

G1X66.7320Y-87.7862

G1X66.9476Y-84.2383

G1X66.8926Y-81.4232

G1X66.6566Y-78.6759

G1X66.2512Y-75.9368

G1X65.6436Y-73.0390

G1X64.7340Y-69.7354

G1X63.5313Y-66.2226

G1X62.2593Y-63.0323

G1X59.3899Y-56.3956

G1X58.4086Y-53.6776

G1X57.9913Y-51.9985

G1X57.8109Y-50.4450

G1X57.8698Y-49.1003

G1X58.1637Y-47.8170

G1X58.6444Y-46.7190

G1X59.2566Y-45.7865

G1X60.0680Y-44.8869

G1X61.0030Y-44.1049

G1X62.1115Y-43.3946

G1X63.3857Y-42.7789

G1X64.7237Y-42.3089

G1X66.1044Y-41.9806

G1X67.5463Y-41.7939

G1X69.1018Y-41.7399

G1X70.6515Y-41.8314

G1X72.1921Y-42.0726

G1X73.6153Y-42.4499

G1X74.8800Y-42.9382

G1X76.0662Y-43.5685

G1X77.0689Y-44.2850

G1X78.1038Y-45.3089

G1X78.8494Y-46.3846

G1X79.4102Y-47.6662

G1X79.6991Y-48.9617

G1X79.7573Y-50.3987

G1X79.5617Y-51.9481

G1X79.1115Y-53.5618

G1X78.4282Y-55.1920

G1X77.5239Y-56.8357

G1X76.3528Y-58.5595

G1X74.9671Y-60.2700

G1X73.4527Y-61.8814

G1X71.6771Y-63.5346

G1X69.7989Y-65.0785

G1X67.7570Y-66.5718

G1X65.5375Y-68.0178

G1X61.6740Y-70.1814

G1X57.5138Y-72.1056

G1X53.0933Y-73.7734

G1X48.4628Y-75.1686

G1X43.4305Y-76.3275

G1X38.1616Y-77.1797

G1X33.1617Y-77.6293

G1X31.1453Y-77.6635

G1X29.7286Y-77.5578

G1X29.0567Y-77.3924

G1X28.6146Y-77.1274

G1X28.3943Y-76.8125

G1X28.3175Y-76.3302

G1X28.4939Y-75.4274

G1X29.6917Y-71.8588

G1X30.1239Y-69.8429

G1X30.2460Y-68.7156

G1X30.2686Y-67.5077

G1X30.1730Y-66.3595

G1X29.9674Y-65.3059

G1X29.6667Y-64.3686

G1X29.2693Y-63.5247

G1X28.8251Y-62.8495

G1X28.2702Y-62.2477

G1X27.6765Y-61.8125

G1X26.9858Y-61.5178

G1X26.2739Y-61.4204

G1X25.6611Y-61.4961

G1X25.0574Y-61.7195

G1X24.4610Y-62.0987

G1X23.8764Y-62.6474

G1X23.3786Y-63.2824

G1X22.5001Y-64.9252

G1X21.7992Y-67.0464

G1X21.2919Y-69.6598

G1X21.0141Y-72.6818

G1X20.9913Y-75.9119

G1X21.2268Y-78.6078

G1X21.6133Y-80.4410

G1X22.1996Y-82.0140

G1X22.9817Y-83.3002

G1X24.0566Y-84.4413

G1X25.3065Y-85.3842

G1X29.5358Y-88.0438

G1X32.4682Y-90.0614

G1X35.7389Y-92.5004

G1X43.3419Y-98.4085

G1X46.8768Y-100.8744

G1X48.6294Y-101.8881

G1X50.1967Y-102.6119

G1X51.6480Y-103.0819

G1X52.9650Y-103.3139

G1X54.4290Y-103.3396

G1X55.7630Y-103.1378

G1X57.1061Y-102.6888

G1X58.3479Y-102.0252

G1X59.1823Y-101.4265

G1X59.9847Y-100.7224

G1X61.4994Y-98.9793

G1X62.8496Y-96.8294

G1X64.0163Y-94.2704

G1X64.8961Y-91.5547

G1X65.5470Y-88.5208

G1X65.9197Y-85.3278

G1X66.0116Y-82.0647

G1X65.8967Y-79.5199

G1X65.6327Y-77.0079

G1X65.2126Y-74.4296

G1X64.6303Y-71.7931

G1X63.7285Y-68.5950

G1X62.6654Y-65.4954

G1X61.3095Y-62.0631

G1X58.7882Y-56.1003

G1X57.8141Y-53.3463

G1X57.4244Y-51.7478

G1X57.2458Y-50.3012

G1X57.2819Y-48.9387

G1X57.5363Y-47.6987

G1X57.9138Y-46.7352

G1X58.4982Y-45.7508

G1X59.2539Y-44.8486

G1X60.1923Y-44.0184

G1X61.2363Y-43.3194

G1X62.4582Y-42.7039

G1X63.7440Y-42.2327

G1X65.0495Y-41.9079

G1X66.4767Y-41.7074

G1X68.0007Y-41.6494

G1X69.5037Y-41.7319

G1X70.9137Y-41.9427

G1X72.2990Y-42.2921

G1X73.5424Y-42.7493

G1X74.7400Y-43.3534

G1X75.7717Y-44.0485

G1X76.8515Y-45.0390

G1X77.7388Y-46.2107

G1X78.3436Y-47.4235

G1X78.7449Y-48.8326

G1X78.8893Y-50.3706

G1X78.7769Y-51.9252

G1X78.4095Y-53.5852

G1X77.8154Y-55.2389

G1X76.9462Y-57.0077

G1X75.9084Y-58.6841

G1X74.6218Y-60.4139

G1X73.1670Y-62.0844

G1X71.4613Y-63.7847

G1X69.6099Y-65.4024

G1X67.5878Y-66.9642

G1X65.4748Y-68.4152

G1X61.7091Y-70.6372

G1X57.6075Y-72.6350

G1X53.2402Y-74.3727

G1X48.5849Y-75.8537

G1X43.4794Y-77.1010

G1X38.2376Y-78.0130

G1X33.0891Y-78.5458

G1X30.9516Y-78.6193

G1X29.4558Y-78.5490

G1X28.7674Y-78.4065

G1X28.2746Y-78.1573

G1X28.0188Y-77.8310

G1X27.9390Y-77.3995

G1X28.1016Y-76.5356

G1X29.2962Y-73.1118

G1X29.7193Y-71.3012

G1X29.8650Y-70.1784

G1X29.9089Y-69.0685

G1X29.8472Y-68.0243

G1X29.6858Y-67.0602

G1X29.4312Y-66.1851

G1X29.1069Y-65.4423

G1X28.7318Y-64.8320

G1X28.2532Y-64.2827

G1X27.7393Y-63.8890

G1X27.2365Y-63.6556

G1X26.7161Y-63.5497

G1X26.0836Y-63.5940

G1X25.5604Y-63.7744

G1X25.0219Y-64.1059

G1X24.4903Y-64.5982

G1X24.0410Y-65.1672

G1X23.2429Y-66.6520

G1X22.6071Y-68.5637

G1X22.1429Y-70.9507

G1X21.9014Y-73.6452

G1X21.8975Y-76.5193

G1X22.1316Y-78.8838

G1X22.5352Y-80.6455

G1X23.1303Y-82.1236

G1X23.8936Y-83.3130

G1X24.9575Y-84.4091

G1X26.2839Y-85.3918

G1X30.2019Y-87.8383

G1X32.8499Y-89.6148

G1X42.7529Y-96.9129

G1X46.3604Y-99.3234

G1X48.0914Y-100.2823

G1X49.6391Y-100.9717

G1X51.0912Y-101.4318

G1X52.5060Y-101.6652

G1X53.9269Y-101.6670

G1X55.2316Y-101.4464

G1X56.5721Y-100.9726

G1X57.8146Y-100.2788

G1X59.3907Y-98.9829

G1X60.8385Y-97.2774

G1X62.1320Y-95.1737

G1X63.2123Y-92.7600

G1X64.0704Y-90.0525

G1X64.6709Y-87.1625

G1X65.0110Y-84.1475

G1X65.0938Y-81.0077

G1X64.9844Y-78.5767

G1X64.7346Y-76.1653

G1X64.3507Y-73.7615

G1X63.8244Y-71.2947

G1X63.0380Y-68.3850

G1X61.9920Y-65.2127

G1X60.8622Y-62.2416

G1X58.2864Y-55.9854

G1X57.2813Y-53.0803

G1X56.8987Y-51.4696

G1X56.7282Y-50.0310

G1X56.7645Y-48.7170

G1X56.9978Y-47.5330

G1X57.3502Y-46.5933

G1X57.8998Y-45.6321

G1X58.6125Y-44.7515

G1X59.4463Y-43.9844

G1X60.4636Y-43.2760

G1X61.5544Y-42.7028

G1X62.7942Y-42.2256

G1X63.9840Y-41.9101

G1X65.3978Y-41.6906

G1X66.7475Y-41.6203

G1X68.1958Y-41.6764

G1X69.6202Y-41.8663

G1X71.0495Y-42.2070

G1X72.2962Y-42.6487

G1X73.4796Y-43.2228

G1X74.5066Y-43.8812

G1X75.6853Y-44.9052

G1X76.5851Y-46.0085

G1X77.3180Y-47.3358

G1X77.7742Y-48.6986

G1X78.0042Y-50.2149

G1X77.9809Y-51.8542

G1X77.6982Y-53.5622

G1X77.1984Y-55.2201

G1X76.4565Y-56.9524

G1X75.5053Y-58.6755

G1X74.2961Y-60.4635

G1X72.8798Y-62.2250

G1X71.2680Y-63.9488

G1X69.4731Y-65.6228

G1X67.5064Y-67.2365

G1X65.4356Y-68.7412

G1X61.7583Y-71.0312

G1X57.6748Y-73.1257

G1X53.3937Y-74.9196

G1X48.7555Y-76.4809

G1X43.8203Y-77.7681

G1X38.6308Y-78.7582

G1X33.3862Y-79.3925

G1X31.0990Y-79.5244

G1X29.4105Y-79.5040

G1X28.5730Y-79.3716

G1X28.0240Y-79.1336

G1X27.7649Y-78.8553

G1X27.6548Y-78.3561

G1X27.8445Y-77.4542

G1X29.0065Y-74.2156

G1X29.4214Y-72.4936

G1X29.6128Y-70.4476

G1X29.4331Y-68.6271

G1X28.9796Y-67.2688

G1X28.6660Y-66.7211

G1X28.2557Y-66.2223

G1X27.8140Y-65.8691

G1X27.3949Y-65.6679

G1X26.9594Y-65.5758

G1X26.4055Y-65.6170

G1X25.9638Y-65.7755

G1X25.4961Y-66.0721

G1X24.6373Y-67.0262

G1X23.8974Y-68.4545

G1X23.3520Y-70.1778

G1X22.9585Y-72.3395

G1X22.7756Y-74.6717

G1X22.8010Y-77.1340

G1X23.0313Y-79.1533

G1X23.4372Y-80.7923

G1X24.0404Y-82.1978

G1X24.8669Y-83.4030

G1X25.9524Y-84.4556

G1X27.3432Y-85.4484

G1X33.0582Y-89.0485

G1X42.3916Y-95.6231

G1X46.0192Y-97.9173

G1X47.8284Y-98.8525

G1X49.3695Y-99.4797

G1X50.8700Y-99.8960

G1X52.1810Y-100.0678

G1X53.5485Y-100.0266

G1X54.8905Y-99.7509

G1X56.1269Y-99.2663

G1X57.3501Y-98.5383

G1X58.8556Y-97.2383

G1X60.2320Y-95.5540

G1X61.4476Y-93.5119

G1X62.4396Y-91.2364

G1X63.2182Y-88.7424

G1X63.7902Y-85.9767

G1X64.1222Y-83.0136

G1X64.2005Y-79.9843

G1X64.0663Y-77.2631

G1X63.7481Y-74.5204

G1X63.2395Y-71.6967

G1X62.5476Y-68.8375

G1X61.0960Y-64.2353

G1X57.5984Y-55.2832

G1X56.6185Y-52.1460

G1X56.3696Y-50.8559

G1X56.2630Y-49.6005

G1X56.3139Y-48.4760

G1X56.5299Y-47.3789

G1X56.8935Y-46.4019

G1X57.3508Y-45.5833

G1X57.9793Y-44.7667

G1X58.7877Y-43.9873

G1X59.6725Y-43.3404

G1X60.7243Y-42.7576

G1X61.8458Y-42.2999

G1X63.0996Y-41.9466

G1X64.4334Y-41.7322

G1X65.7820Y-41.6538

G1X67.1958Y-41.7070

G1X68.5554Y-41.8870

G1X69.8670Y-42.1924

G1X71.0318Y-42.5876

G1X72.1781Y-43.1138

G1X73.2303Y-43.7491

G1X74.4291Y-44.7197

G1X75.4616Y-45.8916

G1X76.2654Y-47.2226

G1X76.8172Y-48.6749

G1X77.1092Y-50.1709

G1X77.1655Y-51.7936

G1X76.9698Y-53.5190

G1X76.5330Y-55.2647

G1X75.8423Y-57.0823

G1X74.9628Y-58.8280

G1X73.8771Y-60.5703

G1X72.5308Y-62.3752

G1X70.9950Y-64.1318

G1X69.2920Y-65.8220

G1X67.3794Y-67.4856

G1X65.3453Y-69.0467

G1X61.7292Y-71.4166

G1X57.7754Y-73.5507

G1X53.5674Y-75.4113

G1X49.0332Y-77.0279

G1X44.0998Y-78.4040

G1X38.8903Y-79.4780

G1X33.5680Y-80.2013

G1X31.1767Y-80.3807

G1X29.4750Y-80.4017

G1X28.5327Y-80.3016

G1X27.9469Y-80.1063

G1X27.6164Y-79.8302

G1X27.4674Y-79.3680

G1X27.5947Y-78.5877

G1X28.7048Y-75.5617

G1X29.1826Y-73.7224

G1X29.3858Y-71.8537

G1X29.2386Y-70.1008

G1X28.8510Y-68.9065

G1X28.2830Y-68.0594

G1X27.9483Y-67.7742

G1X27.5666Y-67.5785

G1X27.2146Y-67.5002

G1X26.7352Y-67.5360

G1X25.9752Y-67.9268

G1X25.2327Y-68.7692

G1X24.5875Y-70.0455

G1X24.1195Y-71.5697

G1X23.7962Y-73.4152

G1X23.6490Y-75.4911

G1X23.6880Y-77.5368

G1X23.9194Y-79.3812

G1X24.3260Y-80.9112

G1X24.9534Y-82.2813

G1X25.7808Y-83.4199

G1X26.9088Y-84.4654

G1X28.3048Y-85.4340

G1X34.0617Y-89.0039

G1X42.1699Y-94.4598

G1X45.6827Y-96.5525

G1X47.4759Y-97.4191

G1X49.0308Y-98.0021

G1X50.4538Y-98.3592

G1X51.7900Y-98.5053

G1X53.1108Y-98.4383

G1X54.4112Y-98.1428

G1X55.6452Y-97.6280

G1X56.8606Y-96.8656

G1X58.2998Y-95.5701

G1X59.6369Y-93.8743

G1X60.7849Y-91.8768

G1X61.7159Y-89.6659

G1X62.4595Y-87.1798

G1X62.9733Y-84.5586

G1X63.2687Y-81.7450

G1X63.3325Y-78.9245

G1X63.2083Y-76.3710

G1X62.9099Y-73.7251

G1X62.4420Y-71.0471

G1X61.7768Y-68.2169

G1X60.4773Y-63.9574

G1X57.1515Y-55.1117

G1X56.2094Y-52.0040

G1X55.9528Y-50.5952

G1X55.8651Y-49.3615

G1X55.9312Y-48.2276

G1X56.1405Y-47.2146

G1X56.4529Y-46.3611

G1X56.9356Y-45.4799

G1X57.5589Y-44.6719

G1X58.3169Y-43.9428

G1X59.1628Y-43.3255

G1X60.1746Y-42.7685

G1X61.2359Y-42.3399

G1X62.3315Y-42.0334

G1X63.5613Y-41.8269

G1X64.7939Y-41.7505

G1X66.1361Y-41.7901

G1X67.3633Y-41.9389

G1X68.6617Y-42.2209

G1X69.8115Y-42.5912

G1X70.9263Y-43.0774

G1X71.9140Y-43.6356

G1X73.2056Y-44.6091

G1X74.2909Y-45.7494

G1X75.1694Y-47.0651

G1X75.7900Y-48.4675

G1X76.1769Y-49.9708

G1X76.3322Y-51.6453

G1X76.2298Y-53.4028

G1X75.8750Y-55.2070

G1X75.2961Y-56.9904

G1X74.4578Y-58.8600

G1X73.4081Y-60.6968

G1X72.1516Y-62.5078

G1X70.6695Y-64.3161

G1X69.0470Y-66.0248

G1X67.1759Y-67.7448

G1X65.1848Y-69.3530

G1X61.7262Y-71.7368

G1X57.8485Y-73.9392

G1X53.6559Y-75.8890

G1X49.2671Y-77.5429

G1X44.5050Y-78.9607

G1X39.5844Y-80.0736

G1X34.3543Y-80.8974

G1X31.9136Y-81.1456

G1X29.8499Y-81.2504

G1X28.8652Y-81.2112

G1X28.1064Y-81.0660

G1X27.6426Y-80.8234

G1X27.4133Y-80.4801

G1X27.3781Y-80.0419

G1X27.4952Y-79.4910

G1X28.5124Y-76.7542

G1X28.9319Y-75.3014

G1X29.1726Y-73.9424

G1X29.2335Y-72.6319

G1X29.0314Y-71.1552

G1X28.5800Y-70.0976

G1X28.2525Y-69.6983

G1X27.8842Y-69.4364

G1X27.4887Y-69.3180

G1X27.0796Y-69.3461

G1X26.4283Y-69.6963

G1X25.7752Y-70.4850

G1X25.2843Y-71.5030

G1X24.8865Y-72.8446

G1X24.6296Y-74.3894

G1X24.5172Y-76.2035

G1X24.5654Y-77.8954

G1X24.7752Y-79.4728

G1X25.1866Y-80.9662

G1X25.8121Y-82.2766

G1X26.6637Y-83.4022

G1X27.7726Y-84.3984

G1X29.0816Y-85.2947

G1X34.1700Y-88.3637

G1X41.4178Y-93.0006

G1X45.2571Y-95.1826

G1X46.9376Y-95.9510

G1X48.5283Y-96.5162

G1X50.0348Y-96.8644

G1X51.4225Y-96.9853

G1X52.7923Y-96.8765

G1X54.0341Y-96.5509

G1X55.2537Y-95.9951

G1X56.3623Y-95.2574

G1X57.7389Y-93.9702

G1X58.9291Y-92.4318

G1X59.9843Y-90.6000

G1X60.9197Y-88.3918

G1X61.6322Y-86.0189

G1X62.1283Y-83.5223

G1X62.4219Y-80.8321

G1X62.4965Y-78.0097

G1X62.3815Y-75.4979

G1X62.1049Y-72.9623

G1X61.6799Y-70.4384

G1X61.0769Y-67.7627

G1X59.8510Y-63.5674

G1X56.7550Y-54.9902

G1X55.8478Y-51.8596

G1X55.6162Y-50.5347

G1X55.5292Y-49.3338

G1X55.5796Y-48.2746

G1X55.7775Y-47.2310

G1X56.0920Y-46.3375

G1X56.5338Y-45.5084

G1X57.1005Y-44.7474

G1X57.7637Y-44.0806

G1X58.5896Y-43.4510

G1X59.4639Y-42.9467

G1X60.3967Y-42.5439

G1X61.4755Y-42.2146

G1X62.6645Y-41.9970

G1X63.8019Y-41.9085

G1X65.0671Y-41.9315

G1X66.2635Y-42.0610

G1X67.4775Y-42.3066

G1X68.5834Y-42.6397

G1X69.6433Y-43.0712

G1X70.6423Y-43.5982

G1X71.9695Y-44.5307

G1X73.1192Y-45.6503

G1X74.0659Y-46.9447

G1X74.7879Y-48.4001

G1X75.2657Y-49.9954

G1X75.4826Y-51.6262

G1X75.4576Y-53.3742

G1X75.1974Y-55.1242

G1X74.7103Y-56.9090

G1X73.9665Y-58.7933

G1X72.9872Y-60.6876

G1X71.8194Y-62.5186

G1X70.4651Y-64.3037

G1X68.8759Y-66.0988

G1X67.0716Y-67.8646

G1X65.1377Y-69.5211

G1X61.7548Y-71.9849

G1X57.9395Y-74.2699

G1X53.9303Y-76.2409

G1X49.5626Y-77.9880

G1X44.9390Y-79.4620

G1X39.9440Y-80.6829

G1X34.7931Y-81.5813

G1X32.3375Y-81.8766

G1X30.2597Y-82.0316

G1X29.0860Y-82.0292

G1X28.2571Y-81.9163

G1X27.6710Y-81.6604

G1X27.4166Y-81.3069

G1X27.3766Y-80.8975

G1X27.4769Y-80.3857

G1X28.4388Y-77.7856

G1X28.8518Y-76.3915

G1X29.0779Y-75.2100

G1X29.1624Y-74.0633

G1X29.0380Y-72.7343

G1X28.6871Y-71.7578

G1X28.4213Y-71.3866

G1X28.1177Y-71.1405

G1X27.7883Y-71.0251

G1X27.4454Y-71.0431

G1X26.9311Y-71.3202

G1X26.3988Y-71.9682

G1X25.9483Y-72.9459

G1X25.6346Y-74.1049

G1X25.4426Y-75.4401

G1X25.3793Y-76.9263

G1X25.4564Y-78.4598

G1X25.6571Y-79.7271

G1X26.0959Y-81.1605

G1X26.7051Y-82.3338

G1X27.5433Y-83.3818

G1X28.7168Y-84.3876

G1X30.2002Y-85.3574

G1X40.9283Y-91.7613

G1X43.1306Y-93.0011

G1X45.0199Y-93.9464

G1X46.7440Y-94.6655

G1X48.3282Y-95.1624

G1X49.7758Y-95.4393

G1X51.1098Y-95.5092

G1X52.4259Y-95.3666

G1X53.6172Y-95.0227

G1X54.8320Y-94.4306

G1X55.9282Y-93.6560

G1X57.1967Y-92.4158

G1X58.3793Y-90.8272

G1X59.4089Y-88.9537

G1X60.2251Y-86.9445

G1X60.8880Y-84.6695

G1X61.3469Y-82.2945

G1X61.6164Y-79.7882

G1X61.6927Y-77.1602

G1X61.5995Y-74.8056

G1X61.3537Y-72.3591

G1X60.9584Y-69.8711

G1X60.4086Y-67.3072

G1X59.2760Y-63.2490

G1X56.3685Y-54.7805

G1X55.5541Y-51.8161

G1X55.3308Y-50.4782

G1X55.2523Y-49.2549

G1X55.3102Y-48.2085

G1X55.5113Y-47.1779

G1X55.8179Y-46.3159

G1X56.2442Y-45.5179

G1X56.7878Y-44.7880

G1X57.3676Y-44.1989

G1X58.1556Y-43.5882

G1X58.9531Y-43.1212

G1X59.8344Y-42.7332

G1X60.8347Y-42.4226

G1X61.8716Y-42.2236

G1X63.0309Y-42.1274

G1X65.2746Y-42.2549

G1X66.3867Y-42.4664

G1X67.4716Y-42.7766

G1X69.4282Y-43.6390

G1X70.8536Y-44.5894

G1X72.0292Y-45.6799

G1X73.0160Y-46.9491

G1X73.7908Y-48.3836

G1X74.3203Y-49.9168

G1X74.6189Y-51.5933

G1X74.6668Y-53.3968

G1X74.4657Y-55.2093

G1X74.0423Y-57.0057

G1X73.3711Y-58.8932

G1X72.4509Y-60.8251

G1X71.3151Y-62.7260

G1X69.9463Y-64.6248

G1X68.4363Y-66.4078

G1X66.7451Y-68.1392

G1X64.8536Y-69.8330

G1X61.6406Y-72.2799

G1X58.0366Y-74.5470

G1X54.0348Y-76.6192

G1X49.8889Y-78.3739

G1X45.3039Y-79.9328

G1X40.6360Y-81.1715

G1X35.7140Y-82.1417

G1X31.0020Y-82.7342

G1X29.4956Y-82.7938

G1X28.5021Y-82.7078

G1X27.8639Y-82.4919

G1X27.5185Y-82.0930

G1X27.4733Y-81.6640

G1X27.5609Y-81.1993

G1X28.4874Y-78.6524

G1X28.8671Y-77.3703

G1X29.1619Y-75.4033

G1X29.0992Y-74.1969

G1X28.8412Y-73.3134

G1X28.3876Y-72.7336

G1X28.1196Y-72.6185

G1X27.8387Y-72.6241

G1X27.3703Y-72.9008

G1X26.9731Y-73.4392

G1X26.6519Y-74.1884

G1X26.4102Y-75.1452

G1X26.2670Y-76.2786

G1X26.2352Y-77.4542

G1X26.3107Y-78.6959

G1X26.4843Y-79.7593

G1X26.9068Y-81.1221

G1X27.5576Y-82.3325

G1X28.4430Y-83.3792

G1X29.5702Y-84.3027

G1X31.3078Y-85.3913

G1X40.3418Y-90.5205

G1X42.7578Y-91.8049

G1X44.7875Y-92.7488

G1X46.4620Y-93.3860

G1X48.0489Y-93.8273

G1X49.4365Y-94.0471

G1X50.8139Y-94.0757

G1X52.0755Y-93.9013

G1X53.3098Y-93.5021

G1X54.4157Y-92.9195

G1X55.4923Y-92.1166

G1X56.6643Y-90.9218

G1X57.7862Y-89.3690

G1X58.7153Y-87.6486

G1X59.5082Y-85.6797

G1X60.1370Y-83.5073

G1X60.5778Y-81.2301

G1X60.8429Y-78.8020

G1X60.9237Y-76.2605

G1X60.8395Y-73.9371

G1X60.6262Y-71.6900

G1X60.2575Y-69.2438

G1X59.7661Y-66.8337

G1X58.7687Y-63.0440

G1X56.1409Y-54.9608

G1X55.2968Y-51.7337

G1X55.0965Y-50.4014

G1X55.0361Y-49.2731

G1X55.0929Y-48.2688

G1X55.2831Y-47.2679

G1X55.5527Y-46.4769

G1X55.9300Y-45.7287

G1X56.4106Y-45.0412

G1X56.9917Y-44.4194

G1X57.6557Y-43.8780

G1X58.3631Y-43.4341

G1X59.2021Y-43.0381

G1X60.0888Y-42.7386

G1X61.0873Y-42.5219

G1X62.0024Y-42.4213

G1X64.1745Y-42.4892

G1X66.2388Y-42.9232

G1X68.1989Y-43.7177

G1X69.5504Y-44.5454

G1X70.7633Y-45.5643

G1X71.8086Y-46.7647

G1X72.6671Y-48.1460

G1X73.2725Y-49.5787

G1X73.6792Y-51.1716

G1X73.8548Y-52.7961

G1X73.8116Y-54.5382

G1X73.5535Y-56.2802

G1X73.0715Y-58.0994

G1X72.3872Y-59.9064

G1X71.4784Y-61.7559

G1X70.3711Y-63.5846

G1X69.0557Y-65.4053

G1X67.6055Y-67.1273

G1X65.9275Y-68.8597

G1X64.1439Y-70.4758

G1X62.1912Y-72.0400

G1X60.1279Y-73.5073

G1X57.9615Y-74.8787

G1X55.6229Y-76.1952

G1X53.2236Y-77.3937

G1X50.6996Y-78.5099

G1X48.1092Y-79.5193

G1X44.7946Y-80.6317

G1X41.4712Y-81.5673

G1X38.1667Y-82.3343

G1X34.7076Y-82.9716

G1X31.5512Y-83.3919

G1X29.4706Y-83.4924

G1X28.2529Y-83.3002

G1X27.8819Y-83.0762

G1X27.6974Y-82.7744

G1X27.6594Y-82.4357

G1X27.7258Y-82.0052

G1X28.8500Y-78.7251

G1X29.0957Y-77.6965

G1X29.2333Y-76.6903

G1X29.2370Y-75.6882

G1X29.0813Y-74.8584

G1X28.7976Y-74.3120

G1X28.5959Y-74.1411

G1X28.3775Y-74.0779

G1X28.0396Y-74.1864

G1X27.6832Y-74.5862

G1X27.4055Y-75.1953

G1X27.1943Y-76.0500

G1X27.0904Y-77.0129

G1X27.0870Y-78.0671

G1X27.1906Y-79.1884

G1X27.3876Y-80.1440

G1X27.9066Y-81.5110

G1X28.6949Y-82.6999

G1X29.7073Y-83.6815

G1X31.1894Y-84.6986

G1X38.7161Y-88.7906

G1X41.8929Y-90.4214

G1X44.7594Y-91.6682

G1X47.1044Y-92.3958

G1X48.3368Y-92.6262

G1X49.5666Y-92.7225

G1X50.6853Y-92.6717

G1X51.6896Y-92.4934

G1X52.6757Y-92.1727

G1X53.6295Y-91.6991

G1X54.4895Y-91.1162

G1X55.3455Y-90.3671

G1X56.4474Y-89.1021

G1X57.3982Y-87.6538

G1X58.2263Y-86.0007

G1X58.9363Y-84.1149

G1X59.4954Y-82.0574

G1X59.8826Y-79.9371

G1X60.1239Y-77.5790

G1X60.1913Y-75.2234

G1X60.1187Y-73.1032

G1X59.9191Y-70.8853

G1X59.6032Y-68.6700

G1X59.1437Y-66.2854

G1X58.0456Y-61.9762

G1X55.7139Y-54.3490

G1X55.1218Y-51.8399

G1X54.9364Y-50.5486

G1X54.8767Y-49.4075

G1X54.9364Y-48.3722

G1X55.1056Y-47.4574

G1X55.3606Y-46.6743

G1X55.7124Y-45.9485

G1X56.6302Y-44.7541

G1X57.2541Y-44.2126

G1X57.9369Y-43.7621

G1X59.5060Y-43.0946

G1X61.2554Y-42.7730

G1X63.2580Y-42.8062

G1X65.2447Y-43.1949

G1X67.0665Y-43.8920

G1X68.4947Y-44.7237

G1X69.7082Y-45.7003

G1X70.7704Y-46.8588

G1X71.6398Y-48.1608

G1X72.3312Y-49.6514

G1X72.7766Y-51.1682

G1X73.0196Y-52.8209

G1X73.0399Y-54.5833

G1X72.8410Y-56.3441

G1X72.4326Y-58.1313

G1X71.8086Y-59.9640

G1X70.9689Y-61.8219

G1X69.9307Y-63.6627

G1X68.6738Y-65.5141

G1X67.2741Y-67.2701

G1X65.6755Y-69.0078

G1X63.9634Y-70.6387

G1X62.0807Y-72.2230

G1X60.0369Y-73.7468

G1X57.9718Y-75.1168

G1X55.7117Y-76.4535

G1X53.4026Y-77.6692

G1X50.9295Y-78.8251

G1X48.2796Y-79.9160

G1X45.1842Y-81.0191

G1X41.8858Y-82.0141

G1X38.4499Y-82.8731

G1X35.1161Y-83.5413

G1X31.9677Y-84.0110

G1X29.9066Y-84.1483

G1X29.1360Y-84.1010

G1X28.5406Y-83.9636

G1X28.1809Y-83.7541

G1X27.9918Y-83.4728

G1X27.9434Y-83.0535

G1X28.0236Y-82.5894

G1X29.0307Y-79.5911

G1X29.3964Y-77.7275

G1X29.4200Y-76.8391

G1X29.3111Y-76.1019

G1X29.0583Y-75.5776

G1X28.7293Y-75.4305

G1X28.3922Y-75.6678

G1X28.1513Y-76.1438

G1X27.9693Y-76.9275

G1X27.9067Y-77.8411

G1X27.9616Y-78.9139

G1X28.1053Y-79.8112

G1X28.3470Y-80.6585

G1X28.6841Y-81.4364

G1X29.4233Y-82.5393

G1X30.4612Y-83.5296

G1X31.8282Y-84.4487

G1X34.0230Y-85.6334

G1X39.4885Y-88.3824

G1X42.4642Y-89.7504

G1X45.1106Y-90.7316

G1X47.3922Y-91.2744

G1X48.5665Y-91.4009

G1X49.6305Y-91.4025

G1X50.6855Y-91.2790

G1X51.6133Y-91.0498

G1X52.5485Y-90.6824

G1X53.3673Y-90.2231

G1X54.2062Y-89.6024

G1X54.9682Y-88.8873

G1X55.9698Y-87.6814

G1X56.9087Y-86.1893

G1X57.6959Y-84.5419

G1X58.3267Y-82.7959

G1X58.8337Y-80.8800

G1X59.1994Y-78.8484

G1X59.4209Y-76.7320

G1X59.5005Y-74.4513

G1X59.4454Y-72.3944

G1X59.2673Y-70.2149

G1X58.9744Y-68.0236

G1X58.5861Y-65.8718

G1X57.6625Y-61.9558

G1X55.5168Y-54.3804

G1X54.9882Y-51.9599

G1X54.7729Y-49.6365

G1X54.8302Y-48.5962

G1X54.9946Y-47.6773

G1X55.5305Y-46.2794

G1X56.3925Y-45.0980

G1X57.4999Y-44.2031

G1X58.9253Y-43.5393

G1X60.5451Y-43.1949

G1X62.2930Y-43.1797

G1X64.1168Y-43.4812

G1X65.9058Y-44.1001

G1X67.3334Y-44.8687

G1X68.6273Y-45.8440

G1X69.7693Y-47.0257

G1X70.6734Y-48.3106

G1X71.4042Y-49.7840

G1X71.8993Y-51.3173

G1X72.1839Y-52.9391

G1X72.2577Y-54.6194

G1X72.1208Y-56.3813

G1X71.7762Y-58.1698

G1X71.2116Y-60.0249

G1X70.4218Y-61.9227

G1X69.4366Y-63.7887

G1X68.2990Y-65.5697

G1X66.9587Y-67.3527

G1X65.4203Y-69.1173

G1X63.7654Y-70.7752

G1X61.9548Y-72.3745

G1X60.0192Y-73.8906

G1X57.9350Y-75.3423

G1X55.7942Y-76.6714

G1X53.4144Y-77.9857

G1X50.9821Y-79.1757

G1X48.3682Y-80.3042

G1X45.3041Y-81.4527

G1X42.1754Y-82.4524

G1X38.7449Y-83.3684

G1X35.4497Y-84.0817

G1X32.4186Y-84.5800

G1X30.3115Y-84.7465

G1X29.4983Y-84.7034

G1X28.9460Y-84.5815

G1X28.5773Y-84.3809

G1X28.3811Y-84.1196

G1X28.3111Y-83.7639

G1X28.3898Y-83.1860

G1X29.3082Y-80.3495

G1X29.6385Y-78.7348

G1X29.6353Y-77.3317

G1X29.4680Y-76.8261

G1X29.2353Y-76.6546

G1X29.1132Y-76.6972

G1X28.9435Y-76.9172

G1X28.7519Y-77.6672

G1X28.7366Y-78.6652

G1X28.8862Y-79.7820

G1X29.1447Y-80.6804

G1X29.4759Y-81.4105

G1X29.9017Y-82.0771

G1X30.4975Y-82.7596

G1X31.6283Y-83.6734

G1X33.1822Y-84.5884

G1X36.8791Y-86.3866

G1X40.6562Y-88.1012

G1X43.1123Y-89.0704

G1X45.2763Y-89.7324

G1X47.1920Y-90.0914

G1X48.9160Y-90.1624

G1X50.5244Y-89.9480

G1X51.9962Y-89.4422

G1X53.3588Y-88.6141

G1X54.5892Y-87.4795

G1X55.5003Y-86.3358

G1X56.3288Y-84.9917

G1X57.0682Y-83.4391

G1X57.6881Y-81.7270

G1X58.1853Y-79.8550

G1X58.5344Y-77.9474

G1X58.7649Y-75.8244

G1X58.8504Y-73.7170

G1X58.6826Y-69.8255

G1X58.0964Y-65.6198

G1X57.2385Y-61.6592

G1X55.4010Y-54.6177

G1X54.8949Y-52.0765

G1X54.7201Y-49.9008

G1X54.7708Y-48.9379

G1X54.9319Y-47.9901

G1X55.4298Y-46.6359

G1X56.1623Y-45.5690

G1X57.2362Y-44.6475

G1X58.5339Y-44.0130

G1X60.0123Y-43.6735

G1X61.5185Y-43.6349

G1X63.2629Y-43.8936

G1X64.8826Y-44.4196

G1X66.3443Y-45.1661

G1X67.6159Y-46.0837

G1X68.7419Y-47.1899

G1X69.7184Y-48.5024

G1X70.4537Y-49.8852

G1X71.0051Y-51.4237

G1X71.3495Y-53.1036

G1X71.4673Y-54.7997

G1X71.3699Y-56.6015

G1X71.0662Y-58.3903

G1X70.5447Y-60.2498

G1X69.8393Y-62.0658

G1X68.9213Y-63.9183

G1X67.8497Y-65.6944

G1X66.5702Y-67.4873

G1X65.1011Y-69.2562

G1X63.4737Y-70.9615

G1X61.7370Y-72.5633

G1X59.8506Y-74.1054

G1X57.8185Y-75.5816

G1X55.6123Y-77.0059

G1X53.3387Y-78.3102

G1X50.9477Y-79.5290

G1X48.5456Y-80.6159

G1X45.5367Y-81.8067

G1X42.4601Y-82.8499

G1X39.2697Y-83.7636

G1X35.9132Y-84.5530

G1X33.0031Y-85.0828

G1X30.9307Y-85.2836

G1X29.5316Y-85.1677

G1X29.1476Y-85.0076

G1X28.8633Y-84.7102

G1X28.7676Y-84.2576

G1X28.8365Y-83.7377

G1X29.6741Y-81.0238

G1X29.9791Y-79.5448

G1X30.0081Y-78.3010

G1X29.9318Y-77.9579

G1X29.7861Y-77.7593

G1X29.6382Y-77.8606

G1X29.5793Y-78.0193

G1X29.5205Y-78.6441

G1X29.6255Y-79.6175

G1X29.8558Y-80.5049

G1X30.5004Y-81.7704

G1X30.9534Y-82.3339

G1X31.5715Y-82.9178

G1X32.8779Y-83.8091

G1X34.7888Y-84.7827

G1X38.8994Y-86.5811

G1X42.1253Y-87.8271

G1X44.2272Y-88.4686

G1X45.9919Y-88.8367

G1X47.6804Y-88.9881

G1X49.1597Y-88.9084

G1X50.6219Y-88.5829

G1X51.8623Y-88.0619

G1X53.0156Y-87.2996

G1X54.1443Y-86.2215

G1X55.0381Y-85.0706

G1X55.7950Y-83.8188

G1X56.5100Y-82.3006

G1X57.0826Y-80.7152

G1X57.5501Y-78.9856

G1X57.9029Y-77.1297

G1X58.1341Y-75.1686

G1X58.2408Y-73.1264

G1X58.1290Y-69.3702

G1X57.6433Y-65.3943

G1X56.9460Y-61.7886

G1X55.2882Y-54.7468

G1X54.8701Y-52.4235

G1X54.7157Y-50.1539

G1X54.9241Y-48.3542

G1X55.3612Y-47.1074

G1X56.0420Y-46.0554

G1X56.9668Y-45.2068

G1X58.1320Y-44.5838

G1X59.4648Y-44.2333

G1X60.9265Y-44.1650

G1X62.4481Y-44.3697

G1X64.0007Y-44.8440

G1X65.4122Y-45.5348

G1X66.6832Y-46.4197

G1X67.8031Y-47.4823

G1X68.7988Y-48.7689

G1X69.5921Y-50.2042

G1X70.1660Y-51.7406

G1X70.5195Y-53.3191

G1X70.6754Y-55.0204

G1X70.6257Y-56.7280

G1X70.3707Y-58.5248

G1X69.8993Y-60.3918

G1X69.2441Y-62.2124

G1X68.3835Y-64.0607

G1X67.3134Y-65.9248

G1X66.0984Y-67.7008

G1X64.6951Y-69.4610

G1X63.1125Y-71.1860

G1X61.4263Y-72.8008

G1X59.5385Y-74.3990

G1X57.6090Y-75.8504

G1X55.5123Y-77.2571

G1X53.3521Y-78.5504

G1X51.0110Y-79.7994

G1X48.5398Y-80.9683

G1X45.5742Y-82.1940

G1X42.4623Y-83.2979

G1X39.2115Y-84.2702

G1X35.9773Y-85.0662

G1X33.2663Y-85.5813

G1X31.2750Y-85.7650

G1X30.0136Y-85.6332

G1X29.5800Y-85.4078

G1X29.3854Y-85.1456

G1X29.3071Y-84.7027

G1X29.3628Y-84.2392

G1X30.1172Y-81.6500

G1X30.3911Y-80.3786

G1X30.4769Y-79.3136

G1X30.4204Y-78.8266

G1X30.3473Y-78.7311

G1X30.2957Y-79.0661

G1X30.4033Y-79.7912

G1X30.6383Y-80.5812

G1X30.9135Y-81.1737

G1X31.6607Y-82.1860

G1X32.8171Y-83.1348

G1X34.4898Y-84.0516

G1X37.1894Y-85.2046

G1X40.6002Y-86.4861

G1X43.2162Y-87.2891

G1X45.0348Y-87.6802

G1X46.5735Y-87.8550

G1X48.0513Y-87.8469

G1X49.3484Y-87.6589

G1X50.6273Y-87.2674

G1X51.8190Y-86.6699

G1X52.8983Y-85.8613

G1X53.8463Y-84.8781

G1X54.6501Y-83.7915

G1X55.3799Y-82.5358

G1X56.0252Y-81.1206

G1X56.5759Y-79.5580

G1X57.0228Y-77.8632

G1X57.3433Y-76.1567

G1X57.5618Y-74.3546

G1X57.6776Y-72.3983

G1X57.6170Y-68.9512

G1X57.2294Y-65.2008

G1X56.6215Y-61.6468

G1X55.2473Y-55.1048

G1X54.8631Y-52.6673

G1X54.7531Y-50.5551

G1X54.9656Y-48.7727

G1X55.3598Y-47.6149

G1X55.9872Y-46.5990

G1X56.8383Y-45.7811

G1X57.8068Y-45.2247

G1X59.0002Y-44.8649

G1X60.2170Y-44.7630

G1X61.6767Y-44.9133

G1X63.0865Y-45.3051

G1X64.5349Y-45.9749

G1X65.8144Y-46.8384

G1X66.9705Y-47.9151

G1X67.9200Y-49.1160

G1X68.7076Y-50.4850

G1X69.3128Y-52.0137

G1X69.6975Y-53.5891

G1X69.8853Y-55.2817

G1X69.8690Y-56.9779

G1X69.6516Y-58.7629

G1X69.2226Y-60.6175

G1X68.6124Y-62.4270

G1X67.7984Y-64.2716

G1X66.8314Y-66.0450

G1X65.6754Y-67.8220

G1X64.3332Y-69.5860

G1X62.8319Y-71.2974

G1X61.2472Y-72.8855

G1X59.4723Y-74.4616

G1X57.5530Y-75.9752

G1X55.5748Y-77.3669

G1X53.4153Y-78.7236

G1X51.1648Y-79.9839

G1X48.6866Y-81.2158

G1X45.7478Y-82.4922

G1X42.6759Y-83.6399

G1X39.5656Y-84.6264

G1X36.4684Y-85.4428

G1X33.8686Y-85.9751

G1X31.9898Y-86.1742

G1X30.6842Y-86.0638

G1X30.2487Y-85.8583

G1X30.0391Y-85.6176

G1X29.9285Y-85.2103

G1X29.9600Y-84.7187

G1X30.8253Y-81.4292

G1X30.9864Y-80.4530

G1X31.0284Y-79.5736

G1X31.4373Y-80.7448

G1X32.0438Y-81.7033

G1X32.8968Y-82.5168

G1X33.9764Y-83.2094

G1X35.9239Y-84.1016

G1X38.9107Y-85.1949

G1X41.5938Y-86.0279

G1X43.9048Y-86.5649

G1X45.4306Y-86.7748

G1X46.8868Y-86.8279

G1X48.1452Y-86.7261

G1X49.3990Y-86.4558

G1X50.5307Y-86.0323

G1X51.6212Y-85.4230

G1X52.5531Y-84.6883

G1X53.4847Y-83.6927

G1X54.2697Y-82.5981

G1X54.9304Y-81.4345

G1X55.5215Y-80.1288

G1X56.0335Y-78.6906

G1X56.4581Y-77.1325

G1X56.7764Y-75.5430

G1X57.0130Y-73.7923

G1X57.1501Y-71.9500

G1X57.1473Y-68.5706

G1X56.8523Y-65.0398

G1X56.3700Y-61.7382

G1X55.1922Y-55.2604

G1X54.9006Y-53.0534

G1X54.8305Y-50.9254

G1X55.0551Y-49.2311

G1X55.4227Y-48.1507

G1X56.0218Y-47.1620

G1X56.7498Y-46.4363

G1X57.6459Y-45.8929

G1X58.7085Y-45.5501

G1X59.8840Y-45.4385

G1X61.1389Y-45.5636

G1X62.4300Y-45.9129

G1X63.7782Y-46.5237

G1X65.0795Y-47.3938

G1X66.2262Y-48.4651

G1X67.1367Y-49.6189

G1X67.9225Y-50.9813

G1X68.5275Y-52.5024

G1X68.9137Y-54.0653

G1X69.1052Y-55.7015

G1X69.1041Y-57.3798

G1X68.9079Y-59.1449

G1X68.5068Y-60.9781

G1X67.9309Y-62.7628

G1X67.1585Y-64.5821

G1X66.2423Y-66.3247

G1X65.0916Y-68.1507

G1X63.8197Y-69.8721

G1X62.3823Y-71.5618

G1X60.8260Y-73.1694

G1X59.0732Y-74.7708

G1X57.2417Y-76.2579

G1X55.2913Y-77.6721

G1X53.1746Y-79.0428

G1X50.9548Y-80.3250

G1X48.6126Y-81.5297

G1X45.7241Y-82.8333

G1X42.6992Y-84.0101

G1X39.6388Y-85.0229

G1X36.5492Y-85.8709

G1X34.2285Y-86.3500

G1X32.3975Y-86.5209

G1X31.7380Y-86.4822

G1X31.2191Y-86.3531

G1X30.9130Y-86.1718

G1X30.7044Y-85.8891

G1X30.6172Y-85.4287

G1X30.6838Y-84.8154

G1X31.7894Y-80.2838

G1X32.5361Y-81.3745

G1X33.1916Y-82.0516

G1X34.1540Y-82.7203

G1X35.3175Y-83.2957

G1X37.4475Y-84.0898

G1X40.2843Y-84.9457

G1X42.5557Y-85.4840

G1X44.4306Y-85.7732

G1X45.8394Y-85.8572

G1X47.1647Y-85.8001

G1X48.3736Y-85.6023

G1X49.4530Y-85.2822

G1X50.5146Y-84.8056

G1X51.4807Y-84.1997

G1X52.3680Y-83.4419

G1X53.1411Y-82.5764

G1X53.8571Y-81.5611

G1X54.5081Y-80.4035

G1X55.0484Y-79.2079

G1X55.5487Y-77.8168

G1X55.9710Y-76.2930

G1X56.2841Y-74.7763

G1X56.6680Y-71.4421

G1X56.7216Y-68.3312

G1X56.5227Y-65.0161

G1X56.1334Y-61.7644

G1X55.1967Y-55.6514

G1X54.9623Y-53.4367

G1X54.9383Y-51.4254

G1X55.1654Y-49.8143

G1X55.5349Y-48.7305

G1X56.0412Y-47.8697

G1X56.7139Y-47.1607

G1X57.5208Y-46.6416

G1X58.4791Y-46.3077

G1X59.5177Y-46.1885

G1X60.6343Y-46.2804

G1X61.7360Y-46.5592

G1X63.0729Y-47.1413

G1X64.3125Y-47.9545

G1X65.3859Y-48.9339

G1X66.3299Y-50.1027

G1X67.1186Y-51.4463

G1X67.7005Y-52.8615

G1X68.1077Y-54.4057

G1X68.3260Y-56.0692

G1X68.3463Y-57.7329

G1X68.1765Y-59.4751

G1X67.8079Y-61.2833

G1X67.2706Y-63.0398

G1X66.5446Y-64.8299

G1X65.6795Y-66.5454

G1X64.6417Y-68.2657

G1X63.4128Y-70.0033

G1X62.0531Y-71.6697

G1X60.5325Y-73.3047

G1X58.8918Y-74.8652

G1X57.0690Y-76.4056

G1X55.1598Y-77.8437

G1X53.1030Y-79.2279

G1X50.9142Y-80.5426

G1X48.7229Y-81.7185

G1X45.9855Y-83.0159

G1X43.0238Y-84.2313

G1X40.1063Y-85.2557

G1X37.2473Y-86.0960

G1X34.9308Y-86.6076

G1X33.2029Y-86.7871

G1X32.0541Y-86.6467

G1X31.7401Y-86.4836

G1X31.5108Y-86.2264

G1X31.3785Y-85.7000

G1X31.4696Y-84.8709

G1X32.3547Y-81.3308

G1X32.5819Y-80.8724

G1X32.8456Y-80.9731

G1X33.6282Y-81.7439

G1X34.4718Y-82.3345

G1X35.4228Y-82.8114

G1X36.7563Y-83.3155

G1X38.9552Y-83.9624

G1X41.2026Y-84.4887

G1X43.1000Y-84.8081

G1X44.8603Y-84.9537

G1X46.0860Y-84.9385

G1X47.3314Y-84.7963

G1X48.3738Y-84.5573

G1X49.4095Y-84.1876

G1X50.4158Y-83.6742

G1X51.3553Y-83.0254

G1X52.1120Y-82.3422

G1X52.8704Y-81.4609

G1X53.5129Y-80.5241

G1X54.1049Y-79.4611

G1X54.6498Y-78.2508

G1X55.1153Y-76.9595

G1X55.8151Y-74.1664

G1X56.2283Y-70.9830

G1X56.3325Y-68.0397

G1X56.2165Y-64.9302

G1X55.9514Y-62.0326

G1X55.2239Y-56.1044

G1X55.0586Y-54.0749

G1X55.0601Y-52.1486

G1X55.2860Y-50.5418

G1X55.6102Y-49.5357

G1X56.0723Y-48.6872

G1X56.6778Y-47.9950

G1X57.4240Y-47.4731

G1X58.3021Y-47.1385

G1X59.2073Y-47.0125

G1X60.1677Y-47.0705

G1X61.1972Y-47.3138

G1X62.4189Y-47.8315

G1X63.5755Y-48.5741

G1X64.6574Y-49.5488

G1X65.5927Y-50.7044

G1X66.3263Y-51.9435

G1X66.9283Y-53.3851

G1X67.3362Y-54.9103

G1X67.5589Y-56.5512

G1X67.5883Y-58.1865

G1X67.4337Y-59.9026

G1X67.1110Y-61.5834

G1X66.5965Y-63.3536

G1X65.9137Y-65.1074

G1X65.0994Y-66.7853

G1X64.0675Y-68.5532

G1X62.9201Y-70.2263

G1X61.5690Y-71.9324

G1X60.1448Y-73.5096

G1X58.5350Y-75.0880

G1X56.8245Y-76.5803

G1X54.9522Y-78.0388

G1X53.0198Y-79.3865

G1X50.9685Y-80.6696

G1X48.8269Y-81.8703

G1X46.2109Y-83.1698

G1X43.4453Y-84.3667

G1X40.6668Y-85.4039

G1X37.9352Y-86.2616

G1X35.8055Y-86.7661

G1X34.1973Y-86.9680

G1X33.0942Y-86.8964

G1X32.6404Y-86.7154

G1X32.3919Y-86.4831

G1X32.2679Y-86.2370

G1X32.2012Y-85.8002

G1X32.3345Y-84.7633

G1X33.1006Y-81.8921

G1X33.3248Y-81.4354

G1X33.5053Y-81.3164

G1X33.8754Y-81.4150

G1X34.8415Y-82.0272

G1X35.9044Y-82.5192

G1X38.5029Y-83.2980

G1X40.4337Y-83.7064

G1X42.2839Y-83.9916

G1X43.9078Y-84.1271

G1X45.2959Y-84.1263

G1X46.3936Y-84.0274

G1X47.5058Y-83.8168

G1X48.4815Y-83.5214

G1X49.4499Y-83.1050

G1X50.3063Y-82.6129

G1X51.1600Y-81.9822

G1X51.9471Y-81.2314

G1X52.6215Y-80.4123

G1X53.7749Y-78.5018

G1X54.7147Y-76.1804

G1X55.3861Y-73.6107

G1X55.8196Y-70.6757

G1X55.9802Y-67.9472

G1X55.9488Y-64.9664

G1X55.1608Y-54.5603

G1X55.2139Y-52.7155

G1X55.4613Y-51.1938

G1X55.7630Y-50.2874

G1X56.1975Y-49.4829

G1X56.7583Y-48.8287

G1X57.3611Y-48.3837

G1X58.0571Y-48.0779

G1X58.9410Y-47.9151

G1X59.8903Y-47.9568

G1X60.8071Y-48.1749

G1X61.9974Y-48.6933

G1X63.1136Y-49.4431

G1X64.1188Y-50.3943

G1X64.9513Y-51.4647

G1X65.6542Y-52.6932

G1X66.2083Y-54.0651

G1X66.5970Y-55.5647

G1X66.8065Y-57.1747

G1X66.8295Y-58.8027

G1X66.6890Y-60.3780

G1X66.3614Y-62.1161

G1X65.8796Y-63.7989

G1X65.2271Y-65.5109

G1X64.4523Y-67.1439

G1X63.4788Y-68.8539

G1X62.4052Y-70.4638

G1X61.1440Y-72.1069

G1X59.7369Y-73.7145

G1X58.2346Y-75.2347

G1X56.5625Y-76.7425

G1X54.8119Y-78.1543

G1X52.9238Y-79.5204

G1X50.9362Y-80.8110

G1X48.8352Y-82.0348

G1X46.2814Y-83.3538

G1X43.6678Y-84.5338

G1X41.0735Y-85.5498

G1X38.4990Y-86.3984

G1X36.4510Y-86.8941

G1X34.8837Y-87.0776

G1X33.8150Y-86.9527

G1X33.5199Y-86.8092

G1X33.2604Y-86.5480

G1X33.1145Y-86.1743

G1X33.0825Y-85.7350

G1X33.2720Y-84.5108

G1X33.8985Y-82.3445

G1X34.1693Y-81.8449

G1X34.3838Y-81.6720

G1X34.7996Y-81.6606

G1X36.2993Y-82.2324

G1X37.6421Y-82.6143

G1X40.3637Y-83.1287

G1X43.2538Y-83.3974

G1X45.6845Y-83.2989

G1X46.7132Y-83.1243

G1X47.7535Y-82.8429

G1X49.5020Y-82.0641

G1X50.3872Y-81.4827

G1X51.1225Y-80.8763

G1X52.3794Y-79.4542

G1X53.4813Y-77.5997

G1X54.3525Y-75.4609

G1X55.0183Y-73.0085

G1X55.4589Y-70.3171

G1X55.6629Y-67.7951

G1X55.7079Y-65.0215

G1X55.2768Y-55.1984

G1X55.3755Y-53.4015

G1X55.6289Y-51.9975

G1X55.8990Y-51.1854

G1X56.3063Y-50.4029

G1X56.8267Y-49.7677

G1X57.4161Y-49.3169

G1X58.0987Y-49.0179

G1X58.8121Y-48.8868

G1X59.6324Y-48.9157

G1X60.4581Y-49.1087

G1X61.5254Y-49.5772

G1X62.6109Y-50.3233

G1X63.5167Y-51.2037

G1X64.3436Y-52.3003

G1X65.0106Y-53.5191

G1X65.5289Y-54.8747

G1X65.8848Y-56.3502

G1X66.0602Y-57.8130

G1X66.0782Y-59.3780

G1X65.9422Y-60.9101

G1X65.6282Y-62.6017

G1X65.1771Y-64.2110

G1X64.5619Y-65.8668

G1X63.7885Y-67.5334

G1X62.8805Y-69.1627

G1X61.8110Y-70.8013

G1X60.5685Y-72.4500

G1X59.2414Y-73.9962

G1X57.7683Y-75.5188

G1X56.2056Y-76.9611

G1X54.4947Y-78.3769

G1X52.6759Y-79.7283

G1X50.7980Y-80.9841

G1X48.7527Y-82.2141

G1X46.3455Y-83.5012

G1X43.8852Y-84.6570

G1X41.4103Y-85.6675

G1X39.1366Y-86.4460

G1X37.2386Y-86.9199

G1X35.7789Y-87.0945

G1X34.7350Y-86.9621

G1X34.4606Y-86.8224

G1X34.1892Y-86.5367

G1X34.0519Y-86.1761

G1X34.0179Y-85.6103

G1X34.3056Y-84.0354

G1X34.8411Y-82.4853

G1X35.1643Y-82.0304

G1X35.4252Y-81.8691

G1X35.9203Y-81.8469

G1X39.2124Y-82.4822

G1X41.6448Y-82.7218

G1X43.9678Y-82.7370

G1X46.0222Y-82.4862

G1X47.9038Y-81.9307

G1X49.5435Y-81.0832

G1X50.9503Y-79.9717

G1X52.1640Y-78.5633

G1X53.1766Y-76.8530

G1X53.9928Y-74.9043

G1X54.6426Y-72.6721

G1X55.1217Y-70.1146

G1X55.3793Y-67.6934

G1X55.4940Y-65.1243

G1X55.3984Y-55.8475

G1X55.5297Y-54.2416

G1X55.8113Y-52.8282

G1X56.0983Y-52.0163

G1X56.4370Y-51.3752

G1X56.9038Y-50.7845

G1X57.3987Y-50.3784

G1X58.0646Y-50.0612

G1X58.7045Y-49.9334

G1X59.3993Y-49.9484

G1X60.1369Y-50.1149

G1X61.1793Y-50.5852

G1X62.1437Y-51.2759

G1X63.0096Y-52.1557

G1X63.7597Y-53.2019

G1X64.3796Y-54.3958

G1X64.8370Y-55.6568

G1X65.1670Y-57.1050

G1X65.3234Y-58.5451

G1X65.3270Y-60.0648

G1X65.1784Y-61.6028

G1X64.8880Y-63.1378

G1X64.4493Y-64.7122

G1X63.8839Y-66.2567

G1X63.1541Y-67.8642

G1X62.3159Y-69.4081

G1X61.3132Y-70.9904

G1X60.1666Y-72.5623

G1X58.9062Y-74.0826

G1X57.5473Y-75.5399

G1X56.0290Y-76.9954

G1X54.4417Y-78.3615

G1X52.7251Y-79.6923

G1X50.9004Y-80.9670

G1X48.9191Y-82.2117

G1X46.7222Y-83.4441

G1X44.3560Y-84.6154

G1X42.1071Y-85.5873

G1X40.0367Y-86.3396

G1X38.2828Y-86.8135

G1X36.8418Y-87.0170

G1X35.8151Y-86.9213

G1X35.5326Y-86.8008

G1X35.2383Y-86.5477

G1X35.0705Y-86.2229

G1X34.9926Y-85.7072

G1X35.2020Y-84.2421

G1X35.7381Y-82.7218

G1X36.0849Y-82.2258

G1X36.3626Y-82.0187

G1X37.0848Y-81.9019

G1X40.3338Y-82.1738

G1X42.6643Y-82.2073

G1X44.5578Y-82.0566

G1X46.2753Y-81.7136

G1X47.9489Y-81.1110

G1X49.5024Y-80.2207

G1X50.8547Y-79.0816

G1X51.9585Y-77.7653

G1X52.8943Y-76.1935

G1X53.7007Y-74.3188

G1X54.3518Y-72.1865

G1X54.8327Y-69.8640

G1X55.1149Y-67.7503

G1X55.2974Y-65.3842

G1X55.5131Y-56.6421

G1X55.6926Y-55.0429

G1X55.9632Y-53.8176

G1X56.2599Y-52.9988

G1X56.5795Y-52.3983

G1X56.9750Y-51.8836

G1X57.5172Y-51.4305

G1X58.0339Y-51.1804

G1X58.6642Y-51.0487

G1X59.2855Y-51.0680

G1X59.8943Y-51.2112

G1X60.8589Y-51.6654

G1X61.7019Y-52.2984

G1X62.5277Y-53.1815

G1X63.1767Y-54.1359

G1X63.7487Y-55.2959

G1X64.1630Y-56.5097

G1X64.4451Y-57.8240

G1X64.5918Y-59.3287

G1X64.5777Y-60.7999

G1X64.4291Y-62.2293

G1X64.1408Y-63.7263

G1X63.7184Y-65.2369

G1X63.1519Y-66.7851

G1X62.4576Y-68.3204

G1X61.6256Y-69.8631

G1X60.6807Y-71.3678

G1X59.6142Y-72.8520

G1X58.3795Y-74.3675

G1X57.0488Y-75.8188

G1X55.6399Y-77.1960

G1X54.0934Y-78.5566

G1X52.4246Y-79.8793

G1X50.6708Y-81.1331

G1X48.8897Y-82.2837

G1X46.7403Y-83.5271

G1X44.5926Y-84.6261

G1X42.4806Y-85.5701

G1X40.6529Y-86.2446

G1X39.0002Y-86.6902

G1X37.7414Y-86.8541

G1X36.8333Y-86.7553

G1X36.5297Y-86.6181

G1X36.2588Y-86.3721

G1X36.0978Y-86.0624

G1X36.0129Y-85.5766

G1X36.1854Y-84.2064

G1X36.6717Y-82.8591

G1X36.9654Y-82.4069

G1X37.3178Y-82.0870

G1X37.6535Y-81.9362

G1X38.2783Y-81.8357

G1X41.5366Y-81.7851

G1X43.5413Y-81.6333

G1X45.1347Y-81.3647

G1X46.6416Y-80.9354

G1X48.1936Y-80.2473

G1X49.5762Y-79.3474

G1X50.7794Y-78.2597

G1X51.8386Y-76.9531

G1X52.6822Y-75.5264

G1X53.4305Y-73.8324

G1X54.0584Y-71.9079

G1X54.5568Y-69.7756

G1X54.8857Y-67.7555

G1X55.1219Y-65.5894

G1X55.6088Y-57.5634

G1X55.8265Y-56.0071

G1X56.1157Y-54.8208

G1X56.3787Y-54.1152

G1X56.7296Y-53.4609

G1X57.1371Y-52.9483

G1X57.5510Y-52.6039

G1X58.0133Y-52.3672

G1X58.5201Y-52.2450

G1X59.0653Y-52.2436

G1X59.6605Y-52.3767

G1X60.5239Y-52.7967

G1X61.2788Y-53.3879

G1X62.0000Y-54.1923

G1X62.6631Y-55.2315

G1X63.1850Y-56.4012

G1X63.5385Y-57.5798

G1X63.7636Y-58.8219

G1X63.8643Y-60.1786

G1X63.8278Y-61.5970

G1X63.6695Y-62.9571

G1X63.3859Y-64.3680

G1X62.9452Y-65.9046

G1X62.4056Y-67.3562

G1X61.7455Y-68.8113

G1X60.9699Y-70.2575

G1X60.0861Y-71.6829

G1X59.0426Y-73.1570

G1X57.9006Y-74.5834

G1X56.6747Y-75.9514

G1X55.3071Y-77.3221

G1X52.2994Y-79.9041

G1X48.9230Y-82.2765

G1X46.9185Y-83.4767

G1X44.8891Y-84.5524

G1X43.0745Y-85.3923

G1X41.3366Y-86.0491

G1X39.8755Y-86.4476

G1X38.6543Y-86.5960

G1X37.8004Y-86.4672

G1X37.3160Y-86.1128

G1X37.1600Y-85.8200

G1X37.0685Y-85.3645

G1X37.2085Y-84.0830

G1X37.6922Y-82.7987

G1X38.2882Y-82.0765

G1X38.7190Y-81.8450

G1X39.3648Y-81.6782

G1X42.7040Y-81.3021

G1X44.4094Y-81.0063

G1X45.6818Y-80.6719

G1X46.9394Y-80.2079

G1X48.3550Y-79.4750

G1X49.6061Y-78.5784

G1X50.7804Y-77.4469

G1X51.7290Y-76.2352

G1X52.5435Y-74.8473

G1X53.2319Y-73.3131

G1X53.8232Y-71.5944

G1X54.3281Y-69.6427

G1X54.9589Y-65.8702

G1X55.6929Y-58.4467

G1X55.9466Y-56.9886

G1X56.2486Y-55.8786

G1X56.8084Y-54.6679

G1X57.4993Y-53.8965

G1X58.0118Y-53.6108

G1X58.4619Y-53.4999

G1X58.9176Y-53.4971

G1X59.4204Y-53.6070

G1X60.1814Y-53.9834

G1X60.8639Y-54.5399

G1X61.5498Y-55.3555

G1X62.1115Y-56.3037

G1X62.5516Y-57.3613

G1X62.8704Y-58.5122

G1X63.0661Y-59.7427

G1X63.1368Y-61.0935

G1X63.0836Y-62.3511

G1X62.9070Y-63.7219

G1X62.5965Y-65.1637

G1X62.1922Y-66.5216

G1X61.6447Y-67.9691

G1X61.0246Y-69.3231

G1X59.4809Y-72.0083

G1X58.5163Y-73.3917

G1X57.4014Y-74.8087

G1X54.9300Y-77.4677

G1X52.0384Y-80.0023

G1X48.8937Y-82.2662

G1X47.0610Y-83.3954

G1X45.2339Y-84.3943

G1X43.6003Y-85.1673

G1X42.1086Y-85.7414

G1X40.8432Y-86.0960

G1X39.7166Y-86.2412

G1X38.9770Y-86.1517

G1X38.6382Y-85.9924

G1X38.4015Y-85.7692

G1X38.2151Y-85.3938

G1X38.1435Y-84.9557

G1X38.2636Y-83.8727

G1X38.6843Y-82.7467

G1X38.9848Y-82.2873

G1X39.3501Y-81.9268

G1X39.7929Y-81.6667

G1X40.4490Y-81.4390

G1X43.5235Y-80.7998

G1X45.0148Y-80.4066

G1X46.2194Y-79.9808

G1X47.2844Y-79.4937

G1X48.5375Y-78.7462

G1X49.6889Y-77.8422

G1X50.7385Y-76.7748

G1X51.6440Y-75.5927

G1X52.3764Y-74.3541

G1X53.0489Y-72.9051

G1X53.6184Y-71.3465

G1X54.1256Y-69.5726

G1X54.8171Y-66.1246

G1X55.7531Y-59.3804

G1X56.0437Y-58.0039

G1X56.3644Y-56.9608

G1X56.9410Y-55.8092

G1X57.6383Y-55.0986

G1X58.4097Y-54.8153

G1X58.8312Y-54.8223

G1X59.2695Y-54.9344

G1X59.9186Y-55.2885

G1X60.5614Y-55.8699

G1X61.1042Y-56.5863

G1X61.5952Y-57.5041

G1X61.9594Y-58.4865

G1X62.2282Y-59.6115

G1X62.3764Y-60.8007

G1X62.4064Y-62.0433

G1X62.1448Y-64.4995

G1X61.4604Y-67.0872

G1X60.3818Y-69.6801

G1X58.9121Y-72.2718

G1X57.0119Y-74.8857

G1X54.6992Y-77.4456

G1X52.0842Y-79.8194

G1X49.1952Y-81.9890

G1X47.4975Y-83.0834

G1X45.8814Y-84.0099

G1X44.4308Y-84.7290

G1X43.0814Y-85.2779

G1X41.8542Y-85.6437

G1X40.7981Y-85.7924

G1X40.0420Y-85.7010

G1X39.5725Y-85.4164

G1X39.3592Y-85.0861

G1X39.2574Y-84.6921

G1X39.3175Y-83.6910

G1X39.6983Y-82.6058

G1X39.9867Y-82.1422

G1X40.3416Y-81.7601

G1X40.8690Y-81.4067

G1X41.5257Y-81.1229

G1X45.6140Y-79.8050

G1X47.6380Y-78.8089

G1X48.7260Y-78.0741

G1X49.7966Y-77.1606

G1X50.7509Y-76.1373

G1X51.5694Y-75.0470

G1X52.2358Y-73.9359

G1X52.8542Y-72.6621

G1X53.4038Y-71.2699

G1X53.9034Y-69.7133

G1X54.6650Y-66.5370

G1X55.7691Y-60.4279

G1X56.3992Y-58.2099

G1X56.9109Y-57.1918

G1X57.5631Y-56.4837

G1X58.2367Y-56.2003

G1X58.9751Y-56.2755

G1X59.5479Y-56.5828

G1X60.1073Y-57.1030

G1X60.6231Y-57.8274

G1X61.0212Y-58.6348

G1X61.3582Y-59.6500

G1X61.5653Y-60.6695

G1X61.6698Y-61.7148

G1X61.6768Y-62.8950

G1X61.3809Y-65.2959

G1X60.7173Y-67.6970

G1X59.6742Y-70.1717

G1X58.2676Y-72.6473

G1X56.4048Y-75.2152

G1X54.2232Y-77.6433

G1X51.7512Y-79.9109

G1X49.0166Y-81.9869

G1X46.1482Y-83.7533

G1X44.7722Y-84.4269

G1X43.5846Y-84.8901

G1X42.5615Y-85.1666

G1X41.7506Y-85.2537

G1X41.1231Y-85.1631

G1X40.6251Y-84.8301

G1X40.4464Y-84.5095

G1X40.3636Y-84.1357

G1X40.4158Y-83.3062

G1X40.7788Y-82.2822

G1X41.3400Y-81.5225

G1X42.2500Y-80.8987

G1X45.9235Y-79.3436

G1X48.0004Y-78.1564

G1X49.0757Y-77.3320

G1X49.9830Y-76.4794

G1X50.8021Y-75.5507

G1X51.5735Y-74.4957

G1X52.7690Y-72.3003

G1X53.7540Y-69.7169

G1X54.5079Y-67.0110

G1X55.7651Y-61.4345

G1X56.4211Y-59.4212

G1X56.9336Y-58.4760

G1X57.4831Y-57.8934

G1X58.0727Y-57.6311

G1X58.7046Y-57.6866

G1X59.2410Y-57.9906

G1X59.7068Y-58.4644

G1X60.1313Y-59.1196

G1X60.4549Y-59.8470

G1X60.7115Y-60.7024

G1X60.8855Y-61.6751

G1X60.9427Y-63.8219

G1X60.6313Y-66.0325

G1X59.9958Y-68.2556

G1X59.0427Y-70.5119

G1X57.7373Y-72.8389

G1X56.0319Y-75.2393

G1X54.0362Y-77.5226

G1X51.8378Y-79.6107

G1X49.3652Y-81.5660

G1X46.8838Y-83.1648

G1X44.6315Y-84.2260

G1X43.6896Y-84.5105

G1X42.8253Y-84.6253

G1X42.2105Y-84.5409

G1X41.8065Y-84.3013

G1X41.6086Y-84.0252

G1X41.5023Y-83.6950

G1X41.5064Y-82.9413

G1X41.8194Y-81.9739

G1X42.3428Y-81.2149

G1X43.3068Y-80.4680

G1X46.4787Y-78.7973

G1X48.3341Y-77.5681

G1X50.0213Y-76.0351

G1X51.5288Y-74.1297

G1X52.6139Y-72.2158

G1X53.5850Y-69.8895

G1X54.3676Y-67.4481

G1X55.6909Y-62.5807

G1X56.3641Y-60.7341

G1X56.8074Y-59.9384

G1X57.3590Y-59.3401

G1X57.9612Y-59.0908

G1X58.4991Y-59.1805

G1X58.9434Y-59.4813

G1X59.3401Y-59.9561

G1X59.6734Y-60.5684

G1X59.9379Y-61.3022

G1X60.2303Y-63.0760

G1X60.1831Y-64.9913

G1X59.8208Y-67.0349

G1X59.1908Y-69.0507

G1X58.2545Y-71.1702

G1X57.0494Y-73.2727

G1X55.4971Y-75.4510

G1X53.6297Y-77.6011

G1X51.5514Y-79.5904

G1X49.3740Y-81.3281

G1X47.2099Y-82.7248

G1X45.2809Y-83.6155

G1X44.3858Y-83.8581

G1X43.7224Y-83.9110

G1X43.2958Y-83.8385

G1X42.8671Y-83.5692

G1X42.6136Y-83.0009

G1X42.6352Y-82.3056

G1X42.9559Y-81.4099

G1X43.4151Y-80.7623

G1X44.2466Y-80.0422

G1X47.1682Y-78.1745

G1X48.6837Y-77.0183

G1X50.2377Y-75.4864

G1X51.5513Y-73.7733

G1X52.5275Y-72.0993

G1X53.4570Y-70.0383

G1X54.2161Y-67.9532

G1X55.5691Y-63.7426

G1X56.2556Y-62.0617

G1X56.6872Y-61.3368

G1X57.1825Y-60.8160

G1X57.6272Y-60.6091

G1X58.0781Y-60.6421

G1X58.4091Y-60.8322

G1X58.7876Y-61.2597

G1X59.0868Y-61.8275

G1X59.3027Y-62.4761

G1X59.5241Y-64.0231

G1X59.4518Y-65.8015

G1X59.0965Y-67.6775

G1X58.4878Y-69.5754

G1X57.6350Y-71.4935

G1X56.5100Y-73.4674

G1X55.1280Y-75.4352

G1X53.4690Y-77.3920

G1X51.6094Y-79.2253

G1X49.7216Y-80.7827

G1X47.8724Y-82.0176

G1X46.1438Y-82.8457

G1X45.4836Y-83.0413

G1X44.8657Y-83.1222

G1X44.4570Y-83.0837

G1X44.0295Y-82.8758

G1X43.7920Y-82.5321

G1X43.7144Y-81.9409

G1X43.8570Y-81.2817

G1X44.1853Y-80.6277

G1X44.6150Y-80.0904

G1X45.1781Y-79.5673

G1X47.6510Y-77.7034

G1X48.9738Y-76.5783

G1X50.1045Y-75.4235

G1X51.0798Y-74.2242

G1X52.1543Y-72.5981

G1X53.0900Y-70.7972

G1X53.9158Y-68.8605

G1X55.4618Y-64.7554

G1X56.1373Y-63.3170

G1X56.6000Y-62.6387

G1X56.9786Y-62.2899

G1X57.4541Y-62.1238

G1X57.8232Y-62.2228

G1X58.0833Y-62.4379

G1X58.3674Y-62.8644

G1X58.7178Y-63.9985

G1X58.8147Y-65.4274

G1X58.6517Y-67.0692

G1X58.2536Y-68.7535

G1X57.6475Y-70.4492

G1X56.8589Y-72.1226

G1X55.8348Y-73.8682

G1X54.5366Y-75.6887

G1X53.0908Y-77.3857

G1X51.5204Y-78.9452

G1X49.8857Y-80.3098

G1X48.3711Y-81.3278

G1X46.9203Y-82.0275

G1X46.3201Y-82.2015

G1X45.7688Y-82.2597

G1X45.4295Y-82.2125

G1X45.0734Y-82.0152

G1X44.8777Y-81.7022

G1X44.8267Y-81.1679

G1X44.9773Y-80.5674

G1X45.3035Y-79.9570

G1X46.1821Y-78.9667

G1X49.3397Y-76.1293

G1X50.2930Y-75.0909

G1X51.1598Y-73.9979

G1X52.1277Y-72.5557

G1X52.9788Y-71.0190

G1X55.2303Y-65.9697

G1X55.8696Y-64.7380

G1X56.2885Y-64.1490

G1X56.6193Y-63.8376

G1X57.0208Y-63.6708

G1X57.3229Y-63.7279

G1X57.5960Y-63.9614

G1X57.7731Y-64.2530

G1X58.0500Y-65.2973

G1X58.0818Y-66.5520

G1X57.8983Y-67.9621

G1X57.5060Y-69.4783

G1X56.9522Y-70.9631

G1X56.2272Y-72.4729

G1X55.3549Y-73.9582

G1X54.2315Y-75.5560

G1X53.0226Y-77.0111

G1X51.6635Y-78.4043

G1X50.3351Y-79.5547

G1X48.9836Y-80.4986

G1X47.8313Y-81.0849

G1X46.8473Y-81.3307

G1X46.5333Y-81.3142

G1X46.1923Y-81.1741

G1X45.9539Y-80.8224

G1X45.9279Y-80.3457

G1X46.0841Y-79.8013

G1X46.4023Y-79.2291

G1X47.1584Y-78.3185

G1X49.7814Y-75.6559

G1X51.1755Y-73.9565

G1X52.0172Y-72.7411

G1X52.8345Y-71.3714

G1X55.4725Y-66.2506

G1X56.1382Y-65.4282

G1X56.5439Y-65.2200

G1X56.7882Y-65.2502

G1X57.0024Y-65.4214

G1X57.1771Y-65.7347

G1X57.3402Y-66.4578

G1X57.3418Y-67.5778

G1X57.1572Y-68.7796

G1X56.8096Y-70.0495

G1X56.2826Y-71.4242

G1X55.6487Y-72.7257

G1X54.8351Y-74.1041

G1X53.9209Y-75.4110

G1X52.8788Y-76.6859

G1X51.7393Y-77.8776

G1X50.6539Y-78.8381

G1X49.5171Y-79.6495

G1X48.5141Y-80.1627

G1X47.7281Y-80.3477

G1X47.2027Y-80.2027

G1X47.0176Y-79.8956

G1X47.0145Y-79.4756

G1X47.1722Y-78.9848

G1X47.4746Y-78.4487

G1X48.1030Y-77.6330

G1X50.3539Y-75.0744

G1X51.6136Y-73.4268

G1X52.7123Y-71.7407

G1X54.5375Y-68.5007

G1X55.2433Y-67.4058

G1X55.8000Y-66.8474

G1X56.2105Y-66.7726

G1X56.5030Y-67.1313

G1X56.6215Y-67.7939

G1X56.5740Y-68.7415

G1X56.3802Y-69.7359

G1X56.0371Y-70.8501

G1X55.5945Y-71.9338

G1X54.3958Y-74.1205

G1X53.6165Y-75.2417

G1X52.7259Y-76.3422

G1X51.7670Y-77.3544

G1X50.9049Y-78.1223

G1X50.0605Y-78.7347

G1X49.2992Y-79.1406

G1X48.6074Y-79.3119

G1X48.2013Y-79.1846

G1X48.0661Y-78.9224

G1X48.0829Y-78.5579

G1X48.2363Y-78.1201

G1X48.6002Y-77.4916

G1X51.7072Y-73.4656

G1X54.6387Y-68.9696

G1X55.1726Y-68.3994

G1X55.4369Y-68.2687

G1X55.5843Y-68.2788

G1X55.7947Y-68.5405

G1X55.8667Y-69.1146

G1X55.6181Y-70.5981

G1X54.9785Y-72.2933

G1X53.9706Y-74.1141

G1X52.6920Y-75.8368

G1X51.3254Y-77.2208

G1X50.5516Y-77.8017

G1X49.9911Y-78.1035

G1X49.5658Y-78.2236

G1X49.2282Y-78.1580

G1X49.0971Y-77.9022

G1X49.1544Y-77.5043

G1X49.7489Y-76.3996

G1X54.0003Y-70.4502

G1X54.5312Y-69.8817

G1X54.9066Y-69.7544

G1X55.0464Y-69.9423

G1X55.0820Y-70.2241

G1X54.9024Y-71.2807

G1X54.3968Y-72.5942

G1X53.6223Y-73.9928

G1X52.7029Y-75.2591

G1X51.6597Y-76.3524

G1X50.7762Y-76.9770

G1X50.4657Y-77.0878

G1X50.2134Y-77.0628

G1X50.1072Y-76.8339

G1X50.1988Y-76.4353

G1X50.9388Y-75.1515

G1X53.3460Y-71.8339

G1X53.8819Y-71.2771

G1X54.1768Y-71.1865

G1X54.2594Y-71.5751

G1X54.0826Y-72.2752

G1X53.6881Y-73.1695

G1X53.2220Y-73.9666

G1X52.6111Y-74.8004

G1X52.0248Y-75.4292

G1X51.4918Y-75.8345

G1X51.1517Y-75.9020

G1X51.0907Y-75.7540

G1X51.1745Y-75.4304

G1X51.7713Y-74.3872

G1X52.8458Y-72.9497

G1X53.2043Y-72.6012

G1X53.3842Y-72.5524

G1X53.3513Y-72.9714

G1X52.9813Y-73.7202

G1X52.4610Y-74.4164

G1X52.0577Y-74.6989

G1X52.1796Y-74.2823

G1X52.5947Y-73.7791

G1X52.5271Y-73.9416

G1 Z0F20000


G00 X0.0000 Y0.0000


