$H
G21
G17
G90
G1 Z0F20000
G1 F15000
(Start Layer)
(Start Block)

G1X15.6686Y-29.5593
G1Z5.0F20000
(Plotting speed under)
G1 F8000

G1X103.5452Y-69.8108
G1X138.3404Y-56.9809
G1X200.6690Y-71.6844
G1X251.7153Y-75.1057
G1X276.3303Y-52.0955
G1 Z0F20000
(Start Block)

G1X16.1680Y-31.1170
G1Z5.0F20000
(Plotting speed under)
G1 F8000

G1X103.1574Y-70.4813
G1X138.3175Y-58.0163
G1X200.6048Y-72.6785
G1X251.2564Y-75.7051
G1X276.0542Y-52.8777
G1 Z0F20000
(Start Block)

G1X16.6674Y-32.6747
G1Z5.0F20000
(Plotting speed under)
G1 F8000

G1X102.7696Y-71.1518
G1X138.2947Y-59.0518
G1X200.5406Y-73.6727
G1X250.7976Y-76.3046
G1X275.7781Y-53.6600
G1 Z0F20000
(Start Block)

G1X17.1667Y-34.2324
G1Z5.0F20000
(Plotting speed under)
G1 F8000

G1X102.3818Y-71.8224
G1X138.2718Y-60.0873
G1X200.4765Y-74.6669
G1X250.3387Y-76.9040
G1X275.5020Y-54.4422
G1 Z0F20000
(Start Block)

G1X17.6661Y-35.7901
G1Z5.0F20000
(Plotting speed under)
G1 F8000

G1X101.9940Y-72.4929
G1X138.2489Y-61.1227
G1X200.4123Y-75.6611
G1X249.8798Y-77.5035
G1X275.2259Y-55.2244
G1 Z0F20000
(Start Block)

G1X18.1654Y-37.3478
G1Z5.0F20000
(Plotting speed under)
G1 F8000

G1X101.6062Y-73.1634
G1X138.2260Y-62.1582
G1X200.3481Y-76.6552
G1X249.4209Y-78.1030
G1X274.9498Y-56.0067
G1 Z0F20000
(Start Block)

G1X18.6648Y-38.9055
G1Z5.0F20000
(Plotting speed under)
G1 F8000

G1X101.2184Y-73.8340
G1X138.2032Y-63.1936
G1X200.2839Y-77.6494
G1X248.9620Y-78.7024
G1X274.6737Y-56.7889
G1 Z0F20000
(Start Block)

G1X19.1642Y-40.4632
G1Z5.0F20000
(Plotting speed under)
G1 F8000

G1X100.8306Y-74.5046
G1X138.1803Y-64.2291
G1X200.2197Y-78.6435
G1X248.5032Y-79.3019
G1X274.3976Y-57.5711
G1 Z0F20000
(Start Block)

G1X19.6635Y-42.0209
G1Z5.0F20000
(Plotting speed under)
G1 F8000

G1X100.4428Y-75.1751
G1X138.1574Y-65.2646
G1X200.1555Y-79.6377
G1X248.0443Y-79.9013
G1X274.1214Y-58.3534
G1 Z0F20000
(Start Block)

G1X20.1629Y-43.5786
G1Z5.0F20000
(Plotting speed under)
G1 F8000

G1X100.0550Y-75.8457
G1X138.1345Y-66.3000
G1X200.0914Y-80.6318
G1X247.5854Y-80.5008
G1X273.8454Y-59.1356
G1 Z0F20000
(Start Block)

G1X20.6622Y-45.1362
G1Z5.0F20000
(Plotting speed under)
G1 F8000

G1X99.6672Y-76.5162
G1X138.1117Y-67.3355
G1X200.0272Y-81.6260
G1X247.1265Y-81.1002
G1X273.5693Y-59.9178
G1 Z0F20000
(Start Block)

G1X21.1616Y-46.6940
G1Z5.0F20000
(Plotting speed under)
G1 F8000

G1X99.2794Y-77.1867
G1X138.0888Y-68.3709
G1X199.9630Y-82.6201
G1X246.6676Y-81.6997
G1X273.2931Y-60.7001
G1 Z0F20000
(Start Block)

G1X21.6609Y-48.2516
G1Z5.0F20000
(Plotting speed under)
G1 F8000

G1X98.8916Y-77.8573
G1X138.0659Y-69.4064
G1X199.8988Y-83.6143
G1X246.2088Y-82.2991
G1X273.0170Y-61.4823
G1 Z0F20000
(Start Block)

G1X22.1603Y-49.8093
G1Z5.0F20000
(Plotting speed under)
G1 F8000

G1X98.5038Y-78.5278
G1X138.0430Y-70.4419
G1X199.8347Y-84.6085
G1X245.7499Y-82.8986
G1X272.7409Y-62.2645
G1 Z0F20000
(Start Block)

G1X22.6597Y-51.3670
G1Z5.0F20000
(Plotting speed under)
G1 F8000

G1X98.1160Y-79.1984
G1X138.0202Y-71.4773
G1X199.7705Y-85.6026
G1X245.2910Y-83.4980
G1X272.4648Y-63.0467
G1 Z0F20000
(Start Block)

G1X23.1590Y-52.9247
G1Z5.0F20000
(Plotting speed under)
G1 F8000

G1X97.7283Y-79.8689
G1X137.9973Y-72.5128
G1X199.7063Y-86.5967
G1X244.8321Y-84.0975
G1X272.1887Y-63.8290
G1 Z0F20000
(Start Block)

G1X23.6584Y-54.4824
G1Z5.0F20000
(Plotting speed under)
G1 F8000

G1X97.3405Y-80.5394
G1X137.9744Y-73.5483
G1X199.6421Y-87.5909
G1X244.3732Y-84.6970
G1X271.9126Y-64.6112
G1 Z0F20000
(Start Block)

G1X24.1578Y-56.0401
G1Z5.0F20000
(Plotting speed under)
G1 F8000

G1X96.9527Y-81.2100
G1X137.9515Y-74.5838
G1X199.5779Y-88.5851
G1X243.9144Y-85.2964
G1X271.6365Y-65.3934
G1 Z0F20000
(Start Block)

G1X24.6572Y-57.5978
G1Z5.0F20000
(Plotting speed under)
G1 F8000

G1X96.5649Y-81.8805
G1X137.9287Y-75.6192
G1X199.5137Y-89.5792
G1X243.4555Y-85.8959
G1X271.3604Y-66.1757
G1 Z0F20000
(Start Block)

G1X25.1565Y-59.1555
G1Z5.0F20000
(Plotting speed under)
G1 F8000

G1X96.1771Y-82.5510
G1X137.9058Y-76.6547
G1X199.4496Y-90.5734
G1X242.9966Y-86.4953
G1X271.0843Y-66.9579
G1 Z0F20000
(Start Block)

G1X25.6559Y-60.7132
G1Z5.0F20000
(Plotting speed under)
G1 F8000

G1X95.7893Y-83.2216
G1X137.8829Y-77.6901
G1X199.3854Y-91.5675
G1X242.5377Y-87.0948
G1X270.8082Y-67.7401
G1 Z0F20000
(Start Block)

G1X26.1553Y-62.2709
G1Z5.0F20000
(Plotting speed under)
G1 F8000

G1X95.4015Y-83.8921
G1X137.8601Y-78.7256
G1X199.3212Y-92.5617
G1X242.0789Y-87.6942
G1X270.5321Y-68.5224
G1 Z0F20000
(Start Block)

G1X26.6546Y-63.8286
G1Z5.0F20000
(Plotting speed under)
G1 F8000

G1X95.0137Y-84.5626
G1X137.8372Y-79.7610
G1X199.2570Y-93.5558
G1X241.6200Y-88.2937
G1X270.2560Y-69.3046
G1 Z0F20000
(Start Block)

G1X27.1540Y-65.3863
G1Z5.0F20000
(Plotting speed under)
G1 F8000

G1X94.6259Y-85.2332
G1X137.8143Y-80.7965
G1X199.1929Y-94.5500
G1X241.1611Y-88.8931
G1X269.9799Y-70.0868
G1 Z0F20000
(Start Block)

G1X27.6533Y-66.9440
G1Z5.0F20000
(Plotting speed under)
G1 F8000

G1X94.2381Y-85.9037
G1X137.7914Y-81.8320
G1X199.1287Y-95.5441
G1X240.7022Y-89.4926
G1X269.7038Y-70.8691
G1 Z0F20000
(Start Block)

G1X28.1527Y-68.5017
G1Z5.0F20000
(Plotting speed under)
G1 F8000

G1X93.8503Y-86.5743
G1X137.7685Y-82.8674
G1X199.0645Y-96.5383
G1X240.2433Y-90.0920
G1X269.4276Y-71.6513
G1 Z0F20000
(Start Block)

G1X28.6521Y-70.0594
G1Z5.0F20000
(Plotting speed under)
G1 F8000

G1X93.4625Y-87.2448
G1X137.7457Y-83.9029
G1X199.0003Y-97.5325
G1X239.7844Y-90.6915
G1X269.1515Y-72.4335
G1 Z0F20000
(Start Block)

G1X29.1514Y-71.6171
G1Z5.0F20000
(Plotting speed under)
G1 F8000

G1X93.0747Y-87.9153
G1X137.7228Y-84.9383
G1X198.9361Y-98.5266
G1X239.3256Y-91.2910
G1X268.8754Y-73.2157
G1 Z0F20000
(Start Block)

G1X29.6508Y-73.1748
G1Z5.0F20000
(Plotting speed under)
G1 F8000

G1X92.6869Y-88.5859
G1X137.6999Y-85.9738
G1X198.8719Y-99.5207
G1X238.8667Y-91.8904
G1X268.5993Y-73.9980
G1 Z0F20000
(Start Block)

G1X30.1501Y-74.7325
G1Z5.0F20000
(Plotting speed under)
G1 F8000

G1X92.2991Y-89.2564
G1X137.6770Y-87.0093
G1X198.8078Y-100.5149
G1X238.4078Y-92.4899
G1X268.3232Y-74.7802
G1 Z0F20000
(Start Block)

G1X30.6495Y-76.2902
G1Z5.0F20000
(Plotting speed under)
G1 F8000

G1X91.9113Y-89.9269
G1X137.6542Y-88.0447
G1X198.7436Y-101.5091
G1X237.9489Y-93.0893
G1X268.0471Y-75.5625
G1 Z0F20000
(Start Block)

G1X31.1489Y-77.8479
G1Z5.0F20000
(Plotting speed under)
G1 F8000

G1X91.5235Y-90.5975
G1X137.6313Y-89.0802
G1X198.6794Y-102.5032
G1X237.4900Y-93.6888
G1X267.7710Y-76.3447
G1 Z0F20000
(Start Block)

G1X31.6482Y-79.4056
G1Z5.0F20000
(Plotting speed under)
G1 F8000

G1X91.1357Y-91.2680
G1X137.6084Y-90.1157
G1X198.6152Y-103.4974
G1X237.0312Y-94.2882
G1X267.4949Y-77.1269
G1 Z0F20000
(Start Block)

G1X32.1476Y-80.9633
G1Z5.0F20000
(Plotting speed under)
G1 F8000

G1X90.7479Y-91.9386
G1X137.5856Y-91.1511
G1X198.5511Y-104.4915
G1X236.5723Y-94.8877
G1X267.2188Y-77.9092
G1 Z0F20000
(Start Block)

G1X32.6470Y-82.5210
G1Z5.0F20000
(Plotting speed under)
G1 F8000

G1X90.3601Y-92.6091
G1X137.5627Y-92.1866
G1X198.4869Y-105.4857
G1X236.1134Y-95.4871
G1X266.9427Y-78.6914
G1 Z0F20000
(Start Block)

G1X33.1463Y-84.0787
G1Z5.0F20000
(Plotting speed under)
G1 F8000

G1X89.9723Y-93.2796
G1X137.5398Y-93.2220
G1X198.4227Y-106.4798
G1X235.6545Y-96.0866
G1X266.6666Y-79.4736
G1 Z0F20000
(Start Block)

G1X33.6457Y-85.6364
G1Z5.0F20000
(Plotting speed under)
G1 F8000

G1X89.5845Y-93.9502
G1X137.5169Y-94.2575
G1X198.3585Y-107.4740
G1X235.1957Y-96.6860
G1X266.3905Y-80.2558
G1 Z0F20000
(Start Block)

G1X34.1450Y-87.1941
G1Z5.0F20000
(Plotting speed under)
G1 F8000

G1X89.1967Y-94.6207
G1X137.4941Y-95.2929
G1X198.2943Y-108.4681
G1X234.7368Y-97.2855
G1X266.1144Y-81.0381
G1 Z0F20000
(Start Block)

G1X34.6444Y-88.7518
G1Z5.0F20000
(Plotting speed under)
G1 F8000

G1X88.8090Y-95.2912
G1X137.4712Y-96.3284
G1X198.2301Y-109.4623
G1X234.2779Y-97.8849
G1X265.8383Y-81.8203
G1 Z0F20000
(Start Block)

G1X35.1438Y-90.3095
G1Z5.0F20000
(Plotting speed under)
G1 F8000

G1X88.4212Y-95.9618
G1X137.4483Y-97.3639
G1X198.1660Y-110.4565
G1X233.8190Y-98.4844
G1X265.5622Y-82.6025
G1 Z0F20000
(Start Block)

G1X35.6431Y-91.8672
G1Z5.0F20000
(Plotting speed under)
G1 F8000

G1X88.0334Y-96.6323
G1X137.4254Y-98.3993
G1X198.1018Y-111.4506
G1X233.3601Y-99.0839
G1X265.2861Y-83.3848
G1 Z0F20000
(Start Block)

G1X36.1425Y-93.4248
G1Z5.0F20000
(Plotting speed under)
G1 F8000

G1X87.6456Y-97.3028
G1X137.4026Y-99.4348
G1X198.0376Y-112.4447
G1X232.9012Y-99.6833
G1X265.0100Y-84.1670
G1 Z0F20000
(Start Block)

G1X36.6418Y-94.9826
G1Z5.0F20000
(Plotting speed under)
G1 F8000

G1X87.2578Y-97.9734
G1X137.3797Y-100.4702
G1X197.9734Y-113.4389
G1X232.4424Y-100.2828
G1X264.7339Y-84.9492
G1 Z0F20000
(Start Block)

G1X37.1412Y-96.5402
G1Z5.0F20000
(Plotting speed under)
G1 F8000

G1X86.8700Y-98.6439
G1X137.3568Y-101.5057
G1X197.9093Y-114.4331
G1X231.9835Y-100.8822
G1X264.4577Y-85.7315
G1 Z0F20000
(Start Block)

G1X37.6405Y-98.0979
G1Z5.0F20000
(Plotting speed under)
G1 F8000

G1X86.4822Y-99.3145
G1X137.3339Y-102.5412
G1X197.8451Y-115.4272
G1X231.5246Y-101.4817
G1X264.1817Y-86.5137
G1 Z0F20000
(Start Block)

G1X38.1399Y-99.6556
G1Z5.0F20000
(Plotting speed under)
G1 F8000

G1X86.0944Y-99.9850
G1X137.3110Y-103.5766
G1X197.7809Y-116.4214
G1X231.0657Y-102.0811
G1X263.9056Y-87.2959
G1 Z0F20000
(Start Block)

G1X38.0769Y-100.6510
G1Z5.0F20000
(Plotting speed under)
G1 F8000

G1X85.9361Y-100.8850
G1X136.9790Y-104.3029
G1X197.7446Y-117.4434
G1X230.8386Y-102.9123
G1X264.1478Y-88.5965
G1 Z0F20000
(Start Block)

G1X38.0139Y-101.6463
G1Z5.0F20000
(Plotting speed under)
G1 F8000

G1X85.7778Y-101.7851
G1X136.6470Y-105.0292
G1X197.7083Y-118.4654
G1X230.6114Y-103.7434
G1X264.3901Y-89.8971
G1 Z0F20000
(Start Block)

G1X37.9509Y-102.6416
G1Z5.0F20000
(Plotting speed under)
G1 F8000

G1X85.6195Y-102.6851
G1X136.3149Y-105.7555
G1X197.6719Y-119.4874
G1X230.3842Y-104.5746
G1X264.6323Y-91.1977
G1 Z0F20000
(Start Block)

G1X37.8879Y-103.6369
G1Z5.0F20000
(Plotting speed under)
G1 F8000

G1X85.4612Y-103.5851
G1X135.9829Y-106.4818
G1X197.6356Y-120.5094
G1X230.1570Y-105.4057
G1X264.8746Y-92.4983
G1 Z0F20000
(Start Block)

G1X37.8249Y-104.6323
G1Z5.0F20000
(Plotting speed under)
G1 F8000

G1X85.3029Y-104.4852
G1X135.6508Y-107.2081
G1X197.5993Y-121.5314
G1X229.9298Y-106.2369
G1X265.1169Y-93.7989
G1 Z0F20000
(Start Block)

G1X37.7619Y-105.6276
G1Z5.0F20000
(Plotting speed under)
G1 F8000

G1X85.1446Y-105.3852
G1X135.3188Y-107.9343
G1X197.5629Y-122.5535
G1X229.7027Y-107.0681
G1X265.3591Y-95.0995
G1 Z0F20000
(Start Block)

G1X37.6989Y-106.6229
G1Z5.0F20000
(Plotting speed under)
G1 F8000

G1X84.9862Y-106.2852
G1X134.9867Y-108.6606
G1X197.5266Y-123.5755
G1X229.4755Y-107.8992
G1X265.6014Y-96.4001
G1 Z0F20000
(Start Block)

G1X37.6359Y-107.6182
G1Z5.0F20000
(Plotting speed under)
G1 F8000

G1X84.8279Y-107.1853
G1X134.6547Y-109.3869
G1X197.4903Y-124.5975
G1X229.2483Y-108.7304
G1X265.8437Y-97.7007
G1 Z0F20000
(Start Block)

G1X37.5728Y-108.6136
G1Z5.0F20000
(Plotting speed under)
G1 F8000

G1X84.6696Y-108.0853
G1X134.3226Y-110.1132
G1X197.4540Y-125.6195
G1X229.0211Y-109.5615
G1X266.0859Y-99.0013
G1 Z0F20000
(Start Block)

G1X37.5098Y-109.6089
G1Z5.0F20000
(Plotting speed under)
G1 F8000

G1X84.5113Y-108.9853
G1X133.9906Y-110.8395
G1X197.4177Y-126.6415
G1X228.7940Y-110.3927
G1X266.3282Y-100.3019
G1 Z0F20000
(Start Block)

G1X37.4468Y-110.6042
G1Z5.0F20000
(Plotting speed under)
G1 F8000

G1X84.3530Y-109.8854
G1X133.6585Y-111.5658
G1X197.3813Y-127.6635
G1X228.5668Y-111.2239
G1X266.5705Y-101.6025
G1 Z0F20000
(Start Block)

G1X37.3838Y-111.5995
G1Z5.0F20000
(Plotting speed under)
G1 F8000

G1X84.1947Y-110.7854
G1X133.3265Y-112.2921
G1X197.3450Y-128.6855
G1X228.3396Y-112.0550
G1X266.8127Y-102.9031
G1 Z0F20000
(Start Block)

G1X37.3208Y-112.5949
G1Z5.0F20000
(Plotting speed under)
G1 F8000

G1X84.0364Y-111.6854
G1X132.9944Y-113.0183
G1X197.3087Y-129.7076
G1X228.1124Y-112.8862
G1X267.0550Y-104.2037
G1 Z0F20000
(Start Block)

G1X37.2578Y-113.5902
G1Z5.0F20000
(Plotting speed under)
G1 F8000

G1X83.8781Y-112.5855
G1X132.6624Y-113.7446
G1X197.2724Y-130.7296
G1X227.8852Y-113.7173
G1X267.2973Y-105.5043
G1 Z0F20000
(Start Block)

G1X37.1948Y-114.5855
G1Z5.0F20000
(Plotting speed under)
G1 F8000

G1X83.7198Y-113.4855
G1X132.3304Y-114.4709
G1X197.2360Y-131.7516
G1X227.6581Y-114.5485
G1X267.5395Y-106.8049
G1 Z0F20000
(Start Block)

G1X37.1318Y-115.5808
G1Z5.0F20000
(Plotting speed under)
G1 F8000

G1X83.5615Y-114.3855
G1X131.9983Y-115.1972
G1X197.1997Y-132.7736
G1X227.4309Y-115.3796
G1X267.7818Y-108.1055
G1 Z0F20000
(Start Block)

G1X37.0688Y-116.5762
G1Z5.0F20000
(Plotting speed under)
G1 F8000

G1X83.4032Y-115.2856
G1X131.6663Y-115.9235
G1X197.1634Y-133.7956
G1X227.2037Y-116.2108
G1X268.0240Y-109.4061
G1 Z0F20000
(Start Block)

G1X37.0058Y-117.5715
G1Z5.0F20000
(Plotting speed under)
G1 F8000

G1X83.2449Y-116.1856
G1X131.3342Y-116.6498
G1X197.1271Y-134.8176
G1X226.9765Y-117.0419
G1X268.2663Y-110.7067
G1 Z0F20000
(Start Block)

G1X36.9428Y-118.5668
G1Z5.0F20000
(Plotting speed under)
G1 F8000

G1X83.0866Y-117.0856
G1X131.0022Y-117.3761
G1X197.0907Y-135.8396
G1X226.7494Y-117.8731
G1X268.5086Y-112.0073
G1 Z0F20000
(Start Block)

G1X36.8798Y-119.5622
G1Z5.0F20000
(Plotting speed under)
G1 F8000

G1X82.9283Y-117.9857
G1X130.6701Y-118.1024
G1X197.0544Y-136.8616
G1X226.5222Y-118.7043
G1X268.7509Y-113.3079
G1 Z0F20000
(Start Block)

G1X36.8167Y-120.5575
G1Z5.0F20000
(Plotting speed under)
G1 F8000

G1X82.7700Y-118.8857
G1X130.3381Y-118.8286
G1X197.0181Y-137.8836
G1X226.2950Y-119.5354
G1X268.9931Y-114.6085
G1 Z0F20000
(Start Block)

G1X36.7537Y-121.5528
G1Z5.0F20000
(Plotting speed under)
G1 F8000

G1X82.6117Y-119.7857
G1X130.0060Y-119.5549
G1X196.9818Y-138.9056
G1X226.0678Y-120.3666
G1X269.2354Y-115.9091
G1 Z0F20000
(Start Block)

G1X36.6907Y-122.5482
G1Z5.0F20000
(Plotting speed under)
G1 F8000

G1X82.4534Y-120.6858
G1X129.6740Y-120.2812
G1X196.9454Y-139.9276
G1X225.8407Y-121.1977
G1X269.4776Y-117.2097
G1 Z0F20000
(Start Block)

G1X36.6277Y-123.5435
G1Z5.0F20000
(Plotting speed under)
G1 F8000

G1X82.2951Y-121.5858
G1X129.3419Y-121.0075
G1X196.9091Y-140.9497
G1X225.6135Y-122.0289
G1X269.7199Y-118.5103
G1 Z0F20000
(Start Block)

G1X36.5647Y-124.5388
G1Z5.0F20000
(Plotting speed under)
G1 F8000

G1X82.1368Y-122.4858
G1X129.0099Y-121.7338
G1X196.8728Y-141.9717
G1X225.3863Y-122.8601
G1X269.9622Y-119.8109
G1 Z0F20000
(Start Block)

G1X36.5017Y-125.5341
G1Z5.0F20000
(Plotting speed under)
G1 F8000

G1X81.9785Y-123.3859
G1X128.6778Y-122.4601
G1X196.8365Y-142.9937
G1X225.1591Y-123.6912
G1X270.2045Y-121.1115
G1 Z0F20000
(Start Block)

G1X36.4387Y-126.5295
G1Z5.0F20000
(Plotting speed under)
G1 F8000

G1X81.8202Y-124.2859
G1X128.3458Y-123.1864
G1X196.8002Y-144.0157
G1X224.9319Y-124.5224
G1X270.4468Y-122.4121
G1 Z0F20000
(Start Block)

G1X36.3757Y-127.5248
G1Z5.0F20000
(Plotting speed under)
G1 F8000

G1X81.6619Y-125.1860
G1X128.0138Y-123.9127
G1X196.7638Y-145.0377
G1X224.7048Y-125.3536
G1X270.6890Y-123.7127
G1 Z0F20000
(Start Block)

G1X36.3127Y-128.5201
G1Z5.0F20000
(Plotting speed under)
G1 F8000

G1X81.5036Y-126.0860
G1X127.6817Y-124.6390
G1X196.7275Y-146.0597
G1X224.4776Y-126.1847
G1X270.9313Y-125.0133
G1 Z0F20000
(Start Block)

G1X36.2497Y-129.5155
G1Z5.0F20000
(Plotting speed under)
G1 F8000

G1X81.3453Y-126.9860
G1X127.3497Y-125.3653
G1X196.6912Y-147.0817
G1X224.2504Y-127.0159
G1X271.1735Y-126.3139
G1 Z0F20000
(Start Block)

G1X36.1867Y-130.5108
G1Z5.0F20000
(Plotting speed under)
G1 F8000

G1X81.1870Y-127.8861
G1X127.0176Y-126.0916
G1X196.6548Y-148.1037
G1X224.0232Y-127.8470
G1X271.4158Y-127.6145
G1 Z0F20000
(Start Block)

G1X36.1237Y-131.5061
G1Z5.0F20000
(Plotting speed under)
G1 F8000

G1X81.0287Y-128.7861
G1X126.6856Y-126.8179
G1X196.6185Y-149.1257
G1X223.7961Y-128.6782
G1X271.6581Y-128.9151
G1 Z0F20000
(Start Block)

G1X36.0606Y-132.5014
G1Z5.0F20000
(Plotting speed under)
G1 F8000

G1X80.8704Y-129.6861
G1X126.3535Y-127.5442
G1X196.5822Y-150.1478
G1X223.5689Y-129.5094
G1X271.9003Y-130.2157
G1 Z0F20000
(Start Block)

G1X35.9976Y-133.4968
G1Z5.0F20000
(Plotting speed under)
G1 F8000

G1X80.7121Y-130.5862
G1X126.0215Y-128.2704
G1X196.5459Y-151.1698
G1X223.3417Y-130.3405
G1X272.1426Y-131.5163
G1 Z0F20000
(Start Block)

G1X35.9346Y-134.4921
G1Z5.0F20000
(Plotting speed under)
G1 F8000

G1X80.5538Y-131.4862
G1X125.6894Y-128.9967
G1X196.5096Y-152.1918
G1X223.1145Y-131.1717
G1X272.3849Y-132.8169
G1 Z0F20000
(Start Block)

G1X35.8716Y-135.4874
G1Z5.0F20000
(Plotting speed under)
G1 F8000

G1X80.3955Y-132.3862
G1X125.3574Y-129.7230
G1X196.4732Y-153.2138
G1X222.8873Y-132.0028
G1X272.6271Y-134.1175
G1 Z0F20000
(Start Block)

G1X35.8086Y-136.4827
G1Z5.0F20000
(Plotting speed under)
G1 F8000

G1X80.2372Y-133.2863
G1X125.0253Y-130.4493
G1X196.4369Y-154.2358
G1X222.6602Y-132.8340
G1X272.8694Y-135.4181
G1 Z0F20000
(Start Block)

G1X35.7456Y-137.4781
G1Z5.0F20000
(Plotting speed under)
G1 F8000

G1X80.0789Y-134.1863
G1X124.6933Y-131.1756
G1X196.4006Y-155.2578
G1X222.4330Y-133.6651
G1X273.1117Y-136.7187
G1 Z0F20000
(Start Block)

G1X35.6826Y-138.4734
G1Z5.0F20000
(Plotting speed under)
G1 F8000

G1X79.9206Y-135.0863
G1X124.3612Y-131.9019
G1X196.3643Y-156.2798
G1X222.2058Y-134.4963
G1X273.3539Y-138.0193
G1 Z0F20000
(Start Block)

G1X35.6196Y-139.4687
G1Z5.0F20000
(Plotting speed under)
G1 F8000

G1X79.7623Y-135.9864
G1X124.0292Y-132.6282
G1X196.3279Y-157.3018
G1X221.9786Y-135.3274
G1X273.5962Y-139.3199
G1 Z0F20000
(Start Block)

G1X35.5566Y-140.4640
G1Z5.0F20000
(Plotting speed under)
G1 F8000

G1X123.6972Y-133.3545
G1X196.2916Y-158.3238
G1X221.7515Y-136.1586
G1X273.8384Y-140.6205
G1 Z0F20000
(Start Block)

G1X35.4936Y-141.4594
G1Z5.0F20000
(Plotting speed under)
G1 F8000

G1X123.3651Y-134.0807
G1X196.2553Y-159.3458
G1X221.5243Y-136.9898
G1X274.0807Y-141.9211
G1 Z0F20000
(Start Block)

G1X35.4306Y-142.4547
G1Z5.0F20000
(Plotting speed under)
G1 F8000

G1X79.2874Y-138.6865
G1X123.0331Y-134.8070
G1X196.2190Y-160.3679
G1X221.2971Y-137.8209
G1X274.3230Y-143.2217
G1 Z0F20000
(Start Block)

G1X35.3676Y-143.4500
G1Z5.0F20000
(Plotting speed under)
G1 F8000

G1X79.1291Y-139.5865
G1X122.7010Y-135.5333
G1X196.1826Y-161.3899
G1X221.0699Y-138.6521
G1X274.5653Y-144.5223
G1 Z0F20000
(Start Block)

G1X35.3046Y-144.4454
G1Z5.0F20000
(Plotting speed under)
G1 F8000

G1X78.9708Y-140.4865
G1X122.3689Y-136.2596
G1X196.1463Y-162.4119
G1X220.8427Y-139.4832
G1X274.8075Y-145.8229
G1 Z0F20000
(Start Block)

G1X35.6377Y-145.8368
G1Z5.0F20000
(Plotting speed under)
G1 F8000

G1X79.2589Y-141.8329
G1X123.1439Y-138.0929
G1X195.4230Y-162.7469
G1X220.9486Y-140.6474
G1X274.9722Y-147.0460
G1 Z0F20000
(Start Block)

G1X35.9709Y-147.2283
G1Z5.0F20000
(Plotting speed under)
G1 F8000

G1X79.5469Y-143.1793
G1X123.9189Y-139.9262
G1X194.6998Y-163.0820
G1X221.0545Y-141.8116
G1X275.1370Y-148.2690
G1 Z0F20000
(Start Block)

G1X36.3040Y-148.6198
G1Z5.0F20000
(Plotting speed under)
G1 F8000

G1X79.8350Y-144.5257
G1X124.6939Y-141.7595
G1X193.9766Y-163.4171
G1X221.1604Y-142.9758
G1X275.3017Y-149.4921
G1 Z0F20000
(Start Block)

G1X36.6371Y-150.0113
G1Z5.0F20000
(Plotting speed under)
G1 F8000

G1X80.1230Y-145.8721
G1X125.4688Y-143.5928
G1X193.2533Y-163.7522
G1X221.2662Y-144.1400
G1X275.4664Y-150.7152
G1 Z0F20000
(Start Block)

G1X36.9703Y-151.4028
G1Z5.0F20000
(Plotting speed under)
G1 F8000

G1X80.4110Y-147.2184
G1X126.2438Y-145.4261
G1X192.5301Y-164.0873
G1X221.3721Y-145.3042
G1X275.6312Y-151.9382
G1 Z0F20000
(Start Block)

G1X37.3034Y-152.7942
G1Z5.0F20000
(Plotting speed under)
G1 F8000

G1X80.6991Y-148.5648
G1X127.0187Y-147.2594
G1X191.8068Y-164.4224
G1X221.4779Y-146.4684
G1X275.7959Y-153.1613
G1 Z0F20000
(Start Block)

G1X37.6366Y-154.1857
G1Z5.0F20000
(Plotting speed under)
G1 F8000

G1X80.9871Y-149.9112
G1X127.7937Y-149.0927
G1X191.0836Y-164.7575
G1X221.5838Y-147.6326
G1X275.9606Y-154.3844
G1 Z0F20000
(Start Block)

G1X37.9697Y-155.5772
G1Z5.0F20000
(Plotting speed under)
G1 F8000

G1X81.2752Y-151.2576
G1X128.5687Y-150.9260
G1X190.3603Y-165.0925
G1X221.6897Y-148.7968
G1X276.1253Y-155.6074
G1 Z0F20000
(Start Block)

G1X38.3029Y-156.9687
G1Z5.0F20000
(Plotting speed under)
G1 F8000

G1X81.5633Y-152.6040
G1X129.3436Y-152.7593
G1X189.6371Y-165.4276
G1X221.7955Y-149.9610
G1X276.2901Y-156.8305
G1 Z0F20000
(Start Block)

G1X38.6360Y-158.3602
G1Z5.0F20000
(Plotting speed under)
G1 F8000

G1X81.8513Y-153.9503
G1X130.1186Y-154.5926
G1X188.9138Y-165.7627
G1X221.9014Y-151.1252
G1X276.4548Y-158.0535
G1 Z0F20000
(Start Block)

G1X38.9692Y-159.7517
G1Z5.0F20000
(Plotting speed under)
G1 F8000

G1X82.1393Y-155.2967
G1X130.8935Y-156.4259
G1X188.1906Y-166.0978
G1X222.0072Y-152.2894
G1X276.6195Y-159.2766
G1 Z0F20000
(Start Block)

G1X39.3023Y-161.1431
G1Z5.0F20000
(Plotting speed under)
G1 F8000

G1X82.4274Y-156.6431
G1X131.6685Y-158.2592
G1X187.4673Y-166.4328
G1X222.1131Y-153.4536
G1X276.7843Y-160.4997
G1 Z0F20000
(Start Block)

G1X39.6355Y-162.5346
G1Z5.0F20000
(Plotting speed under)
G1 F8000

G1X82.7154Y-157.9895
G1X132.4435Y-160.0924
G1X186.7440Y-166.7679
G1X222.2190Y-154.6178
G1X276.9490Y-161.7227
G1 Z0F20000
(Start Block)

G1X39.9686Y-163.9261
G1Z5.0F20000
(Plotting speed under)
G1 F8000

G1X83.0035Y-159.3359
G1X133.2184Y-161.9257
G1X186.0208Y-167.1030
G1X222.3248Y-155.7820
G1X277.1137Y-162.9458
G1 Z0F20000
(Start Block)

G1X40.3018Y-165.3176
G1Z5.0F20000
(Plotting speed under)
G1 F8000

G1X83.2915Y-160.6822
G1X133.9934Y-163.7590
G1X185.2975Y-167.4381
G1X222.4307Y-156.9462
G1X277.2785Y-164.1689
G1 Z0F20000
(Start Block)

G1X40.6349Y-166.7091
G1Z5.0F20000
(Plotting speed under)
G1 F8000

G1X83.5796Y-162.0286
G1X134.7684Y-165.5923
G1X184.5743Y-167.7732
G1X222.5366Y-158.1104
G1X277.4432Y-165.3919
G1 Z0F20000
(Start Block)

G1X40.9681Y-168.1006
G1Z5.0F20000
(Plotting speed under)
G1 F8000

G1X83.8676Y-163.3750
G1X135.5433Y-167.4256
G1X183.8510Y-168.1083
G1X222.6424Y-159.2746
G1X277.6079Y-166.6150
G1 Z0F20000
(Start Block)

G1X41.3012Y-169.4920
G1Z5.0F20000
(Plotting speed under)
G1 F8000

G1X84.1557Y-164.7214
G1X136.3183Y-169.2589
G1X183.1278Y-168.4434
G1X222.7483Y-160.4388
G1X277.7726Y-167.8381
G1 Z0F20000
(Start Block)

G1X41.6344Y-170.8835
G1Z5.0F20000
(Plotting speed under)
G1 F8000

G1X84.4437Y-166.0678
G1X137.0932Y-171.0922
G1X182.4045Y-168.7784
G1X222.8541Y-161.6030
G1X277.9374Y-169.0611
G1 Z0F20000
(Start Block)

G1X41.9675Y-172.2751
G1Z5.0F20000
(Plotting speed under)
G1 F8000

G1X84.7317Y-167.4141
G1X137.8682Y-172.9256
G1X181.6813Y-169.1135
G1X222.9600Y-162.7672
G1X278.1021Y-170.2842
G1 Z0F20000
(Start Block)

G1X42.3007Y-173.6665
G1Z5.0F20000
(Plotting speed under)
G1 F8000

G1X85.0198Y-168.7605
G1X138.6432Y-174.7589
G1X180.9580Y-169.4486
G1X223.0659Y-163.9313
G1X278.2668Y-171.5073
G1 Z0F20000
(Start Block)

G1X42.6338Y-175.0580
G1Z5.0F20000
(Plotting speed under)
G1 F8000

G1X85.3079Y-170.1069
G1X139.4181Y-176.5922
G1X180.2348Y-169.7837
G1X223.1717Y-165.0955
G1X278.4316Y-172.7304
G1 Z0F20000
(Start Block)

G1X42.9670Y-176.4495
G1Z5.0F20000
(Plotting speed under)
G1 F8000

G1X85.5959Y-171.4533
G1X140.1931Y-178.4255
G1X179.5115Y-170.1188
G1X223.2776Y-166.2598
G1X278.5963Y-173.9534
G1 Z0F20000
(Start Block)

G1X43.3001Y-177.8410
G1Z5.0F20000
(Plotting speed under)
G1 F8000

G1X85.8840Y-172.7997
G1X140.9681Y-180.2588
G1X178.7883Y-170.4539
G1X223.3835Y-167.4240
G1X278.7610Y-175.1765
G1 Z0F20000
(Start Block)

G1X43.6333Y-179.2325
G1Z5.0F20000
(Plotting speed under)
G1 F8000

G1X86.1720Y-174.1461
G1X141.7430Y-182.0920
G1X178.0650Y-170.7890
G1X223.4893Y-168.5881
G1X278.9258Y-176.3995
G1 Z0F20000
(Start Block)

G1X43.9664Y-180.6240
G1Z5.0F20000
(Plotting speed under)
G1 F8000

G1X86.4600Y-175.4925
G1X142.5180Y-183.9253
G1X177.3418Y-171.1240
G1X223.5952Y-169.7523
G1X279.0905Y-177.6226
G1 Z0F20000
(Start Block)

G1X44.2996Y-182.0154
G1Z5.0F20000
(Plotting speed under)
G1 F8000

G1X86.7481Y-176.8389
G1X143.2929Y-185.7586
G1X176.6185Y-171.4591
G1X223.7010Y-170.9165
G1X279.2552Y-178.8457
G1 Z0F20000
(Start Block)

G1X44.6327Y-183.4069
G1Z5.0F20000
(Plotting speed under)
G1 F8000

G1X87.0361Y-178.1853
G1X144.0679Y-187.5919
G1X175.8953Y-171.7942
G1X223.8069Y-172.0808
G1X279.4199Y-180.0687
G1 Z0F20000
(Start Block)

G1X44.9659Y-184.7984
G1Z5.0F20000
(Plotting speed under)
G1 F8000

G1X87.3242Y-179.5316
G1X144.8429Y-189.4252
G1X175.1720Y-172.1293
G1X223.9128Y-173.2450
G1X279.5846Y-181.2918
G1 Z0F20000
(Start Block)

G1X45.2990Y-186.1899
G1Z5.0F20000
(Plotting speed under)
G1 F8000

G1X87.6122Y-180.8780
G1X145.6178Y-191.2585
G1X174.4488Y-172.4644
G1X224.0186Y-174.4092
G1X279.7494Y-182.5148
G1 Z0F20000
(Start Block)

G1X45.6322Y-187.5814
G1Z5.0F20000
(Plotting speed under)
G1 F8000

G1X87.9003Y-182.2244
G1X146.3928Y-193.0918
G1X173.7255Y-172.7995
G1X224.1245Y-175.5734
G1X279.9141Y-183.7379
G1 Z0F20000
(Start Block)

G1X45.9653Y-188.9728
G1Z5.0F20000
(Plotting speed under)
G1 F8000

G1X88.1883Y-183.5708
G1X147.1678Y-194.9251
G1X173.0023Y-173.1346
G1X224.2304Y-176.7376
G1X280.0788Y-184.9610
G1 Z0F20000
(Start Block)

G1X46.2985Y-190.3643
G1Z5.0F20000
(Plotting speed under)
G1 F8000

G1X88.4764Y-184.9172
G1X147.9427Y-196.7584
G1X172.2790Y-173.4697
G1X224.3362Y-177.9018
G1X280.2436Y-186.1840
G1 Z0F20000
(Start Block)

G1X46.6316Y-191.7558
G1Z5.0F20000
(Plotting speed under)
G1 F8000

G1X88.7644Y-186.2635
G1X148.7177Y-198.5917
G1X171.5558Y-173.8047
G1X224.4421Y-179.0660
G1X280.4083Y-187.4071
G1 Z0F20000
(Start Block)

G1X46.9648Y-193.1473
G1Z5.0F20000
(Plotting speed under)
G1 F8000

G1X89.0525Y-187.6099
G1X149.4926Y-200.4250
G1X170.8325Y-174.1398
G1X224.5479Y-180.2302
G1X280.5730Y-188.6302
G1 Z0F20000
(Start Block)

G1X47.2979Y-194.5388
G1Z5.0F20000
(Plotting speed under)
G1 F8000

G1X89.3405Y-188.9563
G1X150.2676Y-202.2583
G1X170.1092Y-174.4749
G1X224.6538Y-181.3944
G1X280.7378Y-189.8532
G1 Z0F20000
(Start Block)

G1X47.6311Y-195.9303
G1Z5.0F20000
(Plotting speed under)
G1 F8000

G1X89.6286Y-190.3027
G1X151.0426Y-204.0916
G1X169.3860Y-174.8100
G1X224.7597Y-182.5586
G1X280.9025Y-191.0763
G1 Z0F20000
(Start Block)

G1X47.9642Y-197.3218
G1Z5.0F20000
(Plotting speed under)
G1 F8000

G1X89.9166Y-191.6491
G1X151.8175Y-205.9249
G1X168.6627Y-175.1451
G1X281.0672Y-192.2993
G1 Z0F20000
(Start Block)

G1X48.2974Y-198.7133
G1Z5.0F20000
(Plotting speed under)
G1 F8000

G1X90.2047Y-192.9954
G1X152.5925Y-207.7582
G1X167.9395Y-175.4801
G1X224.9714Y-184.8869
G1X281.2319Y-193.5224
G1 Z0F20000
(Start Block)

G1X48.6305Y-200.1047
G1Z5.0F20000
(Plotting speed under)
G1 F8000

G1X90.4927Y-194.3418
G1X153.3675Y-209.5915
G1X167.2162Y-175.8152
G1X225.0772Y-186.0511
G1X281.3967Y-194.7455
G1 Z0F20000
(Start Block)

G1X48.9637Y-201.4962
G1Z5.0F20000
(Plotting speed under)
G1 F8000

G1X90.7808Y-195.6882
G1X154.1424Y-211.4248
G1X166.4930Y-176.1503
G1X225.1831Y-187.2153
G1X281.5614Y-195.9685
G1 Z0F20000
(Start Block)

G1X49.2968Y-202.8877
G1Z5.0F20000
(Plotting speed under)
G1 F8000

G1X91.0688Y-197.0346
G1X154.9174Y-213.2581
G1X165.7697Y-176.4854
G1X225.2890Y-188.3795
G1X281.7261Y-197.1916
G1 Z0F20000
(Start Block)

G1X49.6300Y-204.2792
G1Z5.0F20000
(Plotting speed under)
G1 F8000

G1X91.3568Y-198.3810
G1X155.6923Y-215.0914
G1X165.0465Y-176.8205
G1X225.3949Y-189.5437
G1X281.8909Y-198.4147
G1 Z0F20000
(Start Block)

G1X49.9631Y-205.6707
G1Z5.0F20000
(Plotting speed under)
G1 F8000

G1X91.6449Y-199.7273
G1X156.4673Y-216.9247
G1X164.3232Y-177.1556
G1X225.5007Y-190.7079
G1X282.0556Y-199.6377
G1 Z0F20000
(Start Block)

G1X50.2963Y-207.0621
G1Z5.0F20000
(Plotting speed under)
G1 F8000

G1X91.9329Y-201.0737
G1X157.2423Y-218.7580
G1X163.6000Y-177.4906
G1X225.6066Y-191.8721
G1X282.2203Y-200.8608
G1 Z0F20000
(Start Block)

G1X49.5018Y-207.3261
G1Z5.0F20000
(Plotting speed under)
G1 F8000

G1X92.2904Y-202.4896
G1X157.0086Y-219.5826
G1X164.1159Y-179.0649
G1X225.6001Y-192.9240
G1X281.5206Y-201.2194
G1 Z0F20000
(Start Block)

G1X48.7074Y-207.5899
G1Z5.0F20000
(Plotting speed under)
G1 F8000

G1X92.6480Y-203.9054
G1X156.7750Y-220.4073
G1X164.6319Y-180.6392
G1X225.5937Y-193.9759
G1X280.8208Y-201.5779
G1 Z0F20000
(Start Block)

G1X47.9130Y-207.8538
G1Z5.0F20000
(Plotting speed under)
G1 F8000

G1X93.0055Y-205.3212
G1X156.5413Y-221.2321
G1X165.1478Y-182.2135
G1X225.5873Y-195.0278
G1X280.1211Y-201.9365
G1 Z0F20000
(Start Block)

G1X47.1186Y-208.1178
G1Z5.0F20000
(Plotting speed under)
G1 F8000

G1X93.3630Y-206.7371
G1X156.3077Y-222.0568
G1X165.6637Y-183.7878
G1X225.5809Y-196.0798
G1X279.4213Y-202.2951
G1 Z0F20000
(Start Block)

G1X46.3241Y-208.3817
G1Z5.0F20000
(Plotting speed under)
G1 F8000

G1X93.7205Y-208.1529
G1X156.0740Y-222.8815
G1X166.1797Y-185.3620
G1X225.5745Y-197.1317
G1X278.7215Y-202.6537
G1 Z0F20000
(Start Block)

G1X45.5297Y-208.6456
G1Z5.0F20000
(Plotting speed under)
G1 F8000

G1X94.0780Y-209.5688
G1X155.8404Y-223.7062
G1X166.6956Y-186.9363
G1X225.5680Y-198.1836
G1X278.0218Y-203.0123
G1 Z0F20000
(Start Block)

G1X44.7353Y-208.9095
G1Z5.0F20000
(Plotting speed under)
G1 F8000

G1X94.4355Y-210.9846
G1X155.6068Y-224.5309
G1X167.2116Y-188.5106
G1X225.5616Y-199.2355
G1X277.3220Y-203.3708
G1 Z0F20000
(Start Block)

G1X43.9408Y-209.1734
G1Z5.0F20000
(Plotting speed under)
G1 F8000

G1X94.7930Y-212.4005
G1X155.3731Y-225.3556
G1X167.7275Y-190.0849
G1X225.5552Y-200.2874
G1X276.6223Y-203.7294
G1 Z0F20000
(Start Block)

G1X43.1464Y-209.4373
G1Z5.0F20000
(Plotting speed under)
G1 F8000

G1X95.1505Y-213.8163
G1X155.1395Y-226.1802
G1X168.2434Y-191.6591
G1X225.5488Y-201.3393
G1X275.9225Y-204.0880
G1 Z0F20000
(Start Block)

G1X42.3520Y-209.7012
G1Z5.0F20000
(Plotting speed under)
G1 F8000

G1X95.5080Y-215.2321
G1X154.9058Y-227.0049
G1X168.7594Y-193.2334
G1X225.5423Y-202.3912
G1X275.2228Y-204.4466
G1 Z0F20000
(Start Block)

G1X41.5575Y-209.9651
G1Z5.0F20000
(Plotting speed under)
G1 F8000

G1X95.8655Y-216.6480
G1X154.6722Y-227.8296
G1X169.2753Y-194.8077
G1X225.5359Y-203.4431
G1X274.5230Y-204.8052
G1 Z0F20000
(Start Block)

G1X40.7631Y-210.2290
G1Z5.0F20000
(Plotting speed under)
G1 F8000

G1X96.2230Y-218.0638
G1X154.4386Y-228.6543
G1X169.7913Y-196.3820
G1X225.5295Y-204.4950
G1X273.8233Y-205.1637
G1 Z0F20000
(Start Block)

G1X39.9687Y-210.4929
G1Z5.0F20000
(Plotting speed under)
G1 F8000

G1X96.5805Y-219.4797
G1X154.2049Y-229.4790
G1X170.3072Y-197.9563
G1X225.5230Y-205.5470
G1X273.1235Y-205.5223
G1 Z0F20000
(Start Block)

G1X39.1743Y-210.7568
G1Z5.0F20000
(Plotting speed under)
G1 F8000

G1X96.9380Y-220.8956
G1X153.9713Y-230.3037
G1X170.8232Y-199.5305
G1X225.5166Y-206.5989
G1X272.4237Y-205.8809
G1 Z0F20000
(Start Block)

G1X38.3798Y-211.0207
G1Z5.0F20000
(Plotting speed under)
G1 F8000

G1X97.2956Y-222.3114
G1X153.7376Y-231.1284
G1X171.3391Y-201.1048
G1X225.5102Y-207.6508
G1X271.7240Y-206.2395
G1 Z0F20000
(Start Block)

G1X37.5854Y-211.2846
G1Z5.0F20000
(Plotting speed under)
G1 F8000

G1X97.6531Y-223.7273
G1X153.5040Y-231.9531
G1X171.8551Y-202.6791
G1X225.5038Y-208.7027
G1X271.0242Y-206.5980
G1 Z0F20000
(Start Block)

G1X36.7910Y-211.5485
G1Z5.0F20000
(Plotting speed under)
G1 F8000

G1X98.0106Y-225.1431
G1X153.2704Y-232.7778
G1X172.3711Y-204.2534
G1X225.4974Y-209.7546
G1X270.3245Y-206.9566
G1 Z0F20000
(Start Block)

G1X35.9965Y-211.8124
G1Z5.0F20000
(Plotting speed under)
G1 F8000

G1X98.3681Y-226.5589
G1X153.0367Y-233.6025
G1X172.8870Y-205.8276
G1X225.4910Y-210.8065
G1X269.6247Y-207.3152
G1 Z0F20000
(Start Block)

G1X35.2021Y-212.0763
G1Z5.0F20000
(Plotting speed under)
G1 F8000

G1X98.7256Y-227.9748
G1X152.8031Y-234.4272
G1X173.4029Y-207.4019
G1X225.4845Y-211.8584
G1X268.9249Y-207.6738
G1 Z0F20000
(Start Block)

G1X34.4077Y-212.3402
G1Z5.0F20000
(Plotting speed under)
G1 F8000

G1X99.0831Y-229.3906
G1X152.5694Y-235.2519
G1X173.9189Y-208.9762
G1X225.4781Y-212.9103
G1X268.2252Y-208.0324
G1 Z0F20000
(Start Block)

G1X33.6132Y-212.6041
G1Z5.0F20000
(Plotting speed under)
G1 F8000

G1X99.4406Y-230.8065
G1X152.3358Y-236.0766
G1X174.4348Y-210.5505
G1X225.4717Y-213.9622
G1X267.5254Y-208.3909
G1 Z0F20000
(Start Block)

G1X32.8188Y-212.8680
G1Z5.0F20000
(Plotting speed under)
G1 F8000

G1X99.7981Y-232.2223
G1X152.1021Y-236.9012
G1X174.9507Y-212.1247
G1X225.4652Y-215.0141
G1X266.8256Y-208.7495
G1 Z0F20000
(Start Block)

G1X32.0244Y-213.1319
G1Z5.0F20000
(Plotting speed under)
G1 F8000

G1X100.1556Y-233.6382
G1X151.8685Y-237.7260
G1X175.4667Y-213.6990
G1X225.4588Y-216.0661
G1X266.1259Y-209.1081
G1 Z0F20000
(Start Block)

G1X31.2300Y-213.3958
G1Z5.0F20000
(Plotting speed under)
G1 F8000

G1X100.5131Y-235.0540
G1X151.6349Y-238.5506
G1X175.9826Y-215.2733
G1X225.4524Y-217.1180
G1X265.4261Y-209.4667
G1 Z0F20000
(Start Block)

G1X30.4355Y-213.6597
G1Z5.0F20000
(Plotting speed under)
G1 F8000

G1X100.8707Y-236.4698
G1X151.4012Y-239.3753
G1X176.4986Y-216.8476
G1X225.4460Y-218.1699
G1X264.7264Y-209.8253
G1 Z0F20000
(Start Block)

G1X29.6411Y-213.9236
G1Z5.0F20000
(Plotting speed under)
G1 F8000

G1X101.2282Y-237.8857
G1X151.1676Y-240.2000
G1X177.0145Y-218.4218
G1X225.4395Y-219.2218
G1X264.0266Y-210.1838
G1 Z0F20000
(Start Block)

G1X28.8466Y-214.1875
G1Z5.0F20000
(Plotting speed under)
G1 F8000

G1X101.5857Y-239.3015
G1X150.9339Y-241.0247
G1X177.5305Y-219.9961
G1X225.4331Y-220.2737
G1X263.3269Y-210.5424
G1 Z0F20000
(Start Block)

G1X28.0522Y-214.4514
G1Z5.0F20000
(Plotting speed under)
G1 F8000

G1X101.9432Y-240.7174
G1X150.7003Y-241.8494
G1X178.0464Y-221.5705
G1X225.4267Y-221.3256
G1X262.6271Y-210.9010
G1 Z0F20000
(Start Block)

G1X27.2578Y-214.7153
G1Z5.0F20000
(Plotting speed under)
G1 F8000

G1X102.3007Y-242.1332
G1X150.4667Y-242.6741
G1X178.5624Y-223.1447
G1X225.4203Y-222.3776
G1X261.9273Y-211.2596
G1 Z0F20000
(Start Block)

G1X26.4633Y-214.9792
G1Z5.0F20000
(Plotting speed under)
G1 F8000

G1X102.6582Y-243.5490
G1X150.2330Y-243.4988
G1X179.0783Y-224.7190
G1X225.4139Y-223.4295
G1X261.2276Y-211.6181
G1 Z0F20000
(Start Block)

G1X25.6689Y-215.2432
G1Z5.0F20000
(Plotting speed under)
G1 F8000

G1X103.0157Y-244.9649
G1X149.9994Y-244.3235
G1X179.5942Y-226.2933
G1X225.4074Y-224.4814
G1X260.5278Y-211.9767
G1 Z0F20000
(Start Block)

G1X24.8745Y-215.5071
G1Z5.0F20000
(Plotting speed under)
G1 F8000

G1X103.3732Y-246.3807
G1X149.7657Y-245.1482
G1X180.1102Y-227.8675
G1X225.4010Y-225.5333
G1X259.8281Y-212.3353
G1 Z0F20000
(Start Block)

G1X24.0800Y-215.7709
G1Z5.0F20000
(Plotting speed under)
G1 F8000

G1X103.7307Y-247.7966
G1X149.5321Y-245.9729
G1X180.6261Y-229.4418
G1X225.3946Y-226.5852
G1X259.1283Y-212.6939
G1 Z0F20000
(Start Block)

G1X23.2856Y-216.0349
G1Z5.0F20000
(Plotting speed under)
G1 F8000

G1X104.0882Y-249.2124
G1X149.2984Y-246.7976
G1X181.1421Y-231.0161
G1X225.3882Y-227.6371
G1X258.4286Y-213.0525
G1 Z0F20000
(Start Block)

G1X22.4912Y-216.2988
G1Z5.0F20000
(Plotting speed under)
G1 F8000

G1X104.4457Y-250.6283
G1X149.0648Y-247.6222
G1X181.6580Y-232.5904
G1X225.3817Y-228.6890
G1X257.7288Y-213.4110
G1 Z0F20000
(Start Block)

G1X21.6967Y-216.5627
G1Z5.0F20000
(Plotting speed under)
G1 F8000

G1X104.8032Y-252.0441
G1X148.8312Y-248.4470
G1X182.1740Y-234.1647
G1X225.3753Y-229.7409
G1X257.0291Y-213.7696
G1 Z0F20000
(Start Block)

G1X20.9023Y-216.8266
G1Z5.0F20000
(Plotting speed under)
G1 F8000

G1X105.1607Y-253.4599
G1X148.5975Y-249.2716
G1X182.6899Y-235.7389
G1X225.3689Y-230.7928
G1X256.3293Y-214.1282
G1 Z0F20000
(Start Block)

G1X20.1079Y-217.0905
G1Z5.0F20000
(Plotting speed under)
G1 F8000

G1X105.5182Y-254.8758
G1X148.3639Y-250.0963
G1X183.2058Y-237.3132
G1X225.3625Y-231.8448
G1X255.6295Y-214.4868
G1 Z0F20000
(Start Block)

G1X19.3134Y-217.3544
G1Z5.0F20000
(Plotting speed under)
G1 F8000

G1X105.8758Y-256.2916
G1X148.1302Y-250.9210
G1X183.7218Y-238.8875
G1X225.3560Y-232.8967
G1X254.9298Y-214.8453
G1 Z0F20000
(Start Block)

G1X18.5190Y-217.6183
G1Z5.0F20000
(Plotting speed under)
G1 F8000

G1X106.2333Y-257.7075
G1X147.8966Y-251.7457
G1X184.2377Y-240.4618
G1X225.3496Y-233.9486
G1X254.2300Y-215.2039
G1 Z0F20000
(Start Block)

G1X17.7246Y-217.8822
G1Z5.0F20000
(Plotting speed under)
G1 F8000

G1X106.5908Y-259.1233
G1X147.6630Y-252.5704
G1X184.7537Y-242.0360
G1X225.3432Y-235.0005
G1X253.5303Y-215.5625
G1 Z0F20000
(Start Block)

G1X16.9301Y-218.1461
G1Z5.0F20000
(Plotting speed under)
G1 F8000

G1X106.9483Y-260.5392
G1X147.4293Y-253.3951
G1X185.2696Y-243.6103
G1X225.3368Y-236.0524
G1X252.8305Y-215.9211
G1 Z0F20000
(Start Block)

G1X16.1357Y-218.4100
G1Z5.0F20000
(Plotting speed under)
G1 F8000

G1X107.3058Y-261.9550
G1X147.1957Y-254.2198
G1X185.7855Y-245.1846
G1X225.3303Y-237.1043
G1X252.1307Y-216.2796
G1 Z0F20000
(Start Block)

G1X15.3413Y-218.6739
G1Z5.0F20000
(Plotting speed under)
G1 F8000

G1X107.6633Y-263.3708
G1X186.3015Y-246.7589
G1X225.3239Y-238.1562
G1X251.4310Y-216.6382
G1 Z0F20000
(Start Block)

G1X14.5469Y-218.9378
G1Z5.0F20000
(Plotting speed under)
G1 F8000

G1X108.0208Y-264.7867
G1X146.7284Y-255.8692
G1X186.8174Y-248.3332
G1X225.3175Y-239.2081
G1X250.7313Y-216.9968
G1 Z0F20000
(Start Block)

G1X14.8336Y-220.2829
G1Z5.0F20000
(Plotting speed under)
G1 F8000

G1X107.7559Y-265.5801
G1X146.1225Y-256.3216
G1X186.7526Y-249.3266
G1X225.5401Y-240.4890
G1X251.3197Y-218.6436
G1 Z0F20000
(Start Block)

G1X15.1204Y-221.6281
G1Z5.0F20000
(Plotting speed under)
G1 F8000

G1X107.4910Y-266.3735
G1X145.5166Y-256.7741
G1X186.6877Y-250.3201
G1X225.7627Y-241.7700
G1X251.9081Y-220.2903
G1 Z0F20000
(Start Block)

G1X15.4072Y-222.9732
G1Z5.0F20000
(Plotting speed under)
G1 F8000

G1X107.2261Y-267.1669
G1X144.9107Y-257.2265
G1X186.6228Y-251.3135
G1X225.9853Y-243.0509
G1X252.4965Y-221.9371
G1 Z0F20000
(Start Block)

G1X15.6940Y-224.3183
G1Z5.0F20000
(Plotting speed under)
G1 F8000

G1X106.9611Y-267.9603
G1X144.3049Y-257.6790
G1X186.5579Y-252.3070
G1X226.2079Y-244.3318
G1X253.0849Y-223.5838
G1 Z0F20000
(Start Block)

G1X15.9808Y-225.6635
G1Z5.0F20000
(Plotting speed under)
G1 F8000

G1X106.6962Y-268.7537
G1X143.6990Y-258.1314
G1X186.4930Y-253.3004
G1X226.4305Y-245.6128
G1X253.6733Y-225.2306
G1 Z0F20000
(Start Block)

G1X16.2676Y-227.0086
G1Z5.0F20000
(Plotting speed under)
G1 F8000

G1X106.4313Y-269.5472
G1X143.0931Y-258.5839
G1X186.4282Y-254.2939
G1X226.6531Y-246.8937
G1X254.2617Y-226.8773
G1 Z0F20000
(Start Block)

G1X16.5544Y-228.3537
G1Z5.0F20000
(Plotting speed under)
G1 F8000

G1X106.1663Y-270.3406
G1X142.4872Y-259.0363
G1X186.3633Y-255.2873
G1X226.8756Y-248.1746
G1X254.8501Y-228.5241
G1 Z0F20000
(Start Block)

G1X16.8412Y-229.6988
G1Z5.0F20000
(Plotting speed under)
G1 F8000

G1X105.9014Y-271.1340
G1X141.8813Y-259.4888
G1X186.2984Y-256.2808
G1X227.0982Y-249.4555
G1X255.4385Y-230.1708
G1 Z0F20000
(Start Block)

G1X17.1280Y-231.0440
G1Z5.0F20000
(Plotting speed under)
G1 F8000

G1X105.6365Y-271.9274
G1X141.2754Y-259.9412
G1X186.2335Y-257.2743
G1X227.3208Y-250.7365
G1X256.0269Y-231.8175
G1 Z0F20000
(Start Block)

G1X17.4148Y-232.3891
G1Z5.0F20000
(Plotting speed under)
G1 F8000

G1X105.3716Y-272.7208
G1X140.6696Y-260.3937
G1X186.1687Y-258.2677
G1X227.5434Y-252.0174
G1X256.6153Y-233.4643
G1 Z0F20000
(Start Block)

G1X17.7015Y-233.7342
G1Z5.0F20000
(Plotting speed under)
G1 F8000

G1X105.1067Y-273.5143
G1X140.0637Y-260.8461
G1X186.1038Y-259.2612
G1X227.7660Y-253.2983
G1X257.2037Y-235.1110
G1 Z0F20000
(Start Block)

G1X17.9883Y-235.0793
G1Z5.0F20000
(Plotting speed under)
G1 F8000

G1X104.8417Y-274.3077
G1X139.4578Y-261.2986
G1X186.0389Y-260.2546
G1X227.9886Y-254.5793
G1X257.7921Y-236.7578
G1 Z0F20000
(Start Block)

G1X18.2751Y-236.4245
G1Z5.0F20000
(Plotting speed under)
G1 F8000

G1X104.5768Y-275.1011
G1X138.8519Y-261.7510
G1X185.9740Y-261.2481
G1X228.2112Y-255.8602
G1X258.3806Y-238.4045
G1 Z0F20000
(Start Block)

G1X18.5619Y-237.7696
G1Z5.0F20000
(Plotting speed under)
G1 F8000

G1X104.3119Y-275.8945
G1X138.2460Y-262.2035
G1X185.9091Y-262.2415
G1X228.4338Y-257.1411
G1X258.9690Y-240.0512
G1 Z0F20000
(Start Block)

G1X18.8487Y-239.1147
G1Z5.0F20000
(Plotting speed under)
G1 F8000

G1X104.0470Y-276.6879
G1X137.6401Y-262.6559
G1X185.8443Y-263.2350
G1X228.6564Y-258.4220
G1X259.5574Y-241.6980
G1 Z0F20000
(Start Block)

G1X19.1355Y-240.4598
G1Z5.0F20000
(Plotting speed under)
G1 F8000

G1X103.7820Y-277.4813
G1X137.0342Y-263.1084
G1X185.7794Y-264.2284
G1X228.8790Y-259.7030
G1X260.1458Y-243.3447
G1 Z0F20000
(Start Block)

G1X19.4223Y-241.8050
G1Z5.0F20000
(Plotting speed under)
G1 F8000

G1X103.5171Y-278.2747
G1X136.4284Y-263.5608
G1X185.7145Y-265.2219
G1X229.1016Y-260.9839
G1X260.7342Y-244.9915
G1 Z0F20000
(Start Block)

G1X19.7091Y-243.1501
G1Z5.0F20000
(Plotting speed under)
G1 F8000

G1X103.2522Y-279.0682
G1X135.8225Y-264.0133
G1X185.6496Y-266.2153
G1X229.3242Y-262.2648
G1X261.3226Y-246.6382
G1 Z0F20000
(Start Block)

G1X19.9959Y-244.4952
G1Z5.0F20000
(Plotting speed under)
G1 F8000

G1X102.9873Y-279.8616
G1X135.2166Y-264.4657
G1X185.5848Y-267.2088
G1X229.5468Y-263.5458
G1X261.9110Y-248.2849
G1 Z0F20000
(Start Block)

G1X20.2827Y-245.8403
G1Z5.0F20000
(Plotting speed under)
G1 F8000

G1X102.7224Y-280.6550
G1X134.6107Y-264.9182
G1X185.5199Y-268.2023
G1X229.7694Y-264.8267
G1X262.4994Y-249.9317
G1 Z0F20000
(Start Block)

G1X20.5694Y-247.1854
G1Z5.0F20000
(Plotting speed under)
G1 F8000

G1X102.4574Y-281.4484
G1X134.0048Y-265.3706
G1X185.4550Y-269.1957
G1X229.9920Y-266.1076
G1X263.0878Y-251.5784
G1 Z0F20000
(Start Block)

G1X20.8562Y-248.5306
G1Z5.0F20000
(Plotting speed under)
G1 F8000

G1X102.1925Y-282.2418
G1X133.3989Y-265.8231
G1X185.3901Y-270.1892
G1X230.2146Y-267.3885
G1X263.6762Y-253.2252
G1 Z0F20000
(Start Block)

G1X21.1430Y-249.8757
G1Z5.0F20000
(Plotting speed under)
G1 F8000

G1X101.9276Y-283.0352
G1X132.7931Y-266.2755
G1X185.3252Y-271.1827
G1X230.4372Y-268.6695
G1X264.2646Y-254.8719
G1 Z0F20000
(Start Block)

G1X21.4298Y-251.2208
G1Z5.0F20000
(Plotting speed under)
G1 F8000

G1X101.6627Y-283.8286
G1X132.1872Y-266.7280
G1X185.2603Y-272.1761
G1X230.6597Y-269.9504
G1X264.8530Y-256.5187
G1 Z0F20000
(Start Block)

G1X21.7166Y-252.5660
G1Z5.0F20000
(Plotting speed under)
G1 F8000

G1X101.3978Y-284.6220
G1X131.5813Y-267.1804
G1X185.1955Y-273.1696
G1X230.8823Y-271.2314
G1X265.4414Y-258.1654
G1 Z0F20000
(Start Block)

G1X22.0034Y-253.9111
G1Z5.0F20000
(Plotting speed under)
G1 F8000

G1X101.1328Y-285.4154
G1X130.9754Y-267.6329
G1X185.1306Y-274.1630
G1X231.1049Y-272.5123
G1X266.0298Y-259.8121
G1 Z0F20000
(Start Block)

G1X22.2902Y-255.2562
G1Z5.0F20000
(Plotting speed under)
G1 F8000

G1X100.8679Y-286.2088
G1X130.3695Y-268.0853
G1X185.0657Y-275.1565
G1X231.3275Y-273.7932
G1X266.6183Y-261.4589
G1 Z0F20000
(Start Block)

G1X22.5770Y-256.6013
G1Z5.0F20000
(Plotting speed under)
G1 F8000

G1X100.6030Y-287.0023
G1X129.7636Y-268.5378
G1X185.0008Y-276.1500
G1X231.5501Y-275.0742
G1X267.2067Y-263.1056
G1 Z0F20000
(Start Block)

G1X22.8638Y-257.9465
G1Z5.0F20000
(Plotting speed under)
G1 F8000

G1X100.3381Y-287.7957
G1X129.1577Y-268.9902
G1X184.9360Y-277.1434
G1X231.7727Y-276.3551
G1X267.7951Y-264.7524
G1 Z0F20000
(Start Block)

G1X23.1506Y-259.2916
G1Z5.0F20000
(Plotting speed under)
G1 F8000

G1X100.0731Y-288.5891
G1X128.5519Y-269.4427
G1X184.8711Y-278.1369
G1X231.9953Y-277.6360
G1X268.3835Y-266.3991
G1 Z0F20000
(Start Block)

G1X23.4373Y-260.6367
G1Z5.0F20000
(Plotting speed under)
G1 F8000

G1X99.8082Y-289.3825
G1X127.9460Y-269.8952
G1X184.8062Y-279.1303
G1X232.2179Y-278.9169
G1X268.9719Y-268.0458
G1 Z0F20000
(Start Block)

G1X23.7241Y-261.9818
G1Z5.0F20000
(Plotting speed under)
G1 F8000

G1X99.5433Y-290.1759
G1X127.3401Y-270.3476
G1X184.7413Y-280.1238
G1X232.4405Y-280.1979
G1X269.5603Y-269.6926
G1 Z0F20000
(Start Block)

G1X24.0109Y-263.3269
G1Z5.0F20000
(Plotting speed under)
G1 F8000

G1X99.2784Y-290.9693
G1X126.7342Y-270.8001
G1X184.6765Y-281.1172
G1X232.6631Y-281.4788
G1X270.1488Y-271.3394
G1 Z0F20000
(Start Block)

G1X24.2977Y-264.6721
G1Z5.0F20000
(Plotting speed under)
G1 F8000

G1X99.0135Y-291.7627
G1X126.1283Y-271.2525
G1X184.6116Y-282.1107
G1X232.8857Y-282.7597
G1X270.7372Y-272.9861
G1 Z0F20000
(Start Block)

G1X24.5846Y-266.0172
G1Z5.0F20000
(Plotting speed under)
G1 F8000

G1X98.7485Y-292.5561
G1X125.5224Y-271.7050
G1X184.5467Y-283.1041
G1X233.1083Y-284.0407
G1X271.3256Y-274.6329
G1 Z0F20000
(Start Block)

G1X24.8713Y-267.3623
G1Z5.0F20000
(Plotting speed under)
G1 F8000

G1X98.4836Y-293.3495
G1X124.9166Y-272.1574
G1X184.4818Y-284.0976
G1X233.3309Y-285.3216
G1X271.9140Y-276.2796
G1 Z0F20000
(Start Block)

G1X25.1581Y-268.7074
G1Z5.0F20000
(Plotting speed under)
G1 F8000

G1X98.2187Y-294.1430
G1X124.3107Y-272.6099
G1X184.4169Y-285.0911
G1X233.5535Y-286.6025
G1X272.5024Y-277.9263
G1 Z0F20000
(Start Block)

G1X25.4449Y-270.0526
G1Z5.0F20000
(Plotting speed under)
G1 F8000

G1X97.9538Y-294.9364
G1X123.7048Y-273.0623
G1X184.3521Y-286.0845
G1X233.7761Y-287.8834
G1X273.0908Y-279.5731
G1 Z0F20000
(Start Block)

G1X25.7317Y-271.3977
G1Z5.0F20000
(Plotting speed under)
G1 F8000

G1X97.6888Y-295.7298
G1X123.0989Y-273.5148
G1X184.2872Y-287.0780
G1X233.9987Y-289.1644
G1X273.6792Y-281.2198
G1 Z0F20000
(Start Block)

G1X26.0185Y-272.7429
G1Z5.0F20000
(Plotting speed under)
G1 F8000

G1X97.4239Y-296.5232
G1X122.4930Y-273.9672
G1X184.2223Y-288.0714
G1X234.2213Y-290.4453
G1X274.2676Y-282.8666
G1 Z0F20000
(Start Block)

G1X26.3053Y-274.0880
G1Z5.0F20000
(Plotting speed under)
G1 F8000

G1X97.1590Y-297.3166
G1X121.8871Y-274.4197
G1X184.1574Y-289.0649
G1X234.4438Y-291.7262
G1X274.8560Y-284.5133
G1 Z0F20000
(Start Block)

G1X26.5921Y-275.4331
G1Z5.0F20000
(Plotting speed under)
G1 F8000

G1X96.8941Y-298.1100
G1X121.2812Y-274.8721
G1X184.0926Y-290.0583
G1X234.6664Y-293.0071
G1X275.4444Y-286.1600
G1 Z0F20000
(Start Block)

G1X26.8789Y-276.7782
G1Z5.0F20000
(Plotting speed under)
G1 F8000

G1X96.6292Y-298.9034
G1X120.6753Y-275.3246
G1X184.0277Y-291.0518
G1X234.8890Y-294.2881
G1X276.0328Y-287.8068
G1 Z0F20000
(Start Block)

G1X27.1657Y-278.1234
G1Z5.0F20000
(Plotting speed under)
G1 F8000

G1X96.3642Y-299.6969
G1X120.0695Y-275.7771
G1X183.9628Y-292.0452
G1X235.1116Y-295.5690
G1X276.6212Y-289.4535
G1 Z0F20000
(Start Block)

G1X27.4525Y-279.4685
G1Z5.0F20000
(Plotting speed under)
G1 F8000

G1X96.0993Y-300.4903
G1X119.4636Y-276.2295
G1X183.8979Y-293.0387
G1X235.3342Y-296.8499
G1X277.2096Y-291.1003
G1 Z0F20000
(Start Block)

G1X27.8918Y-280.9662
G1Z5.0F20000
(Plotting speed under)
G1 F8000

G1X95.9584Y-301.4077
G1X119.6923Y-277.5165
G1X183.9631Y-294.1622
G1X234.9454Y-297.5194
G1X277.0105Y-291.9595
G1 Z0F20000
(Start Block)

G1X28.3312Y-282.4639
G1Z5.0F20000
(Plotting speed under)
G1 F8000

G1X95.8175Y-302.3251
G1X119.9210Y-278.8035
G1X184.0282Y-295.2857
G1X234.5565Y-298.1889
G1X276.8114Y-292.8187
G1 Z0F20000
(Start Block)

G1X28.7706Y-283.9616
G1Z5.0F20000
(Plotting speed under)
G1 F8000

G1X95.6766Y-303.2426
G1X120.1497Y-280.0906
G1X184.0934Y-296.4092
G1X234.1676Y-298.8583
G1X276.6122Y-293.6779
G1 Z0F20000
(Start Block)

G1X29.2100Y-285.4594
G1Z5.0F20000
(Plotting speed under)
G1 F8000

G1X95.5357Y-304.1600
G1X120.3783Y-281.3776
G1X184.1586Y-297.5327
G1X233.7787Y-299.5278
G1X276.4131Y-294.5371
G1 Z0F20000
(Start Block)

G1X29.6494Y-286.9571
G1Z5.0F20000
(Plotting speed under)
G1 F8000

G1X95.3948Y-305.0774
G1X120.6070Y-282.6646
G1X184.2237Y-298.6562
G1X233.3899Y-300.1973
G1X276.2140Y-295.3963
G1 Z0F20000
(Start Block)

G1X30.0888Y-288.4548
G1Z5.0F20000
(Plotting speed under)
G1 F8000

G1X95.2539Y-305.9948
G1X120.8357Y-283.9516
G1X184.2889Y-299.7797
G1X233.0010Y-300.8667
G1X276.0148Y-296.2555
G1 Z0F20000
(Start Block)

G1X30.5281Y-289.9525
G1Z5.0F20000
(Plotting speed under)
G1 F8000

G1X95.1130Y-306.9123
G1X121.0644Y-285.2387
G1X184.3541Y-300.9032
G1X232.6121Y-301.5362
G1X275.8157Y-297.1146
G1 Z0F20000
(Start Block)

G1X30.9675Y-291.4502
G1Z5.0F20000
(Plotting speed under)
G1 F8000

G1X94.9721Y-307.8297
G1X121.2931Y-286.5257
G1X184.4192Y-302.0267
G1X232.2233Y-302.2056
G1X275.6166Y-297.9739
G1 Z0F20000
(Start Block)

G1X31.4069Y-292.9479
G1Z5.0F20000
(Plotting speed under)
G1 F8000

G1X94.8312Y-308.7471
G1X121.5218Y-287.8127
G1X184.4844Y-303.1502
G1X231.8344Y-302.8751
G1X275.4174Y-298.8330
G1 Z0F20000
(Start Block)

G1X31.8463Y-294.4456
G1Z5.0F20000
(Plotting speed under)
G1 F8000

G1X94.6903Y-309.6646
G1X121.7505Y-289.0998
G1X184.5496Y-304.2737
G1X231.4455Y-303.5446
G1X275.2183Y-299.6922
G1 Z0F20000
(Start Block)

G1X32.2857Y-295.9434
G1Z5.0F20000
(Plotting speed under)
G1 F8000

G1X94.5494Y-310.5820
G1X121.9792Y-290.3868
G1X184.6147Y-305.3972
G1X231.0566Y-304.2140
G1X275.0191Y-300.5515
G1 Z0F20000
(Start Block)

G1X32.7250Y-297.4411
G1Z5.0F20000
(Plotting speed under)
G1 F8000

G1X94.4085Y-311.4994
G1X122.2079Y-291.6738
G1X184.6799Y-306.5207
G1X230.6678Y-304.8835
G1X274.8200Y-301.4106
G1 Z0F20000
(Start Block)

G1X33.1644Y-298.9388
G1Z5.0F20000
(Plotting speed under)
G1 F8000

G1X94.2675Y-312.4168
G1X122.4366Y-292.9608
G1X184.7451Y-307.6442
G1X230.2789Y-305.5530
G1X274.6208Y-302.2698
G1 Z0F20000
(Start Block)

G1X33.6038Y-300.4365
G1Z5.0F20000
(Plotting speed under)
G1 F8000

G1X94.1267Y-313.3343
G1X122.6653Y-294.2479
G1X184.8102Y-308.7677
G1X229.8900Y-306.2224
G1X274.4217Y-303.1290
G1 Z0F20000
(Start Block)

G1X34.0432Y-301.9342
G1Z5.0F20000
(Plotting speed under)
G1 F8000

G1X93.9857Y-314.2517
G1X122.8940Y-295.5349
G1X184.8754Y-309.8912
G1X229.5011Y-306.8919
G1X274.2226Y-303.9882
G1 Z0F20000
(Start Block)

G1X34.4826Y-303.4320
G1Z5.0F20000
(Plotting speed under)
G1 F8000

G1X93.8448Y-315.1691
G1X123.1227Y-296.8219
G1X184.9406Y-311.0147
G1X229.1123Y-307.5613
G1X274.0234Y-304.8474
G1 Z0F20000
(Start Block)

G1X34.9219Y-304.9297
G1Z5.0F20000
(Plotting speed under)
G1 F8000

G1X93.7039Y-316.0866
G1X123.3514Y-298.1090
G1X185.0057Y-312.1382
G1X228.7234Y-308.2308
G1X273.8243Y-305.7066
G1 Z0F20000
(Start Block)

G1X35.3613Y-306.4274
G1Z5.0F20000
(Plotting speed under)
G1 F8000

G1X93.5630Y-317.0040
G1X123.5801Y-299.3960
G1X185.0709Y-313.2617
G1X228.3345Y-308.9003
G1X273.6252Y-306.5658
G1 Z0F20000
(Start Block)

G1X35.8007Y-307.9251
G1Z5.0F20000
(Plotting speed under)
G1 F8000

G1X93.4221Y-317.9214
G1X123.8088Y-300.6830
G1X185.1361Y-314.3852
G1X227.9456Y-309.5697
G1X273.4260Y-307.4250
G1 Z0F20000
(Start Block)

G1X36.2401Y-309.4228
G1Z5.0F20000
(Plotting speed under)
G1 F8000

G1X93.2812Y-318.8389
G1X124.0375Y-301.9700
G1X185.2012Y-315.5087
G1X227.5568Y-310.2392
G1X273.2269Y-308.2842
G1 Z0F20000
(Start Block)

G1X36.6795Y-310.9205
G1Z5.0F20000
(Plotting speed under)
G1 F8000

G1X93.1403Y-319.7563
G1X124.2662Y-303.2571
G1X185.2664Y-316.6322
G1X227.1679Y-310.9087
G1X273.0278Y-309.1434
G1 Z0F20000
(Start Block)

G1X37.1189Y-312.4182
G1Z5.0F20000
(Plotting speed under)
G1 F8000

G1X92.9994Y-320.6738
G1X124.4949Y-304.5441
G1X185.3316Y-317.7557
G1X226.7790Y-311.5781
G1X272.8286Y-310.0026
G1 Z0F20000
(Start Block)

G1X37.5582Y-313.9160
G1Z5.0F20000
(Plotting speed under)
G1 F8000

G1X92.8585Y-321.5912
G1X124.7236Y-305.8311
G1X185.3967Y-318.8793
G1X226.3902Y-312.2476
G1X272.6295Y-310.8618
G1 Z0F20000
(Start Block)

G1X37.9976Y-315.4137
G1Z5.0F20000
(Plotting speed under)
G1 F8000

G1X92.7176Y-322.5086
G1X124.9523Y-307.1182
G1X185.4619Y-320.0028
G1X226.0013Y-312.9170
G1X272.4303Y-311.7210
G1 Z0F20000
(Start Block)

G1X38.4370Y-316.9114
G1Z5.0F20000
(Plotting speed under)
G1 F8000

G1X92.5767Y-323.4260
G1X125.1810Y-308.4052
G1X185.5271Y-321.1263
G1X225.6124Y-313.5865
G1X272.2312Y-312.5802
G1 Z0F20000
(Start Block)

G1X38.8764Y-318.4091
G1Z5.0F20000
(Plotting speed under)
G1 F8000

G1X92.4358Y-324.3435
G1X125.4097Y-309.6922
G1X185.5922Y-322.2498
G1X225.2236Y-314.2560
G1X272.0321Y-313.4394
G1 Z0F20000
(Start Block)

G1X39.3158Y-319.9069
G1Z5.0F20000
(Plotting speed under)
G1 F8000

G1X92.2949Y-325.2609
G1X125.6384Y-310.9792
G1X185.6574Y-323.3733
G1X224.8347Y-314.9254
G1X271.8329Y-314.2986
G1 Z0F20000
(Start Block)

G1X39.7551Y-321.4046
G1Z5.0F20000
(Plotting speed under)
G1 F8000

G1X92.1540Y-326.1784
G1X125.8670Y-312.2663
G1X185.7226Y-324.4968
G1X224.4458Y-315.5949
G1X271.6338Y-315.1578
G1 Z0F20000
(Start Block)

G1X40.1945Y-322.9023
G1Z5.0F20000
(Plotting speed under)
G1 F8000

G1X92.0131Y-327.0958
G1X126.0957Y-313.5533
G1X185.7877Y-325.6203
G1X224.0569Y-316.2643
G1X271.4347Y-316.0170
G1 Z0F20000
(Start Block)

G1X40.6339Y-324.4000
G1Z5.0F20000
(Plotting speed under)
G1 F8000

G1X91.8722Y-328.0132
G1X126.3244Y-314.8403
G1X185.8529Y-326.7438
G1X223.6681Y-316.9338
G1X271.2355Y-316.8762
G1 Z0F20000
(Start Block)

G1X41.0733Y-325.8977
G1Z5.0F20000
(Plotting speed under)
G1 F8000

G1X91.7313Y-328.9306
G1X126.5531Y-316.1274
G1X185.9181Y-327.8673
G1X223.2792Y-317.6033
G1X271.0364Y-317.7354
G1 Z0F20000
(Start Block)

G1X41.5127Y-327.3955
G1Z5.0F20000
(Plotting speed under)
G1 F8000

G1X91.5904Y-329.8481
G1X126.7818Y-317.4144
G1X185.9832Y-328.9908
G1X222.8903Y-318.2727
G1X270.8372Y-318.5946
G1 Z0F20000
(Start Block)

G1X41.9521Y-328.8932
G1Z5.0F20000
(Plotting speed under)
G1 F8000

G1X91.4495Y-330.7655
G1X127.0105Y-318.7015
G1X186.0484Y-330.1143
G1X222.5014Y-318.9422
G1X270.6381Y-319.4538
G1 Z0F20000
(Start Block)

G1X42.3914Y-330.3909
G1Z5.0F20000
(Plotting speed under)
G1 F8000

G1X91.3086Y-331.6829
G1X127.2392Y-319.9885
G1X186.1136Y-331.2378
G1X222.1126Y-319.6117
G1X270.4389Y-320.3130
G1 Z0F20000
(Start Block)

G1X42.8308Y-331.8886
G1Z5.0F20000
(Plotting speed under)
G1 F8000

G1X91.1677Y-332.6003
G1X127.4679Y-321.2755
G1X186.1787Y-332.3613
G1X221.7237Y-320.2812
G1X270.2398Y-321.1722
G1 Z0F20000
(Start Block)

G1X43.2702Y-333.3863
G1Z5.0F20000
(Plotting speed under)
G1 F8000

G1X91.0267Y-333.5178
G1X127.6966Y-322.5626
G1X186.2439Y-333.4848
G1X221.3348Y-320.9506
G1X270.0407Y-322.0314
G1 Z0F20000
(Start Block)

G1X43.7096Y-334.8840
G1Z5.0F20000
(Plotting speed under)
G1 F8000

G1X90.8859Y-334.4352
G1X127.9253Y-323.8496
G1X186.3091Y-334.6083
G1X220.9460Y-321.6201
G1X269.8415Y-322.8906
G1 Z0F20000
(Start Block)

G1X44.1490Y-336.3817
G1Z5.0F20000
(Plotting speed under)
G1 F8000

G1X90.7449Y-335.3526
G1X128.1540Y-325.1366
G1X186.3742Y-335.7318
G1X220.5571Y-322.2896
G1X269.6424Y-323.7498
G1 Z0F20000
(Start Block)

G1X44.5883Y-337.8794
G1Z5.0F20000
(Plotting speed under)
G1 F8000

G1X90.6040Y-336.2701
G1X128.3827Y-326.4236
G1X186.4394Y-336.8553
G1X220.1682Y-322.9590
G1X269.4432Y-324.6090
G1 Z0F20000
(Start Block)

G1X45.0277Y-339.3772
G1Z5.0F20000
(Plotting speed under)
G1 F8000

G1X90.4631Y-337.1875
G1X128.6114Y-327.7107
G1X186.5046Y-337.9788
G1X219.7793Y-323.6285
G1X269.2441Y-325.4682
G1 Z0F20000
(Start Block)

G1X45.4671Y-340.8749
G1Z5.0F20000
(Plotting speed under)
G1 F8000

G1X90.3222Y-338.1049
G1X128.8401Y-328.9977
G1X186.5697Y-339.1023
G1X219.3904Y-324.2979
G1X269.0449Y-326.3274
G1 Z0F20000
(Start Block)

G1X45.9065Y-342.3726
G1Z5.0F20000
(Plotting speed under)
G1 F8000

G1X90.1813Y-339.0223
G1X129.0688Y-330.2847
G1X186.6349Y-340.2258
G1X219.0015Y-324.9674
G1X268.8458Y-327.1866
G1 Z0F20000
(Start Block)

G1X46.3459Y-343.8703
G1Z5.0F20000
(Plotting speed under)
G1 F8000

G1X90.0404Y-339.9398
G1X129.2974Y-331.5717
G1X186.7001Y-341.3493
G1X218.6127Y-325.6369
G1X268.6467Y-328.0458
G1 Z0F20000
(Start Block)

G1X46.7853Y-345.3680
G1Z5.0F20000
(Plotting speed under)
G1 F8000

G1X89.8995Y-340.8572
G1X129.5262Y-332.8588
G1X186.7652Y-342.4728
G1X218.2238Y-326.3063
G1X268.4475Y-328.9050
G1 Z0F20000
(Start Block)

G1X47.2246Y-346.8658
G1Z5.0F20000
(Plotting speed under)
G1 F8000

G1X89.7586Y-341.7746
G1X129.7548Y-334.1458
G1X186.8304Y-343.5963
G1X217.8349Y-326.9758
G1X268.2484Y-329.7642
G1 Z0F20000
(Start Block)

G1X47.2450Y-347.9444
G1Z5.0F20000
(Plotting speed under)
G1 F8000

G1X89.5630Y-342.6373
G1X129.4175Y-334.8668
G1X186.4571Y-344.2813
G1X217.6144Y-327.8135
G1X268.4213Y-330.9954
G1 Z0F20000
(Start Block)

G1X47.2653Y-349.0231
G1Z5.0F20000
(Plotting speed under)
G1 F8000

G1X89.3673Y-343.5000
G1X129.0803Y-335.5879
G1X186.0838Y-344.9663
G1X217.3938Y-328.6513
G1X268.5942Y-332.2266
G1 Z0F20000
(Start Block)

G1X47.2856Y-350.1018
G1Z5.0F20000
(Plotting speed under)
G1 F8000

G1X89.1716Y-344.3627
G1X128.7430Y-336.3089
G1X185.7105Y-345.6514
G1X217.1732Y-329.4890
G1X268.7671Y-333.4579
G1 Z0F20000
(Start Block)

G1X47.3060Y-351.1804
G1Z5.0F20000
(Plotting speed under)
G1 F8000

G1X88.9760Y-345.2254
G1X128.4057Y-337.0300
G1X185.3372Y-346.3364
G1X216.9526Y-330.3268
G1X268.9400Y-334.6892
G1 Z0F20000
(Start Block)

G1X47.3263Y-352.2591
G1Z5.0F20000
(Plotting speed under)
G1 F8000

G1X88.7804Y-346.0880
G1X128.0684Y-337.7510
G1X184.9639Y-347.0214
G1X216.7320Y-331.1645
G1X269.1129Y-335.9204
G1 Z0F20000
(Start Block)

G1X47.3466Y-353.3378
G1Z5.0F20000
(Plotting speed under)
G1 F8000

G1X88.5847Y-346.9507
G1X127.7311Y-338.4721
G1X184.5906Y-347.7064
G1X216.5114Y-332.0023
G1X269.2859Y-337.1516
G1 Z0F20000
(Start Block)

G1X47.3670Y-354.4164
G1Z5.0F20000
(Plotting speed under)
G1 F8000

G1X88.3891Y-347.8134
G1X127.3938Y-339.1931
G1X184.2172Y-348.3915
G1X216.2909Y-332.8400
G1X269.4588Y-338.3829
G1 Z0F20000
(Start Block)

G1X47.3873Y-355.4951
G1Z5.0F20000
(Plotting speed under)
G1 F8000

G1X88.1934Y-348.6761
G1X127.0565Y-339.9141
G1X183.8439Y-349.0765
G1X216.0703Y-333.6778
G1X269.6317Y-339.6141
G1 Z0F20000
(Start Block)

G1X47.4076Y-356.5738
G1Z5.0F20000
(Plotting speed under)
G1 F8000

G1X87.9977Y-349.5388
G1X126.7192Y-340.6352
G1X183.4706Y-349.7615
G1X215.8497Y-334.5155
G1X269.8046Y-340.8454
G1 Z0F20000
(Start Block)

G1X47.4280Y-357.6524
G1Z5.0F20000
(Plotting speed under)
G1 F8000

G1X87.8021Y-350.4015
G1X126.3819Y-341.3562
G1X183.0973Y-350.4465
G1X215.6291Y-335.3533
G1X269.9775Y-342.0766
G1 Z0F20000
(Start Block)

G1X47.4483Y-358.7311
G1Z5.0F20000
(Plotting speed under)
G1 F8000

G1X87.6064Y-351.2641
G1X126.0447Y-342.0773
G1X182.7240Y-351.1315
G1X215.4085Y-336.1910
G1X270.1505Y-343.3079
G1 Z0F20000
(Start Block)

G1X47.4686Y-359.8097
G1Z5.0F20000
(Plotting speed under)
G1 F8000

G1X87.4108Y-352.1268
G1X125.7074Y-342.7983
G1X182.3507Y-351.8166
G1X215.1879Y-337.0288
G1X270.3234Y-344.5391
G1 Z0F20000
(Start Block)

G1X47.4890Y-360.8884
G1Z5.0F20000
(Plotting speed under)
G1 F8000

G1X87.2152Y-352.9895
G1X125.3701Y-343.5194
G1X181.9774Y-352.5016
G1X214.9674Y-337.8665
G1X270.4963Y-345.7704
G1 Z0F20000
(Start Block)

G1X47.5093Y-361.9671
G1Z5.0F20000
(Plotting speed under)
G1 F8000

G1X87.0195Y-353.8522
G1X125.0328Y-344.2404
G1X181.6040Y-353.1866
G1X214.7468Y-338.7043
G1X270.6692Y-347.0016
G1 Z0F20000
(Start Block)

G1X47.5296Y-363.0458
G1Z5.0F20000
(Plotting speed under)
G1 F8000

G1X86.8238Y-354.7149
G1X124.6955Y-344.9615
G1X181.2307Y-353.8716
G1X214.5262Y-339.5420
G1X270.8421Y-348.2328
G1 Z0F20000
(Start Block)

G1X47.5500Y-364.1244
G1Z5.0F20000
(Plotting speed under)
G1 F8000

G1X86.6282Y-355.5776
G1X124.3582Y-345.6825
G1X180.8574Y-354.5566
G1X214.3056Y-340.3798
G1X271.0150Y-349.4641
G1 Z0F20000
(Start Block)

G1X47.5703Y-365.2031
G1Z5.0F20000
(Plotting speed under)
G1 F8000

G1X86.4325Y-356.4402
G1X124.0209Y-346.4036
G1X180.4841Y-355.2417
G1X214.0850Y-341.2175
G1X271.1879Y-350.6953
G1 Z0F20000
(Start Block)

G1X47.5906Y-366.2817
G1Z5.0F20000
(Plotting speed under)
G1 F8000

G1X86.2369Y-357.3029
G1X123.6836Y-347.1246
G1X180.1108Y-355.9267
G1X213.8644Y-342.0553
G1X271.3608Y-351.9266
G1 Z0F20000
(Start Block)

G1X47.6109Y-367.3604
G1Z5.0F20000
(Plotting speed under)
G1 F8000

G1X86.0413Y-358.1656
G1X123.3463Y-347.8456
G1X179.7375Y-356.6117
G1X213.6439Y-342.8930
G1X271.5338Y-353.1578
G1 Z0F20000
(Start Block)

G1X47.6313Y-368.4391
G1Z5.0F20000
(Plotting speed under)
G1 F8000

G1X85.8456Y-359.0283
G1X123.0090Y-348.5667
G1X179.3642Y-357.2967
G1X213.4233Y-343.7308
G1X271.7067Y-354.3891
G1 Z0F20000
(Start Block)

G1X47.6516Y-369.5178
G1Z5.0F20000
(Plotting speed under)
G1 F8000

G1X85.6499Y-359.8910
G1X122.6718Y-349.2877
G1X178.9909Y-357.9818
G1X213.2027Y-344.5685
G1X271.8796Y-355.6203
G1 Z0F20000
(Start Block)

G1X47.6720Y-370.5965
G1Z5.0F20000
(Plotting speed under)
G1 F8000

G1X85.4543Y-360.7537
G1X122.3344Y-350.0088
G1X178.6176Y-358.6668
G1X212.9821Y-345.4063
G1X272.0525Y-356.8516
G1 Z0F20000
(Start Block)

G1X47.6923Y-371.6751
G1Z5.0F20000
(Plotting speed under)
G1 F8000

G1X85.2586Y-361.6163
G1X121.9971Y-350.7298
G1X178.2442Y-359.3518
G1X212.7615Y-346.2440
G1X272.2254Y-358.0828
G1 Z0F20000
(Start Block)

G1X47.7126Y-372.7538
G1Z5.0F20000
(Plotting speed under)
G1 F8000

G1X85.0630Y-362.4790
G1X121.6598Y-351.4509
G1X177.8709Y-360.0368
G1X212.5409Y-347.0818
G1X272.3983Y-359.3140
G1 Z0F20000
(Start Block)

G1X47.7329Y-373.8325
G1Z5.0F20000
(Plotting speed under)
G1 F8000

G1X84.8673Y-363.3417
G1X121.3226Y-352.1719
G1X177.4976Y-360.7218
G1X212.3204Y-347.9195
G1X272.5712Y-360.5453
G1 Z0F20000
(Start Block)

G1X47.7533Y-374.9111
G1Z5.0F20000
(Plotting speed under)
G1 F8000

G1X84.6717Y-364.2044
G1X120.9853Y-352.8929
G1X177.1243Y-361.4069
G1X212.0998Y-348.7573
G1X272.7441Y-361.7765
G1 Z0F20000
(Start Block)

G1X47.7736Y-375.9898
G1Z5.0F20000
(Plotting speed under)
G1 F8000

G1X84.4760Y-365.0671
G1X120.6480Y-353.6140
G1X176.7510Y-362.0919
G1X211.8792Y-349.5951
G1X272.9170Y-363.0078
G1 Z0F20000
(Start Block)

G1X47.7940Y-377.0685
G1Z5.0F20000
(Plotting speed under)
G1 F8000

G1X84.2804Y-365.9298
G1X120.3107Y-354.3350
G1X176.3777Y-362.7769
G1X211.6586Y-350.4328
G1X273.0899Y-364.2390
G1 Z0F20000
(Start Block)

G1X47.8143Y-378.1471
G1Z5.0F20000
(Plotting speed under)
G1 F8000

G1X84.0847Y-366.7924
G1X119.9734Y-355.0561
G1X176.0044Y-363.4619
G1X211.4380Y-351.2706
G1X273.2629Y-365.4703
G1 Z0F20000
(Start Block)

G1X47.8346Y-379.2258
G1Z5.0F20000
(Plotting speed under)
G1 F8000

G1X83.8891Y-367.6552
G1X119.6361Y-355.7771
G1X175.6310Y-364.1470
G1X211.2174Y-352.1083
G1X273.4358Y-366.7015
G1 Z0F20000
(Start Block)

G1X47.8549Y-380.3045
G1Z5.0F20000
(Plotting speed under)
G1 F8000

G1X83.6934Y-368.5179
G1X119.2988Y-356.4982
G1X175.2577Y-364.8320
G1X210.9969Y-352.9461
G1X273.6087Y-367.9328
G1 Z0F20000
(Start Block)

G1X47.8753Y-381.3831
G1Z5.0F20000
(Plotting speed under)
G1 F8000

G1X83.4978Y-369.3805
G1X118.9615Y-357.2192
G1X174.8844Y-365.5170
G1X210.7763Y-353.7838
G1X273.7816Y-369.1641
G1 Z0F20000
(Start Block)

G1X47.8956Y-382.4618
G1Z5.0F20000
(Plotting speed under)
G1 F8000

G1X83.3021Y-370.2432
G1X118.6242Y-357.9403
G1X174.5111Y-366.2020
G1X210.5557Y-354.6216
G1X273.9545Y-370.3953
G1 Z0F20000
(Start Block)

G1X47.9160Y-383.5405
G1Z5.0F20000
(Plotting speed under)
G1 F8000

G1X118.2869Y-358.6613
G1X174.1378Y-366.8870
G1X210.3351Y-355.4593
G1X274.1274Y-371.6265
G1 Z0F20000
(Start Block)

G1X47.9363Y-384.6192
G1Z5.0F20000
(Plotting speed under)
G1 F8000

G1X117.9497Y-359.3824
G1X173.7645Y-367.5721
G1X210.1145Y-356.2971
G1X274.3003Y-372.8578
G1 Z0F20000
(Start Block)

G1X47.9566Y-385.6978
G1Z5.0F20000
(Plotting speed under)
G1 F8000

G1X82.7152Y-372.8313
G1X117.6124Y-360.1034
G1X173.3912Y-368.2571
G1X209.8939Y-357.1348
G1X274.4732Y-374.0890
G1 Z0F20000
(Start Block)

G1X47.9769Y-386.7765
G1Z5.0F20000
(Plotting speed under)
G1 F8000

G1X82.5195Y-373.6940
G1X117.2751Y-360.8244
G1X173.0179Y-368.9422
G1X209.6734Y-357.9726
G1X274.6462Y-375.3203
G1 Z0F20000
(Start Block)

G1X47.9973Y-387.8551
G1Z5.0F20000
(Plotting speed under)
G1 F8000

G1X82.3239Y-374.5566
G1X116.9378Y-361.5455
G1X172.6446Y-369.6272
G1X209.4528Y-358.8103
G1X274.8191Y-376.5515
G1 Z0F20000
(Start Block)

G1X48.0176Y-388.9338
G1Z5.0F20000
(Plotting speed under)
G1 F8000

G1X82.1282Y-375.4193
G1X116.6005Y-362.2665
G1X172.2713Y-370.3122
G1X209.2322Y-359.6481
G1X274.9920Y-377.7828
G1 Z0F20000
(Start Block)

G1X48.0380Y-390.0125
G1Z5.0F20000
(Plotting speed under)
G1 F8000

G1X81.9326Y-376.2820
G1X116.2632Y-362.9876
G1X171.8979Y-370.9972
G1X209.0116Y-360.4858
G1X275.1649Y-379.0140
G1 Z0F20000
(Start Block)

G1X48.0583Y-391.0912
G1Z5.0F20000
(Plotting speed under)
G1 F8000

G1X81.7369Y-377.1447
G1X115.9259Y-363.7086
G1X171.5246Y-371.6822
G1X208.7910Y-361.3236
G1X275.3378Y-380.2453
G1 Z0F20000
(Start Block)

G1X48.0786Y-392.1698
G1Z5.0F20000
(Plotting speed under)
G1 F8000

G1X81.5413Y-378.0074
G1X115.5886Y-364.4297
G1X171.1512Y-372.3673
G1X208.5705Y-362.1613
G1X275.5107Y-381.4765
G1 Z0F20000
(Start Block)

G1X48.0989Y-393.2485
G1Z5.0F20000
(Plotting speed under)
G1 F8000

G1X81.3456Y-378.8701
G1X115.2513Y-365.1507
G1X170.7779Y-373.0523
G1X208.3499Y-362.9991
G1X275.6836Y-382.7077
G1 Z0F20000
(Start Block)

G1X48.1193Y-394.3271
G1Z5.0F20000
(Plotting speed under)
G1 F8000

G1X81.1500Y-379.7327
G1X114.9141Y-365.8718
G1X170.4046Y-373.7373
G1X208.1293Y-363.8368
G1X275.8565Y-383.9390
G1 Z0F20000
(Start Block)

G1X48.1396Y-395.4058
G1Z5.0F20000
(Plotting speed under)
G1 F8000

G1X80.9543Y-380.5954
G1X114.5768Y-366.5928
G1X170.0313Y-374.4223
G1X207.9087Y-364.6746
G1X276.0294Y-385.1703
G1 Z0F20000

G00 X0.0000 Y0.0000

