M3
G21
G17
G90
(Start Layer)
(Start Block)


G00 Z6.0000
G00 X10.5833 Y261.8107
(G4 P0.1)
G01 Z-0.125000 F800.000000

G01 X14.5639 Y258.2702 Z-0.125000 F800.000000
G01 X18.7131 Y255.0308 Z-0.125000 F800.000000
G01 X21.6822 Y252.9314 Z-0.125000 F800.000000
G01 X29.9770 Y247.3382 Z-0.125000 F800.000000
G01 X34.8538 Y243.9512 Z-0.125000 F800.000000
G01 X40.0288 Y240.1758 Z-0.125000 F800.000000
G01 X50.0758 Y232.5402 Z-0.125000 F800.000000
G01 X52.9150 Y230.5563 Z-0.125000 F800.000000
G01 X55.5469 Y228.8966 Z-0.125000 F800.000000
G01 X58.9764 Y227.0351 Z-0.125000 F800.000000
G01 X62.6438 Y225.4046 Z-0.125000 F800.000000
G01 X66.3434 Y224.0495 Z-0.125000 F800.000000
G01 X75.0469 Y221.2640 Z-0.125000 F800.000000
G01 X79.4348 Y219.7253 Z-0.125000 F800.000000
G01 X84.0877 Y217.8309 Z-0.125000 F800.000000
G01 X88.7988 Y215.5912 Z-0.125000 F800.000000
G01 X95.6591 Y211.8738 Z-0.125000 F800.000000
G01 X101.8003 Y208.1991 Z-0.125000 F800.000000
G01 X106.8820 Y204.8409 Z-0.125000 F800.000000
G01 X116.3762 Y198.1818 Z-0.125000 F800.000000
G01 X120.2649 Y195.6880 Z-0.125000 F800.000000
G01 X122.4484 Y194.4505 Z-0.125000 F800.000000
G01 X124.5561 Y193.3912 Z-0.125000 F800.000000
G01 X126.5846 Y192.5031 Z-0.125000 F800.000000
G01 X128.7251 Y191.7055 Z-0.125000 F800.000000
G01 X131.2714 Y190.9352 Z-0.125000 F800.000000
G01 X133.8313 Y190.3416 Z-0.125000 F800.000000
G01 X136.5560 Y189.8872 Z-0.125000 F800.000000
G01 X139.3859 Y189.5815 Z-0.125000 F800.000000
G01 X142.4461 Y189.4090 Z-0.125000 F800.000000
G01 X145.6210 Y189.3830 Z-0.125000 F800.000000
G01 X148.9086 Y189.5060 Z-0.125000 F800.000000
G01 X152.3073 Y189.7746 Z-0.125000 F800.000000
G01 X156.9468 Y190.3297 Z-0.125000 F800.000000
G01 X162.4556 Y191.1858 Z-0.125000 F800.000000
G01 X184.6739 Y195.2400 Z-0.125000 F800.000000
G01 X192.2655 Y196.8352 Z-0.125000 F800.000000
G01 X195.1135 Y197.5997 Z-0.125000 F800.000000
G01 X197.7531 Y198.4530 Z-0.125000 F800.000000
G00 Z6.0000

G4 P0.5
(Start Block)


G00 Z6.0000
G00 X10.5833 Y258.6357
(G4 P0.1)
G01 Z-0.125000 F800.000000

G01 X13.6568 Y256.1421 Z-0.125000 F800.000000
G01 X16.9395 Y253.7311 Z-0.125000 F800.000000
G01 X20.3619 Y251.4285 Z-0.125000 F800.000000
G01 X30.3043 Y245.0274 Z-0.125000 F800.000000
G01 X34.6620 Y242.1060 Z-0.125000 F800.000000
G01 X39.7722 Y238.4748 Z-0.125000 F800.000000
G01 X49.6796 Y231.0733 Z-0.125000 F800.000000
G01 X52.3482 Y229.2366 Z-0.125000 F800.000000
G01 X54.8885 Y227.6495 Z-0.125000 F800.000000
G01 X58.2229 Y225.8404 Z-0.125000 F800.000000
G01 X61.7909 Y224.2304 Z-0.125000 F800.000000
G01 X65.4868 Y222.8410 Z-0.125000 F800.000000
G01 X73.9878 Y220.0437 Z-0.125000 F800.000000
G01 X78.2741 Y218.4980 Z-0.125000 F800.000000
G01 X82.8239 Y216.5916 Z-0.125000 F800.000000
G01 X87.2380 Y214.4271 Z-0.125000 F800.000000
G01 X93.5058 Y210.8893 Z-0.125000 F800.000000
G01 X100.4722 Y206.5620 Z-0.125000 F800.000000
G01 X105.6196 Y203.0585 Z-0.125000 F800.000000
G01 X114.9999 Y196.3034 Z-0.125000 F800.000000
G01 X119.1577 Y193.5624 Z-0.125000 F800.000000
G01 X121.5247 Y192.1789 Z-0.125000 F800.000000
G01 X123.8188 Y190.9878 Z-0.125000 F800.000000
G01 X126.0363 Y189.9828 Z-0.125000 F800.000000
G01 X128.3678 Y189.0793 Z-0.125000 F800.000000
G01 X130.8120 Y188.2925 Z-0.125000 F800.000000
G01 X133.2688 Y187.6546 Z-0.125000 F800.000000
G01 X135.8333 Y187.1357 Z-0.125000 F800.000000
G01 X138.6026 Y186.7227 Z-0.125000 F800.000000
G01 X141.5464 Y186.4253 Z-0.125000 F800.000000
G01 X144.6065 Y186.2521 Z-0.125000 F800.000000
G01 X147.6680 Y186.2099 Z-0.125000 F800.000000
G01 X150.8426 Y186.2949 Z-0.125000 F800.000000
G01 X154.6954 Y186.5529 Z-0.125000 F800.000000
G01 X158.8845 Y186.9858 Z-0.125000 F800.000000
G01 X175.1704 Y189.1866 Z-0.125000 F800.000000
G01 X189.7692 Y190.9012 Z-0.125000 F800.000000
G01 X194.2629 Y191.5540 Z-0.125000 F800.000000
G01 X198.0125 Y192.2874 Z-0.125000 F800.000000
G00 Z6.0000

G4 P0.5
(Start Block)


G00 Z6.0000
G00 X10.5833 Y252.2857
(G4 P0.1)
G01 Z-0.125000 F800.000000

G01 X13.4807 Y250.3592 Z-0.125000 F800.000000
G01 X16.7783 Y248.3273 Z-0.125000 F800.000000
G01 X29.0190 Y241.3470 Z-0.125000 F800.000000
G01 X34.2131 Y238.2238 Z-0.125000 F800.000000
G01 X39.1833 Y234.9561 Z-0.125000 F800.000000
G01 X49.2969 Y227.8646 Z-0.125000 F800.000000
G01 X52.1140 Y226.0707 Z-0.125000 F800.000000
G01 X54.8643 Y224.4933 Z-0.125000 F800.000000
G01 X58.2182 Y222.8136 Z-0.125000 F800.000000
G01 X61.7973 Y221.2912 Z-0.125000 F800.000000
G01 X65.1069 Y220.0724 Z-0.125000 F800.000000
G01 X73.1099 Y217.3394 Z-0.125000 F800.000000
G01 X77.6753 Y215.5666 Z-0.125000 F800.000000
G01 X82.1077 Y213.5369 Z-0.125000 F800.000000
G01 X86.4936 Y211.1817 Z-0.125000 F800.000000
G01 X91.6788 Y208.0081 Z-0.125000 F800.000000
G01 X98.9397 Y203.1912 Z-0.125000 F800.000000
G01 X103.5579 Y199.9236 Z-0.125000 F800.000000
G01 X112.4108 Y193.3635 Z-0.125000 F800.000000
G01 X116.8437 Y190.3476 Z-0.125000 F800.000000
G01 X119.6740 Y188.6281 Z-0.125000 F800.000000
G01 X122.3421 Y187.1837 Z-0.125000 F800.000000
G01 X125.0349 Y185.9090 Z-0.125000 F800.000000
G01 X127.7496 Y184.8082 Z-0.125000 F800.000000
G01 X129.9933 Y184.0318 Z-0.125000 F800.000000
G01 X132.3454 Y183.3394 Z-0.125000 F800.000000
G01 X134.8049 Y182.7381 Z-0.125000 F800.000000
G01 X137.2714 Y182.2482 Z-0.125000 F800.000000
G01 X139.9690 Y181.8245 Z-0.125000 F800.000000
G01 X142.7981 Y181.4870 Z-0.125000 F800.000000
G01 X148.4639 Y181.1155 Z-0.125000 F800.000000
G01 X152.4325 Y181.0782 Z-0.125000 F800.000000
G01 X156.6274 Y181.2040 Z-0.125000 F800.000000
G01 X170.5656 Y182.1426 Z-0.125000 F800.000000
G01 X176.5735 Y182.4196 Z-0.125000 F800.000000
G01 X197.6642 Y182.5815 Z-0.125000 F800.000000
G00 Z6.0000

G4 P0.5
(Start Block)


G00 Z6.0000
G00 X10.5833 Y244.3482
(G4 P0.1)
G01 Z-0.125000 F800.000000

G01 X15.6620 Y241.8036 Z-0.125000 F800.000000
G01 X28.0031 Y236.2084 Z-0.125000 F800.000000
G01 X33.2792 Y233.6086 Z-0.125000 F800.000000
G01 X38.5031 Y230.6647 Z-0.125000 F800.000000
G01 X49.4339 Y223.9398 Z-0.125000 F800.000000
G01 X52.3805 Y222.2940 Z-0.125000 F800.000000
G01 X55.2526 Y220.8352 Z-0.125000 F800.000000
G01 X58.1444 Y219.5197 Z-0.125000 F800.000000
G01 X61.2474 Y218.2649 Z-0.125000 F800.000000
G01 X70.8016 Y214.8944 Z-0.125000 F800.000000
G01 X74.5917 Y213.4398 Z-0.125000 F800.000000
G01 X78.4541 Y211.7370 Z-0.125000 F800.000000
G01 X82.1863 Y209.8317 Z-0.125000 F800.000000
G01 X84.8426 Y208.3131 Z-0.125000 F800.000000
G01 X87.6676 Y206.5629 Z-0.125000 F800.000000
G01 X95.0066 Y201.6038 Z-0.125000 F800.000000
G01 X100.6038 Y197.5847 Z-0.125000 F800.000000
G01 X110.3283 Y190.2169 Z-0.125000 F800.000000
G01 X114.9903 Y186.9926 Z-0.125000 F800.000000
G01 X118.1933 Y185.0171 Z-0.125000 F800.000000
G01 X121.2374 Y183.3336 Z-0.125000 F800.000000
G01 X124.3097 Y181.8392 Z-0.125000 F800.000000
G01 X127.4078 Y180.5440 Z-0.125000 F800.000000
G01 X131.1155 Y179.2698 Z-0.125000 F800.000000
G01 X134.8477 Y178.2748 Z-0.125000 F800.000000
G01 X138.8929 Y177.4746 Z-0.125000 F800.000000
G01 X143.5570 Y176.8178 Z-0.125000 F800.000000
G01 X147.4071 Y176.4446 Z-0.125000 F800.000000
G01 X151.6001 Y176.1780 Z-0.125000 F800.000000
G01 X167.9265 Y175.6928 Z-0.125000 F800.000000
G01 X175.5199 Y175.2422 Z-0.125000 F800.000000
G01 X180.6158 Y174.7535 Z-0.125000 F800.000000
G01 X186.6133 Y174.0369 Z-0.125000 F800.000000
G01 X193.0598 Y173.1664 Z-0.125000 F800.000000
G01 X198.1442 Y172.3603 Z-0.125000 F800.000000
G00 Z6.0000

G4 P0.5
(Start Block)


G00 Z6.0000
G00 X10.5833 Y241.1732
(G4 P0.1)
G01 Z-0.125000 F800.000000

G01 X16.1867 Y238.7272 Z-0.125000 F800.000000
G01 X28.3098 Y233.8424 Z-0.125000 F800.000000
G01 X33.1325 Y231.6731 Z-0.125000 F800.000000
G01 X38.4826 Y228.8767 Z-0.125000 F800.000000
G01 X50.0477 Y222.2066 Z-0.125000 F800.000000
G01 X53.0090 Y220.6551 Z-0.125000 F800.000000
G01 X55.8926 Y219.2777 Z-0.125000 F800.000000
G01 X61.2208 Y217.0804 Z-0.125000 F800.000000
G01 X69.9954 Y213.9882 Z-0.125000 F800.000000
G01 X73.4954 Y212.6582 Z-0.125000 F800.000000
G01 X77.2647 Y211.0262 Z-0.125000 F800.000000
G01 X80.8111 Y209.2562 Z-0.125000 F800.000000
G01 X83.4723 Y207.7678 Z-0.125000 F800.000000
G01 X86.3017 Y206.0428 Z-0.125000 F800.000000
G01 X92.9089 Y201.6033 Z-0.125000 F800.000000
G01 X99.3272 Y196.9832 Z-0.125000 F800.000000
G01 X109.7740 Y188.9977 Z-0.125000 F800.000000
G01 X114.5262 Y185.6956 Z-0.125000 F800.000000
G01 X117.8222 Y183.6547 Z-0.125000 F800.000000
G01 X121.0550 Y181.8566 Z-0.125000 F800.000000
G01 X124.2218 Y180.3048 Z-0.125000 F800.000000
G01 X127.3184 Y178.9972 Z-0.125000 F800.000000
G01 X130.3402 Y177.9272 Z-0.125000 F800.000000
G01 X133.4779 Y177.0236 Z-0.125000 F800.000000
G01 X136.7281 Y176.2861 Z-0.125000 F800.000000
G01 X140.3832 Y175.6498 Z-0.125000 F800.000000
G01 X143.8752 Y175.1810 Z-0.125000 F800.000000
G01 X147.6114 Y174.7965 Z-0.125000 F800.000000
G01 X164.7215 Y173.5918 Z-0.125000 F800.000000
G01 X169.1383 Y173.1819 Z-0.125000 F800.000000
G01 X173.4389 Y172.6814 Z-0.125000 F800.000000
G01 X180.2081 Y171.7071 Z-0.125000 F800.000000
G01 X188.6077 Y170.2944 Z-0.125000 F800.000000
G01 X193.9366 Y169.2597 Z-0.125000 F800.000000
G01 X198.2673 Y168.2317 Z-0.125000 F800.000000
G00 Z6.0000

G4 P0.5
(Start Block)


G00 Z6.0000
G00 X10.5833 Y239.5857
(G4 P0.1)
G01 Z-0.125000 F800.000000

G01 X16.1095 Y237.3425 Z-0.125000 F800.000000
G01 X27.6832 Y232.9819 Z-0.125000 F800.000000
G01 X31.7513 Y231.2969 Z-0.125000 F800.000000
G01 X34.6405 Y229.9612 Z-0.125000 F800.000000
G01 X37.5133 Y228.5070 Z-0.125000 F800.000000
G01 X49.3010 Y221.9308 Z-0.125000 F800.000000
G01 X52.1672 Y220.4322 Z-0.125000 F800.000000
G01 X54.9529 Y219.0878 Z-0.125000 F800.000000
G01 X57.7538 Y217.8579 Z-0.125000 F800.000000
G01 X60.6650 Y216.7008 Z-0.125000 F800.000000
G01 X69.8285 Y213.4600 Z-0.125000 F800.000000
G01 X73.1340 Y212.2032 Z-0.125000 F800.000000
G01 X76.7112 Y210.6642 Z-0.125000 F800.000000
G01 X80.1643 Y208.9605 Z-0.125000 F800.000000
G01 X82.8281 Y207.4881 Z-0.125000 F800.000000
G01 X85.6600 Y205.7776 Z-0.125000 F800.000000
G01 X92.1869 Y201.4082 Z-0.125000 F800.000000
G01 X98.8487 Y196.5941 Z-0.125000 F800.000000
G01 X109.4505 Y188.4466 Z-0.125000 F800.000000
G01 X114.2414 Y185.1019 Z-0.125000 F800.000000
G01 X117.6300 Y182.9945 Z-0.125000 F800.000000
G01 X120.8611 Y181.1857 Z-0.125000 F800.000000
G01 X124.0257 Y179.6182 Z-0.125000 F800.000000
G01 X127.1205 Y178.2957 Z-0.125000 F800.000000
G01 X129.8478 Y177.3096 Z-0.125000 F800.000000
G01 X132.6885 Y176.4557 Z-0.125000 F800.000000
G01 X135.5415 Y175.7602 Z-0.125000 F800.000000
G01 X138.6995 Y175.1492 Z-0.125000 F800.000000
G01 X141.9345 Y174.6537 Z-0.125000 F800.000000
G01 X145.4421 Y174.2263 Z-0.125000 F800.000000
G01 X162.5455 Y172.7292 Z-0.125000 F800.000000
G01 X167.1862 Y172.2059 Z-0.125000 F800.000000
G01 X171.6811 Y171.5823 Z-0.125000 F800.000000
G01 X179.2900 Y170.3012 Z-0.125000 F800.000000
G01 X188.7650 Y168.4823 Z-0.125000 F800.000000
G01 X193.9860 Y167.3124 Z-0.125000 F800.000000
G01 X198.3037 Y166.1105 Z-0.125000 F800.000000
G00 Z6.0000

G4 P0.5
(Start Block)


G00 Z6.0000
G00 X10.5833 Y234.8232
(G4 P0.1)
G01 Z-0.125000 F800.000000

G01 X15.7677 Y233.1806 Z-0.125000 F800.000000
G01 X27.6210 Y229.6228 Z-0.125000 F800.000000
G01 X30.6484 Y228.6093 Z-0.125000 F800.000000
G01 X33.3721 Y227.5882 Z-0.125000 F800.000000
G01 X36.1796 Y226.4131 Z-0.125000 F800.000000
G01 X39.0693 Y225.0804 Z-0.125000 F800.000000
G01 X49.9841 Y219.5422 Z-0.125000 F800.000000
G01 X55.0853 Y217.1606 Z-0.125000 F800.000000
G01 X60.3225 Y215.0528 Z-0.125000 F800.000000
G01 X71.7231 Y210.9710 Z-0.125000 F800.000000
G01 X75.1117 Y209.5542 Z-0.125000 F800.000000
G01 X78.2847 Y208.0471 Z-0.125000 F800.000000
G01 X81.1468 Y206.5218 Z-0.125000 F800.000000
G01 X84.0803 Y204.7960 Z-0.125000 F800.000000
G01 X87.2714 Y202.7543 Z-0.125000 F800.000000
G01 X90.6560 Y200.4379 Z-0.125000 F800.000000
G01 X97.5513 Y195.3825 Z-0.125000 F800.000000
G01 X108.6132 Y186.7277 Z-0.125000 F800.000000
G01 X113.7265 Y183.1130 Z-0.125000 F800.000000
G01 X117.1106 Y180.9803 Z-0.125000 F800.000000
G01 X120.4306 Y179.0806 Z-0.125000 F800.000000
G01 X123.5901 Y177.4775 Z-0.125000 F800.000000
G01 X126.5845 Y176.1667 Z-0.125000 F800.000000
G01 X129.1141 Y175.2234 Z-0.125000 F800.000000
G01 X131.7559 Y174.3942 Z-0.125000 F800.000000
G01 X134.5078 Y173.6858 Z-0.125000 F800.000000
G01 X137.3675 Y173.0929 Z-0.125000 F800.000000
G01 X142.9753 Y172.2262 Z-0.125000 F800.000000
G01 X153.5004 Y171.0034 Z-0.125000 F800.000000
G01 X158.0243 Y170.3940 Z-0.125000 F800.000000
G01 X162.7952 Y169.5806 Z-0.125000 F800.000000
G01 X167.6255 Y168.5518 Z-0.125000 F800.000000
G01 X174.4091 Y166.8293 Z-0.125000 F800.000000
G01 X189.1331 Y162.7832 Z-0.125000 F800.000000
G01 X194.1160 Y161.1421 Z-0.125000 F800.000000
G01 X198.2805 Y159.4152 Z-0.125000 F800.000000
G00 Z6.0000

G4 P0.5
(Start Block)


G00 Z6.0000
G00 X10.5833 Y231.6482
(G4 P0.1)
G01 Z-0.125000 F800.000000

G01 X27.8873 Y227.2680 Z-0.125000 F800.000000
G01 X31.2206 Y226.2999 Z-0.125000 F800.000000
G01 X34.3444 Y225.2409 Z-0.125000 F800.000000
G01 X37.1613 Y224.1456 Z-0.125000 F800.000000
G01 X40.0609 Y222.8912 Z-0.125000 F800.000000
G01 X50.5399 Y217.8999 Z-0.125000 F800.000000
G01 X55.2697 Y215.8013 Z-0.125000 F800.000000
G01 X60.1247 Y213.8993 Z-0.125000 F800.000000
G01 X70.9429 Y210.0481 Z-0.125000 F800.000000
G01 X74.1405 Y208.7346 Z-0.125000 F800.000000
G01 X77.2217 Y207.3051 Z-0.125000 F800.000000
G01 X80.2793 Y205.7088 Z-0.125000 F800.000000
G01 X83.3111 Y203.9499 Z-0.125000 F800.000000
G01 X86.5052 Y201.9246 Z-0.125000 F800.000000
G01 X89.9105 Y199.5940 Z-0.125000 F800.000000
G01 X96.7951 Y194.4881 Z-0.125000 F800.000000
G01 X108.0770 Y185.5363 Z-0.125000 F800.000000
G01 X110.7833 Y183.5380 Z-0.125000 F800.000000
G01 X113.4714 Y181.6810 Z-0.125000 F800.000000
G01 X116.8513 Y179.5249 Z-0.125000 F800.000000
G01 X120.1673 Y177.6013 Z-0.125000 F800.000000
G01 X123.2282 Y176.0276 Z-0.125000 F800.000000
G01 X126.1236 Y174.7397 Z-0.125000 F800.000000
G01 X128.4565 Y173.8488 Z-0.125000 F800.000000
G01 X130.8999 Y173.0529 Z-0.125000 F800.000000
G01 X133.3544 Y172.3848 Z-0.125000 F800.000000
G01 X135.9156 Y171.8107 Z-0.125000 F800.000000
G01 X140.9548 Y170.9547 Z-0.125000 F800.000000
G01 X151.0229 Y169.6617 Z-0.125000 F800.000000
G01 X155.4025 Y169.0020 Z-0.125000 F800.000000
G01 X160.1390 Y168.0752 Z-0.125000 F800.000000
G01 X164.7601 Y166.9105 Z-0.125000 F800.000000
G01 X171.2199 Y164.9076 Z-0.125000 F800.000000
G01 X188.4934 Y158.9945 Z-0.125000 F800.000000
G01 X191.2137 Y157.9418 Z-0.125000 F800.000000
G01 X193.6306 Y156.9007 Z-0.125000 F800.000000
G01 X195.9357 Y155.7866 Z-0.125000 F800.000000
G01 X198.1273 Y154.5994 Z-0.125000 F800.000000
G00 Z6.0000

G4 P0.5
(Start Block)


G00 Z6.0000
G00 X10.5833 Y228.4732
(G4 P0.1)
G01 Z-0.125000 F800.000000

G01 X28.1398 Y224.8949 Z-0.125000 F800.000000
G01 X31.7785 Y223.9877 Z-0.125000 F800.000000
G01 X35.1074 Y222.9697 Z-0.125000 F800.000000
G01 X37.9329 Y221.9547 Z-0.125000 F800.000000
G01 X40.9391 Y220.7411 Z-0.125000 F800.000000
G01 X51.1679 Y216.1759 Z-0.125000 F800.000000
G01 X55.5231 Y214.3412 Z-0.125000 F800.000000
G01 X59.9951 Y212.6394 Z-0.125000 F800.000000
G01 X70.2310 Y209.0208 Z-0.125000 F800.000000
G01 X73.3340 Y207.7660 Z-0.125000 F800.000000
G01 X76.2262 Y206.4528 Z-0.125000 F800.000000
G01 X79.3844 Y204.8411 Z-0.125000 F800.000000
G01 X82.6103 Y202.9999 Z-0.125000 F800.000000
G01 X85.8069 Y200.9883 Z-0.125000 F800.000000
G01 X89.2219 Y198.6477 Z-0.125000 F800.000000
G01 X96.0131 Y193.5495 Z-0.125000 F800.000000
G01 X107.6726 Y184.1530 Z-0.125000 F800.000000
G01 X110.5383 Y182.0121 Z-0.125000 F800.000000
G01 X113.3675 Y180.0367 Z-0.125000 F800.000000
G01 X116.5552 Y177.9764 Z-0.125000 F800.000000
G01 X119.6775 Y176.1373 Z-0.125000 F800.000000
G01 X122.5427 Y174.6320 Z-0.125000 F800.000000
G01 X125.4337 Y173.3107 Z-0.125000 F800.000000
G01 X127.5692 Y172.4670 Z-0.125000 F800.000000
G01 X129.8138 Y171.6994 Z-0.125000 F800.000000
G01 X132.0686 Y171.0444 Z-0.125000 F800.000000
G01 X134.5284 Y170.4491 Z-0.125000 F800.000000
G01 X139.3666 Y169.5613 Z-0.125000 F800.000000
G01 X149.3045 Y168.2070 Z-0.125000 F800.000000
G01 X153.7098 Y167.4850 Z-0.125000 F800.000000
G01 X158.4392 Y166.4433 Z-0.125000 F800.000000
G01 X163.0460 Y165.0962 Z-0.125000 F800.000000
G01 X166.2639 Y163.9675 Z-0.125000 F800.000000
G01 X169.9545 Y162.5286 Z-0.125000 F800.000000
G01 X187.0911 Y155.3602 Z-0.125000 F800.000000
G01 X190.1710 Y153.9212 Z-0.125000 F800.000000
G01 X192.8486 Y152.5390 Z-0.125000 F800.000000
G01 X195.4091 Y151.0691 Z-0.125000 F800.000000
G01 X197.8502 Y149.5129 Z-0.125000 F800.000000
G00 Z6.0000

G4 P0.5
(Start Block)


G00 Z6.0000
G00 X10.5833 Y226.8857
(G4 P0.1)
G01 Z-0.125000 F800.000000

G01 X28.1612 Y223.6947 Z-0.125000 F800.000000
G01 X31.8051 Y222.8634 Z-0.125000 F800.000000
G01 X35.2376 Y221.8816 Z-0.125000 F800.000000
G01 X38.1654 Y220.8813 Z-0.125000 F800.000000
G01 X41.2740 Y219.6764 Z-0.125000 F800.000000
G01 X51.7147 Y215.1746 Z-0.125000 F800.000000
G01 X56.0766 Y213.3960 Z-0.125000 F800.000000
G01 X60.1633 Y211.8747 Z-0.125000 F800.000000
G01 X68.8429 Y208.8414 Z-0.125000 F800.000000
G01 X73.2104 Y207.1125 Z-0.125000 F800.000000
G01 X76.5825 Y205.5648 Z-0.125000 F800.000000
G01 X79.9270 Y203.8209 Z-0.125000 F800.000000
G01 X83.2410 Y201.8845 Z-0.125000 F800.000000
G01 X86.5536 Y199.7429 Z-0.125000 F800.000000
G01 X90.1834 Y197.1822 Z-0.125000 F800.000000
G01 X94.1889 Y194.1543 Z-0.125000 F800.000000
G01 X105.9133 Y184.6235 Z-0.125000 F800.000000
G01 X110.7305 Y180.9523 Z-0.125000 F800.000000
G01 X113.8709 Y178.7676 Z-0.125000 F800.000000
G01 X116.9575 Y176.7919 Z-0.125000 F800.000000
G01 X119.8935 Y175.0814 Z-0.125000 F800.000000
G01 X122.7614 Y173.5945 Z-0.125000 F800.000000
G01 X125.3649 Y172.4174 Z-0.125000 F800.000000
G01 X127.8905 Y171.4369 Z-0.125000 F800.000000
G01 X130.5294 Y170.5773 Z-0.125000 F800.000000
G01 X133.1813 Y169.8695 Z-0.125000 F800.000000
G01 X135.6450 Y169.3326 Z-0.125000 F800.000000
G01 X138.4104 Y168.8393 Z-0.125000 F800.000000
G01 X148.7710 Y167.3907 Z-0.125000 F800.000000
G01 X153.2451 Y166.6219 Z-0.125000 F800.000000
G01 X158.0680 Y165.4818 Z-0.125000 F800.000000
G01 X162.7622 Y163.9860 Z-0.125000 F800.000000
G01 X166.1632 Y162.6763 Z-0.125000 F800.000000
G01 X170.0312 Y161.0182 Z-0.125000 F800.000000
G01 X182.1782 Y155.4995 Z-0.125000 F800.000000
G01 X186.8904 Y153.2666 Z-0.125000 F800.000000
G01 X190.1416 Y151.5879 Z-0.125000 F800.000000
G01 X192.9884 Y149.9652 Z-0.125000 F800.000000
G01 X195.7135 Y148.2422 Z-0.125000 F800.000000
G01 X198.4077 Y146.3570 Z-0.125000 F800.000000
G00 Z6.0000

G4 P0.5
(Start Block)


G00 Z6.0000
G00 X10.5833 Y222.1231
(G4 P0.1)
G01 Z-0.125000 F800.000000

G01 X28.9921 Y219.6986 Z-0.125000 F800.000000
G01 X32.9413 Y218.9689 Z-0.125000 F800.000000
G01 X36.6786 Y218.0412 Z-0.125000 F800.000000
G01 X39.7140 Y217.1155 Z-0.125000 F800.000000
G01 X43.0300 Y215.9589 Z-0.125000 F800.000000
G01 X56.1468 Y210.8943 Z-0.125000 F800.000000
G01 X69.2138 Y206.3164 Z-0.125000 F800.000000
G01 X74.0589 Y204.3296 Z-0.125000 F800.000000
G01 X77.4220 Y202.7153 Z-0.125000 F800.000000
G01 X80.5654 Y201.0059 Z-0.125000 F800.000000
G01 X83.6775 Y199.1073 Z-0.125000 F800.000000
G01 X86.8599 Y196.9574 Z-0.125000 F800.000000
G01 X90.1423 Y194.5448 Z-0.125000 F800.000000
G01 X93.7190 Y191.7352 Z-0.125000 F800.000000
G01 X104.7333 Y182.4636 Z-0.125000 F800.000000
G01 X109.4392 Y178.7216 Z-0.125000 F800.000000
G01 X112.1479 Y176.7346 Z-0.125000 F800.000000
G01 X114.8098 Y174.9238 Z-0.125000 F800.000000
G01 X117.5385 Y173.2205 Z-0.125000 F800.000000
G01 X120.1016 Y171.7663 Z-0.125000 F800.000000
G01 X122.7833 Y170.4127 Z-0.125000 F800.000000
G01 X125.4883 Y169.2318 Z-0.125000 F800.000000
G01 X128.2140 Y168.2300 Z-0.125000 F800.000000
G01 X130.9564 Y167.4027 Z-0.125000 F800.000000
G01 X133.6126 Y166.7549 Z-0.125000 F800.000000
G01 X136.4743 Y166.1951 Z-0.125000 F800.000000
G01 X147.0580 Y164.6440 Z-0.125000 F800.000000
G01 X151.5988 Y163.7898 Z-0.125000 F800.000000
G01 X154.0577 Y163.1811 Z-0.125000 F800.000000
G01 X156.5067 Y162.4476 Z-0.125000 F800.000000
G01 X158.9433 Y161.5813 Z-0.125000 F800.000000
G01 X161.3657 Y160.5854 Z-0.125000 F800.000000
G01 X165.3077 Y158.7120 Z-0.125000 F800.000000
G01 X170.0762 Y156.1588 Z-0.125000 F800.000000
G01 X178.6144 Y151.2775 Z-0.125000 F800.000000
G01 X184.8496 Y147.5428 Z-0.125000 F800.000000
G01 X188.5478 Y145.1528 Z-0.125000 F800.000000
G01 X191.9307 Y142.7695 Z-0.125000 F800.000000
G01 X195.1903 Y140.2518 Z-0.125000 F800.000000
G01 X198.4041 Y137.5365 Z-0.125000 F800.000000
G00 Z6.0000

G4 P0.5
(Start Block)


G00 Z6.0000
G00 X10.5833 Y218.9481
(G4 P0.1)
G01 Z-0.125000 F800.000000

G01 X16.6931 Y218.1930 Z-0.125000 F800.000000
G01 X29.8257 Y216.8115 Z-0.125000 F800.000000
G01 X33.9483 Y216.1307 Z-0.125000 F800.000000
G01 X37.8872 Y215.2272 Z-0.125000 F800.000000
G01 X40.9280 Y214.3637 Z-0.125000 F800.000000
G01 X44.3491 Y213.2522 Z-0.125000 F800.000000
G01 X56.5240 Y208.8394 Z-0.125000 F800.000000
G01 X67.3571 Y205.1363 Z-0.125000 F800.000000
G01 X71.2471 Y203.6687 Z-0.125000 F800.000000
G01 X74.8225 Y202.1151 Z-0.125000 F800.000000
G01 X77.8898 Y200.5857 Z-0.125000 F800.000000
G01 X80.9282 Y198.8668 Z-0.125000 F800.000000
G01 X83.9339 Y196.9582 Z-0.125000 F800.000000
G01 X87.0809 Y194.7483 Z-0.125000 F800.000000
G01 X90.1026 Y192.4488 Z-0.125000 F800.000000
G01 X93.4196 Y189.7619 Z-0.125000 F800.000000
G01 X103.9026 Y180.6963 Z-0.125000 F800.000000
G01 X108.4229 Y176.9828 Z-0.125000 F800.000000
G01 X110.8725 Y175.1166 Z-0.125000 F800.000000
G01 X113.2629 Y173.4189 Z-0.125000 F800.000000
G01 X115.6134 Y171.8766 Z-0.125000 F800.000000
G01 X118.0684 Y170.3982 Z-0.125000 F800.000000
G01 X120.9273 Y168.8519 Z-0.125000 F800.000000
G01 X123.7173 Y167.5398 Z-0.125000 F800.000000
G01 X126.5312 Y166.4193 Z-0.125000 F800.000000
G01 X129.4630 Y165.4616 Z-0.125000 F800.000000
G01 X132.2140 Y164.7393 Z-0.125000 F800.000000
G01 X135.2708 Y164.1032 Z-0.125000 F800.000000
G01 X146.2479 Y162.4435 Z-0.125000 F800.000000
G01 X150.7857 Y161.5367 Z-0.125000 F800.000000
G01 X153.3389 Y160.8488 Z-0.125000 F800.000000
G01 X155.8787 Y160.0073 Z-0.125000 F800.000000
G01 X158.3052 Y159.0473 Z-0.125000 F800.000000
G01 X160.8104 Y157.8993 Z-0.125000 F800.000000
G01 X165.0094 Y155.6711 Z-0.125000 F800.000000
G01 X169.9206 Y152.7212 Z-0.125000 F800.000000
G01 X176.9490 Y148.1583 Z-0.125000 F800.000000
G01 X183.5312 Y143.6499 Z-0.125000 F800.000000
G01 X187.7153 Y140.5693 Z-0.125000 F800.000000
G01 X191.4438 Y137.5852 Z-0.125000 F800.000000
G01 X195.1174 Y134.3726 Z-0.125000 F800.000000
G01 X198.4919 Y131.1430 Z-0.125000 F800.000000
G00 Z6.0000

G4 P0.5
(Start Block)


G00 Z6.0000
G00 X10.5833 Y217.3606
(G4 P0.1)
G01 Z-0.125000 F800.000000

G01 X16.9206 Y216.6118 Z-0.125000 F800.000000
G01 X30.3961 Y215.3097 Z-0.125000 F800.000000
G01 X34.5482 Y214.6522 Z-0.125000 F800.000000
G01 X38.5875 Y213.7557 Z-0.125000 F800.000000
G01 X41.8264 Y212.8601 Z-0.125000 F800.000000
G01 X45.4454 Y211.7113 Z-0.125000 F800.000000
G01 X56.7548 Y207.7236 Z-0.125000 F800.000000
G01 X66.8107 Y204.3241 Z-0.125000 F800.000000
G01 X71.0916 Y202.7276 Z-0.125000 F800.000000
G01 X74.9555 Y201.0378 Z-0.125000 F800.000000
G01 X78.0189 Y199.4814 Z-0.125000 F800.000000
G01 X80.9574 Y197.7855 Z-0.125000 F800.000000
G01 X83.9673 Y195.8363 Z-0.125000 F800.000000
G01 X87.0143 Y193.6570 Z-0.125000 F800.000000
G01 X90.0287 Y191.3243 Z-0.125000 F800.000000
G01 X93.2565 Y188.6673 Z-0.125000 F800.000000
G01 X103.4738 Y179.7068 Z-0.125000 F800.000000
G01 X107.8204 Y176.0740 Z-0.125000 F800.000000
G01 X112.4828 Y172.5674 Z-0.125000 F800.000000
G01 X114.7337 Y171.0555 Z-0.125000 F800.000000
G01 X116.9941 Y169.6580 Z-0.125000 F800.000000
G01 X119.9407 Y168.0124 Z-0.125000 F800.000000
G01 X122.8208 Y166.6103 Z-0.125000 F800.000000
G01 X125.7271 Y165.4112 Z-0.125000 F800.000000
G01 X128.6555 Y164.4174 Z-0.125000 F800.000000
G01 X131.5024 Y163.6400 Z-0.125000 F800.000000
G01 X134.6564 Y162.9614 Z-0.125000 F800.000000
G01 X137.8182 Y162.4225 Z-0.125000 F800.000000
G01 X145.8298 Y161.2380 Z-0.125000 F800.000000
G01 X150.4646 Y160.2831 Z-0.125000 F800.000000
G01 X153.0155 Y159.5671 Z-0.125000 F800.000000
G01 X155.5519 Y158.6901 Z-0.125000 F800.000000
G01 X158.0703 Y157.6474 Z-0.125000 F800.000000
G01 X160.6644 Y156.4001 Z-0.125000 F800.000000
G01 X164.8473 Y154.0692 Z-0.125000 F800.000000
G01 X169.7329 Y150.9750 Z-0.125000 F800.000000
G01 X176.2702 Y146.4766 Z-0.125000 F800.000000
G01 X182.7612 Y141.7509 Z-0.125000 F800.000000
G01 X187.1555 Y138.3239 Z-0.125000 F800.000000
G01 X191.0913 Y134.9933 Z-0.125000 F800.000000
G01 X194.8848 Y131.4868 Z-0.125000 F800.000000
G01 X198.1336 Y128.1666 Z-0.125000 F800.000000
G00 Z6.0000

G4 P0.5
(Start Block)


G00 Z6.0000
G00 X10.5833 Y215.7731
(G4 P0.1)
G01 Z-0.125000 F800.000000

G01 X17.2611 Y215.0146 Z-0.125000 F800.000000
G01 X27.4562 Y214.1613 Z-0.125000 F800.000000
G01 X30.8527 Y213.8087 Z-0.125000 F800.000000
G01 X35.1473 Y213.1591 Z-0.125000 F800.000000
G01 X39.2870 Y212.2695 Z-0.125000 F800.000000
G01 X42.6259 Y211.3720 Z-0.125000 F800.000000
G01 X46.3455 Y210.2214 Z-0.125000 F800.000000
G01 X66.4549 Y203.3980 Z-0.125000 F800.000000
G01 X71.1254 Y201.6610 Z-0.125000 F800.000000
G01 X75.1787 Y199.8570 Z-0.125000 F800.000000
G01 X77.9509 Y198.4188 Z-0.125000 F800.000000
G01 X80.6965 Y196.8128 Z-0.125000 F800.000000
G01 X83.4026 Y195.0497 Z-0.125000 F800.000000
G01 X86.2026 Y193.0469 Z-0.125000 F800.000000
G01 X89.2166 Y190.7128 Z-0.125000 F800.000000
G01 X92.5224 Y187.9781 Z-0.125000 F800.000000
G01 X103.6752 Y178.0891 Z-0.125000 F800.000000
G01 X108.5869 Y173.9933 Z-0.125000 F800.000000
G01 X111.2836 Y171.9503 Z-0.125000 F800.000000
G01 X113.9402 Y170.1128 Z-0.125000 F800.000000
G01 X116.5743 Y168.4650 Z-0.125000 F800.000000
G01 X119.3291 Y166.9151 Z-0.125000 F800.000000
G01 X122.1101 Y165.5378 Z-0.125000 F800.000000
G01 X124.8187 Y164.3857 Z-0.125000 F800.000000
G01 X127.5473 Y163.4118 Z-0.125000 F800.000000
G01 X130.3900 Y162.5831 Z-0.125000 F800.000000
G01 X132.8507 Y162.0000 Z-0.125000 F800.000000
G01 X135.6139 Y161.4644 Z-0.125000 F800.000000
G01 X146.8844 Y159.6877 Z-0.125000 F800.000000
G01 X149.7417 Y159.0556 Z-0.125000 F800.000000
G01 X152.3903 Y158.3070 Z-0.125000 F800.000000
G01 X155.2169 Y157.3046 Z-0.125000 F800.000000
G01 X158.0197 Y156.0912 Z-0.125000 F800.000000
G01 X160.8909 Y154.6274 Z-0.125000 F800.000000
G01 X163.9224 Y152.8666 Z-0.125000 F800.000000
G01 X168.2215 Y150.0690 Z-0.125000 F800.000000
G01 X173.3308 Y146.4332 Z-0.125000 F800.000000
G01 X179.5444 Y141.7413 Z-0.125000 F800.000000
G01 X184.8134 Y137.5261 Z-0.125000 F800.000000
G01 X188.8181 Y134.0811 Z-0.125000 F800.000000
G01 X192.4481 Y130.7001 Z-0.125000 F800.000000
G01 X195.6263 Y127.4473 Z-0.125000 F800.000000
G01 X198.4032 Y124.2807 Z-0.125000 F800.000000
G00 Z6.0000

G4 P0.5
(Start Block)


G00 Z6.0000
G00 X10.5833 Y207.8356
(G4 P0.1)
G01 Z-0.125000 F800.000000

G01 X17.9457 Y207.1988 Z-0.125000 F800.000000
G01 X28.9419 Y206.7238 Z-0.125000 F800.000000
G01 X32.9080 Y206.4597 Z-0.125000 F800.000000
G01 X37.5477 Y205.9135 Z-0.125000 F800.000000
G01 X42.1883 Y205.0598 Z-0.125000 F800.000000
G01 X45.5342 Y204.2584 Z-0.125000 F800.000000
G01 X49.1643 Y203.2382 Z-0.125000 F800.000000
G01 X64.7209 Y198.3473 Z-0.125000 F800.000000
G01 X67.6433 Y197.2927 Z-0.125000 F800.000000
G01 X70.2602 Y196.2238 Z-0.125000 F800.000000
G01 X72.7631 Y195.0585 Z-0.125000 F800.000000
G01 X75.1501 Y193.8001 Z-0.125000 F800.000000
G01 X77.6089 Y192.3439 Z-0.125000 F800.000000
G01 X79.9899 Y190.7773 Z-0.125000 F800.000000
G01 X82.4580 Y188.9983 Z-0.125000 F800.000000
G01 X85.0620 Y186.9676 Z-0.125000 F800.000000
G01 X88.1213 Y184.4134 Z-0.125000 F800.000000
G01 X91.5482 Y181.3818 Z-0.125000 F800.000000
G01 X102.1829 Y171.3891 Z-0.125000 F800.000000
G01 X106.0037 Y167.9872 Z-0.125000 F800.000000
G01 X108.2672 Y166.1447 Z-0.125000 F800.000000
G01 X110.4786 Y164.4963 Z-0.125000 F800.000000
G01 X112.7073 Y162.9912 Z-0.125000 F800.000000
G01 X115.0660 Y161.5586 Z-0.125000 F800.000000
G01 X118.0202 Y159.9610 Z-0.125000 F800.000000
G01 X121.0008 Y158.5453 Z-0.125000 F800.000000
G01 X123.9085 Y157.3573 Z-0.125000 F800.000000
G01 X126.9332 Y156.3173 Z-0.125000 F800.000000
G01 X129.5806 Y155.5527 Z-0.125000 F800.000000
G01 X132.4333 Y154.8520 Z-0.125000 F800.000000
G01 X144.0678 Y152.4155 Z-0.125000 F800.000000
G01 X147.0124 Y151.6051 Z-0.125000 F800.000000
G01 X149.6473 Y150.7033 Z-0.125000 F800.000000
G01 X152.6464 Y149.4311 Z-0.125000 F800.000000
G01 X155.6099 Y147.8962 Z-0.125000 F800.000000
G01 X158.6275 Y146.0544 Z-0.125000 F800.000000
G01 X161.6841 Y143.9229 Z-0.125000 F800.000000
G01 X166.0634 Y140.4312 Z-0.125000 F800.000000
G01 X170.9850 Y135.9850 Z-0.125000 F800.000000
G01 X176.9886 Y130.0616 Z-0.125000 F800.000000
G01 X182.0455 Y124.6486 Z-0.125000 F800.000000
G01 X185.8715 Y120.1421 Z-0.125000 F800.000000
G01 X189.5918 Y115.3369 Z-0.125000 F800.000000
G01 X193.8420 Y109.3707 Z-0.125000 F800.000000
G01 X198.1790 Y102.8880 Z-0.125000 F800.000000
G00 Z6.0000

G4 P0.5
(Start Block)


G00 Z6.0000
G00 X10.5833 Y196.7231
(G4 P0.1)
G01 Z-0.125000 F800.000000

G01 X16.4792 Y196.8648 Z-0.125000 F800.000000
G01 X28.7206 Y197.5203 Z-0.125000 F800.000000
G01 X33.7093 Y197.6425 Z-0.125000 F800.000000
G01 X36.7707 Y197.5868 Z-0.125000 F800.000000
G01 X39.8309 Y197.4136 Z-0.125000 F800.000000
G01 X42.8885 Y197.1225 Z-0.125000 F800.000000
G01 X46.0556 Y196.7064 Z-0.125000 F800.000000
G01 X50.5304 Y195.9498 Z-0.125000 F800.000000
G01 X55.2641 Y194.9746 Z-0.125000 F800.000000
G01 X59.2968 Y193.9791 Z-0.125000 F800.000000
G01 X62.7256 Y192.9535 Z-0.125000 F800.000000
G01 X65.8418 Y191.8194 Z-0.125000 F800.000000
G01 X68.7394 Y190.5494 Z-0.125000 F800.000000
G01 X71.7029 Y189.0138 Z-0.125000 F800.000000
G01 X74.6311 Y187.2579 Z-0.125000 F800.000000
G01 X77.0893 Y185.6052 Z-0.125000 F800.000000
G01 X79.6337 Y183.7385 Z-0.125000 F800.000000
G01 X82.3958 Y181.5599 Z-0.125000 F800.000000
G01 X85.3740 Y179.0704 Z-0.125000 F800.000000
G01 X91.4102 Y173.6327 Z-0.125000 F800.000000
G01 X99.7660 Y165.4467 Z-0.125000 F800.000000
G01 X102.7607 Y162.6388 Z-0.125000 F800.000000
G01 X106.2158 Y159.7222 Z-0.125000 F800.000000
G01 X109.5867 Y157.2817 Z-0.125000 F800.000000
G01 X111.9277 Y155.8151 Z-0.125000 F800.000000
G01 X114.3987 Y154.4327 Z-0.125000 F800.000000
G01 X117.3676 Y152.9330 Z-0.125000 F800.000000
G01 X120.4492 Y151.5063 Z-0.125000 F800.000000
G01 X125.9727 Y149.2406 Z-0.125000 F800.000000
G01 X137.8482 Y144.8666 Z-0.125000 F800.000000
G01 X140.9428 Y143.5421 Z-0.125000 F800.000000
G01 X143.8211 Y142.1275 Z-0.125000 F800.000000
G01 X147.5194 Y140.0043 Z-0.125000 F800.000000
G01 X151.2451 Y137.5136 Z-0.125000 F800.000000
G01 X155.2491 Y134.4803 Z-0.125000 F800.000000
G01 X159.1043 Y131.2170 Z-0.125000 F800.000000
G01 X163.1034 Y127.3762 Z-0.125000 F800.000000
G01 X167.0249 Y123.0358 Z-0.125000 F800.000000
G01 X171.0525 Y118.0210 Z-0.125000 F800.000000
G01 X175.9306 Y111.3969 Z-0.125000 F800.000000
G01 X181.8694 Y103.0551 Z-0.125000 F800.000000
G01 X185.7046 Y97.3424 Z-0.125000 F800.000000
G01 X188.3378 Y93.1426 Z-0.125000 F800.000000
G01 X194.7381 Y82.4568 Z-0.125000 F800.000000
G01 X198.5072 Y76.3840 Z-0.125000 F800.000000
G00 Z6.0000

G4 P0.5
(Start Block)


G00 Z6.0000
G00 X10.5833 Y195.1356
(G4 P0.1)
G01 Z-0.125000 F800.000000

G01 X17.1579 Y195.4519 Z-0.125000 F800.000000
G01 X29.2820 Y196.3171 Z-0.125000 F800.000000
G01 X33.9300 Y196.5001 Z-0.125000 F800.000000
G01 X37.1050 Y196.4976 Z-0.125000 F800.000000
G01 X40.2792 Y196.3733 Z-0.125000 F800.000000
G01 X43.4514 Y196.1262 Z-0.125000 F800.000000
G01 X46.7336 Y195.7495 Z-0.125000 F800.000000
G01 X51.1268 Y195.0758 Z-0.125000 F800.000000
G01 X55.4691 Y194.2358 Z-0.125000 F800.000000
G01 X59.3071 Y193.3174 Z-0.125000 F800.000000
G01 X62.6388 Y192.3310 Z-0.125000 F800.000000
G01 X65.6577 Y191.2333 Z-0.125000 F800.000000
G01 X68.5547 Y189.9593 Z-0.125000 F800.000000
G01 X71.5170 Y188.4153 Z-0.125000 F800.000000
G01 X74.4439 Y186.6514 Z-0.125000 F800.000000
G01 X76.9217 Y184.9794 Z-0.125000 F800.000000
G01 X79.5471 Y183.0473 Z-0.125000 F800.000000
G01 X82.3894 Y180.8001 Z-0.125000 F800.000000
G01 X85.3670 Y178.3082 Z-0.125000 F800.000000
G01 X91.3213 Y172.9320 Z-0.125000 F800.000000
G01 X99.5174 Y164.8868 Z-0.125000 F800.000000
G01 X102.4318 Y162.1472 Z-0.125000 F800.000000
G01 X105.8034 Y159.2852 Z-0.125000 F800.000000
G01 X109.1085 Y156.8697 Z-0.125000 F800.000000
G01 X111.3627 Y155.4377 Z-0.125000 F800.000000
G01 X113.7349 Y154.0853 Z-0.125000 F800.000000
G01 X116.5079 Y152.6526 Z-0.125000 F800.000000
G01 X119.6808 Y151.1440 Z-0.125000 F800.000000
G01 X125.1947 Y148.7984 Z-0.125000 F800.000000
G01 X137.1465 Y144.1935 Z-0.125000 F800.000000
G01 X140.2353 Y142.8227 Z-0.125000 F800.000000
G01 X143.1080 Y141.3687 Z-0.125000 F800.000000
G01 X146.7990 Y139.2019 Z-0.125000 F800.000000
G01 X150.6729 Y136.5685 Z-0.125000 F800.000000
G01 X154.8327 Y133.3762 Z-0.125000 F800.000000
G01 X158.6806 Y130.0830 Z-0.125000 F800.000000
G01 X160.9639 Y127.9323 Z-0.125000 F800.000000
G01 X163.0770 Y125.7783 Z-0.125000 F800.000000
G01 X165.1953 Y123.4418 Z-0.125000 F800.000000
G01 X167.4063 Y120.8202 Z-0.125000 F800.000000
G01 X171.7776 Y115.1679 Z-0.125000 F800.000000
G01 X178.7200 Y105.5302 Z-0.125000 F800.000000
G01 X182.5617 Y99.9854 Z-0.125000 F800.000000
G01 X185.7870 Y95.0073 Z-0.125000 F800.000000
G01 X194.4262 Y80.5091 Z-0.125000 F800.000000
G01 X198.1794 Y74.4023 Z-0.125000 F800.000000
G00 Z6.0000

G4 P0.5
(Start Block)


G00 Z6.0000
G00 X10.5833 Y190.3731
(G4 P0.1)
G01 Z-0.125000 F800.000000

G01 X28.2331 Y192.5760 Z-0.125000 F800.000000
G01 X34.8007 Y193.2217 Z-0.125000 F800.000000
G01 X38.4276 Y193.4236 Z-0.125000 F800.000000
G01 X41.8292 Y193.4820 Z-0.125000 F800.000000
G01 X45.3440 Y193.3983 Z-0.125000 F800.000000
G01 X48.7436 Y193.1756 Z-0.125000 F800.000000
G01 X52.5921 Y192.7496 Z-0.125000 F800.000000
G01 X56.1504 Y192.1710 Z-0.125000 F800.000000
G01 X59.5001 Y191.4280 Z-0.125000 F800.000000
G01 X62.5393 Y190.5471 Z-0.125000 F800.000000
G01 X65.4600 Y189.4774 Z-0.125000 F800.000000
G01 X68.2575 Y188.2227 Z-0.125000 F800.000000
G01 X71.1203 Y186.7019 Z-0.125000 F800.000000
G01 X74.0435 Y184.9172 Z-0.125000 F800.000000
G01 X76.6430 Y183.1471 Z-0.125000 F800.000000
G01 X79.3487 Y181.1460 Z-0.125000 F800.000000
G01 X82.3533 Y178.7700 Z-0.125000 F800.000000
G01 X85.3300 Y176.2744 Z-0.125000 F800.000000
G01 X90.9620 Y171.1671 Z-0.125000 F800.000000
G01 X98.7644 Y163.4926 Z-0.125000 F800.000000
G01 X101.5183 Y160.8902 Z-0.125000 F800.000000
G01 X104.7226 Y158.1368 Z-0.125000 F800.000000
G01 X107.8334 Y155.8111 Z-0.125000 F800.000000
G01 X109.9438 Y154.4215 Z-0.125000 F800.000000
G01 X112.1172 Y153.1229 Z-0.125000 F800.000000
G01 X117.4660 Y150.3178 Z-0.125000 F800.000000
G01 X123.1470 Y147.6826 Z-0.125000 F800.000000
G01 X135.2357 Y142.5106 Z-0.125000 F800.000000
G01 X138.5017 Y140.9345 Z-0.125000 F800.000000
G01 X141.4549 Y139.3309 Z-0.125000 F800.000000
G01 X145.4074 Y136.8684 Z-0.125000 F800.000000
G01 X149.6413 Y133.8577 Z-0.125000 F800.000000
G01 X153.9450 Y130.4540 Z-0.125000 F800.000000
G01 X157.8521 Y127.0082 Z-0.125000 F800.000000
G01 X160.0415 Y124.8765 Z-0.125000 F800.000000
G01 X162.1306 Y122.6760 Z-0.125000 F800.000000
G01 X164.1639 Y120.3626 Z-0.125000 F800.000000
G01 X166.2897 Y117.7681 Z-0.125000 F800.000000
G01 X170.9500 Y111.5941 Z-0.125000 F800.000000
G01 X178.2624 Y101.3287 Z-0.125000 F800.000000
G01 X181.3043 Y96.7835 Z-0.125000 F800.000000
G01 X184.1550 Y92.2295 Z-0.125000 F800.000000
G01 X193.0154 Y76.9840 Z-0.125000 F800.000000
G01 X198.0381 Y68.6768 Z-0.125000 F800.000000
G00 Z6.0000

G4 P0.5
(Start Block)


G00 Z6.0000
G00 X10.5833 Y182.4356
(G4 P0.1)
G01 Z-0.125000 F800.000000

G01 X24.4657 Y185.6649 Z-0.125000 F800.000000
G01 X31.1705 Y187.0699 Z-0.125000 F800.000000
G01 X36.5003 Y188.0906 Z-0.125000 F800.000000
G01 X40.3270 Y188.7117 Z-0.125000 F800.000000
G01 X43.8344 Y189.1463 Z-0.125000 F800.000000
G01 X47.1199 Y189.4020 Z-0.125000 F800.000000
G01 X50.2945 Y189.4830 Z-0.125000 F800.000000
G01 X53.4687 Y189.3651 Z-0.125000 F800.000000
G01 X56.5108 Y189.0347 Z-0.125000 F800.000000
G01 X59.3738 Y188.5028 Z-0.125000 F800.000000
G01 X62.2214 Y187.7361 Z-0.125000 F800.000000
G01 X64.9496 Y186.7596 Z-0.125000 F800.000000
G01 X67.6511 Y185.5515 Z-0.125000 F800.000000
G01 X70.5129 Y184.0247 Z-0.125000 F800.000000
G01 X73.4363 Y182.2411 Z-0.125000 F800.000000
G01 X76.0905 Y180.4508 Z-0.125000 F800.000000
G01 X78.9660 Y178.3558 Z-0.125000 F800.000000
G01 X81.8141 Y176.1344 Z-0.125000 F800.000000
G01 X84.7150 Y173.7257 Z-0.125000 F800.000000
G01 X90.0361 Y168.9306 Z-0.125000 F800.000000
G01 X97.7725 Y161.3758 Z-0.125000 F800.000000
G01 X100.3720 Y158.9328 Z-0.125000 F800.000000
G01 X103.3350 Y156.3819 Z-0.125000 F800.000000
G01 X106.3574 Y154.0867 Z-0.125000 F800.000000
G01 X110.1644 Y151.5938 Z-0.125000 F800.000000
G01 X114.6275 Y149.0720 Z-0.125000 F800.000000
G01 X120.4661 Y146.0967 Z-0.125000 F800.000000
G01 X132.9554 Y140.0813 Z-0.125000 F800.000000
G01 X136.3912 Y138.2592 Z-0.125000 F800.000000
G01 X139.6108 Y136.3796 Z-0.125000 F800.000000
G01 X144.0816 Y133.4395 Z-0.125000 F800.000000
G01 X148.7591 Y130.0025 Z-0.125000 F800.000000
G01 X153.0456 Y126.5241 Z-0.125000 F800.000000
G01 X156.8518 Y123.0665 Z-0.125000 F800.000000
G01 X158.8711 Y121.0387 Z-0.125000 F800.000000
G01 X160.8849 Y118.8576 Z-0.125000 F800.000000
G01 X164.8877 Y114.0427 Z-0.125000 F800.000000
G01 X170.8893 Y106.0211 Z-0.125000 F800.000000
G01 X176.6363 Y97.8546 Z-0.125000 F800.000000
G01 X179.2612 Y93.8460 Z-0.125000 F800.000000
G01 X181.8188 Y89.6888 Z-0.125000 F800.000000
G01 X191.8525 Y72.2490 Z-0.125000 F800.000000
G01 X198.4979 Y61.2676 Z-0.125000 F800.000000
G00 Z6.0000

G4 P0.5
(Start Block)


G00 Z6.0000
G00 X10.5833 Y180.8481
(G4 P0.1)
G01 Z-0.125000 F800.000000

G01 X24.0530 Y184.2578 Z-0.125000 F800.000000
G01 X31.2427 Y185.8946 Z-0.125000 F800.000000
G01 X36.9608 Y187.1027 Z-0.125000 F800.000000
G01 X40.8119 Y187.8060 Z-0.125000 F800.000000
G01 X44.2460 Y188.3003 Z-0.125000 F800.000000
G01 X47.5299 Y188.6169 Z-0.125000 F800.000000
G01 X50.4772 Y188.7420 Z-0.125000 F800.000000
G01 X53.5384 Y188.6756 Z-0.125000 F800.000000
G01 X56.4826 Y188.3929 Z-0.125000 F800.000000
G01 X59.3328 Y187.8893 Z-0.125000 F800.000000
G01 X62.0836 Y187.1667 Z-0.125000 F800.000000
G01 X64.7161 Y186.2418 Z-0.125000 F800.000000
G01 X67.4195 Y185.0492 Z-0.125000 F800.000000
G01 X70.2832 Y183.5349 Z-0.125000 F800.000000
G01 X73.3027 Y181.7040 Z-0.125000 F800.000000
G01 X76.0516 Y179.8582 Z-0.125000 F800.000000
G01 X78.8466 Y177.8308 Z-0.125000 F800.000000
G01 X81.6963 Y175.6168 Z-0.125000 F800.000000
G01 X84.5183 Y173.2818 Z-0.125000 F800.000000
G01 X89.8423 Y168.4982 Z-0.125000 F800.000000
G01 X97.5834 Y160.9601 Z-0.125000 F800.000000
G01 X100.1845 Y158.5230 Z-0.125000 F800.000000
G01 X103.1492 Y155.9788 Z-0.125000 F800.000000
G01 X106.0898 Y153.7451 Z-0.125000 F800.000000
G01 X109.8632 Y151.2598 Z-0.125000 F800.000000
G01 X114.2273 Y148.7667 Z-0.125000 F800.000000
G01 X120.0600 Y145.7518 Z-0.125000 F800.000000
G01 X132.5346 Y139.6309 Z-0.125000 F800.000000
G01 X136.1571 Y137.6803 Z-0.125000 F800.000000
G01 X139.3732 Y135.7798 Z-0.125000 F800.000000
G01 X143.8622 Y132.8123 Z-0.125000 F800.000000
G01 X148.6205 Y129.3090 Z-0.125000 F800.000000
G01 X152.9055 Y125.8239 Z-0.125000 F800.000000
G01 X156.6305 Y122.4312 Z-0.125000 F800.000000
G01 X158.6180 Y120.4320 Z-0.125000 F800.000000
G01 X160.6086 Y118.2746 Z-0.125000 F800.000000
G01 X164.6775 Y113.3779 Z-0.125000 F800.000000
G01 X170.6820 Y105.3638 Z-0.125000 F800.000000
G01 X176.3241 Y97.3403 Z-0.125000 F800.000000
G01 X178.9465 Y93.3261 Z-0.125000 F800.000000
G01 X181.4478 Y89.2531 Z-0.125000 F800.000000
G01 X191.6387 Y71.5355 Z-0.125000 F800.000000
G01 X198.3934 Y60.3785 Z-0.125000 F800.000000
G00 Z6.0000

G4 P0.5
(Start Block)


G00 Z6.0000
G00 X10.5833 Y179.2606
(G4 P0.1)
G01 Z-0.125000 F800.000000

G01 X23.8371 Y182.8746 Z-0.125000 F800.000000
G01 X37.4187 Y186.1142 Z-0.125000 F800.000000
G01 X41.2657 Y186.8935 Z-0.125000 F800.000000
G01 X44.6544 Y187.4475 Z-0.125000 F800.000000
G01 X47.8233 Y187.8129 Z-0.125000 F800.000000
G01 X50.6565 Y187.9826 Z-0.125000 F800.000000
G01 X53.7179 Y187.9586 Z-0.125000 F800.000000
G01 X56.5495 Y187.7147 Z-0.125000 F800.000000
G01 X59.2879 Y187.2531 Z-0.125000 F800.000000
G01 X62.0398 Y186.5456 Z-0.125000 F800.000000
G01 X64.6729 Y185.6267 Z-0.125000 F800.000000
G01 X67.3765 Y184.4354 Z-0.125000 F800.000000
G01 X70.1453 Y182.9752 Z-0.125000 F800.000000
G01 X73.1664 Y181.1536 Z-0.125000 F800.000000
G01 X75.9279 Y179.3122 Z-0.125000 F800.000000
G01 X78.7250 Y177.2951 Z-0.125000 F800.000000
G01 X81.5766 Y175.0891 Z-0.125000 F800.000000
G01 X84.3999 Y172.7599 Z-0.125000 F800.000000
G01 X89.6469 Y168.0574 Z-0.125000 F800.000000
G01 X99.9171 Y158.1808 Z-0.125000 F800.000000
G01 X102.8821 Y155.6379 Z-0.125000 F800.000000
G01 X105.8221 Y153.4009 Z-0.125000 F800.000000
G01 X109.4678 Y150.9820 Z-0.125000 F800.000000
G01 X113.8272 Y148.4608 Z-0.125000 F800.000000
G01 X119.6541 Y145.4068 Z-0.125000 F800.000000
G01 X132.2100 Y139.1353 Z-0.125000 F800.000000
G01 X135.8288 Y137.1605 Z-0.125000 F800.000000
G01 X139.1368 Y135.1887 Z-0.125000 F800.000000
G01 X143.7275 Y132.1409 Z-0.125000 F800.000000
G01 X148.4848 Y128.6326 Z-0.125000 F800.000000
G01 X152.7688 Y125.1433 Z-0.125000 F800.000000
G01 X156.4914 Y121.7418 Z-0.125000 F800.000000
G01 X158.4847 Y119.7279 Z-0.125000 F800.000000
G01 X160.4050 Y117.6397 Z-0.125000 F800.000000
G01 X164.4731 Y112.7403 Z-0.125000 F800.000000
G01 X170.4812 Y104.7354 Z-0.125000 F800.000000
G01 X176.0189 Y96.8564 Z-0.125000 F800.000000
G01 X178.5293 Y93.0121 Z-0.125000 F800.000000
G01 X181.0313 Y88.9407 Z-0.125000 F800.000000
G01 X191.4349 Y70.8590 Z-0.125000 F800.000000
G01 X195.1391 Y64.6486 Z-0.125000 F800.000000
G01 X198.3002 Y59.5287 Z-0.125000 F800.000000
G00 Z6.0000

G4 P0.5
(Start Block)


G00 Z6.0000
G00 X10.5833 Y169.7356
(G4 P0.1)
G01 Z-0.125000 F800.000000

G01 X24.0062 Y174.7793 Z-0.125000 F800.000000
G01 X37.7813 Y179.3355 Z-0.125000 F800.000000
G01 X42.2849 Y180.7178 Z-0.125000 F800.000000
G01 X45.8192 Y181.6806 Z-0.125000 F800.000000
G01 X48.9719 Y182.3798 Z-0.125000 F800.000000
G01 X51.6982 Y182.7982 Z-0.125000 F800.000000
G01 X54.3041 Y182.9839 Z-0.125000 F800.000000
G01 X56.9117 Y182.9261 Z-0.125000 F800.000000
G01 X59.4714 Y182.6123 Z-0.125000 F800.000000
G01 X62.0322 Y182.0346 Z-0.125000 F800.000000
G01 X64.5729 Y181.2040 Z-0.125000 F800.000000
G01 X67.1858 Y180.1022 Z-0.125000 F800.000000
G01 X70.0581 Y178.6458 Z-0.125000 F800.000000
G01 X73.1842 Y176.8291 Z-0.125000 F800.000000
G01 X75.7166 Y175.1985 Z-0.125000 F800.000000
G01 X78.2365 Y173.4417 Z-0.125000 F800.000000
G01 X80.8554 Y171.4787 Z-0.125000 F800.000000
G01 X83.4487 Y169.4009 Z-0.125000 F800.000000
G01 X88.3244 Y165.1576 Z-0.125000 F800.000000
G01 X98.5095 Y155.6956 Z-0.125000 F800.000000
G01 X101.4870 Y153.2039 Z-0.125000 F800.000000
G01 X104.5128 Y150.9240 Z-0.125000 F800.000000
G01 X107.9976 Y148.5809 Z-0.125000 F800.000000
G01 X112.0557 Y146.1233 Z-0.125000 F800.000000
G01 X117.6602 Y142.9684 Z-0.125000 F800.000000
G01 X131.1836 Y135.5910 Z-0.125000 F800.000000
G01 X135.3513 Y133.1653 Z-0.125000 F800.000000
G01 X139.1170 Y130.8265 Z-0.125000 F800.000000
G01 X143.8436 Y127.6318 Z-0.125000 F800.000000
G01 X148.3529 Y124.2958 Z-0.125000 F800.000000
G01 X152.1494 Y121.1912 Z-0.125000 F800.000000
G01 X155.5512 Y118.0637 Z-0.125000 F800.000000
G01 X157.5416 Y116.0401 Z-0.125000 F800.000000
G01 X159.5271 Y113.8662 Z-0.125000 F800.000000
G01 X163.7949 Y108.7246 Z-0.125000 F800.000000
G01 X169.3708 Y101.3748 Z-0.125000 F800.000000
G01 X174.2971 Y94.3759 Z-0.125000 F800.000000
G01 X176.6398 Y90.7872 Z-0.125000 F800.000000
G01 X178.9279 Y87.0776 Z-0.125000 F800.000000
G01 X191.4359 Y65.5065 Z-0.125000 F800.000000
G01 X195.3774 Y58.9835 Z-0.125000 F800.000000
G01 X198.5858 Y53.9675 Z-0.125000 F800.000000
G00 Z6.0000

G4 P0.5
(Start Block)


G00 Z6.0000
G00 X10.5833 Y161.7981
(G4 P0.1)
G01 Z-0.125000 F800.000000

G01 X25.2564 Y168.3018 Z-0.125000 F800.000000
G01 X29.7133 Y170.1370 Z-0.125000 F800.000000
G01 X34.7645 Y172.0988 Z-0.125000 F800.000000
G01 X40.6056 Y174.2436 Z-0.125000 F800.000000
G01 X45.0979 Y175.7485 Z-0.125000 F800.000000
G01 X48.8246 Y176.8136 Z-0.125000 F800.000000
G01 X51.9790 Y177.4838 Z-0.125000 F800.000000
G01 X54.6096 Y177.8036 Z-0.125000 F800.000000
G01 X57.2171 Y177.8618 Z-0.125000 F800.000000
G01 X59.7089 Y177.6545 Z-0.125000 F800.000000
G01 X62.1766 Y177.1901 Z-0.125000 F800.000000
G01 X64.7253 Y176.4483 Z-0.125000 F800.000000
G01 X67.4446 Y175.3891 Z-0.125000 F800.000000
G01 X70.3279 Y174.0110 Z-0.125000 F800.000000
G01 X73.3719 Y172.3273 Z-0.125000 F800.000000
G01 X75.6336 Y170.9365 Z-0.125000 F800.000000
G01 X77.9902 Y169.3652 Z-0.125000 F800.000000
G01 X82.7427 Y165.8352 Z-0.125000 F800.000000
G01 X87.0948 Y162.2260 Z-0.125000 F800.000000
G01 X97.3109 Y153.2613 Z-0.125000 F800.000000
G01 X100.3899 Y150.7910 Z-0.125000 F800.000000
G01 X103.5093 Y148.5047 Z-0.125000 F800.000000
G01 X107.3306 Y145.9623 Z-0.125000 F800.000000
G01 X112.0442 Y143.0754 Z-0.125000 F800.000000
G01 X118.7683 Y139.1544 Z-0.125000 F800.000000
G01 X132.7215 Y131.2274 Z-0.125000 F800.000000
G01 X136.6911 Y128.8607 Z-0.125000 F800.000000
G01 X140.1706 Y126.6760 Z-0.125000 F800.000000
G01 X144.6193 Y123.6803 Z-0.125000 F800.000000
G01 X148.4763 Y120.8465 Z-0.125000 F800.000000
G01 X151.7902 Y118.1469 Z-0.125000 F800.000000
G01 X154.8786 Y115.3219 Z-0.125000 F800.000000
G01 X156.8032 Y113.3825 Z-0.125000 F800.000000
G01 X158.7944 Y111.2268 Z-0.125000 F800.000000
G01 X163.1475 Y106.0593 Z-0.125000 F800.000000
G01 X168.3557 Y99.2793 Z-0.125000 F800.000000
G01 X173.0402 Y92.6661 Z-0.125000 F800.000000
G01 X175.6620 Y88.6505 Z-0.125000 F800.000000
G01 X178.3238 Y84.3064 Z-0.125000 F800.000000
G01 X187.7122 Y68.1425 Z-0.125000 F800.000000
G01 X192.4255 Y60.1995 Z-0.125000 F800.000000
G01 X195.2638 Y55.6182 Z-0.125000 F800.000000
G01 X198.0006 Y51.4398 Z-0.125000 F800.000000
G00 Z6.0000

G4 P0.5
(Start Block)


G00 Z6.0000
G00 X10.5833 Y158.6231
(G4 P0.1)
G01 Z-0.125000 F800.000000

G01 X15.0215 Y160.6096 Z-0.125000 F800.000000
G01 X26.0844 Y165.8237 Z-0.125000 F800.000000
G01 X30.2391 Y167.6346 Z-0.125000 F800.000000
G01 X34.6967 Y169.4635 Z-0.125000 F800.000000
G01 X40.3331 Y171.6300 Z-0.125000 F800.000000
G01 X45.0139 Y173.2687 Z-0.125000 F800.000000
G01 X48.9319 Y174.4475 Z-0.125000 F800.000000
G01 X52.0833 Y175.1646 Z-0.125000 F800.000000
G01 X54.7407 Y175.5283 Z-0.125000 F800.000000
G01 X57.3479 Y175.6249 Z-0.125000 F800.000000
G01 X59.8406 Y175.4537 Z-0.125000 F800.000000
G01 X62.3804 Y175.0082 Z-0.125000 F800.000000
G01 X64.9314 Y174.2949 Z-0.125000 F800.000000
G01 X67.6541 Y173.2669 Z-0.125000 F800.000000
G01 X70.6379 Y171.8748 Z-0.125000 F800.000000
G01 X73.6864 Y170.2196 Z-0.125000 F800.000000
G01 X78.0110 Y167.4985 Z-0.125000 F800.000000
G01 X82.5416 Y164.2087 Z-0.125000 F800.000000
G01 X86.6699 Y160.8763 Z-0.125000 F800.000000
G01 X96.9431 Y152.1415 Z-0.125000 F800.000000
G01 X100.0337 Y149.7226 Z-0.125000 F800.000000
G01 X103.1603 Y147.4704 Z-0.125000 F800.000000
G01 X107.4022 Y144.6792 Z-0.125000 F800.000000
G01 X113.0603 Y141.2245 Z-0.125000 F800.000000
G01 X119.9700 Y137.1709 Z-0.125000 F800.000000
G01 X133.5392 Y129.4326 Z-0.125000 F800.000000
G01 X140.7059 Y125.0568 Z-0.125000 F800.000000
G01 X144.8566 Y122.2777 Z-0.125000 F800.000000
G01 X148.4699 Y119.6368 Z-0.125000 F800.000000
G01 X151.7044 Y117.0093 Z-0.125000 F800.000000
G01 X154.6363 Y114.3360 Z-0.125000 F800.000000
G01 X156.5785 Y112.3883 Z-0.125000 F800.000000
G01 X158.5875 Y110.2245 Z-0.125000 F800.000000
G01 X162.8812 Y105.1583 Z-0.125000 F800.000000
G01 X167.9678 Y98.5709 Z-0.125000 F800.000000
G01 X172.5261 Y92.1600 Z-0.125000 F800.000000
G01 X175.1517 Y88.1530 Z-0.125000 F800.000000
G01 X177.8713 Y83.7278 Z-0.125000 F800.000000
G01 X187.6481 Y66.9593 Z-0.125000 F800.000000
G01 X192.2603 Y59.2091 Z-0.125000 F800.000000
G01 X195.2178 Y54.4737 Z-0.125000 F800.000000
G01 X198.0801 Y50.1563 Z-0.125000 F800.000000
G00 Z6.0000

G4 P0.5
(Start Block)


G00 Z6.0000
G00 X10.5833 Y157.0356
(G4 P0.1)
G01 Z-0.125000 F800.000000

G01 X15.3070 Y159.1826 Z-0.125000 F800.000000
G01 X26.5469 Y164.6001 Z-0.125000 F800.000000
G01 X34.7619 Y168.1589 Z-0.125000 F800.000000
G01 X40.1992 Y170.2925 Z-0.125000 F800.000000
G01 X44.8768 Y171.9629 Z-0.125000 F800.000000
G01 X48.7920 Y173.1745 Z-0.125000 F800.000000
G01 X52.0397 Y173.9469 Z-0.125000 F800.000000
G01 X54.6959 Y174.3384 Z-0.125000 F800.000000
G01 X57.3027 Y174.4647 Z-0.125000 F800.000000
G01 X59.9092 Y174.3106 Z-0.125000 F800.000000
G01 X62.4358 Y173.8868 Z-0.125000 F800.000000
G01 X65.0862 Y173.1624 Z-0.125000 F800.000000
G01 X67.8104 Y172.1478 Z-0.125000 F800.000000
G01 X70.7964 Y170.7725 Z-0.125000 F800.000000
G01 X73.8475 Y169.1341 Z-0.125000 F800.000000
G01 X78.0826 Y166.4970 Z-0.125000 F800.000000
G01 X82.4457 Y163.3685 Z-0.125000 F800.000000
G01 X86.5028 Y160.1440 Z-0.125000 F800.000000
G01 X96.8069 Y151.5368 Z-0.125000 F800.000000
G01 X99.9042 Y149.1479 Z-0.125000 F800.000000
G01 X103.0351 Y146.9167 Z-0.125000 F800.000000
G01 X107.6346 Y143.9143 Z-0.125000 F800.000000
G01 X114.1434 Y139.9530 Z-0.125000 F800.000000
G01 X120.6747 Y136.1225 Z-0.125000 F800.000000
G01 X133.8650 Y128.6048 Z-0.125000 F800.000000
G01 X140.9392 Y124.2965 Z-0.125000 F800.000000
G01 X144.9876 Y121.5947 Z-0.125000 F800.000000
G01 X148.5195 Y119.0173 Z-0.125000 F800.000000
G01 X151.5932 Y116.5251 Z-0.125000 F800.000000
G01 X154.5268 Y113.8585 Z-0.125000 F800.000000
G01 X156.4703 Y111.9150 Z-0.125000 F800.000000
G01 X158.4960 Y109.7392 Z-0.125000 F800.000000
G01 X162.7263 Y104.7634 Z-0.125000 F800.000000
G01 X167.8170 Y98.1870 Z-0.125000 F800.000000
G01 X172.3366 Y91.8367 Z-0.125000 F800.000000
G01 X174.9625 Y87.8307 Z-0.125000 F800.000000
G01 X177.6830 Y83.4073 Z-0.125000 F800.000000
G01 X187.6277 Y66.3825 Z-0.125000 F800.000000
G01 X192.1352 Y58.8182 Z-0.125000 F800.000000
G01 X195.1517 Y54.0042 Z-0.125000 F800.000000
G01 X198.1326 Y49.5323 Z-0.125000 F800.000000
G00 Z6.0000

G4 P0.5
(Start Block)


G00 Z6.0000
G00 X10.5833 Y155.4481
(G4 P0.1)
G01 Z-0.125000 F800.000000

G01 X15.5926 Y157.7537 Z-0.125000 F800.000000
G01 X27.2024 Y163.4590 Z-0.125000 F800.000000
G01 X35.0225 Y166.9161 Z-0.125000 F800.000000
G01 X40.2619 Y169.0070 Z-0.125000 F800.000000
G01 X44.9372 Y170.6998 Z-0.125000 F800.000000
G01 X48.8506 Y171.9306 Z-0.125000 F800.000000
G01 X52.0970 Y172.7217 Z-0.125000 F800.000000
G01 X54.8799 Y173.1437 Z-0.125000 F800.000000
G01 X57.4867 Y173.2757 Z-0.125000 F800.000000
G01 X59.9800 Y173.1400 Z-0.125000 F800.000000
G01 X62.5920 Y172.7172 Z-0.125000 F800.000000
G01 X65.2433 Y172.0053 Z-0.125000 F800.000000
G01 X67.9691 Y171.0056 Z-0.125000 F800.000000
G01 X70.9576 Y169.6490 Z-0.125000 F800.000000
G01 X74.0116 Y168.0296 Z-0.125000 F800.000000
G01 X78.1574 Y165.4783 Z-0.125000 F800.000000
G01 X82.4351 Y162.4509 Z-0.125000 F800.000000
G01 X86.4205 Y159.3325 Z-0.125000 F800.000000
G01 X96.6758 Y150.9260 Z-0.125000 F800.000000
G01 X99.7799 Y148.5681 Z-0.125000 F800.000000
G01 X102.8324 Y146.4152 Z-0.125000 F800.000000
G01 X107.7786 Y143.2064 Z-0.125000 F800.000000
G01 X115.2320 Y138.6777 Z-0.125000 F800.000000
G01 X121.2910 Y135.1310 Z-0.125000 F800.000000
G01 X134.2932 Y127.7323 Z-0.125000 F800.000000
G01 X141.1805 Y123.5487 Z-0.125000 F800.000000
G01 X145.1264 Y120.9232 Z-0.125000 F800.000000
G01 X148.5767 Y118.4081 Z-0.125000 F800.000000
G01 X151.5696 Y115.9819 Z-0.125000 F800.000000
G01 X154.4248 Y113.3904 Z-0.125000 F800.000000
G01 X158.3435 Y109.3390 Z-0.125000 F800.000000
G01 X162.5785 Y104.3771 Z-0.125000 F800.000000
G01 X167.6086 Y97.8977 Z-0.125000 F800.000000
G01 X172.0971 Y91.6046 Z-0.125000 F800.000000
G01 X174.7249 Y87.6030 Z-0.125000 F800.000000
G01 X177.5015 Y83.0947 Z-0.125000 F800.000000
G01 X187.7210 Y65.6329 Z-0.125000 F800.000000
G01 X192.0174 Y58.4359 Z-0.125000 F800.000000
G01 X195.1486 Y53.4581 Z-0.125000 F800.000000
G01 X198.1930 Y48.9186 Z-0.125000 F800.000000
G00 Z6.0000

G4 P0.5
(Start Block)


G00 Z6.0000
G00 X10.5833 Y149.0981
(G4 P0.1)
G01 Z-0.125000 F800.000000

G01 X16.7508 Y151.9173 Z-0.125000 F800.000000
G01 X29.7569 Y158.6267 Z-0.125000 F800.000000
G01 X33.5019 Y160.4447 Z-0.125000 F800.000000
G01 X37.0685 Y162.0671 Z-0.125000 F800.000000
G01 X41.4249 Y163.8923 Z-0.125000 F800.000000
G01 X45.7042 Y165.5038 Z-0.125000 F800.000000
G01 X49.4174 Y166.7235 Z-0.125000 F800.000000
G01 X52.5620 Y167.5381 Z-0.125000 F800.000000
G01 X55.3142 Y168.0076 Z-0.125000 F800.000000
G01 X58.0334 Y168.2001 Z-0.125000 F800.000000
G01 X60.6406 Y168.1078 Z-0.125000 F800.000000
G01 X63.3537 Y167.7195 Z-0.125000 F800.000000
G01 X66.1073 Y167.0353 Z-0.125000 F800.000000
G01 X68.9367 Y166.0616 Z-0.125000 F800.000000
G01 X72.1274 Y164.6916 Z-0.125000 F800.000000
G01 X75.2864 Y163.0857 Z-0.125000 F800.000000
G01 X78.7884 Y161.0313 Z-0.125000 F800.000000
G01 X82.5286 Y158.5543 Z-0.125000 F800.000000
G01 X86.3127 Y155.8245 Z-0.125000 F800.000000
G01 X97.0347 Y147.7917 Z-0.125000 F800.000000
G01 X100.6297 Y145.2917 Z-0.125000 F800.000000
G01 X104.5640 Y142.7277 Z-0.125000 F800.000000
G01 X117.5776 Y134.7826 Z-0.125000 F800.000000
G01 X136.4741 Y124.0981 Z-0.125000 F800.000000
G01 X140.3519 Y121.8031 Z-0.125000 F800.000000
G01 X143.6418 Y119.7289 Z-0.125000 F800.000000
G01 X146.5111 Y117.7779 Z-0.125000 F800.000000
G01 X149.1334 Y115.8311 Z-0.125000 F800.000000
G01 X151.5572 Y113.8511 Z-0.125000 F800.000000
G01 X153.9399 Y111.7047 Z-0.125000 F800.000000
G01 X157.8806 Y107.6937 Z-0.125000 F800.000000
G01 X161.9968 Y102.9361 Z-0.125000 F800.000000
G01 X166.8480 Y96.7555 Z-0.125000 F800.000000
G01 X171.2102 Y90.6872 Z-0.125000 F800.000000
G01 X173.9002 Y86.6148 Z-0.125000 F800.000000
G01 X176.7926 Y81.9446 Z-0.125000 F800.000000
G01 X191.6213 Y56.9272 Z-0.125000 F800.000000
G01 X195.0491 Y51.5611 Z-0.125000 F800.000000
G01 X198.5177 Y46.5033 Z-0.125000 F800.000000
G00 Z6.0000

G4 P0.5
(Start Block)


G00 Z6.0000
G00 X10.5833 Y147.5106
(G4 P0.1)
G01 Z-0.125000 F800.000000

G01 X14.1589 Y149.0630 Z-0.125000 F800.000000
G01 X17.6220 Y150.6958 Z-0.125000 F800.000000
G01 X31.1047 Y157.6627 Z-0.125000 F800.000000
G01 X37.9328 Y160.8949 Z-0.125000 F800.000000
G01 X42.0943 Y162.6497 Z-0.125000 F800.000000
G01 X46.1783 Y164.1955 Z-0.125000 F800.000000
G01 X49.6953 Y165.3581 Z-0.125000 F800.000000
G01 X52.7411 Y166.1553 Z-0.125000 F800.000000
G01 X55.5211 Y166.6389 Z-0.125000 F800.000000
G01 X58.2400 Y166.8406 Z-0.125000 F800.000000
G01 X60.8474 Y166.7600 Z-0.125000 F800.000000
G01 X63.5329 Y166.3927 Z-0.125000 F800.000000
G01 X66.2881 Y165.7314 Z-0.125000 F800.000000
G01 X69.2174 Y164.7482 Z-0.125000 F800.000000
G01 X72.4113 Y163.4039 Z-0.125000 F800.000000
G01 X75.5740 Y161.8235 Z-0.125000 F800.000000
G01 X78.9867 Y159.8567 Z-0.125000 F800.000000
G01 X82.6315 Y157.4941 Z-0.125000 F800.000000
G01 X86.3452 Y154.8811 Z-0.125000 F800.000000
G01 X97.1862 Y146.9620 Z-0.125000 F800.000000
G01 X100.8946 Y144.4413 Z-0.125000 F800.000000
G01 X105.0237 Y141.7955 Z-0.125000 F800.000000
G01 X117.9487 Y133.9406 Z-0.125000 F800.000000
G01 X136.5696 Y123.4735 Z-0.125000 F800.000000
G01 X140.2611 Y121.3083 Z-0.125000 F800.000000
G01 X143.3668 Y119.3731 Z-0.125000 F800.000000
G01 X146.3642 Y117.3574 Z-0.125000 F800.000000
G01 X148.9892 Y115.4234 Z-0.125000 F800.000000
G01 X151.4154 Y113.4538 Z-0.125000 F800.000000
G01 X153.8006 Y111.3168 Z-0.125000 F800.000000
G01 X155.7542 Y109.4091 Z-0.125000 F800.000000
G01 X157.7684 Y107.2956 Z-0.125000 F800.000000
G01 X161.8879 Y102.5479 Z-0.125000 F800.000000
G01 X166.6768 Y96.4601 Z-0.125000 F800.000000
G01 X171.0069 Y90.4465 Z-0.125000 F800.000000
G01 X173.6984 Y86.3774 Z-0.125000 F800.000000
G01 X176.7011 Y81.5336 Z-0.125000 F800.000000
G01 X191.3781 Y56.8054 Z-0.125000 F800.000000
G01 X194.6380 Y51.6945 Z-0.125000 F800.000000
G01 X197.9867 Y46.7876 Z-0.125000 F800.000000
G00 Z6.0000

G4 P0.5
(Start Block)


G00 Z6.0000
G00 X10.5833 Y142.7481
(G4 P0.1)
G01 Z-0.125000 F800.000000

G01 X15.9170 Y144.9008 Z-0.125000 F800.000000
G01 X20.9317 Y147.1646 Z-0.125000 F800.000000
G01 X25.9198 Y149.6250 Z-0.125000 F800.000000
G01 X36.4404 Y155.0461 Z-0.125000 F800.000000
G01 X42.0193 Y157.6792 Z-0.125000 F800.000000
G01 X45.4066 Y159.1068 Z-0.125000 F800.000000
G01 X48.7126 Y160.3595 Z-0.125000 F800.000000
G01 X51.3514 Y161.2198 Z-0.125000 F800.000000
G01 X53.8081 Y161.8589 Z-0.125000 F800.000000
G01 X56.6302 Y162.3536 Z-0.125000 F800.000000
G01 X59.3491 Y162.5553 Z-0.125000 F800.000000
G01 X62.0699 Y162.4717 Z-0.125000 F800.000000
G01 X64.7981 Y162.1045 Z-0.125000 F800.000000
G01 X67.6529 Y161.4385 Z-0.125000 F800.000000
G01 X70.7807 Y160.4232 Z-0.125000 F800.000000
G01 X73.9800 Y159.1242 Z-0.125000 F800.000000
G01 X77.2454 Y157.5453 Z-0.125000 F800.000000
G01 X80.1954 Y155.9207 Z-0.125000 F800.000000
G01 X83.4036 Y153.9743 Z-0.125000 F800.000000
G01 X99.0089 Y143.5794 Z-0.125000 F800.000000
G01 X113.2408 Y134.8420 Z-0.125000 F800.000000
G01 X120.2484 Y130.7522 Z-0.125000 F800.000000
G01 X136.9043 Y121.5954 Z-0.125000 F800.000000
G01 X142.7734 Y118.1571 Z-0.125000 F800.000000
G01 X145.8025 Y116.1855 Z-0.125000 F800.000000
G01 X148.5189 Y114.2360 Z-0.125000 F800.000000
G01 X151.0335 Y112.2332 Z-0.125000 F800.000000
G01 X153.5043 Y110.0491 Z-0.125000 F800.000000
G01 X157.4045 Y106.1407 Z-0.125000 F800.000000
G01 X161.4676 Y101.5048 Z-0.125000 F800.000000
G01 X166.1366 Y95.6146 Z-0.125000 F800.000000
G01 X170.3765 Y89.7585 Z-0.125000 F800.000000
G01 X173.1281 Y85.6141 Z-0.125000 F800.000000
G01 X176.2465 Y80.6080 Z-0.125000 F800.000000
G01 X191.0691 Y55.7794 Z-0.125000 F800.000000
G01 X194.6229 Y50.2748 Z-0.125000 F800.000000
G01 X198.3357 Y44.9256 Z-0.125000 F800.000000
G00 Z6.0000

G4 P0.5
(Start Block)


G00 Z6.0000
G00 X10.5833 Y141.1606
(G4 P0.1)
G01 Z-0.125000 F800.000000

G01 X16.7015 Y143.5501 Z-0.125000 F800.000000
G01 X22.3980 Y146.0658 Z-0.125000 F800.000000
G01 X27.7747 Y148.6808 Z-0.125000 F800.000000
G01 X38.4887 Y154.1853 Z-0.125000 F800.000000
G01 X43.7808 Y156.6694 Z-0.125000 F800.000000
G01 X46.8783 Y157.9705 Z-0.125000 F800.000000
G01 X49.6985 Y159.0353 Z-0.125000 F800.000000
G01 X52.1428 Y159.8218 Z-0.125000 F800.000000
G01 X54.4036 Y160.4005 Z-0.125000 F800.000000
G01 X57.1979 Y160.8806 Z-0.125000 F800.000000
G01 X59.9171 Y161.0716 Z-0.125000 F800.000000
G01 X62.6378 Y160.9789 Z-0.125000 F800.000000
G01 X65.3941 Y160.6025 Z-0.125000 F800.000000
G01 X68.3472 Y159.9102 Z-0.125000 F800.000000
G01 X71.4754 Y158.8994 Z-0.125000 F800.000000
G01 X74.6758 Y157.6106 Z-0.125000 F800.000000
G01 X78.0391 Y155.9978 Z-0.125000 F800.000000
G01 X80.8964 Y154.4414 Z-0.125000 F800.000000
G01 X84.0152 Y152.5812 Z-0.125000 F800.000000
G01 X99.1047 Y142.7969 Z-0.125000 F800.000000
G01 X114.5784 Y133.4011 Z-0.125000 F800.000000
G01 X122.5474 Y128.8461 Z-0.125000 F800.000000
G01 X137.7868 Y120.5446 Z-0.125000 F800.000000
G01 X142.6158 Y117.7237 Z-0.125000 F800.000000
G01 X145.6793 Y115.7485 Z-0.125000 F800.000000
G01 X148.3982 Y113.8110 Z-0.125000 F800.000000
G01 X150.9953 Y111.7502 Z-0.125000 F800.000000
G01 X153.4668 Y109.5688 Z-0.125000 F800.000000
G01 X157.3144 Y105.7207 Z-0.125000 F800.000000
G01 X161.3798 Y101.0919 Z-0.125000 F800.000000
G01 X165.9854 Y95.2914 Z-0.125000 F800.000000
G01 X170.1922 Y89.4875 Z-0.125000 F800.000000
G01 X172.9447 Y85.3452 Z-0.125000 F800.000000
G01 X176.1741 Y80.1671 Z-0.125000 F800.000000
G01 X188.0275 Y60.2535 Z-0.125000 F800.000000
G01 X190.9559 Y55.4553 Z-0.125000 F800.000000
G01 X194.6269 Y49.7926 Z-0.125000 F800.000000
G01 X198.4619 Y44.2981 Z-0.125000 F800.000000
G00 Z6.0000

G4 P0.5
(Start Block)


G00 Z6.0000
G00 X10.5833 Y139.5731
(G4 P0.1)
G01 Z-0.125000 F800.000000

G01 X17.6829 Y142.2483 Z-0.125000 F800.000000
G01 X24.2559 Y145.0875 Z-0.125000 F800.000000
G01 X29.6359 Y147.6782 Z-0.125000 F800.000000
G01 X40.4452 Y153.2348 Z-0.125000 F800.000000
G01 X45.7389 Y155.7064 Z-0.125000 F800.000000
G01 X48.4501 Y156.8380 Z-0.125000 F800.000000
G01 X50.7852 Y157.7077 Z-0.125000 F800.000000
G01 X52.9372 Y158.3894 Z-0.125000 F800.000000
G01 X55.0018 Y158.9123 Z-0.125000 F800.000000
G01 X57.7681 Y159.3832 Z-0.125000 F800.000000
G01 X60.4874 Y159.5683 Z-0.125000 F800.000000
G01 X63.2081 Y159.4714 Z-0.125000 F800.000000
G01 X65.9926 Y159.0905 Z-0.125000 F800.000000
G01 X68.9461 Y158.4048 Z-0.125000 F800.000000
G01 X72.1734 Y157.3764 Z-0.125000 F800.000000
G01 X75.3755 Y156.1017 Z-0.125000 F800.000000
G01 X78.7412 Y154.5068 Z-0.125000 F800.000000
G01 X81.6016 Y152.9701 Z-0.125000 F800.000000
G01 X84.7255 Y151.1400 Z-0.125000 F800.000000
G01 X99.2008 Y142.0085 Z-0.125000 F800.000000
G01 X115.5403 Y132.1930 Z-0.125000 F800.000000
G01 X123.4230 Y127.7442 Z-0.125000 F800.000000
G01 X137.7198 Y120.0255 Z-0.125000 F800.000000
G01 X142.3644 Y117.3444 Z-0.125000 F800.000000
G01 X145.4631 Y115.3710 Z-0.125000 F800.000000
G01 X148.1958 Y113.4435 Z-0.125000 F800.000000
G01 X150.7965 Y111.3985 Z-0.125000 F800.000000
G01 X153.3507 Y109.1585 Z-0.125000 F800.000000
G01 X157.2244 Y105.2970 Z-0.125000 F800.000000
G01 X161.2253 Y100.7552 Z-0.125000 F800.000000
G01 X165.7692 Y95.0489 Z-0.125000 F800.000000
G01 X169.9506 Y89.2944 Z-0.125000 F800.000000
G01 X172.7611 Y85.0716 Z-0.125000 F800.000000
G01 X175.9934 Y79.8997 Z-0.125000 F800.000000
G01 X187.9656 Y59.8300 Z-0.125000 F800.000000
G01 X190.8983 Y55.0409 Z-0.125000 F800.000000
G01 X194.6321 Y49.3085 Z-0.125000 F800.000000
G01 X198.5895 Y43.6694 Z-0.125000 F800.000000
G00 Z6.0000

G4 P0.5
(Start Block)


G00 Z6.0000
G00 X10.5833 Y137.9856
(G4 P0.1)
G01 Z-0.125000 F800.000000

G01 X18.5706 Y140.8740 Z-0.125000 F800.000000
G01 X22.2554 Y142.3639 Z-0.125000 F800.000000
G01 X25.9273 Y143.9612 Z-0.125000 F800.000000
G01 X31.4056 Y146.5818 Z-0.125000 F800.000000
G01 X42.4026 Y152.2605 Z-0.125000 F800.000000
G01 X47.6976 Y154.7224 Z-0.125000 F800.000000
G01 X51.8736 Y156.3496 Z-0.125000 F800.000000
G01 X53.7330 Y156.9295 Z-0.125000 F800.000000
G01 X55.6011 Y157.4006 Z-0.125000 F800.000000
G01 X58.3392 Y157.8673 Z-0.125000 F800.000000
G01 X61.0585 Y158.0516 Z-0.125000 F800.000000
G01 X63.7791 Y157.9553 Z-0.125000 F800.000000
G01 X66.5921 Y157.5748 Z-0.125000 F800.000000
G01 X69.6446 Y156.8739 Z-0.125000 F800.000000
G01 X72.7757 Y155.8936 Z-0.125000 F800.000000
G01 X75.9801 Y154.6405 Z-0.125000 F800.000000
G01 X79.3492 Y153.0705 Z-0.125000 F800.000000
G01 X82.3088 Y151.5075 Z-0.125000 F800.000000
G01 X85.6274 Y149.5988 Z-0.125000 F800.000000
G01 X99.2003 Y141.2704 Z-0.125000 F800.000000
G01 X116.5020 Y130.9902 Z-0.125000 F800.000000
G01 X124.2977 Y126.6446 Z-0.125000 F800.000000
G01 X137.6510 Y119.5030 Z-0.125000 F800.000000
G01 X142.1106 Y116.9591 Z-0.125000 F800.000000
G01 X145.2134 Y115.0085 Z-0.125000 F800.000000
G01 X148.0732 Y113.0103 Z-0.125000 F800.000000
G01 X150.6762 Y110.9751 Z-0.125000 F800.000000
G01 X153.2326 Y108.7440 Z-0.125000 F800.000000
G01 X157.0635 Y104.9426 Z-0.125000 F800.000000
G01 X161.0687 Y100.4140 Z-0.125000 F800.000000
G01 X165.6157 Y94.7165 Z-0.125000 F800.000000
G01 X169.7638 Y89.0138 Z-0.125000 F800.000000
G01 X172.5752 Y84.7932 Z-0.125000 F800.000000
G01 X175.9736 Y79.3620 Z-0.125000 F800.000000
G01 X190.6197 Y54.9735 Z-0.125000 F800.000000
G01 X194.2401 Y49.4079 Z-0.125000 F800.000000
G01 X198.0771 Y43.9179 Z-0.125000 F800.000000
G00 Z6.0000

G4 P0.5
(Start Block)


G00 Z6.0000
G00 X10.5833 Y131.6356
(G4 P0.1)
G01 Z-0.125000 F800.000000

G01 X16.1732 Y133.2381 Z-0.125000 F800.000000
G01 X21.1640 Y134.7963 Z-0.125000 F800.000000
G01 X25.7504 Y136.3705 Z-0.125000 F800.000000
G01 X29.4425 Y137.7955 Z-0.125000 F800.000000
G01 X32.6302 Y139.1910 Z-0.125000 F800.000000
G01 X35.7973 Y140.7404 Z-0.125000 F800.000000
G01 X46.3676 Y146.5114 Z-0.125000 F800.000000
G01 X50.4851 Y148.5952 Z-0.125000 F800.000000
G01 X52.6099 Y149.5285 Z-0.125000 F800.000000
G01 X54.6520 Y150.2995 Z-0.125000 F800.000000
G01 X56.6096 Y150.9057 Z-0.125000 F800.000000
G01 X58.4793 Y151.3534 Z-0.125000 F800.000000
G01 X61.1773 Y151.7639 Z-0.125000 F800.000000
G01 X64.0109 Y151.8953 Z-0.125000 F800.000000
G01 X66.8441 Y151.7358 Z-0.125000 F800.000000
G01 X69.8673 Y151.2802 Z-0.125000 F800.000000
G01 X73.0173 Y150.5412 Z-0.125000 F800.000000
G01 X76.2461 Y149.5291 Z-0.125000 F800.000000
G01 X79.6461 Y148.2119 Z-0.125000 F800.000000
G01 X83.4065 Y146.5096 Z-0.125000 F800.000000
G01 X88.9586 Y143.6850 Z-0.125000 F800.000000
G01 X97.4367 Y139.0757 Z-0.125000 F800.000000
G01 X104.0901 Y135.3563 Z-0.125000 F800.000000
G01 X115.4705 Y128.8242 Z-0.125000 F800.000000
G01 X120.7975 Y125.8762 Z-0.125000 F800.000000
G01 X127.0010 Y122.5846 Z-0.125000 F800.000000
G01 X137.3338 Y117.2859 Z-0.125000 F800.000000
G01 X141.3339 Y115.1059 Z-0.125000 F800.000000
G01 X144.6382 Y113.1129 Z-0.125000 F800.000000
G01 X147.5393 Y111.1456 Z-0.125000 F800.000000
G01 X150.3131 Y109.0201 Z-0.125000 F800.000000
G01 X152.9545 Y106.7401 Z-0.125000 F800.000000
G01 X156.6525 Y103.1029 Z-0.125000 F800.000000
G01 X160.5323 Y98.7601 Z-0.125000 F800.000000
G01 X164.8270 Y93.4246 Z-0.125000 F800.000000
G01 X168.7991 Y88.0025 Z-0.125000 F800.000000
G01 X171.8415 Y83.4585 Z-0.125000 F800.000000
G01 X175.6369 Y77.4431 Z-0.125000 F800.000000
G01 X187.2921 Y58.1267 Z-0.125000 F800.000000
G01 X190.1877 Y53.4634 Z-0.125000 F800.000000
G01 X194.2279 Y47.3669 Z-0.125000 F800.000000
G01 X198.5559 Y41.3026 Z-0.125000 F800.000000
G00 Z6.0000

G4 P0.5
(Start Block)


G00 Z6.0000
G00 X10.5833 Y128.4606
(G4 P0.1)
G01 Z-0.125000 F800.000000

G01 X16.7740 Y130.0752 Z-0.125000 F800.000000
G01 X22.1673 Y131.6264 Z-0.125000 F800.000000
G01 X26.8606 Y133.1351 Z-0.125000 F800.000000
G01 X30.7528 Y134.5823 Z-0.125000 F800.000000
G01 X34.0392 Y136.0024 Z-0.125000 F800.000000
G01 X37.3968 Y137.6561 Z-0.125000 F800.000000
G01 X40.5409 Y139.3620 Z-0.125000 F800.000000
G01 X48.1341 Y143.6782 Z-0.125000 F800.000000
G01 X51.8643 Y145.5976 Z-0.125000 F800.000000
G01 X53.8918 Y146.4933 Z-0.125000 F800.000000
G01 X55.9343 Y147.2608 Z-0.125000 F800.000000
G01 X57.8928 Y147.8554 Z-0.125000 F800.000000
G01 X59.8624 Y148.3059 Z-0.125000 F800.000000
G01 X62.6469 Y148.6860 Z-0.125000 F800.000000
G01 X65.5944 Y148.7702 Z-0.125000 F800.000000
G01 X68.6532 Y148.5421 Z-0.125000 F800.000000
G01 X71.8438 Y148.0148 Z-0.125000 F800.000000
G01 X75.0898 Y147.2163 Z-0.125000 F800.000000
G01 X78.5118 Y146.1147 Z-0.125000 F800.000000
G01 X82.2022 Y144.6758 Z-0.125000 F800.000000
G01 X86.3521 Y142.8275 Z-0.125000 F800.000000
G01 X91.7286 Y140.2114 Z-0.125000 F800.000000
G01 X98.1368 Y136.9109 Z-0.125000 F800.000000
G01 X103.8555 Y133.8237 Z-0.125000 F800.000000
G01 X115.3514 Y127.3637 Z-0.125000 F800.000000
G01 X120.8750 Y124.3506 Z-0.125000 F800.000000
G01 X127.1815 Y121.0588 Z-0.125000 F800.000000
G01 X137.3378 Y115.9600 Z-0.125000 F800.000000
G01 X141.0577 Y113.9712 Z-0.125000 F800.000000
G01 X144.3674 Y112.0099 Z-0.125000 F800.000000
G01 X147.3245 Y110.0292 Z-0.125000 F800.000000
G01 X150.1824 Y107.8530 Z-0.125000 F800.000000
G01 X152.9043 Y105.5052 Z-0.125000 F800.000000
G01 X156.5548 Y101.9119 Z-0.125000 F800.000000
G01 X160.3001 Y97.7266 Z-0.125000 F800.000000
G01 X164.4003 Y92.6476 Z-0.125000 F800.000000
G01 X168.2484 Y87.4111 Z-0.125000 F800.000000
G01 X171.4692 Y82.6148 Z-0.125000 F800.000000
G01 X175.5488 Y76.1839 Z-0.125000 F800.000000
G01 X180.3368 Y68.3979 Z-0.125000 F800.000000
G01 X186.9628 Y57.3750 Z-0.125000 F800.000000
G01 X189.7564 Y52.9034 Z-0.125000 F800.000000
G01 X193.7472 Y46.9072 Z-0.125000 F800.000000
G01 X198.1352 Y40.7674 Z-0.125000 F800.000000
G00 Z6.0000

G4 P0.5
(Start Block)


G00 Z6.0000
G00 X10.5833 Y120.5230
(G4 P0.1)
G01 Z-0.125000 F800.000000

G01 X17.8751 Y122.1260 Z-0.125000 F800.000000
G01 X23.6788 Y123.5525 Z-0.125000 F800.000000
G01 X28.2889 Y124.8631 Z-0.125000 F800.000000
G01 X32.1925 Y126.1981 Z-0.125000 F800.000000
G01 X35.8749 Y127.7073 Z-0.125000 F800.000000
G01 X39.6228 Y129.5028 Z-0.125000 F800.000000
G01 X43.2461 Y131.4481 Z-0.125000 F800.000000
G01 X50.7443 Y135.7112 Z-0.125000 F800.000000
G01 X54.4795 Y137.5953 Z-0.125000 F800.000000
G01 X56.6088 Y138.4914 Z-0.125000 F800.000000
G01 X58.7549 Y139.2343 Z-0.125000 F800.000000
G01 X60.8173 Y139.7853 Z-0.125000 F800.000000
G01 X62.9327 Y140.1819 Z-0.125000 F800.000000
G01 X66.1035 Y140.4690 Z-0.125000 F800.000000
G01 X69.3914 Y140.4199 Z-0.125000 F800.000000
G01 X72.9998 Y140.0405 Z-0.125000 F800.000000
G01 X76.8498 Y139.3193 Z-0.125000 F800.000000
G01 X80.8784 Y138.2681 Z-0.125000 F800.000000
G01 X85.3752 Y136.8131 Z-0.125000 F800.000000
G01 X90.2385 Y134.9858 Z-0.125000 F800.000000
G01 X95.2709 Y132.8634 Z-0.125000 F800.000000
G01 X99.5088 Y130.9072 Z-0.125000 F800.000000
G01 X104.1126 Y128.6313 Z-0.125000 F800.000000
G01 X123.5089 Y118.5005 Z-0.125000 F800.000000
G01 X136.5765 Y112.2213 Z-0.125000 F800.000000
G01 X140.6901 Y110.1100 Z-0.125000 F800.000000
G01 X144.0056 Y108.1831 Z-0.125000 F800.000000
G01 X147.0577 Y106.1486 Z-0.125000 F800.000000
G01 X149.9944 Y103.8973 Z-0.125000 F800.000000
G01 X152.7896 Y101.4538 Z-0.125000 F800.000000
G01 X156.1375 Y98.1299 Z-0.125000 F800.000000
G01 X159.5426 Y94.3258 Z-0.125000 F800.000000
G01 X163.0508 Y89.9931 Z-0.125000 F800.000000
G01 X166.4557 Y85.3820 Z-0.125000 F800.000000
G01 X170.3340 Y79.6840 Z-0.125000 F800.000000
G01 X175.6228 Y71.5430 Z-0.125000 F800.000000
G01 X179.5785 Y65.2556 Z-0.125000 F800.000000
G01 X185.7145 Y55.2319 Z-0.125000 F800.000000
G01 X188.7018 Y50.5621 Z-0.125000 F800.000000
G01 X193.1462 Y44.0507 Z-0.125000 F800.000000
G01 X198.0702 Y37.2929 Z-0.125000 F800.000000
G00 Z6.0000

G4 P0.5
(Start Block)


G00 Z6.0000
G00 X10.5833 Y114.1730
(G4 P0.1)
G01 Z-0.125000 F800.000000

G01 X18.2753 Y115.7644 Z-0.125000 F800.000000
G01 X23.8882 Y117.0559 Z-0.125000 F800.000000
G01 X28.4061 Y118.2635 Z-0.125000 F800.000000
G01 X32.3164 Y119.5288 Z-0.125000 F800.000000
G01 X36.0070 Y120.9662 Z-0.125000 F800.000000
G01 X39.8616 Y122.7288 Z-0.125000 F800.000000
G01 X43.4967 Y124.5967 Z-0.125000 F800.000000
G01 X51.3066 Y128.8525 Z-0.125000 F800.000000
G01 X55.2454 Y130.7482 Z-0.125000 F800.000000
G01 X57.5742 Y131.6753 Z-0.125000 F800.000000
G01 X59.8225 Y132.4028 Z-0.125000 F800.000000
G01 X61.9864 Y132.9371 Z-0.125000 F800.000000
G01 X64.2589 Y133.3225 Z-0.125000 F800.000000
G01 X67.7707 Y133.5882 Z-0.125000 F800.000000
G01 X71.6254 Y133.4986 Z-0.125000 F800.000000
G01 X75.7007 Y133.0655 Z-0.125000 F800.000000
G01 X79.9048 Y132.3076 Z-0.125000 F800.000000
G01 X84.5281 Y131.1722 Z-0.125000 F800.000000
G01 X89.4244 Y129.6845 Z-0.125000 F800.000000
G01 X94.3942 Y127.9088 Z-0.125000 F800.000000
G01 X99.5310 Y125.8095 Z-0.125000 F800.000000
G01 X106.4665 Y122.6145 Z-0.125000 F800.000000
G01 X122.6635 Y114.5169 Z-0.125000 F800.000000
G01 X135.4598 Y108.5004 Z-0.125000 F800.000000
G01 X139.7696 Y106.3243 Z-0.125000 F800.000000
G01 X143.1817 Y104.3536 Z-0.125000 F800.000000
G01 X146.2749 Y102.2895 Z-0.125000 F800.000000
G01 X149.2906 Y99.9639 Z-0.125000 F800.000000
G01 X152.1607 Y97.4307 Z-0.125000 F800.000000
G01 X155.1705 Y94.4278 Z-0.125000 F800.000000
G01 X158.2366 Y91.0084 Z-0.125000 F800.000000
G01 X161.2179 Y87.3371 Z-0.125000 F800.000000
G01 X164.3726 Y83.0915 Z-0.125000 F800.000000
G01 X169.1693 Y76.2187 Z-0.125000 F800.000000
G01 X174.7629 Y67.9243 Z-0.125000 F800.000000
G01 X177.9895 Y62.9487 Z-0.125000 F800.000000
G01 X184.3638 Y52.8219 Z-0.125000 F800.000000
G01 X187.8941 Y47.4758 Z-0.125000 F800.000000
G01 X193.7956 Y39.1098 Z-0.125000 F800.000000
G01 X198.5245 Y32.8607 Z-0.125000 F800.000000
G00 Z6.0000

G4 P0.5
(Start Block)


G00 Z6.0000
G00 X10.5833 Y109.4105
(G4 P0.1)
G01 Z-0.125000 F800.000000

G01 X18.3748 Y111.0063 Z-0.125000 F800.000000
G01 X23.9891 Y112.2782 Z-0.125000 F800.000000
G01 X28.4103 Y113.4397 Z-0.125000 F800.000000
G01 X32.3227 Y114.6815 Z-0.125000 F800.000000
G01 X36.0164 Y116.0916 Z-0.125000 F800.000000
G01 X39.8755 Y117.8193 Z-0.125000 F800.000000
G01 X43.6117 Y119.6989 Z-0.125000 F800.000000
G01 X51.5303 Y123.9195 Z-0.125000 F800.000000
G01 X55.5712 Y125.8178 Z-0.125000 F800.000000
G01 X57.9023 Y126.7243 Z-0.125000 F800.000000
G01 X60.2499 Y127.4673 Z-0.125000 F800.000000
G01 X62.5130 Y128.0125 Z-0.125000 F800.000000
G01 X64.8565 Y128.4019 Z-0.125000 F800.000000
G01 X68.5949 Y128.6879 Z-0.125000 F800.000000
G01 X72.6766 Y128.6271 Z-0.125000 F800.000000
G01 X76.9800 Y128.2289 Z-0.125000 F800.000000
G01 X81.5265 Y127.4872 Z-0.125000 F800.000000
G01 X86.3525 Y126.3928 Z-0.125000 F800.000000
G01 X91.2563 Y124.9936 Z-0.125000 F800.000000
G01 X96.2335 Y123.2915 Z-0.125000 F800.000000
G01 X101.3771 Y121.2515 Z-0.125000 F800.000000
G01 X109.0910 Y117.7618 Z-0.125000 F800.000000
G01 X123.6787 Y110.6183 Z-0.125000 F800.000000
G01 X134.9383 Y105.3457 Z-0.125000 F800.000000
G01 X138.5761 Y103.4966 Z-0.125000 F800.000000
G01 X141.9887 Y101.5297 Z-0.125000 F800.000000
G01 X145.1452 Y99.4288 Z-0.125000 F800.000000
G01 X148.1621 Y97.1085 Z-0.125000 F800.000000
G01 X151.1125 Y94.5077 Z-0.125000 F800.000000
G01 X153.9521 Y91.6783 Z-0.125000 F800.000000
G01 X156.7485 Y88.5721 Z-0.125000 F800.000000
G01 X159.4687 Y85.2379 Z-0.125000 F800.000000
G01 X162.6366 Y81.0264 Z-0.125000 F800.000000
G01 X168.8675 Y72.3342 Z-0.125000 F800.000000
G01 X173.5929 Y65.5532 Z-0.125000 F800.000000
G01 X176.6300 Y60.9966 Z-0.125000 F800.000000
G01 X183.4121 Y50.5196 Z-0.125000 F800.000000
G01 X187.5210 Y44.4754 Z-0.125000 F800.000000
G01 X193.5029 Y36.1517 Z-0.125000 F800.000000
G01 X198.1465 Y30.1928 Z-0.125000 F800.000000
G00 Z6.0000

G4 P0.5
(Start Block)


G00 Z6.0000
G00 X10.5833 Y99.8855
(G4 P0.1)
G01 Z-0.125000 F800.000000

G01 X16.3979 Y101.1497 Z-0.125000 F800.000000
G01 X22.7902 Y102.7444 Z-0.125000 F800.000000
G01 X28.3834 Y104.3066 Z-0.125000 F800.000000
G01 X32.8796 Y105.7680 Z-0.125000 F800.000000
G01 X36.5727 Y107.1839 Z-0.125000 F800.000000
G01 X40.1440 Y108.7695 Z-0.125000 F800.000000
G01 X43.5960 Y110.4819 Z-0.125000 F800.000000
G01 X51.6206 Y114.6840 Z-0.125000 F800.000000
G01 X55.8574 Y116.6465 Z-0.125000 F800.000000
G01 X58.2862 Y117.5853 Z-0.125000 F800.000000
G01 X60.7312 Y118.3648 Z-0.125000 F800.000000
G01 X63.0914 Y118.9524 Z-0.125000 F800.000000
G01 X65.5602 Y119.3983 Z-0.125000 F800.000000
G01 X69.5937 Y119.8003 Z-0.125000 F800.000000
G01 X74.1290 Y119.8810 Z-0.125000 F800.000000
G01 X78.6624 Y119.6266 Z-0.125000 F800.000000
G01 X83.3009 Y119.0483 Z-0.125000 F800.000000
G01 X88.0388 Y118.1503 Z-0.125000 F800.000000
G01 X92.8563 Y116.9315 Z-0.125000 F800.000000
G01 X97.6497 Y115.4177 Z-0.125000 F800.000000
G01 X102.6105 Y113.5571 Z-0.125000 F800.000000
G01 X108.9895 Y110.7964 Z-0.125000 F800.000000
G01 X120.2433 Y105.4802 Z-0.125000 F800.000000
G01 X131.0488 Y100.6380 Z-0.125000 F800.000000
G01 X135.1725 Y98.5973 Z-0.125000 F800.000000
G01 X138.6827 Y96.5919 Z-0.125000 F800.000000
G01 X142.0484 Y94.3613 Z-0.125000 F800.000000
G01 X145.1493 Y91.9896 Z-0.125000 F800.000000
G01 X148.1824 Y89.3302 Z-0.125000 F800.000000
G01 X150.8156 Y86.7228 Z-0.125000 F800.000000
G01 X153.4131 Y83.8616 Z-0.125000 F800.000000
G01 X156.1460 Y80.5638 Z-0.125000 F800.000000
G01 X159.6117 Y76.1126 Z-0.125000 F800.000000
G01 X167.2184 Y66.1677 Z-0.125000 F800.000000
G01 X170.9487 Y61.1317 Z-0.125000 F800.000000
G01 X174.1157 Y56.6448 Z-0.125000 F800.000000
G01 X182.3723 Y44.6261 Z-0.125000 F800.000000
G01 X188.9896 Y35.4144 Z-0.125000 F800.000000
G01 X193.5577 Y29.5117 Z-0.125000 F800.000000
G01 X197.9373 Y24.4227 Z-0.125000 F800.000000
G00 Z6.0000

G4 P0.5
(Start Block)


G00 Z6.0000
G00 X10.5833 Y98.2980
(G4 P0.1)
G01 Z-0.125000 F800.000000

G01 X16.0024 Y99.4969 Z-0.125000 F800.000000
G01 X22.0963 Y101.0632 Z-0.125000 F800.000000
G01 X28.2748 Y102.8330 Z-0.125000 F800.000000
G01 X33.1605 Y104.4375 Z-0.125000 F800.000000
G01 X36.8536 Y105.8532 Z-0.125000 F800.000000
G01 X40.5225 Y107.4737 Z-0.125000 F800.000000
G01 X43.8795 Y109.1321 Z-0.125000 F800.000000
G01 X51.7139 Y113.2284 Z-0.125000 F800.000000
G01 X55.9517 Y115.1838 Z-0.125000 F800.000000
G01 X58.3808 Y116.1193 Z-0.125000 F800.000000
G01 X60.7278 Y116.8696 Z-0.125000 F800.000000
G01 X63.0875 Y117.4652 Z-0.125000 F800.000000
G01 X65.5557 Y117.9224 Z-0.125000 F800.000000
G01 X69.5885 Y118.3490 Z-0.125000 F800.000000
G01 X74.1235 Y118.4634 Z-0.125000 F800.000000
G01 X78.6575 Y118.2453 Z-0.125000 F800.000000
G01 X83.3962 Y117.6877 Z-0.125000 F800.000000
G01 X88.1354 Y116.8151 Z-0.125000 F800.000000
G01 X92.8562 Y115.6437 Z-0.125000 F800.000000
G01 X97.5538 Y114.1830 Z-0.125000 F800.000000
G01 X102.5166 Y112.3411 Z-0.125000 F800.000000
G01 X107.3542 Y110.2897 Z-0.125000 F800.000000
G01 X119.1999 Y104.8114 Z-0.125000 F800.000000
G01 X129.7280 Y100.1934 Z-0.125000 F800.000000
G01 X134.5291 Y97.8642 Z-0.125000 F800.000000
G01 X138.0409 Y95.8692 Z-0.125000 F800.000000
G01 X141.3975 Y93.6520 Z-0.125000 F800.000000
G01 X144.5004 Y91.2896 Z-0.125000 F800.000000
G01 X147.5365 Y88.6419 Z-0.125000 F800.000000
G01 X150.0957 Y86.1255 Z-0.125000 F800.000000
G01 X152.6985 Y83.2813 Z-0.125000 F800.000000
G01 X155.3714 Y80.0832 Z-0.125000 F800.000000
G01 X158.7163 Y75.8269 Z-0.125000 F800.000000
G01 X166.7398 Y65.4436 Z-0.125000 F800.000000
G01 X170.4825 Y60.4396 Z-0.125000 F800.000000
G01 X173.7007 Y55.9228 Z-0.125000 F800.000000
G01 X182.2592 Y43.5759 Z-0.125000 F800.000000
G01 X188.8283 Y34.4915 Z-0.125000 F800.000000
G01 X193.5487 Y28.4796 Z-0.125000 F800.000000
G01 X195.7664 Y25.8778 Z-0.125000 F800.000000
G01 X198.0209 Y23.3887 Z-0.125000 F800.000000
G00 Z6.0000

G4 P0.5
(Start Block)


G00 Z6.0000
G00 X10.5833 Y91.9480
(G4 P0.1)
G01 Z-0.125000 F800.000000

G01 X15.2067 Y93.0821 Z-0.125000 F800.000000
G01 X20.3031 Y94.5818 Z-0.125000 F800.000000
G01 X29.7800 Y97.7127 Z-0.125000 F800.000000
G01 X36.7030 Y100.1437 Z-0.125000 F800.000000
G01 X42.8137 Y102.5973 Z-0.125000 F800.000000
G01 X46.1873 Y104.1346 Z-0.125000 F800.000000
G01 X54.1621 Y107.9686 Z-0.125000 F800.000000
G01 X56.7742 Y109.0774 Z-0.125000 F800.000000
G01 X59.2084 Y109.9662 Z-0.125000 F800.000000
G01 X62.0505 Y110.8027 Z-0.125000 F800.000000
G01 X65.0071 Y111.4420 Z-0.125000 F800.000000
G01 X68.0455 Y111.8760 Z-0.125000 F800.000000
G01 X71.3308 Y112.1385 Z-0.125000 F800.000000
G01 X73.9384 Y112.2214 Z-0.125000 F800.000000
G01 X76.5464 Y112.1964 Z-0.125000 F800.000000
G01 X79.1534 Y112.0655 Z-0.125000 F800.000000
G01 X81.7584 Y111.8313 Z-0.125000 F800.000000
G01 X84.4308 Y111.4859 Z-0.125000 F800.000000
G01 X87.0989 Y111.0365 Z-0.125000 F800.000000
G01 X89.7614 Y110.4849 Z-0.125000 F800.000000
G01 X92.5156 Y109.8067 Z-0.125000 F800.000000
G01 X96.5340 Y108.6270 Z-0.125000 F800.000000
G01 X100.8268 Y107.1455 Z-0.125000 F800.000000
G01 X113.9354 Y102.0080 Z-0.125000 F800.000000
G01 X124.9282 Y97.8928 Z-0.125000 F800.000000
G01 X128.7083 Y96.3494 Z-0.125000 F800.000000
G01 X131.8852 Y94.8715 Z-0.125000 F800.000000
G01 X134.7458 Y93.3368 Z-0.125000 F800.000000
G01 X137.5710 Y91.5885 Z-0.125000 F800.000000
G01 X140.4768 Y89.5267 Z-0.125000 F800.000000
G01 X143.3120 Y87.2493 Z-0.125000 F800.000000
G01 X146.0106 Y84.8099 Z-0.125000 F800.000000
G01 X148.6374 Y82.1456 Z-0.125000 F800.000000
G01 X150.8850 Y79.6352 Z-0.125000 F800.000000
G01 X153.4219 Y76.5899 Z-0.125000 F800.000000
G01 X167.4444 Y58.9595 Z-0.125000 F800.000000
G01 X171.7621 Y53.1644 Z-0.125000 F800.000000
G01 X183.4027 Y36.9461 Z-0.125000 F800.000000
G01 X188.1328 Y30.6999 Z-0.125000 F800.000000
G01 X190.7191 Y27.5245 Z-0.125000 F800.000000
G01 X193.2851 Y24.5656 Z-0.125000 F800.000000
G01 X195.9201 Y21.7258 Z-0.125000 F800.000000
G01 X198.4840 Y19.1554 Z-0.125000 F800.000000
G00 Z6.0000

G4 P0.5
(Start Block)


G00 Z6.0000
G00 X10.5833 Y87.1855
(G4 P0.1)
G01 Z-0.125000 F800.000000

G01 X14.6088 Y88.2790 Z-0.125000 F800.000000
G01 X18.8143 Y89.6192 Z-0.125000 F800.000000
G01 X31.0874 Y94.0589 Z-0.125000 F800.000000
G01 X41.7196 Y97.7539 Z-0.125000 F800.000000
G01 X47.0683 Y99.7727 Z-0.125000 F800.000000
G01 X55.9818 Y103.4451 Z-0.125000 F800.000000
G01 X59.6836 Y104.7790 Z-0.125000 F800.000000
G01 X62.6247 Y105.6317 Z-0.125000 F800.000000
G01 X65.4822 Y106.2591 Z-0.125000 F800.000000
G01 X68.4630 Y106.7119 Z-0.125000 F800.000000
G01 X71.6340 Y107.0041 Z-0.125000 F800.000000
G01 X76.3957 Y107.1317 Z-0.125000 F800.000000
G01 X81.2696 Y106.8907 Z-0.125000 F800.000000
G01 X86.1912 Y106.2861 Z-0.125000 F800.000000
G01 X91.2242 Y105.3134 Z-0.125000 F800.000000
G01 X94.8627 Y104.4032 Z-0.125000 F800.000000
G01 X98.7839 Y103.2604 Z-0.125000 F800.000000
G01 X110.1258 Y99.6095 Z-0.125000 F800.000000
G01 X121.1914 Y96.2422 Z-0.125000 F800.000000
G01 X125.7778 Y94.6691 Z-0.125000 F800.000000
G01 X128.7839 Y93.4554 Z-0.125000 F800.000000
G01 X131.5734 Y92.1395 Z-0.125000 F800.000000
G01 X134.2378 Y90.6718 Z-0.125000 F800.000000
G01 X136.8250 Y89.0230 Z-0.125000 F800.000000
G01 X139.4547 Y87.1113 Z-0.125000 F800.000000
G01 X142.1206 Y84.9324 Z-0.125000 F800.000000
G01 X144.5753 Y82.6864 Z-0.125000 F800.000000
G01 X147.0055 Y80.2085 Z-0.125000 F800.000000
G01 X149.0498 Y77.9294 Z-0.125000 F800.000000
G01 X151.3247 Y75.2191 Z-0.125000 F800.000000
G01 X166.5252 Y56.3461 Z-0.125000 F800.000000
G01 X170.9955 Y50.4398 Z-0.125000 F800.000000
G01 X182.0047 Y35.3686 Z-0.125000 F800.000000
G01 X186.6370 Y29.3782 Z-0.125000 F800.000000
G01 X189.5117 Y25.9441 Z-0.125000 F800.000000
G01 X192.3755 Y22.7588 Z-0.125000 F800.000000
G01 X195.2849 Y19.7549 Z-0.125000 F800.000000
G01 X198.1907 Y16.9838 Z-0.125000 F800.000000
G00 Z6.0000

G4 P0.5
(Start Block)


G00 Z6.0000
G00 X10.5833 Y79.2480
(G4 P0.1)
G01 Z-0.125000 F800.000000

G01 X14.7834 Y80.6466 Z-0.125000 F800.000000
G01 X18.4853 Y81.9810 Z-0.125000 F800.000000
G01 X31.3830 Y87.1880 Z-0.125000 F800.000000
G01 X37.5229 Y89.3727 Z-0.125000 F800.000000
G01 X51.6340 Y93.5491 Z-0.125000 F800.000000
G01 X62.3728 Y97.1833 Z-0.125000 F800.000000
G01 X65.9942 Y98.3062 Z-0.125000 F800.000000
G01 X70.8145 Y99.4834 Z-0.125000 F800.000000
G01 X73.1848 Y99.9080 Z-0.125000 F800.000000
G01 X75.5741 Y100.2267 Z-0.125000 F800.000000
G01 X79.4263 Y100.5052 Z-0.125000 F800.000000
G01 X83.3948 Y100.4961 Z-0.125000 F800.000000
G01 X87.3603 Y100.2070 Z-0.125000 F800.000000
G01 X91.6150 Y99.6214 Z-0.125000 F800.000000
G01 X96.4504 Y98.6806 Z-0.125000 F800.000000
G01 X106.8893 Y96.2899 Z-0.125000 F800.000000
G01 X117.5345 Y94.0003 Z-0.125000 F800.000000
G01 X121.5658 Y92.9844 Z-0.125000 F800.000000
G01 X124.9917 Y91.9258 Z-0.125000 F800.000000
G01 X127.7147 Y90.8997 Z-0.125000 F800.000000
G01 X130.3184 Y89.7247 Z-0.125000 F800.000000
G01 X132.7984 Y88.3998 Z-0.125000 F800.000000
G01 X135.2350 Y86.8833 Z-0.125000 F800.000000
G01 X137.7058 Y85.1176 Z-0.125000 F800.000000
G01 X140.1329 Y83.1524 Z-0.125000 F800.000000
G01 X142.5129 Y80.9953 Z-0.125000 F800.000000
G01 X144.8093 Y78.6783 Z-0.125000 F800.000000
G01 X146.7907 Y76.4919 Z-0.125000 F800.000000
G01 X148.9366 Y73.9554 Z-0.125000 F800.000000
G01 X155.8681 Y65.3172 Z-0.125000 F800.000000
G01 X165.3640 Y53.7106 Z-0.125000 F800.000000
G01 X169.8607 Y47.8747 Z-0.125000 F800.000000
G01 X180.1723 Y34.0360 Z-0.125000 F800.000000
G01 X184.8380 Y28.1368 Z-0.125000 F800.000000
G01 X188.0055 Y24.4583 Z-0.125000 F800.000000
G01 X191.2177 Y21.0159 Z-0.125000 F800.000000
G01 X194.4924 Y17.7847 Z-0.125000 F800.000000
G01 X197.8258 Y14.7704 Z-0.125000 F800.000000
G00 Z6.0000

G4 P0.5
(Start Block)


G00 Z6.0000
G00 X10.5833 Y77.6605
(G4 P0.1)
G01 Z-0.125000 F800.000000

G01 X18.9649 Y80.6439 Z-0.125000 F800.000000
G01 X31.6629 Y85.8231 Z-0.125000 F800.000000
G01 X37.6046 Y87.9698 Z-0.125000 F800.000000
G01 X41.4223 Y89.1473 Z-0.125000 F800.000000
G01 X52.8958 Y92.4420 Z-0.125000 F800.000000
G01 X63.8257 Y96.1855 Z-0.125000 F800.000000
G01 X67.3476 Y97.2955 Z-0.125000 F800.000000
G01 X71.8706 Y98.4323 Z-0.125000 F800.000000
G01 X76.2186 Y99.1556 Z-0.125000 F800.000000
G01 X79.9565 Y99.4687 Z-0.125000 F800.000000
G01 X83.8116 Y99.5000 Z-0.125000 F800.000000
G01 X87.7778 Y99.2466 Z-0.125000 F800.000000
G01 X91.8784 Y98.7195 Z-0.125000 F800.000000
G01 X96.4208 Y97.8910 Z-0.125000 F800.000000
G01 X106.4751 Y95.7382 Z-0.125000 F800.000000
G01 X117.2275 Y93.5716 Z-0.125000 F800.000000
G01 X121.2619 Y92.6000 Z-0.125000 F800.000000
G01 X124.7882 Y91.5403 Z-0.125000 F800.000000
G01 X127.5129 Y90.5291 Z-0.125000 F800.000000
G01 X130.1179 Y89.3643 Z-0.125000 F800.000000
G01 X132.5989 Y88.0461 Z-0.125000 F800.000000
G01 X134.9531 Y86.5887 Z-0.125000 F800.000000
G01 X137.3640 Y84.8767 Z-0.125000 F800.000000
G01 X139.7929 Y82.9191 Z-0.125000 F800.000000
G01 X142.1741 Y80.7666 Z-0.125000 F800.000000
G01 X144.4332 Y78.4938 Z-0.125000 F800.000000
G01 X146.4160 Y76.3118 Z-0.125000 F800.000000
G01 X148.5629 Y73.7781 Z-0.125000 F800.000000
G01 X155.6920 Y64.8918 Z-0.125000 F800.000000
G01 X165.1925 Y53.2986 Z-0.125000 F800.000000
G01 X169.6930 Y47.4729 Z-0.125000 F800.000000
G01 X179.9519 Y33.7512 Z-0.125000 F800.000000
G01 X184.6247 Y27.8718 Z-0.125000 F800.000000
G01 X187.7971 Y24.2080 Z-0.125000 F800.000000
G01 X191.0681 Y20.7252 Z-0.125000 F800.000000
G01 X194.4266 Y17.4381 Z-0.125000 F800.000000
G01 X197.8457 Y14.3764 Z-0.125000 F800.000000
G00 Z6.0000

G4 P0.5
(Start Block)


G00 Z6.0000
G00 X10.5833 Y72.8980
(G4 P0.1)
G01 Z-0.125000 F800.000000

G01 X21.2794 Y76.9496 Z-0.125000 F800.000000
G01 X32.7148 Y81.6357 Z-0.125000 F800.000000
G01 X37.9677 Y83.6036 Z-0.125000 F800.000000
G01 X42.3661 Y85.0357 Z-0.125000 F800.000000
G01 X51.2869 Y87.6345 Z-0.125000 F800.000000
G01 X55.2977 Y88.9029 Z-0.125000 F800.000000
G01 X59.2930 Y90.3315 Z-0.125000 F800.000000
G01 X67.1622 Y93.3777 Z-0.125000 F800.000000
G01 X70.4790 Y94.5256 Z-0.125000 F800.000000
G01 X74.3055 Y95.5975 Z-0.125000 F800.000000
G01 X77.9559 Y96.3185 Z-0.125000 F800.000000
G01 X81.3934 Y96.7157 Z-0.125000 F800.000000
G01 X84.9076 Y96.8505 Z-0.125000 F800.000000
G01 X88.6487 Y96.7222 Z-0.125000 F800.000000
G01 X92.6118 Y96.3314 Z-0.125000 F800.000000
G01 X96.7800 Y95.7143 Z-0.125000 F800.000000
G01 X116.2467 Y92.4300 Z-0.125000 F800.000000
G01 X120.4862 Y91.5400 Z-0.125000 F800.000000
G01 X124.2153 Y90.5048 Z-0.125000 F800.000000
G01 X126.8472 Y89.5742 Z-0.125000 F800.000000
G01 X129.3609 Y88.4933 Z-0.125000 F800.000000
G01 X131.8474 Y87.2120 Z-0.125000 F800.000000
G01 X134.2066 Y85.7828 Z-0.125000 F800.000000
G01 X136.5293 Y84.1587 Z-0.125000 F800.000000
G01 X138.8814 Y82.2848 Z-0.125000 F800.000000
G01 X141.1871 Y80.2192 Z-0.125000 F800.000000
G01 X143.3967 Y78.0180 Z-0.125000 F800.000000
G01 X145.3838 Y75.8494 Z-0.125000 F800.000000
G01 X147.5335 Y73.3244 Z-0.125000 F800.000000
G01 X155.1226 Y63.8563 Z-0.125000 F800.000000
G01 X164.7017 Y52.2167 Z-0.125000 F800.000000
G01 X169.0831 Y46.5904 Z-0.125000 F800.000000
G01 X179.1147 Y33.2947 Z-0.125000 F800.000000
G01 X183.8677 Y27.3722 Z-0.125000 F800.000000
G01 X187.1863 Y23.5867 Z-0.125000 F800.000000
G01 X190.6398 Y19.9707 Z-0.125000 F800.000000
G01 X194.1700 Y16.5866 Z-0.125000 F800.000000
G01 X197.8440 Y13.3755 Z-0.125000 F800.000000
G00 Z6.0000

G4 P0.5
(Start Block)


G00 Z6.0000
G00 X10.5833 Y64.9605
(G4 P0.1)
G01 Z-0.125000 F800.000000

G01 X15.6150 Y67.0881 Z-0.125000 F800.000000
G01 X25.9233 Y70.9819 Z-0.125000 F800.000000
G01 X39.2195 Y76.2540 Z-0.125000 F800.000000
G01 X44.1857 Y78.0655 Z-0.125000 F800.000000
G01 X53.2607 Y81.1819 Z-0.125000 F800.000000
G01 X57.1517 Y82.6404 Z-0.125000 F800.000000
G01 X61.1203 Y84.3075 Z-0.125000 F800.000000
G01 X69.4967 Y88.1994 Z-0.125000 F800.000000
G01 X73.2705 Y89.7948 Z-0.125000 F800.000000
G01 X76.7819 Y91.0141 Z-0.125000 F800.000000
G01 X80.2213 Y91.9051 Z-0.125000 F800.000000
G01 X83.4534 Y92.4580 Z-0.125000 F800.000000
G01 X86.7377 Y92.7539 Z-0.125000 F800.000000
G01 X90.2526 Y92.8133 Z-0.125000 F800.000000
G01 X94.1067 Y92.6388 Z-0.125000 F800.000000
G01 X98.8635 Y92.2085 Z-0.125000 F800.000000
G01 X114.5990 Y90.5183 Z-0.125000 F800.000000
G01 X119.1463 Y89.7929 Z-0.125000 F800.000000
G01 X123.0830 Y88.8583 Z-0.125000 F800.000000
G01 X125.7230 Y88.0101 Z-0.125000 F800.000000
G01 X128.1481 Y87.0388 Z-0.125000 F800.000000
G01 X130.5482 Y85.8713 Z-0.125000 F800.000000
G01 X132.8226 Y84.5561 Z-0.125000 F800.000000
G01 X135.1136 Y83.0097 Z-0.125000 F800.000000
G01 X137.3126 Y81.3049 Z-0.125000 F800.000000
G01 X139.5473 Y79.3444 Z-0.125000 F800.000000
G01 X141.7338 Y77.2026 Z-0.125000 F800.000000
G01 X143.8183 Y74.9536 Z-0.125000 F800.000000
G01 X145.9711 Y72.4378 Z-0.125000 F800.000000
G01 X154.1494 Y62.2159 Z-0.125000 F800.000000
G01 X163.9463 Y50.3858 Z-0.125000 F800.000000
G01 X168.1490 Y45.0592 Z-0.125000 F800.000000
G01 X177.7796 Y32.5020 Z-0.125000 F800.000000
G01 X182.6237 Y26.5681 Z-0.125000 F800.000000
G01 X186.2337 Y22.5368 Z-0.125000 F800.000000
G01 X189.9344 Y18.7692 Z-0.125000 F800.000000
G01 X193.7258 Y15.2548 Z-0.125000 F800.000000
G01 X197.7450 Y11.8689 Z-0.125000 F800.000000
G00 Z6.0000

G4 P0.5
(Start Block)


G00 Z6.0000
G00 X10.5833 Y58.6105
(G4 P0.1)
G01 Z-0.125000 F800.000000

G01 X13.8629 Y60.0857 Z-0.125000 F800.000000
G01 X17.2522 Y61.4972 Z-0.125000 F800.000000
G01 X28.6176 Y65.9094 Z-0.125000 F800.000000
G01 X43.7394 Y72.0723 Z-0.125000 F800.000000
G01 X57.6252 Y77.5110 Z-0.125000 F800.000000
G01 X63.2245 Y79.9888 Z-0.125000 F800.000000
G01 X71.6635 Y84.1700 Z-0.125000 F800.000000
G01 X74.9368 Y85.6922 Z-0.125000 F800.000000
G01 X78.6245 Y87.1552 Z-0.125000 F800.000000
G01 X82.1494 Y88.2285 Z-0.125000 F800.000000
G01 X85.4023 Y88.9200 Z-0.125000 F800.000000
G01 X88.7391 Y89.3531 Z-0.125000 F800.000000
G01 X92.3658 Y89.5595 Z-0.125000 F800.000000
G01 X96.4479 Y89.5527 Z-0.125000 F800.000000
G01 X106.6504 Y89.1080 Z-0.125000 F800.000000
G01 X113.4497 Y88.6674 Z-0.125000 F800.000000
G01 X118.0184 Y88.1228 Z-0.125000 F800.000000
G01 X122.0621 Y87.3013 Z-0.125000 F800.000000
G01 X124.6108 Y86.5592 Z-0.125000 F800.000000
G01 X127.0433 Y85.6542 Z-0.125000 F800.000000
G01 X129.3553 Y84.5913 Z-0.125000 F800.000000
G01 X131.6380 Y83.3273 Z-0.125000 F800.000000
G01 X133.8747 Y81.8643 Z-0.125000 F800.000000
G01 X135.9996 Y80.2563 Z-0.125000 F800.000000
G01 X138.1615 Y78.3940 Z-0.125000 F800.000000
G01 X140.3535 Y76.2717 Z-0.125000 F800.000000
G01 X142.4117 Y74.0697 Z-0.125000 F800.000000
G01 X144.5678 Y71.5637 Z-0.125000 F800.000000
G01 X153.2730 Y60.6806 Z-0.125000 F800.000000
G01 X163.4858 Y48.4139 Z-0.125000 F800.000000
G01 X167.3746 Y43.5433 Z-0.125000 F800.000000
G01 X176.4026 Y31.9640 Z-0.125000 F800.000000
G01 X181.1310 Y26.2412 Z-0.125000 F800.000000
G01 X184.7486 Y22.2341 Z-0.125000 F800.000000
G01 X188.3853 Y18.5563 Z-0.125000 F800.000000
G01 X192.1811 Y15.0584 Z-0.125000 F800.000000
G01 X196.2023 Y11.6813 Z-0.125000 F800.000000
G00 Z6.0000

G4 P0.5
(Start Block)


G00 Z6.0000
G00 X10.5833 Y53.8480
(G4 P0.1)
G01 Z-0.125000 F800.000000

G01 X16.2873 Y56.3045 Z-0.125000 F800.000000
G01 X30.3540 Y61.9363 Z-0.125000 F800.000000
G01 X47.1838 Y69.1185 Z-0.125000 F800.000000
G01 X59.3888 Y74.1711 Z-0.125000 F800.000000
G01 X65.2735 Y76.8108 Z-0.125000 F800.000000
G01 X73.9060 Y81.0746 Z-0.125000 F800.000000
G01 X76.9855 Y82.5171 Z-0.125000 F800.000000
G01 X80.4736 Y83.9506 Z-0.125000 F800.000000
G01 X83.7949 Y85.0517 Z-0.125000 F800.000000
G01 X87.2375 Y85.8980 Z-0.125000 F800.000000
G01 X90.7390 Y86.4716 Z-0.125000 F800.000000
G01 X94.5894 Y86.8306 Z-0.125000 F800.000000
G01 X99.3508 Y87.0120 Z-0.125000 F800.000000
G01 X107.0614 Y87.0269 Z-0.125000 F800.000000
G01 X112.9569 Y86.8405 Z-0.125000 F800.000000
G01 X117.3735 Y86.4317 Z-0.125000 F800.000000
G01 X121.2249 Y85.7406 Z-0.125000 F800.000000
G01 X123.6801 Y85.0832 Z-0.125000 F800.000000
G01 X126.0207 Y84.2676 Z-0.125000 F800.000000
G01 X128.3390 Y83.2535 Z-0.125000 F800.000000
G01 X130.5331 Y82.0838 Z-0.125000 F800.000000
G01 X132.7146 Y80.7008 Z-0.125000 F800.000000
G01 X134.8461 Y79.1239 Z-0.125000 F800.000000
G01 X136.9339 Y77.3546 Z-0.125000 F800.000000
G01 X139.0533 Y75.3288 Z-0.125000 F800.000000
G01 X141.3586 Y72.8725 Z-0.125000 F800.000000
G01 X143.7801 Y70.0410 Z-0.125000 F800.000000
G01 X151.8226 Y59.9729 Z-0.125000 F800.000000
G01 X163.5169 Y45.9807 Z-0.125000 F800.000000
G01 X175.0455 Y31.5171 Z-0.125000 F800.000000
G01 X179.6564 Y26.0006 Z-0.125000 F800.000000
G01 X183.2804 Y22.0137 Z-0.125000 F800.000000
G01 X186.9217 Y18.3517 Z-0.125000 F800.000000
G01 X190.7217 Y14.8703 Z-0.125000 F800.000000
G01 X194.7464 Y11.5068 Z-0.125000 F800.000000
G00 Z6.0000

G4 P0.5
(Start Block)


G00 Z6.0000
G00 X10.5833 Y45.9105
(G4 P0.1)
G01 Z-0.125000 F800.000000

G01 X15.2411 Y47.7644 Z-0.125000 F800.000000
G01 X24.6722 Y51.3451 Z-0.125000 F800.000000
G01 X30.0018 Y53.5330 Z-0.125000 F800.000000
G01 X35.1172 Y55.8077 Z-0.125000 F800.000000
G01 X50.5267 Y62.9309 Z-0.125000 F800.000000
G01 X68.2203 Y70.5379 Z-0.125000 F800.000000
G01 X80.2637 Y76.0673 Z-0.125000 F800.000000
G01 X83.9427 Y77.6056 Z-0.125000 F800.000000
G01 X87.3521 Y78.8360 Z-0.125000 F800.000000
G01 X91.0765 Y79.9289 Z-0.125000 F800.000000
G01 X94.9182 Y80.7902 Z-0.125000 F800.000000
G01 X99.1966 Y81.4863 Z-0.125000 F800.000000
G01 X103.8372 Y82.0073 Z-0.125000 F800.000000
G01 X108.4832 Y82.3194 Z-0.125000 F800.000000
G01 X112.5650 Y82.3787 Z-0.125000 F800.000000
G01 X116.1918 Y82.1825 Z-0.125000 F800.000000
G01 X119.4847 Y81.7190 Z-0.125000 F800.000000
G01 X121.8480 Y81.1767 Z-0.125000 F800.000000
G01 X124.0982 Y80.4696 Z-0.125000 F800.000000
G01 X126.2313 Y79.6058 Z-0.125000 F800.000000
G01 X128.3390 Y78.5478 Z-0.125000 F800.000000
G01 X130.4151 Y77.2904 Z-0.125000 F800.000000
G01 X132.3924 Y75.8817 Z-0.125000 F800.000000
G01 X134.4104 Y74.2241 Z-0.125000 F800.000000
G01 X136.3835 Y72.3882 Z-0.125000 F800.000000
G01 X138.5189 Y70.1735 Z-0.125000 F800.000000
G01 X140.8238 Y67.5537 Z-0.125000 F800.000000
G01 X151.6508 Y54.3326 Z-0.125000 F800.000000
G01 X162.4191 Y41.7646 Z-0.125000 F800.000000
G01 X172.1747 Y30.0882 Z-0.125000 F800.000000
G01 X176.2239 Y25.4087 Z-0.125000 F800.000000
G01 X179.7966 Y21.5511 Z-0.125000 F800.000000
G01 X183.2831 Y18.0819 Z-0.125000 F800.000000
G01 X186.8490 Y14.8306 Z-0.125000 F800.000000
G01 X190.6328 Y11.6720 Z-0.125000 F800.000000
G00 Z6.0000

G4 P0.5
(Start Block)


G00 Z6.0000
G00 X10.5833 Y41.1480
(G4 P0.1)
G01 Z-0.125000 F800.000000

G01 X24.3095 Y46.1933 Z-0.125000 F800.000000
G01 X30.3209 Y48.6285 Z-0.125000 F800.000000
G01 X35.6206 Y51.0564 Z-0.125000 F800.000000
G01 X48.0877 Y57.2301 Z-0.125000 F800.000000
G01 X55.3049 Y60.6141 Z-0.125000 F800.000000
G01 X70.9643 Y67.3792 Z-0.125000 F800.000000
G01 X83.0224 Y72.7958 Z-0.125000 F800.000000
G01 X86.2188 Y74.1193 Z-0.125000 F800.000000
G01 X89.2349 Y75.2444 Z-0.125000 F800.000000
G01 X92.9510 Y76.4318 Z-0.125000 F800.000000
G01 X96.6855 Y77.3974 Z-0.125000 F800.000000
G01 X100.6313 Y78.1912 Z-0.125000 F800.000000
G01 X104.6157 Y78.7820 Z-0.125000 F800.000000
G01 X108.4659 Y79.1508 Z-0.125000 F800.000000
G01 X112.0936 Y79.2806 Z-0.125000 F800.000000
G01 X115.2679 Y79.1678 Z-0.125000 F800.000000
G01 X118.2664 Y78.8095 Z-0.125000 F800.000000
G01 X120.5344 Y78.3410 Z-0.125000 F800.000000
G01 X122.7886 Y77.6805 Z-0.125000 F800.000000
G01 X124.9258 Y76.8532 Z-0.125000 F800.000000
G01 X126.9423 Y75.8754 Z-0.125000 F800.000000
G01 X128.9299 Y74.7098 Z-0.125000 F800.000000
G01 X130.8937 Y73.3506 Z-0.125000 F800.000000
G01 X132.9195 Y71.7270 Z-0.125000 F800.000000
G01 X134.9014 Y69.9239 Z-0.125000 F800.000000
G01 X137.1019 Y67.6916 Z-0.125000 F800.000000
G01 X139.4904 Y65.0435 Z-0.125000 F800.000000
G01 X152.0155 Y50.1763 Z-0.125000 F800.000000
G01 X174.1524 Y24.8809 Z-0.125000 F800.000000
G01 X177.6409 Y21.1791 Z-0.125000 F800.000000
G01 X180.9945 Y17.8745 Z-0.125000 F800.000000
G01 X184.4045 Y14.7775 Z-0.125000 F800.000000
G01 X187.9465 Y11.8193 Z-0.125000 F800.000000
G00 Z6.0000

G4 P0.5
(Start Block)


G00 Z6.0000
G00 X10.5833 Y39.5605
(G4 P0.1)
G01 Z-0.125000 F800.000000

G01 X24.3166 Y44.5379 Z-0.125000 F800.000000
G01 X30.6190 Y47.0899 Z-0.125000 F800.000000
G01 X35.9146 Y49.5483 Z-0.125000 F800.000000
G01 X48.5545 Y55.9491 Z-0.125000 F800.000000
G01 X55.9568 Y59.4772 Z-0.125000 F800.000000
G01 X71.7049 Y66.3479 Z-0.125000 F800.000000
G01 X83.3768 Y71.5936 Z-0.125000 F800.000000
G01 X86.6687 Y72.9693 Z-0.125000 F800.000000
G01 X89.6828 Y74.1125 Z-0.125000 F800.000000
G01 X93.2981 Y75.3022 Z-0.125000 F800.000000
G01 X96.9310 Y76.2864 Z-0.125000 F800.000000
G01 X100.6764 Y77.0909 Z-0.125000 F800.000000
G01 X104.5598 Y77.7153 Z-0.125000 F800.000000
G01 X108.2957 Y78.1097 Z-0.125000 F800.000000
G01 X111.6963 Y78.2618 Z-0.125000 F800.000000
G01 X114.8708 Y78.1775 Z-0.125000 F800.000000
G01 X117.8135 Y77.8511 Z-0.125000 F800.000000
G01 X120.0827 Y77.4021 Z-0.125000 F800.000000
G01 X122.3384 Y76.7593 Z-0.125000 F800.000000
G01 X124.4773 Y75.9473 Z-0.125000 F800.000000
G01 X126.4956 Y74.9829 Z-0.125000 F800.000000
G01 X128.4853 Y73.8296 Z-0.125000 F800.000000
G01 X130.4924 Y72.4520 Z-0.125000 F800.000000
G01 X132.5203 Y70.8373 Z-0.125000 F800.000000
G01 X134.5049 Y69.0448 Z-0.125000 F800.000000
G01 X136.8098 Y66.7226 Z-0.125000 F800.000000
G01 X139.3394 Y63.9378 Z-0.125000 F800.000000
G01 X152.2366 Y48.7829 Z-0.125000 F800.000000
G01 X173.6216 Y24.6009 Z-0.125000 F800.000000
G01 X177.0552 Y20.9854 Z-0.125000 F800.000000
G01 X180.4129 Y17.6955 Z-0.125000 F800.000000
G01 X183.8261 Y14.6109 Z-0.125000 F800.000000
G01 X187.2898 Y11.7288 Z-0.125000 F800.000000
G00 Z6.0000

G4 P0.5
(Start Block)


G00 Z6.0000
G00 X10.5833 Y33.2105
(G4 P0.1)
G01 Z-0.125000 F800.000000

G01 X24.0447 Y37.8823 Z-0.125000 F800.000000
G01 X28.1245 Y39.4670 Z-0.125000 F800.000000
G01 X31.7975 Y41.0546 Z-0.125000 F800.000000
G01 X37.4572 Y43.8442 Z-0.125000 F800.000000
G01 X50.3978 Y50.9813 Z-0.125000 F800.000000
G01 X58.2439 Y54.9971 Z-0.125000 F800.000000
G01 X83.1856 Y66.5453 Z-0.125000 F800.000000
G01 X87.3372 Y68.3801 Z-0.125000 F800.000000
G01 X90.8268 Y69.8028 Z-0.125000 F800.000000
G01 X94.3331 Y71.0733 Z-0.125000 F800.000000
G01 X97.6609 Y72.1046 Z-0.125000 F800.000000
G01 X101.0031 Y72.9580 Z-0.125000 F800.000000
G01 X104.3575 Y73.6236 Z-0.125000 F800.000000
G01 X107.5661 Y74.0678 Z-0.125000 F800.000000
G01 X110.6252 Y74.2922 Z-0.125000 F800.000000
G01 X113.4598 Y74.2954 Z-0.125000 F800.000000
G01 X116.1785 Y74.0779 Z-0.125000 F800.000000
G01 X118.4233 Y73.7078 Z-0.125000 F800.000000
G01 X120.6846 Y73.1369 Z-0.125000 F800.000000
G01 X122.8304 Y72.3915 Z-0.125000 F800.000000
G01 X124.9529 Y71.4420 Z-0.125000 F800.000000
G01 X126.9514 Y70.3431 Z-0.125000 F800.000000
G01 X129.0214 Y68.9882 Z-0.125000 F800.000000
G01 X131.0634 Y67.4363 Z-0.125000 F800.000000
G01 X133.2251 Y65.5730 Z-0.125000 F800.000000
G01 X135.9679 Y62.9304 Z-0.125000 F800.000000
G01 X138.9714 Y59.7683 Z-0.125000 F800.000000
G01 X153.4414 Y43.4469 Z-0.125000 F800.000000
G01 X171.6985 Y23.6510 Z-0.125000 F800.000000
G01 X175.0872 Y20.1898 Z-0.125000 F800.000000
G01 X178.2251 Y17.1810 Z-0.125000 F800.000000
G01 X181.4076 Y14.3404 Z-0.125000 F800.000000
G01 X184.6324 Y11.6707 Z-0.125000 F800.000000
G00 Z6.0000

G4 P0.5

G00 Z5.0000
M5
G00 X0.0000 Y0.0000
M2
