$H
G21
G17
G90
G1 Z0F20000
G1 F15000

(Start Layer)

(Start Block)


G1X10.5833Y-47.4927
G1Z5F20000
(Plotting speed under)
G1 F4000


G1X12.7418Y-49.7626

G1X21.9308Y-60.1501

G1X24.6766Y-63.0471

G1X26.9488Y-65.2665

G1X29.2552Y-67.2434

G1X31.0857Y-68.4470

G1X31.8288Y-68.7599

G1X32.4224Y-68.8743

G1X32.9187Y-68.8072

G1X33.3091Y-68.5447

G1X33.6811Y-67.7837

G1X33.9160Y-66.3429

G1X33.9987Y-64.2399

G1X33.9266Y-61.5071

G1X33.7001Y-58.1971

G1X33.3226Y-54.3839

G1X32.1904Y-45.9508

G1X30.6860Y-37.3914

G1X29.8835Y-33.5963

G1X29.0876Y-30.3104

G1X28.3181Y-27.6073

G1X27.5907Y-25.5388

G1X26.9180Y-24.1365

G1X26.3094Y-23.4143

G1X26.0791Y-23.3147

G1X25.8396Y-23.3370

G1X25.2635Y-23.7992

G1X24.4322Y-24.8824

G1X23.3782Y-26.5773

G1X22.1230Y-28.8692

G1X20.7914Y-31.5318

G1X18.0400Y-37.6500

G1X15.5780Y-43.8510

G1X13.4913Y-49.8436

G1X11.8403Y-55.4350

G1X10.6576Y-60.5386

G1X10.0740Y-64.2352

G1X9.8477Y-67.4774

G1X9.8727Y-68.9002

G1X9.9929Y-70.2145

G1X10.1958Y-71.3344

G1X10.4909Y-72.3431

G1X10.8827Y-73.2325

G1X11.3370Y-73.9446

G1X11.8822Y-74.5405

G1X12.5218Y-75.0137

G1X13.1991Y-75.3361

G1X14.0777Y-75.5787

G1X15.0734Y-75.7170

G1X16.2004Y-75.7625

G1X18.1229Y-75.6656

G1X20.3043Y-75.3827

G1X22.8070Y-74.9092

G1X25.6300Y-74.2430

G1X32.2121Y-72.3365

G1X40.1796Y-69.6175

G1X47.7231Y-66.7870

G1X56.2918Y-63.3742

G1X66.1787Y-59.2662

G1X86.8269Y-50.4891

G1X91.3106Y-48.6660

G1X94.4563Y-47.4927

G1 Z0F20000

(Start Block)


G1X10.5833Y-47.4927
G1Z5F20000
(Plotting speed under)
G1 F4000


G1X12.7418Y-49.7626

G1X21.9308Y-60.1501

G1X24.6766Y-63.0471

G1X26.9488Y-65.2665

G1X29.2552Y-67.2434

G1X31.0857Y-68.4470

G1X31.8288Y-68.7599

G1X32.4224Y-68.8743

G1X32.9187Y-68.8072

G1X33.3091Y-68.5447

G1X33.6811Y-67.7837

G1X33.9160Y-66.3429

G1X33.9987Y-64.2399

G1X33.9266Y-61.5071

G1X33.7001Y-58.1971

G1X33.3226Y-54.3839

G1X32.1904Y-45.9508

G1X30.6860Y-37.3914

G1X29.8835Y-33.5963

G1X29.0876Y-30.3104

G1X28.3181Y-27.6073

G1X27.5907Y-25.5388

G1X26.9180Y-24.1365

G1X26.3094Y-23.4143

G1X26.0791Y-23.3147

G1X25.8396Y-23.3370

G1X25.2635Y-23.7992

G1X24.4322Y-24.8824

G1X23.3782Y-26.5773

G1X22.1230Y-28.8692

G1X20.7914Y-31.5318

G1X18.0400Y-37.6500

G1X15.5780Y-43.8510

G1X13.4913Y-49.8436

G1X11.8403Y-55.4350

G1X10.6576Y-60.5386

G1X10.0740Y-64.2352

G1X9.8477Y-67.4774

G1X9.8727Y-68.9002

G1X9.9929Y-70.2145

G1X10.1958Y-71.3344

G1X10.4909Y-72.3431

G1X10.8827Y-73.2325

G1X11.3370Y-73.9446

G1X11.8822Y-74.5405

G1X12.5218Y-75.0137

G1X13.1991Y-75.3361

G1X14.0777Y-75.5787

G1X15.0734Y-75.7170

G1X16.2004Y-75.7625

G1X18.1229Y-75.6656

G1X20.3043Y-75.3827

G1X22.8070Y-74.9092

G1X25.6300Y-74.2430

G1X32.2121Y-72.3365

G1X40.1796Y-69.6175

G1X47.7231Y-66.7870

G1X56.2918Y-63.3742

G1X66.1787Y-59.2662

G1X86.8269Y-50.4891

G1X91.3106Y-48.6660

G1X94.4563Y-47.4927

G1 Z0F20000

(Start Block)


G1X10.5833Y-49.2566
G1Z5F20000
(Plotting speed under)
G1 F4000


G1X12.8800Y-51.4780

G1X22.9041Y-61.8567

G1X25.8573Y-64.7165

G1X28.3045Y-66.9162

G1X30.7661Y-68.8653

G1X32.7080Y-70.0520

G1X33.4624Y-70.3509

G1X34.1088Y-70.4684

G1X34.6366Y-70.3890

G1X35.0094Y-70.1276

G1X35.2144Y-69.7993

G1X35.3724Y-69.3244

G1X35.5619Y-67.9570

G1X35.5905Y-65.9169

G1X35.4527Y-63.3843

G1X35.1385Y-60.2104

G1X34.6740Y-56.6845

G1X33.3297Y-48.7514

G1X31.6021Y-40.6740

G1X30.7147Y-37.1427

G1X29.8141Y-33.9615

G1X28.9540Y-31.3316

G1X28.1523Y-29.3018

G1X27.4228Y-27.9008

G1X26.7754Y-27.1399

G1X26.5243Y-27.0091

G1X26.2858Y-26.9954

G1X25.7528Y-27.3255

G1X24.9605Y-28.2317

G1X23.9947Y-29.6482

G1X22.8440Y-31.5962

G1X21.5799Y-33.9654

G1X18.9137Y-39.5884

G1X16.5345Y-45.3207

G1X14.4349Y-51.1319

G1X12.8232Y-56.4407

G1X11.6811Y-61.2859

G1X11.1345Y-64.7506

G1X10.9339Y-67.7896

G1X11.0903Y-70.3571

G1X11.3108Y-71.4826

G1X11.6065Y-72.4225

G1X11.9943Y-73.2535

G1X12.4376Y-73.9176

G1X13.0141Y-74.5186

G1X13.6388Y-74.9579

G1X14.3557Y-75.2804

G1X15.1565Y-75.4904

G1X16.1537Y-75.6254

G1X17.2854Y-75.6703

G1X19.1515Y-75.5835

G1X21.3425Y-75.3161

G1X23.8609Y-74.8639

G1X26.6127Y-74.2477

G1X33.1330Y-72.4570

G1X40.9217Y-69.9383

G1X48.3844Y-67.2851

G1X56.8745Y-64.0803

G1X66.5711Y-60.2615

G1X86.9976Y-52.0322

G1X91.4152Y-50.3308

G1X94.4563Y-49.2566

G1 Z0F20000

(Start Block)


G1X10.5833Y-51.0205
G1Z5F20000
(Plotting speed under)
G1 F4000


G1X13.0076Y-53.1869

G1X23.8375Y-63.5090

G1X26.9903Y-66.3282

G1X29.6986Y-68.5810

G1X32.3027Y-70.4939

G1X34.3447Y-71.6592

G1X35.1592Y-71.9596

G1X35.8001Y-72.0651

G1X36.3192Y-71.9898

G1X36.7063Y-71.7198

G1X37.0395Y-70.9553

G1X37.2009Y-69.5730

G1X37.1751Y-67.6859

G1X36.9688Y-65.2654

G1X36.5819Y-62.3474

G1X36.0422Y-59.1166

G1X34.5015Y-51.6900

G1X32.5632Y-44.0854

G1X31.5634Y-40.6878

G1X30.5564Y-37.6128

G1X29.6401Y-35.1475

G1X28.7604Y-33.1381

G1X27.9695Y-31.7179

G1X27.2780Y-30.8964

G1X26.7673Y-30.6643

G1X26.2785Y-30.8517

G1X25.5685Y-31.5211

G1X24.6652Y-32.6890

G1X23.5811Y-34.3589

G1X22.3859Y-36.4321

G1X19.8565Y-41.4357

G1X17.5055Y-46.8052

G1X15.4746Y-52.1673

G1X13.8442Y-57.3222

G1X12.7279Y-61.9151

G1X12.1927Y-65.2671

G1X12.0160Y-68.1023

G1X12.0615Y-69.4381

G1X12.1949Y-70.5844

G1X12.4211Y-71.6312

G1X12.7165Y-72.5021

G1X13.0991Y-73.2744

G1X13.5729Y-73.9416

G1X14.1417Y-74.4970

G1X14.7499Y-74.9022

G1X15.4443Y-75.2028

G1X16.2352Y-75.4037

G1X18.3737Y-75.5783

G1X20.2552Y-75.4945

G1X22.3906Y-75.2472

G1X24.8438Y-74.8321

G1X27.6143Y-74.2470

G1X34.0843Y-72.5686

G1X41.7055Y-70.2426

G1X48.9793Y-67.8044

G1X57.4008Y-64.8071

G1X67.0363Y-61.2278

G1X87.0755Y-53.6123

G1X91.4507Y-52.0224

G1X94.4563Y-51.0205

G1 Z0F20000

(Start Block)


G1X10.5833Y-52.7844
G1Z5F20000
(Plotting speed under)
G1 F4000


G1X13.2032Y-54.9596

G1X24.6722Y-65.0683

G1X28.0274Y-67.8553

G1X30.9171Y-70.0995

G1X33.6864Y-72.0164

G1X35.8580Y-73.2091

G1X36.6948Y-73.5226

G1X37.4019Y-73.6604

G1X37.9666Y-73.6075

G1X38.3524Y-73.3743

G1X38.6839Y-72.6810

G1X38.8260Y-71.4686

G1X38.7735Y-69.7313

G1X38.5357Y-67.5840

G1X38.1122Y-64.9832

G1X37.5051Y-61.9690

G1X35.8507Y-55.2329

G1X33.7390Y-48.0911

G1X31.5173Y-41.7748

G1X30.4665Y-39.2257

G1X29.5016Y-37.1922

G1X28.6390Y-35.6998

G1X27.8899Y-34.7566

G1X27.3451Y-34.3815

G1X26.8976Y-34.3809

G1X26.2943Y-34.7681

G1X25.5163Y-35.5797

G1X24.5233Y-36.8963

G1X23.4154Y-38.6074

G1X20.9867Y-42.9955

G1X18.6010Y-48.0646

G1X16.5298Y-53.2152

G1X14.9082Y-58.0818

G1X13.7754Y-62.5466

G1X13.2611Y-65.6743

G1X13.0932Y-68.4157

G1X13.2797Y-70.7274

G1X13.5030Y-71.7033

G1X13.8196Y-72.5819

G1X14.1956Y-73.2953

G1X14.6576Y-73.9145

G1X15.2090Y-74.4335

G1X15.8536Y-74.8466

G1X16.5234Y-75.1250

G1X17.3585Y-75.3269

G1X19.4570Y-75.4864

G1X21.2818Y-75.4113

G1X23.4274Y-75.1791

G1X28.5025Y-74.2700

G1X34.8990Y-72.7172

G1X42.4461Y-70.5586

G1X49.7593Y-68.2587

G1X57.9833Y-65.5122

G1X87.1642Y-55.1871

G1X94.4563Y-52.7844

G1 Z0F20000

(Start Block)


G1X10.5833Y-54.5483
G1Z5F20000
(Plotting speed under)
G1 F4000


G1X13.3194Y-56.6632

G1X25.5592Y-66.6733

G1X29.1055Y-69.4172

G1X32.1658Y-71.6416

G1X35.0889Y-73.5517

G1X37.3810Y-74.7635

G1X38.2918Y-75.1033

G1X39.0073Y-75.2557

G1X39.5802Y-75.2353

G1X39.9985Y-75.0290

G1X40.1904Y-74.7737

G1X40.3277Y-74.4079

G1X40.4534Y-73.3632

G1X40.3871Y-71.8620

G1X40.1369Y-70.0031

G1X39.6989Y-67.7341

G1X39.0725Y-65.0804

G1X37.3217Y-58.9408

G1X35.0684Y-52.2902

G1X32.6855Y-46.2530

G1X31.5782Y-43.7908

G1X30.5135Y-41.6694

G1X29.5584Y-40.0283

G1X28.6882Y-38.8333

G1X28.0880Y-38.2569

G1X27.5622Y-38.0165

G1X27.1013Y-38.1085

G1X26.5066Y-38.5102

G1X25.6343Y-39.4002

G1X24.6385Y-40.6803

G1X23.5497Y-42.3021

G1X22.3984Y-44.2172

G1X20.0306Y-48.7337

G1X17.8297Y-53.7170

G1X16.0868Y-58.5261

G1X14.8944Y-62.8639

G1X14.3510Y-65.8927

G1X14.1642Y-68.5538

G1X14.3279Y-70.7135

G1X14.5547Y-71.7086

G1X14.8542Y-72.5312

G1X15.2459Y-73.2610

G1X15.6857Y-73.8382

G1X16.2655Y-74.3717

G1X16.8835Y-74.7587

G1X17.5915Y-75.0472

G1X18.3870Y-75.2352

G1X20.5356Y-75.3947

G1X22.3702Y-75.3229

G1X24.4528Y-75.1117

G1X29.5575Y-74.2559

G1X35.7885Y-72.8431

G1X43.2587Y-70.8511

G1X50.3656Y-68.7687

G1X58.5012Y-66.2381

G1X87.3470Y-56.7301

G1X94.4563Y-54.5483

G1 Z0F20000

(Start Block)


G1X10.5833Y-56.3122
G1Z5F20000
(Plotting speed under)
G1 F4000


G1X13.5813Y-58.4815

G1X25.7981Y-67.7963

G1X32.2331Y-72.3960

G1X35.2791Y-74.3685

G1X37.7651Y-75.7795

G1X39.6583Y-76.6099

G1X40.3700Y-76.8088

G1X40.9627Y-76.8763

G1X41.3642Y-76.8238

G1X41.6680Y-76.6649

G1X41.8771Y-76.3843

G1X42.0123Y-75.9661

G1X42.0680Y-74.6184

G1X41.8091Y-72.6591

G1X41.2127Y-70.0224

G1X40.3377Y-66.9696

G1X39.1911Y-63.5013

G1X37.8075Y-59.7350

G1X36.2336Y-55.8192

G1X34.5844Y-52.0572

G1X32.9853Y-48.7317

G1X31.4972Y-45.9618

G1X30.1689Y-43.8361

G1X29.0777Y-42.4580

G1X28.6137Y-42.0289

G1X28.1946Y-41.7658

G1X27.8535Y-41.6800

G1X27.4628Y-41.7591

G1X26.9270Y-42.0654

G1X26.2694Y-42.6309

G1X24.8036Y-44.3431

G1X23.1073Y-46.8368

G1X21.3374Y-49.8988

G1X19.6608Y-53.2403

G1X18.2189Y-56.5534

G1X17.0162Y-59.8106

G1X16.0997Y-62.9007

G1X15.5591Y-65.3925

G1X15.2760Y-67.6212

G1X15.2468Y-69.5615

G1X15.4798Y-71.2861

G1X15.9679Y-72.6820

G1X16.6898Y-73.7545

G1X17.6856Y-74.5568

G1X18.8912Y-75.0377

G1X20.2522Y-75.2504

G1X21.9908Y-75.3000

G1X24.1143Y-75.1830

G1X26.6231Y-74.8970

G1X29.5127Y-74.4417

G1X32.7730Y-73.8191

G1X40.4463Y-72.0661

G1X48.2533Y-70.0255

G1X57.3702Y-67.4441

G1X67.4264Y-64.4429

G1X87.6021Y-58.2548

G1X94.4563Y-56.3122

G1 Z0F20000

(Start Block)


G1X10.5833Y-58.0761
G1Z5F20000
(Plotting speed under)
G1 F4000


G1X13.6965Y-60.1860

G1X26.6725Y-69.4201

G1X33.5603Y-74.0329

G1X36.7497Y-75.9785

G1X39.3463Y-77.3781

G1X41.3136Y-78.2103

G1X42.0729Y-78.4189

G1X42.6927Y-78.4877

G1X43.1045Y-78.4276

G1X43.3821Y-78.2661

G1X43.5764Y-77.9657

G1X43.6861Y-77.5282

G1X43.6524Y-76.1415

G1X43.2805Y-74.2394

G1X42.5476Y-71.7063

G1X41.4823Y-68.6806

G1X40.1170Y-65.2590

G1X38.5561Y-61.6962

G1X36.8086Y-58.0167

G1X35.0054Y-54.5119

G1X33.2850Y-51.4495

G1X31.6564Y-48.8542

G1X30.3372Y-47.0534

G1X29.1977Y-45.8504

G1X28.7293Y-45.5166

G1X28.3512Y-45.3631

G1X28.0092Y-45.3578

G1X27.6153Y-45.4837

G1X27.0829Y-45.7986

G1X26.4423Y-46.3272

G1X25.0060Y-47.9049

G1X23.4386Y-50.0677

G1X21.8301Y-52.6844

G1X20.3289Y-55.5067

G1X18.9536Y-58.5112

G1X17.8685Y-61.3363

G1X17.0516Y-64.0070

G1X16.5626Y-66.2268

G1X16.3182Y-68.2069

G1X16.3103Y-69.9273

G1X16.5448Y-71.4649

G1X17.0095Y-72.7122

G1X17.7323Y-73.7348

G1X18.6631Y-74.4621

G1X19.8565Y-74.9398

G1X21.1692Y-75.1513

G1X22.8801Y-75.2111

G1X24.9857Y-75.1144

G1X27.4033Y-74.8692

G1X33.4450Y-73.9114

G1X41.0160Y-72.3357

G1X48.7264Y-70.4953

G1X57.7568Y-68.1580

G1X87.7027Y-59.8293

G1X94.4563Y-58.0761

G1 Z0F20000

(Start Block)


G1X10.5833Y-59.8400
G1Z5F20000
(Plotting speed under)
G1 F4000


G1X13.8767Y-61.9377

G1X27.6078Y-71.0803

G1X34.9295Y-75.6848

G1X38.3404Y-77.6472

G1X41.0210Y-79.0165

G1X43.0351Y-79.8322

G1X43.8269Y-80.0414

G1X44.4205Y-80.1039

G1X44.8364Y-80.0392

G1X45.0959Y-79.8688

G1X45.2681Y-79.5524

G1X45.3448Y-79.1010

G1X45.2055Y-77.6927

G1X44.6602Y-75.6942

G1X43.7241Y-73.1562

G1X42.3723Y-70.0386

G1X40.7467Y-66.6723

G1X38.8650Y-63.0877

G1X36.8748Y-59.5721

G1X34.9389Y-56.4034

G1X33.0746Y-53.6119

G1X31.4241Y-51.4213

G1X30.1406Y-50.0000

G1X29.1243Y-49.1958

G1X28.7598Y-49.0384

G1X28.4197Y-49.0036

G1X27.5945Y-49.2773

G1X26.4506Y-50.1236

G1X25.1066Y-51.5316

G1X23.6171Y-53.4710

G1X22.1848Y-55.6731

G1X20.8164Y-58.1166

G1X19.6344Y-60.5858

G1X18.6782Y-62.9834

G1X17.9721Y-65.2358

G1X17.5449Y-67.1784

G1X17.3497Y-68.9025

G1X17.3734Y-70.3935

G1X17.6199Y-71.7319

G1X18.0706Y-72.8164

G1X18.7529Y-73.7165

G1X19.6849Y-74.4074

G1X20.7898Y-74.8398

G1X22.0376Y-75.0502

G1X23.7048Y-75.1214

G1X25.7047Y-75.0521

G1X28.0891Y-74.8445

G1X33.9934Y-74.0130

G1X41.5471Y-72.5999

G1X49.2681Y-70.9362

G1X58.2021Y-68.8463

G1X87.8142Y-61.4005

G1X94.4563Y-59.8400

G1 Z0F20000

(Start Block)


G1X10.5833Y-61.6038
G1Z5F20000
(Plotting speed under)
G1 F4000


G1X14.0576Y-63.6882

G1X28.5463Y-72.7347

G1X36.3034Y-77.3277

G1X39.8438Y-79.2578

G1X42.6972Y-80.6491

G1X44.7553Y-81.4533

G1X45.5302Y-81.6566

G1X46.1436Y-81.7254

G1X46.5593Y-81.6594

G1X46.8067Y-81.4744

G1X46.9570Y-81.1076

G1X46.9802Y-80.5842

G1X46.6551Y-79.0451

G1X45.8067Y-76.8096

G1X44.4764Y-74.0101

G1X42.7222Y-70.7605

G1X40.6234Y-67.2085

G1X38.2823Y-63.5388

G1X36.1308Y-60.4010

G1X34.1213Y-57.6872

G1X32.2681Y-55.4229

G1X30.7708Y-53.8503

G1X29.7744Y-53.0326

G1X29.0127Y-52.6719

G1X28.2373Y-52.7425

G1X27.2640Y-53.2331

G1X26.1120Y-54.1597

G1X24.8153Y-55.5218

G1X23.4939Y-57.2033

G1X22.2732Y-59.0220

G1X21.1342Y-60.9940

G1X20.1791Y-62.9390

G1X19.3844Y-64.9083

G1X18.8211Y-66.7353

G1X18.5037Y-68.2761

G1X18.3748Y-69.7311

G1X18.4449Y-70.9785

G1X18.7170Y-72.1013

G1X19.2102Y-73.0749

G1X19.8783Y-73.8201

G1X20.7660Y-74.3981

G1X21.7854Y-74.7648

G1X22.9609Y-74.9582

G1X24.5363Y-75.0309

G1X26.5049Y-74.9793

G1X28.8687Y-74.8014

G1X34.6626Y-74.0803

G1X42.1126Y-72.8422

G1X49.7370Y-71.3810

G1X58.7091Y-69.5126

G1X87.9147Y-62.9742

G1X94.4563Y-61.6038

G1 Z0F20000

(Start Block)


G1X10.5833Y-63.3677
G1Z5F20000
(Plotting speed under)
G1 F4000


G1X14.1489Y-65.3850

G1X29.4324Y-74.3521

G1X37.6134Y-78.9262

G1X41.3743Y-80.8755

G1X44.3130Y-82.2504

G1X46.4798Y-83.0763

G1X47.8633Y-83.3523

G1X48.3055Y-83.2742

G1X48.5511Y-83.0077

G1X48.6233Y-82.5525

G1X48.5209Y-81.8695

G1X47.7774Y-79.9026

G1X46.3151Y-77.1427

G1X44.1784Y-73.6952

G1X41.4720Y-69.7485

G1X38.4564Y-65.6979

G1X35.5379Y-62.0860

G1X33.6661Y-59.9574

G1X32.0515Y-58.2900

G1X30.7330Y-57.1188

G1X29.6943Y-56.4399

G1X29.0360Y-56.2868

G1X28.2019Y-56.4494

G1X27.2659Y-56.9190

G1X26.1865Y-57.7194

G1X25.0669Y-58.7810

G1X23.9469Y-60.0568

G1X22.8662Y-61.4996

G1X21.9281Y-62.9553

G1X21.0912Y-64.4771

G1X20.3879Y-66.0266

G1X19.8827Y-67.4569

G1X19.5464Y-68.8473

G1X19.4084Y-70.0689

G1X19.4450Y-71.1153

G1X19.6539Y-72.0724

G1X20.0066Y-72.8493

G1X20.5264Y-73.5230

G1X21.2250Y-74.0795

G1X22.1144Y-74.5050

G1X23.0876Y-74.7643

G1X24.3275Y-74.9057

G1X25.9116Y-74.9412

G1X30.2093Y-74.7037

G1X36.0049Y-74.0476

G1X43.2068Y-72.9861

G1X50.6393Y-71.7349

G1X59.4008Y-70.1384

G1X88.0262Y-64.5452

G1X94.4563Y-63.3677

G1 Z0F20000

(Start Block)


G1X10.5833Y-65.1316
G1Z5F20000
(Plotting speed under)
G1 F4000


G1X30.4929Y-76.0615

G1X39.1001Y-80.6092

G1X42.9750Y-82.5198

G1X45.9911Y-83.8752

G1X48.1964Y-84.6979

G1X49.6081Y-84.9856

G1X50.0736Y-84.8721

G1X50.2564Y-84.5067

G1X50.1784Y-83.8588

G1X49.8440Y-82.9735

G1X49.2367Y-81.8053

G1X48.3446Y-80.3515

G1X45.8598Y-76.8377

G1X42.3168Y-72.3774

G1X38.3627Y-67.8247

G1X34.6583Y-63.9339

G1X31.7067Y-61.2298

G1X30.6207Y-60.4230

G1X29.8515Y-60.0106

G1X29.1710Y-59.9045

G1X28.3313Y-60.0495

G1X27.2598Y-60.5231

G1X26.0507Y-61.3420

G1X24.8325Y-62.4252

G1X23.5853Y-63.8051

G1X22.0793Y-65.9508

G1X21.4655Y-67.0794

G1X21.0126Y-68.1112

G1X20.6768Y-69.1303

G1X20.4745Y-70.1193

G1X20.4220Y-71.0603

G1X20.5163Y-71.8519

G1X20.7572Y-72.5777

G1X21.1040Y-73.1573

G1X21.5843Y-73.6657

G1X22.2067Y-74.0940

G1X22.9794Y-74.4333

G1X23.7854Y-74.6499

G1X24.7186Y-74.7854

G1X25.9776Y-74.8494

G1X29.3884Y-74.7618

G1X33.9317Y-74.3947

G1X39.6202Y-73.7528

G1X46.5839Y-72.8204

G1X61.2759Y-70.5788

G1X88.0644Y-66.1284

G1X94.4563Y-65.1316

G1 Z0F20000

(Start Block)


G1X10.5833Y-66.8955
G1Z5F20000
(Plotting speed under)
G1 F4000


G1X31.3826Y-77.6708

G1X40.5218Y-82.2473

G1X44.6017Y-84.1674

G1X47.7563Y-85.5317

G1X50.0209Y-86.3541

G1X51.3722Y-86.6259

G1X51.7839Y-86.5067

G1X51.8997Y-86.1110

G1X51.7104Y-85.4639

G1X51.2082Y-84.5331

G1X49.3469Y-81.9720

G1X46.3665Y-78.5006

G1X42.1771Y-74.0758

G1X37.6871Y-69.6948

G1X33.7247Y-66.1611

G1X32.1640Y-64.9113

G1X30.9603Y-64.0649

G1X30.1105Y-63.6208

G1X29.2175Y-63.4910

G1X28.2245Y-63.6492

G1X27.0828Y-64.1011

G1X25.8337Y-64.8602

G1X24.6265Y-65.8425

G1X23.4522Y-67.0740

G1X22.5352Y-68.3264

G1X21.7825Y-69.8001

G1X21.5527Y-70.5271

G1X21.4364Y-71.2324

G1X21.4371Y-71.8229

G1X21.5418Y-72.3807

G1X21.7586Y-72.8982

G1X22.0953Y-73.3678

G1X22.9748Y-74.0395

G1X24.2706Y-74.5102

G1X25.8585Y-74.7326

G1X28.1682Y-74.7615

G1X31.7166Y-74.6015

G1X36.2661Y-74.2453

G1X48.6054Y-72.9285

G1X62.4069Y-71.1900

G1X94.4563Y-66.8955

G1 Z0F20000

(Start Block)


G1X10.5833Y-68.6594
G1Z5F20000
(Plotting speed under)
G1 F4000


G1X32.3929Y-79.3367

G1X42.0527Y-83.9272

G1X46.3209Y-85.8474

G1X49.5187Y-87.1826

G1X51.7857Y-87.9946

G1X53.1213Y-88.2738

G1X53.4813Y-88.1539

G1X53.5240Y-87.8045

G1X53.2779Y-87.2476

G1X52.7278Y-86.4505

G1X50.7232Y-84.1829

G1X47.5609Y-81.0821

G1X43.1332Y-77.0849

G1X38.2009Y-72.9129

G1X33.8415Y-69.4826

G1X30.9855Y-67.5201

G1X30.1428Y-67.1469

G1X29.1479Y-67.0199

G1X28.0825Y-67.1399

G1X26.8931Y-67.5099

G1X25.6387Y-68.1391

G1X24.4928Y-68.9474

G1X23.5301Y-69.8751

G1X22.8688Y-70.7855

G1X22.4685Y-71.7742

G1X22.4538Y-72.6389

G1X22.7913Y-73.3496

G1X23.5110Y-73.9445

G1X24.5351Y-74.3544

G1X25.7870Y-74.5934

G1X27.2307Y-74.6867

G1X29.6195Y-74.6629

G1X37.6702Y-74.2021

G1X49.8061Y-73.1728

G1X94.4563Y-68.6594

G1 Z0F20000

(Start Block)


G1X10.5833Y-70.4233
G1Z5F20000
(Plotting speed under)
G1 F4000


G1X33.4680Y-81.0248

G1X43.6219Y-85.6117

G1X51.3595Y-88.8605

G1X53.6426Y-89.6666

G1X54.8675Y-89.9303

G1X55.1535Y-89.8321

G1X55.1459Y-89.5494

G1X54.8399Y-89.0610

G1X54.2553Y-88.4009

G1X52.2159Y-86.5140

G1X49.1384Y-83.9806

G1X44.5558Y-80.4516

G1X39.2830Y-76.5843

G1X34.2391Y-73.0547

G1X31.0309Y-70.9912

G1X30.1466Y-70.6339

G1X29.1956Y-70.4580

G1X28.1038Y-70.4483

G1X27.0212Y-70.6048

G1X25.8988Y-70.9325

G1X24.8292Y-71.4298

G1X24.0021Y-72.0219

G1X23.5281Y-72.6030

G1X23.3886Y-73.1280

G1X23.5417Y-73.5719

G1X23.9951Y-73.9655

G1X24.7839Y-74.2869

G1X25.7952Y-74.4939

G1X26.9396Y-74.6016

G1X30.2298Y-74.5886

G1X38.0790Y-74.2274

G1X50.0069Y-73.5026

G1X94.4563Y-70.4233

G1 Z0F20000

(Start Block)


G1X10.5833Y-72.1872
G1Z5F20000
(Plotting speed under)
G1 F4000


G1X34.4838Y-82.6772

G1X45.1578Y-87.2702

G1X53.1143Y-90.5026

G1X55.4363Y-91.3244

G1X56.6033Y-91.5969

G1X56.8095Y-91.5368

G1X56.7881Y-91.3538

G1X56.0396Y-90.5800

G1X54.3196Y-89.2601

G1X51.6594Y-87.4185

G1X43.9693Y-82.4463

G1X31.2070Y-74.5236

G1X29.6025Y-73.8762

G1X28.6554Y-73.6623

G1X27.6134Y-73.5357

G1X26.5386Y-73.5137

G1X25.5302Y-73.6022

G1X24.7334Y-73.7922

G1X24.3588Y-74.0342

G1X24.3787Y-74.1807

G1X24.5559Y-74.3005

G1X25.4109Y-74.5000

G1X26.8579Y-74.6025

G1X28.7967Y-74.5976

G1X94.4563Y-72.1872

G1 Z0F20000

(Start Block)


G1X10.5833Y-73.9511
G1Z5F20000
(Plotting speed under)
G1 F4000


G1X46.9416Y-89.0195

G1X55.1399Y-92.2449

G1X57.3433Y-93.0247

G1X58.3665Y-93.2776

G1X58.4663Y-93.2447

G1X58.4336Y-93.1508

G1X57.9629Y-92.7677

G1X55.4611Y-91.2646

G1X36.6938Y-81.1639

G1X33.5035Y-79.3604

G1X30.8241Y-77.7071

G1X28.8871Y-76.7880

G1X25.7254Y-75.5800

G1X25.3511Y-75.3693

G1X25.2915Y-75.2088

G1X25.6956Y-75.0234

G1X26.6289Y-74.8673

G1X30.8644Y-74.5040

G1X34.7953Y-74.3216

G1X40.6334Y-74.1776

G1X58.4139Y-74.0070

G1X94.4563Y-73.9511

G1 Z0F20000

(Start Block)


G1X10.5833Y-75.7150
G1Z5F20000
(Plotting speed under)
G1 F4000


G1X48.6191Y-90.7115

G1X57.0792Y-93.9539

G1X60.0941Y-94.9785

G1X58.4385Y-94.1580

G1X41.6399Y-86.8222

G1X37.2199Y-84.7467

G1X34.0950Y-83.1367

G1X32.4801Y-82.1545

G1X28.9035Y-79.6270

G1X27.4077Y-78.4403

G1X26.7661Y-77.7954

G1X26.3456Y-77.1868

G1X26.1934Y-76.6690

G1X26.2959Y-76.1883

G1X26.7435Y-75.7066

G1X27.4920Y-75.3151

G1X28.6012Y-74.9714

G1X30.1052Y-74.6787

G1X33.7801Y-74.3167

G1X39.4869Y-74.1721

G1X47.4055Y-74.2185

G1X57.6235Y-74.4482

G1X94.4563Y-75.7150

G1 Z0F20000

(Start Block)


G1X10.5833Y-77.4789
G1Z5F20000
(Plotting speed under)
G1 F4000


G1X61.7475Y-96.7108

G1X59.1217Y-95.9551

G1X54.1152Y-94.3481

G1X44.7709Y-91.1007

G1X38.1486Y-88.5071

G1X35.6503Y-87.3845

G1X33.8435Y-86.4440

G1X32.6616Y-85.6596

G1X30.7027Y-83.9851

G1X29.2839Y-82.5321

G1X28.1743Y-81.1101

G1X27.5041Y-79.9282

G1X27.1328Y-78.7802

G1X27.1116Y-77.7649

G1X27.4192Y-76.8919

G1X28.0194Y-76.1625

G1X28.8647Y-75.5715

G1X30.0179Y-75.0664

G1X31.5040Y-74.6588

G1X33.1377Y-74.3860

G1X34.9615Y-74.2250

G1X40.4441Y-74.1211

G1X48.1322Y-74.3351

G1X58.2009Y-74.8727

G1X94.4563Y-77.4789

G1 Z0F20000

(Start Block)


G1X10.5833Y-79.2428
G1Z5F20000
(Plotting speed under)
G1 F4000


G1X55.3008Y-95.2761

G1X61.6758Y-97.6554

G1X63.0646Y-98.2204

G1X63.3996Y-98.4293

G1X63.1791Y-98.4943

G1X60.6757Y-98.1186

G1X56.2080Y-97.1467

G1X50.9805Y-95.8434

G1X45.9504Y-94.4476

G1X41.8827Y-93.1919

G1X38.4493Y-91.9936

G1X35.7772Y-90.8968

G1X33.9120Y-89.9283

G1X33.2418Y-89.4687

G1X32.4379Y-88.7651

G1X30.8821Y-87.0692

G1X29.6444Y-85.2965

G1X28.6801Y-83.4006

G1X28.1229Y-81.6527

G1X27.9380Y-80.0294

G1X28.1251Y-78.5766

G1X28.6686Y-77.3232

G1X29.4024Y-76.4136

G1X30.4226Y-75.6242

G1X31.6382Y-75.0202

G1X33.1351Y-74.5527

G1X34.6761Y-74.2719

G1X36.6149Y-74.1047

G1X39.0415Y-74.0414

G1X42.0344Y-74.0835

G1X49.6099Y-74.4940

G1X59.3415Y-75.3412

G1X68.5197Y-76.3082

G1X88.7804Y-78.6595

G1X94.4563Y-79.2428

G1 Z0F20000

(Start Block)


G1X10.5833Y-81.0066
G1Z5F20000
(Plotting speed under)
G1 F4000


G1X53.4422Y-95.6533

G1X62.4129Y-98.9097

G1X64.4762Y-99.7628

G1X65.0437Y-100.1492

G1X64.8322Y-100.3099

G1X64.0811Y-100.3677

G1X61.0235Y-100.1477

G1X56.4806Y-99.5248

G1X51.3590Y-98.6260

G1X46.2775Y-97.5560

G1X42.0784Y-96.5056

G1X38.5703Y-95.4464

G1X35.8835Y-94.4187

G1X34.0655Y-93.4514

G1X33.3662Y-92.8962

G1X32.5723Y-92.0801

G1X31.1730Y-90.1653

G1X30.0167Y-87.9114

G1X29.1931Y-85.4552

G1X28.8061Y-83.1347

G1X28.7677Y-82.0365

G1X28.8347Y-80.9617

G1X28.9933Y-80.0149

G1X29.2511Y-79.1057

G1X29.6137Y-78.2432

G1X30.0869Y-77.4359

G1X30.9460Y-76.4153

G1X32.0488Y-75.5443

G1X33.3048Y-74.8906

G1X34.7970Y-74.4059

G1X36.3629Y-74.1303

G1X38.3646Y-73.9840

G1X40.8191Y-73.9652

G1X43.8084Y-74.0777

G1X51.1684Y-74.6956

G1X60.6716Y-75.8659

G1X71.0159Y-77.3826

G1X89.7849Y-80.3579

G1X94.4563Y-81.0066

G1 Z0F20000

(Start Block)


G1X10.5833Y-82.7705
G1Z5F20000
(Plotting speed under)
G1 F4000


G1X40.8708Y-92.5764

G1X54.5999Y-97.1336

G1X63.9180Y-100.4589

G1X66.0701Y-101.3806

G1X66.5293Y-101.6546

G1X66.6879Y-101.8638

G1X66.6615Y-101.9836

G1X66.5123Y-102.1001

G1X65.9080Y-102.2682

G1X63.4191Y-102.4086

G1X59.5230Y-102.2654

G1X54.7339Y-101.8530

G1X49.8044Y-101.2353

G1X45.1635Y-100.4675

G1X41.3589Y-99.6570

G1X38.1495Y-98.7645

G1X35.7568Y-97.8476

G1X34.8249Y-97.3598

G1X34.1446Y-96.8933

G1X33.3563Y-96.1175

G1X32.6310Y-95.1853

G1X31.9155Y-94.0262

G1X31.2743Y-92.7266

G1X30.7186Y-91.3123

G1X30.2866Y-89.9119

G1X29.9268Y-88.3496

G1X29.6969Y-86.8562

G1X29.5781Y-85.3502

G1X29.5752Y-83.9590

G1X29.6830Y-82.5921

G1X29.9087Y-81.2663

G1X30.2277Y-80.0935

G1X30.6588Y-78.9834

G1X31.2075Y-77.9493

G1X31.8188Y-77.0794

G1X32.8270Y-76.0324

G1X33.9587Y-75.2211

G1X35.2836Y-74.5913

G1X36.7292Y-74.1809

G1X38.4865Y-73.9482

G1X40.6068Y-73.8705

G1X43.1390Y-73.9381

G1X46.1690Y-74.1585

G1X53.2607Y-75.0160

G1X62.1856Y-76.4712

G1X71.9564Y-78.3203

G1X89.7246Y-81.9239

G1X94.4563Y-82.7705

G1 Z0F20000

(Start Block)


G1X10.5833Y-84.5344
G1Z5F20000
(Plotting speed under)
G1 F4000


G1X41.6467Y-94.1174

G1X55.7869Y-98.6271

G1X61.4106Y-100.5311

G1X65.3698Y-101.9863

G1X67.6633Y-102.9946

G1X68.1486Y-103.3049

G1X68.3322Y-103.5729

G1X68.2296Y-103.8318

G1X67.8387Y-104.0594

G1X66.2145Y-104.4296

G1X63.5645Y-104.6662

G1X60.0354Y-104.7504

G1X55.5437Y-104.6508

G1X51.0179Y-104.3691

G1X46.6310Y-103.9180

G1X42.7557Y-103.3338

G1X39.5359Y-102.6460

G1X36.9523Y-101.8499

G1X35.1508Y-100.9966

G1X34.5462Y-100.5670

G1X34.0165Y-100.0451

G1X33.2217Y-98.9980

G1X32.5041Y-97.7304

G1X31.8728Y-96.2750

G1X31.3084Y-94.5651

G1X30.8615Y-92.7193

G1X30.5569Y-90.8861

G1X30.3757Y-88.9985

G1X30.3269Y-87.0889

G1X30.4100Y-85.3006

G1X30.6257Y-83.5486

G1X30.9552Y-81.9632

G1X31.4142Y-80.4557

G1X31.9648Y-79.1387

G1X32.6386Y-77.9272

G1X33.4407Y-76.8391

G1X34.3047Y-75.9553

G1X35.4496Y-75.1062

G1X36.6665Y-74.4976

G1X37.9458Y-74.1041

G1X39.4579Y-73.8733

G1X41.4729Y-73.7819

G1X43.7915Y-73.8517

G1X46.4732Y-74.0770

G1X49.6090Y-74.4705

G1X56.2829Y-75.6012

G1X64.4189Y-77.3045

G1X73.2448Y-79.3831

G1X89.6654Y-83.4760

G1X94.4563Y-84.5344

G1 Z0F20000

(Start Block)


G1X10.5833Y-86.2983
G1Z5F20000
(Plotting speed under)
G1 F4000


G1X42.4851Y-95.6807

G1X56.9413Y-100.1128

G1X62.8009Y-102.0473

G1X66.8719Y-103.5329

G1X69.2544Y-104.6043

G1X69.7663Y-104.9489

G1X69.9762Y-105.2757

G1X69.9411Y-105.4995

G1X69.7610Y-105.7147

G1X68.9460Y-106.1356

G1X67.6007Y-106.5102

G1X65.7030Y-106.8470

G1X63.3896Y-107.1207

G1X60.6189Y-107.3324

G1X54.6654Y-107.4995

G1X50.1175Y-107.4012

G1X45.8152Y-107.1087

G1X42.0961Y-106.6435

G1X39.0742Y-106.0311

G1X36.8755Y-105.3317

G1X35.3054Y-104.5168

G1X34.8118Y-104.1165

G1X34.3217Y-103.5741

G1X33.3858Y-102.1152

G1X32.7178Y-100.6262

G1X32.1256Y-98.8268

G1X31.6550Y-96.8340

G1X31.3141Y-94.6926

G1X31.1110Y-92.4478

G1X31.0539Y-90.1449

G1X31.1421Y-87.9442

G1X31.3761Y-85.7703

G1X31.7386Y-83.7706

G1X32.2122Y-81.9656

G1X32.8184Y-80.2701

G1X33.5143Y-78.7991

G1X34.3362Y-77.4727

G1X35.2247Y-76.3810

G1X36.2309Y-75.4558

G1X37.3583Y-74.7160

G1X38.5227Y-74.2096

G1X39.7406Y-73.9037

G1X41.3093Y-73.7266

G1X43.1165Y-73.6982

G1X45.3160Y-73.8213

G1X47.7375Y-74.0896

G1X53.5658Y-75.0895

G1X59.6302Y-76.4538

G1X66.8122Y-78.3236

G1X74.5598Y-80.5305

G1X89.5371Y-84.9932

G1X94.4563Y-86.2983

G1 Z0F20000

(Start Block)


G1X10.5833Y-88.0622
G1Z5F20000
(Plotting speed under)
G1 F4000


G1X43.2595Y-97.2275

G1X58.1261Y-101.6111

G1X64.1221Y-103.5411

G1X68.3796Y-105.0812

G1X70.8451Y-106.2112

G1X71.4098Y-106.6138

G1X71.6200Y-106.9731

G1X71.5707Y-107.2791

G1X71.2937Y-107.6064

G1X70.7999Y-107.9274

G1X70.0442Y-108.2637

G1X68.0043Y-108.8751

G1X65.2088Y-109.4410

G1X61.7537Y-109.9318

G1X58.0436Y-110.2924

G1X54.1292Y-110.5208

G1X50.3123Y-110.5964

G1X46.2006Y-110.4909

G1X42.5357Y-110.1762

G1X39.5567Y-109.6747

G1X37.2213Y-108.9839

G1X35.8065Y-108.2657

G1X35.3025Y-107.8705

G1X34.8438Y-107.3684

G1X34.3393Y-106.6462

G1X33.8759Y-105.7970

G1X33.0773Y-103.7600

G1X32.5840Y-101.9299

G1X32.1842Y-99.8086

G1X31.9102Y-97.5270

G1X31.7669Y-95.1299

G1X31.7590Y-92.6624

G1X31.8818Y-90.2879

G1X32.1360Y-87.9291

G1X32.5030Y-85.7380

G1X32.9667Y-83.7378

G1X33.5465Y-81.8397

G1X34.2452Y-80.0722

G1X35.0172Y-78.5484

G1X35.9006Y-77.1899

G1X36.8362Y-76.0840

G1X37.8748Y-75.1656

G1X38.9441Y-74.4927

G1X40.1059Y-74.0192

G1X41.3991Y-73.7394

G1X42.9763Y-73.6096

G1X44.8456Y-73.6383

G1X47.0101Y-73.8316

G1X49.4680Y-74.1925

G1X52.1071Y-74.6990

G1X55.1171Y-75.3866

G1X60.9263Y-76.9467

G1X67.7977Y-79.0571

G1X75.2059Y-81.5329

G1X89.5830Y-86.5463

G1X94.4563Y-88.0622

G1 Z0F20000

(Start Block)


G1X10.5833Y-89.8261
G1Z5F20000
(Plotting speed under)
G1 F4000


G1X44.0967Y-98.7947

G1X59.2775Y-103.1016

G1X65.4239Y-105.0301

G1X69.8187Y-106.6019

G1X71.3359Y-107.2464

G1X72.4023Y-107.7956

G1X72.9996Y-108.2233

G1X73.2580Y-108.6375

G1X73.1998Y-109.0619

G1X72.8475Y-109.4923

G1X72.2240Y-109.9248

G1X71.2856Y-110.3836

G1X68.6708Y-111.2747

G1X65.1387Y-112.1211

G1X60.8655Y-112.8710

G1X56.3507Y-113.4358

G1X51.8582Y-113.7886

G1X47.6092Y-113.9098

G1X43.9058Y-113.7943

G1X40.7368Y-113.4448

G1X38.1993Y-112.8611

G1X37.1988Y-112.4866

G1X36.4204Y-112.0838

G1X35.8395Y-111.6647

G1X35.3489Y-111.1491

G1X34.8780Y-110.4762

G1X34.4150Y-109.6135

G1X33.6285Y-107.5030

G1X33.0322Y-104.9556

G1X32.7126Y-102.8135

G1X32.4977Y-100.4033

G1X32.4077Y-97.8669

G1X32.4404Y-95.3690

G1X32.5912Y-92.8353

G1X32.8619Y-90.3045

G1X33.2332Y-87.9323

G1X33.7170Y-85.6313

G1X34.2823Y-83.5416

G1X34.9144Y-81.6750

G1X35.6416Y-79.9430

G1X36.4652Y-78.3702

G1X37.3328Y-77.0528

G1X38.2886Y-75.9197

G1X39.3337Y-74.9911

G1X40.3998Y-74.3226

G1X41.5412Y-73.8723

G1X42.8833Y-73.6064

G1X44.5036Y-73.5103

G1X46.3255Y-73.5863

G1X48.5102Y-73.8474

G1X50.8818Y-74.2768

G1X53.5178Y-74.8823

G1X56.4064Y-75.6608

G1X62.0492Y-77.4283

G1X68.5969Y-79.7567

G1X75.6634Y-82.4808

G1X89.7200Y-88.1284

G1X94.4563Y-89.8261

G1 Z0F20000

(Start Block)


G1X10.5833Y-91.5900
G1Z5F20000
(Plotting speed under)
G1 F4000


G1X16.5456Y-93.1683

G1X44.9972Y-100.3800

G1X53.4691Y-102.6375

G1X60.4605Y-104.6041

G1X66.7419Y-106.5263

G1X71.2624Y-108.1243

G1X72.8133Y-108.7827

G1X73.9573Y-109.3759

G1X74.6440Y-109.8840

G1X74.9011Y-110.3232

G1X74.8433Y-110.8151

G1X74.4340Y-111.3578

G1X73.6958Y-111.9144

G1X72.5894Y-112.5116

G1X71.1840Y-113.1085

G1X69.5155Y-113.6973

G1X65.4116Y-114.8474

G1X60.5242Y-115.8826

G1X55.4288Y-116.6764

G1X50.4512Y-117.1783

G1X45.9930Y-117.3482

G1X42.6729Y-117.2269

G1X39.9073Y-116.8557

G1X38.7646Y-116.5798

G1X37.7631Y-116.2366

G1X36.9161Y-115.8230

G1X36.2833Y-115.3760

G1X35.7696Y-114.8288

G1X35.2678Y-114.0706

G1X34.8164Y-113.1559

G1X34.3907Y-112.0214

G1X33.7301Y-109.4114

G1X33.2765Y-106.2436

G1X33.0998Y-103.8478

G1X33.0332Y-101.2014

G1X33.0829Y-98.5746

G1X33.2439Y-95.8937

G1X33.5165Y-93.1973

G1X33.8813Y-90.6445

G1X34.3484Y-88.1465

G1X34.9183Y-85.7367

G1X35.5569Y-83.5546

G1X36.2503Y-81.6103

G1X37.0287Y-79.8170

G1X37.8446Y-78.2798

G1X38.7370Y-76.9215

G1X39.6504Y-75.8221

G1X40.6324Y-74.9188

G1X41.6833Y-74.2297

G1X42.8154Y-73.7683

G1X44.1755Y-73.4986

G1X45.8092Y-73.4198

G1X47.6389Y-73.5329

G1X49.7347Y-73.8379

G1X52.0953Y-74.3395

G1X54.6108Y-75.0080

G1X57.4709Y-75.8936

G1X62.9349Y-77.8519

G1X69.2752Y-80.4236

G1X76.2322Y-83.4798

G1X89.7783Y-89.6785

G1X92.5321Y-90.8598

G1X94.4563Y-91.5900

G1 Z0F20000

(Start Block)


G1X10.5833Y-93.3539
G1Z5F20000
(Plotting speed under)
G1 F4000


G1X16.7801Y-94.9272

G1X45.6423Y-101.9014

G1X54.3924Y-104.1381

G1X61.5345Y-106.0778

G1X68.0585Y-108.0236

G1X72.7041Y-109.6458

G1X74.3365Y-110.3391

G1X75.5095Y-110.9522

G1X76.2317Y-111.4853

G1X76.5363Y-111.9744

G1X76.4868Y-112.5664

G1X76.0538Y-113.1941

G1X75.2168Y-113.8857

G1X74.0277Y-114.5967

G1X72.4379Y-115.3547

G1X70.5458Y-116.1104

G1X65.9117Y-117.6012

G1X60.5841Y-118.9263

G1X54.9512Y-119.9805

G1X49.6641Y-120.6360

G1X47.2157Y-120.8050

G1X45.0207Y-120.8614

G1X41.9256Y-120.7271

G1X39.4111Y-120.3142

G1X38.3981Y-120.0071

G1X37.5918Y-119.6573

G1X36.8693Y-119.2033

G1X36.3555Y-118.7162

G1X35.8398Y-117.9870

G1X35.3521Y-117.0224

G1X34.9261Y-115.8775

G1X34.5613Y-114.5676

G1X34.0016Y-111.4178

G1X33.6916Y-107.6602

G1X33.6330Y-105.0517

G1X33.6819Y-102.3269

G1X33.8374Y-99.5241

G1X34.0986Y-96.6819

G1X34.4644Y-93.8386

G1X34.9115Y-91.1534

G1X35.4526Y-88.5360

G1X36.0561Y-86.1318

G1X36.7438Y-83.8493

G1X37.4765Y-81.8153

G1X38.2843Y-79.9436

G1X39.1207Y-78.3386

G1X40.0237Y-76.9245

G1X40.9403Y-75.7804

G1X41.9158Y-74.8455

G1X42.9497Y-74.1382

G1X44.0889Y-73.6609

G1X45.4605Y-73.3914

G1X47.0238Y-73.3310

G1X48.8436Y-73.4745

G1X50.9230Y-73.8302

G1X53.1638Y-74.3761

G1X55.6446Y-75.1250

G1X58.4622Y-76.1141

G1X63.8372Y-78.2946

G1X69.9496Y-81.0953

G1X76.6617Y-84.4218

G1X89.9351Y-91.2721

G1X92.5649Y-92.5440

G1X94.4563Y-93.3539

G1 Z0F20000

(Start Block)


G1X10.5833Y-95.1178
G1Z5F20000
(Plotting speed under)
G1 F4000


G1X16.9275Y-96.6641

G1X46.4144Y-103.4586

G1X55.3146Y-105.6422

G1X62.6067Y-107.5548

G1X69.2850Y-109.4942

G1X74.0796Y-111.1415

G1X75.8082Y-111.8705

G1X77.0590Y-112.5249

G1X77.8389Y-113.1042

G1X78.1692Y-113.6179

G1X78.2108Y-113.9217

G1X78.1454Y-114.2743

G1X77.6818Y-115.0209

G1X76.7547Y-115.8527

G1X75.4232Y-116.7188

G1X73.7347Y-117.6045

G1X71.6342Y-118.5373

G1X69.2482Y-119.4584

G1X66.5074Y-120.3904

G1X60.6512Y-122.0492

G1X54.6666Y-123.3435

G1X51.8481Y-123.8072

G1X49.1186Y-124.1512

G1X46.6451Y-124.3539

G1X44.4470Y-124.4218

G1X41.4576Y-124.2662

G1X40.2043Y-124.0690

G1X39.1681Y-123.8095

G1X38.2660Y-123.4728

G1X37.5095Y-123.0555

G1X36.9499Y-122.5956

G1X36.4825Y-122.0107

G1X35.9728Y-121.0966

G1X35.5296Y-119.9821

G1X35.1520Y-118.6832

G1X34.8234Y-117.1303

G1X34.3785Y-113.5394

G1X34.2088Y-109.3155

G1X34.2450Y-106.5161

G1X34.3860Y-103.6108

G1X34.9738Y-97.6366

G1X35.9315Y-91.8227

G1X36.5332Y-89.0787

G1X37.1883Y-86.5587

G1X37.9196Y-84.1710

G1X38.6873Y-82.0426

G1X39.5216Y-80.0877

G1X40.3769Y-78.4108

G1X41.2901Y-76.9370

G1X42.2103Y-75.7454

G1X43.1807Y-74.7763

G1X44.1455Y-74.0809

G1X45.2474Y-73.5860

G1X46.6116Y-73.2989

G1X48.1623Y-73.2415

G1X49.9638Y-73.4083

G1X52.0189Y-73.8082

G1X54.2304Y-74.4166

G1X56.6758Y-75.2477

G1X59.4501Y-76.3423

G1X64.6245Y-78.6956

G1X70.6216Y-81.7726

G1X77.0918Y-85.3623

G1X90.0152Y-92.8282

G1X92.5982Y-94.2271

G1X94.4563Y-95.1178

G1 Z0F20000

(Start Block)


G1X10.5833Y-96.8817
G1Z5F20000
(Plotting speed under)
G1 F4000


G1X17.0749Y-98.4013

G1X47.1859Y-105.0182

G1X56.1140Y-107.1199

G1X63.5675Y-109.0057

G1X70.4185Y-110.9390

G1X75.3851Y-112.6110

G1X77.1722Y-113.3519

G1X78.5316Y-114.0495

G1X79.3791Y-114.6569

G1X79.7884Y-115.2233

G1X79.8569Y-115.5716

G1X79.8024Y-115.9765

G1X79.3426Y-116.8052

G1X78.3999Y-117.7380

G1X76.9628Y-118.7651

G1X75.1201Y-119.8257

G1X72.8259Y-120.9467

G1X70.2161Y-122.0599

G1X67.3549Y-123.1427

G1X64.1766Y-124.2139

G1X61.0021Y-125.1644

G1X57.7719Y-126.0158

G1X54.6837Y-126.7177

G1X51.6602Y-127.2878

G1X48.8809Y-127.6915

G1X46.3769Y-127.9314

G1X44.0624Y-128.0138

G1X41.2575Y-127.8408

G1X40.0957Y-127.6276

G1X39.0765Y-127.3239

G1X38.2689Y-126.9570

G1X37.6055Y-126.5046

G1X37.1090Y-125.9819

G1X36.6556Y-125.2748

G1X36.1829Y-124.2312

G1X35.7610Y-122.9112

G1X35.4153Y-121.3834

G1X35.1442Y-119.6676

G1X34.8154Y-115.6453

G1X34.7833Y-110.9691

G1X35.1281Y-104.9200

G1X35.8666Y-98.6387

G1X36.9494Y-92.5547

G1X37.6027Y-89.6893

G1X38.3331Y-86.9450

G1X39.1032Y-84.4604

G1X39.9018Y-82.2448

G1X40.7590Y-80.2135

G1X41.6299Y-78.4704

G1X42.5506Y-76.9418

G1X43.4721Y-75.7065

G1X44.4357Y-74.7062

G1X45.3886Y-73.9916

G1X46.5184Y-73.4734

G1X47.8202Y-73.1995

G1X49.3589Y-73.1548

G1X51.1408Y-73.3529

G1X53.1682Y-73.8034

G1X55.3452Y-74.4785

G1X57.7483Y-75.3943

G1X60.3673Y-76.5473

G1X65.4297Y-79.1091

G1X71.1803Y-82.3894

G1X77.6027Y-86.3519

G1X90.1160Y-94.3934

G1X92.6394Y-95.9134

G1X94.4563Y-96.8817

G1 Z0F20000

(Start Block)


G1X10.5833Y-98.6455
G1Z5F20000
(Plotting speed under)
G1 F4000


G1X17.2223Y-100.1385

G1X47.9571Y-106.5800

G1X57.1562Y-108.6601

G1X64.7464Y-110.5178

G1X71.7301Y-112.4407

G1X76.8190Y-114.1306

G1X78.6888Y-114.9028

G1X80.0742Y-115.6149

G1X80.9803Y-116.2658

G1X81.4172Y-116.8584

G1X81.5025Y-117.2532

G1X81.4579Y-117.6738

G1X81.2892Y-118.1180

G1X80.9702Y-118.6269

G1X79.9913Y-119.6631

G1X78.5024Y-120.8111

G1X76.5063Y-122.0552

G1X74.1217Y-123.3230

G1X71.4152Y-124.5888

G1X68.3303Y-125.8752

G1X65.0440Y-127.1024

G1X61.6311Y-128.2412

G1X58.2998Y-129.2259

G1X54.9872Y-130.0762

G1X51.8865Y-130.7422

G1X48.9233Y-131.2377

G1X46.2670Y-131.5315

G1X43.9428Y-131.6278

G1X42.5030Y-131.5807

G1X41.1975Y-131.4358

G1X40.1128Y-131.2074

G1X39.1691Y-130.8843

G1X38.3783Y-130.4621

G1X37.7909Y-129.9773

G1X37.3236Y-129.3723

G1X36.8897Y-128.5635

G1X36.4490Y-127.4005

G1X36.0656Y-125.9519

G1X35.7616Y-124.2903

G1X35.5350Y-122.4360

G1X35.3022Y-118.0169

G1X35.3873Y-112.9116

G1X35.8804Y-106.4101

G1X36.7478Y-99.8190

G1X37.9382Y-93.4516

G1X39.4042Y-87.5866

G1X40.2051Y-84.9857

G1X41.0280Y-82.6623

G1X41.9025Y-80.5315

G1X42.7848Y-78.6985

G1X43.7097Y-77.0898

G1X44.6300Y-75.7850

G1X45.5851Y-74.7266

G1X46.5728Y-73.9348

G1X47.6734Y-73.3967

G1X49.0275Y-73.1000

G1X50.5536Y-73.0698

G1X52.2352Y-73.2857

G1X54.2277Y-73.7779

G1X56.3640Y-74.5121

G1X58.7190Y-75.5057

G1X61.2831Y-76.7548

G1X66.2328Y-79.5265

G1X71.8476Y-83.0710

G1X78.0085Y-87.2765

G1X90.2172Y-95.9577

G1X92.6808Y-97.5994

G1X94.4563Y-98.6455

G1 Z0F20000

(Start Block)


G1X10.5833Y-100.4094
G1Z5F20000
(Plotting speed under)
G1 F4000


G1X17.3697Y-101.8760

G1X48.7278Y-108.1438

G1X58.0756Y-110.1736

G1X65.8141Y-112.0036

G1X73.0406Y-113.9435

G1X78.2514Y-115.6499

G1X80.1502Y-116.4283

G1X81.6147Y-117.1779

G1X82.5555Y-117.8493

G1X83.0447Y-118.4900

G1X83.1449Y-118.8926

G1X83.1129Y-119.3641

G1X82.9400Y-119.8665

G1X82.6328Y-120.3969

G1X81.5911Y-121.5796

G1X80.0569Y-122.8459

G1X78.0040Y-124.2239

G1X75.4509Y-125.6904

G1X72.5443Y-127.1609

G1X69.2385Y-128.6556

G1X65.7201Y-130.0838

G1X62.2059Y-131.3643

G1X58.6500Y-132.5170

G1X55.2576Y-133.4761

G1X52.0898Y-134.2315

G1X49.0756Y-134.7971

G1X46.3830Y-135.1379

G1X43.9418Y-135.2575

G1X42.4805Y-135.2032

G1X41.2479Y-135.0477

G1X40.1615Y-134.7856

G1X39.2912Y-134.4397

G1X38.6167Y-134.0270

G1X38.0797Y-133.5225

G1X37.5896Y-132.7926

G1X37.1731Y-131.8935

G1X36.7605Y-130.6257

G1X36.4109Y-129.0635

G1X36.1436Y-127.2827

G1X35.9494Y-125.2099

G1X35.8116Y-120.5128

G1X36.0041Y-115.0009

G1X36.6150Y-108.1966

G1X37.6068Y-101.1853

G1X38.9144Y-94.4180

G1X40.4529Y-88.3027

G1X41.2805Y-85.5859

G1X42.1243Y-83.1532

G1X43.0132Y-80.9201

G1X43.9440Y-78.9139

G1X44.8725Y-77.2295

G1X45.8339Y-75.8025

G1X46.7818Y-74.7008

G1X47.7548Y-73.8777

G1X48.8839Y-73.2999

G1X50.1642Y-73.0082

G1X51.6665Y-72.9808

G1X53.3961Y-73.2331

G1X55.2705Y-73.7480

G1X57.3609Y-74.5382

G1X59.6624Y-75.6058

G1X62.1653Y-76.9467

G1X66.9914Y-79.9197

G1X72.4595Y-83.7196

G1X78.4543Y-88.2264

G1X90.3282Y-97.5280

G1X92.7260Y-99.2876

G1X94.4563Y-100.4094

G1 Z0F20000


G00 X0.0000 Y0.0000


