$H
G21
G17
G90
G1 Z0F20000
G1 F15000
(Start Layer)
(Start Block)

G1X21.1667Y-147.7700
G1Z4.7F20000
(Plotting speed under)
G1 F8000

G1X26.0670Y-151.3446
G1X27.8888Y-152.4625
G1X29.6791Y-153.3977
G1X31.8574Y-154.3366
G1X34.0557Y-155.0877
G1X36.2937Y-155.6617
G1X38.3363Y-155.9973
G1X41.1985Y-156.1452
G1X44.4040Y-155.9602
G1X53.1777Y-154.8355
G1X61.1208Y-153.5127
G1X63.3977Y-153.2005
G1X71.1791Y-152.6550
G1X77.3457Y-152.0209
G1X80.0958Y-151.9543
G1X83.1822Y-152.2167
G1X86.8119Y-152.8299
G1X102.1600Y-156.0037
G1X110.9269Y-158.0403
G1X113.6036Y-158.7750
G1X115.8696Y-159.5931
G1X117.9717Y-160.5507
G1X124.4479Y-163.8391
G1X127.6373Y-165.3248
G1X130.7654Y-166.5660
G1X133.9785Y-167.5501
G1X137.9083Y-168.4845
G1X141.4245Y-169.0780
G1X145.0832Y-169.3794
G1X151.2740Y-169.4353
G1X153.2206Y-169.5411
G1X155.6033Y-169.9300
G1X157.9328Y-170.6279
G1X165.2982Y-173.5764
G1X168.7581Y-175.1958
G1X176.3700Y-179.1646
G1X183.3922Y-183.4882
G1X189.1444Y-186.6931
G1X191.9199Y-188.1416
G1X194.5698Y-189.3510
G1X198.1435Y-190.7844
G1X201.5316Y-192.0229
G1X209.9531Y-194.6030
G1X213.6536Y-195.5054
G1X217.4120Y-195.9976
G1X223.7059Y-196.4445
G1X227.4870Y-196.5941
G1X230.8107Y-196.5187
G1X234.0082Y-196.1961
G1X235.8222Y-195.8826
G1X237.7331Y-195.4406
G1X245.0781Y-193.3448
G1X252.6293Y-191.7219
G1X254.8530Y-191.0776
G1X256.6730Y-190.3870
G1X258.0265Y-189.7146
G1X259.2319Y-188.9501
G1X260.3645Y-188.0498
G1X261.4926Y-186.9555
G1X262.7532Y-185.5241
G1X266.3324Y-181.1584
G1X270.9034Y-176.0105
G1X275.1451Y-170.8072
G1 Z0F20000
(Start Block)

G1X21.1667Y-170.2596
G1Z4.7F20000
(Plotting speed under)
G1 F8000

G1X29.8968Y-167.4770
G1X40.2597Y-164.5826
G1X42.3420Y-163.8449
G1X47.2193Y-161.9041
G1X50.7397Y-160.7137
G1X61.6330Y-157.5379
G1X64.2155Y-156.9264
G1X66.7200Y-156.5862
G1X75.4095Y-155.8385
G1X79.3029Y-155.6373
G1X82.3957Y-155.7692
G1X86.6220Y-156.1912
G1X91.0837Y-156.5316
G1X93.8209Y-156.8550
G1X105.8531Y-158.8255
G1X110.4879Y-159.7302
G1X113.2866Y-160.4416
G1X115.1560Y-161.0768
G1X116.9566Y-161.8328
G1X124.3640Y-165.4934
G1X127.6601Y-166.9753
G1X130.9557Y-168.1731
G1X134.5248Y-169.1506
G1X138.5856Y-170.0007
G1X142.3401Y-170.5351
G1X145.1999Y-170.7521
G1X151.1600Y-170.9206
G1X153.2185Y-171.0833
G1X155.2563Y-171.4541
G1X157.3664Y-172.0759
G1X165.7649Y-175.2733
G1X174.4624Y-179.4890
G1X177.6468Y-181.2657
G1X183.0486Y-184.7559
G1X185.7472Y-186.3868
G1X189.6407Y-188.5565
G1X192.7145Y-190.0668
G1X196.3987Y-191.6478
G1X200.8513Y-193.3862
G1X210.4966Y-196.8012
G1X213.2646Y-197.6584
G1X216.9772Y-198.4951
G1X226.0471Y-200.0720
G1X241.5146Y-202.3436
G1X244.1118Y-202.8692
G1X249.0526Y-204.0436
G1X251.5455Y-204.4839
G1X253.9439Y-204.7238
G1X260.1279Y-205.0600
G1X267.5442Y-205.8939
G1X270.9819Y-206.0192
G1X274.8800Y-206.0200
G1 Z0F20000
(Start Block)

G1X21.1667Y-176.8743
G1Z4.7F20000
(Plotting speed under)
G1 F8000

G1X26.3199Y-172.9149
G1X28.8207Y-171.1138
G1X31.2401Y-169.6027
G1X33.8468Y-168.2756
G1X36.3684Y-167.2082
G1X41.2818Y-165.3317
G1X46.3289Y-163.1006
G1X49.1203Y-162.0067
G1X52.5379Y-160.8822
G1X62.3123Y-157.9964
G1X64.4497Y-157.5136
G1X66.6121Y-157.2126
G1X75.6455Y-156.4502
G1X78.5086Y-156.3000
G1X81.8318Y-156.3874
G1X93.3785Y-157.3761
G1X106.7881Y-159.4422
G1X110.6351Y-160.1674
G1X113.2111Y-160.8157
G1X115.0823Y-161.4437
G1X116.9155Y-162.2068
G1X124.3286Y-165.8523
G1X127.5375Y-167.2797
G1X130.7897Y-168.4476
G1X134.4728Y-169.4441
G1X138.5356Y-170.2809
G1X142.2904Y-170.8129
G1X145.1499Y-171.0376
G1X151.1092Y-171.2372
G1X153.1672Y-171.4086
G1X155.2044Y-171.7844
G1X157.4247Y-172.4428
G1X163.3224Y-174.6162
G1X165.5652Y-175.5168
G1X174.5412Y-179.8458
G1X177.7201Y-181.6354
G1X183.1080Y-185.1540
G1X185.7128Y-186.7471
G1X189.3383Y-188.7749
G1X192.4099Y-190.2913
G1X195.9972Y-191.8475
G1X200.4581Y-193.6167
G1X210.5161Y-197.2819
G1X213.2757Y-198.1746
G1X215.4003Y-198.7286
G1X217.7673Y-199.2371
G1X226.2486Y-200.8731
G1X233.2752Y-202.1133
G1X238.1290Y-203.1094
G1X241.7215Y-203.9676
G1X247.8342Y-205.7538
G1X250.3069Y-206.3248
G1X252.9279Y-206.6491
G1X257.6264Y-206.8084
G1X259.6839Y-206.9881
G1X261.6131Y-207.3060
G1X267.4769Y-208.5432
G1X274.6643Y-209.3654
G1 Z0F20000
(Start Block)

G1X21.1667Y-175.5513
G1Z4.7F20000
(Plotting speed under)
G1 F8000

G1X26.3222Y-172.0219
G1X28.6382Y-170.5281
G1X30.9336Y-169.2343
G1X33.3905Y-168.0794
G1X35.8982Y-167.0795
G1X41.1469Y-165.1708
G1X46.3928Y-162.9054
G1X49.3464Y-161.7754
G1X52.5479Y-160.7411
G1X62.7720Y-157.7497
G1X64.6892Y-157.3467
G1X66.8536Y-157.0653
G1X75.7728Y-156.3146
G1X78.7507Y-156.1661
G1X81.9590Y-156.2650
G1X86.5296Y-156.6983
G1X91.1077Y-157.0097
G1X93.5045Y-157.2729
G1X106.6834Y-159.3330
G1X110.5299Y-160.0619
G1X113.2182Y-160.7367
G1X115.0892Y-161.3657
G1X116.8917Y-162.1158
G1X124.3038Y-165.7636
G1X127.5109Y-167.1966
G1X130.7927Y-168.3821
G1X134.4749Y-169.3825
G1X138.5372Y-170.2226
G1X142.2919Y-170.7556
G1X145.1514Y-170.9792
G1X151.1109Y-171.1722
G1X153.1691Y-171.3412
G1X155.2065Y-171.7152
G1X157.4270Y-172.3729
G1X163.3235Y-174.5504
G1X165.6280Y-175.4765
G1X174.5120Y-179.7655
G1X177.6926Y-181.5511
G1X183.0835Y-185.0634
G1X185.7769Y-186.7057
G1X189.4035Y-188.7311
G1X192.4756Y-190.2463
G1X196.0637Y-191.7998
G1X200.5726Y-193.5821
G1X210.5266Y-197.1883
G1X213.2881Y-198.0728
G1X215.4144Y-198.6188
G1X217.7829Y-199.1176
G1X226.3821Y-200.7415
G1X233.8670Y-202.0241
G1X238.9526Y-203.0261
G1X242.6588Y-203.9027
G1X248.2252Y-205.4833
G1X250.4782Y-205.9727
G1X253.1007Y-206.2821
G1X257.5699Y-206.4378
G1X259.6285Y-206.6018
G1X261.5611Y-206.8911
G1X267.4398Y-208.0306
G1X274.5219Y-208.7298
G1 Z0F20000
(Start Block)

G1X21.1667Y-174.2284
G1Z4.7F20000
(Plotting speed under)
G1 F8000

G1X28.3424Y-169.9981
G1X30.5937Y-168.8640
G1X32.8958Y-167.8748
G1X40.9921Y-165.0151
G1X46.5152Y-162.6886
G1X49.5381Y-161.5600
G1X52.6335Y-160.5786
G1X63.0852Y-157.5478
G1X64.8929Y-157.1900
G1X66.9446Y-156.9355
G1X75.9782Y-156.1747
G1X78.8416Y-156.0367
G1X82.0498Y-156.1418
G1X86.5058Y-156.5696
G1X91.0835Y-156.8889
G1X93.5940Y-157.1689
G1X106.4293Y-159.1992
G1X110.5015Y-159.9751
G1X113.1899Y-160.6493
G1X114.9523Y-161.2357
G1X116.8338Y-162.0116
G1X124.3361Y-165.7043
G1X127.6353Y-167.1769
G1X130.8711Y-168.3419
G1X134.5537Y-169.3406
G1X138.6163Y-170.1791
G1X142.3714Y-170.7079
G1X145.1167Y-170.9202
G1X151.0763Y-171.1077
G1X153.2487Y-171.2857
G1X155.2852Y-171.6663
G1X157.3943Y-172.2931
G1X163.3990Y-174.5144
G1X165.6567Y-175.4234
G1X174.4494Y-179.6705
G1X177.7195Y-181.5027
G1X183.0269Y-184.9552
G1X185.7206Y-186.5967
G1X189.4353Y-188.6724
G1X192.5072Y-190.1881
G1X196.0958Y-191.7404
G1X200.6524Y-193.5368
G1X210.5019Y-197.0852
G1X213.2648Y-197.9641
G1X215.5046Y-198.5297
G1X218.1013Y-199.0587
G1X226.1390Y-200.5462
G1X233.8564Y-201.8230
G1X239.6289Y-202.8975
G1X243.0023Y-203.6705
G1X248.3567Y-205.1369
G1X250.6125Y-205.6097
G1X253.2357Y-205.9117
G1X259.5350Y-206.2169
G1X261.5844Y-206.4954
G1X267.4775Y-207.5313
G1X274.3389Y-208.0940
G1 Z0F20000
(Start Block)

G1X21.1667Y-172.9055
G1Z4.7F20000
(Plotting speed under)
G1 F8000

G1X28.0111Y-169.4567
G1X32.0905Y-167.7499
G1X40.7960Y-164.8674
G1X46.7376Y-162.4323
G1X49.8000Y-161.3219
G1X61.4566Y-157.8535
G1X63.4704Y-157.3342
G1X65.1688Y-157.0243
G1X67.2223Y-156.7884
G1X76.1415Y-156.0373
G1X79.0052Y-155.9059
G1X82.2130Y-156.0239
G1X86.5543Y-156.4466
G1X91.1315Y-156.7752
G1X93.6416Y-157.0607
G1X106.2470Y-159.0779
G1X110.5444Y-159.9043
G1X113.2319Y-160.5835
G1X115.1024Y-161.2140
G1X116.9196Y-161.9728
G1X124.3294Y-165.6269
G1X127.6272Y-167.1036
G1X130.9089Y-168.2893
G1X134.4790Y-169.2625
G1X138.6537Y-170.1286
G1X142.4090Y-170.6559
G1X145.6126Y-170.8876
G1X151.4578Y-171.0629
G1X153.2866Y-171.2250
G1X155.3228Y-171.6077
G1X157.4312Y-172.2371
G1X165.6459Y-175.3535
G1X174.5279Y-179.6480
G1X177.7091Y-181.4322
G1X183.0192Y-184.8792
G1X185.7142Y-186.5179
G1X189.5180Y-188.6414
G1X192.5908Y-190.1545
G1X196.1805Y-191.7032
G1X200.6920Y-193.4769
G1X210.5464Y-197.0070
G1X213.3117Y-197.8757
G1X216.9074Y-198.7132
G1X225.1740Y-200.2237
G1X240.2655Y-202.7401
G1X243.3058Y-203.4109
G1X248.5600Y-204.7907
G1X250.9325Y-205.2605
G1X253.4432Y-205.5335
G1X257.9117Y-205.7155
G1X259.9705Y-205.8775
G1X265.9908Y-206.8225
G1X268.1577Y-207.0792
G1X274.7987Y-207.4682
G1 Z0F20000
(Start Block)

G1X21.1667Y-171.5826
G1Z4.7F20000
(Plotting speed under)
G1 F8000

G1X29.4902Y-168.1898
G1X32.7918Y-167.0780
G1X40.6635Y-164.6868
G1X46.6217Y-162.3066
G1X49.2463Y-161.3536
G1X61.3471Y-157.7548
G1X63.8111Y-157.1350
G1X65.3991Y-156.8666
G1X67.3395Y-156.6552
G1X76.2585Y-155.9009
G1X79.1223Y-155.7735
G1X82.2155Y-155.8912
G1X86.5565Y-156.3178
G1X91.1331Y-156.6569
G1X93.7567Y-156.9618
G1X106.1319Y-158.9677
G1X110.5413Y-159.8233
G1X113.3395Y-160.5372
G1X115.0992Y-161.1345
G1X116.9620Y-161.9143
G1X124.3705Y-165.5721
G1X127.6679Y-167.0500
G1X130.9017Y-168.2221
G1X134.4709Y-169.1997
G1X138.5316Y-170.0497
G1X142.4001Y-170.5987
G1X145.1455Y-170.8076
G1X151.1054Y-170.9828
G1X153.2780Y-171.1580
G1X155.3147Y-171.5376
G1X157.4234Y-172.1656
G1X165.6835Y-175.3044
G1X174.4738Y-179.5580
G1X177.6573Y-181.3365
G1X183.0564Y-184.8322
G1X185.7537Y-186.4660
G1X189.5580Y-188.5882
G1X192.6309Y-190.1011
G1X196.2212Y-191.6481
G1X200.6870Y-193.4007
G1X210.4363Y-196.8753
G1X213.2016Y-197.7439
G1X216.7980Y-198.5773
G1X225.5222Y-200.1367
G1X240.9709Y-202.5722
G1X243.6769Y-203.1474
G1X248.7182Y-204.4128
G1X251.2070Y-204.8827
G1X253.6043Y-205.1357
G1X260.0172Y-205.4796
G1X267.7626Y-206.4938
G1X274.5222Y-206.7715
G1 Z0F20000
(Start Block)

G1X21.1667Y-168.9367
G1Z4.7F20000
(Plotting speed under)
G1 F8000

G1X24.4370Y-168.2467
G1X39.3524Y-164.5901
G1X41.7833Y-163.8150
G1X46.8916Y-161.8363
G1X50.1911Y-160.7163
G1X61.7542Y-157.3596
G1X64.5664Y-156.7260
G1X66.8455Y-156.4387
G1X75.8779Y-155.6594
G1X79.4284Y-155.4920
G1X82.5209Y-155.6337
G1X91.0933Y-156.4051
G1X93.8300Y-156.7346
G1X105.7459Y-158.7092
G1X110.4923Y-159.6454
G1X113.4015Y-160.3925
G1X115.1599Y-160.9946
G1X116.9907Y-161.7652
G1X124.3968Y-165.4295
G1X127.6923Y-166.9132
G1X130.9556Y-168.1033
G1X134.5239Y-169.0850
G1X138.6974Y-169.9586
G1X142.4526Y-170.4862
G1X145.6566Y-170.7114
G1X151.5022Y-170.8683
G1X153.3312Y-171.0270
G1X155.2554Y-171.3808
G1X157.3657Y-172.0016
G1X165.7938Y-175.2160
G1X174.3996Y-179.3910
G1X177.6734Y-181.2145
G1X182.9913Y-184.6454
G1X185.6904Y-186.2751
G1X189.5830Y-188.4474
G1X192.7460Y-190.0053
G1X196.3380Y-191.5470
G1X200.8531Y-193.3080
G1X210.3935Y-196.6665
G1X213.2733Y-197.5529
G1X216.9884Y-198.3748
G1X226.5178Y-199.9836
G1X242.1189Y-202.0831
G1X244.4944Y-202.5349
G1X249.4478Y-203.6367
G1X252.0588Y-204.0595
G1X254.4587Y-204.2796
G1X260.2994Y-204.5959
G1X267.1559Y-205.2296
G1X270.7095Y-205.2914
G1X274.4917Y-205.1872
G1 Z0F20000
(Start Block)

G1X21.1667Y-167.6138
G1Z4.7F20000
(Plotting speed under)
G1 F8000

G1X24.0199Y-167.3044
G1X28.2171Y-166.5948
G1X34.3266Y-165.4383
G1X38.8270Y-164.4215
G1X41.7142Y-163.5687
G1X47.0565Y-161.5639
G1X50.4744Y-160.4399
G1X61.9338Y-157.1499
G1X64.8639Y-156.5248
G1X66.9167Y-156.2817
G1X76.1774Y-155.4790
G1X79.4992Y-155.3308
G1X82.5915Y-155.4775
G1X91.0481Y-156.2608
G1X93.7843Y-156.5953
G1X105.3577Y-158.5303
G1X110.4421Y-159.5405
G1X113.3517Y-160.2856
G1X115.1110Y-160.8845
G1X116.9732Y-161.6662
G1X124.3782Y-165.3333
G1X127.7645Y-166.8603
G1X131.0122Y-168.0447
G1X134.5804Y-169.0267
G1X138.6405Y-169.8806
G1X142.3951Y-170.4137
G1X145.1408Y-170.6199
G1X151.2156Y-170.7805
G1X153.2742Y-170.9423
G1X155.3118Y-171.3141
G1X157.4213Y-171.9390
G1X165.7701Y-175.1292
G1X174.4650Y-179.3521
G1X177.6501Y-181.1270
G1X182.9709Y-184.5519
G1X185.6714Y-186.1786
G1X189.6530Y-188.3988
G1X192.8167Y-189.9549
G1X196.5025Y-191.5310
G1X201.0202Y-193.2832
G1X210.4571Y-196.5798
G1X213.3400Y-197.4527
G1X216.9452Y-198.2331
G1X226.0257Y-199.7260
G1X230.9217Y-200.3923
G1X242.3306Y-201.6979
G1X244.7128Y-202.1005
G1X249.9059Y-203.1615
G1X252.7493Y-203.5744
G1X266.8286Y-204.4756
G1X270.9554Y-204.4247
G1X274.7309Y-204.1518
G1 Z0F20000
(Start Block)

G1X21.1667Y-166.2909
G1Z4.7F20000
(Plotting speed under)
G1 F8000

G1X24.4897Y-166.2041
G1X29.1711Y-165.7168
G1X34.0625Y-165.0083
G1X38.4698Y-164.1401
G1X41.7042Y-163.2556
G1X47.1736Y-161.2755
G1X50.8213Y-160.1172
G1X61.9546Y-156.9588
G1X63.6395Y-156.5622
G1X65.2277Y-156.2957
G1X76.4286Y-155.2785
G1X79.6361Y-155.1451
G1X82.7280Y-155.3030
G1X90.9542Y-156.0923
G1X93.5762Y-156.4154
G1X105.0340Y-158.3482
G1X110.4556Y-159.4375
G1X113.3646Y-160.1859
G1X115.1236Y-160.7859
G1X116.9093Y-161.5340
G1X124.4041Y-165.2471
G1X127.7894Y-166.7769
G1X131.0202Y-167.9603
G1X134.5875Y-168.9466
G1X138.6471Y-169.8044
G1X142.4015Y-170.3386
G1X145.1472Y-170.5433
G1X151.2222Y-170.6961
G1X153.3949Y-170.8695
G1X155.3189Y-171.2247
G1X157.4285Y-171.8488
G1X165.8830Y-175.0915
G1X174.3938Y-179.2346
G1X177.6686Y-181.0559
G1X182.9060Y-184.4207
G1X185.6951Y-186.0963
G1X189.7667Y-188.3625
G1X192.9319Y-189.9143
G1X196.7122Y-191.5224
G1X201.1393Y-193.2295
G1X210.4730Y-196.4627
G1X213.4704Y-197.3528
G1X217.1936Y-198.1249
G1X226.9637Y-199.6580
G1X233.8078Y-200.4544
G1X242.8372Y-201.2720
G1X245.2249Y-201.6279
G1X250.5472Y-202.6004
G1X253.7386Y-202.9960
G1X263.8176Y-203.5146
G1X266.5685Y-203.5750
G1X271.0343Y-203.3364
G1X274.9059Y-202.8230
G1 Z0F20000
(Start Block)

G1X21.1667Y-164.9680
G1Z4.7F20000
(Plotting speed under)
G1 F8000

G1X22.8827Y-165.0965
G1X24.7169Y-165.1261
G1X29.4136Y-164.9179
G1X33.9815Y-164.4534
G1X38.2926Y-163.7316
G1X41.6525Y-162.8885
G1X47.4733Y-160.8772
G1X51.1316Y-159.7641
G1X62.0511Y-156.7112
G1X63.7382Y-156.3273
G1X65.5558Y-156.0434
G1X76.5289Y-155.0549
G1X79.7364Y-154.9238
G1X82.8279Y-155.0900
G1X93.2170Y-156.1889
G1X104.7859Y-158.1591
G1X110.4312Y-159.3087
G1X113.4509Y-160.0916
G1X115.2082Y-160.6978
G1X116.9921Y-161.4517
G1X124.3939Y-165.1273
G1X127.8700Y-166.7008
G1X131.1007Y-167.8843
G1X134.6681Y-168.8704
G1X138.7276Y-169.7282
G1X142.4825Y-170.2582
G1X145.2285Y-170.4571
G1X151.1891Y-170.5959
G1X153.3622Y-170.7624
G1X155.2872Y-171.1106
G1X157.3978Y-171.7298
G1X165.8665Y-174.9833
G1X174.3755Y-179.1312
G1X177.5642Y-180.8975
G1X182.8921Y-184.3079
G1X185.6833Y-185.9789
G1X189.8443Y-188.2921
G1X193.0102Y-189.8422
G1X196.8846Y-191.4835
G1X201.3303Y-193.1859
G1X210.5622Y-196.3502
G1X213.5639Y-197.2207
G1X217.5184Y-198.0010
G1X228.0954Y-199.5559
G1X234.6074Y-200.1872
G1X243.4225Y-200.7301
G1X245.7024Y-201.0115
G1X251.4972Y-201.9118
G1X255.2676Y-202.2678
G1X262.6023Y-202.4948
G1X266.6139Y-202.4254
G1X268.7850Y-202.2223
G1X271.1742Y-201.8796
G1X273.2096Y-201.4872
G1X275.0007Y-201.0312
G1 Z0F20000
(Start Block)

G1X21.1667Y-163.6450
G1Z4.7F20000
(Plotting speed under)
G1 F8000

G1X22.8754Y-163.8685
G1X24.8205Y-164.0094
G1X29.6351Y-164.0425
G1X33.9851Y-163.7748
G1X38.3105Y-163.1804
G1X41.5713Y-162.4374
G1X49.1917Y-159.9883
G1X61.5673Y-156.5669
G1X63.7027Y-156.0724
G1X65.8632Y-155.7540
G1X76.7221Y-154.7782
G1X79.7005Y-154.6555
G1X82.7922Y-154.8187
G1X92.4938Y-155.8797
G1X104.1754Y-157.8732
G1X110.3829Y-159.1529
G1X113.4028Y-159.9349
G1X115.1610Y-160.5379
G1X116.9609Y-161.2961
G1X124.3611Y-164.9760
G1X127.9271Y-166.5954
G1X131.1570Y-167.7819
G1X134.7239Y-168.7706
G1X138.7830Y-169.6306
G1X142.5381Y-170.1586
G1X145.2844Y-170.3528
G1X151.1305Y-170.4768
G1X153.3042Y-170.6335
G1X155.3429Y-170.9979
G1X157.3429Y-171.5827
G1X165.9179Y-174.8866
G1X174.3329Y-178.9995
G1X177.6104Y-180.8145
G1X182.8552Y-184.1638
G1X185.6486Y-185.8301
G1X189.8988Y-188.1909
G1X193.1561Y-189.7826
G1X197.1413Y-191.4595
G1X201.4973Y-193.1137
G1X210.6283Y-196.2050
G1X213.8591Y-197.1079
G1X218.2759Y-197.9048
G1X225.7863Y-198.9719
G1X229.4369Y-199.3914
G1X235.3874Y-199.8106
G1X244.0981Y-200.0288
G1X252.5401Y-200.9945
G1X257.2345Y-201.2612
G1X263.0809Y-201.2065
G1X265.0267Y-201.0796
G1X266.8504Y-200.8525
G1X268.8848Y-200.4548
G1X271.1205Y-199.8676
G1X273.1044Y-199.2126
G1X274.9416Y-198.4625
G1 Z0F20000
(Start Block)

G1X21.1667Y-162.3221
G1Z4.7F20000
(Plotting speed under)
G1 F8000

G1X22.9824Y-162.6224
G1X25.0366Y-162.8504
G1X29.8472Y-163.0771
G1X34.2020Y-162.9597
G1X38.4245Y-162.4996
G1X41.8075Y-161.7919
G1X49.1279Y-159.5825
G1X56.3968Y-157.6864
G1X61.7452Y-156.1912
G1X63.8856Y-155.7259
G1X66.1630Y-155.4206
G1X76.7929Y-154.4607
G1X79.6566Y-154.3369
G1X82.7483Y-154.4970
G1X90.9633Y-155.4313
G1X94.7161Y-155.9854
G1X103.3283Y-157.5139
G1X110.0983Y-158.9220
G1X113.2326Y-159.7201
G1X115.1027Y-160.3526
G1X116.9190Y-161.1140
G1X124.4081Y-164.8427
G1X128.0655Y-166.5037
G1X131.3120Y-167.6920
G1X134.9919Y-168.7040
G1X138.9393Y-169.5337
G1X142.5812Y-170.0407
G1X145.3276Y-170.2305
G1X151.1739Y-170.3429
G1X153.3477Y-170.4979
G1X155.2740Y-170.8358
G1X157.2761Y-171.4111
G1X165.9570Y-174.7663
G1X174.2777Y-178.8455
G1X177.5571Y-180.6558
G1X182.8063Y-183.9960
G1X185.6021Y-185.6570
G1X190.0309Y-188.1123
G1X193.3815Y-189.7405
G1X197.5099Y-191.4607
G1X201.8718Y-193.0939
G1X210.7941Y-196.0662
G1X214.3699Y-197.0078
G1X217.4308Y-197.5383
G1X224.9474Y-198.5455
G1X228.0279Y-198.8968
G1X230.8873Y-199.1255
G1X236.0437Y-199.3080
G1X244.5257Y-199.1324
G1X246.8164Y-199.2469
G1X253.7932Y-199.8034
G1X256.4294Y-199.8688
G1X258.9512Y-199.8155
G1X261.4687Y-199.6380
G1X263.7478Y-199.3498
G1X265.5546Y-198.9857
G1X267.3318Y-198.4632
G1X269.2360Y-197.7060
G1X271.2210Y-196.7182
G1X273.1424Y-195.5753
G1X275.0790Y-194.2313
G1 Z0F20000
(Start Block)

G1X21.1667Y-160.9992
G1Z4.7F20000
(Plotting speed under)
G1 F8000

G1X25.2536Y-161.6566
G1X29.9428Y-162.0251
G1X34.2987Y-162.0457
G1X38.3019Y-161.7394
G1X40.2339Y-161.4446
G1X42.1484Y-161.0237
G1X49.2810Y-159.0368
G1X63.1616Y-155.4970
G1X66.0053Y-155.0894
G1X78.1219Y-154.0138
G1X80.1852Y-153.9807
G1X82.2465Y-154.0919
G1X89.8868Y-155.0082
G1X93.8676Y-155.5897
G1X101.1196Y-156.8804
G1X110.3721Y-158.8013
G1X112.6129Y-159.3623
G1X114.3839Y-159.9131
G1X117.3291Y-161.1261
G1X123.9980Y-164.4722
G1X127.6456Y-166.1621
G1X130.8006Y-167.3703
G1X134.1342Y-168.3450
G1X137.9589Y-169.2123
G1X141.4781Y-169.7820
G1X145.1369Y-170.0850
G1X151.0979Y-170.1913
G1X152.8155Y-170.2873
G1X154.9751Y-170.6089
G1X157.2048Y-171.2224
G1X164.8835Y-174.1636
G1X168.5381Y-175.8315
G1X176.3576Y-179.8193
G1X183.8823Y-184.5008
G1X189.7115Y-187.7818
G1X193.1440Y-189.4774
G1X197.2226Y-191.1893
G1X202.3520Y-193.0930
G1X210.2916Y-195.7002
G1X212.8509Y-196.4319
G1X214.7657Y-196.8512
G1X216.8084Y-197.1895
G1X225.4721Y-198.2631
G1X230.1600Y-198.6557
G1X234.8594Y-198.7543
G1X237.4947Y-198.6496
G1X242.7546Y-198.2066
G1X245.0455Y-198.0962
G1X247.4530Y-198.1080
G1X252.8389Y-198.3046
G1X255.8195Y-198.2791
G1X258.3368Y-198.1017
G1X260.6118Y-197.7741
G1X262.5251Y-197.3468
G1X264.2960Y-196.7961
G1X265.8654Y-196.1369
G1X267.4644Y-195.2656
G1X268.9918Y-194.2369
G1X270.7765Y-192.8293
G1X272.8864Y-190.9732
G1X274.6909Y-189.2212
G1 Z0F20000
(Start Block)

G1X21.1667Y-159.6763
G1Z4.7F20000
(Plotting speed under)
G1 F8000

G1X25.4700Y-160.4551
G1X30.1512Y-160.9396
G1X34.7351Y-161.0704
G1X38.7423Y-160.8490
G1X40.6769Y-160.5778
G1X42.7081Y-160.1582
G1X49.3137Y-158.4766
G1X56.1643Y-156.8521
G1X61.1962Y-155.5371
G1X63.2243Y-155.0977
G1X65.9567Y-154.7286
G1X78.5308Y-153.6220
G1X81.3961Y-153.6567
G1X84.8210Y-154.0157
G1X92.4453Y-155.0955
G1X101.0545Y-156.6469
G1X110.4137Y-158.6299
G1X112.6536Y-159.1959
G1X114.4239Y-159.7495
G1X117.2769Y-160.9238
G1X124.0343Y-164.3193
G1X127.7731Y-166.0512
G1X130.9444Y-167.2627
G1X134.2788Y-168.2343
G1X138.1036Y-169.1002
G1X141.5096Y-169.6494
G1X145.1686Y-169.9484
G1X151.1298Y-170.0424
G1X152.8475Y-170.1359
G1X155.0073Y-170.4551
G1X157.2372Y-171.0675
G1X164.9114Y-174.0242
G1X168.4749Y-175.6498
G1X176.3792Y-179.6968
G1X183.8218Y-184.3153
G1X189.8314Y-187.6867
G1X193.3569Y-189.4196
G1X197.4704Y-191.1316
G1X202.4953Y-192.9776
G1X210.2234Y-195.4756
G1X212.8974Y-196.2228
G1X214.8149Y-196.6251
G1X216.8600Y-196.9435
G1X225.5322Y-197.9216
G1X230.4536Y-198.2436
G1X235.2677Y-198.1896
G1X237.8971Y-197.9621
G1X242.9069Y-197.2799
G1X245.1912Y-197.0501
G1X247.4821Y-196.9402
G1X252.6409Y-196.8589
G1X255.3884Y-196.6897
G1X257.6667Y-196.3945
G1X259.8067Y-195.9279
G1X261.6841Y-195.3258
G1X263.4190Y-194.5832
G1X265.0149Y-193.7043
G1X266.5330Y-192.6578
G1X268.4486Y-191.0710
G1X271.2090Y-188.5181
G1X272.9774Y-186.7178
G1X274.9488Y-184.5029
G1 Z0F20000
(Start Block)

G1X21.1667Y-158.3534
G1Z4.7F20000
(Plotting speed under)
G1 F8000

G1X25.6803Y-159.2857
G1X30.1222Y-159.8702
G1X34.9312Y-160.1389
G1X36.9948Y-160.1285
G1X38.9413Y-160.0174
G1X40.9933Y-159.7667
G1X43.2559Y-159.3380
G1X55.6294Y-156.5235
G1X61.2346Y-155.1372
G1X63.2671Y-154.7256
G1X65.7735Y-154.4027
G1X71.2643Y-153.9753
G1X76.9734Y-153.3776
G1X79.0345Y-153.2626
G1X81.8989Y-153.3517
G1X85.3200Y-153.7579
G1X92.3657Y-154.8439
G1X101.3087Y-156.5008
G1X110.6608Y-158.5286
G1X112.7866Y-159.0769
G1X114.5550Y-159.6389
G1X117.3886Y-160.8196
G1X123.9625Y-164.1332
G1X127.7909Y-165.9121
G1X130.9605Y-167.1294
G1X134.2937Y-168.1064
G1X138.1176Y-168.9776
G1X141.6373Y-169.5432
G1X145.1824Y-169.8258
G1X151.1437Y-169.9093
G1X152.8615Y-169.9998
G1X155.0218Y-170.3150
G1X157.2523Y-170.9247
G1X164.9225Y-173.8949
G1X168.3951Y-175.4773
G1X176.2966Y-179.5320
G1X183.7443Y-184.1393
G1X189.8449Y-187.5545
G1X193.2778Y-189.2489
G1X197.3749Y-190.9576
G1X202.5102Y-192.8395
G1X210.1354Y-195.2705
G1X212.6990Y-195.9818
G1X214.6166Y-196.3832
G1X216.7764Y-196.7100
G1X224.9978Y-197.5672
G1X227.8580Y-197.7798
G1X230.3792Y-197.8645
G1X233.0159Y-197.8330
G1X235.4199Y-197.6831
G1X238.1551Y-197.3405
G1X243.0265Y-196.4658
G1X245.1878Y-196.1536
G1X252.2818Y-195.6437
G1X254.6792Y-195.3892
G1X257.0587Y-194.9698
G1X259.0665Y-194.4215
G1X260.8078Y-193.7576
G1X262.4320Y-192.9502
G1X263.9862Y-191.9770
G1X265.4596Y-190.8483
G1X267.3274Y-189.1871
G1X269.8150Y-186.7865
G1X274.9176Y-181.2964
G1 Z0F20000
(Start Block)

G1X21.1667Y-157.0305
G1Z4.7F20000
(Plotting speed under)
G1 F8000

G1X25.7635Y-158.1608
G1X30.1880Y-158.8993
G1X35.1040Y-159.3156
G1X37.1673Y-159.3586
G1X39.1152Y-159.2884
G1X41.3981Y-159.0442
G1X44.0044Y-158.5832
G1X55.2816Y-156.1969
G1X61.3494Y-154.7784
G1X63.3864Y-154.3972
G1X65.7810Y-154.1110
G1X71.7296Y-153.6534
G1X76.8667Y-153.1022
G1X79.3861Y-152.9725
G1X82.1350Y-153.0918
G1X85.5535Y-153.5267
G1X92.2499Y-154.6304
G1X101.5271Y-156.3890
G1X110.7611Y-158.4257
G1X112.7744Y-158.9482
G1X114.5430Y-159.5094
G1X117.3771Y-160.6883
G1X123.9496Y-164.0058
G1X127.7768Y-165.7881
G1X130.9445Y-167.0121
G1X134.2762Y-167.9955
G1X138.0992Y-168.8727
G1X141.6184Y-169.4423
G1X145.2780Y-169.7300
G1X151.1248Y-169.8013
G1X152.8427Y-169.8874
G1X155.0038Y-170.1959
G1X157.2354Y-170.7997
G1X164.9028Y-173.7792
G1X168.3756Y-175.3613
G1X176.2736Y-179.4250
G1X183.6374Y-183.9731
G1X189.8277Y-187.4345
G1X193.2592Y-189.1330
G1X197.1391Y-190.7563
G1X202.4925Y-192.7200
G1X210.1238Y-195.1256
G1X212.5773Y-195.7993
G1X214.4954Y-196.1980
G1X216.5419Y-196.5036
G1X224.4242Y-197.2785
G1X227.5141Y-197.4935
G1X230.1502Y-197.5624
G1X232.9010Y-197.4933
G1X235.4167Y-197.2860
G1X238.2577Y-196.8513
G1X245.1468Y-195.4661
G1X251.9959Y-194.7335
G1X254.2714Y-194.4089
G1X256.5261Y-193.9296
G1X258.5186Y-193.3116
G1X260.1171Y-192.6344
G1X261.5389Y-191.8606
G1X262.9792Y-190.8849
G1X264.3424Y-189.7713
G1X267.7147Y-186.4721
G1X274.9375Y-178.7842
G1 Z0F20000
(Start Block)

G1X21.1667Y-155.7075
G1Z4.7F20000
(Plotting speed under)
G1 F8000

G1X25.8258Y-157.1082
G1X30.1092Y-158.0198
G1X32.6130Y-158.3709
G1X35.1264Y-158.6139
G1X37.3029Y-158.7159
G1X39.2515Y-158.6837
G1X41.6513Y-158.4650
G1X44.6025Y-157.9821
G1X54.9980Y-155.9200
G1X61.4155Y-154.4964
G1X63.4557Y-154.1390
G1X65.7376Y-153.8814
G1X71.5727Y-153.4467
G1X77.0525Y-152.8615
G1X79.8017Y-152.7496
G1X82.5490Y-152.9137
G1X85.9637Y-153.3864
G1X92.3122Y-154.4929
G1X102.0365Y-156.3745
G1X111.0395Y-158.3967
G1X113.0501Y-158.9326
G1X114.7051Y-159.4715
G1X117.4130Y-160.6092
G1X123.9842Y-163.9300
G1X127.8114Y-165.7124
G1X130.9944Y-166.9430
G1X134.3261Y-167.9266
G1X138.1490Y-168.8044
G1X141.6683Y-169.3725
G1X145.2136Y-169.6508
G1X151.1750Y-169.7197
G1X153.0073Y-169.8167
G1X155.1666Y-170.1413
G1X157.3949Y-170.7609
G1X165.0260Y-173.7471
G1X168.4950Y-175.3399
G1X176.2994Y-179.3678
G1X183.6652Y-183.9115
G1X189.7691Y-187.3187
G1X193.0155Y-188.9399
G1X196.7519Y-190.5209
G1X202.3203Y-192.5772
G1X209.9553Y-194.9670
G1X212.2963Y-195.6153
G1X214.2129Y-196.0234
G1X216.3727Y-196.3488
G1X223.5715Y-197.0297
G1X227.0048Y-197.2671
G1X229.7556Y-197.3359
G1X232.6206Y-197.2485
G1X235.2489Y-197.0053
G1X238.1977Y-196.5059
G1X245.0627Y-194.9691
G1X251.6687Y-194.0962
G1X253.8250Y-193.7402
G1X256.0724Y-193.2172
G1X258.0403Y-192.5681
G1X259.5074Y-191.9168
G1X260.9168Y-191.1135
G1X262.2536Y-190.1594
G1X263.5158Y-189.0780
G1X265.5168Y-187.0683
G1X271.8031Y-180.2155
G1X274.9987Y-176.8545
G1 Z0F20000
(Start Block)

G1X21.1667Y-154.3846
G1Z4.7F20000
(Plotting speed under)
G1 F8000

G1X25.4211Y-155.9698
G1X29.4311Y-157.0923
G1X31.4640Y-157.5017
G1X33.7369Y-157.8504
G1X35.7913Y-158.0761
G1X37.7378Y-158.1877
G1X40.7168Y-158.1026
G1X44.1344Y-157.6619
G1X54.2093Y-155.7949
G1X61.0889Y-154.3439
G1X63.4705Y-153.9373
G1X65.7534Y-153.6922
G1X71.4747Y-153.2785
G1X76.8401Y-152.7019
G1X78.7863Y-152.5820
G1X81.7652Y-152.6684
G1X85.2975Y-153.1164
G1X91.6424Y-154.2493
G1X102.7187Y-156.4270
G1X111.1544Y-158.3504
G1X114.7078Y-159.3984
G1X117.4913Y-160.5720
G1X123.8805Y-163.8073
G1X127.7974Y-165.6361
G1X130.8850Y-166.8387
G1X134.2141Y-167.8336
G1X138.0353Y-168.7210
G1X141.5535Y-169.2992
G1X145.2128Y-169.5910
G1X151.1742Y-169.6554
G1X153.0066Y-169.7502
G1X155.2789Y-170.0963
G1X157.5050Y-170.7265
G1X165.1011Y-173.7141
G1X168.5678Y-175.3138
G1X176.3683Y-179.3513
G1X183.5603Y-183.7896
G1X189.5751Y-187.1489
G1X192.6339Y-188.6995
G1X195.8528Y-190.0971
G1X202.0988Y-192.4377
G1X211.7399Y-195.3869
G1X213.6518Y-195.8231
G1X215.6947Y-196.1593
G1X221.6350Y-196.7389
G1X225.9827Y-197.0616
G1X229.0768Y-197.1634
G1X232.0567Y-197.0848
G1X234.9133Y-196.8199
G1X238.0856Y-196.2570
G1X245.0446Y-194.5888
G1X253.5626Y-193.2414
G1X255.8039Y-192.6846
G1X257.6716Y-192.0434
G1X259.1474Y-191.3661
G1X260.4602Y-190.5934
G1X261.7037Y-189.6810
G1X262.9514Y-188.5775
G1X264.4907Y-186.9919
G1X268.5091Y-182.4891
G1X275.0953Y-175.3422
G1 Z0F20000
(Start Block)

G1X21.1667Y-153.0617
G1Z4.7F20000
(Plotting speed under)
G1 F8000

G1X25.4385Y-154.9837
G1X27.4048Y-155.7061
G1X29.3981Y-156.3223
G1X31.5279Y-156.8490
G1X33.7904Y-157.2786
G1X35.9533Y-157.5755
G1X37.8979Y-157.7245
G1X40.9920Y-157.6723
G1X44.4126Y-157.2636
G1X54.0479Y-155.5784
G1X61.0498Y-154.1650
G1X63.5472Y-153.7584
G1X65.7169Y-153.5364
G1X71.3244Y-153.1432
G1X77.0328Y-152.5364
G1X79.0941Y-152.4280
G1X82.0720Y-152.5528
G1X85.6013Y-153.0324
G1X91.8272Y-154.1870
G1X103.6880Y-156.5644
G1X111.4439Y-158.3622
G1X114.8810Y-159.4009
G1X117.4323Y-160.4829
G1X123.9114Y-163.7637
G1X127.8285Y-165.5921
G1X130.9475Y-166.8052
G1X134.2772Y-167.7977
G1X138.0986Y-168.6836
G1X141.6172Y-169.2584
G1X145.2769Y-169.5444
G1X151.1237Y-169.6017
G1X152.9563Y-169.6914
G1X155.2295Y-170.0288
G1X157.5672Y-170.6891
G1X165.1296Y-173.6735
G1X168.6852Y-175.3220
G1X176.3049Y-179.2706
G1X183.4988Y-183.7046
G1X189.2475Y-186.9177
G1X192.1169Y-188.4019
G1X195.0481Y-189.7150
G1X198.6571Y-191.1463
G1X201.7196Y-192.2566
G1X210.9123Y-195.0939
G1X212.8164Y-195.5733
G1X214.6259Y-195.9204
G1X219.1891Y-196.4384
G1X224.7946Y-196.8708
G1X228.1169Y-197.0178
G1X231.2119Y-196.9748
G1X234.2989Y-196.7169
G1X237.8115Y-196.0997
G1X245.0931Y-194.2739
G1X253.2573Y-192.8734
G1X255.3844Y-192.3324
G1X257.1126Y-191.7464
G1X258.5790Y-191.0928
G1X259.9839Y-190.2795
G1X261.2271Y-189.3665
G1X262.4687Y-188.2542
G1X263.8507Y-186.8058
G1X267.6109Y-182.4852
G1X274.7140Y-174.6493
G1 Z0F20000
(Start Block)

G1X21.1667Y-151.7388
G1Z4.7F20000
(Plotting speed under)
G1 F8000

G1X23.4674Y-153.0209
G1X25.4505Y-154.0141
G1X27.3825Y-154.8508
G1X29.3343Y-155.5634
G1X31.4441Y-156.1879
G1X33.8053Y-156.7295
G1X35.9608Y-157.0919
G1X38.0166Y-157.2953
G1X41.1109Y-157.2887
G1X44.6488Y-156.9045
G1X53.8422Y-155.3899
G1X61.1924Y-153.9713
G1X63.6927Y-153.5901
G1X71.2429Y-153.0180
G1X77.0657Y-152.4025
G1X79.2418Y-152.2967
G1X82.1048Y-152.4307
G1X85.6329Y-152.9208
G1X100.2146Y-155.7750
G1X104.4994Y-156.6847
G1X111.6898Y-158.3724
G1X115.0116Y-159.3967
G1X117.5137Y-160.4690
G1X123.8111Y-163.6633
G1X127.7261Y-165.4976
G1X130.8578Y-166.7266
G1X134.1855Y-167.7279
G1X138.0056Y-168.6214
G1X141.5231Y-169.2044
G1X145.1823Y-169.4980
G1X151.2584Y-169.5584
G1X153.0906Y-169.6562
G1X155.3622Y-170.0083
G1X157.6969Y-170.6826
G1X165.2092Y-173.6611
G1X168.7623Y-175.3166
G1X176.3789Y-179.2733
G1X183.4857Y-183.6549
G1X189.2355Y-186.8653
G1X192.0137Y-188.3070
G1X194.8505Y-189.5878
G1X198.4577Y-191.0250
G1X201.6284Y-192.1793
G1X210.7114Y-194.9778
G1X212.6142Y-195.4640
G1X214.4225Y-195.8190
G1X218.6423Y-196.3119
G1X224.5916Y-196.7584
G1X227.9141Y-196.9005
G1X231.1236Y-196.8480
G1X234.2096Y-196.5745
G1X237.8315Y-195.9083
G1X245.0996Y-194.0128
G1X253.0252Y-192.5609
G1X255.1493Y-192.0046
G1X256.9679Y-191.3720
G1X258.4282Y-190.7005
G1X259.7384Y-189.9223
G1X260.9736Y-188.9950
G1X262.1282Y-187.9383
G1X263.4266Y-186.5524
G1X267.0106Y-182.3495
G1X271.8425Y-177.0232
G1X274.8289Y-173.5737
G1 Z0F20000
(Start Block)

G1X21.1667Y-150.4159
G1Z4.7F20000
(Plotting speed under)
G1 F8000

G1X23.6648Y-151.9984
G1X25.5111Y-153.0619
G1X27.4046Y-154.0083
G1X29.3586Y-154.8305
G1X31.4462Y-155.5471
G1X33.7908Y-156.1775
G1X36.0504Y-156.6259
G1X38.1025Y-156.8743
G1X41.1965Y-156.9182
G1X44.8516Y-156.5640
G1X53.7153Y-155.1954
G1X61.1871Y-153.8154
G1X63.8033Y-153.4366
G1X71.2403Y-152.8944
G1X77.1777Y-152.2716
G1X79.4688Y-152.1762
G1X82.4449Y-152.3504
G1X85.9696Y-152.8731
G1X100.8822Y-155.8490
G1X105.6129Y-156.8864
G1X111.9015Y-158.3796
G1X115.1090Y-159.3852
G1X117.5630Y-160.4442
G1X123.8597Y-163.6404
G1X127.7753Y-165.4730
G1X130.8449Y-166.6781
G1X134.1719Y-167.6824
G1X137.9915Y-168.5785
G1X141.5088Y-169.1636
G1X145.1679Y-169.4582
G1X151.1294Y-169.5136
G1X153.0764Y-169.6113
G1X155.3484Y-169.9597
G1X157.6837Y-170.6308
G1X165.1640Y-173.6003
G1X168.7180Y-175.2533
G1X176.3338Y-179.2122
G1X183.4420Y-183.5906
G1X189.1925Y-186.7996
G1X191.9695Y-188.2442
G1X194.7129Y-189.4891
G1X198.3344Y-190.9363
G1X201.6141Y-192.1318
G1X210.4768Y-194.8566
G1X214.0714Y-195.6970
G1X218.1748Y-196.1993
G1X224.2391Y-196.6458
G1X227.7908Y-196.7945
G1X231.0001Y-196.7344
G1X234.0854Y-196.4503
G1X237.7050Y-195.7681
G1X245.0731Y-193.7833
G1X252.9859Y-192.2414
G1X255.1049Y-191.6599
G1X256.8864Y-191.0165
G1X258.2503Y-190.3723
G1X259.5547Y-189.5813
G1X260.7811Y-188.6386
G1X261.9240Y-187.5650
G1X263.2756Y-186.0790
G1X266.9709Y-181.6847
G1X271.6471Y-176.4986
G1X274.9358Y-172.5969
G1 Z0F20000
(Start Block)

G1X21.1667Y-149.0929
G1Z4.7F20000
(Plotting speed under)
G1 F8000

G1X25.7461Y-152.1851
G1X27.6025Y-153.2246
G1X29.5121Y-154.1265
G1X31.6551Y-154.9543
G1X33.8716Y-155.6309
G1X36.1205Y-156.1453
G1X38.1679Y-156.4409
G1X40.9169Y-156.5483
G1X44.0066Y-156.3426
G1X53.3393Y-155.0375
G1X61.0466Y-153.6837
G1X63.3215Y-153.3525
G1X71.2159Y-152.7747
G1X77.2678Y-152.1456
G1X79.9031Y-152.0650
G1X82.9909Y-152.3025
G1X86.7365Y-152.9148
G1X101.9787Y-156.0205
G1X110.2992Y-157.9342
G1X113.3163Y-158.7319
G1X115.7591Y-159.5938
G1X117.7733Y-160.4995
G1X123.7978Y-163.5648
G1X127.6202Y-165.3611
G1X130.7014Y-166.5856
G1X134.0253Y-167.6029
G1X137.9560Y-168.5326
G1X141.4728Y-169.1214
G1X145.1318Y-169.4189
G1X151.2079Y-169.4745
G1X153.1547Y-169.5766
G1X155.5382Y-169.9586
G1X157.8691Y-170.6503
G1X165.2832Y-173.6099
G1X168.7437Y-175.2273
G1X176.3575Y-179.1913
G1X183.3789Y-183.5166
G1X189.0408Y-186.6763
G1X191.9052Y-188.1734
G1X194.6472Y-189.4223
G1X198.2993Y-190.8833
G1X201.5788Y-192.0792
G1X210.2209Y-194.7315
G1X213.8120Y-195.5921
G1X217.7997Y-196.0985
G1X223.9788Y-196.5446
G1X227.6452Y-196.6936
G1X230.9690Y-196.6220
G1X234.0531Y-196.3214
G1X237.6693Y-195.6158
G1X245.0255Y-193.5733
G1X252.8136Y-191.9753
G1X254.9297Y-191.3797
G1X256.7855Y-190.6943
G1X258.1439Y-190.0348
G1X259.3560Y-189.2847
G1X260.5765Y-188.3321
G1X261.7109Y-187.2465
G1X262.9813Y-185.8265
G1X266.6513Y-181.4041
G1X271.2409Y-176.2781
G1X275.0402Y-171.6842
G1 Z0F20000
(Start Block)

G1X21.1667Y-146.4471
G1Z4.7F20000
(Plotting speed under)
G1 F8000

G1X26.3867Y-150.4940
G1X28.1763Y-151.6793
G1X30.0280Y-152.7298
G1X32.1198Y-153.7164
G1X34.3463Y-154.5534
G1X36.5739Y-155.1783
G1X38.6125Y-155.5446
G1X41.5879Y-155.7256
G1X45.2521Y-155.5317
G1X53.3497Y-154.5772
G1X61.0738Y-153.3573
G1X63.4663Y-153.0469
G1X71.1346Y-152.5335
G1X77.4160Y-151.8957
G1X80.1663Y-151.8405
G1X83.1379Y-152.1006
G1X86.6537Y-152.6985
G1X102.3335Y-155.9862
G1X111.3220Y-158.0932
G1X113.8826Y-158.8187
G1X115.9726Y-159.5901
G1X118.0723Y-160.5545
G1X124.3673Y-163.7554
G1X127.6471Y-165.2853
G1X130.8220Y-166.5437
G1X134.0357Y-167.5252
G1X137.9658Y-168.4578
G1X141.4824Y-169.0480
G1X145.1414Y-169.3441
G1X151.2176Y-169.3939
G1X153.1645Y-169.4941
G1X155.5483Y-169.8736
G1X157.9891Y-170.6026
G1X165.3982Y-173.5788
G1X168.8551Y-175.2069
G1X176.3755Y-179.1339
G1X183.3110Y-183.4043
G1X188.9744Y-186.5603
G1X191.7466Y-188.0175
G1X194.3930Y-189.2370
G1X197.8715Y-190.6408
G1X201.3668Y-191.9267
G1X209.5665Y-194.4395
G1X213.2614Y-195.3736
G1X216.9022Y-195.8853
G1X223.0815Y-196.3257
G1X227.3208Y-196.4958
G1X230.6445Y-196.4175
G1X233.8416Y-196.0901
G1X235.6552Y-195.7737
G1X237.5654Y-195.3273
G1X245.1227Y-193.1211
G1X252.5492Y-191.4494
G1X254.6584Y-190.8220
G1X256.4612Y-190.1317
G1X257.8140Y-189.4571
G1X259.0181Y-188.6901
G1X260.1482Y-187.7857
G1X261.2716Y-186.6849
G1X266.0849Y-180.8585
G1X270.4988Y-175.8496
G1X274.7688Y-170.5218
G1 Z0F20000
(Start Block)

G1X21.1667Y-145.1242
G1Z4.7F20000
(Plotting speed under)
G1 F8000

G1X26.6227Y-149.5753
G1X28.4666Y-150.8773
G1X30.3776Y-152.0431
G1X32.4440Y-153.0987
G1X34.6356Y-153.9953
G1X36.7400Y-154.6425
G1X38.8861Y-155.0685
G1X40.4845Y-155.2347
G1X42.0888Y-155.2908
G1X46.2120Y-155.0985
G1X53.6317Y-154.2988
G1X61.1361Y-153.1804
G1X63.5305Y-152.8902
G1X71.0857Y-152.4094
G1X77.4820Y-151.7694
G1X80.3470Y-151.7304
G1X83.3171Y-152.0135
G1X86.6042Y-152.5873
G1X102.5023Y-155.9683
G1X111.7120Y-158.1475
G1X114.2665Y-158.9007
G1X116.6232Y-159.8242
G1X124.4633Y-163.7578
G1X128.4814Y-165.5998
G1X131.2037Y-166.6330
G1X134.0883Y-167.4989
G1X138.0187Y-168.4301
G1X141.5357Y-169.0173
G1X145.1950Y-169.3084
G1X151.2712Y-169.3544
G1X153.2180Y-169.4574
G1X155.6012Y-169.8420
G1X157.9314Y-170.5367
G1X165.3093Y-173.5012
G1X168.7681Y-175.1237
G1X176.3766Y-179.1011
G1X183.3130Y-183.3696
G1X188.9777Y-186.5226
G1X191.7497Y-187.9803
G1X194.3960Y-189.2001
G1X197.9212Y-190.6213
G1X201.4174Y-191.9042
G1X209.3976Y-194.3401
G1X213.0907Y-195.2836
G1X216.7304Y-195.8050
G1X222.6812Y-196.2225
G1X227.1497Y-196.3986
G1X230.5878Y-196.3108
G1X233.7838Y-195.9700
G1X237.0575Y-195.3058
G1X244.4915Y-193.0768
G1X252.3527Y-191.2150
G1X254.5691Y-190.5383
G1X256.3368Y-189.8458
G1X257.6857Y-189.1607
G1X258.8844Y-188.3826
G1X260.0073Y-187.4663
G1X261.1216Y-186.3534
G1X265.7720Y-180.6610
G1X270.1656Y-175.6283
G1X274.8808Y-169.6953
G1 Z0F20000
(Start Block)

G1X21.1667Y-143.8013
G1Z4.7F20000
(Plotting speed under)
G1 F8000

G1X26.9416Y-148.7116
G1X28.8439Y-150.1196
G1X30.7292Y-151.3399
G1X32.8603Y-152.5045
G1X35.0349Y-153.4544
G1X37.1306Y-154.1375
G1X39.1597Y-154.5676
G1X40.8706Y-154.7666
G1X42.7036Y-154.8440
G1X47.2862Y-154.6657
G1X54.0258Y-154.0021
G1X63.4781Y-152.7398
G1X71.0344Y-152.2817
G1X77.4312Y-151.6487
G1X80.4108Y-151.6145
G1X83.2662Y-151.8939
G1X86.5524Y-152.4741
G1X102.6683Y-155.9501
G1X111.9870Y-158.1741
G1X114.4270Y-158.9101
G1X116.7184Y-159.8206
G1X124.4663Y-163.7145
G1X128.4842Y-165.5571
G1X131.2534Y-166.6074
G1X134.1384Y-167.4716
G1X138.0690Y-168.4014
G1X141.4724Y-168.9714
G1X145.1314Y-169.2679
G1X151.2076Y-169.3123
G1X153.1545Y-169.4093
G1X155.5390Y-169.7835
G1X157.9807Y-170.5084
G1X165.3101Y-173.4613
G1X168.6786Y-175.0390
G1X176.4636Y-179.1165
G1X182.7014Y-182.9690
G1X185.6064Y-184.6318
G1X190.9401Y-187.5322
G1X194.3964Y-189.1618
G1X197.8597Y-190.5585
G1X201.3555Y-191.8430
G1X209.1149Y-194.2068
G1X212.9174Y-195.1921
G1X216.4417Y-195.7128
G1X222.3926Y-196.1263
G1X227.0906Y-196.3020
G1X230.5285Y-196.2034
G1X233.7234Y-195.8497
G1X237.1065Y-195.1410
G1X244.5291Y-192.8619
G1X252.1533Y-190.9847
G1X254.3669Y-190.2955
G1X256.2091Y-189.5626
G1X257.5540Y-188.8673
G1X258.7476Y-188.0790
G1X259.8639Y-187.1519
G1X260.8988Y-186.1063
G1X265.5303Y-180.3933
G1X269.8338Y-175.4170
G1X273.4322Y-170.7638
G1X274.9998Y-168.8854
G1 Z0F20000
(Start Block)

G1X21.1667Y-142.4784
G1Z4.7F20000
(Plotting speed under)
G1 F8000

G1X27.2631Y-147.8394
G1X28.9719Y-149.1742
G1X30.8255Y-150.4576
G1X32.9209Y-151.7058
G1X34.9124Y-152.6751
G1X36.8579Y-153.4090
G1X38.8700Y-153.9347
G1X40.5731Y-154.2077
G1X42.5172Y-154.3631
G1X44.5807Y-154.3925
G1X47.2166Y-154.3091
G1X53.9632Y-153.7517
G1X63.0817Y-152.6137
G1X70.9820Y-152.1499
G1X77.2650Y-151.5334
G1X80.1299Y-151.4811
G1X83.1005Y-151.7569
G1X86.4997Y-152.3591
G1X93.9254Y-154.0385
G1X102.2703Y-155.8054
G1X110.5816Y-157.7720
G1X113.3730Y-158.5218
G1X115.2416Y-159.1604
G1X117.0864Y-159.9418
G1X124.3777Y-163.6261
G1X128.4859Y-165.5137
G1X131.7428Y-166.7267
G1X135.4182Y-167.7602
G1X139.1359Y-168.5684
G1X142.4345Y-169.0441
G1X145.6395Y-169.2461
G1X152.6322Y-169.3263
G1X154.4577Y-169.5294
G1X156.2604Y-169.9181
G1X157.8097Y-170.4015
G1X159.6595Y-171.1096
G1X165.4019Y-173.4598
G1X168.2280Y-174.7712
G1X176.2846Y-178.9815
G1X183.3109Y-183.2962
G1X189.0669Y-186.4919
G1X191.8400Y-187.9466
G1X194.4877Y-189.1625
G1X199.8677Y-191.2753
G1X204.0559Y-192.6575
G1X211.6179Y-194.8444
G1X213.8742Y-195.3144
G1X216.2658Y-195.6318
G1X221.9880Y-196.0255
G1X227.0299Y-196.2059
G1X230.4676Y-196.0969
G1X233.6614Y-195.7308
G1X237.1538Y-194.9770
G1X244.4538Y-192.6810
G1X251.9528Y-190.7619
G1X254.2730Y-190.0209
G1X256.0798Y-189.2858
G1X257.3334Y-188.6324
G1X258.5272Y-187.8444
G1X259.6432Y-186.9169
G1X260.7477Y-185.7911
G1X265.2924Y-180.1396
G1X269.5060Y-175.2200
G1X273.3439Y-170.2057
G1X275.1307Y-168.0993
G1 Z0F20000
(Start Block)

G1X21.1667Y-141.1554
G1Z4.7F20000
(Plotting speed under)
G1 F8000

G1X27.8294Y-147.1547
G1X29.5194Y-148.5209
G1X31.2712Y-149.7791
G1X33.3460Y-151.0723
G1X35.3220Y-152.0831
G1X37.2584Y-152.8478
G1X39.2660Y-153.3958
G1X41.0804Y-153.7054
G1X43.0231Y-153.8838
G1X45.3153Y-153.9482
G1X48.0664Y-153.8965
G1X54.2451Y-153.4531
G1X63.1441Y-152.4365
G1X70.9314Y-152.0123
G1X77.4441Y-151.3908
G1X80.1946Y-151.3595
G1X83.1643Y-151.6486
G1X86.4487Y-152.2418
G1X93.8686Y-153.9548
G1X102.4365Y-155.7857
G1X110.7455Y-157.7651
G1X113.4240Y-158.4908
G1X115.2917Y-159.1328
G1X117.0900Y-159.8961
G1X124.3808Y-163.5818
G1X128.4888Y-165.4698
G1X131.6822Y-166.6638
G1X135.3563Y-167.7035
G1X139.0731Y-168.5172
G1X142.3711Y-168.9986
G1X145.6905Y-169.2081
G1X152.6832Y-169.2866
G1X154.6219Y-169.5120
G1X156.4220Y-169.9162
G1X157.9687Y-170.4106
G1X159.7546Y-171.1011
G1X165.4948Y-173.4582
G1X168.3185Y-174.7767
G1X176.4598Y-179.0459
G1X182.6118Y-182.8431
G1X185.4280Y-184.4572
G1X190.9402Y-187.4526
G1X194.3959Y-189.0839
G1X199.6966Y-191.1723
G1X203.7716Y-192.5304
G1X211.4454Y-194.7472
G1X213.7003Y-195.2254
G1X215.9770Y-195.5379
G1X221.3555Y-195.9131
G1X226.8559Y-196.1078
G1X230.2935Y-195.9971
G1X233.6007Y-195.6100
G1X235.4099Y-195.2612
G1X237.2020Y-194.8099
G1X244.3796Y-192.4990
G1X251.7532Y-190.5398
G1X254.0700Y-189.7844
G1X255.9506Y-189.0067
G1X257.2003Y-188.3437
G1X258.3892Y-187.5459
G1X259.4991Y-186.6086
G1X260.5965Y-185.4737
G1X265.0571Y-179.8867
G1X269.1806Y-175.0240
G1X273.0612Y-169.9020
G1X274.7669Y-167.8627
G1 Z0F20000
(Start Block)

G1X21.1667Y-139.8325
G1Z4.7F20000
(Plotting speed under)
G1 F8000

G1X28.6455Y-146.6511
G1X30.2424Y-147.9729
G1X31.8141Y-149.1358
G1X33.8737Y-150.4607
G1X35.8390Y-151.4989
G1X37.7860Y-152.2857
G1X39.7914Y-152.8448
G1X41.7171Y-153.1891
G1X43.7726Y-153.3984
G1X46.2932Y-153.4996
G1X48.9300Y-153.4782
G1X54.6541Y-153.1278
G1X62.9899Y-152.2636
G1X70.8929Y-151.8638
G1X77.5210Y-151.2483
G1X80.2716Y-151.2323
G1X83.2401Y-151.5368
G1X86.4096Y-152.1216
G1X93.8233Y-153.8699
G1X102.6138Y-155.7669
G1X110.9204Y-157.7595
G1X113.4860Y-158.4614
G1X115.3527Y-159.1073
G1X117.1042Y-159.8534
G1X124.3945Y-163.5405
G1X128.5024Y-165.4285
G1X131.7430Y-166.6384
G1X135.3056Y-167.6475
G1X139.0216Y-168.4661
G1X142.3191Y-168.9524
G1X145.6383Y-169.1654
G1X152.7455Y-169.2460
G1X154.6838Y-169.4760
G1X156.5945Y-169.9165
G1X158.9012Y-170.7103
G1X164.4903Y-172.9940
G1X168.3292Y-174.7403
G1X176.3802Y-178.9650
G1X182.6209Y-182.8109
G1X185.3495Y-184.3740
G1X190.9510Y-187.4165
G1X194.3147Y-189.0081
G1X199.5363Y-191.0714
G1X203.6091Y-192.4380
G1X211.3960Y-194.6785
G1X213.5377Y-195.1358
G1X215.8138Y-195.4545
G1X221.0780Y-195.8182
G1X226.8079Y-196.0070
G1X230.2452Y-195.8844
G1X233.5511Y-195.4831
G1X235.3590Y-195.1258
G1X237.2608Y-194.6340
G1X244.3159Y-192.3094
G1X251.5639Y-190.3109
G1X253.8764Y-189.5389
G1X255.7390Y-188.7588
G1X257.0749Y-188.0409
G1X258.2579Y-187.2315
G1X259.3607Y-186.2832
G1X260.3806Y-185.2182
G1X264.8289Y-179.6182
G1X268.7957Y-174.8959
G1X272.9841Y-169.3315
G1X274.9172Y-167.0739
G1 Z0F20000
(Start Block)

G1X21.1667Y-138.5096
G1Z4.7F20000
(Plotting speed under)
G1 F8000

G1X24.3849Y-141.3065
G1X29.6414Y-146.2484
G1X32.5501Y-148.5693
G1X34.6029Y-149.9081
G1X36.5668Y-150.9495
G1X38.4537Y-151.7059
G1X40.4583Y-152.2691
G1X42.4951Y-152.6496
G1X44.6628Y-152.8953
G1X47.1822Y-153.0325
G1X49.8190Y-153.0404
G1X54.9732Y-152.7856
G1X63.4317Y-152.0266
G1X71.1073Y-151.6818
G1X77.7367Y-151.0865
G1X80.3728Y-151.0957
G1X83.3398Y-151.4188
G1X86.3941Y-151.9970
G1X93.6885Y-153.7583
G1X102.8135Y-155.7495
G1X111.0055Y-157.7282
G1X113.5701Y-158.4352
G1X115.3266Y-159.0446
G1X117.1396Y-159.8166
G1X124.3386Y-163.4616
G1X128.4451Y-165.3537
G1X131.7154Y-166.5806
G1X135.2771Y-167.5936
G1X138.9925Y-168.4158
G1X142.2896Y-168.9052
G1X145.6087Y-169.1200
G1X152.7161Y-169.1953
G1X154.7682Y-169.4403
G1X156.6776Y-169.8883
G1X158.9826Y-170.6885
G1X164.5232Y-172.9602
G1X168.3606Y-174.7113
G1X176.4088Y-178.9428
G1X182.5628Y-182.7356
G1X185.2911Y-184.2993
G1X190.8927Y-187.3415
G1X194.2546Y-188.9384
G1X199.3974Y-190.9752
G1X203.3575Y-192.3156
G1X211.2567Y-194.5833
G1X213.3977Y-195.0455
G1X215.5590Y-195.3563
G1X220.5940Y-195.7088
G1X226.6679Y-195.8994
G1X230.2195Y-195.7618
G1X233.5238Y-195.3434
G1X235.3302Y-194.9760
G1X237.2298Y-194.4735
G1X244.2731Y-192.1016
G1X251.2839Y-190.0971
G1X253.7019Y-189.2700
G1X255.6354Y-188.4391
G1X256.8781Y-187.7586
G1X258.0586Y-186.9443
G1X259.1584Y-185.9913
G1X260.1751Y-184.9223
G1X264.6111Y-179.3093
G1X268.6870Y-174.3933
G1X273.1173Y-168.4708
G1X275.0927Y-166.2633
G1 Z0F20000
(Start Block)

G1X21.1667Y-137.1867
G1Z4.7F20000
(Plotting speed under)
G1 F8000

G1X24.6601Y-140.1264
G1X30.2770Y-145.4552
G1X32.8220Y-147.5846
G1X34.6729Y-148.8729
G1X36.4279Y-149.8927
G1X38.0682Y-150.6553
G1X39.9332Y-151.3066
G1X42.2879Y-151.8832
G1X44.7869Y-152.2747
G1X47.6452Y-152.5156
G1X50.6254Y-152.5737
G1X55.3236Y-152.4058
G1X63.5609Y-151.7871
G1X70.7799Y-151.5144
G1X77.5250Y-150.9298
G1X79.3590Y-150.8973
G1X81.0767Y-150.9914
G1X83.5834Y-151.3107
G1X86.0710Y-151.7905
G1X93.2457Y-153.5648
G1X102.2550Y-155.5499
G1X111.0069Y-157.6710
G1X113.6820Y-158.4131
G1X115.9163Y-159.2217
G1X118.1084Y-160.2249
G1X124.4904Y-163.4790
G1X127.7707Y-165.0072
G1X130.9455Y-166.2664
G1X134.2702Y-167.2805
G1X138.0877Y-168.1886
G1X141.4905Y-168.7627
G1X145.1496Y-169.0563
G1X151.2259Y-169.0856
G1X153.2874Y-169.1873
G1X155.6711Y-169.5681
G1X158.1112Y-170.2999
G1X165.4141Y-173.2828
G1X168.6876Y-174.8290
G1X176.4630Y-178.9311
G1X182.5299Y-182.6715
G1X185.0810Y-184.1370
G1X190.8606Y-187.2755
G1X194.1293Y-188.8358
G1X199.1767Y-190.8441
G1X203.2446Y-192.2301
G1X211.1457Y-194.4892
G1X213.2863Y-194.9538
G1X215.3333Y-195.2538
G1X220.1391Y-195.5945
G1X226.4425Y-195.7819
G1X229.9941Y-195.6438
G1X233.4116Y-195.2051
G1X235.6658Y-194.7219
G1X237.8908Y-194.0833
G1X244.1462Y-191.9020
G1X251.8012Y-189.6010
G1X253.7213Y-188.8982
G1X255.3725Y-188.1667
G1X256.6141Y-187.4836
G1X257.7944Y-186.6690
G1X258.8944Y-185.7164
G1X259.9809Y-184.5674
G1X264.4038Y-178.9405
G1X268.3234Y-174.1659
G1X272.7988Y-168.1385
G1X274.7661Y-165.9216
G1 Z0F20000
(Start Block)

G1X21.1667Y-135.8638
G1Z4.7F20000
(Plotting speed under)
G1 F8000

G1X25.4767Y-139.4354
G1X31.3168Y-144.9863
G1X33.7015Y-146.9847
G1X35.4674Y-148.2159
G1X37.1354Y-149.1832
G1X38.8080Y-149.9541
G1X40.6713Y-150.6125
G1X43.1322Y-151.2481
G1X45.7393Y-151.7020
G1X48.4803Y-151.9765
G1X51.4597Y-152.0740
G1X55.2426Y-152.0061
G1X63.1432Y-151.5408
G1X70.4782Y-151.3168
G1X77.6832Y-150.7366
G1X79.5174Y-150.7234
G1X81.2342Y-150.8359
G1X83.6254Y-151.1576
G1X85.9984Y-151.6255
G1X93.3891Y-153.4989
G1X102.2825Y-155.4789
G1X111.2557Y-157.6709
G1X113.8170Y-158.3935
G1X116.0021Y-159.1938
G1X118.1020Y-160.1578
G1X124.4834Y-163.4135
G1X127.7634Y-164.9427
G1X130.9688Y-166.2151
G1X134.2935Y-167.2295
G1X138.1108Y-168.1385
G1X141.5137Y-168.7122
G1X145.1729Y-169.0033
G1X151.3638Y-169.0305
G1X153.3106Y-169.1303
G1X155.6943Y-169.5113
G1X158.1343Y-170.2438
G1X165.4038Y-173.2224
G1X168.6769Y-174.7698
G1X176.4499Y-178.8778
G1X182.4307Y-182.5636
G1X184.9808Y-184.0312
G1X190.8500Y-187.2165
G1X194.1180Y-188.7786
G1X199.0876Y-190.7575
G1X203.1545Y-192.1473
G1X211.0579Y-194.3956
G1X213.1985Y-194.8605
G1X215.2455Y-195.1605
G1X219.9372Y-195.4860
G1X226.3557Y-195.6552
G1X229.9068Y-195.5041
G1X233.3230Y-195.0509
G1X235.5755Y-194.5578
G1X238.0189Y-193.8371
G1X244.0412Y-191.6806
G1X251.5657Y-189.3281
G1X253.4806Y-188.6062
G1X255.1270Y-187.8609
G1X256.4520Y-187.1163
G1X257.6245Y-186.2870
G1X258.7159Y-185.3211
G1X259.7246Y-184.2420
G1X264.2033Y-178.5203
G1X267.9690Y-173.8899
G1X272.6258Y-167.5940
G1X273.7968Y-166.2197
G1X274.9910Y-165.0402
G1 Z0F20000
(Start Block)

G1X21.1667Y-134.5409
G1Z4.7F20000
(Plotting speed under)
G1 F8000

G1X26.1127Y-138.6456
G1X32.1172Y-144.3228
G1X34.5024Y-146.3204
G1X36.2711Y-147.5464
G1X37.9444Y-148.5009
G1X39.6831Y-149.2850
G1X41.6409Y-149.9747
G1X44.2100Y-150.6581
G1X46.8132Y-151.1412
G1X49.4378Y-151.4301
G1X52.4164Y-151.5596
G1X55.9704Y-151.5441
G1X63.0741Y-151.2454
G1X70.1812Y-151.0944
G1X77.8467Y-150.5321
G1X79.5663Y-150.5359
G1X81.3966Y-150.6726
G1X83.7856Y-151.0159
G1X86.0432Y-151.4785
G1X93.5363Y-153.4292
G1X102.2013Y-155.3780
G1X111.6197Y-157.6987
G1X114.2859Y-158.4820
G1X116.6436Y-159.4024
G1X124.5701Y-163.3905
G1X128.6805Y-165.2714
G1X131.4351Y-166.3126
G1X134.3202Y-167.1762
G1X138.1374Y-168.0860
G1X141.5403Y-168.6592
G1X145.1997Y-168.9475
G1X151.2760Y-168.9685
G1X153.3375Y-169.0703
G1X155.7211Y-169.4519
G1X158.1609Y-170.1853
G1X165.3966Y-173.1603
G1X168.6691Y-174.7094
G1X176.5278Y-178.8738
G1X182.4213Y-182.5077
G1X184.8835Y-183.9247
G1X190.8424Y-187.1562
G1X194.1098Y-188.7202
G1X199.0015Y-190.6695
G1X203.0676Y-192.0628
G1X210.8615Y-194.2713
G1X212.8878Y-194.7218
G1X214.9331Y-195.0371
G1X219.5096Y-195.3640
G1X226.1576Y-195.5236
G1X229.8230Y-195.3577
G1X233.2375Y-194.8890
G1X235.6002Y-194.3564
G1X238.0394Y-193.6167
G1X243.9389Y-191.4508
G1X251.2231Y-189.0880
G1X253.1490Y-188.3444
G1X254.7923Y-187.5898
G1X256.1165Y-186.8434
G1X257.2904Y-186.0164
G1X258.3840Y-185.0540
G1X259.3946Y-183.9773
G1X263.9321Y-178.1643
G1X267.6799Y-173.5146
G1X272.3253Y-167.2074
G1X273.4950Y-165.8316
G1X274.6912Y-164.6548
G1 Z0F20000
(Start Block)

G1X21.1667Y-133.2179
G1Z4.7F20000
(Plotting speed under)
G1 F8000

G1X26.7065Y-137.9220
G1X32.7299Y-143.5731
G1X35.1162Y-145.5691
G1X36.8840Y-146.7966
G1X38.5571Y-147.7519
G1X40.4008Y-148.5891
G1X42.4808Y-149.3348
G1X45.1563Y-150.0742
G1X47.7557Y-150.5835
G1X50.3785Y-150.8935
G1X53.4706Y-151.0590
G1X56.7953Y-151.0839
G1X69.9784Y-150.8530
G1X77.9901Y-150.3265
G1X79.7096Y-150.3501
G1X81.5388Y-150.5067
G1X83.8122Y-150.8501
G1X85.9554Y-151.2987
G1X93.5508Y-153.3268
G1X102.2120Y-155.2979
G1X111.8510Y-157.6934
G1X114.4034Y-158.4559
G1X116.7124Y-159.3657
G1X124.5471Y-163.3134
G1X128.6567Y-165.1966
G1X131.4417Y-166.2518
G1X134.3265Y-167.1169
G1X138.1434Y-168.0286
G1X141.5462Y-168.6028
G1X145.2056Y-168.8902
G1X151.2818Y-168.9074
G1X153.3434Y-169.0077
G1X155.7273Y-169.3871
G1X158.1675Y-170.1185
G1X165.3698Y-173.0891
G1X168.6422Y-174.6386
G1X176.4987Y-178.8087
G1X182.3931Y-182.4403
G1X184.7671Y-183.8075
G1X190.9052Y-187.1322
G1X194.0818Y-188.6528
G1X199.0046Y-190.6144
G1X203.0712Y-192.0053
G1X210.8685Y-194.1977
G1X212.8957Y-194.6422
G1X214.8277Y-194.9374
G1X219.4046Y-195.2565
G1X226.1677Y-195.3900
G1X229.8322Y-195.2022
G1X233.2443Y-194.7099
G1X235.7156Y-194.1298
G1X238.1490Y-193.3654
G1X243.9264Y-191.1931
G1X250.8622Y-188.8676
G1X252.8911Y-188.0629
G1X254.5289Y-187.2925
G1X255.8488Y-186.5359
G1X257.0192Y-185.7025
G1X258.1098Y-184.7354
G1X259.1177Y-183.6553
G1X267.3809Y-173.1693
G1X272.1544Y-166.6902
G1X273.5538Y-165.0989
G1X274.9433Y-163.8374
G1 Z0F20000
(Start Block)

G1X21.1667Y-131.8950
G1Z4.7F20000
(Plotting speed under)
G1 F8000

G1X22.8487Y-133.4618
G1X27.4903Y-137.4707
G1X33.3003Y-142.8858
G1X35.5306Y-144.7442
G1X37.3781Y-146.0388
G1X39.1368Y-147.0498
G1X41.0547Y-147.9278
G1X43.2883Y-148.7396
G1X45.8473Y-149.4723
G1X48.3284Y-149.9937
G1X50.9476Y-150.3434
G1X53.9227Y-150.5558
G1X57.3613Y-150.6390
G1X69.6290Y-150.6044
G1X78.4457Y-150.1225
G1X80.8503Y-150.2486
G1X83.6938Y-150.6597
G1X86.7327Y-151.3370
G1X93.6457Y-153.2458
G1X102.8641Y-155.3752
G1X111.4917Y-157.5346
G1X113.9394Y-158.2361
G1X115.6437Y-158.8489
G1X117.2990Y-159.5679
G1X124.2231Y-163.0894
G1X128.3258Y-164.9926
G1X131.5275Y-166.2184
G1X134.9720Y-167.2270
G1X138.9085Y-168.1228
G1X142.3184Y-168.6365
G1X145.6377Y-168.8461
G1X152.6307Y-168.8922
G1X154.5711Y-169.0979
G1X156.3745Y-169.4821
G1X157.9242Y-169.9636
G1X159.7724Y-170.6773
G1X165.5887Y-173.1254
G1X168.2265Y-174.3694
G1X176.4405Y-178.7281
G1X182.3364Y-182.3566
G1X184.7989Y-183.7730
G1X190.9385Y-187.0941
G1X194.2074Y-188.6535
G1X198.9767Y-190.5489
G1X202.9326Y-191.9060
G1X210.6196Y-194.0619
G1X212.6453Y-194.5155
G1X214.5761Y-194.8216
G1X219.0379Y-195.1417
G1X225.9158Y-195.2631
G1X229.6947Y-195.0645
G1X233.1058Y-194.5637
G1X235.5761Y-193.9784
G1X238.1177Y-193.1691
G1X243.7739Y-190.9952
G1X250.5822Y-188.6388
G1X252.5135Y-187.8550
G1X254.1490Y-187.0781
G1X255.4690Y-186.3215
G1X256.6423Y-185.4934
G1X257.7375Y-184.5335
G1X258.7499Y-183.4589
G1X267.0684Y-172.8778
G1X271.8431Y-166.3998
G1X273.2408Y-164.8066
G1X274.6307Y-163.5457
G1 Z0F20000
(Start Block)

G1X21.1667Y-130.5721
G1Z4.7F20000
(Plotting speed under)
G1 F8000

G1X23.0366Y-132.4101
G1X27.6188Y-136.5094
G1X32.8201Y-141.3504
G1X35.8247Y-143.9075
G1X37.7482Y-145.2759
G1X39.5883Y-146.3526
G1X41.5936Y-147.2835
G1X43.8393Y-148.1142
G1X46.5049Y-148.9001
G1X48.9827Y-149.4421
G1X51.5990Y-149.8197
G1X54.6860Y-150.0821
G1X58.1236Y-150.2092
G1X69.5883Y-150.3419
G1X78.5221Y-149.9267
G1X80.9257Y-150.0754
G1X83.7670Y-150.5078
G1X86.6905Y-151.1765
G1X93.7060Y-153.1589
G1X102.8083Y-155.2834
G1X111.5452Y-157.4851
G1X113.9922Y-158.1900
G1X115.6338Y-158.7809
G1X117.3047Y-159.5057
G1X124.2283Y-163.0285
G1X128.3308Y-164.9322
G1X131.4693Y-166.1380
G1X134.9124Y-167.1528
G1X138.8479Y-168.0548
G1X142.2571Y-168.5747
G1X145.5762Y-168.7887
G1X152.6838Y-168.8348
G1X154.6239Y-169.0438
G1X156.5384Y-169.4616
G1X158.0855Y-169.9541
G1X159.7770Y-170.6124
G1X165.5907Y-173.0690
G1X168.2277Y-174.3152
G1X176.5271Y-178.7310
G1X182.3354Y-182.3080
G1X184.7100Y-183.6739
G1X190.9396Y-187.0406
G1X194.2081Y-188.6012
G1X199.0244Y-190.5131
G1X202.9815Y-191.8652
G1X210.5601Y-193.9757
G1X212.5862Y-194.4273
G1X214.4031Y-194.7176
G1X216.3450Y-194.9079
G1X218.8648Y-195.0384
G1X225.7430Y-195.1399
G1X229.5216Y-194.9356
G1X232.9322Y-194.4309
G1X235.5138Y-193.8130
G1X238.0528Y-192.9930
G1X243.6982Y-190.7820
G1X250.1631Y-188.4866
G1X252.1983Y-187.6452
G1X253.8301Y-186.8580
G1X255.1477Y-186.0959
G1X256.3205Y-185.2667
G1X257.3410Y-184.3805
G1X258.3598Y-183.3142
G1X266.8717Y-172.4765
G1X271.6557Y-166.0078
G1X273.2140Y-164.2805
G1X274.8763Y-162.8720
G1 Z0F20000
(Start Block)

G1X21.1667Y-129.2492
G1Z4.7F20000
(Plotting speed under)
G1 F8000

G1X23.5172Y-131.6585
G1X31.0760Y-138.7261
G1X33.8537Y-141.2541
G1X35.9210Y-142.9862
G1X37.9124Y-144.4435
G1X39.8253Y-145.6044
G1X41.8205Y-146.5635
G1X44.2472Y-147.4848
G1X46.9078Y-148.2933
G1X49.4938Y-148.8865
G1X52.2203Y-149.3115
G1X55.4188Y-149.6251
G1X58.8551Y-149.7957
G1X69.4003Y-150.0737
G1X72.1514Y-150.0214
G1X76.8462Y-149.7500
G1X78.6804Y-149.7366
G1X81.0825Y-149.9162
G1X83.8075Y-150.3536
G1X86.7279Y-151.0402
G1X93.8460Y-153.0947
G1X102.7203Y-155.1849
G1X111.6783Y-157.4583
G1X114.0133Y-158.1350
G1X115.7165Y-158.7514
G1X117.3709Y-159.4735
G1X124.2032Y-162.9539
G1X128.3050Y-164.8598
G1X131.4897Y-166.0851
G1X134.9327Y-167.1004
G1X138.8680Y-168.0033
G1X142.2772Y-168.5225
G1X145.7110Y-168.7372
G1X152.7040Y-168.7769
G1X154.6441Y-168.9856
G1X156.5587Y-169.4031
G1X158.1058Y-169.8956
G1X159.9357Y-170.6126
G1X165.5620Y-173.0002
G1X168.1989Y-174.2467
G1X176.4960Y-178.6682
G1X182.3053Y-182.2431
G1X184.5914Y-183.5595
G1X191.0002Y-187.0195
G1X194.1780Y-188.5367
G1X198.9317Y-190.4263
G1X202.8877Y-191.7826
G1X210.4683Y-193.8834
G1X212.3813Y-194.3129
G1X214.1973Y-194.6110
G1X216.1388Y-194.8072
G1X218.5440Y-194.9327
G1X225.5369Y-195.0211
G1X229.3154Y-194.8144
G1X232.8391Y-194.2875
G1X235.4195Y-193.6629
G1X238.0659Y-192.7954
G1X243.7008Y-190.5491
G1X249.9176Y-188.2876
G1X251.8557Y-187.4698
G1X253.4849Y-186.6752
G1X254.8012Y-185.9102
G1X255.9747Y-185.0823
G1X257.0733Y-184.1275
G1X258.0893Y-183.0576
G1X266.7267Y-172.0451
G1X271.3249Y-165.8405
G1X272.8779Y-164.1068
G1X274.5347Y-162.6898
G1 Z0F20000
(Start Block)

G1X21.1667Y-127.9263
G1Z4.7F20000
(Plotting speed under)
G1 F8000

G1X23.7604Y-130.7010
G1X29.7039Y-136.4643
G1X33.1498Y-139.6623
G1X35.9102Y-142.0293
G1X38.0496Y-143.6402
G1X40.0342Y-144.8868
G1X42.1118Y-145.9116
G1X44.6285Y-146.8801
G1X47.3971Y-147.7343
G1X49.9802Y-148.3446
G1X52.9306Y-148.8333
G1X56.1263Y-149.1829
G1X59.9043Y-149.4154
G1X69.4144Y-149.8022
G1X72.1658Y-149.7772
G1X76.9769Y-149.5437
G1X78.8111Y-149.5525
G1X81.0975Y-149.7456
G1X83.8205Y-150.1993
G1X86.7382Y-150.9015
G1X93.8470Y-152.9981
G1X102.6054Y-155.0814
G1X111.6728Y-157.3971
G1X114.1181Y-158.1097
G1X115.7578Y-158.7073
G1X117.4115Y-159.4314
G1X124.2432Y-162.9134
G1X128.2535Y-164.7783
G1X131.3736Y-165.9877
G1X134.8143Y-167.0134
G1X138.7479Y-167.9261
G1X142.2701Y-168.4690
G1X145.5892Y-168.6809
G1X152.8114Y-168.7259
G1X154.7508Y-168.9433
G1X156.6638Y-169.3703
G1X158.2093Y-169.8692
G1X159.8836Y-170.5273
G1X165.5994Y-172.9623
G1X168.1450Y-174.1673
G1X176.5286Y-178.6431
G1X182.2509Y-182.1652
G1X184.5367Y-183.4824
G1X190.9462Y-186.9406
G1X194.1222Y-188.4629
G1X198.9219Y-190.3723
G1X202.8782Y-191.7274
G1X210.3494Y-193.7873
G1X212.2623Y-194.2179
G1X214.0779Y-194.5185
G1X216.0193Y-194.7163
G1X218.4246Y-194.8386
G1X225.4177Y-194.9063
G1X229.3101Y-194.6791
G1X232.8317Y-194.1339
G1X235.4097Y-193.4970
G1X238.0530Y-192.6167
G1X243.5694Y-190.3801
G1X249.5564Y-188.1577
G1X251.4915Y-187.3306
G1X253.1191Y-186.5316
G1X254.4355Y-185.7667
G1X255.6111Y-184.9426
G1X256.7141Y-183.9946
G1X257.7347Y-182.9307
G1X258.9493Y-181.4471
G1X262.6442Y-176.5894
G1X266.5738Y-171.6703
G1X271.1895Y-165.4834
G1X272.9115Y-163.6265
G1X274.7663Y-162.1394
G1 Z0F20000
(Start Block)

G1X21.1667Y-126.6034
G1Z4.7F20000
(Plotting speed under)
G1 F8000

G1X23.8562Y-129.5914
G1X29.3994Y-135.1964
G1X32.5886Y-138.2192
G1X35.6423Y-140.8911
G1X38.0847Y-142.7954
G1X40.1350Y-144.1388
G1X42.2908Y-145.2402
G1X44.7701Y-146.2177
G1X47.5328Y-147.0975
G1X50.3348Y-147.7922
G1X53.3936Y-148.3386
G1X56.6994Y-148.7470
G1X61.9625Y-149.1356
G1X69.4066Y-149.5355
G1X72.1581Y-149.5400
G1X76.9706Y-149.3490
G1X78.9193Y-149.3767
G1X81.2040Y-149.5945
G1X83.8114Y-150.0471
G1X86.7267Y-150.7626
G1X93.9381Y-152.9291
G1X102.4691Y-154.9751
G1X111.8693Y-157.3922
G1X114.2016Y-158.0803
G1X115.7782Y-158.6577
G1X117.4318Y-159.3822
G1X124.1727Y-162.8209
G1X128.1813Y-164.6903
G1X131.3466Y-165.9229
G1X134.7864Y-166.9523
G1X138.7194Y-167.8687
G1X142.2411Y-168.4151
G1X145.6748Y-168.6318
G1X152.7824Y-168.6688
G1X154.8357Y-168.9001
G1X156.7475Y-169.3341
G1X158.2919Y-169.8380
G1X159.9958Y-170.5129
G1X165.6165Y-172.9177
G1X168.2509Y-174.1714
G1X176.5416Y-178.6090
G1X182.2643Y-182.1303
G1X184.4623Y-183.3965
G1X190.9618Y-186.9003
G1X194.0460Y-188.3821
G1X198.6731Y-190.2314
G1X202.7366Y-191.6346
G1X210.0969Y-193.6608
G1X212.0085Y-194.0991
G1X213.8227Y-194.4106
G1X215.7633Y-194.6188
G1X218.1684Y-194.7443
G1X225.1616Y-194.8002
G1X229.1683Y-194.5643
G1X232.6896Y-194.0158
G1X235.3788Y-193.3460
G1X238.0195Y-192.4557
G1X243.5272Y-190.1906
G1X249.3632Y-187.9824
G1X252.8272Y-186.3765
G1X254.1416Y-185.6073
G1X255.3162Y-184.7813
G1X256.3435Y-183.9055
G1X257.3707Y-182.8501
G1X258.5900Y-181.3718
G1X262.3471Y-176.4262
G1X266.4168Y-171.3477
G1X271.0520Y-165.1804
G1X271.9663Y-164.1510
G1X272.9455Y-163.2047
G1X274.9990Y-161.6528
G1 Z0F20000
(Start Block)

G1X21.1667Y-125.2804
G1Z4.7F20000
(Plotting speed under)
G1 F8000

G1X23.7299Y-128.2544
G1X29.4658Y-134.2911
G1X32.1681Y-136.9253
G1X35.1983Y-139.6325
G1X37.9338Y-141.8456
G1X40.1256Y-143.3591
G1X42.3529Y-144.5524
G1X44.9955Y-145.6207
G1X47.8655Y-146.5490
G1X50.7761Y-147.2898
G1X54.0575Y-147.9061
G1X57.4736Y-148.3663
G1X63.4180Y-148.8922
G1X69.3702Y-149.2789
G1X72.1215Y-149.3137
G1X77.0498Y-149.1623
G1X78.9982Y-149.2095
G1X81.2813Y-149.4489
G1X83.8862Y-149.9205
G1X86.7979Y-150.6550
G1X93.8893Y-152.8279
G1X102.4167Y-154.8933
G1X111.9260Y-157.3537
G1X114.2576Y-158.0450
G1X115.8644Y-158.6377
G1X117.4255Y-159.3239
G1X124.1662Y-162.7630
G1X128.1744Y-164.6335
G1X131.4021Y-165.8891
G1X134.7307Y-166.8864
G1X138.6627Y-167.8083
G1X142.1838Y-168.3607
G1X145.6172Y-168.5818
G1X152.8394Y-168.6200
G1X154.8924Y-168.8553
G1X156.8035Y-169.2933
G1X158.3471Y-169.7999
G1X160.0810Y-170.4908
G1X165.6987Y-172.9049
G1X168.1510Y-174.0734
G1X176.5292Y-178.5627
G1X182.2525Y-182.0827
G1X184.4509Y-183.3480
G1X190.9516Y-186.8491
G1X194.0351Y-188.3326
G1X198.6154Y-190.1645
G1X202.6784Y-191.5699
G1X210.0404Y-193.5874
G1X213.6530Y-194.3182
G1X215.5930Y-194.5319
G1X217.8835Y-194.6545
G1X224.8767Y-194.7019
G1X228.8838Y-194.4724
G1X232.5193Y-193.9129
G1X235.2091Y-193.2462
G1X237.9592Y-192.3167
G1X243.4590Y-190.0263
G1X249.0535Y-187.8782
G1X252.4250Y-186.3101
G1X253.8284Y-185.4927
G1X255.0039Y-184.6684
G1X256.0338Y-183.7967
G1X257.0644Y-182.7457
G1X258.2859Y-181.2699
G1X262.1061Y-176.2374
G1X266.3174Y-171.0010
G1X270.7704Y-165.1015
G1X272.5809Y-163.1884
G1X273.5340Y-162.3874
G1X274.6200Y-161.6115
G1 Z0F20000
(Start Block)

G1X21.1667Y-123.9575
G1Z4.7F20000
(Plotting speed under)
G1 F8000

G1X23.3016Y-126.6195
G1X29.2248Y-133.0899
G1X31.7296Y-135.6409
G1X34.6508Y-138.3248
G1X37.7550Y-140.9177
G1X40.1703Y-142.6613
G1X42.4700Y-143.9426
G1X45.1825Y-145.0655
G1X48.2703Y-146.0773
G1X51.2906Y-146.8584
G1X54.6814Y-147.5222
G1X58.4350Y-148.0682
G1X64.1450Y-148.6539
G1X69.4077Y-149.0473
G1X72.1587Y-149.1056
G1X77.0877Y-148.9927
G1X79.0358Y-149.0555
G1X81.3176Y-149.3119
G1X83.9203Y-149.7988
G1X86.8292Y-150.5479
G1X94.0245Y-152.7840
G1X102.3254Y-154.8074
G1X111.9439Y-157.3097
G1X114.2754Y-158.0019
G1X115.9129Y-158.6077
G1X117.4732Y-159.2960
G1X124.2134Y-162.7365
G1X128.1303Y-164.5654
G1X131.3096Y-165.8093
G1X134.6364Y-166.8146
G1X138.6800Y-167.7668
G1X142.2011Y-168.3185
G1X145.6347Y-168.5378
G1X152.8568Y-168.5731
G1X154.9098Y-168.8085
G1X156.9321Y-169.2787
G1X158.4737Y-169.7936
G1X160.1288Y-170.4581
G1X165.6523Y-172.8394
G1X168.1947Y-174.0529
G1X176.5698Y-178.5502
G1X182.1189Y-181.9653
G1X184.3153Y-183.2351
G1X190.9052Y-186.7836
G1X193.9873Y-188.2711
G1X198.6292Y-190.1287
G1X202.6927Y-191.5318
G1X209.8330Y-193.4820
G1X213.4435Y-194.2261
G1X215.3828Y-194.4487
G1X217.6731Y-194.5752
G1X224.6664Y-194.6128
G1X228.7878Y-194.3730
G1X232.4228Y-193.8087
G1X235.2234Y-193.1079
G1X237.9707Y-192.1672
G1X243.4942Y-189.8414
G1X248.8950Y-187.7402
G1X252.1705Y-186.2005
G1X253.4871Y-185.4360
G1X254.6665Y-184.6192
G1X255.7020Y-183.7565
G1X256.7400Y-182.7151
G1X258.0333Y-181.1618
G1X261.8510Y-176.1268
G1X266.1388Y-170.8177
G1X270.6777Y-164.8545
G1X271.5988Y-163.8333
G1X272.5830Y-162.8939
G1X273.6297Y-162.0491
G1X274.8150Y-161.2436
G1 Z0F20000
(Start Block)

G1X21.1667Y-122.6346
G1Z4.7F20000
(Plotting speed under)
G1 F8000

G1X22.2165Y-124.1338
G1X23.3447Y-125.5552
G1X28.5462Y-131.4193
G1X31.2792Y-134.3552
G1X34.0017Y-136.9612
G1X37.4659Y-139.9463
G1X40.1798Y-141.9926
G1X42.5482Y-143.3692
G1X45.3282Y-144.5537
G1X48.4105Y-145.5877
G1X51.6495Y-146.4520
G1X55.3749Y-147.2122
G1X59.4651Y-147.8490
G1X64.7133Y-148.4491
G1X69.5162Y-148.8453
G1X72.2668Y-148.9200
G1X77.0817Y-148.8413
G1X79.0295Y-148.9155
G1X81.3102Y-149.1840
G1X83.9114Y-149.6823
G1X86.8183Y-150.4417
G1X94.0065Y-152.7078
G1X102.3045Y-154.7464
G1X112.0324Y-157.2902
G1X114.3627Y-157.9879
G1X115.9215Y-158.5672
G1X117.4819Y-159.2554
G1X124.2219Y-162.6965
G1X128.1388Y-164.5255
G1X131.2866Y-165.7585
G1X134.6128Y-166.7668
G1X138.6559Y-167.7220
G1X142.1766Y-168.2767
G1X145.6101Y-168.4978
G1X152.9467Y-168.5363
G1X154.9990Y-168.7797
G1X157.0198Y-169.2583
G1X160.1372Y-170.4144
G1X165.6585Y-172.8021
G1X168.2002Y-174.0177
G1X176.5730Y-178.5205
G1X182.1225Y-181.9349
G1X184.3194Y-183.2035
G1X191.0000Y-186.7960
G1X193.9923Y-188.2373
G1X198.6033Y-190.0826
G1X202.6667Y-191.4861
G1X209.8085Y-193.4285
G1X213.3061Y-194.1510
G1X215.2450Y-194.3783
G1X217.4205Y-194.5025
G1X224.4138Y-194.5355
G1X228.6497Y-194.2902
G1X232.3977Y-193.7038
G1X235.1972Y-192.9968
G1X237.9428Y-192.0496
G1X243.3985Y-189.7301
G1X248.7003Y-187.6447
G1X251.9723Y-186.0952
G1X253.2874Y-185.3274
G1X254.4656Y-184.5082
G1X255.5002Y-183.6440
G1X256.5377Y-182.6019
G1X257.8305Y-181.0482
G1X261.6463Y-176.0112
G1X266.0100Y-170.6288
G1X270.4977Y-164.7646
G1X271.4936Y-163.6697
G1X272.5617Y-162.6696
G1X273.7003Y-161.7791
G1X274.9832Y-160.9421
G1 Z0F20000
(Start Block)

G1X21.1667Y-121.3116
G1Z4.7F20000
(Plotting speed under)
G1 F8000

G1X22.7276Y-123.6450
G1X24.4606Y-125.8103
G1X30.3285Y-132.5096
G1X33.7256Y-135.9491
G1X37.3961Y-139.1832
G1X40.3325Y-141.4577
G1X42.6866Y-142.8665
G1X45.5503Y-144.1161
G1X48.8495Y-145.2362
G1X52.1983Y-146.1400
G1X56.3720Y-147.0142
G1X60.5717Y-147.7025
G1X65.3600Y-148.2893
G1X69.7041Y-148.6699
G1X72.3398Y-148.7538
G1X77.1550Y-148.7059
G1X79.1023Y-148.7957
G1X81.2680Y-149.0632
G1X83.8679Y-149.5699
G1X86.7735Y-150.3358
G1X94.0667Y-152.6602
G1X102.2505Y-154.6823
G1X112.0880Y-157.2666
G1X114.4175Y-157.9675
G1X115.9910Y-158.5560
G1X117.5502Y-159.2477
G1X124.1993Y-162.6457
G1X128.1156Y-164.4764
G1X131.2314Y-165.7009
G1X134.5564Y-166.7143
G1X138.5986Y-167.6746
G1X142.1186Y-168.2350
G1X145.5518Y-168.4608
G1X151.1696Y-168.4410
G1X153.0031Y-168.5018
G1X155.0549Y-168.7497
G1X157.0749Y-169.2330
G1X160.2061Y-170.4013
G1X165.7251Y-172.7961
G1X168.1752Y-173.9709
G1X176.5465Y-178.4772
G1X182.1836Y-181.9428
G1X184.2935Y-183.1589
G1X190.9746Y-186.7499
G1X193.9661Y-188.1936
G1X198.4365Y-189.9875
G1X202.4975Y-191.4005
G1X209.6390Y-193.3440
G1X213.1351Y-194.0763
G1X215.0733Y-194.3112
G1X217.2487Y-194.4397
G1X224.1273Y-194.4682
G1X228.4780Y-194.2212
G1X232.2267Y-193.6412
G1X235.0276Y-192.9415
G1X237.7750Y-192.0012
G1X243.3651Y-189.6110
G1X248.5688Y-187.5450
G1X251.6585Y-186.0798
G1X253.0632Y-185.2652
G1X254.2427Y-184.4486
G1X255.2794Y-183.5877
G1X256.3198Y-182.5496
G1X257.6153Y-180.9988
G1X261.4956Y-175.8764
G1X265.9343Y-170.4196
G1X270.3020Y-164.7357
G1X271.2967Y-163.6392
G1X272.2835Y-162.7035
G1X273.3316Y-161.8610
G1X274.5179Y-161.0575
G1 Z0F20000
(Start Block)

G1X21.1667Y-119.9887
G1Z4.7F20000
(Plotting speed under)
G1 F8000

G1X22.9157Y-122.7266
G1X24.6023Y-124.9401
G1X30.4722Y-131.7974
G1X33.6817Y-135.1390
G1X37.4017Y-138.4846
G1X40.4770Y-140.9269
G1X41.7570Y-141.7701
G1X42.9935Y-142.4656
G1X45.8677Y-143.7366
G1X49.0521Y-144.8386
G1X52.5070Y-145.7995
G1X57.1247Y-146.8128
G1X61.3187Y-147.5462
G1X65.7616Y-148.1261
G1X69.8756Y-148.5071
G1X72.3965Y-148.5985
G1X77.0972Y-148.5772
G1X79.0442Y-148.6732
G1X81.2093Y-148.9465
G1X83.9207Y-149.4859
G1X86.8237Y-150.2648
G1X93.9998Y-152.5816
G1X102.1811Y-154.6171
G1X112.1282Y-157.2414
G1X114.4572Y-157.9446
G1X117.5131Y-159.1926
G1X124.1623Y-162.5902
G1X128.0777Y-164.4233
G1X131.2709Y-165.6786
G1X134.5963Y-166.6901
G1X138.6387Y-167.6489
G1X142.1591Y-168.2065
G1X145.5925Y-168.4285
G1X152.9292Y-168.4610
G1X155.0953Y-168.7195
G1X157.1147Y-169.2059
G1X160.2601Y-170.3847
G1X165.7771Y-172.7860
G1X168.2256Y-173.9650
G1X176.5943Y-178.4780
G1X184.2535Y-183.1088
G1X191.0247Y-186.7452
G1X193.9254Y-188.1455
G1X198.3639Y-189.9300
G1X202.5348Y-191.3807
G1X209.4541Y-193.2585
G1X212.9486Y-194.0020
G1X214.8859Y-194.2459
G1X217.0610Y-194.3802
G1X223.9396Y-194.4040
G1X228.2904Y-194.1596
G1X230.2277Y-193.9138
G1X232.1531Y-193.5650
G1X235.0649Y-192.8321
G1X237.7942Y-191.8880
G1X243.4101Y-189.4692
G1X248.4241Y-187.4641
G1X251.5111Y-185.9914
G1X252.9145Y-185.1736
G1X254.0927Y-184.3545
G1X255.1280Y-183.4913
G1X256.1672Y-182.4516
G1X257.4617Y-180.8998
G1X261.3409Y-175.7762
G1X265.8542Y-170.2448
G1X270.1687Y-164.6581
G1X271.2396Y-163.4896
G1X272.3113Y-162.4947
G1X273.4521Y-161.6079
G1X274.6495Y-160.8265
G1 Z0F20000
(Start Block)

G1X21.1667Y-118.6658
G1Z4.7F20000
(Plotting speed under)
G1 F8000

G1X23.2449Y-121.9690
G1X24.8357Y-124.1283
G1X30.6435Y-131.0556
G1X33.8180Y-134.4415
G1X37.5875Y-137.8976
G1X40.8065Y-140.4985
G1X42.0821Y-141.3506
G1X43.3149Y-142.0549
G1X46.1973Y-143.3537
G1X49.3761Y-144.4766
G1X52.7135Y-145.4353
G1X57.6583Y-146.5867
G1X61.7314Y-147.3551
G1X65.9425Y-147.9441
G1X69.9404Y-148.3398
G1X72.4609Y-148.4448
G1X77.1616Y-148.4515
G1X79.3366Y-148.5842
G1X81.9513Y-148.9741
G1X85.1015Y-149.6843
G1X87.2130Y-150.3019
G1X91.7234Y-151.8296
G1X94.0517Y-152.5364
G1X102.0072Y-154.5247
G1X112.1758Y-157.2186
G1X114.3942Y-157.8871
G1X117.4829Y-159.1412
G1X124.6745Y-162.8056
G1X128.9692Y-164.7652
G1X132.6411Y-166.0926
G1X136.9962Y-167.2589
G1X139.9315Y-167.8564
G1X142.6640Y-168.2263
G1X145.7555Y-168.3990
G1X152.9775Y-168.4285
G1X155.1432Y-168.6910
G1X157.1619Y-169.1814
G1X160.3213Y-170.3717
G1X165.7446Y-172.7382
G1X168.1933Y-173.9167
G1X176.6488Y-178.4831
G1X184.2203Y-183.0627
G1X190.9920Y-186.6979
G1X193.8917Y-188.1009
G1X198.2986Y-189.8754
G1X202.4687Y-191.3293
G1X209.2766Y-193.1755
G1X212.7695Y-193.9288
G1X214.7061Y-194.1813
G1X216.8809Y-194.3217
G1X223.5301Y-194.3458
G1X228.1104Y-194.0979
G1X230.0480Y-193.8559
G1X231.9740Y-193.5116
G1X234.8875Y-192.7875
G1X237.6346Y-191.8463
G1X243.3700Y-189.3649
G1X248.2872Y-187.3837
G1X251.2827Y-185.9520
G1X252.6874Y-185.1376
G1X253.8684Y-184.3237
G1X254.9071Y-183.4659
G1X255.9508Y-182.4322
G1X257.3154Y-180.8009
G1X261.0614Y-175.8443
G1X265.4502Y-170.4890
G1X270.1127Y-164.5011
G1X271.1912Y-163.3420
G1X272.2694Y-162.3565
G1X273.4996Y-161.4202
G1X274.7919Y-160.6026
G1 Z0F20000
(Start Block)

G1X21.1667Y-117.3429
G1Z4.7F20000
(Plotting speed under)
G1 F8000

G1X23.6038Y-121.1864
G1X25.1780Y-123.3620
G1X31.0083Y-130.4214
G1X34.1589Y-133.8369
G1X37.9783Y-137.4023
G1X41.1787Y-140.0336
G1X42.4481Y-140.8977
G1X43.6757Y-141.6141
G1X46.6871Y-142.9988
G1X49.7347Y-144.0997
G1X52.9537Y-145.0588
G1X58.3339Y-146.3936
G1X62.2869Y-147.1879
G1X66.1533Y-147.7597
G1X70.0351Y-148.1677
G1X72.5552Y-148.2853
G1X77.2558Y-148.3217
G1X79.3156Y-148.4612
G1X81.9290Y-148.8625
G1X85.0775Y-149.5836
G1X87.1877Y-150.2065
G1X91.8042Y-151.7865
G1X94.0204Y-152.4654
G1X102.0852Y-154.4964
G1X112.2514Y-157.2021
G1X114.4688Y-157.8751
G1X117.4793Y-159.1009
G1X124.5805Y-162.7212
G1X128.7804Y-164.6490
G1X132.3840Y-165.9753
G1X136.7349Y-167.1620
G1X139.7811Y-167.7957
G1X142.6266Y-168.1885
G1X145.7179Y-168.3637
G1X151.2210Y-168.3353
G1X153.0545Y-168.3964
G1X155.2195Y-168.6663
G1X157.2369Y-169.1637
G1X160.3174Y-170.3289
G1X165.7388Y-172.7010
G1X168.1871Y-173.8807
G1X176.6408Y-178.4514
G1X184.2130Y-183.0296
G1X190.9855Y-186.6628
G1X193.8848Y-188.0669
G1X198.2605Y-189.8299
G1X202.4302Y-191.2851
G1X209.1271Y-193.0981
G1X212.6190Y-193.8580
G1X214.5549Y-194.1170
G1X216.7295Y-194.2619
G1X223.3787Y-194.2793
G1X227.9589Y-194.0297
G1X230.0104Y-193.7724
G1X231.9360Y-193.4249
G1X234.8489Y-192.6978
G1X237.5952Y-191.7535
G1X243.3567Y-189.2448
G1X248.1771Y-187.2879
G1X251.0802Y-185.8951
G1X252.4857Y-185.0821
G1X253.6680Y-184.2709
G1X254.7085Y-183.4161
G1X255.6827Y-182.4629
G1X257.0567Y-180.8422
G1X260.9998Y-175.6325
G1X265.3304Y-170.3699
G1X269.9387Y-164.4783
G1X271.0916Y-163.2451
G1X272.2529Y-162.1981
G1X273.4902Y-161.2743
G1X274.9640Y-160.3675
G1 Z0F20000
(Start Block)

G1X21.1667Y-116.0200
G1Z4.7F20000
(Plotting speed under)
G1 F8000

G1X24.0617Y-120.4598
G1X25.5765Y-122.5451
G1X31.6619Y-129.9503
G1X34.7322Y-133.2989
G1X38.6010Y-136.9741
G1X41.7032Y-139.5686
G1X42.9672Y-140.4434
G1X44.2789Y-141.2189
G1X47.3755Y-142.6626
G1X50.2609Y-143.7293
G1X53.4730Y-144.7189
G1X58.9468Y-146.1774
G1X62.7789Y-146.9990
G1X66.4144Y-147.5665
G1X70.0659Y-147.9752
G1X72.5853Y-148.1102
G1X77.2857Y-148.1785
G1X79.3447Y-148.3327
G1X81.9561Y-148.7511
G1X85.2134Y-149.5181
G1X94.0369Y-152.4021
G1X101.9873Y-154.4171
G1X112.2627Y-157.1648
G1X114.4800Y-157.8382
G1X117.5208Y-159.0786
G1X124.5312Y-162.6553
G1X128.7299Y-164.5868
G1X132.2846Y-165.9035
G1X136.5214Y-167.0722
G1X139.6787Y-167.7399
G1X142.5234Y-168.1409
G1X145.7290Y-168.3262
G1X151.2321Y-168.2956
G1X153.0656Y-168.3567
G1X155.2306Y-168.6261
G1X157.3589Y-169.1573
G1X160.4511Y-170.3418
G1X165.7782Y-172.6812
G1X168.2251Y-173.8647
G1X176.6761Y-178.4422
G1X184.0718Y-182.9204
G1X190.9335Y-186.6014
G1X193.8314Y-188.0095
G1X198.0504Y-189.7169
G1X202.3277Y-191.2184
G1X208.8009Y-192.9730
G1X212.2898Y-193.7520
G1X214.2238Y-194.0293
G1X216.2829Y-194.1851
G1X222.5881Y-194.2214
G1X227.6273Y-193.9719
G1X229.6798Y-193.7256
G1X231.7199Y-193.3671
G1X234.7461Y-192.6188
G1X237.6015Y-191.6343
G1X243.2962Y-189.1355
G1X248.0200Y-187.2034
G1X250.8323Y-185.8534
G1X252.2395Y-185.0445
G1X253.4249Y-184.2392
G1X254.4692Y-183.3906
G1X255.5202Y-182.3668
G1X256.8935Y-180.7454
G1X260.8364Y-175.5355
G1X265.1751Y-170.2819
G1X269.7291Y-164.4863
G1X270.8802Y-163.2507
G1X272.0375Y-162.1980
G1X273.2708Y-161.2669
G1X274.5651Y-160.4536
G1 Z0F20000
(Start Block)

G1X21.1667Y-114.6970
G1Z4.7F20000
(Plotting speed under)
G1 F8000

G1X24.4998Y-119.6064
G1X25.9684Y-121.5884
G1X32.4911Y-129.4519
G1X35.6372Y-132.8733
G1X39.6313Y-136.7296
G1X42.4831Y-139.1430
G1X43.7442Y-140.0231
G1X45.0532Y-140.8048
G1X48.2327Y-142.3146
G1X51.1896Y-143.4328
G1X54.3954Y-144.4495
G1X59.6227Y-145.9589
G1X63.2213Y-146.7806
G1X66.6258Y-147.3436
G1X70.1609Y-147.7653
G1X72.5651Y-147.9127
G1X77.2649Y-148.0162
G1X79.3233Y-148.1829
G1X82.0457Y-148.6394
G1X85.2991Y-149.4285
G1X94.1136Y-152.3484
G1X101.9497Y-154.3473
G1X112.3339Y-157.1394
G1X114.5502Y-157.8168
G1X117.5284Y-159.0353
G1X124.5386Y-162.6123
G1X128.6449Y-164.5051
G1X132.1342Y-165.8100
G1X136.2561Y-166.9641
G1X139.5239Y-167.6697
G1X142.4815Y-168.0949
G1X145.6869Y-168.2833
G1X151.3047Y-168.2518
G1X153.1380Y-168.3164
G1X155.3025Y-168.5922
G1X157.4295Y-169.1299
G1X160.5504Y-170.3348
G1X165.7831Y-172.6414
G1X168.2292Y-173.8270
G1X176.6778Y-178.4105
G1X184.0743Y-182.8870
G1X190.9371Y-186.5651
G1X193.7432Y-187.9327
G1X197.8983Y-189.6218
G1X202.2842Y-191.1660
G1X208.5344Y-192.8588
G1X212.1347Y-193.6702
G1X214.0680Y-193.9536
G1X216.1268Y-194.1143
G1X222.3173Y-194.1451
G1X227.4710Y-193.8871
G1X229.6373Y-193.6247
G1X231.6768Y-193.2622
G1X234.7024Y-192.5103
G1X237.4485Y-191.5653
G1X243.2925Y-188.9882
G1X247.9194Y-187.0801
G1X250.6388Y-185.7677
G1X252.0457Y-184.9580
G1X253.2312Y-184.1530
G1X254.2760Y-183.3052
G1X255.3275Y-182.2820
G1X256.7675Y-180.5775
G1X260.7775Y-175.2847
G1X264.9918Y-170.2074
G1X269.6316Y-164.3489
G1X270.8655Y-163.0499
G1X272.0337Y-162.0132
G1X273.3608Y-161.0411
G1X274.8420Y-160.1503
G1 Z0F20000
(Start Block)

G1X21.1667Y-113.3741
G1Z4.7F20000
(Plotting speed under)
G1 F8000

G1X25.0316Y-118.8087
G1X26.4709Y-120.6697
G1X29.9012Y-124.5688
G1X33.8465Y-129.3148
G1X37.6089Y-133.3038
G1X41.2143Y-136.8129
G1X43.6791Y-138.8762
G1X44.9463Y-139.7447
G1X46.2591Y-140.5179
G1X49.5276Y-142.0764
G1X52.6211Y-143.2597
G1X58.4660Y-145.1771
G1X61.1338Y-145.9542
G1X63.7190Y-146.5527
G1X67.0068Y-147.1225
G1X70.3119Y-147.5381
G1X72.7153Y-147.7003
G1X77.2998Y-147.8386
G1X79.3569Y-148.0238
G1X82.0765Y-148.5028
G1X85.3263Y-149.3115
G1X94.1312Y-152.2695
G1X101.8525Y-154.2549
G1X112.4565Y-157.1238
G1X114.6711Y-157.8086
G1X117.5850Y-159.0104
G1X124.5044Y-162.5440
G1X128.6097Y-164.4396
G1X132.0349Y-165.7279
G1X136.0428Y-166.8630
G1X139.4215Y-167.6041
G1X142.4923Y-168.0497
G1X145.6978Y-168.2368
G1X151.2009Y-168.2023
G1X153.1489Y-168.2668
G1X155.3134Y-168.5418
G1X157.4406Y-169.0786
G1X160.5153Y-170.2643
G1X165.7457Y-172.5779
G1X168.1917Y-173.7637
G1X176.6384Y-178.3519
G1X184.0355Y-182.8272
G1X190.9887Y-186.5498
G1X193.7957Y-187.9150
G1X198.0141Y-189.6242
G1X202.2915Y-191.1254
G1X208.2074Y-192.7248
G1X211.9186Y-193.5712
G1X213.8509Y-193.8642
G1X215.9091Y-194.0335
G1X221.8703Y-194.0648
G1X227.2531Y-193.7972
G1X229.4197Y-193.5381
G1X231.5728Y-193.1573
G1X234.5986Y-192.4066
G1X237.4536Y-191.4206
G1X243.2455Y-188.8449
G1X247.7756Y-186.9611
G1X250.4033Y-185.6897
G1X251.8109Y-184.8817
G1X252.9980Y-184.0797
G1X254.0449Y-183.2354
G1X255.0988Y-182.2156
G1X256.5425Y-180.5151
G1X260.6857Y-175.0556
G1X264.8423Y-170.0716
G1X269.3612Y-164.3926
G1X270.5920Y-163.0896
G1X271.8345Y-161.9785
G1X273.0749Y-161.0602
G1X274.5511Y-160.1584
G1 Z0F20000
(Start Block)

G1X21.1667Y-112.0512
G1Z4.7F20000
(Plotting speed under)
G1 F8000

G1X25.5153Y-117.9057
G1X26.9185Y-119.6513
G1X30.7136Y-123.7666
G1X35.3378Y-129.1739
G1X40.7987Y-134.8848
G1X43.3017Y-137.2632
G1X45.4160Y-138.9161
G1X47.9388Y-140.4427
G1X50.9347Y-141.8731
G1X53.4127Y-142.8562
G1X59.4344Y-145.0156
G1X61.8727Y-145.7595
G1X64.2299Y-146.3247
G1X67.4013Y-146.8971
G1X70.4766Y-147.3029
G1X72.7647Y-147.4745
G1X77.1191Y-147.6398
G1X78.9481Y-147.8005
G1X80.9922Y-148.1256
G1X83.3557Y-148.6544
G1X86.6946Y-149.6045
G1X91.9508Y-151.4853
G1X94.2719Y-152.2229
G1X101.3205Y-154.0420
G1X113.1470Y-157.2693
G1X115.2409Y-157.9614
G1X117.1973Y-158.7755
G1X124.6621Y-162.5676
G1X128.7705Y-164.4543
G1X132.0575Y-165.6831
G1X135.7294Y-166.7333
G1X139.2178Y-167.5167
G1X142.2867Y-167.9796
G1X145.6061Y-168.1860
G1X151.3384Y-168.1516
G1X153.1718Y-168.2159
G1X155.4494Y-168.5129
G1X157.5739Y-169.0635
G1X160.5834Y-170.2360
G1X165.8107Y-172.5590
G1X168.2547Y-173.7505
G1X176.6975Y-178.3481
G1X184.0071Y-182.7717
G1X190.9614Y-186.4918
G1X193.6759Y-187.8182
G1X197.8141Y-189.5055
G1X202.1994Y-191.0521
G1X207.6678Y-192.5359
G1X211.7142Y-193.4720
G1X213.6455Y-193.7734
G1X215.7032Y-193.9506
G1X221.2057Y-193.9872
G1X226.9326Y-193.7127
G1X229.2137Y-193.4449
G1X231.3673Y-193.0684
G1X234.5061Y-192.2947
G1X237.3459Y-191.3161
G1X243.2095Y-188.6927
G1X247.7347Y-186.7934
G1X250.1792Y-185.6039
G1X251.7603Y-184.6892
G1X253.0231Y-183.8126
G1X254.1342Y-182.8770
G1X255.2384Y-181.7509
G1X256.4582Y-180.2733
G1X260.6044Y-174.8169
G1X264.7702Y-169.8431
G1X268.3435Y-165.3164
G1X269.8873Y-163.5706
G1X271.0159Y-162.4769
G1X272.2179Y-161.4930
G1X273.4872Y-160.6287
G1X274.8966Y-159.8251
G1 Z0F20000
(Start Block)

G1X21.1667Y-110.7283
G1Z4.7F20000
(Plotting speed under)
G1 F8000

G1X26.0681Y-117.0791
G1X27.3566Y-118.6381
G1X31.3629Y-122.8234
G1X36.1670Y-128.3442
G1X42.6761Y-135.2528
G1X44.8205Y-137.2411
G1X46.9627Y-138.8457
G1X49.4919Y-140.3591
G1X52.3924Y-141.7591
G1X59.4827Y-144.5845
G1X61.3504Y-145.2273
G1X63.2423Y-145.7674
G1X66.1710Y-146.4057
G1X69.6916Y-146.9666
G1X72.3187Y-147.2253
G1X78.1591Y-147.5426
G1X79.9812Y-147.7861
G1X82.0139Y-148.1954
G1X86.3651Y-149.3789
G1X92.0559Y-151.4283
G1X94.4874Y-152.2016
G1X101.3108Y-153.9711
G1X113.3557Y-157.2817
G1X115.3370Y-157.9468
G1X117.3219Y-158.7813
G1X124.5144Y-162.4431
G1X128.6194Y-164.3396
G1X131.8239Y-165.5557
G1X135.4920Y-166.6235
G1X139.0907Y-167.4449
G1X142.2725Y-167.9313
G1X145.5918Y-168.1386
G1X151.2095Y-168.1016
G1X153.1576Y-168.1641
G1X155.4355Y-168.4572
G1X157.6713Y-169.0394
G1X160.7085Y-170.2353
G1X165.8412Y-172.5263
G1X168.1942Y-173.6750
G1X176.7234Y-178.3269
G1X183.9454Y-182.6994
G1X190.9898Y-186.4645
G1X193.7047Y-187.7899
G1X197.7968Y-189.4576
G1X202.1822Y-191.0040
G1X206.8677Y-192.2838
G1X211.4732Y-193.3675
G1X213.4032Y-193.6797
G1X215.3457Y-193.8613
G1X217.6377Y-193.9339
G1X220.6186Y-193.9126
G1X224.0567Y-193.8006
G1X226.6892Y-193.6251
G1X228.9706Y-193.3613
G1X231.2380Y-192.9683
G1X234.3775Y-192.1984
G1X237.2342Y-191.2190
G1X243.2314Y-188.5228
G1X247.5688Y-186.6912
G1X249.9235Y-185.5477
G1X251.3339Y-184.7459
G1X252.5254Y-183.9528
G1X253.6567Y-183.0501
G1X254.6393Y-182.1085
G1X256.1586Y-180.3351
G1X260.5047Y-174.6285
G1X264.4759Y-169.9108
G1X269.0287Y-164.2682
G1X270.3437Y-162.9034
G1X271.6755Y-161.7406
G1X273.0108Y-160.7834
G1X274.5869Y-159.8578
G1 Z0F20000
(Start Block)

G1X21.1667Y-109.4054
G1Z4.7F20000
(Plotting speed under)
G1 F8000

G1X23.0828Y-111.6837
G1X27.8605Y-117.7042
G1X32.3252Y-122.3184
G1X36.9211Y-127.5986
G1X41.6845Y-132.8438
G1X43.8012Y-135.0452
G1X45.9579Y-137.0155
G1X48.3541Y-138.7934
G1X50.9690Y-140.3623
G1X53.8681Y-141.7663
G1X60.0143Y-144.3833
G1X61.8761Y-145.0480
G1X63.7659Y-145.5979
G1X66.5804Y-146.2214
G1X69.8717Y-146.7631
G1X72.4980Y-147.0344
G1X78.1076Y-147.3787
G1X79.9286Y-147.6320
G1X81.9598Y-148.0522
G1X86.3076Y-149.2523
G1X92.1027Y-151.3601
G1X94.4217Y-152.1065
G1X101.2422Y-153.8905
G1X107.3637Y-155.6366
G1X113.5059Y-157.2822
G1X115.4848Y-157.9570
G1X117.2993Y-158.7239
G1X124.5824Y-162.4296
G1X128.5964Y-164.2836
G1X131.7530Y-165.4863
G1X135.3079Y-166.5310
G1X139.0175Y-167.3874
G1X142.1985Y-167.8806
G1X145.5175Y-168.0941
G1X151.3644Y-168.0572
G1X153.1978Y-168.1209
G1X155.4755Y-168.4167
G1X157.7107Y-169.0018
G1X160.6856Y-170.1745
G1X165.8160Y-172.4724
G1X168.1687Y-173.6218
G1X176.6960Y-178.2786
G1X183.9184Y-182.6500
G1X190.9637Y-186.4129
G1X193.5863Y-187.6991
G1X197.5049Y-189.3094
G1X201.9967Y-190.9071
G1X206.0089Y-192.0225
G1X211.1729Y-193.2565
G1X213.1011Y-193.5833
G1X215.0424Y-193.7805
G1X217.1049Y-193.8602
G1X219.9711Y-193.8490
G1X226.2714Y-193.5637
G1X228.6678Y-193.2974
G1X231.0496Y-192.8925
G1X234.3021Y-192.1000
G1X237.1592Y-191.1221
G1X243.1983Y-188.3942
G1X247.4406Y-186.5928
G1X249.7053Y-185.4947
G1X251.2908Y-184.5904
G1X252.6430Y-183.6653
G1X253.7580Y-182.7360
G1X254.8662Y-181.6151
G1X256.1567Y-180.0587
G1X260.4402Y-174.4397
G1X264.4858Y-169.6474
G1X268.0148Y-165.2274
G1X269.5685Y-163.4935
G1X270.7787Y-162.3357
G1X271.9856Y-161.3597
G1X273.3446Y-160.4480
G1X274.8489Y-159.6103
G1 Z0F20000
(Start Block)

G1X21.1667Y-108.0825
G1Z4.7F20000
(Plotting speed under)
G1 F8000

G1X23.7833Y-110.9943
G1X28.6532Y-117.0709
G1X32.9577Y-121.5518
G1X36.8252Y-126.0690
G1X42.0843Y-132.0274
G1X45.2257Y-135.2865
G1X47.9947Y-137.6381
G1X50.8703Y-139.5983
G1X53.5363Y-141.0484
G1X58.7302Y-143.4690
G1X60.8066Y-144.3455
G1X62.7808Y-145.0380
G1X64.7877Y-145.5922
G1X67.0415Y-146.0787
G1X71.4731Y-146.7568
G1X78.5655Y-147.2911
G1X80.3817Y-147.5871
G1X82.5188Y-148.0729
G1X86.5225Y-149.2269
G1X91.9824Y-151.2416
G1X94.4091Y-152.0346
G1X101.2272Y-153.8307
G1X107.3464Y-155.5881
G1X113.3771Y-157.2030
G1X115.3584Y-157.8683
G1X117.3129Y-158.6884
G1X124.5960Y-162.3941
G1X128.7023Y-164.2869
G1X131.9557Y-165.5129
G1X135.6254Y-166.5735
G1X139.2251Y-167.3887
G1X142.2939Y-167.8529
G1X145.6133Y-168.0577
G1X151.2309Y-168.0165
G1X153.1791Y-168.0782
G1X155.4571Y-168.3699
G1X157.6932Y-168.9508
G1X160.6993Y-170.1349
G1X165.8273Y-172.4396
G1X168.1792Y-173.5914
G1X176.7040Y-178.2540
G1X183.8385Y-182.5750
G1X190.9736Y-186.3841
G1X193.5962Y-187.6703
G1X197.4839Y-189.2680
G1X201.9755Y-190.8659
G1X205.7642Y-191.9226
G1X211.0405Y-193.1836
G1X212.9681Y-193.5147
G1X214.9091Y-193.7166
G1X216.9715Y-193.7985
G1X219.6084Y-193.7884
G1X223.2758Y-193.6706
G1X226.1376Y-193.4876
G1X228.5340Y-193.2203
G1X230.9159Y-192.8169
G1X234.1695Y-192.0303
G1X237.1371Y-191.0174
G1X243.1111Y-188.3052
G1X247.4422Y-186.4538
G1X249.5251Y-185.4417
G1X251.1123Y-184.5413
G1X252.4671Y-183.6213
G1X253.5853Y-182.6971
G1X254.6972Y-181.5811
G1X255.9915Y-180.0289
G1X260.4103Y-174.2452
G1X264.3940Y-169.5416
G1X267.8644Y-165.2137
G1X269.4944Y-163.4078
G1X270.7884Y-162.1891
G1X272.0869Y-161.1669
G1X273.4566Y-160.2767
G1X275.0589Y-159.4126
G1 Z0F20000
(Start Block)

G1X21.1667Y-106.7595
G1Z4.7F20000
(Plotting speed under)
G1 F8000

G1X22.8179Y-108.3696
G1X24.3242Y-109.9969
G1X29.4650Y-116.4017
G1X33.6357Y-120.8835
G1X42.4991Y-131.3409
G1X44.0580Y-133.0693
G1X45.5392Y-134.5596
G1X48.5918Y-137.2316
G1X51.5138Y-139.3220
G1X54.2466Y-140.8733
G1X59.6729Y-143.5347
G1X61.5500Y-144.3247
G1X63.3067Y-144.9334
G1X65.3145Y-145.4827
G1X67.5686Y-145.9675
G1X71.6588Y-146.5978
G1X78.5202Y-147.1542
G1X80.3354Y-147.4585
G1X82.3589Y-147.9257
G1X86.4719Y-149.1205
G1X92.0371Y-151.1898
G1X94.4628Y-151.9866
G1X101.1674Y-153.7620
G1X107.3957Y-155.5608
G1X113.4256Y-157.1800
G1X115.4062Y-157.8480
G1X117.3751Y-158.6779
G1X124.6577Y-162.3850
G1X128.6728Y-164.2356
G1X131.8939Y-165.4540
G1X135.5624Y-166.5198
G1X139.1613Y-167.3401
G1X142.3435Y-167.8224
G1X145.6632Y-168.0226
G1X151.2808Y-167.9787
G1X153.2289Y-168.0428
G1X155.5065Y-168.3389
G1X157.7417Y-168.9241
G1X160.7616Y-170.1199
G1X165.7961Y-172.3895
G1X168.1478Y-173.5416
G1X176.7591Y-178.2584
G1X183.8059Y-182.5282
G1X191.0312Y-186.3823
G1X193.5634Y-187.6242
G1X197.4193Y-189.2123
G1X201.9102Y-190.8129
G1X205.4747Y-191.8139
G1X210.7499Y-193.0815
G1X212.7895Y-193.4428
G1X214.6154Y-193.6443
G1X216.5627Y-193.7361
G1X219.1996Y-193.7337
G1X222.9817Y-193.6117
G1X225.9579Y-193.4213
G1X228.4683Y-193.1399
G1X230.8499Y-192.7344
G1X234.1037Y-191.9484
G1X237.0408Y-190.9499
G1X243.1653Y-188.1630
G1X247.4021Y-186.3445
G1X249.3940Y-185.3751
G1X250.9818Y-184.4760
G1X252.3375Y-183.5579
G1X253.4570Y-182.6358
G1X254.5702Y-181.5215
G1X255.8664Y-179.9714
G1X260.3538Y-174.1064
G1X264.2745Y-169.4904
G1X267.6850Y-165.2529
G1X269.2407Y-163.5212
G1X270.4496Y-162.3615
G1X271.7345Y-161.3165
G1X273.0924Y-160.4027
G1X274.5960Y-159.5632
G1 Z0F20000
(Start Block)

G1X21.1667Y-105.4366
G1Z4.7F20000
(Plotting speed under)
G1 F8000

G1X23.6472Y-107.6660
G1X25.7496Y-109.8847
G1X30.5167Y-115.9159
G1X34.5252Y-120.4299
G1X37.9326Y-124.6706
G1X43.1713Y-130.9711
G1X45.7589Y-133.7528
G1X49.1670Y-136.8218
G1X52.0461Y-138.9904
G1X54.9264Y-140.7073
G1X60.2209Y-143.4332
G1X62.0492Y-144.2117
G1X63.8063Y-144.8188
G1X65.7028Y-145.3369
G1X67.9560Y-145.8272
G1X71.8179Y-146.4323
G1X78.4482Y-147.0091
G1X80.2624Y-147.3207
G1X82.1725Y-147.7674
G1X86.5050Y-149.0401
G1X92.0652Y-151.1268
G1X94.4896Y-151.9289
G1X101.0806Y-153.6841
G1X107.4180Y-155.5250
G1X113.5580Y-157.1816
G1X115.5364Y-157.8581
G1X117.4113Y-158.6545
G1X124.6033Y-162.3176
G1X128.6171Y-164.1721
G1X131.9155Y-165.4217
G1X135.4722Y-166.4579
G1X139.0700Y-167.2849
G1X142.2513Y-167.7755
G1X145.5706Y-167.9835
G1X151.3029Y-167.9398
G1X153.2509Y-168.0045
G1X155.5285Y-168.3014
G1X157.7635Y-168.8874
G1X160.7980Y-170.0923
G1X165.8302Y-172.3687
G1X168.1806Y-173.5244
G1X176.7892Y-178.2478
G1X183.8367Y-182.5159
G1X190.9739Y-186.3198
G1X193.5047Y-187.5653
G1X197.2194Y-189.1039
G1X201.8180Y-190.7506
G1X205.1579Y-191.6974
G1X210.4320Y-192.9716
G1X212.4696Y-193.3481
G1X214.2940Y-193.5667
G1X216.2407Y-193.6728
G1X218.6483Y-193.6801
G1X222.4304Y-193.5635
G1X225.6360Y-193.3654
G1X228.2609Y-193.0771
G1X230.6433Y-192.6773
G1X234.0106Y-191.8717
G1X236.9800Y-190.8660
G1X243.1017Y-188.0711
G1X247.2447Y-186.2869
G1X249.2378Y-185.3209
G1X250.8272Y-184.4255
G1X252.1852Y-183.5118
G1X253.3847Y-182.5241
G1X254.4952Y-181.4062
G1X255.8553Y-179.7697
G1X260.2797Y-173.9918
G1X264.1369Y-169.4627
G1X267.5555Y-165.2340
G1X269.1877Y-163.4307
G1X270.4807Y-162.2105
G1X271.7750Y-161.1811
G1X273.1402Y-160.2817
G1X274.7392Y-159.4098
G1 Z0F20000
(Start Block)

G1X21.1667Y-104.1137
G1Z4.7F20000
(Plotting speed under)
G1 F8000

G1X24.5154Y-106.8958
G1X25.8683Y-108.2105
G1X27.1518Y-109.6145
G1X28.5655Y-111.3490
G1X31.3527Y-115.0138
G1X35.1913Y-119.5634
G1X38.5932Y-123.9633
G1X43.1256Y-129.6294
G1X44.7073Y-131.4921
G1X46.2366Y-133.0905
G1X50.0034Y-136.5508
G1X52.7643Y-138.7198
G1X56.0535Y-140.7571
G1X58.9753Y-142.3808
G1X60.8653Y-143.3365
G1X62.5541Y-144.0600
G1X64.2004Y-144.6329
G1X66.0958Y-145.1564
G1X68.3475Y-145.6557
G1X71.9808Y-146.2380
G1X78.3794Y-146.8409
G1X80.1923Y-147.1619
G1X82.1006Y-147.6190
G1X86.4295Y-148.9081
G1X92.0942Y-151.0520
G1X94.5170Y-151.8604
G1X101.1055Y-153.6279
G1X107.3286Y-155.4508
G1X113.6898Y-157.1772
G1X115.5573Y-157.8204
G1X117.4473Y-158.6242
G1X124.5488Y-162.2433
G1X128.5612Y-164.1017
G1X131.7165Y-165.3090
G1X135.2700Y-166.3599
G1X138.9783Y-167.2232
G1X142.1587Y-167.7220
G1X145.5922Y-167.9406
G1X151.3245Y-167.8943
G1X153.2725Y-167.9594
G1X155.6630Y-168.2793
G1X157.8952Y-168.8798
G1X160.9257Y-170.0982
G1X165.8635Y-172.3416
G1X168.2125Y-173.5010
G1X176.8180Y-178.2319
G1X183.7778Y-182.4490
G1X191.0051Y-186.2982
G1X193.4450Y-187.5008
G1X197.1273Y-189.0315
G1X201.7248Y-190.6824
G1X204.9520Y-191.6038
G1X210.1135Y-192.8535
G1X212.1492Y-193.2434
G1X213.9721Y-193.4786
G1X215.9181Y-193.5994
G1X218.2110Y-193.6146
G1X221.9932Y-193.4992
G1X225.3133Y-193.2960
G1X227.9388Y-193.0148
G1X230.4357Y-192.6039
G1X233.9164Y-191.7783
G1X236.8870Y-190.7776
G1X243.1282Y-187.9205
G1X247.2687Y-186.1283
G1X249.0800Y-185.2483
G1X250.6705Y-184.3557
G1X252.0304Y-183.4458
G1X253.2324Y-182.4621
G1X254.3455Y-181.3477
G1X255.7088Y-179.7148
G1X260.2026Y-173.8563
G1X264.0646Y-169.3326
G1X267.4243Y-165.1956
G1X269.0611Y-163.3979
G1X270.4356Y-162.1137
G1X271.7353Y-161.0933
G1X273.1919Y-160.1504
G1X274.8873Y-159.2487
G1 Z0F20000
(Start Block)

G1X21.1667Y-102.7908
G1Z4.7F20000
(Plotting speed under)
G1 F8000

G1X23.7246Y-104.6999
G1X25.4063Y-106.0798
G1X27.0102Y-107.5776
G1X28.4491Y-109.1219
G1X29.8705Y-110.8480
G1X32.7350Y-114.5853
G1X36.0368Y-118.6294
G1X43.7992Y-128.8723
G1X45.2988Y-130.6689
G1X46.8929Y-132.3537
G1X51.0825Y-136.2933
G1X53.6433Y-138.3973
G1X55.2463Y-139.5016
G1X57.4971Y-140.8967
G1X59.7768Y-142.2280
G1X61.4790Y-143.1130
G1X63.0411Y-143.7959
G1X64.6533Y-144.3680
G1X66.4345Y-144.8736
G1X68.6829Y-145.3927
G1X72.0857Y-145.9659
G1X78.2513Y-146.6086
G1X79.9502Y-146.9160
G1X81.8572Y-147.3796
G1X86.4031Y-148.7571
G1X92.1700Y-150.9657
G1X94.4805Y-151.7462
G1X101.0652Y-153.5319
G1X107.3957Y-155.4041
G1X113.8662Y-157.1721
G1X115.7308Y-157.8261
G1X117.5263Y-158.5982
G1X124.5370Y-162.1739
G1X128.4567Y-163.9946
G1X131.5624Y-165.1946
G1X135.0013Y-166.2280
G1X138.8194Y-167.1326
G1X142.1122Y-167.6588
G1X145.5455Y-167.8812
G1X151.3924Y-167.8334
G1X153.3403Y-167.9016
G1X155.7302Y-168.2272
G1X157.9613Y-168.8331
G1X160.9135Y-170.0240
G1X165.9390Y-172.3198
G1X168.1961Y-173.4388
G1X176.7985Y-178.1773
G1X183.6704Y-182.3438
G1X190.9877Y-186.2385
G1X193.4270Y-187.4427
G1X197.0777Y-188.9630
G1X201.6749Y-190.6152
G1X204.6783Y-191.4790
G1X209.6146Y-192.6784
G1X211.7609Y-193.1073
G1X213.5818Y-193.3615
G1X215.5269Y-193.5011
G1X217.7051Y-193.5265
G1X221.3727Y-193.4168
G1X224.9218Y-193.2004
G1X227.6617Y-192.9101
G1X230.1593Y-192.5046
G1X233.7542Y-191.6633
G1X236.7120Y-190.6794
G1X248.7814Y-185.2002
G1X250.4638Y-184.2665
G1X251.8266Y-183.3622
G1X253.0323Y-182.3847
G1X254.1497Y-181.2761
G1X255.5841Y-179.5648
G1X260.1494Y-173.6280
G1X263.8812Y-169.2747
G1X267.1838Y-165.2313
G1X268.8211Y-163.4341
G1X270.1943Y-162.1480
G1X271.4903Y-161.1215
G1X272.8555Y-160.2221
G1X274.4545Y-159.3500
G1 Z0F20000
(Start Block)

G1X21.1667Y-101.4679
G1Z4.7F20000
(Plotting speed under)
G1 F8000

G1X24.3468Y-103.7265
G1X26.3030Y-105.2465
G1X28.1644Y-106.9168
G1X29.8385Y-108.6683
G1X36.9604Y-117.4383
G1X44.7185Y-127.9842
G1X46.2916Y-129.8565
G1X48.0346Y-131.6894
G1X52.6366Y-136.1218
G1X54.8493Y-138.0075
G1X56.5981Y-139.2714
G1X59.0739Y-140.9000
G1X60.9002Y-142.0086
G1X62.4193Y-142.8102
G1X63.8266Y-143.4308
G1X65.3587Y-143.9825
G1X69.1564Y-144.9922
G1X72.3275Y-145.5644
G1X78.2564Y-146.2822
G1X81.5185Y-147.0174
G1X86.3876Y-148.5371
G1X92.2528Y-150.8233
G1X94.5607Y-151.6138
G1X101.0291Y-153.3922
G1X107.3535Y-155.2919
G1X114.0437Y-157.1371
G1X115.8745Y-157.7892
G1X117.6220Y-158.5475
G1X124.4517Y-162.0348
G1X128.2772Y-163.8220
G1X131.4100Y-165.0476
G1X134.7345Y-166.0634
G1X138.6620Y-167.0105
G1X142.0670Y-167.5650
G1X145.5001Y-167.7910
G1X151.3469Y-167.7400
G1X153.4095Y-167.8110
G1X155.7989Y-168.1410
G1X158.0292Y-168.7510
G1X160.9182Y-169.9211
G1X168.1044Y-173.3092
G1X176.8789Y-178.1579
G1X183.6640Y-182.2712
G1X190.9837Y-186.1597
G1X193.3313Y-187.3230
G1X196.9177Y-188.8264
G1X201.5130Y-190.4854
G1X204.4032Y-191.3262
G1X209.0029Y-192.4444
G1X211.2596Y-192.9125
G1X213.0782Y-193.1889
G1X214.9073Y-193.3468
G1X216.9705Y-193.3928
G1X220.4089Y-193.2975
G1X224.4159Y-193.0499
G1X227.1561Y-192.7627
G1X229.7682Y-192.3472
G1X233.4783Y-191.4958
G1X236.5655Y-190.4844
G1X238.3640Y-189.7216
G1X242.5416Y-187.7289
G1X248.4923Y-185.0516
G1X250.1780Y-184.1258
G1X251.5449Y-183.2299
G1X252.7560Y-182.2613
G1X253.8795Y-181.1609
G1X255.3881Y-179.3747
G1X260.0948Y-173.2797
G1X263.6295Y-169.1800
G1X266.9487Y-165.1547
G1X268.6694Y-163.2944
G1X270.1328Y-161.9570
G1X271.5242Y-160.8909
G1X273.0775Y-159.9154
G1X274.7819Y-159.0366
G1 Z0F20000
(Start Block)

G1X21.1667Y-100.1450
G1Z4.7F20000
(Plotting speed under)
G1 F8000

G1X25.1370Y-102.8682
G1X27.2831Y-104.4676
G1X29.3292Y-106.2324
G1X31.2544Y-108.1697
G1X38.1761Y-116.3764
G1X43.6921Y-124.0604
G1X45.6354Y-126.6182
G1X47.5010Y-128.7946
G1X49.6982Y-131.0622
G1X54.1895Y-135.4705
G1X56.3037Y-137.3192
G1X60.5503Y-140.3881
G1X62.1889Y-141.4207
G1X63.6125Y-142.1905
G1X66.3101Y-143.3031
G1X69.7555Y-144.3062
G1X72.5769Y-144.8862
G1X78.0347Y-145.6989
G1X81.0631Y-146.4335
G1X86.3547Y-148.1759
G1X92.2032Y-150.5181
G1X94.5041Y-151.3355
G1X101.2966Y-153.2560
G1X107.6104Y-155.2016
G1X114.5163Y-157.1417
G1X116.1539Y-157.7473
G1X117.8058Y-158.4768
G1X124.3642Y-161.8309
G1X128.0954Y-163.5848
G1X131.1139Y-164.7873
G1X134.3214Y-165.7958
G1X138.4690Y-166.8207
G1X141.9857Y-167.4082
G1X145.5330Y-167.6436
G1X151.3798Y-167.5853
G1X153.4424Y-167.6545
G1X155.8322Y-167.9814
G1X158.1730Y-168.6255
G1X161.0118Y-169.7899
G1X168.0947Y-173.1697
G1X176.9483Y-178.0902
G1X183.5586Y-182.0999
G1X193.1356Y-187.1076
G1X196.3913Y-188.4991
G1X200.9800Y-190.1827
G1X203.7521Y-191.0219
G1X207.6764Y-191.9885
G1X210.2673Y-192.5545
G1X212.3084Y-192.9047
G1X214.1350Y-193.0982
G1X216.0828Y-193.1716
G1X219.1775Y-193.0973
G1X223.1842Y-192.8421
G1X226.1538Y-192.5441
G1X228.7685Y-192.1511
G1X232.9357Y-191.2405
G1X236.2522Y-190.1937
G1X238.1603Y-189.3919
G1X242.6064Y-187.2581
G1X247.9191Y-184.8767
G1X249.6149Y-183.9756
G1X251.0790Y-183.0480
G1X252.3808Y-182.0317
G1X253.5125Y-180.9426
G1X255.2334Y-178.9204
G1X259.9527Y-172.8385
G1X266.5660Y-165.0761
G1X268.3738Y-163.1576
G1X269.8496Y-161.8385
G1X271.3323Y-160.7263
G1X272.8931Y-159.7668
G1X274.6939Y-158.8591
G1 Z0F20000
(Start Block)

G1X21.1667Y-98.8220
G1Z4.7F20000
(Plotting speed under)
G1 F8000

G1X27.7881Y-103.2769
G1X29.7378Y-104.8076
G1X31.6007Y-106.4759
G1X33.7832Y-108.7616
G1X38.7187Y-114.4520
G1X40.7543Y-117.0668
G1X45.5340Y-123.6879
G1X47.2909Y-125.8281
G1X49.1523Y-127.8472
G1X55.0781Y-133.6344
G1X57.4115Y-135.7125
G1X62.1062Y-139.2361
G1X63.7345Y-140.2901
G1X65.3298Y-141.1711
G1X67.9173Y-142.3027
G1X70.6697Y-143.2232
G1X73.1349Y-143.8374
G1X77.8806Y-144.7780
G1X80.3333Y-145.4547
G1X86.4609Y-147.6655
G1X92.2846Y-150.0889
G1X94.5771Y-150.9369
G1X101.2433Y-152.8947
G1X107.5392Y-154.9159
G1X112.8902Y-156.3988
G1X114.9910Y-157.0628
G1X118.0245Y-158.3272
G1X124.3129Y-161.5452
G1X127.8584Y-163.2239
G1X130.7146Y-164.3899
G1X133.6919Y-165.3661
G1X138.0558Y-166.4877
G1X141.7952Y-167.1451
G1X145.3415Y-167.3984
G1X151.5322Y-167.3338
G1X153.5946Y-167.4078
G1X156.0964Y-167.7660
G1X158.4326Y-168.4324
G1X161.2324Y-169.6101
G1X168.0229Y-172.9155
G1X177.0384Y-177.9706
G1X183.3866Y-181.8246
G1X192.7838Y-186.7415
G1X195.7207Y-188.0373
G1X200.0033Y-189.6465
G1X202.7629Y-190.5395
G1X205.8957Y-191.3472
G1X211.3111Y-192.4721
G1X213.2484Y-192.7170
G1X215.0804Y-192.8192
G1X217.4877Y-192.7854
G1X220.8073Y-192.5706
G1X224.3489Y-192.2269
G1X227.1939Y-191.8259
G1X232.0457Y-190.8223
G1X234.0556Y-190.2825
G1X235.8192Y-189.7007
G1X237.8855Y-188.8484
G1X242.5099Y-186.6189
G1X247.3691Y-184.4556
G1X249.1626Y-183.5288
G1X250.6337Y-182.6160
G1X251.9432Y-181.6129
G1X253.1567Y-180.4601
G1X255.0256Y-178.2880
G1X259.7625Y-172.2244
G1X265.9347Y-165.0746
G1X267.9043Y-163.0246
G1X269.4748Y-161.6619
G1X271.1403Y-160.4589
G1X272.8933Y-159.4346
G1X274.8925Y-158.4861
G1 Z0F20000
(Start Block)

G1X21.1667Y-97.4991
G1Z4.7F20000
(Plotting speed under)
G1 F8000

G1X28.9073Y-102.4356
G1X30.8991Y-103.8923
G1X32.7233Y-105.4314
G1X35.0882Y-107.8214
G1X39.1381Y-112.4489
G1X41.6904Y-115.5939
G1X46.4598Y-121.9272
G1X48.1848Y-123.9453
G1X50.0061Y-125.8474
G1X56.8291Y-132.1610
G1X59.4448Y-134.3719
G1X62.0603Y-136.3864
G1X64.0669Y-137.8164
G1X65.9633Y-139.0136
G1X67.9178Y-140.0793
G1X70.0106Y-141.0638
G1X72.0282Y-141.8476
G1X73.9077Y-142.4428
G1X77.9219Y-143.5503
G1X80.1184Y-144.3085
G1X87.9052Y-147.5269
G1X92.5907Y-149.5794
G1X94.5629Y-150.3419
G1X101.2064Y-152.3992
G1X107.5865Y-154.5619
G1X113.4855Y-156.2430
G1X115.7963Y-157.0217
G1X118.3554Y-158.1340
G1X124.1947Y-161.1218
G1X127.4623Y-162.6862
G1X130.2154Y-163.8482
G1X132.9609Y-164.7966
G1X137.6509Y-166.0530
G1X141.6123Y-166.7840
G1X145.2722Y-167.0577
G1X151.5773Y-166.9805
G1X153.7543Y-167.0576
G1X156.3683Y-167.4448
G1X158.8095Y-168.1705
G1X161.4748Y-169.3322
G1X167.8753Y-172.5371
G1X177.2221Y-177.8427
G1X183.2214Y-181.4879
G1X192.5333Y-186.3474
G1X195.3702Y-187.6271
G1X199.1328Y-189.0648
G1X202.1042Y-190.0653
G1X204.8957Y-190.8147
G1X210.6522Y-191.9933
G1X212.5887Y-192.2457
G1X214.4205Y-192.3558
G1X216.4838Y-192.3274
G1X219.0010Y-192.1436
G1X222.5388Y-191.7506
G1X225.4964Y-191.3227
G1X231.2497Y-190.1230
G1X233.5996Y-189.5185
G1X235.3696Y-188.9630
G1X237.5205Y-188.1038
G1X242.2405Y-185.8445
G1X247.1105Y-183.7136
G1X248.8203Y-182.8485
G1X250.2959Y-181.9459
G1X251.6085Y-180.9481
G1X252.8274Y-179.8028
G1X254.7834Y-177.5711
G1X259.5411Y-171.5295
G1X265.1995Y-165.0695
G1X267.2593Y-162.9658
G1X268.9219Y-161.5563
G1X270.6834Y-160.3166
G1X272.5328Y-159.2613
G1X274.6312Y-158.2934
G1 Z0F20000
(Start Block)

G1X21.1667Y-96.1762
G1Z4.7F20000
(Plotting speed under)
G1 F8000

G1X30.3479Y-101.6089
G1X32.1287Y-102.8117
G1X33.7494Y-104.0938
G1X35.3551Y-105.5888
G1X37.1474Y-107.5271
G1X41.6034Y-112.8078
G1X47.3680Y-119.9387
G1X49.2072Y-121.9848
G1X50.9968Y-123.7569
G1X60.3443Y-131.8634
G1X63.0804Y-134.0754
G1X65.0753Y-135.5269
G1X67.0359Y-136.8243
G1X69.5645Y-138.3408
G1X71.8709Y-139.6092
G1X74.2401Y-140.7117
G1X79.3542Y-142.7280
G1X84.9737Y-145.4440
G1X94.1814Y-149.5113
G1X96.1522Y-150.2175
G1X101.3438Y-151.8831
G1X107.5811Y-154.1327
G1X113.9136Y-155.9943
G1X116.5280Y-156.9198
G1X118.7258Y-157.9062
G1X127.2013Y-162.1444
G1X129.8852Y-163.3044
G1X132.4015Y-164.2133
G1X137.3061Y-165.5710
G1X139.4471Y-166.0344
G1X141.4898Y-166.3720
G1X143.3163Y-166.5662
G1X145.2636Y-166.6605
G1X151.6832Y-166.5676
G1X153.9746Y-166.6517
G1X156.5874Y-167.0498
G1X159.1347Y-167.8291
G1X161.5760Y-168.9259
G1X167.6730Y-172.0823
G1X177.5212Y-177.7522
G1X183.0848Y-181.1355
G1X192.2239Y-185.8856
G1X194.9596Y-187.1523
G1X198.0923Y-188.3795
G1X201.4952Y-189.5627
G1X204.2810Y-190.3387
G1X207.0969Y-190.9559
G1X209.9285Y-191.4678
G1X211.9790Y-191.7350
G1X213.8106Y-191.8463
G1X215.6447Y-191.8190
G1X217.7031Y-191.6507
G1X223.7314Y-190.7752
G1X226.4431Y-190.2365
G1X230.4869Y-189.2828
G1X233.2866Y-188.5745
G1X235.1709Y-188.0001
G1X237.1731Y-187.2228
G1X241.8207Y-185.0589
G1X246.9875Y-182.8732
G1X248.7013Y-182.0189
G1X250.1761Y-181.1146
G1X251.4844Y-180.1092
G1X252.7034Y-178.9639
G1X254.5315Y-176.9055
G1X257.8164Y-172.6893
G1X259.4498Y-170.7264
G1X264.5151Y-165.0260
G1X266.7467Y-162.8049
G1X268.5927Y-161.3012
G1X270.5499Y-159.9982
G1X272.6003Y-158.9025
G1X274.9952Y-157.8761
G1 Z0F20000
(Start Block)

G1X21.1667Y-94.8533
G1Z4.7F20000
(Plotting speed under)
G1 F8000

G1X26.7507Y-97.9370
G1X31.6630Y-100.5375
G1X33.4676Y-101.6917
G1X35.1008Y-102.9524
G1X36.5676Y-104.2848
G1X38.0225Y-105.8091
G1X45.6898Y-114.9199
G1X48.4378Y-118.0025
G1X50.4884Y-120.1190
G1X53.2143Y-122.5373
G1X58.6628Y-126.5960
G1X63.7573Y-130.8505
G1X65.9100Y-132.4383
G1X74.6509Y-138.5473
G1X84.9615Y-144.4144
G1X92.3332Y-147.8786
G1X95.0550Y-149.0291
G1X101.2049Y-151.1557
G1X107.8400Y-153.7055
G1X114.2715Y-155.6530
G1X116.7424Y-156.5390
G1X119.0327Y-157.5637
G1X124.7044Y-160.4283
G1X127.7935Y-161.8973
G1X130.5780Y-163.0702
G1X133.2140Y-163.9792
G1X137.9057Y-165.2271
G1X141.7552Y-165.9276
G1X143.5829Y-166.1060
G1X145.4161Y-166.1818
G1X151.7208Y-166.0682
G1X154.0125Y-166.1431
G1X156.6272Y-166.5243
G1X159.1778Y-167.2887
G1X161.7045Y-168.4439
G1X167.8430Y-171.7676
G1X173.2498Y-175.0085
G1X177.9173Y-177.6754
G1X183.2244Y-180.8905
G1X191.9278Y-185.3758
G1X194.5637Y-186.6252
G1X197.3003Y-187.7285
G1X200.9165Y-189.0117
G1X203.6963Y-189.8156
G1X205.9473Y-190.3193
G1X208.5523Y-190.7910
G1X210.7147Y-191.0941
G1X212.5442Y-191.2467
G1X214.1490Y-191.2674
G1X215.7520Y-191.1752
G1X219.8458Y-190.5781
G1X225.2611Y-189.4494
G1X234.6439Y-186.9471
G1X236.7203Y-186.1887
G1X241.2213Y-184.2143
G1X247.0667Y-181.8618
G1X248.6914Y-181.0555
G1X249.9941Y-180.2602
G1X251.3081Y-179.2649
G1X252.5367Y-178.1335
G1X254.3052Y-176.1670
G1X257.6070Y-171.9684
G1X259.3914Y-169.8585
G1X263.8584Y-164.9123
G1X266.1143Y-162.7240
G1X267.9741Y-161.2433
G1X270.0286Y-159.9082
G1X272.1761Y-158.7848
G1X274.6702Y-157.7415
G1 Z0F20000
(Start Block)

G1X21.1667Y-93.5304
G1Z4.7F20000
(Plotting speed under)
G1 F8000

G1X27.2704Y-96.6669
G1X32.1667Y-99.0274
G1X33.8345Y-99.9951
G1X35.3470Y-101.0527
G1X37.0211Y-102.4442
G1X38.7497Y-104.1239
G1X40.3099Y-105.8503
G1X44.6078Y-110.9923
G1X46.7180Y-113.3675
G1X50.0192Y-116.7621
G1X52.8039Y-119.2784
G1X54.1861Y-120.3608
G1X55.6222Y-121.3452
G1X60.7099Y-124.3089
G1X70.1498Y-130.3836
G1X72.4975Y-132.2458
G1X76.8312Y-136.3401
G1X79.3690Y-138.4821
G1X83.9591Y-141.9840
G1X85.4974Y-142.9910
G1X87.1754Y-143.9355
G1X94.3509Y-147.3534
G1X101.3448Y-150.0347
G1X107.2541Y-152.5734
G1X109.7700Y-153.4834
G1X115.0849Y-155.1303
G1X117.5153Y-156.0386
G1X119.7130Y-157.0260
G1X128.4093Y-161.2451
G1X131.0880Y-162.3668
G1X133.6130Y-163.2430
G1X138.0803Y-164.4350
G1X141.9320Y-165.1186
G1X145.4795Y-165.3460
G1X151.7838Y-165.2038
G1X154.1902Y-165.2747
G1X156.8057Y-165.6498
G1X158.1482Y-165.9959
G1X159.3569Y-166.4107
G1X161.0367Y-167.1607
G1X162.9888Y-168.2323
G1X168.4175Y-171.4243
G1X173.8620Y-174.8251
G1X178.1694Y-177.3091
G1X182.2521Y-179.8011
G1X184.2031Y-180.8754
G1X192.3951Y-185.0133
G1X194.8554Y-186.1589
G1X199.3157Y-187.8689
G1X203.1917Y-189.0632
G1X207.1444Y-189.8550
G1X211.2516Y-190.3130
G1X214.1164Y-190.2961
G1X217.0737Y-189.8761
G1X219.7717Y-189.2536
G1X223.7933Y-188.1813
G1X233.7711Y-185.1483
G1X240.2088Y-182.7547
G1X245.1478Y-181.0337
G1X247.1578Y-180.2239
G1X248.6046Y-179.5142
G1X249.9096Y-178.7241
G1X251.0652Y-177.8633
G1X252.2274Y-176.8177
G1X253.8728Y-175.0308
G1X257.2824Y-170.7925
G1X259.5109Y-168.2327
G1X262.8247Y-164.6853
G1X265.1224Y-162.5556
G1X267.1762Y-161.0017
G1X269.3463Y-159.6745
G1X271.6956Y-158.5169
G1X274.3924Y-157.4549
G1 Z0F20000

G00 X0.0000 Y0.0000

