$H
G21
G17
G90
G1 Z0F20000
G1 F15000

(Start Layer)

(Start Block)


G1X11.3447Y-113.8774
G1Z5F20000
(Plotting speed under)
G1 F4000


G1X12.8323Y-114.2222

G1X13.7886Y-114.2875

G1X14.5324Y-114.1619

G1X16.1263Y-113.6457

G1X16.8701Y-113.5865

G1X17.5077Y-113.7289

G1X18.9953Y-114.3751

G1X19.6328Y-114.4604

G1X20.3767Y-114.2464

G1X21.7580Y-113.4773

G1X22.2893Y-113.3937

G1X22.6081Y-113.4520

G1X23.0331Y-113.6550

G1X24.3082Y-114.5406

G1X24.8395Y-114.6682

G1X25.1583Y-114.6106

G1X25.5125Y-114.4229

G1X26.8584Y-113.3226

G1X27.3897Y-113.1669

G1X27.9918Y-113.3948

G1X29.3327Y-114.6737

G1X29.9399Y-114.9143

G1X30.2587Y-114.8453

G1X30.6230Y-114.6182

G1X32.0651Y-113.1139

G1X32.3839Y-112.9466

G1X32.7026Y-112.9087

G1X33.2795Y-113.1849

G1X34.1902Y-114.2052

G1X34.7215Y-114.5592

G1X35.1769Y-115.0086

G1X35.6779Y-115.1706

G1X35.9612Y-115.0917

G1X36.3913Y-114.7786

G1X38.0864Y-112.9580

G1X38.5468Y-112.6862

G1X38.9719Y-112.6059

G1X39.5032Y-112.7325

G1X39.9459Y-112.9996

G1X41.0970Y-114.0427

G1X42.6024Y-115.1940

G1X43.0097Y-115.3783

G1X43.5410Y-115.4903

G1X44.1785Y-115.4962

G1X44.9223Y-115.3653

G1X47.5788Y-114.4964

G1X48.8539Y-114.1750

G1X50.0227Y-114.0022

G1X51.2978Y-113.9442

G1X53.6355Y-114.1458

G1X58.8422Y-115.3044

G1X60.0111Y-115.4659

G1X61.0736Y-115.5094

G1X62.3487Y-115.4106

G1X63.6238Y-115.1490

G1X65.0052Y-114.7176

G1X69.1493Y-113.2067

G1X70.6369Y-112.8394

G1X72.1245Y-112.6413

G1X74.0372Y-112.6379

G1X76.1623Y-112.9154

G1X78.3938Y-113.4302

G1X83.3879Y-114.8285

G1X84.7693Y-115.0942

G1X85.9381Y-115.1924

G1X87.2132Y-115.1081

G1X88.3820Y-114.8160

G1X89.4446Y-114.3733

G1X91.4635Y-113.3250

G1X92.2073Y-113.0364

G1X92.9511Y-112.9058

G1X93.6950Y-112.9903

G1 Z0F20000

(Start Block)


G1X11.3447Y-112.7383
G1Z5F20000
(Plotting speed under)
G1 F4000


G1X11.9822Y-112.8205

G1X12.6198Y-112.7860

G1X14.4262Y-112.2198

G1X15.1700Y-112.1093

G1X15.9138Y-112.2449

G1X17.5077Y-112.9306

G1X18.1452Y-112.9833

G1X18.7828Y-112.7841

G1X20.0579Y-112.0578

G1X20.6954Y-111.9228

G1X21.0142Y-111.9746

G1X21.4392Y-112.1678

G1X22.8206Y-113.0995

G1X23.3519Y-113.1962

G1X24.0071Y-112.9407

G1X25.3708Y-111.8492

G1X25.9021Y-111.6982

G1X26.2209Y-111.7580

G1X26.5751Y-111.9615

G1X27.9918Y-113.2557

G1X28.5586Y-113.4413

G1X28.8773Y-113.3724

G1X29.2315Y-113.1467

G1X30.7368Y-111.6318

G1X31.0025Y-111.4880

G1X31.3213Y-111.4373

G1X31.7109Y-111.5498

G1X32.0651Y-111.8083

G1X33.5831Y-113.4560

G1X33.9777Y-113.6747

G1X34.2965Y-113.7225

G1X34.7215Y-113.5965

G1X35.0757Y-113.3421

G1X36.8467Y-111.4697

G1X37.2894Y-111.2146

G1X37.6968Y-111.1373

G1X38.1218Y-111.2139

G1X38.6177Y-111.4814

G1X40.4140Y-113.1267

G1X41.0085Y-113.5745

G1X41.6283Y-113.8847

G1X42.1596Y-114.0161

G1X42.7972Y-114.0276

G1X43.5410Y-113.8855

G1X46.1974Y-112.9220

G1X47.4725Y-112.5609

G1X48.7477Y-112.3495

G1X50.0227Y-112.2819

G1X51.1916Y-112.3332

G1X52.4667Y-112.4980

G1X57.8859Y-113.8142

G1X59.0547Y-113.9904

G1X60.2236Y-114.0382

G1X61.4986Y-113.9240

G1X62.8800Y-113.6154

G1X67.2366Y-112.0587

G1X69.0430Y-111.5339

G1X70.8494Y-111.2241

G1X72.7620Y-111.1377

G1X74.6747Y-111.2596

G1X76.7999Y-111.5726

G1X79.3501Y-112.1111

G1X84.6630Y-113.4380

G1X86.0443Y-113.6667

G1X87.1069Y-113.7236

G1X88.1695Y-113.6274

G1X89.1258Y-113.3802

G1X90.1884Y-112.9241

G1X92.4199Y-111.7203

G1X93.0574Y-111.5024

G1X93.6950Y-111.4350

G1 Z0F20000

(Start Block)


G1X11.3447Y-111.3520
G1Z5F20000
(Plotting speed under)
G1 F4000


G1X12.0885Y-111.2223

G1X13.4698Y-110.7291

G1X14.1074Y-110.6395

G1X14.8512Y-110.7878

G1X16.3388Y-111.4550

G1X16.9764Y-111.5120

G1X17.6139Y-111.3020

G1X18.7828Y-110.6130

G1X19.4203Y-110.4515

G1X20.0225Y-110.5991

G1X21.3507Y-111.5164

G1X21.7580Y-111.6920

G1X22.0768Y-111.7293

G1X22.6789Y-111.5284

G1X24.0957Y-110.4013

G1X24.4145Y-110.2632

G1X24.7332Y-110.2288

G1X25.3354Y-110.4684

G1X26.7521Y-111.7507

G1X27.0709Y-111.9172

G1X27.3897Y-111.9732

G1X27.7085Y-111.9055

G1X28.0804Y-111.6835

G1X29.5857Y-110.2018

G1X29.9399Y-110.0105

G1X30.2587Y-109.9675

G1X30.6483Y-110.0774

G1X31.0025Y-110.3229

G1X32.5964Y-111.9855

G1X33.0214Y-112.2116

G1X33.3402Y-112.2514

G1X33.7475Y-112.1419

G1X34.1902Y-111.8352

G1X35.5564Y-110.3714

G1X36.0498Y-109.9528

G1X36.5279Y-109.7173

G1X36.9530Y-109.6688

G1X37.4666Y-109.8074

G1X37.9093Y-110.0718

G1X39.5917Y-111.5636

G1X40.3001Y-112.0868

G1X40.8845Y-112.3780

G1X41.5221Y-112.5418

G1X42.1596Y-112.5634

G1X42.9034Y-112.4527

G1X45.5599Y-111.6537

G1X46.7287Y-111.3805

G1X48.8539Y-111.1836

G1X50.9791Y-111.3464

G1X55.8670Y-112.3842

G1X57.0358Y-112.5362

G1X58.0984Y-112.5672

G1X59.3735Y-112.4475

G1X60.7548Y-112.1320

G1X65.0052Y-110.5923

G1X66.8116Y-110.0643

G1X68.7242Y-109.7452

G1X70.6369Y-109.6679

G1X72.7620Y-109.7951

G1X75.5248Y-110.1536

G1X79.5626Y-110.8555

G1X85.3005Y-112.0350

G1X86.5757Y-112.2116

G1X87.5320Y-112.2536

G1X88.5946Y-112.1606

G1X89.6571Y-111.8786

G1X90.6843Y-111.4184

G1X92.6324Y-110.3241

G1X93.6950Y-109.9800

G1 Z0F20000

(Start Block)


G1X11.3447Y-109.8197
G1Z5F20000
(Plotting speed under)
G1 F4000


G1X12.8323Y-109.2745

G1X13.5761Y-109.1726

G1X14.2137Y-109.3248

G1X15.5950Y-109.9815

G1X16.2326Y-110.0420

G1X16.8347Y-109.8360

G1X18.0390Y-109.1106

G1X18.6765Y-108.9844

G1X19.3141Y-109.2046

G1X20.5892Y-110.1047

G1X21.2267Y-110.2561

G1X21.8820Y-109.9965

G1X23.2456Y-108.9097

G1X23.7769Y-108.7581

G1X24.0957Y-108.8121

G1X24.4499Y-109.0029

G1X25.9552Y-110.3233

G1X26.3271Y-110.4809

G1X26.6459Y-110.4944

G1X26.9293Y-110.4092

G1X27.3593Y-110.1262

G1X28.7888Y-108.7371

G1X29.1961Y-108.5347

G1X29.5149Y-108.4964

G1X29.9399Y-108.6212

G1X30.2941Y-108.8649

G1X31.9765Y-110.5257

G1X32.3839Y-110.7315

G1X32.8089Y-110.7776

G1X33.2162Y-110.6576

G1X33.6590Y-110.3643

G1X35.1010Y-108.9188

G1X35.6070Y-108.5112

G1X36.1029Y-108.2666

G1X36.5279Y-108.1967

G1X37.0592Y-108.2874

G1X37.6436Y-108.5791

G1X39.5032Y-110.0466

G1X40.3001Y-110.5691

G1X40.9908Y-110.8764

G1X41.6283Y-111.0377

G1X42.9034Y-111.0826

G1X46.0912Y-110.6522

G1X47.8976Y-110.5590

G1X49.5977Y-110.6465

G1X53.2105Y-111.0551

G1X54.6981Y-111.0947

G1X56.0795Y-110.9638

G1X57.5671Y-110.6220

G1X61.8174Y-109.0454

G1X63.4113Y-108.5674

G1X65.1115Y-108.2711

G1X66.8116Y-108.1978

G1X69.7868Y-108.4456

G1X85.4068Y-110.6433

G1X87.5320Y-110.7823

G1X88.7008Y-110.6731

G1X89.8697Y-110.3546

G1X90.8260Y-109.9249

G1X92.7386Y-108.8617

G1X93.6950Y-108.5280

G1 Z0F20000

(Start Block)


G1X11.3447Y-108.3194
G1Z5F20000
(Plotting speed under)
G1 F4000


G1X12.7260Y-107.7760

G1X13.3636Y-107.7051

G1X14.0011Y-107.8821

G1X15.1700Y-108.4795

G1X15.8075Y-108.5774

G1X16.3388Y-108.4202

G1X17.6316Y-107.6289

G1X18.2515Y-107.5155

G1X18.8713Y-107.7463

G1X20.1641Y-108.6694

G1X20.6954Y-108.7880

G1X20.9965Y-108.7300

G1X21.3507Y-108.5428

G1X22.7143Y-107.4495

G1X23.0331Y-107.3148

G1X23.3519Y-107.2925

G1X23.6529Y-107.3682

G1X24.0957Y-107.6451

G1X25.4239Y-108.8267

G1X25.7958Y-108.9983

G1X26.1146Y-109.0311

G1X26.4334Y-108.9526

G1X26.8281Y-108.7198

G1X28.3460Y-107.3017

G1X28.7711Y-107.0785

G1X29.1961Y-107.0307

G1X29.5857Y-107.1418

G1X30.0158Y-107.4181

G1X31.3061Y-108.6771

G1X31.7994Y-109.0626

G1X32.2776Y-109.2754

G1X32.7026Y-109.3077

G1X33.1277Y-109.1910

G1X33.6590Y-108.8686

G1X35.1769Y-107.4961

G1X35.7841Y-107.0543

G1X36.3154Y-106.8131

G1X36.9530Y-106.7274

G1X37.4843Y-106.8159

G1X38.0155Y-107.0229

G1X40.7783Y-108.6948

G1X41.6283Y-109.0711

G1X42.4784Y-109.3273

G1X43.4347Y-109.4968

G1X44.7098Y-109.5943

G1X49.0664Y-109.5983

G1X50.9791Y-109.4673

G1X52.5729Y-109.2001

G1X54.2731Y-108.7237

G1X57.4608Y-107.5460

G1X58.8422Y-107.1139

G1X60.4361Y-106.8037

G1X61.9237Y-106.7277

G1X64.0489Y-106.9252

G1X69.4680Y-107.9840

G1X72.7620Y-108.4398

G1X84.8755Y-109.2536

G1X86.7882Y-109.3122

G1X88.1695Y-109.2077

G1X89.4446Y-108.9138

G1X90.6135Y-108.4397

G1X92.7386Y-107.3310

G1X93.6950Y-107.0429

G1 Z0F20000

(Start Block)


G1X11.3447Y-106.8949
G1Z5F20000
(Plotting speed under)
G1 F4000


G1X12.8323Y-106.3020

G1X13.3636Y-106.2308

G1X14.0011Y-106.3935

G1X15.1700Y-107.0108

G1X15.8075Y-107.1046

G1X16.3034Y-106.9481

G1X17.6139Y-106.1347

G1X18.1452Y-106.0452

G1X18.7828Y-106.2846

G1X19.9516Y-107.1466

G1X20.2704Y-107.2849

G1X20.5892Y-107.3174

G1X21.1736Y-107.1098

G1X22.5018Y-106.0339

G1X23.1394Y-105.8169

G1X23.4581Y-105.8678

G1X23.8301Y-106.0549

G1X25.4239Y-107.3951

G1X25.7958Y-107.5413

G1X26.1146Y-107.5574

G1X26.4334Y-107.4714

G1X26.8407Y-107.2323

G1X28.4346Y-105.8229

G1X28.8773Y-105.6070

G1X29.3024Y-105.5577

G1X29.7274Y-105.6637

G1X30.1170Y-105.8786

G1X32.0651Y-107.5211

G1X32.5964Y-107.7721

G1X33.1277Y-107.8432

G1X33.6590Y-107.7355

G1X34.1902Y-107.4766

G1X36.6696Y-105.6909

G1X37.2717Y-105.4255

G1X37.9093Y-105.2796

G1X38.6531Y-105.2736

G1X39.3969Y-105.4073

G1X42.1596Y-106.3314

G1X43.5410Y-106.6896

G1X44.8161Y-106.8781

G1X46.0912Y-106.9352

G1X48.5351Y-106.7254

G1X53.8481Y-105.4908

G1X55.1232Y-105.3050

G1X56.2920Y-105.2574

G1X57.3546Y-105.3254

G1X58.5234Y-105.5123

G1X63.4113Y-106.8324

G1X66.9178Y-107.4760

G1X67.8742Y-107.5843

G1X72.4433Y-107.7864

G1X84.9818Y-107.8372

G1X87.0007Y-107.7232

G1X88.5946Y-107.4351

G1X89.9759Y-106.9653

G1X92.5261Y-105.7868

G1X93.1637Y-105.6041

G1X93.6950Y-105.5544

G1 Z0F20000

(Start Block)


G1X11.3447Y-105.4749
G1Z5F20000
(Plotting speed under)
G1 F4000


G1X11.9822Y-105.3559

G1X13.2573Y-104.8123

G1X13.6824Y-104.7621

G1X14.2137Y-104.8808

G1X15.4888Y-105.5573

G1X16.1263Y-105.6307

G1X16.6576Y-105.4302

G1X17.7202Y-104.7328

G1X18.3577Y-104.5730

G1X18.9599Y-104.7730

G1X20.2881Y-105.7270

G1X20.9079Y-105.8443

G1X21.5278Y-105.5836

G1X22.8560Y-104.5254

G1X23.4581Y-104.3466

G1X23.7769Y-104.3974

G1X24.1843Y-104.5960

G1X25.7958Y-105.9052

G1X26.2209Y-106.0716

G1X26.5396Y-106.0895

G1X26.9647Y-105.9776

G1X27.3720Y-105.7425

G1X29.1430Y-104.3173

G1X29.6211Y-104.1258

G1X30.0462Y-104.0869

G1X30.4712Y-104.1724

G1X31.0025Y-104.4283

G1X32.5964Y-105.6356

G1X33.3402Y-106.0952

G1X33.9777Y-106.3208

G1X34.6153Y-106.3703

G1X35.2528Y-106.2576

G1X35.8904Y-106.0173

G1X38.8656Y-104.4610

G1X40.4595Y-103.9833

G1X42.4784Y-103.7955

G1X48.1101Y-103.7893

G1X50.1290Y-103.8769

G1X51.8292Y-104.1079

G1X53.5293Y-104.5086

G1X55.8670Y-105.2356

G1X57.1421Y-105.3035

G1X58.3109Y-105.4706

G1X61.9237Y-106.3743

G1X71.0619Y-106.0344

G1X82.8566Y-106.2350

G1X85.3005Y-106.1274

G1X87.2132Y-105.8795

G1X89.0196Y-105.4069

G1X92.1011Y-104.2357

G1X92.9511Y-104.0881

G1X93.6950Y-104.1493

G1 Z0F20000

(Start Block)


G1X11.3447Y-103.9048
G1Z5F20000
(Plotting speed under)
G1 F4000


G1X11.8760Y-104.0035

G1X12.3010Y-103.9642

G1X13.7886Y-103.3529

G1X14.3199Y-103.2968

G1X14.8512Y-103.4474

G1X16.0201Y-104.0806

G1X16.6576Y-104.1636

G1X17.1889Y-103.9713

G1X18.2515Y-103.2778

G1X18.8890Y-103.1020

G1X19.4912Y-103.2758

G1X20.9079Y-104.2585

G1X21.5455Y-104.3735

G1X22.1476Y-104.1384

G1X23.5644Y-103.0656

G1X23.9894Y-102.9010

G1X24.3082Y-102.8803

G1X24.7155Y-102.9798

G1X25.0697Y-103.1739

G1X26.6636Y-104.3900

G1X27.1772Y-104.5922

G1X27.6022Y-104.6182

G1X28.4346Y-104.3217

G1X30.4712Y-102.8956

G1X31.0025Y-102.6878

G1X31.6400Y-102.6159

G1X32.1713Y-102.6989

G1X32.8089Y-102.9388

G1X34.8278Y-104.1011

G1X35.6779Y-104.5090

G1X36.4217Y-104.7507

G1X37.1655Y-104.8778

G1X37.9093Y-104.9021

G1X39.2906Y-104.2978

G1X40.5658Y-103.9637

G1X41.7346Y-103.8275

G1X43.3285Y-103.7864

G1X48.3226Y-103.7920

G1X50.2353Y-103.8865

G1X52.1479Y-104.1706

G1X55.0169Y-104.8717

G1X57.1421Y-104.6002

G1X62.5612Y-103.6118

G1X66.0678Y-103.2738

G1X68.6180Y-103.2172

G1X71.2744Y-103.2987

G1X79.7751Y-104.0943

G1X83.2816Y-104.2263

G1X85.1943Y-104.1324

G1X86.8944Y-103.9006

G1X91.6761Y-102.6539

G1X92.7386Y-102.6492

G1X93.6950Y-102.9311

G1 Z0F20000

(Start Block)


G1X11.3447Y-102.1428
G1Z5F20000
(Plotting speed under)
G1 F4000


G1X12.3010Y-102.4832

G1X12.8323Y-102.5305

G1X13.4698Y-102.3694

G1X14.5324Y-101.8929

G1X15.0637Y-101.8214

G1X15.6836Y-101.9928

G1X16.8701Y-102.6215

G1X17.4014Y-102.6998

G1X17.9327Y-102.5490

G1X19.2255Y-101.7591

G1X19.8453Y-101.6328

G1X20.4652Y-101.8282

G1X21.8820Y-102.7726

G1X22.5018Y-102.9114

G1X23.2102Y-102.6918

G1X24.8395Y-101.5785

G1X25.5833Y-101.4074

G1X26.3980Y-101.6511

G1X28.3460Y-102.9236

G1X28.8773Y-103.1081

G1X29.3024Y-103.1547

G1X29.8336Y-103.0896

G1X30.4712Y-102.8603

G1X32.3307Y-101.8077

G1X33.1277Y-101.4400

G1X33.8715Y-101.2261

G1X34.6153Y-101.1458

G1X35.3591Y-101.1844

G1X36.2091Y-101.3406

G1X39.2906Y-102.2448

G1X40.8845Y-102.6135

G1X42.4784Y-102.8351

G1X44.2848Y-102.9305

G1X46.0912Y-102.8927

G1X48.0038Y-102.7229

G1X55.1232Y-101.4573

G1X57.0358Y-101.2449

G1X58.9485Y-101.1543

G1X73.2934Y-101.1780

G1X75.9498Y-101.3523

G1X81.1565Y-101.9151

G1X83.6004Y-102.0262

G1X86.1506Y-101.8787

G1X89.8697Y-101.2396

G1X91.1447Y-101.1461

G1X92.4199Y-101.3513

G1X93.6950Y-101.9378

G1 Z0F20000

(Start Block)


G1X11.3447Y-100.5021
G1Z5F20000
(Plotting speed under)
G1 F4000


G1X11.9822Y-100.5794

G1X13.1511Y-100.9859

G1X13.6824Y-101.0631

G1X14.3199Y-100.9427

G1X15.4888Y-100.4348

G1X16.1263Y-100.3550

G1X16.6576Y-100.4962

G1X17.9327Y-101.1423

G1X18.4640Y-101.2329

G1X19.1016Y-101.0689

G1X20.4829Y-100.2841

G1X21.1205Y-100.1638

G1X21.8643Y-100.3915

G1X23.3519Y-101.2934

G1X24.0957Y-101.4405

G1X24.8395Y-101.2370

G1X26.7521Y-100.1157

G1X27.2835Y-99.9625

G1X27.7085Y-99.9386

G1X28.6648Y-100.1770

G1X31.1087Y-101.4113

G1X31.8526Y-101.6196

G1X32.4901Y-101.6847

G1X33.8715Y-101.2261

G1X35.3591Y-101.0858

G1X37.1655Y-100.4961

G1X38.6531Y-100.1339

G1X40.3532Y-99.8813

G1X42.3721Y-99.7499

G1X46.0912Y-99.7242

G1X49.2789Y-99.8429

G1X51.7229Y-100.0647

G1X58.2046Y-100.8627

G1X60.4361Y-101.0172

G1X62.6675Y-101.0676

G1X64.8989Y-101.0105

G1X67.1304Y-100.8404

G1X73.5059Y-99.9319

G1X75.8435Y-99.7114

G1X78.1812Y-99.6885

G1X84.0254Y-99.9486

G1X89.3384Y-99.6747

G1X90.4010Y-99.7478

G1X91.4635Y-99.9926

G1X92.4199Y-100.3825

G1X93.6950Y-101.0626

G1 Z0F20000

(Start Block)


G1X11.3447Y-99.2466
G1Z5F20000
(Plotting speed under)
G1 F4000


G1X12.1948Y-99.0487

G1X12.7260Y-99.0476

G1X14.3199Y-99.5283

G1X14.9575Y-99.5898

G1X15.5950Y-99.4408

G1X16.7639Y-98.9584

G1X17.4014Y-98.8859

G1X17.9327Y-99.0093

G1X19.3141Y-99.6612

G1X19.9516Y-99.7640

G1X20.5892Y-99.6198

G1X22.1830Y-98.8111

G1X22.9268Y-98.6943

G1X23.6707Y-98.8818

G1X25.4771Y-99.8122

G1X26.4334Y-99.9694

G1X27.3897Y-99.7487

G1X29.7274Y-98.6865

G1X30.4712Y-98.5096

G1X31.1087Y-98.4660

G1X32.5964Y-98.6866

G1X36.3154Y-99.7759

G1X38.4406Y-100.1063

G1X41.5221Y-99.7885

G1X45.1349Y-99.7159

G1X49.0664Y-99.8294

G1X52.8917Y-100.1973

G1X59.3735Y-100.0862

G1X66.7053Y-100.2122

G1X68.7242Y-100.1202

G1X70.5306Y-99.8979

G1X76.0561Y-98.6820

G1X78.2875Y-98.3436

G1X80.7314Y-98.2115

G1X86.6819Y-98.2070

G1X88.4883Y-98.2965

G1X89.9759Y-98.5699

G1X91.0385Y-98.9285

G1X93.6950Y-100.0702

G1 Z0F20000

(Start Block)


G1X11.3447Y-97.9906
G1Z5F20000
(Plotting speed under)
G1 F4000


G1X11.9822Y-97.9133

G1X13.2573Y-97.5999

G1X13.7886Y-97.5640

G1X14.4262Y-97.6646

G1X15.7013Y-98.0646

G1X16.3388Y-98.1205

G1X16.9764Y-97.9921

G1X18.2515Y-97.5053

G1X18.8890Y-97.4100

G1X19.6328Y-97.5470

G1X21.2267Y-98.2075

G1X21.9705Y-98.2914

G1X22.7143Y-98.1239

G1X24.5207Y-97.3446

G1X25.3708Y-97.2217

G1X26.3271Y-97.3921

G1X28.7711Y-98.3384

G1X30.0462Y-98.5021

G1X31.4275Y-98.3219

G1X35.2528Y-97.3187

G1X37.6968Y-97.0299

G1X40.0344Y-97.0071

G1X46.8350Y-97.2214

G1X56.1857Y-97.1924

G1X59.1610Y-97.2805

G1X61.7112Y-97.4731

G1X64.0489Y-97.7847

G1X68.6180Y-98.5860

G1X70.9557Y-98.7441

G1X72.1245Y-98.6745

G1X73.3996Y-98.4826

G1X77.5437Y-97.4712

G1X79.4563Y-97.1118

G1X81.6878Y-96.8941

G1X84.2380Y-96.8389

G1X86.3631Y-96.9255

G1X88.0632Y-97.1556

G1X89.5509Y-97.5477

G1X92.3136Y-98.5562

G1X93.0574Y-98.7153

G1X93.6950Y-98.7406

G1 Z0F20000

(Start Block)


G1X11.3447Y-96.3765
G1Z5F20000
(Plotting speed under)
G1 F4000


G1X12.1948Y-96.5072

G1X12.8323Y-96.5081

G1X14.5324Y-96.1518

G1X15.2762Y-96.0951

G1X15.9138Y-96.1887

G1X17.2952Y-96.5854

G1X18.0390Y-96.6516

G1X18.7828Y-96.5194

G1X20.2704Y-96.0228

G1X21.0142Y-95.9406

G1X21.8643Y-96.0868

G1X23.6707Y-96.7191

G1X24.6270Y-96.8234

G1X25.5833Y-96.6634

G1X27.9210Y-95.9017

G1X29.3024Y-95.7522

G1X30.6837Y-95.9159

G1X34.6153Y-96.8016

G1X36.1029Y-96.9722

G1X37.5905Y-97.0272

G1X40.3532Y-96.9482

G1X46.4100Y-96.5282

G1X54.5919Y-96.1082

G1X61.0736Y-95.5829

G1X63.0925Y-95.5290

G1X64.3676Y-95.5961

G1X65.6427Y-95.7647

G1X67.0241Y-96.0605

G1X70.7431Y-97.0477

G1X71.9120Y-97.2271

G1X72.9746Y-97.2750

G1X74.9935Y-97.0642

G1X78.6063Y-96.2289

G1X80.2001Y-95.9347

G1X81.9003Y-95.7475

G1X83.7067Y-95.6899

G1X85.4068Y-95.7711

G1X87.0007Y-95.9946

G1X88.3820Y-96.3240

G1X90.7197Y-97.0341

G1X91.6761Y-97.2325

G1X92.7386Y-97.2513

G1X93.6950Y-97.0263

G1 Z0F20000

(Start Block)


G1X11.3447Y-94.7402
G1Z5F20000
(Plotting speed under)
G1 F4000


G1X14.0011Y-95.0516

G1X14.7449Y-94.9844

G1X16.3388Y-94.6605

G1X17.0826Y-94.6272

G1X17.8264Y-94.7341

G1X19.3141Y-95.1123

G1X20.1641Y-95.1835

G1X21.0142Y-95.0670

G1X22.9268Y-94.5464

G1X23.8832Y-94.4724

G1X24.8395Y-94.6006

G1X27.2835Y-95.2393

G1X28.6648Y-95.3546

G1X30.0462Y-95.2168

G1X34.1902Y-94.4396

G1X35.7841Y-94.3059

G1X37.4843Y-94.2872

G1X40.4595Y-94.4603

G1X49.4915Y-95.3477

G1X52.5729Y-95.5223

G1X55.0169Y-95.5595

G1X56.8233Y-95.4877

G1X58.5234Y-95.3106

G1X63.8363Y-94.2361

G1X65.7490Y-94.0564

G1X66.7053Y-94.1076

G1X67.7679Y-94.2860

G1X71.8057Y-95.5155

G1X72.7620Y-95.7085

G1X73.7184Y-95.7991

G1X75.5248Y-95.6960

G1X79.8814Y-94.8549

G1X82.4316Y-94.6037

G1X84.0254Y-94.6182

G1X85.5131Y-94.7614

G1X86.8944Y-95.0092

G1X89.6571Y-95.6600

G1X90.8260Y-95.8023

G1X92.2073Y-95.6590

G1X93.6950Y-95.0732

G1 Z0F20000

(Start Block)


G1X11.3447Y-93.3417
G1Z5F20000
(Plotting speed under)
G1 F4000


G1X12.9386Y-93.2798

G1X14.9575Y-93.5414

G1X15.8075Y-93.5798

G1X18.3577Y-93.1952

G1X19.2078Y-93.1546

G1X20.0579Y-93.2459

G1X21.9705Y-93.6417

G1X23.0331Y-93.7142

G1X24.0957Y-93.6030

G1X26.6459Y-93.0850

G1X28.0272Y-93.0012

G1X29.4086Y-93.1154

G1X33.5527Y-93.7623

G1X36.4217Y-93.8823

G1X39.5032Y-93.6913

G1X45.9849Y-92.9302

G1X49.0664Y-92.8140

G1X52.0417Y-93.0179

G1X57.4608Y-93.9386

G1X59.5860Y-94.0914

G1X61.4986Y-93.8815

G1X65.3240Y-92.8001

G1X66.2803Y-92.6303

G1X67.1304Y-92.5872

G1X68.7242Y-92.8101

G1X72.2308Y-93.9907

G1X73.9309Y-94.3076

G1X75.7373Y-94.2730

G1X80.0939Y-93.5789

G1X82.5378Y-93.4274

G1X84.7693Y-93.5748

G1X88.3820Y-94.2161

G1X89.7634Y-94.3357

G1X90.6135Y-94.2737

G1X91.4635Y-94.0790

G1X93.6950Y-93.0964

G1 Z0F20000

(Start Block)


G1X11.3447Y-91.9916
G1Z5F20000
(Plotting speed under)
G1 F4000


G1X14.2137Y-91.7986

G1X17.9327Y-92.1096

G1X20.9079Y-91.7350

G1X21.9705Y-91.6826

G1X23.1394Y-91.7730

G1X25.7958Y-92.1808

G1X27.2835Y-92.2429

G1X28.6648Y-92.1447

G1X32.7026Y-91.6258

G1X35.2528Y-91.5322

G1X38.0155Y-91.6933

G1X43.4347Y-92.3304

G1X45.5599Y-92.4141

G1X47.5788Y-92.2730

G1X52.1479Y-91.4871

G1X54.1668Y-91.3422

G1X55.9732Y-91.5201

G1X59.5860Y-92.4387

G1X61.2861Y-92.6217

G1X62.1362Y-92.5479

G1X62.9863Y-92.3613

G1X66.1740Y-91.2844

G1X67.5554Y-91.1169

G1X68.9367Y-91.3140

G1X72.3370Y-92.5220

G1X74.0372Y-92.8410

G1X75.6310Y-92.8216

G1X79.6688Y-92.2634

G1X81.7940Y-92.1448

G1X83.8129Y-92.2535

G1X87.3195Y-92.7727

G1X88.7008Y-92.8653

G1X89.6571Y-92.7852

G1X90.6135Y-92.5520

G1X93.6950Y-91.2614

G1 Z0F20000

(Start Block)


G1X11.3447Y-90.5401
G1Z5F20000
(Plotting speed under)
G1 F4000


G1X16.1263Y-90.3288

G1X19.5266Y-90.6119

G1X20.6954Y-90.6389

G1X24.5207Y-90.2657

G1X26.0083Y-90.2129

G1X27.4960Y-90.2900

G1X31.5338Y-90.7051

G1X33.9777Y-90.7718

G1X36.4217Y-90.6349

G1X41.0970Y-90.1313

G1X42.9034Y-90.0608

G1X44.7098Y-90.1845

G1X48.3226Y-90.8182

G1X50.0227Y-90.9456

G1X51.5104Y-90.8090

G1X54.8044Y-90.0178

G1X56.2920Y-89.8723

G1X57.5671Y-90.0276

G1X60.5423Y-90.9691

G1X61.9237Y-91.1523

G1X62.6675Y-91.0807

G1X63.4113Y-90.8932

G1X66.2803Y-89.8058

G1X67.5554Y-89.6478

G1X68.8305Y-89.8560

G1X71.9120Y-91.0213

G1X73.6121Y-91.3671

G1X75.2060Y-91.3546

G1X79.0313Y-90.8496

G1X81.1565Y-90.7419

G1X83.0691Y-90.8453

G1X86.4694Y-91.3156

G1X87.7445Y-91.3958

G1X88.7008Y-91.3247

G1X89.5509Y-91.1373

G1X92.5261Y-89.8911

G1X93.6950Y-89.6480

G1 Z0F20000

(Start Block)


G1X11.3447Y-89.0280
G1Z5F20000
(Plotting speed under)
G1 F4000


G1X13.8949Y-89.0660

G1X18.4640Y-88.8583

G1X22.8206Y-89.1381

G1X24.4145Y-89.1698

G1X29.8336Y-88.7948

G1X31.9588Y-88.7433

G1X34.2965Y-88.8440

G1X38.8656Y-89.2557

G1X40.5658Y-89.3041

G1X42.2659Y-89.1925

G1X45.4536Y-88.6843

G1X46.8350Y-88.5903

G1X48.1101Y-88.7007

G1X50.9791Y-89.3611

G1X52.2542Y-89.4752

G1X53.5293Y-89.3050

G1X56.1857Y-88.5081

G1X57.2483Y-88.4030

G1X58.5234Y-88.6260

G1X60.9674Y-89.5375

G1X62.0300Y-89.6824

G1X62.6675Y-89.6175

G1X63.3051Y-89.4445

G1X65.9615Y-88.3393

G1X67.1304Y-88.1773

G1X68.2992Y-88.3731

G1X71.2744Y-89.5599

G1X72.8683Y-89.8973

G1X74.3559Y-89.8870

G1X78.1812Y-89.3465

G1X80.4127Y-89.2226

G1X82.3253Y-89.3284

G1X85.8318Y-89.8417

G1X87.1069Y-89.9258

G1X88.0632Y-89.8487

G1X89.0196Y-89.6154

G1X91.4635Y-88.5401

G1X92.2073Y-88.2835

G1X92.9511Y-88.1774

G1X93.6950Y-88.2626

G1 Z0F20000

(Start Block)


G1X11.3447Y-87.5182
G1Z5F20000
(Plotting speed under)
G1 F4000


G1X15.3825Y-87.6021

G1X21.8643Y-87.3900

G1X27.4960Y-87.6662

G1X29.6211Y-87.7006

G1X37.9093Y-87.2729

G1X39.6094Y-87.3554

G1X42.7972Y-87.7634

G1X44.0723Y-87.8358

G1X45.3474Y-87.7340

G1X47.7913Y-87.2211

G1X48.9602Y-87.1209

G1X50.1290Y-87.2714

G1X52.3604Y-87.9075

G1X53.3167Y-88.0057

G1X54.4856Y-87.8121

G1X56.6108Y-87.0519

G1X57.5671Y-86.9325

G1X58.6297Y-87.1332

G1X60.8611Y-88.0675

G1X61.8174Y-88.2127

G1X62.3487Y-88.1568

G1X62.9863Y-87.9698

G1X65.4302Y-86.8632

G1X66.4928Y-86.7076

G1X67.1304Y-86.7824

G1X67.7679Y-86.9662

G1X70.6369Y-88.1806

G1X71.9120Y-88.4333

G1X73.2934Y-88.4092

G1X77.3312Y-87.7342

G1X79.6688Y-87.5849

G1X81.7940Y-87.7224

G1X85.4068Y-88.3527

G1X86.6819Y-88.4561

G1X87.5320Y-88.3897

G1X88.3820Y-88.1851

G1X90.9322Y-87.0275

G1X91.7823Y-86.7594

G1X92.7386Y-86.7417

G1X93.6950Y-87.0589

G1 Z0F20000

(Start Block)


G1X11.3447Y-86.0280
G1Z5F20000
(Plotting speed under)
G1 F4000


G1X17.6139Y-86.1332

G1X26.4334Y-85.9205

G1X35.0403Y-86.2310

G1X36.8467Y-86.1615

G1X40.0344Y-85.8591

G1X41.4158Y-85.8028

G1X42.5847Y-85.8770

G1X45.0286Y-86.2897

G1X46.0912Y-86.3654

G1X47.0475Y-86.2714

G1X49.0664Y-85.7601

G1X50.0227Y-85.6503

G1X50.8728Y-85.7486

G1X52.8917Y-86.4093

G1X53.8481Y-86.5354

G1X54.8044Y-86.3569

G1X56.7170Y-85.5839

G1X57.5671Y-85.4624

G1X58.5234Y-85.6640

G1X60.5423Y-86.5992

G1X61.3924Y-86.7427

G1X61.9237Y-86.6808

G1X62.4550Y-86.5103

G1X64.6864Y-85.4101

G1X65.6427Y-85.2370

G1X66.7053Y-85.4244

G1X69.2555Y-86.5997

G1X69.9993Y-86.8393

G1X70.7431Y-86.9649

G1X71.4869Y-86.9797

G1X72.3370Y-86.8865

G1X76.5874Y-85.9973

G1X78.9250Y-85.8326

G1X81.3690Y-86.0187

G1X85.1943Y-86.8554

G1X86.4694Y-86.9859

G1X87.3195Y-86.9066

G1X88.0632Y-86.7025

G1X90.4010Y-85.5640

G1X91.3573Y-85.2651

G1X91.8886Y-85.2429

G1X92.4199Y-85.3394

G1X93.6950Y-85.9551

G1 Z0F20000

(Start Block)


G1X11.3447Y-84.5533
G1Z5F20000
(Plotting speed under)
G1 F4000


G1X21.0142Y-84.6632

G1X31.4275Y-84.4498

G1X38.4406Y-84.7620

G1X39.8219Y-84.6963

G1X42.2659Y-84.3916

G1X43.3285Y-84.3326

G1X44.2848Y-84.4037

G1X46.3037Y-84.8156

G1X47.2600Y-84.8950

G1X48.1101Y-84.7897

G1X49.8102Y-84.2908

G1X50.6603Y-84.1804

G1X51.4041Y-84.2799

G1X53.2105Y-84.9464

G1X53.9543Y-85.0658

G1X54.6981Y-84.9551

G1X56.5045Y-84.1550

G1X57.3546Y-83.9926

G1X58.0984Y-84.1291

G1X60.0111Y-85.0908

G1X60.8611Y-85.2727

G1X61.2861Y-85.2324

G1X61.8174Y-85.0643

G1X63.9426Y-83.9380

G1X64.8989Y-83.7680

G1X65.4302Y-83.8397

G1X65.9615Y-84.0146

G1X68.4055Y-85.2288

G1X69.5743Y-85.5010

G1X70.3181Y-85.4997

G1X71.0619Y-85.3882

G1X74.0372Y-84.5453

G1X75.4185Y-84.2423

G1X76.7999Y-84.0658

G1X78.2875Y-84.0058

G1X79.7751Y-84.0727

G1X81.1565Y-84.2603

G1X82.5378Y-84.5815

G1X85.0880Y-85.3433

G1X86.3631Y-85.5160

G1X87.1069Y-85.4449

G1X87.7445Y-85.2629

G1X90.1884Y-84.0055

G1X90.7197Y-83.8286

G1X91.2510Y-83.7676

G1X91.6761Y-83.8136

G1X92.2073Y-83.9871

G1X93.6950Y-84.8529

G1 Z0F20000

(Start Block)


G1X11.3447Y-83.0906
G1Z5F20000
(Plotting speed under)
G1 F4000


G1X25.7958Y-83.1929

G1X34.9340Y-82.9785

G1X40.4595Y-83.2923

G1X41.5221Y-83.2326

G1X43.6473Y-82.9149

G1X44.4973Y-82.8629

G1X45.3474Y-82.9384

G1X47.1538Y-83.3574

G1X47.8976Y-83.4259

G1X48.6414Y-83.3329

G1X50.2353Y-82.8186

G1X50.9791Y-82.7111

G1X51.7229Y-82.8257

G1X53.3167Y-83.4777

G1X54.0606Y-83.5949

G1X54.9106Y-83.3952

G1X56.3982Y-82.6568

G1X57.1421Y-82.5230

G1X57.9921Y-82.7451

G1X59.6923Y-83.6736

G1X60.4361Y-83.8010

G1X61.2861Y-83.5708

G1X63.1988Y-82.4724

G1X64.0489Y-82.2972

G1X64.5801Y-82.3669

G1X65.1115Y-82.5575

G1X67.4491Y-83.8087

G1X68.0867Y-83.9901

G1X68.7242Y-84.0462

G1X69.9993Y-83.8356

G1X72.6558Y-82.8862

G1X74.1434Y-82.4985

G1X75.8435Y-82.2709

G1X77.8624Y-82.2053

G1X79.6688Y-82.2919

G1X81.2627Y-82.5335

G1X82.6441Y-82.9204

G1X85.0880Y-83.8305

G1X86.3631Y-84.0460

G1X87.0007Y-83.9782

G1X87.6382Y-83.7744

G1X90.0822Y-82.4403

G1X90.5072Y-82.3244

G1X91.0385Y-82.3090

G1X91.8886Y-82.5895

G1X93.6950Y-83.6618

G1 Z0F20000

(Start Block)


G1X11.3447Y-81.6410
G1Z5F20000
(Plotting speed under)
G1 F4000


G1X30.0462Y-81.7237

G1X37.1655Y-81.5085

G1X41.7346Y-81.8219

G1X45.2411Y-81.3928

G1X45.9849Y-81.4669

G1X47.5788Y-81.8763

G1X48.3226Y-81.9553

G1X49.0664Y-81.8438

G1X50.5540Y-81.3224

G1X51.1916Y-81.2409

G1X51.8292Y-81.3514

G1X53.2105Y-81.9684

G1X53.9543Y-82.1257

G1X54.5919Y-82.0107

G1X56.0795Y-81.2345

G1X56.8233Y-81.0534

G1X57.2483Y-81.1086

G1X57.6556Y-81.2644

G1X59.1610Y-82.1621

G1X59.9048Y-82.3321

G1X60.3298Y-82.2697

G1X60.7548Y-82.0972

G1X62.5612Y-80.9905

G1X63.3051Y-80.8276

G1X63.7301Y-80.8767

G1X64.2614Y-81.0672

G1X66.4928Y-82.3562

G1X67.1304Y-82.5395

G1X67.6616Y-82.5750

G1X68.7242Y-82.3654

G1X71.3807Y-81.2356

G1X72.8683Y-80.8131

G1X74.7809Y-80.6023

G1X78.0750Y-80.5720

G1X80.0939Y-80.6489

G1X81.5815Y-80.8847

G1X82.8566Y-81.2966

G1X85.1943Y-82.3398

G1X86.2569Y-82.5738

G1X86.7882Y-82.5420

G1X87.3195Y-82.3954

G1X87.9393Y-82.0929

G1X89.6571Y-81.0291

G1X90.1884Y-80.8564

G1X90.7197Y-80.8434

G1X91.5698Y-81.1621

G1X93.0751Y-82.1353

G1X93.6950Y-82.3245

G1 Z0F20000

(Start Block)


G1X11.3447Y-80.2041
G1Z5F20000
(Plotting speed under)
G1 F4000


G1X21.9705Y-80.1510

G1X32.9151Y-80.2538

G1X38.5468Y-80.0384

G1X42.4784Y-80.3525

G1X43.3285Y-80.2929

G1X45.6662Y-79.9230

G1X46.4100Y-79.9972

G1X47.8976Y-80.4093

G1X48.5351Y-80.4864

G1X49.1727Y-80.4045

G1X50.5540Y-79.8902

G1X51.2978Y-79.7721

G1X51.9354Y-79.9012

G1X53.3167Y-80.5477

G1X53.9543Y-80.6549

G1X54.5919Y-80.4986

G1X55.9732Y-79.7262

G1X56.6108Y-79.5830

G1X57.3546Y-79.7854

G1X58.8422Y-80.7122

G1X59.4797Y-80.8619

G1X59.9048Y-80.7953

G1X60.3121Y-80.6177

G1X61.9237Y-79.5491

G1X62.6675Y-79.3584

G1X63.0925Y-79.4111

G1X63.5884Y-79.6070

G1X65.6427Y-80.8948

G1X66.0678Y-81.0408

G1X66.5991Y-81.1065

G1X67.1304Y-81.0470

G1X67.6616Y-80.8828

G1X70.2119Y-79.6258

G1X70.9557Y-79.3659

G1X71.8057Y-79.1835

G1X73.0808Y-79.0959

G1X76.5874Y-79.2030

G1X80.2001Y-79.0968

G1X81.3690Y-79.1861

G1X82.4316Y-79.4464

G1X83.2816Y-79.7996

G1X85.1943Y-80.8074

G1X86.1506Y-81.0924

G1X86.7882Y-81.0697

G1X87.3195Y-80.9009

G1X89.3561Y-79.5963

G1X89.7634Y-79.4280

G1X90.1884Y-79.3587

G1X90.6135Y-79.4103

G1X91.0385Y-79.5803

G1X92.8449Y-80.7461

G1X93.2699Y-80.8556

G1X93.6950Y-80.8318

G1 Z0F20000

(Start Block)


G1X11.3447Y-78.7700
G1Z5F20000
(Plotting speed under)
G1 F4000


G1X23.4581Y-78.6604

G1X34.6153Y-78.7846

G1X39.3969Y-78.5681

G1X43.1159Y-78.8818

G1X45.9849Y-78.4533

G1X46.6225Y-78.5107

G1X48.1101Y-78.9360

G1X48.7477Y-79.0152

G1X49.3852Y-78.9167

G1X50.6603Y-78.4158

G1X51.2978Y-78.3017

G1X51.8292Y-78.3841

G1X53.2105Y-79.0514

G1X53.8481Y-79.1867

G1X54.4679Y-79.0444

G1X55.7607Y-78.2830

G1X56.3982Y-78.1131

G1X57.0358Y-78.2649

G1X58.4526Y-79.1986

G1X59.1610Y-79.3934

G1X59.8694Y-79.1839

G1X61.4986Y-78.0565

G1X62.2425Y-77.8901

G1X63.0571Y-78.1629

G1X64.9166Y-79.4262

G1X65.4302Y-79.5998

G1X65.8553Y-79.6349

G1X66.8116Y-79.3877

G1X69.2555Y-78.0312

G1X70.5306Y-77.6724

G1X71.8057Y-77.6477

G1X74.6747Y-78.0147

G1X76.2686Y-78.0964

G1X77.5437Y-78.0318

G1X80.2001Y-77.6796

G1X81.1565Y-77.6265

G1X82.0065Y-77.7066

G1X82.8566Y-77.9545

G1X83.6004Y-78.3128

G1X85.3005Y-79.3270

G1X86.1506Y-79.6172

G1X86.6819Y-79.6164

G1X87.2132Y-79.4556

G1X89.1790Y-78.1263

G1X89.5509Y-77.9620

G1X89.9759Y-77.8874

G1X90.4010Y-77.9521

G1X90.7728Y-78.1137

G1X92.0125Y-79.0085

G1X92.5261Y-79.2928

G1X93.1637Y-79.3856

G1X93.6950Y-79.2180

G1 Z0F20000

(Start Block)


G1X11.3447Y-77.3153
G1Z5F20000
(Plotting speed under)
G1 F4000


G1X24.5207Y-77.1801

G1X35.7841Y-77.3148

G1X40.1407Y-77.0986

G1X43.4347Y-77.4124

G1X44.1785Y-77.3537

G1X45.6662Y-77.0378

G1X46.3037Y-76.9831

G1X46.9413Y-77.0596

G1X48.3226Y-77.4788

G1X48.8539Y-77.5455

G1X49.4915Y-77.4494

G1X50.7666Y-76.9348

G1X51.4041Y-76.8337

G1X52.0417Y-76.9873

G1X53.3167Y-77.6307

G1X53.8481Y-77.7156

G1X54.4679Y-77.5411

G1X55.7607Y-76.7582

G1X56.2920Y-76.6447

G1X56.6108Y-76.6923

G1X57.0358Y-76.8885

G1X58.3109Y-77.7712

G1X58.9485Y-77.9197

G1X59.2672Y-77.8583

G1X59.6923Y-77.6430

G1X61.1090Y-76.5937

G1X61.8174Y-76.4188

G1X62.5258Y-76.6499

G1X64.2968Y-77.9333

G1X64.7927Y-78.1237

G1X65.2177Y-78.1649

G1X65.6427Y-78.0952

G1X66.1563Y-77.8845

G1X68.4055Y-76.5018

G1X69.4680Y-76.1879

G1X70.6369Y-76.2065

G1X73.9309Y-76.9478

G1X75.8435Y-77.1205

G1X77.6499Y-76.9692

G1X80.6252Y-76.2767

G1X81.6878Y-76.1563

G1X82.4316Y-76.2316

G1X83.1754Y-76.4792

G1X85.4068Y-77.8682

G1X86.2569Y-78.1580

G1X86.7882Y-78.1228

G1X87.2132Y-77.9627

G1X88.9133Y-76.7243

G1X89.6571Y-76.4278

G1X90.0822Y-76.4508

G1X90.5072Y-76.6204

G1X91.9240Y-77.6640

G1X92.4199Y-77.8848

G1X93.0574Y-77.8687

G1X93.6950Y-77.5401

G1 Z0F20000

(Start Block)


G1X11.3447Y-75.8123
G1Z5F20000
(Plotting speed under)
G1 F4000


G1X28.2398Y-75.7084

G1X36.5279Y-75.8453

G1X40.5658Y-75.6284

G1X43.7535Y-75.9428

G1X44.3910Y-75.8925

G1X46.4100Y-75.5132

G1X47.0475Y-75.5766

G1X48.4289Y-76.0064

G1X48.9602Y-76.0764

G1X49.5977Y-75.9746

G1X50.7666Y-75.4822

G1X51.4041Y-75.3632

G1X51.9354Y-75.4679

G1X53.2105Y-76.1299

G1X53.7418Y-76.2461

G1X54.3793Y-76.0870

G1X55.5482Y-75.3485

G1X56.1857Y-75.1753

G1X56.7702Y-75.3422

G1X58.0984Y-76.2824

G1X58.7359Y-76.4519

G1X59.4266Y-76.2015

G1X60.7548Y-75.1686

G1X61.1799Y-74.9835

G1X61.4986Y-74.9500

G1X61.9060Y-75.0380

G1X62.2602Y-75.2277

G1X63.8540Y-76.4561

G1X64.2614Y-76.6333

G1X64.6864Y-76.6959

G1X65.1115Y-76.6319

G1X65.6250Y-76.4079

G1X67.6616Y-75.0394

G1X68.1929Y-74.8184

G1X68.7242Y-74.7047

G1X69.3618Y-74.7007

G1X69.9993Y-74.8127

G1X73.5059Y-75.8966

G1X74.5684Y-76.0609

G1X75.6310Y-76.1115

G1X76.6936Y-76.0502

G1X77.7562Y-75.8742

G1X80.9439Y-74.8622

G1X82.0065Y-74.6867

G1X82.6441Y-74.7462

G1X83.2816Y-74.9609

G1X83.8661Y-75.2883

G1X85.4599Y-76.4060

G1X86.2569Y-76.6890

G1X86.6819Y-76.6680

G1X87.1069Y-76.5172

G1X88.8248Y-75.2245

G1X89.5509Y-74.9518

G1X89.9759Y-74.9999

G1X90.2947Y-75.1408

G1X91.5698Y-76.1151

G1X92.2073Y-76.4247

G1X92.8449Y-76.3794

G1X93.6950Y-75.8533

G1 Z0F20000

(Start Block)


G1X11.3447Y-74.2528
G1Z5F20000
(Plotting speed under)
G1 F4000


G1X14.4262Y-74.3754

G1X24.2020Y-74.2375

G1X31.7463Y-74.2486

G1X37.0592Y-74.3754

G1X40.8845Y-74.1586

G1X43.9660Y-74.4723

G1X46.6225Y-74.0443

G1X47.1538Y-74.1057

G1X48.4289Y-74.5144

G1X49.0664Y-74.6067

G1X49.5977Y-74.5230

G1X50.8728Y-73.9873

G1X51.4041Y-73.8933

G1X51.9354Y-73.9938

G1X53.2105Y-74.6657

G1X53.7418Y-74.7761

G1X54.2731Y-74.6474

G1X55.4419Y-73.9001

G1X56.0795Y-73.7042

G1X56.6816Y-73.8697

G1X58.0098Y-74.8297

G1X58.6297Y-74.9816

G1X59.2495Y-74.7523

G1X60.6663Y-73.6408

G1X61.2861Y-73.4782

G1X61.9945Y-73.7340

G1X63.6238Y-75.0193

G1X63.9426Y-75.1613

G1X64.3676Y-75.2259

G1X64.7927Y-75.1512

G1X65.1823Y-74.9780

G1X67.2366Y-73.5336

G1X68.1929Y-73.2298

G1X68.8305Y-73.2431

G1X69.4680Y-73.3921

G1X71.8057Y-74.3332

G1X72.9746Y-74.6919

G1X74.1434Y-74.8980

G1X75.4185Y-74.9669

G1X76.6936Y-74.8860

G1X77.8624Y-74.6664

G1X78.9250Y-74.3330

G1X81.2627Y-73.3885

G1X82.3253Y-73.2171

G1X82.8566Y-73.2912

G1X83.3879Y-73.4907

G1X85.4599Y-74.9408

G1X85.9381Y-75.1592

G1X86.3631Y-75.2261

G1X86.7882Y-75.1539

G1X87.1424Y-74.9873

G1X88.6477Y-73.7906

G1X89.3384Y-73.4883

G1X89.6571Y-73.4935

G1X90.0645Y-73.6330

G1X91.4812Y-74.7220

G1X92.1011Y-74.9753

G1X92.7209Y-74.8704

G1X93.6950Y-74.1947

G1 Z0F20000

(Start Block)


G1X11.3447Y-72.6944
G1Z5F20000
(Plotting speed under)
G1 F4000


G1X15.7013Y-72.9049

G1X21.9705Y-72.7774

G1X29.7274Y-72.7676

G1X37.2717Y-72.9059

G1X41.0970Y-72.6887

G1X44.0723Y-73.0026

G1X46.7287Y-72.5749

G1X47.2600Y-72.6452

G1X48.4289Y-73.0300

G1X49.0664Y-73.1368

G1X49.7040Y-73.0312

G1X50.8728Y-72.5242

G1X51.4041Y-72.4236

G1X51.9354Y-72.5214

G1X53.2105Y-73.1992

G1X53.7418Y-73.3059

G1X54.3793Y-73.1160

G1X55.5482Y-72.3598

G1X56.0795Y-72.2344

G1X56.6816Y-72.4290

G1X58.0098Y-73.3951

G1X58.5234Y-73.5118

G1X59.1610Y-73.2815

G1X60.5778Y-72.1603

G1X61.1799Y-72.0102

G1X61.4986Y-72.0778

G1X61.9060Y-72.2945

G1X63.4113Y-73.5269

G1X63.8363Y-73.7128

G1X64.1551Y-73.7558

G1X64.5801Y-73.6868

G1X65.0052Y-73.4867

G1X67.0418Y-72.0147

G1X67.6616Y-71.7921

G1X68.1929Y-71.7479

G1X69.2555Y-71.9912

G1X71.3807Y-72.9483

G1X72.5495Y-73.3442

G1X73.9309Y-73.5983

G1X75.4185Y-73.6652

G1X76.7999Y-73.5598

G1X77.9687Y-73.3181

G1X79.0313Y-72.9522

G1X81.2627Y-71.9546

G1X82.3253Y-71.7465

G1X82.8566Y-71.8153

G1X83.3879Y-72.0199

G1X85.4599Y-73.5079

G1X85.8318Y-73.6789

G1X86.2569Y-73.7569

G1X86.9653Y-73.5621

G1X88.5591Y-72.2936

G1X89.2321Y-72.0155

G1X89.5509Y-72.0296

G1X89.9759Y-72.1992

G1X91.3041Y-73.2447

G1X91.8886Y-73.4981

G1X92.2073Y-73.5012

G1X92.6324Y-73.3517

G1X93.6950Y-72.5802

G1 Z0F20000

(Start Block)


G1X11.3447Y-71.2776
G1Z5F20000
(Plotting speed under)
G1 F4000


G1X13.0448Y-71.2243

G1X17.2952Y-71.4356

G1X23.0331Y-71.3101

G1X29.4086Y-71.2977

G1X37.3780Y-71.4359

G1X41.2033Y-71.2194

G1X44.0723Y-71.5328

G1X44.7098Y-71.4832

G1X46.1974Y-71.1464

G1X46.7287Y-71.1044

G1X47.2600Y-71.1703

G1X48.5351Y-71.5844

G1X49.0664Y-71.6666

G1X49.7040Y-71.5650

G1X50.8728Y-71.0566

G1X51.4041Y-70.9538

G1X51.9354Y-71.0506

G1X53.2105Y-71.7304

G1X53.7418Y-71.8358

G1X54.3793Y-71.6420

G1X55.5482Y-70.8842

G1X56.0795Y-70.7650

G1X56.6816Y-70.9693

G1X57.9213Y-71.8903

G1X58.5234Y-72.0405

G1X59.1610Y-71.7924

G1X60.4892Y-70.7214

G1X61.0736Y-70.5402

G1X61.3924Y-70.5847

G1X61.8174Y-70.7963

G1X63.4113Y-72.0892

G1X63.8363Y-72.2574

G1X64.1551Y-72.2846

G1X64.5801Y-72.1937

G1X65.0052Y-71.9736

G1X66.9532Y-70.5428

G1X67.4491Y-70.3493

G1X67.9804Y-70.2770

G1X69.0430Y-70.4901

G1X71.2744Y-71.5121

G1X72.4433Y-71.9115

G1X73.8246Y-72.1640

G1X75.3123Y-72.2291

G1X76.6936Y-72.1250

G1X77.8624Y-71.8839

G1X79.0313Y-71.4698

G1X81.1565Y-70.4941

G1X82.2191Y-70.2769

G1X82.7503Y-70.3451

G1X83.2462Y-70.5338

G1X85.3005Y-72.0191

G1X85.7256Y-72.2187

G1X86.1506Y-72.2866

G1X86.8767Y-72.0651

G1X88.3820Y-70.8433

G1X89.0196Y-70.5544

G1X89.4446Y-70.5688

G1X89.7634Y-70.6968

G1X91.1270Y-71.7563

G1X91.7823Y-72.0343

G1X92.1011Y-72.0235

G1X92.5261Y-71.8537

G1X93.6950Y-71.0098

G1 Z0F20000

(Start Block)


G1X11.3447Y-70.0196
G1Z5F20000
(Plotting speed under)
G1 F4000


G1X14.3199Y-69.7492

G1X18.7828Y-69.9644

G1X28.6648Y-69.8291

G1X37.2717Y-69.9660

G1X41.0970Y-69.7489

G1X44.0723Y-70.0628

G1X46.7287Y-69.6351

G1X47.2600Y-69.7054

G1X48.4289Y-70.0901

G1X49.0664Y-70.1970

G1X49.7040Y-70.0914

G1X50.8728Y-69.5844

G1X51.4041Y-69.4838

G1X51.9354Y-69.5815

G1X53.2105Y-70.2594

G1X53.7418Y-70.3661

G1X54.3793Y-70.1762

G1X55.5482Y-69.4200

G1X56.0795Y-69.2946

G1X56.6816Y-69.4891

G1X58.0098Y-70.4552

G1X58.5234Y-70.5720

G1X59.1610Y-70.3417

G1X60.5778Y-69.2205

G1X61.1799Y-69.0704

G1X61.4986Y-69.1380

G1X61.9060Y-69.3547

G1X63.4113Y-70.5871

G1X63.8363Y-70.7730

G1X64.1551Y-70.8160

G1X64.5801Y-70.7470

G1X65.0052Y-70.5470

G1X67.0418Y-69.0766

G1X67.6616Y-68.8536

G1X68.1929Y-68.8078

G1X69.2555Y-69.0441

G1X71.2744Y-69.9359

G1X72.4433Y-70.3352

G1X73.7184Y-70.5815

G1X75.2060Y-70.6575

G1X76.4811Y-70.5624

G1X77.6499Y-70.3245

G1X78.8188Y-69.9205

G1X80.8377Y-69.0320

G1X81.4753Y-68.8525

G1X82.0065Y-68.8072

G1X82.5378Y-68.8850

G1X83.0691Y-69.0963

G1X85.1057Y-70.5602

G1X85.5131Y-70.7455

G1X85.9381Y-70.8158

G1X86.3631Y-70.7443

G1X86.7882Y-70.5328

G1X88.2049Y-69.3757

G1X88.8071Y-69.0922

G1X89.2321Y-69.0899

G1X89.6217Y-69.2329

G1X91.0385Y-70.3249

G1X91.6761Y-70.5688

G1X91.9948Y-70.5464

G1X92.3667Y-70.4031

G1X93.6950Y-69.4756

G1 Z0F20000

(Start Block)


G1X11.3447Y-68.5030
G1Z5F20000
(Plotting speed under)
G1 F4000


G1X12.8323Y-68.5856

G1X16.3388Y-68.2789

G1X20.6954Y-68.4943

G1X29.1961Y-68.3720

G1X37.0592Y-68.4955

G1X40.8845Y-68.2789

G1X43.9660Y-68.5926

G1X46.6225Y-68.1647

G1X47.1538Y-68.2261

G1X48.4289Y-68.6348

G1X49.0664Y-68.7270

G1X49.5977Y-68.6434

G1X50.8728Y-68.1077

G1X51.4041Y-68.0137

G1X51.9354Y-68.1142

G1X53.2105Y-68.7861

G1X53.7418Y-68.8965

G1X54.2731Y-68.7677

G1X55.4419Y-68.0205

G1X56.0795Y-67.8246

G1X56.6816Y-67.9900

G1X58.0098Y-68.9500

G1X58.6297Y-69.1020

G1X59.2495Y-68.8727

G1X60.6663Y-67.7612

G1X61.2861Y-67.5986

G1X61.9945Y-67.8544

G1X63.6238Y-69.1397

G1X63.9426Y-69.2817

G1X64.3676Y-69.3463

G1X64.7927Y-69.2717

G1X65.1823Y-69.0988

G1X67.2366Y-67.6588

G1X68.1929Y-67.3525

G1X68.7242Y-67.3479

G1X69.3618Y-67.4665

G1X71.8057Y-68.3737

G1X72.8683Y-68.6767

G1X73.9309Y-68.8535

G1X74.9935Y-68.9090

G1X76.1623Y-68.8353

G1X77.2249Y-68.6403

G1X78.2875Y-68.3205

G1X80.4127Y-67.5175

G1X81.4753Y-67.3366

G1X82.0065Y-67.3919

G1X82.6264Y-67.6067

G1X83.2462Y-67.9726

G1X84.6630Y-69.0127

G1X85.1943Y-69.2692

G1X85.6193Y-69.3465

G1X86.0443Y-69.2885

G1X86.4340Y-69.1208

G1X88.0278Y-67.8828

G1X88.7008Y-67.6080

G1X89.0196Y-67.6139

G1X89.4446Y-67.7638

G1X90.9500Y-68.8897

G1X91.5698Y-69.1017

G1X92.2782Y-68.9241

G1X93.6950Y-67.9679

G1 Z0F20000

(Start Block)


G1X11.3447Y-66.6968
G1Z5F20000
(Plotting speed under)
G1 F4000


G1X14.5324Y-67.1227

G1X18.3577Y-66.8093

G1X22.9268Y-67.0234

G1X30.0462Y-66.9421

G1X36.2091Y-67.0263

G1X40.5658Y-66.8089

G1X43.7535Y-67.1234

G1X46.5162Y-66.6946

G1X47.0475Y-66.7572

G1X48.4289Y-67.1869

G1X48.9602Y-67.2570

G1X49.5977Y-67.1552

G1X50.7666Y-66.6628

G1X51.4041Y-66.5438

G1X51.9354Y-66.6485

G1X53.2105Y-67.3105

G1X53.7418Y-67.4267

G1X54.3793Y-67.2676

G1X55.5482Y-66.5290

G1X56.1857Y-66.3558

G1X56.7702Y-66.5227

G1X58.0984Y-67.4630

G1X58.7359Y-67.6325

G1X59.4266Y-67.3821

G1X60.7548Y-66.3492

G1X61.1799Y-66.1640

G1X61.4986Y-66.1305

G1X61.9060Y-66.2185

G1X62.2602Y-66.4083

G1X63.8540Y-67.6363

G1X64.2614Y-67.8135

G1X64.6864Y-67.8765

G1X65.1115Y-67.8135

G1X65.5365Y-67.6384

G1X67.5731Y-66.2834

G1X68.1929Y-66.0145

G1X68.7242Y-65.8937

G1X69.8931Y-65.9397

G1X72.9746Y-66.7470

G1X74.8872Y-66.9451

G1X76.6936Y-66.7787

G1X79.6688Y-65.9990

G1X80.7314Y-65.8667

G1X81.3690Y-65.9327

G1X82.0065Y-66.1381

G1X82.6264Y-66.4676

G1X84.3442Y-67.6182

G1X84.8755Y-67.8276

G1X85.3005Y-67.8762

G1X85.7256Y-67.8034

G1X86.1506Y-67.6104

G1X87.6737Y-66.4597

G1X88.3820Y-66.1472

G1X88.8071Y-66.1484

G1X89.2321Y-66.2977

G1X90.7728Y-67.4041

G1X91.4635Y-67.6322

G1X92.1896Y-67.4486

G1X93.6950Y-66.4786

G1 Z0F20000

(Start Block)


G1X11.3447Y-65.6295
G1Z5F20000
(Plotting speed under)
G1 F4000


G1X12.6198Y-65.3120

G1X13.4698Y-65.2237

G1X16.8701Y-65.6530

G1X20.6954Y-65.3401

G1X25.5833Y-65.5491

G1X34.8278Y-65.5563

G1X40.0344Y-65.3390

G1X43.4347Y-65.6532

G1X44.1785Y-65.5943

G1X45.6662Y-65.2785

G1X46.3037Y-65.2238

G1X47.0475Y-65.3254

G1X48.4289Y-65.7431

G1X48.9602Y-65.7848

G1X49.4915Y-65.6902

G1X50.6603Y-65.2107

G1X51.2978Y-65.0735

G1X51.8292Y-65.1471

G1X53.2105Y-65.8325

G1X53.8481Y-65.9563

G1X54.4679Y-65.7818

G1X55.7607Y-64.9990

G1X56.2920Y-64.8854

G1X56.6108Y-64.9330

G1X57.0358Y-65.1292

G1X58.3109Y-66.0120

G1X58.9485Y-66.1604

G1X59.2672Y-66.0990

G1X59.6923Y-65.8838

G1X61.1090Y-64.8346

G1X61.8174Y-64.6595

G1X62.5258Y-64.8897

G1X64.2968Y-66.1693

G1X64.7927Y-66.3614

G1X65.2177Y-66.4063

G1X65.6427Y-66.3426

G1X66.1563Y-66.1425

G1X68.4055Y-64.8005

G1X69.5743Y-64.4459

G1X70.7431Y-64.4154

G1X73.5059Y-64.7824

G1X74.8872Y-64.8555

G1X76.1623Y-64.7893

G1X78.6063Y-64.4538

G1X79.5626Y-64.3973

G1X80.4127Y-64.4822

G1X81.1565Y-64.7015

G1X81.9180Y-65.0704

G1X83.7067Y-66.1456

G1X84.2380Y-66.3443

G1X84.7693Y-66.4060

G1X85.1943Y-66.3399

G1X85.7256Y-66.1144

G1X87.3195Y-64.9818

G1X88.0632Y-64.6779

G1X88.4883Y-64.6740

G1X88.9133Y-64.8037

G1X90.5072Y-65.8876

G1X91.2510Y-66.1568

G1X91.6761Y-66.1292

G1X92.1011Y-65.9705

G1X93.6950Y-65.0020

G1 Z0F20000

(Start Block)


G1X11.3447Y-64.0339
G1Z5F20000
(Plotting speed under)
G1 F4000


G1X12.1948Y-64.2653

G1X12.9386Y-64.3134

G1X13.5761Y-64.2286

G1X15.1700Y-63.8344

G1X16.0201Y-63.7538

G1X19.4203Y-64.1834

G1X23.6707Y-63.8691

G1X28.1335Y-64.0431

G1X31.6400Y-64.0778

G1X35.0403Y-64.0434

G1X39.5032Y-63.8715

G1X43.0097Y-64.1835

G1X43.8598Y-64.1175

G1X45.9849Y-63.7542

G1X46.6225Y-63.8116

G1X48.1101Y-64.2370

G1X48.7477Y-64.3161

G1X49.3852Y-64.2176

G1X50.6603Y-63.7167

G1X51.2978Y-63.6026

G1X51.8292Y-63.6851

G1X53.2105Y-64.3523

G1X53.8481Y-64.4876

G1X54.4679Y-64.3454

G1X55.7607Y-63.5839

G1X56.3982Y-63.4140

G1X57.0358Y-63.5658

G1X58.4526Y-64.4996

G1X59.1610Y-64.6943

G1X59.8694Y-64.4850

G1X61.4986Y-63.3594

G1X62.2425Y-63.1906

G1X63.0571Y-63.4554

G1X64.9166Y-64.7048

G1X65.4302Y-64.8875

G1X65.8553Y-64.9368

G1X66.8116Y-64.7405

G1X69.2555Y-63.4959

G1X70.7431Y-63.0507

G1X72.1245Y-62.9307

G1X77.4374Y-62.9290

G1X78.7125Y-63.0156

G1X79.7751Y-63.2471

G1X80.7314Y-63.6162

G1X82.8566Y-64.6914

G1X83.4942Y-64.8899

G1X84.0254Y-64.9366

G1X84.4505Y-64.8813

G1X84.9818Y-64.6957

G1X86.7882Y-63.5390

G1X87.6382Y-63.2079

G1X88.0632Y-63.1997

G1X88.5946Y-63.3484

G1X90.3301Y-64.4469

G1X91.1447Y-64.6925

G1X91.5698Y-64.6508

G1X91.9948Y-64.4963

G1X93.6950Y-63.5349

G1 Z0F20000

(Start Block)


G1X11.3447Y-62.3057
G1Z5F20000
(Plotting speed under)
G1 F4000


G1X11.9822Y-62.1530

G1X12.6198Y-62.1509

G1X14.6387Y-62.7424

G1X15.4888Y-62.8470

G1X16.2326Y-62.7623

G1X17.8264Y-62.3675

G1X18.5702Y-62.2859

G1X19.3141Y-62.3213

G1X21.2267Y-62.6414

G1X22.1830Y-62.7127

G1X26.6459Y-62.4041

G1X32.5964Y-62.4882

G1X37.8030Y-62.3992

G1X39.2906Y-62.4448

G1X42.3721Y-62.7135

G1X43.2222Y-62.6636

G1X45.0286Y-62.3349

G1X45.7724Y-62.2850

G1X46.4100Y-62.3572

G1X47.8976Y-62.7691

G1X48.5351Y-62.8475

G1X49.1727Y-62.7666

G1X50.5540Y-62.2520

G1X51.2978Y-62.1331

G1X51.9354Y-62.2620

G1X53.3167Y-62.9090

G1X53.9543Y-63.0160

G1X54.5919Y-62.8590

G1X55.9732Y-62.0859

G1X56.6108Y-61.9441

G1X57.3546Y-62.1490

G1X58.8422Y-63.0757

G1X59.4797Y-63.2230

G1X59.9048Y-63.1553

G1X60.3121Y-62.9777

G1X61.9237Y-61.9156

G1X62.3487Y-61.7608

G1X62.7738Y-61.7202

G1X63.6238Y-61.9636

G1X65.7490Y-63.2423

G1X66.2803Y-63.4107

G1X66.8116Y-63.4674

G1X67.8742Y-63.2895

G1X70.3181Y-62.3159

G1X71.5932Y-61.9396

G1X73.1871Y-61.6984

G1X75.0997Y-61.6360

G1X76.6936Y-61.7281

G1X78.0750Y-61.9559

G1X79.3501Y-62.3309

G1X81.7940Y-63.2754

G1X82.9628Y-63.4676

G1X83.6004Y-63.3935

G1X84.1317Y-63.2233

G1X86.2569Y-62.0173

G1X87.1069Y-61.7365

G1X87.6382Y-61.7388

G1X88.1695Y-61.8869

G1X90.0822Y-62.9913

G1X90.9322Y-63.2225

G1X91.7823Y-63.0630

G1X93.6950Y-62.0765

G1 Z0F20000

(Start Block)


G1X11.3447Y-61.4389
G1Z5F20000
(Plotting speed under)
G1 F4000


G1X11.8760Y-61.5421

G1X12.5135Y-61.4949

G1X14.3199Y-60.8037

G1X15.0637Y-60.6637

G1X15.7013Y-60.7187

G1X17.4014Y-61.2579

G1X18.2515Y-61.3775

G1X18.9953Y-61.3044

G1X20.8017Y-60.8777

G1X21.5455Y-60.8140

G1X22.3956Y-60.8697

G1X24.4145Y-61.1824

G1X25.5833Y-61.2437

G1X29.9399Y-60.9797

G1X33.5527Y-60.9334

G1X37.1655Y-60.9785

G1X41.6283Y-61.2424

G1X45.3474Y-60.8157

G1X45.9849Y-60.8816

G1X47.5788Y-61.2888

G1X48.3226Y-61.3770

G1X49.0664Y-61.2739

G1X50.5540Y-60.7490

G1X51.1916Y-60.6619

G1X51.8292Y-60.7696

G1X53.2105Y-61.3904

G1X53.9543Y-61.5471

G1X54.5919Y-61.4273

G1X56.0795Y-60.6450

G1X56.8233Y-60.4747

G1X57.2483Y-60.5388

G1X57.6556Y-60.7026

G1X59.1610Y-61.5995

G1X59.9048Y-61.7527

G1X60.3298Y-61.6817

G1X60.7548Y-61.5041

G1X62.5612Y-60.4150

G1X63.4113Y-60.2494

G1X64.3676Y-60.4983

G1X66.5991Y-61.7017

G1X67.6616Y-61.9754

G1X68.2992Y-61.9924

G1X69.0430Y-61.9020

G1X72.7620Y-61.0368

G1X74.7809Y-60.8850

G1X76.9061Y-61.0632

G1X80.3064Y-61.8513

G1X81.5815Y-61.9975

G1X82.3253Y-61.9354

G1X83.0691Y-61.7390

G1X85.5131Y-60.5355

G1X86.4694Y-60.2639

G1X87.0007Y-60.2636

G1X87.6382Y-60.4180

G1X89.7634Y-61.5245

G1X90.7197Y-61.7530

G1X91.6761Y-61.5815

G1X93.6950Y-60.6314

G1 Z0F20000

(Start Block)


G1X11.3447Y-59.0814
G1Z5F20000
(Plotting speed under)
G1 F4000


G1X11.8760Y-59.0035

G1X12.4073Y-59.0747

G1X14.2137Y-59.9068

G1X14.9575Y-60.0756

G1X15.7013Y-59.9750

G1X17.1889Y-59.3615

G1X18.0390Y-59.1935

G1X18.7828Y-59.2819

G1X20.2704Y-59.7676

G1X21.1205Y-59.9049

G1X21.8643Y-59.8556

G1X23.6707Y-59.4475

G1X24.6270Y-59.3457

G1X28.9836Y-59.7643

G1X34.7215Y-59.6650

G1X39.8219Y-59.7739

G1X41.3096Y-59.7111

G1X44.6036Y-59.3442

G1X45.4536Y-59.4165

G1X47.2600Y-59.8334

G1X48.0038Y-59.9077

G1X48.7477Y-59.8168

G1X50.3415Y-59.2936

G1X51.0853Y-59.1925

G1X51.7229Y-59.2943

G1X53.2105Y-59.9234

G1X53.9543Y-60.0768

G1X54.5919Y-59.9802

G1X56.2920Y-59.1495

G1X57.0358Y-59.0037

G1X57.7796Y-59.1783

G1X59.4797Y-60.1192

G1X60.2236Y-60.2844

G1X60.7548Y-60.2122

G1X61.1799Y-60.0502

G1X63.1988Y-58.9387

G1X64.1551Y-58.7808

G1X65.2177Y-59.0336

G1X67.0241Y-59.9099

G1X67.9804Y-60.2770

G1X68.8305Y-60.4642

G1X69.7868Y-60.5278

G1X74.5684Y-60.1834

G1X76.1623Y-60.2378

G1X79.2438Y-60.5159

G1X80.6252Y-60.4799

G1X82.1128Y-60.1374

G1X84.8755Y-58.9755

G1X85.9381Y-58.7799

G1X86.5757Y-58.8298

G1X87.2132Y-59.0079

G1X89.6571Y-60.1345

G1X90.7197Y-60.2803

G1X91.6761Y-60.0765

G1X93.6950Y-59.2133

G1 Z0F20000

(Start Block)


G1X11.3447Y-58.7521
G1Z5F20000
(Plotting speed under)
G1 F4000


G1X11.8760Y-58.8135

G1X12.4073Y-58.7124

G1X14.2137Y-57.7341

G1X15.0637Y-57.5336

G1X15.8075Y-57.6982

G1X17.4014Y-58.4849

G1X18.0390Y-58.6065

G1X18.7828Y-58.4869

G1X20.2704Y-57.8691

G1X21.0142Y-57.7247

G1X21.7580Y-57.7980

G1X23.4581Y-58.3214

G1X24.3082Y-58.4364

G1X25.0520Y-58.3879

G1X27.0709Y-57.9803

G1X28.1335Y-57.8782

G1X29.1961Y-57.9029

G1X32.8089Y-58.2087

G1X35.9966Y-58.2740

G1X39.1844Y-58.2031

G1X43.5410Y-57.8741

G1X44.7098Y-57.9628

G1X46.7287Y-58.3696

G1X47.4725Y-58.4377

G1X48.3226Y-58.3513

G1X50.0227Y-57.8353

G1X50.8728Y-57.7231

G1X51.6166Y-57.8442

G1X53.2105Y-58.4808

G1X53.9543Y-58.6075

G1X54.6981Y-58.4742

G1X56.3982Y-57.6742

G1X57.1421Y-57.5339

G1X57.9921Y-57.7215

G1X59.7985Y-58.6581

G1X60.6486Y-58.8137

G1X61.6049Y-58.5793

G1X63.7301Y-57.4963

G1X64.3676Y-57.3367

G1X64.8989Y-57.3117

G1X65.9615Y-57.5198

G1X68.2992Y-58.4498

G1X69.4680Y-58.7932

G1X70.8494Y-58.9993

G1X72.5495Y-59.0578

G1X77.4374Y-59.0511

G1X79.2438Y-58.9258

G1X80.9439Y-58.5571

G1X83.9192Y-57.5120

G1X85.0880Y-57.3126

G1X85.7256Y-57.3347

G1X86.4694Y-57.4871

G1X89.0196Y-58.5423

G1X90.1884Y-58.8058

G1X90.8260Y-58.7928

G1X91.5698Y-58.6423

G1X93.6950Y-57.8452

G1 Z0F20000

(Start Block)


G1X11.3447Y-55.8833
G1Z5F20000
(Plotting speed under)
G1 F4000


G1X11.8760Y-55.8450

G1X12.4073Y-55.9754

G1X14.3199Y-57.1481

G1X15.0637Y-57.3445

G1X15.7013Y-57.2230

G1X17.4014Y-56.2416

G1X18.1452Y-56.0643

G1X18.8890Y-56.2276

G1X20.3767Y-56.9882

G1X21.1205Y-57.1372

G1X21.8643Y-57.0063

G1X23.4581Y-56.3674

G1X24.2020Y-56.2524

G1X24.9458Y-56.3358

G1X26.8584Y-56.8738

G1X27.8147Y-56.9679

G1X28.6648Y-56.9053

G1X31.2150Y-56.4969

G1X33.1277Y-56.4040

G1X37.1655Y-56.4736

G1X42.2659Y-56.4212

G1X43.6473Y-56.5405

G1X45.9849Y-56.9190

G1X46.9413Y-56.9645

G1X47.7913Y-56.8611

G1X49.5977Y-56.3614

G1X50.4478Y-56.2525

G1X51.2978Y-56.3709

G1X52.9980Y-57.0069

G1X53.8481Y-57.1376

G1X54.6981Y-56.9636

G1X56.3982Y-56.1965

G1X57.2483Y-56.0662

G1X58.0984Y-56.2657

G1X60.0111Y-57.2002

G1X60.8611Y-57.3445

G1X61.3924Y-57.2784

G1X61.9237Y-57.1069

G1X64.2614Y-56.0173

G1X64.8989Y-55.8724

G1X65.5365Y-55.8413

G1X66.7053Y-56.0342

G1X69.2555Y-56.8640

G1X70.6369Y-57.1966

G1X72.3370Y-57.4125

G1X74.3559Y-57.4881

G1X76.5874Y-57.4333

G1X78.5000Y-57.2277

G1X80.0939Y-56.8865

G1X82.9628Y-56.0539

G1X84.3442Y-55.8442

G1X85.0880Y-55.8626

G1X85.9381Y-56.0112

G1X88.8071Y-57.0562

G1X90.0822Y-57.3279

G1X90.8260Y-57.3313

G1X91.5698Y-57.2215

G1X93.6950Y-56.5582

G1 Z0F20000

(Start Block)


G1X11.3447Y-55.8833
G1Z5F20000
(Plotting speed under)
G1 F4000


G1X12.4958Y-55.8757

G1X14.2668Y-54.6264

G1X15.0637Y-54.3700

G1X15.8075Y-54.5403

G1X17.4545Y-55.6527

G1X17.8264Y-55.8115

G1X18.2515Y-55.8747

G1X18.9599Y-55.6850

G1X20.4829Y-54.7578

G1X21.2267Y-54.5957

G1X21.9705Y-54.7808

G1X23.4581Y-55.5346

G1X24.2020Y-55.6680

G1X24.9458Y-55.5360

G1X26.6459Y-54.8921

G1X27.4960Y-54.7825

G1X28.3460Y-54.8850

G1X30.3649Y-55.3875

G1X31.6400Y-55.4981

G1X35.8904Y-55.1313

G1X38.5468Y-55.0516

G1X40.9908Y-55.1216

G1X44.6036Y-55.4625

G1X45.7724Y-55.4927

G1X46.9413Y-55.3605

G1X49.0664Y-54.8550

G1X49.9165Y-54.7833

G1X50.8728Y-54.9295

G1X52.7855Y-55.5853

G1X53.5293Y-55.6666

G1X54.4856Y-55.4679

G1X56.2920Y-54.6996

G1X57.0358Y-54.5940

G1X57.9921Y-54.7981

G1X60.0111Y-55.7322

G1X60.9674Y-55.8729

G1X62.0300Y-55.6388

G1X64.4739Y-54.5716

G1X65.7490Y-54.3692

G1X67.1304Y-54.5293

G1X70.9557Y-55.4913

G1X73.6121Y-55.7675

G1X75.6310Y-55.7602

G1X77.5437Y-55.5939

G1X79.2438Y-55.2973

G1X82.4316Y-54.5466

G1X84.0254Y-54.3694

G1X84.8755Y-54.4108

G1X85.8318Y-54.5822

G1X88.8071Y-55.5557

G1X90.1884Y-55.8409

G1X91.7823Y-55.8064

G1X93.6950Y-55.3696

G1 Z0F20000

(Start Block)


G1X11.3447Y-52.6486
G1Z5F20000
(Plotting speed under)
G1 F4000


G1X11.8760Y-52.7800

G1X12.3010Y-52.9891

G1X13.9126Y-54.2106

G1X14.5324Y-54.4948

G1X15.0637Y-54.3700

G1X15.4888Y-54.4524

G1X15.8075Y-54.3903

G1X16.2149Y-54.1570

G1X17.4545Y-53.1634

G1X17.8264Y-52.9790

G1X18.2515Y-52.8989

G1X18.9599Y-53.1028

G1X20.5892Y-54.2468

G1X21.2267Y-54.4032

G1X21.9705Y-54.1931

G1X23.4581Y-53.2765

G1X24.0957Y-53.1246

G1X24.7332Y-53.2295

G1X26.3271Y-54.0077

G1X27.1772Y-54.1969

G1X27.9210Y-54.1040

G1X29.7274Y-53.4714

G1X30.6837Y-53.3163

G1X31.6400Y-53.3728

G1X33.9777Y-53.8331

G1X35.3591Y-53.9886

G1X42.5847Y-54.0282

G1X44.9223Y-53.9180

G1X47.8976Y-53.3885

G1X48.8539Y-53.3124

G1X49.9165Y-53.4339

G1X52.0417Y-54.0927

G1X52.8917Y-54.1979

G1X53.7418Y-54.0680

G1X55.6544Y-53.2959

G1X56.6108Y-53.1240

G1X57.1421Y-53.1795

G1X57.6734Y-53.3372

G1X59.6923Y-54.2437

G1X60.7548Y-54.4032

G1X61.8174Y-54.1848

G1X64.3676Y-53.1221

G1X65.1115Y-52.9535

G1X65.8553Y-52.8990

G1X67.2366Y-53.0476

G1X71.0619Y-53.9012

G1X73.3996Y-54.1406

G1X75.3123Y-54.1484

G1X77.1186Y-54.0136

G1X78.8188Y-53.7586

G1X82.3253Y-53.0499

G1X84.1317Y-52.8993

G1X85.0880Y-52.9620

G1X86.0443Y-53.1296

G1X89.2321Y-54.0564

G1X90.5072Y-54.3189

G1X91.9948Y-54.4014

G1X93.6950Y-54.2258

G1 Z0F20000

(Start Block)


G1X11.3447Y-52.6486
G1Z5F20000
(Plotting speed under)
G1 F4000


G1X11.7697Y-52.7760

G1X12.0885Y-52.7147

G1X13.8240Y-51.4544

G1X14.3199Y-51.2323

G1X14.7449Y-51.1687

G1X15.1700Y-51.2375

G1X15.5950Y-51.4394

G1X17.1130Y-52.7341

G1X17.7202Y-53.0202

G1X18.2515Y-52.8989

G1X18.6765Y-53.0001

G1X18.8713Y-52.9556

G1X20.2881Y-51.7591

G1X20.6954Y-51.5268

G1X21.1205Y-51.4312

G1X21.7580Y-51.5964

G1X23.2987Y-52.7123

G1X23.9894Y-52.9330

G1X24.6270Y-52.8036

G1X26.1323Y-51.8862

G1X26.9647Y-51.6554

G1X27.8147Y-51.8325

G1X29.4086Y-52.5753

G1X30.2587Y-52.7275

G1X31.1087Y-52.6221

G1X33.3402Y-51.9662

G1X34.6153Y-51.8425

G1X38.6531Y-52.2048

G1X40.7783Y-52.2808

G1X42.6909Y-52.2225

G1X46.3037Y-51.8759

G1X47.5788Y-51.8535

G1X48.8539Y-52.0302

G1X51.0853Y-52.6365

G1X52.0417Y-52.7267

G1X53.1042Y-52.5384

G1X55.1232Y-51.7721

G1X56.0795Y-51.6574

G1X57.0358Y-51.8625

G1X59.1610Y-52.7826

G1X60.1173Y-52.9349

G1X61.2861Y-52.7242

G1X63.9426Y-51.6465

G1X65.1115Y-51.4390

G1X66.7053Y-51.5514

G1X69.7868Y-52.2582

G1X71.2744Y-52.5160

G1X72.7620Y-52.6640

G1X74.3559Y-52.7141

G1X77.5437Y-52.5166

G1X82.6441Y-51.5909

G1X84.5567Y-51.4290

G1X85.6193Y-51.4827

G1X86.6819Y-51.6428

G1X91.2510Y-52.7428

G1X92.4199Y-52.8879

G1X93.6950Y-52.9350

G1 Z0F20000

(Start Block)


G1X11.3447Y-50.6077
G1Z5F20000
(Plotting speed under)
G1 F4000


G1X12.7615Y-51.5803

G1X13.2573Y-51.7181

G1X13.5584Y-51.6515

G1X14.0011Y-51.3594

G1X14.4262Y-51.2036

G1X15.5950Y-51.2277

G1X16.9232Y-50.0263

G1X17.2952Y-49.8106

G1X17.7202Y-49.6998

G1X18.1452Y-49.7601

G1X18.5171Y-49.9468

G1X20.1110Y-51.4038

G1X20.4829Y-51.5702

G1X20.9079Y-51.4568

G1X21.3330Y-51.4822

G1X21.6163Y-51.4036

G1X22.0464Y-51.1273

G1X23.0331Y-50.2464

G1X23.4581Y-50.0210

G1X23.7769Y-49.9617

G1X24.0957Y-49.9971

G1X24.5207Y-50.1881

G1X26.0438Y-51.2945

G1X26.7521Y-51.4642

G1X27.4605Y-51.2594

G1X28.9836Y-50.3616

G1X29.7274Y-50.1860

G1X30.5775Y-50.3322

G1X32.4901Y-51.1197

G1X33.3402Y-51.2555

G1X34.2965Y-51.1847

G1X36.5279Y-50.6792

G1X37.8030Y-50.4840

G1X39.2906Y-50.3915

G1X41.9471Y-50.3725

G1X44.2848Y-50.3915

G1X45.8787Y-50.4887

G1X47.1538Y-50.6734

G1X49.4915Y-51.1640

G1X50.5540Y-51.2585

G1X51.7229Y-51.1087

G1X53.9543Y-50.3381

G1X55.0169Y-50.1847

G1X56.0795Y-50.3834

G1X58.3109Y-51.3189

G1X59.2672Y-51.4651

G1X60.4361Y-51.2539

G1X63.1988Y-50.1420

G1X64.5801Y-49.9591

G1X65.9615Y-50.1220

G1X68.9367Y-50.8795

G1X70.5306Y-51.1817

G1X72.3370Y-51.3681

G1X74.4622Y-51.4246

G1X76.2686Y-51.3619

G1X78.0750Y-51.1903

G1X83.7067Y-50.1350

G1X85.9381Y-49.9595

G1X88.0632Y-50.1532

G1X91.8886Y-50.9444

G1X93.6950Y-51.2308

G1 Z0F20000

(Start Block)


G1X11.3447Y-48.0983
G1Z5F20000
(Plotting speed under)
G1 F4000


G1X12.5135Y-47.9317

G1X13.4698Y-48.1447

G1X14.3553Y-48.6887

G1X15.9492Y-50.0857

G1X16.4451Y-50.2651

G1X16.7461Y-50.1928

G1X17.1889Y-49.8605

G1X17.5077Y-49.7351

G1X17.8264Y-49.7117

G1X18.1452Y-49.8100

G1X18.3400Y-49.7596

G1X19.6683Y-48.5116

G1X20.0579Y-48.2965

G1X20.3767Y-48.2284

G1X20.6954Y-48.2747

G1X21.0850Y-48.4693

G1X22.4259Y-49.7637

G1X23.0331Y-50.1688

G1X23.5644Y-49.9896

G1X24.0957Y-49.9784

G1X25.5125Y-48.7514

G1X25.9021Y-48.5530

G1X26.2209Y-48.4898

G1X26.8407Y-48.6417

G1X28.3460Y-49.7201

G1X28.7711Y-49.9199

G1X29.1961Y-49.9935

G1X30.0285Y-49.7905

G1X31.7463Y-48.8671

G1X32.5964Y-48.7141

G1X33.4464Y-48.8512

G1X35.7841Y-49.6364

G1X37.2717Y-49.7883

G1X40.8845Y-49.4966

G1X42.5847Y-49.4374

G1X44.3910Y-49.4968

G1X47.5788Y-49.7693

G1X48.8539Y-49.7684

G1X50.2353Y-49.5485

G1X52.6792Y-48.8207

G1X53.7418Y-48.7169

G1X54.9106Y-48.9487

G1X57.1421Y-49.8526

G1X58.0984Y-49.9953

G1X59.2672Y-49.7839

G1X61.9237Y-48.6833

G1X62.6675Y-48.5256

G1X63.4113Y-48.4923

G1X64.6864Y-48.6841

G1X67.5554Y-49.5379

G1X69.1493Y-49.8858

G1X71.0619Y-50.1008

G1X73.6121Y-50.1819

G1X76.6936Y-50.1310

G1X79.1376Y-49.9310

G1X81.0502Y-49.6230

G1X85.0880Y-48.7620

G1X87.2132Y-48.5100

G1X89.6571Y-48.5671

G1X93.6950Y-49.0976

G1 Z0F20000

(Start Block)


G1X11.3447Y-48.0983
G1Z5F20000
(Plotting speed under)
G1 F4000


G1X12.7260Y-47.8293

G1X14.5324Y-46.7377

G1X15.0637Y-46.5309

G1X15.4888Y-46.4614

G1X16.1263Y-46.5597

G1X16.6576Y-46.8398

G1X18.6057Y-48.6894

G1X19.1016Y-48.8595

G1X19.4026Y-48.7656

G1X19.9516Y-48.3452

G1X20.9079Y-48.1375

G1X21.8946Y-47.0965

G1X22.2893Y-46.8464

G1X22.6081Y-46.7618

G1X22.9268Y-46.7959

G1X23.2987Y-46.9776

G1X24.8041Y-48.4263

G1X25.0697Y-48.6177

G1X25.3708Y-48.6875

G1X26.3094Y-48.4466

G1X26.7521Y-48.1576

G1X27.7262Y-47.3058

G1X28.4523Y-47.0229

G1X29.0898Y-47.1484

G1X30.8254Y-48.2943

G1X31.6400Y-48.5242

G1X32.3839Y-48.3977

G1X34.2965Y-47.4920

G1X35.3591Y-47.2517

G1X36.4217Y-47.3226

G1X38.7594Y-47.8812

G1X40.0344Y-48.1005

G1X41.5221Y-48.2257

G1X43.4347Y-48.2652

G1X45.3474Y-48.2206

G1X46.8350Y-48.0957

G1X50.5540Y-47.3564

G1X51.7229Y-47.2442

G1X52.9980Y-47.4142

G1X55.4419Y-48.3240

G1X56.6108Y-48.5252

G1X57.7796Y-48.3272

G1X60.5423Y-47.1758

G1X61.1799Y-47.0477

G1X61.8174Y-47.0226

G1X63.0925Y-47.2465

G1X65.6427Y-48.1412

G1X66.9178Y-48.4853

G1X68.4055Y-48.7024

G1X70.2119Y-48.7684

G1X78.1812Y-48.7677

G1X80.2001Y-48.6952

G1X82.6441Y-48.3889

G1X86.8944Y-47.4868

G1X88.8071Y-47.1812

G1X91.0385Y-47.0273

G1X93.6950Y-47.0598

G1 Z0F20000

(Start Block)


G1X11.3447Y-47.8918
G1Z5F20000
(Plotting speed under)
G1 F4000


G1X12.3010Y-47.8734

G1X12.9386Y-47.7318

G1X14.4439Y-46.7816

G1X15.5950Y-46.3458

G1X17.0118Y-45.2562

G1X17.8264Y-44.9924

G1X18.3577Y-45.0772

G1X18.8587Y-45.3589

G1X20.6423Y-47.1664

G1X21.3330Y-47.5533

G1X21.5151Y-47.5021

G1X22.0768Y-46.9702

G1X23.0331Y-46.5222

G1X24.0198Y-45.5179

G1X24.6270Y-45.2884

G1X24.9458Y-45.3393

G1X25.3354Y-45.5448

G1X27.0178Y-47.1049

G1X27.2835Y-47.2354

G1X27.6022Y-47.2750

G1X28.0272Y-47.1889

G1X28.4346Y-46.9807

G1X29.9399Y-45.7807

G1X30.6837Y-45.5507

G1X31.1087Y-45.6065

G1X31.5338Y-45.7813

G1X33.3402Y-46.8685

G1X33.7652Y-47.0038

G1X34.2965Y-47.0550

G1X35.2528Y-46.8652

G1X37.6968Y-45.9671

G1X38.5468Y-45.8189

G1X39.5032Y-45.7744

G1X43.9660Y-45.9898

G1X48.3226Y-45.7807

G1X49.5977Y-45.8066

G1X51.0853Y-46.0607

G1X53.8481Y-46.9352

G1X55.0169Y-47.0511

G1X56.1857Y-46.8157

G1X58.8422Y-45.7045

G1X59.4797Y-45.5743

G1X60.1173Y-45.5561

G1X61.3924Y-45.8289

G1X63.5176Y-46.6924

G1X64.5801Y-47.0391

G1X65.6427Y-47.2396

G1X66.7053Y-47.2987

G1X71.5932Y-46.8646

G1X73.7184Y-46.7839

G1X76.0561Y-46.8680

G1X80.8377Y-47.2666

G1X83.1754Y-47.2686

G1X85.5131Y-47.0131

G1X90.8260Y-46.0637

G1X93.6950Y-45.7689

G1 Z0F20000

(Start Block)


G1X11.3447Y-46.0533
G1Z5F20000
(Plotting speed under)
G1 F4000


G1X14.0011Y-46.4127

G1X14.7449Y-46.4058

G1X15.3825Y-46.2894

G1X15.8607Y-46.0737

G1X17.1889Y-45.1644

G1X18.6942Y-43.8778

G1X19.2078Y-43.6053

G1X19.6328Y-43.5214

G1X20.0579Y-43.5866

G1X20.5537Y-43.8541

G1X22.3500Y-45.6974

G1X22.7675Y-45.9924

G1X23.0331Y-46.0843

G1X23.5644Y-45.9237

G1X24.0957Y-45.4685

G1X24.6270Y-45.1852

G1X25.3860Y-44.3545

G1X25.7958Y-44.0202

G1X26.1146Y-43.8639

G1X26.4334Y-43.8204

G1X26.8407Y-43.9215

G1X27.1949Y-44.1449

G1X28.7888Y-45.5920

G1X29.1961Y-45.7816

G1X29.5149Y-45.8284

G1X29.9399Y-45.7469

G1X30.2941Y-45.5688

G1X31.9765Y-44.3247

G1X32.3839Y-44.1523

G1X32.8089Y-44.0810

G1X33.2339Y-44.1197

G1X33.7652Y-44.2993

G1X35.7841Y-45.3498

G1X36.3154Y-45.5076

G1X36.9530Y-45.5842

G1X38.0155Y-45.4855

G1X40.3532Y-44.9126

G1X41.6283Y-44.6793

G1X44.4973Y-44.4971

G1X47.3663Y-44.6610

G1X51.5104Y-45.4915

G1X52.9980Y-45.5691

G1X54.3793Y-45.2675

G1X56.9296Y-44.2447

G1X57.9921Y-44.0797

G1X58.6297Y-44.1311

G1X59.3735Y-44.3256

G1X62.3487Y-45.5761

G1X63.0925Y-45.7521

G1X63.8363Y-45.8256

G1X65.4302Y-45.6904

G1X69.9993Y-44.7156

G1X72.9746Y-44.4671

G1X74.8872Y-44.4908

G1X76.7999Y-44.6392

G1X82.8566Y-45.5958

G1X85.3005Y-45.8166

G1X88.0632Y-45.7379

G1X93.6950Y-45.1246

G1 Z0F20000

(Start Block)


G1X11.3447Y-44.4073
G1Z5F20000
(Plotting speed under)
G1 F4000


G1X12.7260Y-44.4907

G1X15.3825Y-44.9372

G1X16.5513Y-44.8717

G1X17.1889Y-44.6523

G1X17.8087Y-44.2929

G1X20.1110Y-42.3555

G1X20.5892Y-42.1217

G1X21.0142Y-42.0510

G1X21.4392Y-42.1285

G1X21.8820Y-42.3692

G1X23.7415Y-44.2279

G1X24.2020Y-44.5316

G1X24.6270Y-44.6380

G1X25.2468Y-44.4559

G1X27.1063Y-42.6905

G1X27.4960Y-42.4520

G1X27.9210Y-42.3491

G1X28.2398Y-42.3914

G1X28.6117Y-42.5572

G1X30.3826Y-44.0510

G1X30.7900Y-44.2643

G1X31.2150Y-44.3562

G1X31.9588Y-44.1917

G1X33.8715Y-42.9378

G1X34.4028Y-42.7104

G1X34.9340Y-42.6134

G1X35.4654Y-42.6439

G1X35.9966Y-42.7785

G1X37.9093Y-43.5890

G1X38.8656Y-43.9006

G1X39.7157Y-44.0564

G1X40.7783Y-44.1157

G1X44.8161Y-43.9615

G1X48.9602Y-44.1130

G1X50.3415Y-44.0683

G1X51.9354Y-43.7689

G1X54.9106Y-42.7549

G1X55.6544Y-42.6261

G1X56.2920Y-42.6198

G1X57.5671Y-42.9150

G1X60.3298Y-44.1290

G1X61.0736Y-44.3071

G1X61.8174Y-44.3581

G1X63.1988Y-44.1476

G1X66.3865Y-43.0928

G1X68.0867Y-42.6959

G1X70.2119Y-42.4595

G1X73.2934Y-42.3839

G1X76.5874Y-42.4467

G1X79.2438Y-42.6699

G1X81.3690Y-43.0127

G1X85.8318Y-43.9353

G1X88.0632Y-44.2400

G1X90.4010Y-44.3562

G1X93.6950Y-44.2984

G1 Z0F20000

(Start Block)


G1X11.3447Y-43.2654
G1Z5F20000
(Plotting speed under)
G1 F4000


G1X13.1511Y-43.2134

G1X16.1263Y-43.4836

G1X17.2952Y-43.3641

G1X17.9327Y-43.1430

G1X18.6057Y-42.7681

G1X21.0142Y-40.8718

G1X21.5455Y-40.6372

G1X21.9705Y-40.5808

G1X22.3956Y-40.6593

G1X22.8560Y-40.8947

G1X24.8926Y-42.8105

G1X25.3708Y-43.0854

G1X25.7958Y-43.1679

G1X26.2209Y-43.0835

G1X26.7521Y-42.7641

G1X28.5231Y-41.1398

G1X28.8773Y-40.9577

G1X29.3024Y-40.8790

G1X29.7274Y-40.9537

G1X30.1170Y-41.1398

G1X32.0651Y-42.6400

G1X32.4901Y-42.8198

G1X32.9151Y-42.8874

G1X33.3402Y-42.8458

G1X33.8715Y-42.6608

G1X36.2091Y-41.3635

G1X36.8467Y-41.1887

G1X37.4843Y-41.1398

G1X38.5468Y-41.2806

G1X40.8845Y-41.9276

G1X42.1596Y-42.1939

G1X43.6473Y-42.3655

G1X45.2411Y-42.4216

G1X46.8350Y-42.3729

G1X48.3226Y-42.2194

G1X49.7040Y-41.9628

G1X52.5729Y-41.2597

G1X53.4230Y-41.1508

G1X54.1668Y-41.1554

G1X55.5482Y-41.4596

G1X58.5234Y-42.7122

G1X59.2672Y-42.8639

G1X59.9048Y-42.8837

G1X61.2861Y-42.5970

G1X63.8363Y-41.5474

G1X65.0052Y-41.1748

G1X66.2803Y-40.9461

G1X67.6616Y-40.8783

G1X73.0808Y-41.0939

G1X79.1376Y-40.8831

G1X81.4753Y-40.9398

G1X84.0254Y-41.2623

G1X89.8697Y-42.4004

G1X93.6950Y-42.7670

G1 Z0F20000

(Start Block)


G1X11.3447Y-41.9672
G1Z5F20000
(Plotting speed under)
G1 F4000


G1X15.4888Y-42.0017

G1X16.4451Y-41.9345

G1X17.2952Y-41.7792

G1X18.0390Y-41.5334

G1X18.7828Y-41.1663

G1X21.3507Y-39.4194

G1X21.8643Y-39.1997

G1X22.3956Y-39.1106

G1X22.9268Y-39.1885

G1X23.4759Y-39.4487

G1X25.6010Y-41.3012

G1X26.1146Y-41.5933

G1X26.6459Y-41.6981

G1X27.0709Y-41.6228

G1X27.5491Y-41.3821

G1X29.5857Y-39.6803

G1X30.0462Y-39.4710

G1X30.4712Y-39.4084

G1X30.8962Y-39.4748

G1X31.4275Y-39.7136

G1X33.4818Y-41.1461

G1X33.9777Y-41.3400

G1X34.5090Y-41.4180

G1X35.0403Y-41.3663

G1X35.5716Y-41.2075

G1X38.3343Y-39.9496

G1X39.1844Y-39.7483

G1X40.1407Y-39.6703

G1X45.4536Y-40.0313

G1X47.1538Y-39.9723

G1X50.4478Y-39.6841

G1X51.9354Y-39.7150

G1X53.5293Y-40.0558

G1X56.5045Y-41.2068

G1X57.7796Y-41.4183

G1X58.5234Y-41.3608

G1X59.3735Y-41.1363

G1X61.8174Y-40.0416

G1X62.7738Y-39.6891

G1X63.6238Y-39.4923

G1X64.5801Y-39.4092

G1X66.1740Y-39.5277

G1X70.4244Y-40.2389

G1X73.0808Y-40.3984

G1X76.0561Y-40.2369

G1X81.7940Y-39.4891

G1X84.4505Y-39.4273

G1X86.7882Y-39.6592

G1X91.3573Y-40.4544

G1X93.6950Y-40.7760

G1 Z0F20000

(Start Block)


G1X11.3447Y-39.2154
G1Z5F20000
(Plotting speed under)
G1 F4000


G1X12.4073Y-39.6230

G1X13.5761Y-39.8792

G1X14.8512Y-39.9667

G1X16.1263Y-39.8803

G1X17.0826Y-39.6937

G1X17.9327Y-39.4283

G1X21.0142Y-37.9458

G1X21.6517Y-37.7282

G1X22.2893Y-37.6409

G1X22.9268Y-37.7210

G1X23.5644Y-37.9814

G1X24.1843Y-38.3886

G1X26.0438Y-39.8750

G1X26.5396Y-40.1199

G1X27.0709Y-40.2271

G1X27.4960Y-40.1847

G1X27.9918Y-39.9962

G1X30.2056Y-38.3210

G1X30.7900Y-38.0361

G1X31.3213Y-37.9397

G1X31.8526Y-38.0045

G1X32.3839Y-38.2106

G1X34.1017Y-39.3140

G1X34.8278Y-39.6964

G1X35.3591Y-39.8714

G1X35.9966Y-39.9488

G1X37.1655Y-39.7657

G1X39.5032Y-38.8956

G1X40.7783Y-38.5303

G1X42.1596Y-38.3132

G1X43.9660Y-38.2179

G1X47.7913Y-38.2275

G1X49.9165Y-38.3892

G1X51.7229Y-38.7748

G1X54.8044Y-39.7721

G1X56.0795Y-39.9485

G1X56.8233Y-39.8967

G1X57.5671Y-39.7233

G1X60.8611Y-38.2874

G1X61.7112Y-38.0461

G1X62.5612Y-37.9427

G1X63.4113Y-37.9732

G1X64.2614Y-38.1119

G1X67.5554Y-39.0136

G1X69.1493Y-39.3582

G1X70.7431Y-39.5708

G1X72.3370Y-39.6660

G1X74.4622Y-39.6416

G1X76.6936Y-39.4453

G1X78.7125Y-39.1240

G1X83.1754Y-38.2244

G1X85.7256Y-37.9518

G1X87.1069Y-37.9514

G1X88.7008Y-38.0703

G1X93.6950Y-38.8022

G1 Z0F20000

(Start Block)


G1X11.3447Y-36.1749
G1Z5F20000
(Plotting speed under)
G1 F4000


G1X14.5324Y-36.7439

G1X16.0201Y-36.8577

G1X17.6139Y-36.7363

G1X20.5892Y-36.2038

G1X21.8643Y-36.2195

G1X22.6081Y-36.4050

G1X23.3873Y-36.7568

G1X26.0083Y-38.4583

G1X26.6459Y-38.6963

G1X27.1772Y-38.7586

G1X27.7085Y-38.6846

G1X28.2398Y-38.4804

G1X30.6483Y-36.8474

G1X31.3213Y-36.5591

G1X31.8526Y-36.4710

G1X32.4901Y-36.5338

G1X33.1277Y-36.7561

G1X35.0757Y-37.8580

G1X35.8904Y-38.2265

G1X36.5279Y-38.4039

G1X37.2717Y-38.4787

G1X38.5468Y-38.3351

G1X41.2033Y-37.6259

G1X42.5847Y-37.3389

G1X44.0723Y-37.1596

G1X45.6662Y-37.0959

G1X47.1538Y-37.1403

G1X48.6414Y-37.2918

G1X50.2353Y-37.5879

G1X53.3167Y-38.3447

G1X54.2731Y-38.4677

G1X55.1232Y-38.4584

G1X55.8670Y-38.3416

G1X56.7170Y-38.0865

G1X59.9048Y-36.7200

G1X60.6486Y-36.5390

G1X61.3924Y-36.4692

G1X62.2425Y-36.5246

G1X63.0925Y-36.6999

G1X66.3865Y-37.7840

G1X68.0867Y-38.2068

G1X69.9993Y-38.4731

G1X72.2308Y-38.5868

G1X75.3123Y-38.5358

G1X77.9687Y-38.2841

G1X80.2001Y-37.8796

G1X84.6630Y-36.8314

G1X87.0007Y-36.5098

G1X88.3820Y-36.4697

G1X89.7634Y-36.5365

G1X93.6950Y-37.0700

G1 Z0F20000

(Start Block)


G1X11.3447Y-36.1749
G1Z5F20000
(Plotting speed under)
G1 F4000


G1X11.8760Y-36.0507

G1X13.3636Y-35.3353

G1X14.6387Y-34.9955

G1X16.4451Y-34.8189

G1X18.7828Y-34.8529

G1X20.1641Y-35.0193

G1X21.3330Y-35.3056

G1X22.5018Y-35.7532

G1X25.1583Y-37.0172

G1X25.9021Y-37.2292

G1X26.6459Y-37.2860

G1X27.2835Y-37.1901

G1X28.0272Y-36.9141

G1X30.2056Y-35.5870

G1X30.8962Y-35.2436

G1X31.5338Y-35.0512

G1X32.1713Y-35.0002

G1X32.8089Y-35.0904

G1X33.4464Y-35.3007

G1X36.3154Y-36.6725

G1X37.6968Y-36.9837

G1X39.0781Y-36.9624

G1X43.2222Y-36.2572

G1X45.7724Y-36.0938

G1X48.1101Y-36.2340

G1X52.1479Y-36.9063

G1X53.6355Y-37.0080

G1X54.4856Y-36.9397

G1X55.3357Y-36.7603

G1X56.2920Y-36.4354

G1X59.0547Y-35.2818

G1X60.0111Y-35.0545

G1X60.8611Y-34.9996

G1X61.6049Y-35.0668

G1X62.4550Y-35.2544

G1X65.8553Y-36.4275

G1X67.8742Y-36.9135

G1X70.3181Y-37.1719

G1X73.6121Y-37.2310

G1X76.5874Y-37.1318

G1X79.0313Y-36.8605

G1X81.0502Y-36.4587

G1X85.3005Y-35.3857

G1X87.5320Y-35.0473

G1X88.8071Y-34.9988

G1X90.1884Y-35.0649

G1X93.6950Y-35.5979

G1 Z0F20000

(Start Block)


G1X11.3447Y-35.3797
G1Z5F20000
(Plotting speed under)
G1 F4000


G1X12.4073Y-35.7558

G1X13.5761Y-35.2616

G1X14.7449Y-34.9771

G1X16.2326Y-34.8278

G1X18.0390Y-34.8157

G1X20.0579Y-35.0008

G1X21.9705Y-35.4714

G1X23.4581Y-35.7311

G1X25.1583Y-35.7962

G1X26.0083Y-35.6563

G1X26.8584Y-35.3838

G1X30.1524Y-33.7925

G1X30.8962Y-33.5900

G1X31.5338Y-33.5289

G1X32.2776Y-33.5943

G1X33.0214Y-33.7916

G1X35.5716Y-34.9096

G1X36.5279Y-35.2517

G1X37.4843Y-35.4625

G1X38.4406Y-35.5383

G1X39.8219Y-35.4635

G1X43.6473Y-34.9592

G1X45.6662Y-34.8628

G1X48.0038Y-34.9810

G1X52.0417Y-35.4988

G1X53.7418Y-35.5045

G1X54.5919Y-35.3778

G1X55.5482Y-35.1216

G1X59.0547Y-33.7701

G1X60.5423Y-33.5310

G1X61.3924Y-33.5712

G1X62.3487Y-33.7532

G1X65.8553Y-34.8998

G1X67.5554Y-35.3242

G1X69.3618Y-35.5850

G1X71.5932Y-35.7143

G1X75.3123Y-35.6915

G1X78.2875Y-35.4414

G1X80.6252Y-35.0091

G1X85.1943Y-33.8536

G1X87.4257Y-33.5489

G1X88.7008Y-33.5405

G1X90.0822Y-33.6663

G1X93.6950Y-34.4025

G1 Z0F20000

(Start Block)


G1X11.3447Y-32.0681
G1Z5F20000
(Plotting speed under)
G1 F4000


G1X11.9822Y-32.0956

G1X12.6198Y-32.2658

G1X15.0637Y-33.3529

G1X16.3388Y-33.7751

G1X17.8264Y-34.0460

G1X19.5266Y-34.1536

G1X21.6517Y-34.0968

G1X23.5644Y-33.8406

G1X25.1583Y-33.4273

G1X28.3460Y-32.3288

G1X29.1961Y-32.1380

G1X30.0462Y-32.0597

G1X30.8962Y-32.1117

G1X31.8526Y-32.3215

G1X34.8278Y-33.4762

G1X35.8904Y-33.8113

G1X36.8467Y-33.9971

G1X37.8030Y-34.0677

G1X39.3969Y-33.9830

G1X43.4347Y-33.4610

G1X45.5599Y-33.3593

G1X48.1101Y-33.4860

G1X52.3604Y-34.0281

G1X54.0606Y-34.0394

G1X55.0169Y-33.9044

G1X55.9732Y-33.6580

G1X59.6923Y-32.2997

G1X60.5423Y-32.1245

G1X61.3924Y-32.0591

G1X62.3487Y-32.1156

G1X63.3051Y-32.2859

G1X66.7053Y-33.2273

G1X68.2992Y-33.5854

G1X69.8931Y-33.8232

G1X71.6995Y-33.9630

G1X74.5684Y-33.9663

G1X77.2249Y-33.7414

G1X79.4563Y-33.3567

G1X84.0254Y-32.3062

G1X86.2569Y-32.0623

G1X87.6382Y-32.1093

G1X89.0196Y-32.3081

G1X93.6950Y-33.4922

G1 Z0F20000

(Start Block)


G1X11.3447Y-32.0681
G1Z5F20000
(Plotting speed under)
G1 F4000


G1X12.3010Y-32.0180

G1X14.2137Y-31.0099

G1X14.9575Y-30.7635

G1X15.8075Y-30.6186

G1X16.9764Y-30.6015

G1X19.8453Y-30.8474

G1X21.4392Y-30.9012

G1X27.0709Y-30.5901

G1X28.2398Y-30.6640

G1X29.4086Y-30.8666

G1X33.6590Y-32.2254

G1X35.5716Y-32.5714

G1X37.4843Y-32.5367

G1X42.4784Y-31.7681

G1X45.6662Y-31.5832

G1X48.4289Y-31.7406

G1X53.1042Y-32.4839

G1X54.9106Y-32.5967

G1X55.8670Y-32.5191

G1X56.8233Y-32.3322

G1X60.7548Y-30.9873

G1X61.8174Y-30.7315

G1X62.7738Y-30.6110

G1X63.7301Y-30.5940

G1X64.8989Y-30.6882

G1X70.4244Y-31.5618

G1X73.2934Y-31.7131

G1X76.1623Y-31.5569

G1X81.6878Y-30.7335

G1X83.9192Y-30.5893

G1X85.1943Y-30.6624

G1X86.4694Y-30.8604

G1X91.3573Y-32.1815

G1X93.6950Y-32.5568

G1 Z0F20000

(Start Block)


G1X11.3447Y-29.7858
G1Z5F20000
(Plotting speed under)
G1 F4000


G1X12.9386Y-30.7228

G1X14.0011Y-31.0791

G1X15.2762Y-30.6930

G1X17.1889Y-30.5626

G1X19.5266Y-29.9434

G1X21.8643Y-29.6717

G1X23.6707Y-29.6670

G1X25.5833Y-29.8270

G1X27.2835Y-30.1048

G1X31.2150Y-30.9387

G1X33.4464Y-31.1295

G1X35.5716Y-30.9430

G1X39.5032Y-30.1509

G1X41.3096Y-29.8676

G1X43.4347Y-29.6793

G1X45.6662Y-29.6222

G1X47.8976Y-29.6904

G1X49.8102Y-29.8719

G1X51.6166Y-30.1727

G1X55.2294Y-30.9549

G1X57.1421Y-31.1295

G1X58.0984Y-31.0735

G1X59.1610Y-30.8939

G1X63.5176Y-29.6141

G1X65.9615Y-29.2029

G1X67.8742Y-29.1195

G1X73.2934Y-29.2136

G1X79.1376Y-29.1223

G1X81.0502Y-29.2199

G1X82.7503Y-29.4557

G1X87.7445Y-30.7245

G1X89.5509Y-31.0497

G1X91.5698Y-31.1125

G1X93.6950Y-30.8432

G1 Z0F20000

(Start Block)


G1X11.3447Y-28.6951
G1Z5F20000
(Plotting speed under)
G1 F4000


G1X12.6198Y-28.0514

G1X13.1511Y-27.9312

G1X13.6824Y-27.9176

G1X14.7449Y-28.1564

G1X17.5077Y-29.2370

G1X19.1016Y-29.5635

G1X20.8017Y-29.6581

G1X28.4523Y-29.6513

G1X30.0462Y-29.5742

G1X31.6400Y-29.3903

G1X36.8467Y-28.3447

G1X39.2906Y-28.0242

G1X41.8409Y-27.9154

G1X49.4915Y-27.9156

G1X51.5104Y-27.9948

G1X53.3167Y-28.2047

G1X54.9106Y-28.5243

G1X58.3109Y-29.3723

G1X60.3298Y-29.6441

G1X61.4986Y-29.6464

G1X62.7738Y-29.5297

G1X67.2366Y-28.7368

G1X69.3618Y-28.4431

G1X71.3807Y-28.2822

G1X73.3996Y-28.2313

G1X75.4185Y-28.2852

G1X77.4374Y-28.4491

G1X83.8129Y-29.4792

G1X86.2569Y-29.6596

G1X87.5320Y-29.5962

G1X88.9133Y-29.4004

G1X93.6950Y-28.2777

G1 Z0F20000


G00 X0.0000 Y0.0000


