$H
G21
G17
G90
G1 Z0F20000
G1 F15000

(Start Layer)

(Start Block)


G1X51.0106Y-20.0000
G1Z5F20000
(Plotting speed under)
G1 F4000


G1X47.8301Y-38.4712

G1X44.9120Y-53.0206

G1X44.3238Y-57.2258

G1X44.0234Y-61.2735

G1X43.9810Y-63.7040

G1X44.0398Y-65.9653

G1X44.1947Y-68.2809

G1X44.4656Y-70.7686

G1X45.1142Y-74.8955

G1X47.0963Y-85.2433

G1X47.5502Y-88.2660

G1X47.8792Y-91.2059

G1X48.0939Y-94.2057

G1X48.1399Y-96.7158

G1X48.0472Y-99.3683

G1X47.7919Y-102.2792

G1X47.4405Y-104.9679

G1X46.9235Y-108.0585

G1X45.4711Y-114.8196

G1X43.7540Y-121.5020

G1X39.5074Y-136.8818

G1X37.7760Y-143.9847

G1X37.0456Y-147.5824

G1X36.4782Y-150.9811

G1X36.1093Y-153.9939

G1X35.9251Y-156.6019

G1X35.9325Y-159.6631

G1X36.1789Y-162.4719

G1X36.6738Y-165.2316

G1X37.4313Y-167.9587

G1X38.2798Y-170.2519

G1X39.4227Y-172.7709

G1X40.6600Y-175.1385

G1X44.3570Y-181.7387

G1X45.3569Y-183.7195

G1X46.3125Y-185.8610

G1X47.2363Y-188.3233

G1X47.9810Y-190.8414

G1X48.3874Y-192.8384

G1X48.6549Y-195.1136

G1X48.7536Y-197.5419

G1X48.6932Y-200.2017

G1X48.4741Y-203.0755

G1X48.0788Y-206.3275

G1X47.0325Y-212.5592

G1X44.3539Y-225.7498

G1X43.4520Y-230.6556

G1X42.7040Y-235.9080

G1X42.3456Y-240.4366

G1 Z0F20000

(Start Block)


G1X51.8510Y-20.0000
G1Z5F20000
(Plotting speed under)
G1 F4000


G1X48.2324Y-39.5981

G1X45.3385Y-53.6289

G1X44.6794Y-58.0635

G1X44.3241Y-62.3150

G1X44.2544Y-64.8080

G1X44.2872Y-67.1295

G1X44.4179Y-69.5495

G1X44.6663Y-72.1629

G1X45.2630Y-76.3659

G1X47.1248Y-86.9532

G1X47.5501Y-90.0063

G1X47.8754Y-93.1612

G1X48.0628Y-96.0220

G1X48.0918Y-98.6415

G1X47.9854Y-101.2607

G1X47.7232Y-104.1763

G1X46.8891Y-109.7887

G1X45.5020Y-116.4216

G1X43.9019Y-122.8542

G1X39.9025Y-137.8477

G1X38.2386Y-144.8959

G1X37.5313Y-148.4782

G1X36.9760Y-151.8712

G1X36.6237Y-154.7832

G1X36.4450Y-157.2845

G1X36.4551Y-160.3436

G1X36.7076Y-163.1070

G1X37.2149Y-165.8327

G1X38.0091Y-168.5702

G1X38.8879Y-170.8319

G1X40.0713Y-173.3088

G1X41.4050Y-175.7208

G1X45.1361Y-182.0094

G1X46.2192Y-184.0391

G1X47.2073Y-186.1439

G1X48.1625Y-188.5743

G1X48.9316Y-191.0673

G1X49.3741Y-193.1488

G1X49.6518Y-195.4117

G1X49.7601Y-197.8295

G1X49.7091Y-200.4804

G1X49.4893Y-203.4463

G1X49.1127Y-206.5937

G1X48.0814Y-212.8199

G1X45.4291Y-226.0088

G1X44.5196Y-231.0146

G1X43.7984Y-236.1636

G1X43.4491Y-240.6870

G1 Z0F20000

(Start Block)


G1X52.7178Y-20.0000
G1Z5F20000
(Plotting speed under)
G1 F4000


G1X48.5528Y-41.1343

G1X45.7937Y-54.1262

G1X45.0547Y-58.7814

G1X44.6269Y-63.3034

G1X44.5236Y-65.9295

G1X44.5291Y-68.3783

G1X44.6301Y-70.8384

G1X44.8526Y-73.5951

G1X45.4364Y-78.1693

G1X47.2340Y-89.4747

G1X47.6319Y-92.7835

G1X47.9034Y-95.9479

G1X48.0171Y-98.3141

G1X48.0097Y-101.0051

G1X47.8780Y-103.5232

G1X47.6175Y-106.2684

G1X46.7845Y-111.8629

G1X45.4527Y-118.3616

G1X44.0447Y-124.2115

G1X40.3045Y-138.7718

G1X38.7148Y-145.7266

G1X38.0281Y-149.2918

G1X37.4674Y-152.7769

G1X37.1214Y-155.6908

G1X36.9542Y-158.0886

G1X36.9708Y-161.0401

G1X37.2474Y-163.8856

G1X37.7829Y-166.5873

G1X38.5807Y-169.1972

G1X39.5326Y-171.5187

G1X40.7648Y-173.9503

G1X42.0975Y-176.2265

G1X45.9621Y-182.3780

G1X47.1236Y-184.4446

G1X48.1036Y-186.4335

G1X49.1138Y-188.8936

G1X49.8846Y-191.2984

G1X50.3472Y-193.3644

G1X50.6423Y-195.6074

G1X50.7676Y-198.0174

G1X50.7316Y-200.6622

G1X50.5255Y-203.6235

G1X50.1477Y-206.8648

G1X49.1305Y-213.0863

G1X46.5025Y-226.2750

G1X45.6016Y-231.2805

G1X44.8897Y-236.4272

G1X44.5493Y-240.9454

G1 Z0F20000

(Start Block)


G1X53.6108Y-20.0000
G1Z5F20000
(Plotting speed under)
G1 F4000


G1X48.7895Y-43.0442

G1X46.2561Y-54.6450

G1X45.4203Y-59.6334

G1X44.9203Y-64.4633

G1X44.7880Y-67.1533

G1X44.7656Y-69.7583

G1X44.8404Y-72.2917

G1X45.0299Y-75.1095

G1X45.6233Y-80.3160

G1X47.2645Y-91.7445

G1X47.8646Y-98.2577

G1X47.9428Y-100.7110

G1X47.9121Y-103.0920

G1X47.7618Y-105.6845

G1X47.4948Y-108.4113

G1X46.6985Y-113.8159

G1X45.4690Y-120.0180

G1X44.1750Y-125.6130

G1X40.6389Y-139.9677

G1X39.1468Y-146.7635

G1X37.9540Y-153.6964

G1X37.6142Y-156.6122

G1X37.4582Y-158.9067

G1X37.4861Y-161.8489

G1X37.7676Y-164.5783

G1X38.3215Y-167.2569

G1X39.1636Y-169.8817

G1X40.1465Y-172.1562

G1X41.4066Y-174.5137

G1X42.8017Y-176.7670

G1X46.7860Y-182.7522

G1X47.9870Y-184.7748

G1X48.9860Y-186.6987

G1X50.0432Y-189.1518

G1X50.8257Y-191.4869

G1X51.3040Y-193.4878

G1X51.6343Y-195.8083

G1X51.7763Y-198.2104

G1X51.7512Y-200.9497

G1X51.5534Y-203.9044

G1X51.1836Y-207.1410

G1X50.1794Y-213.3584

G1X47.5738Y-226.5483

G1X46.6811Y-231.5540

G1X45.9780Y-236.6984

G1X45.6463Y-241.2116

G1 Z0F20000

(Start Block)


G1X54.5295Y-20.0000
G1Z5F20000
(Plotting speed under)
G1 F4000


G1X52.7357Y-27.8320

G1X46.8289Y-54.6978

G1X46.0596Y-58.7835

G1X45.5112Y-62.6268

G1X45.2112Y-65.6707

G1X45.0385Y-68.7060

G1X44.9960Y-71.7501

G1X45.0839Y-74.8274

G1X45.5399Y-80.4482

G1X47.0913Y-92.5363

G1X47.6358Y-98.0438

G1X47.7950Y-100.4951

G1X47.8454Y-102.8235

G1X47.6518Y-107.6416

G1X46.9818Y-113.4552

G1X45.7856Y-120.2156

G1X44.4143Y-126.5462

G1X40.8524Y-141.7160

G1X39.4220Y-148.6351

G1X38.3975Y-154.9228

G1X38.1036Y-157.5457

G1X37.9620Y-159.6400

G1X37.9923Y-162.5721

G1X38.2995Y-165.3824

G1X38.8827Y-168.0361

G1X39.7635Y-170.6273

G1X40.7880Y-172.8644

G1X42.0983Y-175.1753

G1X43.5459Y-177.3776

G1X47.6095Y-183.1350

G1X48.8507Y-185.1128

G1X49.8823Y-186.9989

G1X50.9741Y-189.4158

G1X51.7808Y-191.7255

G1X52.2796Y-193.7143

G1X52.6275Y-196.0142

G1X52.7861Y-198.4083

G1X52.7761Y-201.1409

G1X52.5911Y-204.0914

G1X52.2334Y-207.3190

G1X51.2280Y-213.6362

G1X48.6432Y-226.8285

G1X47.7581Y-231.8346

G1X47.0634Y-236.9772

G1X46.7401Y-241.4853

G1 Z0F20000

(Start Block)


G1X55.4734Y-20.0000
G1Z5F20000
(Plotting speed under)
G1 F4000


G1X53.0511Y-30.0733

G1X47.2982Y-55.3295

G1X46.4067Y-59.9281

G1X45.7804Y-64.2252

G1X45.4665Y-67.3299

G1X45.2762Y-70.4320

G1X45.2119Y-73.4472

G1X45.2724Y-76.6850

G1X45.7148Y-82.9252

G1X47.0938Y-94.9574

G1X47.5999Y-100.6874

G1X47.7349Y-105.0558

G1X47.5419Y-109.5373

G1X46.9036Y-115.2938

G1X45.7666Y-122.0175

G1X44.5135Y-128.0855

G1X41.1826Y-142.9965

G1X39.8219Y-149.8989

G1X38.8674Y-155.9615

G1X38.4603Y-160.4807

G1X38.5020Y-163.4034

G1X38.8131Y-166.0985

G1X39.4146Y-168.7291

G1X40.3230Y-171.2877

G1X41.3808Y-173.4905

G1X42.7359Y-175.7601

G1X44.2310Y-177.9119

G1X48.4902Y-183.6089

G1X49.7676Y-185.5441

G1X50.7790Y-187.3058

G1X51.8669Y-189.5923

G1X52.7066Y-191.8728

G1X53.2563Y-193.9459

G1X53.6215Y-196.2251

G1X53.7966Y-198.6112

G1X53.8014Y-201.3370

G1X53.6290Y-204.2835

G1X53.2700Y-207.6051

G1X52.2761Y-213.9194

G1X49.6916Y-227.2150

G1X48.8324Y-232.1222

G1X48.1459Y-237.2630

G1X47.8308Y-241.7661

G1 Z0F20000

(Start Block)


G1X56.4414Y-20.0000
G1Z5F20000
(Plotting speed under)
G1 F4000


G1X53.2776Y-32.5919

G1X47.8486Y-55.6607

G1X46.7933Y-60.8935

G1X46.0541Y-65.8017

G1X45.7145Y-69.0473

G1X45.5050Y-72.2010

G1X45.4154Y-75.4282

G1X45.4514Y-78.7694

G1X45.8268Y-85.0943

G1X47.0430Y-97.0981

G1X47.5139Y-102.8411

G1X47.6178Y-107.0940

G1X47.4255Y-111.5153

G1X46.8337Y-117.1045

G1X45.7756Y-123.7181

G1X44.6173Y-129.6429

G1X41.5133Y-144.3134

G1X40.2104Y-151.2653

G1X39.3396Y-156.9930

G1X38.9614Y-161.2328

G1X39.0033Y-164.1232

G1X39.3357Y-166.8835

G1X39.9287Y-169.3791

G1X40.8803Y-171.9582

G1X41.9713Y-174.1266

G1X43.3847Y-176.3739

G1X44.9772Y-178.5368

G1X49.3145Y-184.0060

G1X50.6328Y-185.8949

G1X51.6760Y-187.6194

G1X52.7984Y-189.8693

G1X53.6632Y-192.1228

G1X54.2146Y-194.0947

G1X54.6141Y-196.4240

G1X54.8075Y-198.8190

G1X54.8269Y-201.5381

G1X54.6587Y-204.5783

G1X54.3195Y-207.7932

G1X53.3412Y-214.1086

G1X50.7567Y-227.5083

G1X49.8883Y-232.5169

G1X49.2254Y-237.5556

G1X48.9183Y-242.0537

G1 Z0F20000

(Start Block)


G1X57.4327Y-20.0000
G1Z5F20000
(Plotting speed under)
G1 F4000


G1X53.5103Y-34.9825

G1X48.4659Y-55.7819

G1X47.1952Y-61.8377

G1X46.3153Y-67.4995

G1X45.9410Y-70.9799

G1X45.7099Y-74.2965

G1X45.6013Y-77.6590

G1X45.6160Y-81.1049

G1X45.9691Y-88.0080

G1X47.0662Y-100.2357

G1X47.4142Y-104.9027

G1X47.4993Y-109.1254

G1X47.3045Y-113.6165

G1X46.8391Y-118.3721

G1X46.0549Y-123.8546

G1X44.9430Y-130.1097

G1X42.0676Y-144.5233

G1X40.9733Y-150.4500

G1X39.8867Y-157.4504

G1X39.4600Y-162.0882

G1X39.5131Y-164.9694

G1X39.8661Y-167.7126

G1X40.4875Y-170.1842

G1X41.4792Y-172.7285

G1X42.6128Y-174.8587

G1X44.0781Y-177.0576

G1X45.6610Y-179.0875

G1X50.1920Y-184.4799

G1X51.4819Y-186.2298

G1X52.5729Y-187.9394

G1X53.7061Y-190.1000

G1X54.5877Y-192.2840

G1X55.1912Y-194.3341

G1X55.6083Y-196.6419

G1X55.8210Y-199.0864

G1X55.8521Y-201.7441

G1X55.6964Y-204.7800

G1X55.3557Y-208.0889

G1X54.3696Y-214.5021

G1X51.8196Y-227.8077

G1X50.9732Y-232.7169

G1X50.3019Y-237.8546

G1X50.0027Y-242.3477

G1 Z0F20000

(Start Block)


G1X58.4459Y-20.0000
G1Z5F20000
(Plotting speed under)
G1 F4000


G1X54.1607Y-35.6915

G1X49.5354Y-54.0993

G1X48.4761Y-58.5898

G1X47.7448Y-62.0838

G1X47.0800Y-65.7888

G1X46.5659Y-69.3029

G1X46.1717Y-72.8377

G1X45.9050Y-76.3915

G1X45.7697Y-79.9115

G1X45.7581Y-83.5146

G1X46.0676Y-90.8582

G1X47.3162Y-107.0611

G1X47.3838Y-111.2500

G1X47.1879Y-115.7980

G1X46.7289Y-120.6645

G1X45.9920Y-126.0760

G1X44.9741Y-132.1366

G1X42.3863Y-145.9553

G1X41.3414Y-151.9497

G1X40.3595Y-158.5126

G1X39.9612Y-162.9479

G1X40.0254Y-165.8199

G1X40.3793Y-168.4469

G1X41.0489Y-170.9934

G1X42.0366Y-173.4127

G1X43.2030Y-175.5091

G1X44.7115Y-177.6633

G1X46.4109Y-179.7228

G1X51.0139Y-184.8869

G1X52.3432Y-186.5918

G1X53.4399Y-188.2184

G1X54.5907Y-190.2940

G1X55.5104Y-192.4528

G1X56.1678Y-194.5785

G1X56.6023Y-196.8647

G1X56.8263Y-199.1981

G1X56.8768Y-201.9550

G1X56.7332Y-204.9868

G1X56.4036Y-208.2869

G1X55.4322Y-214.7017

G1X52.8615Y-228.2127

G1X52.0239Y-233.1240

G1X51.3753Y-238.1597

G1X51.0838Y-242.6478

G1 Z0F20000

(Start Block)


G1X59.4800Y-20.0000
G1Z5F20000
(Plotting speed under)
G1 F4000


G1X57.0824Y-28.2684

G1X54.7476Y-36.6858

G1X50.2518Y-54.0167

G1X49.0017Y-59.2054

G1X48.1562Y-63.1399

G1X47.4103Y-67.1839

G1X46.8129Y-71.1522

G1X46.3948Y-74.7560

G1X46.0908Y-78.5077

G1X45.9263Y-82.0799

G1X45.8802Y-85.9466

G1X45.9508Y-89.6185

G1X46.1406Y-93.7641

G1X47.2385Y-109.6139

G1X47.2715Y-113.7706

G1X47.0693Y-118.2473

G1X46.6287Y-123.0800

G1X45.9403Y-128.4060

G1X44.9749Y-134.5126

G1X41.6935Y-153.6385

G1X40.8376Y-159.5759

G1X40.4695Y-163.7130

G1X40.5338Y-166.5739

G1X40.8950Y-169.1847

G1X41.5808Y-171.7098

G1X42.6101Y-174.1315

G1X43.8494Y-176.2494

G1X45.4096Y-178.3553

G1X47.1643Y-180.3606

G1X51.9023Y-185.3782

G1X53.2660Y-187.0415

G1X54.3889Y-188.6348

G1X55.5644Y-190.6773

G1X56.4724Y-192.7374

G1X57.1414Y-194.8175

G1X57.5958Y-197.0927

G1X57.8418Y-199.5199

G1X57.8994Y-202.2690

G1X57.7620Y-205.2952

G1X57.4381Y-208.5922

G1X56.4756Y-215.0060

G1X53.9379Y-228.4238

G1X53.0875Y-233.4362

G1X52.4361Y-238.5693

G1X52.1619Y-242.9535

G1 Z0F20000

(Start Block)


G1X60.5338Y-20.0000
G1Z5F20000
(Plotting speed under)
G1 F4000


G1X57.8550Y-28.9370

G1X55.4027Y-37.4690

G1X53.0984Y-45.8676

G1X50.9506Y-54.1057

G1X49.5032Y-60.0019

G1X48.5507Y-64.3493

G1X47.6914Y-68.9220

G1X47.0299Y-73.2404

G1X46.5689Y-77.1296

G1X46.2449Y-80.9639

G1X46.0479Y-84.8930

G1X45.9823Y-88.8144

G1X46.0357Y-92.7548

G1X46.1962Y-96.8224

G1X47.1613Y-111.9568

G1X47.1768Y-116.1649

G1X46.9734Y-120.7120

G1X46.5492Y-125.5785

G1X45.8917Y-130.9618

G1X44.9998Y-136.9940

G1X42.0206Y-155.6146

G1X41.3226Y-160.6382

G1X40.9800Y-164.5751

G1X41.0549Y-167.4273

G1X41.4354Y-170.0221

G1X42.1500Y-172.5230

G1X43.2179Y-174.9114

G1X44.4428Y-176.9080

G1X46.0450Y-178.9703

G1X47.8503Y-180.9271

G1X52.7239Y-185.7964

G1X54.1908Y-187.4936

G1X55.2820Y-188.9693

G1X56.4922Y-190.9744

G1X57.4262Y-193.0066

G1X58.1139Y-195.0620

G1X58.5882Y-197.3257

G1X58.8507Y-199.7442

G1X58.9224Y-202.4893

G1X58.7967Y-205.5115

G1X58.4833Y-208.7999

G1X57.5171Y-215.3152

G1X54.9748Y-228.8398

G1X54.1481Y-233.7537

G1X53.5131Y-238.7864

G1X53.2367Y-243.2644

G1 Z0F20000

(Start Block)


G1X61.6060Y-20.0000
G1Z5F20000
(Plotting speed under)
G1 F4000


G1X58.6312Y-29.6311

G1X56.0185Y-38.4337

G1X53.6866Y-46.6763

G1X51.6035Y-54.4673

G1X50.0491Y-60.6860

G1X48.9410Y-65.6467

G1X47.9809Y-70.6566

G1X47.2314Y-75.4464

G1X46.7394Y-79.4774

G1X46.3812Y-83.4998

G1X46.1582Y-87.4926

G1X46.0633Y-91.5892

G1X46.0908Y-95.5524

G1X46.2328Y-99.7937

G1X47.0955Y-114.1840

G1X47.1043Y-118.5615

G1X46.9035Y-123.2295

G1X46.4901Y-128.2375

G1X45.8466Y-133.8396

G1X42.0310Y-159.9980

G1X41.6542Y-163.2341

G1X41.4974Y-165.4352

G1X41.5828Y-168.2787

G1X41.9823Y-170.8578

G1X42.7037Y-173.2780

G1X43.8315Y-175.6902

G1X45.1088Y-177.6658

G1X46.7502Y-179.6654

G1X48.6098Y-181.5689

G1X53.6154Y-186.2935

G1X55.0520Y-187.8704

G1X56.1736Y-189.3097

G1X57.3703Y-191.1901

G1X58.3407Y-193.1886

G1X59.0850Y-195.3118

G1X59.5793Y-197.5639

G1X59.8581Y-199.9734

G1X59.9436Y-202.7361

G1X59.8230Y-205.8290

G1X59.5149Y-209.1145

G1X58.5566Y-215.6293

G1X56.0272Y-229.1609

G1X55.2058Y-234.0761

G1X54.5772Y-239.1074

G1X54.3082Y-243.5801

G1 Z0F20000

(Start Block)


G1X62.6955Y-20.0000
G1Z5F20000
(Plotting speed under)
G1 F4000


G1X59.3930Y-30.4062

G1X56.7083Y-39.1856

G1X54.3286Y-47.3526

G1X52.2671Y-54.8733

G1X50.5949Y-61.4506

G1X49.3265Y-67.0352

G1X48.2582Y-72.5063

G1X47.4230Y-77.7243

G1X46.8909Y-81.9514

G1X46.5013Y-86.1097

G1X46.2438Y-90.3567

G1X46.1268Y-94.6043

G1X46.1396Y-98.6687

G1X46.2635Y-102.7703

G1X46.9077Y-113.0445

G1X47.0546Y-116.5743

G1X47.0552Y-121.2230

G1X46.8496Y-126.0929

G1X46.4440Y-131.2509

G1X45.8250Y-136.9644

G1X42.4730Y-161.4603

G1X42.0261Y-166.1944

G1X42.1096Y-169.0285

G1X42.5263Y-171.6449

G1X43.2857Y-174.0872

G1X44.3999Y-176.3781

G1X45.7699Y-178.4056

G1X47.4609Y-180.3589

G1X49.3737Y-182.2098

G1X54.4360Y-186.7208

G1X55.9115Y-188.2529

G1X57.0633Y-189.6558

G1X58.2939Y-191.4998

G1X59.2908Y-193.4692

G1X60.0543Y-195.5668

G1X60.5684Y-197.8071

G1X60.8635Y-200.2077

G1X60.9630Y-202.9634

G1X60.8540Y-206.0547

G1X60.5559Y-209.3316

G1X59.6108Y-215.8484

G1X57.0767Y-229.4868

G1X56.2602Y-234.4032

G1X55.6380Y-239.4328

G1X55.3764Y-243.9003

G1 Z0F20000

(Start Block)


G1X63.8010Y-20.0000
G1Z5F20000
(Plotting speed under)
G1 F4000


G1X60.1696Y-31.1644

G1X57.3586Y-40.1128

G1X54.9329Y-48.2241

G1X52.8428Y-55.6895

G1X51.0873Y-62.5142

G1X49.6646Y-68.7122

G1X48.4979Y-74.6054

G1X47.5824Y-80.2191

G1X47.0112Y-84.6436

G1X46.5921Y-88.9513

G1X46.3191Y-93.1567

G1X46.1812Y-97.4647

G1X46.1764Y-101.2831

G1X46.2802Y-105.2317

G1X46.9065Y-115.4209

G1X47.0436Y-119.0326

G1X47.0439Y-123.8491

G1X46.8420Y-128.9693

G1X46.4517Y-134.2756

G1X45.8411Y-140.3231

G1X44.8907Y-148.1155

G1X42.9431Y-162.8115

G1X42.5613Y-167.0442

G1X42.6544Y-169.8704

G1X43.0895Y-172.4717

G1X43.8761Y-174.8912

G1X45.0264Y-177.1512

G1X46.4378Y-179.1417

G1X48.1775Y-181.0495

G1X50.1426Y-182.8489

G1X55.3300Y-187.2217

G1X56.8378Y-188.7138

G1X57.9508Y-190.0073

G1X59.2234Y-191.8282

G1X60.2388Y-193.7549

G1X61.0213Y-195.8271

G1X61.5554Y-198.0554

G1X61.8666Y-200.4469

G1X61.9799Y-203.1957

G1X61.8823Y-206.2852

G1X61.5943Y-209.5535

G1X60.6450Y-216.1718

G1X58.1050Y-229.9169

G1X57.3114Y-234.7345

G1X56.6955Y-239.7624

G1X56.4412Y-244.2244

G1 Z0F20000

(Start Block)


G1X64.9212Y-20.0000
G1Z5F20000
(Plotting speed under)
G1 F4000


G1X60.8995Y-32.0946

G1X57.9973Y-41.1139

G1X55.5320Y-49.1684

G1X53.4435Y-56.4844

G1X51.6100Y-63.5313

G1X50.0021Y-70.4522

G1X48.7220Y-76.8197

G1X47.7246Y-82.8160

G1X47.1258Y-87.3258

G1X46.6821Y-91.6978

G1X46.3827Y-96.0617

G1X46.2345Y-100.3240

G1X46.2230Y-104.0913

G1X46.3213Y-107.8799

G1X46.9234Y-117.5682

G1X47.0713Y-121.6496

G1X47.0721Y-126.7360

G1X46.8690Y-132.1997

G1X46.4788Y-137.8289

G1X45.8823Y-144.0958

G1X44.8982Y-152.6351

G1X43.4639Y-163.8529

G1X43.1072Y-167.8858

G1X43.2068Y-170.6748

G1X43.3817Y-171.9725

G1X43.6628Y-173.2909

G1X44.0315Y-174.5350

G1X44.4759Y-175.6883

G1X45.6614Y-177.9180

G1X47.1134Y-179.8724

G1X48.9005Y-181.7360

G1X50.9165Y-183.4851

G1X56.1492Y-187.6560

G1X57.6946Y-189.1043

G1X58.8995Y-190.4408

G1X60.1402Y-192.1448

G1X61.1809Y-194.0386

G1X61.9856Y-196.0926

G1X62.5505Y-198.3667

G1X62.8755Y-200.7900

G1X62.9945Y-203.5316

G1X62.9020Y-206.6161

G1X62.6205Y-209.8635

G1X61.6763Y-216.4996

G1X59.1658Y-230.1513

G1X58.3592Y-235.0697

G1X57.7495Y-240.0957

G1X57.5025Y-244.5521

G1 Z0F20000

(Start Block)


G1X66.0551Y-20.0000
G1Z5F20000
(Plotting speed under)
G1 F4000


G1X61.6439Y-33.0034

G1X58.6129Y-42.2212

G1X56.1265Y-50.1804

G1X54.0526Y-57.3215

G1X52.1098Y-64.7200

G1X50.3089Y-72.3899

G1X48.9149Y-79.2272

G1X47.8339Y-85.6137

G1X47.2074Y-90.2427

G1X46.7492Y-94.6566

G1X46.4452Y-98.9644

G1X46.2925Y-103.2752

G1X46.2837Y-106.7817

G1X46.3745Y-110.1984

G1X46.9635Y-119.4812

G1X47.1413Y-124.2445

G1X47.1528Y-129.6733

G1X46.9588Y-135.4691

G1X46.5833Y-141.3122

G1X46.0275Y-147.5746

G1X45.1601Y-155.5563

G1X43.9872Y-164.9815

G1X43.6653Y-168.7169

G1X43.7737Y-171.4988

G1X44.2215Y-174.0026

G1X44.5958Y-175.2422

G1X45.0444Y-176.3837

G1X46.2495Y-178.5925

G1X47.7283Y-180.5188

G1X49.5536Y-182.3480

G1X51.6957Y-184.1171

G1X57.0449Y-188.1585

G1X58.6209Y-189.5686

G1X59.7994Y-190.8192

G1X61.1094Y-192.5508

G1X62.1650Y-194.4220

G1X62.9788Y-196.4606

G1X63.5313Y-198.6212

G1X63.8730Y-201.0386

G1X64.0057Y-203.7732

G1X63.9189Y-206.9515

G1X63.6417Y-210.1961

G1X62.7043Y-216.8317

G1X60.2051Y-230.4894

G1X59.4033Y-235.4085

G1X58.7912Y-240.5307

G1X58.5603Y-244.8829

G1 Z0F20000

(Start Block)


G1X67.2014Y-20.0000
G1Z5F20000
(Plotting speed under)
G1 F4000


G1X61.2362Y-37.3279

G1X57.5838Y-48.4720

G1X54.7075Y-58.0674

G1X52.2899Y-67.2692

G1X50.9800Y-72.7666

G1X49.8444Y-77.9595

G1X48.8876Y-82.8243

G1X48.0965Y-87.4145

G1X47.4591Y-91.7932

G1X46.9637Y-96.0582

G1X46.6206Y-100.1224

G1X46.4193Y-104.0760

G1X46.3572Y-107.9229

G1X46.4317Y-111.7721

G1X47.0421Y-121.3564

G1X47.2494Y-126.3361

G1X47.3062Y-130.7320

G1X47.2430Y-135.2820

G1X46.9454Y-142.0140

G1X46.4003Y-149.2732

G1X45.6805Y-156.5105

G1X44.5801Y-165.6038

G1X44.2822Y-168.6508

G1X44.2608Y-171.1940

G1X44.5429Y-173.5966

G1X45.0754Y-175.6609

G1X45.8846Y-177.6169

G1X46.9602Y-179.4266

G1X48.3491Y-181.1596

G1X49.6720Y-182.4736

G1X51.2494Y-183.8085

G1X56.4648Y-187.5514

G1X58.5727Y-189.1749

G1X60.2551Y-190.7260

G1X61.7254Y-192.4573

G1X62.9607Y-194.4382

G1X63.8711Y-196.5431

G1X64.4877Y-198.7805

G1X64.8763Y-201.3901

G1X65.0054Y-203.6307

G1X64.9896Y-206.0343

G1X64.8436Y-208.5835

G1X64.5327Y-211.6574

G1X63.6614Y-217.5673

G1X61.2585Y-230.7309

G1X60.4584Y-235.6498

G1X59.8467Y-240.7717

G1X59.6143Y-245.2165

G1 Z0F20000

(Start Block)


G1X68.3590Y-20.0000
G1Z5F20000
(Plotting speed under)
G1 F4000


G1X61.9607Y-38.2787

G1X58.3557Y-49.0711

G1X55.4480Y-58.5881

G1X53.0085Y-67.7282

G1X51.5369Y-73.7574

G1X50.2874Y-79.2922

G1X49.2360Y-84.4279

G1X48.3608Y-89.2729

G1X47.6492Y-93.9165

G1X47.1186Y-98.2403

G1X46.7431Y-102.4455

G1X46.5292Y-106.4763

G1X46.4696Y-110.1503

G1X46.5460Y-113.8179

G1X47.1882Y-123.5897

G1X47.4269Y-128.9649

G1X47.5052Y-133.4029

G1X47.4717Y-137.9840

G1X47.2244Y-144.7255

G1X46.7348Y-151.8923

G1X46.1040Y-158.5528

G1X45.1541Y-166.5076

G1X44.8543Y-169.6548

G1X44.8565Y-172.0988

G1X45.1636Y-174.4917

G1X45.7239Y-176.5330

G1X46.5228Y-178.3783

G1X47.6254Y-180.1649

G1X49.0475Y-181.8685

G1X50.4009Y-183.1546

G1X52.0133Y-184.4558

G1X57.3353Y-188.0845

G1X59.4003Y-189.5951

G1X61.1200Y-191.1021

G1X62.6236Y-192.7925

G1X63.8894Y-194.7407

G1X64.8107Y-196.7886

G1X65.4600Y-199.0461

G1X65.8666Y-201.6480

G1X66.0066Y-203.8755

G1X66.0009Y-206.2768

G1X65.8551Y-208.9262

G1X65.5477Y-211.9982

G1X64.6820Y-217.9078

G1X62.2900Y-231.0755

G1X61.4948Y-235.9946

G1X60.8895Y-241.1137

G1X60.6644Y-245.5524

G1 Z0F20000

(Start Block)


G1X69.5268Y-20.0000
G1Z5F20000
(Plotting speed under)
G1 F4000


G1X62.7381Y-39.1050

G1X59.1423Y-49.6839

G1X56.2572Y-58.9532

G1X53.8158Y-67.9430

G1X52.1595Y-74.5674

G1X50.7725Y-80.5173

G1X49.6062Y-85.9976

G1X48.6428Y-91.0988

G1X47.8732Y-95.8832

G1X47.3023Y-100.3004

G1X46.9026Y-104.5478

G1X46.6750Y-108.6679

G1X46.6183Y-111.8295

G1X46.6677Y-114.9036

G1X47.6066Y-130.0073

G1X47.7631Y-135.4049

G1X47.7686Y-140.7168

G1X47.5728Y-147.2770

G1X47.1507Y-154.0619

G1X46.5982Y-160.1652

G1X45.7549Y-167.2963

G1X45.4490Y-170.5425

G1X45.4685Y-172.9866

G1X45.8006Y-175.3698

G1X46.3883Y-177.3885

G1X47.2216Y-179.2134

G1X48.3631Y-180.9709

G1X49.8182Y-182.6290

G1X51.2298Y-183.9019

G1X52.7369Y-185.0611

G1X58.2080Y-188.6143

G1X60.3087Y-190.0816

G1X62.0559Y-191.5529

G1X63.5814Y-193.2127

G1X64.8136Y-195.0481

G1X65.7574Y-197.0721

G1X66.4279Y-199.3167

G1X66.8446Y-201.8384

G1X67.0029Y-204.1187

G1X67.0076Y-206.5241

G1X66.8702Y-209.1726

G1X66.5700Y-212.2451

G1X65.6983Y-218.2522

G1X63.3173Y-231.4230

G1X62.5271Y-236.3418

G1X61.9283Y-241.4577

G1X61.7106Y-245.8902

G1 Z0F20000

(Start Block)


G1X70.7040Y-20.0000
G1Z5F20000
(Plotting speed under)
G1 F4000


G1X63.7720Y-39.2406

G1X60.3597Y-49.0664

G1X57.4439Y-58.1421

G1X55.1372Y-66.3045

G1X53.1215Y-74.1171

G1X51.4950Y-80.8094

G1X50.1485Y-86.8286

G1X49.0609Y-92.2680

G1X48.1912Y-97.3450

G1X47.5429Y-102.0558

G1X47.1079Y-106.4163

G1X46.8629Y-110.6666

G1X46.8093Y-113.8893

G1X46.8729Y-116.9648

G1X47.9031Y-132.5233

G1X48.0943Y-137.9404

G1X48.1358Y-143.2965

G1X47.9887Y-149.5727

G1X47.6226Y-155.9913

G1X47.1272Y-161.6520

G1X46.3615Y-168.1651

G1X46.0605Y-171.4117

G1X46.0977Y-173.8557

G1X46.4549Y-176.2292

G1X47.0693Y-178.2258

G1X47.9161Y-179.9958

G1X49.0530Y-181.6812

G1X50.5381Y-183.3128

G1X51.9778Y-184.5600

G1X53.5139Y-185.6913

G1X58.9976Y-189.0864

G1X61.1355Y-190.5065

G1X62.9903Y-192.0035

G1X64.4718Y-193.5552

G1X65.7328Y-195.3603

G1X66.6992Y-197.3605

G1X67.3907Y-199.5922

G1X67.8246Y-202.1037

G1X67.9943Y-204.3702

G1X68.0092Y-206.7762

G1X67.8728Y-209.5238

G1X67.5760Y-212.5943

G1X66.7100Y-218.6003

G1X64.3402Y-231.7731

G1X63.5551Y-236.6911

G1X62.9629Y-241.8036

G1X62.7526Y-246.2295

G1 Z0F20000

(Start Block)


G1X71.8895Y-20.0000
G1Z5F20000
(Plotting speed under)
G1 F4000


G1X64.5430Y-40.1537

G1X61.3207Y-49.2962

G1X58.4085Y-58.1840

G1X56.1251Y-66.0740

G1X52.0688Y-81.8660

G1X50.5947Y-88.2334

G1X49.4305Y-93.8292

G1X48.5047Y-99.0013

G1X47.8217Y-103.7303

G1X47.3584Y-108.1478

G1X47.1003Y-112.4390

G1X47.0477Y-115.6688

G1X47.1269Y-118.8753

G1X48.2681Y-134.9747

G1X48.4953Y-140.4346

G1X48.5696Y-145.5865

G1X48.4627Y-151.6632

G1X48.1445Y-157.6848

G1X47.6996Y-162.9138

G1X46.9964Y-168.9155

G1X46.6899Y-172.2606

G1X46.7448Y-174.7043

G1X47.1079Y-176.9894

G1X47.7277Y-178.9449

G1X48.5960Y-180.7095

G1X49.7554Y-182.3759

G1X51.2687Y-183.9827

G1X52.7348Y-185.2057

G1X54.2981Y-186.3108

G1X59.8724Y-189.6092

G1X62.0423Y-190.9905

G1X63.8460Y-192.3859

G1X65.3570Y-193.9017

G1X66.6270Y-195.6451

G1X67.6356Y-197.6537

G1X68.3242Y-199.7765

G1X68.7870Y-202.2760

G1X68.9753Y-204.5203

G1X69.0054Y-207.0331

G1X68.8777Y-209.7791

G1X68.5882Y-212.8496

G1X67.7333Y-218.8521

G1X65.3758Y-232.0253

G1X64.5785Y-237.0421

G1X63.9931Y-242.1507

G1X63.7903Y-246.5698

G1 Z0F20000

(Start Block)


G1X73.0826Y-20.0000
G1Z5F20000
(Plotting speed under)
G1 F4000


G1X65.3529Y-40.9875

G1X62.2083Y-49.7985

G1X59.3247Y-58.4673

G1X57.0763Y-66.0915

G1X52.6085Y-83.1556

G1X51.0548Y-89.6702

G1X49.8229Y-95.3902

G1X48.8581Y-100.5787

G1X48.1374Y-105.3728

G1X47.6519Y-109.8297

G1X47.3894Y-114.0630

G1X47.3377Y-117.2066

G1X47.4234Y-120.4203

G1X48.6966Y-137.2605

G1X48.9573Y-142.6208

G1X49.0618Y-147.5762

G1X48.9936Y-153.3902

G1X48.7118Y-159.1452

G1X48.3042Y-164.0504

G1X47.6496Y-169.6442

G1X47.3379Y-173.0876

G1X47.4106Y-175.5310

G1X47.7984Y-177.8109

G1X48.4434Y-179.7455

G1X49.3441Y-181.4922

G1X50.4707Y-183.0535

G1X52.0103Y-184.6373

G1X53.5010Y-185.8378

G1X55.0898Y-186.9186

G1X60.7486Y-190.1267

G1X62.9485Y-191.4717

G1X64.7754Y-192.8369

G1X66.3043Y-194.3278

G1X67.5876Y-196.0512

G1X68.5662Y-197.9516

G1X69.2751Y-200.0626

G1X69.7551Y-202.5519

G1X69.9548Y-204.7822

G1X69.9958Y-207.2946

G1X69.8769Y-210.0389

G1X69.5837Y-213.2069

G1X68.7346Y-219.2073

G1X66.3717Y-232.4798

G1X65.5972Y-237.3947

G1X65.0187Y-242.4989

G1X64.8235Y-246.9110

G1 Z0F20000

(Start Block)


G1X74.2824Y-20.0000
G1Z5F20000
(Plotting speed under)
G1 F4000


G1X66.2215Y-41.6904

G1X63.1317Y-50.2503

G1X60.2398Y-58.8296

G1X57.9930Y-66.3373

G1X53.1279Y-84.6086

G1X51.5057Y-91.2394

G1X50.2574Y-96.8676

G1X49.2475Y-102.1236

G1X48.4968Y-106.9561

G1X47.9923Y-111.4663

G1X47.7310Y-115.6345

G1X47.6837Y-118.6892

G1X47.7744Y-121.8089

G1X49.2119Y-139.7366

G1X49.4772Y-144.6122

G1X49.6059Y-149.3101

G1X49.5708Y-154.8719

G1X49.3150Y-160.4740

G1X48.9405Y-165.0614

G1X48.3114Y-170.4477

G1X48.0053Y-173.8910

G1X48.0957Y-176.3342

G1X48.5080Y-178.6091

G1X49.2170Y-180.6139

G1X50.1095Y-182.2531

G1X51.2656Y-183.7887

G1X52.8392Y-185.3414

G1X54.3591Y-186.5140

G1X55.9763Y-187.5662

G1X61.6260Y-190.6385

G1X63.8537Y-191.9499

G1X65.7022Y-193.2870

G1X67.1795Y-194.6799

G1X68.4878Y-196.3724

G1X69.4905Y-198.2540

G1X70.2197Y-200.3535

G1X70.7169Y-202.8325

G1X70.9279Y-205.0489

G1X70.9799Y-207.5609

G1X70.8698Y-210.3032

G1X70.5842Y-213.4705

G1X69.7302Y-219.5658

G1X67.3799Y-232.8358

G1X66.6110Y-237.7483

G1X66.0395Y-242.8477

G1X65.8521Y-247.2525

G1 Z0F20000

(Start Block)


G1X75.4881Y-20.0000
G1Z5F20000
(Plotting speed under)
G1 F4000


G1X67.0463Y-42.5422

G1X64.0808Y-50.6805

G1X61.1674Y-59.2243

G1X58.9401Y-66.5696

G1X53.5987Y-86.3245

G1X52.0012Y-92.7132

G1X50.7491Y-98.2081

G1X49.6981Y-103.5102

G1X48.9290Y-108.2975

G1X48.4115Y-112.7457

G1X48.1351Y-116.9837

G1X48.0891Y-120.1131

G1X48.1929Y-123.2377

G1X49.7602Y-141.6215

G1X50.0566Y-146.5453

G1X50.1996Y-150.9940

G1X50.1851Y-156.3141

G1X49.9555Y-161.6233

G1X49.6021Y-166.0116

G1X49.0033Y-171.1284

G1X48.6959Y-174.5725

G1X48.7896Y-177.0132

G1X49.2095Y-179.2822

G1X49.9299Y-181.2780

G1X50.8359Y-182.9061

G1X52.0088Y-184.4277

G1X53.6047Y-185.9611

G1X55.1453Y-187.1149

G1X56.7841Y-188.1466

G1X62.5044Y-191.1439

G1X64.7576Y-192.4245

G1X66.6261Y-193.7358

G1X68.1181Y-195.1083

G1X69.4382Y-196.7833

G1X70.4488Y-198.6524

G1X71.1835Y-200.7428

G1X71.6858Y-203.2139

G1X71.9006Y-205.4249

G1X71.9563Y-207.9324

G1X71.8497Y-210.6710

G1X71.5677Y-213.8354

G1X70.7362Y-219.8277

G1X68.3997Y-233.0932

G1X67.6195Y-238.1028

G1X67.0554Y-243.1969

G1X66.8758Y-247.5941

G1 Z0F20000

(Start Block)


G1X76.6992Y-20.0000
G1Z5F20000
(Plotting speed under)
G1 F4000


G1X67.9736Y-43.1489

G1X65.0321Y-51.1536

G1X62.1221Y-59.6044

G1X59.8983Y-66.8554

G1X54.1615Y-87.7587

G1X52.5760Y-93.9641

G1X51.2827Y-99.5001

G1X50.1928Y-104.8563

G1X49.4125Y-109.5862

G1X48.8741Y-114.1069

G1X48.6012Y-118.2234

G1X48.5583Y-121.5768

G1X48.6825Y-124.7032

G1X50.3712Y-143.4449

G1X50.6776Y-148.1185

G1X50.8329Y-152.3045

G1X50.8391Y-157.5151

G1X50.6314Y-162.5988

G1X50.2916Y-166.8737

G1X49.7156Y-171.7831

G1X49.4033Y-175.3250

G1X49.5143Y-177.7659

G1X49.9575Y-180.0309

G1X50.6598Y-181.9185

G1X51.5778Y-183.5370

G1X52.7659Y-185.0461

G1X54.3817Y-186.5623

G1X55.9412Y-187.6992

G1X57.5994Y-188.7125

G1X63.3836Y-191.6424

G1X65.6600Y-192.8952

G1X67.5465Y-194.1832

G1X69.0521Y-195.5371

G1X70.3832Y-197.1960

G1X71.3602Y-198.9625

G1X72.1206Y-201.0620

G1X72.6344Y-203.5033

G1X72.8604Y-205.7006

G1X72.9271Y-208.2074

G1X72.8232Y-211.0428

G1X72.5448Y-214.2041

G1X71.7195Y-220.1925

G1X69.3967Y-233.4519

G1X68.6227Y-238.4578

G1X68.0661Y-243.5460

G1X67.8945Y-247.9354

G1 Z0F20000

(Start Block)


G1X77.9151Y-20.0000
G1Z5F20000
(Plotting speed under)
G1 F4000


G1X66.0087Y-51.6034

G1X63.0902Y-60.0101

G1X60.8952Y-67.0962

G1X54.7475Y-89.1882

G1X53.2207Y-95.0493

G1X51.8816Y-100.6472

G1X50.7642Y-106.0032

G1X49.9596Y-110.7572

G1X49.4195Y-115.1604

G1X49.1340Y-119.3011

G1X49.0920Y-122.8747

G1X49.2525Y-126.3031

G1X49.6512Y-131.0556

G1X51.0354Y-145.1054

G1X51.3387Y-149.4376

G1X51.5066Y-153.5081

G1X51.5282Y-158.5772

G1X51.3333Y-163.5426

G1X51.0033Y-167.7072

G1X50.4486Y-172.4103

G1X50.1344Y-175.9535

G1X50.2476Y-178.3928

G1X50.6966Y-180.6533

G1X51.4072Y-182.5344

G1X52.3358Y-184.1445

G1X53.5372Y-185.6427

G1X55.1706Y-187.1440

G1X56.7466Y-188.2661

G1X58.4221Y-189.2633

G1X64.2666Y-192.1353

G1X66.4794Y-193.3135

G1X68.3818Y-194.5668

G1X69.9105Y-195.8944

G1X71.2645Y-197.5262

G1X72.2642Y-199.2767

G1X73.0437Y-201.3622

G1X73.5755Y-203.7974

G1X73.8128Y-205.9809

G1X73.8906Y-208.4869

G1X73.7959Y-211.3195

G1X73.5254Y-214.4792

G1X72.6962Y-220.5602

G1X70.3878Y-233.8115

G1X69.6203Y-238.8131

G1X69.0728Y-243.8774

G1X68.9080Y-248.2761

G1 Z0F20000

(Start Block)


G1X79.1352Y-20.0000
G1Z5F20000
(Plotting speed under)
G1 F4000


G1X67.0234Y-51.9942

G1X64.1257Y-60.2771

G1X61.9312Y-67.2906

G1X55.4744Y-90.1864

G1X53.8302Y-96.3939

G1X52.5130Y-101.8084

G1X51.3819Y-107.1303

G1X50.5722Y-111.8196

G1X50.0178Y-116.2510

G1X49.7323Y-120.3141

G1X49.6958Y-124.2065

G1X49.9045Y-128.0451

G1X51.7222Y-146.3023

G1X52.0343Y-150.4904

G1X52.2145Y-154.4618

G1X52.2508Y-159.5012

G1X52.0670Y-164.3524

G1X51.7473Y-168.4089

G1X51.2028Y-173.0090

G1X50.8864Y-176.5538

G1X51.0011Y-178.9919

G1X51.4547Y-181.2489

G1X52.1724Y-183.1247

G1X53.1099Y-184.7278

G1X54.3227Y-186.2168

G1X55.9713Y-187.7053

G1X57.5617Y-188.8148

G1X59.2521Y-189.7981

G1X65.1465Y-192.6187

G1X67.3770Y-193.7761

G1X69.2939Y-195.0112

G1X70.8337Y-196.3240

G1X72.1969Y-197.9428

G1X73.2029Y-199.6838

G1X73.9874Y-201.7618

G1X74.5237Y-204.1902

G1X74.7646Y-206.3688

G1X74.8461Y-208.8704

G1X74.7552Y-211.6988

G1X74.4884Y-214.8550

G1X73.6660Y-220.9306

G1X71.3727Y-234.1718

G1X70.6120Y-239.1684

G1X70.0725Y-244.2257

G1X69.9160Y-248.6160

G1 Z0F20000

(Start Block)


G1X80.3592Y-20.0000
G1Z5F20000
(Plotting speed under)
G1 F4000


G1X67.9929Y-52.5542

G1X65.1251Y-60.7165

G1X62.9491Y-67.6316

G1X56.2131Y-91.2426

G1X54.5141Y-97.5640

G1X53.2115Y-102.8404

G1X52.0745Y-108.1005

G1X51.2457Y-112.8204

G1X50.6908Y-117.1772

G1X50.3983Y-121.2603

G1X50.3608Y-125.0708

G1X50.5766Y-129.0220

G1X51.0267Y-133.9737

G1X52.4617Y-147.4438

G1X52.7765Y-151.5217

G1X52.9632Y-155.4630

G1X53.0042Y-160.3878

G1X52.8261Y-165.1293

G1X52.5239Y-168.9777

G1X51.8156Y-175.1144

G1X51.6570Y-177.2212

G1X51.7751Y-179.5624

G1X52.2323Y-181.8168

G1X52.9556Y-183.6883

G1X53.9005Y-185.2858

G1X55.1226Y-186.7674

G1X56.7839Y-188.2455

G1X58.3864Y-189.3445

G1X60.0895Y-190.3163

G1X66.0264Y-193.0938

G1X68.2721Y-194.2337

G1X70.2016Y-195.4533

G1X71.7512Y-196.7533

G1X73.1226Y-198.3607

G1X74.1345Y-200.0934

G1X74.9236Y-202.1645

G1X75.4645Y-204.5864

G1X75.7162Y-206.8638

G1X75.7940Y-209.3031

G1X75.7069Y-212.0818

G1X75.4440Y-215.2340

G1X74.6287Y-221.3035

G1X72.3513Y-234.5326

G1X71.6110Y-239.4235

G1X71.0664Y-244.5731

G1X70.9184Y-248.9547

G1 Z0F20000

(Start Block)


G1X81.5865Y-20.0000
G1Z5F20000
(Plotting speed under)
G1 F4000


G1X69.0635Y-52.8813

G1X66.2012Y-60.9883

G1X64.0325Y-67.8334

G1X56.9965Y-92.2393

G1X55.2910Y-98.5027

G1X54.0093Y-103.6183

G1X52.8601Y-108.8383

G1X52.0108Y-113.5719

G1X51.4404Y-117.9417

G1X51.1377Y-122.0407

G1X51.0967Y-125.8683

G1X51.3187Y-129.9295

G1X51.8026Y-135.1800

G1X53.2337Y-148.3292

G1X53.5555Y-152.3952

G1X53.7463Y-156.3211

G1X53.7894Y-161.1363

G1X53.6167Y-165.7712

G1X53.3134Y-169.6176

G1X52.6119Y-175.6541

G1X52.4516Y-177.7622

G1X52.5823Y-180.2016

G1X53.0595Y-182.4549

G1X53.8031Y-184.3187

G1X54.7669Y-185.9006

G1X56.0081Y-187.3657

G1X57.6898Y-188.8251

G1X59.3960Y-189.9623

G1X61.0599Y-190.8817

G1X66.9060Y-193.5603

G1X69.1645Y-194.6860

G1X71.1047Y-195.8927

G1X72.6627Y-197.1821

G1X74.0415Y-198.7798

G1X75.0739Y-200.5373

G1X75.8522Y-202.5700

G1X76.3975Y-204.9860

G1X76.6528Y-207.2587

G1X76.7341Y-209.6938

G1X76.6507Y-212.4683

G1X76.3918Y-215.6163

G1X75.5838Y-221.6788

G1X73.3397Y-234.7940

G1X72.5902Y-239.7782

G1X72.0543Y-244.9195

G1X71.9149Y-249.2920

G1 Z0F20000

(Start Block)


G1X82.8170Y-20.0000
G1Z5F20000
(Plotting speed under)
G1 F4000


G1X70.1408Y-53.2340

G1X67.2816Y-61.3082

G1X65.1248Y-68.0858

G1X57.7368Y-93.4892

G1X56.1170Y-99.3870

G1X54.8769Y-104.2786

G1X53.6936Y-109.5785

G1X52.8445Y-114.2380

G1X52.2598Y-118.6276

G1X51.9477Y-122.7537

G1X51.9019Y-126.4915

G1X52.1317Y-130.7669

G1X52.6461Y-136.3183

G1X54.0458Y-149.0601

G1X54.3705Y-153.1176

G1X54.5627Y-157.0364

G1X54.6058Y-161.7465

G1X54.4324Y-166.3791

G1X54.1258Y-170.2257

G1X53.4299Y-176.1629

G1X53.2678Y-178.2723

G1X53.3980Y-180.7122

G1X53.8765Y-182.9647

G1X54.6230Y-184.8267

G1X55.5908Y-186.4058

G1X56.8374Y-187.8669

G1X58.5267Y-189.3206

G1X60.2407Y-190.4516

G1X61.9122Y-191.3646

G1X67.7851Y-194.0179

G1X70.0539Y-195.1326

G1X72.0163Y-196.3388

G1X73.5680Y-197.6102

G1X74.9530Y-199.2000

G1X75.9903Y-200.9511

G1X76.7728Y-202.9784

G1X77.3223Y-205.3889

G1X77.5737Y-207.5541

G1X77.6659Y-209.9858

G1X77.5919Y-212.7598

G1X77.3420Y-215.8977

G1X76.5468Y-221.9571

G1X74.3048Y-235.1552

G1X73.5629Y-240.1322

G1X73.0360Y-245.2646

G1X72.9054Y-249.6278

G1 Z0F20000

(Start Block)


G1X84.0504Y-20.0000
G1Z5F20000
(Plotting speed under)
G1 F4000


G1X71.2405Y-53.5691

G1X68.4218Y-61.5111

G1X66.2551Y-68.2900

G1X58.6979Y-94.0648

G1X57.0464Y-100.0184

G1X55.7892Y-104.9298

G1X54.6093Y-110.1565

G1X53.7449Y-114.8364

G1X53.1479Y-119.2538

G1X52.8295Y-123.3954

G1X52.7821Y-127.1462

G1X53.0080Y-131.4310

G1X53.5047Y-136.8884

G1X54.8971Y-149.6367

G1X55.2273Y-153.7918

G1X55.4117Y-157.6090

G1X55.4517Y-162.3188

G1X55.2733Y-166.9528

G1X54.9712Y-170.6987

G1X54.2699Y-176.6400

G1X54.1057Y-178.7510

G1X54.2347Y-181.1920

G1X54.7133Y-183.4447

G1X55.4611Y-185.3061

G1X56.4312Y-186.8839

G1X57.6811Y-188.3429

G1X59.3753Y-189.7933

G1X61.0945Y-190.9205

G1X62.7713Y-191.8295

G1X68.6635Y-194.4662

G1X71.0268Y-195.6206

G1X72.9093Y-196.7722

G1X74.4667Y-198.0374

G1X75.8570Y-199.6211

G1X76.8986Y-201.3669

G1X77.6851Y-203.3893

G1X78.2387Y-205.7947

G1X78.4935Y-207.9559

G1X78.5893Y-210.3833

G1X78.5191Y-213.1529

G1X78.2734Y-216.2860

G1X77.4861Y-222.3369

G1X75.2626Y-235.5163

G1X74.5289Y-240.4852

G1X74.0114Y-245.6082

G1X73.8898Y-249.9617

G1 Z0F20000

(Start Block)


G1X85.2864Y-20.0000
G1Z5F20000
(Plotting speed under)
G1 F4000


G1X72.4071Y-53.7648

G1X69.5745Y-61.7353

G1X67.4231Y-68.4454

G1X59.6718Y-94.7075

G1X58.0458Y-100.5294

G1X56.7834Y-105.4212

G1X55.5886Y-110.6684

G1X54.7129Y-115.3659

G1X54.1065Y-119.8091

G1X53.7836Y-123.9650

G1X53.7328Y-127.6248

G1X53.9556Y-132.0237

G1X54.4304Y-137.3900

G1X55.7966Y-150.1596

G1X56.1189Y-154.3182

G1X56.2961Y-158.1383

G1X56.3269Y-162.8529

G1X56.1456Y-167.3897

G1X55.8397Y-171.1387

G1X55.1317Y-177.0851

G1X54.9652Y-179.1978

G1X55.0923Y-181.6405

G1X55.5698Y-183.8944

G1X56.3174Y-185.7564

G1X57.2880Y-187.3344

G1X58.5392Y-188.7932

G1X60.2356Y-190.2427

G1X61.9575Y-191.3687

G1X63.6371Y-192.2761

G1X69.5410Y-194.9048

G1X71.9097Y-196.0550

G1X73.8775Y-197.2591

G1X75.4313Y-198.5324

G1X76.7532Y-200.0428

G1X77.7986Y-201.7845

G1X78.5888Y-203.8027

G1X79.1465Y-206.2035

G1X79.4046Y-208.3607

G1X79.5039Y-210.7839

G1X79.4377Y-213.5489

G1X79.1963Y-216.6770

G1X78.4173Y-222.7185

G1X76.2234Y-235.8148

G1X75.4879Y-240.8373

G1X74.9800Y-245.9501

G1X74.8677Y-250.2937

G1 Z0F20000

(Start Block)


G1X86.5275Y-20.0000
G1Z5F20000
(Plotting speed under)
G1 F4000


G1X73.5016Y-54.2040

G1X70.7328Y-62.0066

G1X68.6019Y-68.6470

G1X60.7487Y-95.1039

G1X59.1339Y-100.8478

G1X57.8569Y-105.7575

G1X56.6676Y-110.9244

G1X55.7574Y-115.7409

G1X55.1394Y-120.1989

G1X54.8066Y-124.3683

G1X54.7480Y-128.0403

G1X54.9617Y-132.5004

G1X55.4156Y-137.8321

G1X56.7411Y-150.6343

G1X57.0444Y-154.6999

G1X57.2133Y-158.5269

G1X57.2353Y-163.2488

G1X57.0467Y-167.7917

G1X56.7353Y-171.5451

G1X56.0198Y-177.4973

G1X55.8508Y-179.6119

G1X55.9749Y-182.0571

G1X56.4497Y-184.3135

G1X57.1950Y-186.1778

G1X58.1638Y-187.7579

G1X59.4134Y-189.2188

G1X61.1084Y-190.6707

G1X62.8295Y-191.7986

G1X64.5088Y-192.7076

G1X70.4140Y-195.3397

G1X72.7845Y-196.4900

G1X74.7546Y-197.6935

G1X76.3108Y-198.9654

G1X77.6952Y-200.5556

G1X78.7289Y-202.3047

G1X79.5069Y-204.3217

G1X80.0554Y-206.7175

G1X80.3093Y-208.8796

G1X80.4051Y-211.2974

G1X80.3376Y-214.0535

G1X80.1060Y-217.0781

G1X79.3456Y-223.0486

G1X77.1488Y-236.2805

G1X76.4450Y-241.1454

G1X75.9418Y-246.2928

G1X75.8392Y-250.6259

G1 Z0F20000

(Start Block)


G1X87.7858Y-20.0000
G1Z5F20000
(Plotting speed under)
G1 F4000


G1X74.7257Y-54.3681

G1X72.0007Y-62.0474

G1X69.8566Y-68.7116

G1X61.8379Y-95.5665

G1X60.2336Y-101.2347

G1X58.9590Y-106.0934

G1X57.7353Y-111.3616

G1X56.7973Y-116.2936

G1X56.1860Y-120.6756

G1X55.8474Y-124.8606

G1X55.7838Y-128.4160

G1X55.9907Y-133.0137

G1X56.4310Y-138.3622

G1X57.7250Y-151.1890

G1X58.0173Y-155.2571

G1X58.1728Y-158.9869

G1X58.1853Y-163.7138

G1X57.9874Y-168.2617

G1X57.6789Y-171.9160

G1X56.9565Y-177.8738

G1X56.7845Y-179.9910

G1X56.9034Y-182.4404

G1X57.3717Y-184.7020

G1X58.1102Y-186.5721

G1X59.0717Y-188.1585

G1X60.3133Y-189.6267

G1X61.9986Y-191.0876

G1X63.7110Y-192.2244

G1X65.3825Y-193.1417

G1X71.2656Y-195.8010

G1X73.6297Y-196.9609

G1X75.5960Y-198.1713

G1X77.1507Y-199.4474

G1X78.5353Y-201.0397

G1X79.5709Y-202.7882

G1X80.3524Y-204.8027

G1X80.9066Y-207.1999

G1X81.1621Y-209.3246

G1X81.2654Y-211.7626

G1X81.2043Y-214.5109

G1X80.9802Y-217.5265

G1X80.2351Y-223.4784

G1X78.0907Y-236.5669

G1X77.3848Y-241.5174

G1X76.8961Y-246.6491

G1X76.8052Y-250.9693

G1 Z0F20000

(Start Block)


G1X89.0627Y-20.0000
G1Z5F20000
(Plotting speed under)
G1 F4000


G1X76.0151Y-54.4343

G1X73.3158Y-62.0453

G1X71.1597Y-68.7338

G1X62.9533Y-96.0445

G1X61.3415Y-101.6950

G1X60.0511Y-106.5746

G1X58.8113Y-111.8683

G1X57.8758Y-116.7358

G1X57.2431Y-121.2200

G1X56.9046Y-125.3457

G1X56.8384Y-129.0112

G1X57.0461Y-133.7222

G1X57.4616Y-138.8861

G1X58.7550Y-151.9287

G1X59.0307Y-155.8924

G1X59.1746Y-159.5203

G1X59.1804Y-164.1476

G1X58.9769Y-168.6976

G1X58.6627Y-172.3542

G1X57.9335Y-178.3180

G1X57.7691Y-180.3349

G1X57.8805Y-182.7903

G1X58.3385Y-185.0602

G1X59.0652Y-186.9397

G1X60.0137Y-188.5368

G1X61.2403Y-190.0177

G1X62.9071Y-191.4950

G1X64.6022Y-192.6478

G1X66.2249Y-193.5635

G1X72.1834Y-196.3351

G1X74.5285Y-197.5207

G1X76.3986Y-198.6975

G1X78.0194Y-200.0538

G1X79.3882Y-201.6654

G1X80.4098Y-203.4257

G1X81.1790Y-205.4404

G1X81.7261Y-207.8348

G1X81.9797Y-209.9622

G1X82.0827Y-212.3877

G1X82.0287Y-215.0446

G1X81.8066Y-218.1297

G1X81.0781Y-224.0525

G1X78.9996Y-236.9804

G1X78.3129Y-241.9095

G1X77.8429Y-247.0206

G1X77.7660Y-251.3255

G1 Z0F20000

(Start Block)


G1X90.3579Y-20.0000
G1Z5F20000
(Plotting speed under)
G1 F4000


G1X77.3488Y-54.4581

G1X74.6394Y-62.1125

G1X72.4803Y-68.8122

G1X64.0921Y-96.5430

G1X62.4783Y-102.1504

G1X61.1730Y-107.0366

G1X59.9099Y-112.3736

G1X58.9590Y-117.2674

G1X58.3279Y-121.6729

G1X57.9748Y-125.8854

G1X57.9072Y-129.6009

G1X58.1336Y-134.7266

G1X58.5267Y-139.6049

G1X59.8067Y-152.5483

G1X60.0794Y-156.5045

G1X60.2164Y-160.0266

G1X60.2184Y-164.6515

G1X60.0149Y-169.0996

G1X59.6969Y-172.7572

G1X58.9732Y-178.6231

G1X58.8044Y-180.6438

G1X58.9176Y-183.2060

G1X59.3788Y-185.4878

G1X60.1049Y-187.3759

G1X61.0476Y-188.9768

G1X62.2639Y-190.4652

G1X63.9137Y-191.9556

G1X65.5892Y-193.1243

G1X67.1938Y-194.0558

G1X72.9872Y-196.8576

G1X75.3086Y-198.0728

G1X77.1628Y-199.2715

G1X78.7729Y-200.6444

G1X80.1362Y-202.2668

G1X81.1573Y-204.0312

G1X81.9583Y-206.1399

G1X82.4992Y-208.5308

G1X82.7525Y-210.6594

G1X82.8570Y-213.0702

G1X82.8086Y-215.7124

G1X82.6048Y-218.6814

G1X81.9189Y-224.4697

G1X79.8919Y-237.4197

G1X79.2294Y-242.3215

G1X78.7833Y-247.3894

G1X78.7217Y-251.6945

G1 Z0F20000

(Start Block)


G1X91.6711Y-20.0000
G1Z5F20000
(Plotting speed under)
G1 F4000


G1X78.6914Y-54.5344

G1X76.0150Y-62.1178

G1X73.8781Y-68.7493

G1X65.2090Y-97.2097

G1X62.3238Y-107.4800

G1X61.0328Y-112.8644

G1X60.0630Y-117.7879

G1X59.4191Y-122.2184

G1X59.0588Y-126.4520

G1X58.9918Y-130.2861

G1X59.2272Y-135.6363

G1X59.6174Y-140.4174

G1X60.8896Y-153.1481

G1X61.1587Y-156.9920

G1X61.2986Y-160.5055

G1X61.3034Y-165.0229

G1X61.1011Y-169.4678

G1X60.7917Y-173.0220

G1X60.0518Y-178.9966

G1X59.8863Y-181.0149

G1X60.0018Y-183.5893

G1X60.4618Y-185.8863

G1X61.1821Y-187.7871

G1X62.1128Y-189.3967

G1X63.3117Y-190.8982

G1X64.8569Y-192.3453

G1X66.5828Y-193.6013

G1X68.1615Y-194.5556

G1X74.1299Y-197.5983

G1X76.1438Y-198.7177

G1X77.9672Y-199.9524

G1X79.5544Y-201.3601

G1X80.8967Y-203.0097

G1X81.9019Y-204.7896

G1X82.6908Y-206.9001

G1X83.2267Y-209.2867

G1X83.4811Y-211.4150

G1X83.5879Y-213.7081

G1X83.5529Y-216.3345

G1X83.3574Y-219.3803

G1X82.7083Y-225.0702

G1X80.7623Y-237.9223

G1X80.1345Y-242.7533

G1X79.7153Y-247.7914

G1X79.6721Y-252.0764

G1 Z0F20000

(Start Block)


G1X93.0020Y-20.0000
G1Z5F20000
(Plotting speed under)
G1 F4000


G1X89.5008Y-29.4936

G1X81.5489Y-50.5602

G1X77.8846Y-60.7627

G1X75.5336Y-67.9595

G1X72.3136Y-78.6211

G1X67.2325Y-94.9822

G1X64.1230Y-105.5893

G1X62.9964Y-109.8879

G1X62.1175Y-113.6198

G1X61.3927Y-117.1609

G1X60.8121Y-120.6173

G1X60.4043Y-123.8648

G1X60.1579Y-127.0124

G1X60.0895Y-130.9666

G1X60.3216Y-136.3438

G1X60.7155Y-141.1212

G1X62.0217Y-153.9300

G1X62.2915Y-157.7567

G1X62.4253Y-161.1187

G1X62.4285Y-165.5658

G1X62.2278Y-169.9024

G1X61.9138Y-173.4586

G1X61.1919Y-179.2316

G1X61.0204Y-181.2551

G1X61.1205Y-183.8419

G1X61.3127Y-185.1155

G1X61.5738Y-186.2134

G1X62.2513Y-188.0785

G1X63.2077Y-189.7975

G1X64.3823Y-191.3179

G1X65.8943Y-192.7916

G1X67.4992Y-194.0215

G1X69.1270Y-195.0640

G1X75.0791Y-198.2971

G1X76.9518Y-199.4093

G1X78.7286Y-200.6799

G1X80.2921Y-202.1303

G1X81.6113Y-203.8104

G1X82.6002Y-205.6071

G1X83.3773Y-207.7195

G1X83.9093Y-210.1008

G1X84.1664Y-212.2274

G1X84.2793Y-214.5579

G1X84.2538Y-217.1079

G1X84.0814Y-220.0340

G1X83.4728Y-225.6726

G1X81.6223Y-238.4119

G1X81.0332Y-243.1578

G1X80.6400Y-248.2086

G1X80.6174Y-252.4710

G1 Z0F20000

(Start Block)


G1X94.3502Y-20.0000
G1Z5F20000
(Plotting speed under)
G1 F4000


G1X90.8639Y-29.5105

G1X82.9413Y-50.6266

G1X79.3158Y-60.7746

G1X77.1388Y-67.4389

G1X73.6877Y-78.8109

G1X67.9520Y-97.1276

G1X65.0741Y-106.9538

G1X63.9904Y-111.1030

G1X63.1314Y-114.7764

G1X62.4287Y-118.2535

G1X61.8873Y-121.5252

G1X61.5040Y-124.6101

G1X61.2717Y-127.5667

G1X61.2032Y-131.8444

G1X61.4372Y-137.1484

G1X61.8813Y-142.3179

G1X63.1787Y-154.5885

G1X63.4506Y-158.2948

G1X63.5914Y-161.6506

G1X63.6002Y-165.9675

G1X63.4013Y-170.3011

G1X63.1058Y-173.6545

G1X62.3618Y-179.5950

G1X62.1988Y-181.5638

G1X62.3062Y-184.2621

G1X62.4832Y-185.4502

G1X62.7643Y-186.6503

G1X63.4351Y-188.5217

G1X64.3385Y-190.1929

G1X65.4739Y-191.7255

G1X66.9447Y-193.2327

G1X68.5050Y-194.5004

G1X70.0891Y-195.5819

G1X75.8024Y-198.9208

G1X77.6349Y-200.0810

G1X79.3785Y-201.3944

G1X80.9186Y-202.8782

G1X82.2246Y-204.5806

G1X83.2708Y-206.5225

G1X84.0461Y-208.6928

G1X84.5639Y-211.0688

G1X84.8183Y-213.1998

G1X84.9297Y-215.4071

G1X84.9158Y-217.9606

G1X84.7625Y-220.8310

G1X84.1948Y-226.4155

G1X82.4797Y-238.8264

G1X81.9155Y-243.6291

G1X81.5576Y-248.6409

G1X81.5577Y-252.8784

G1 Z0F20000

(Start Block)


G1X95.7153Y-20.0000
G1Z5F20000
(Plotting speed under)
G1 F4000


G1X92.2255Y-29.5824

G1X84.4416Y-50.4669

G1X80.8542Y-60.5546

G1X78.8204Y-66.7723

G1X75.1034Y-78.9644

G1X68.8419Y-98.7810

G1X66.1529Y-107.9206

G1X65.0985Y-111.9303

G1X64.2222Y-115.6582

G1X63.5377Y-119.0364

G1X63.0060Y-122.2373

G1X62.6312Y-125.2265

G1X62.3982Y-128.1418

G1X62.3298Y-132.8226

G1X62.5679Y-137.9463

G1X63.0276Y-143.1022

G1X64.3698Y-155.2242

G1X64.6523Y-158.8922

G1X64.8009Y-162.2570

G1X64.8128Y-166.4570

G1X64.6206Y-170.6672

G1X64.3335Y-173.9203

G1X63.5858Y-179.8638

G1X63.4238Y-181.8323

G1X63.5157Y-184.4800

G1X63.6942Y-185.7569

G1X63.9650Y-186.9648

G1X64.6139Y-188.8611

G1X65.4858Y-190.5564

G1X66.5851Y-192.1222

G1X68.0343Y-193.6966

G1X69.5144Y-194.9825

G1X71.1293Y-196.1672

G1X76.6765Y-199.6863

G1X78.4568Y-200.9144

G1X80.1447Y-202.2906

G1X81.6376Y-203.8302

G1X82.9054Y-205.5799

G1X83.8770Y-207.4498

G1X84.6433Y-209.6255

G1X85.1601Y-211.9939

G1X85.4205Y-214.1197

G1X85.5409Y-216.3073

G1X85.5444Y-218.7353

G1X85.4157Y-221.5813

G1X84.8957Y-227.1411

G1X83.2904Y-239.5035

G1X82.7819Y-244.1733

G1X82.4686Y-249.0698

G1X82.4928Y-253.2988

G1 Z0F20000

(Start Block)


G1X97.0968Y-20.0000
G1Z5F20000
(Plotting speed under)
G1 F4000


G1X93.4481Y-30.0846

G1X85.9801Y-50.2655

G1X82.4219Y-60.3257

G1X80.6063Y-65.8677

G1X76.5655Y-79.0622

G1X69.5141Y-101.1862

G1X67.0045Y-109.7777

G1X65.2768Y-116.7748

G1X64.6187Y-120.0480

G1X64.1247Y-123.0444

G1X63.7714Y-125.8520

G1X63.5405Y-128.6766

G1X63.4640Y-133.5026

G1X63.7144Y-138.7370

G1X64.1865Y-143.7937

G1X65.5857Y-155.7361

G1X65.8803Y-159.2847

G1X66.0481Y-162.7317

G1X66.0706Y-166.8004

G1X65.8843Y-171.0012

G1X65.6065Y-174.1534

G1X64.8552Y-180.1003

G1X64.6934Y-182.0692

G1X64.7835Y-184.8367

G1X64.9622Y-186.1410

G1X65.2268Y-187.3530

G1X65.8234Y-189.1801

G1X66.7066Y-190.9908

G1X67.7750Y-192.5895

G1X69.1076Y-194.1349

G1X70.5377Y-195.4787

G1X72.1517Y-196.7650

G1X77.5165Y-200.4924

G1X79.2391Y-201.7950

G1X80.8675Y-203.2388

G1X82.2467Y-204.7571

G1X83.4865Y-206.5451

G1X84.4793Y-208.5243

G1X85.2247Y-210.7089

G1X85.7307Y-213.0685

G1X85.9917Y-215.1854

G1X86.1175Y-217.3575

G1X86.1320Y-219.7909

G1X86.0238Y-222.5676

G1X85.5687Y-227.9064

G1X84.1043Y-240.0655

G1X83.6429Y-244.6824

G1X83.3718Y-249.5322

G1X83.4228Y-253.7319

G1 Z0F20000

(Start Block)


G1X98.4946Y-20.0000
G1Z5F20000
(Plotting speed under)
G1 F4000


G1X94.8763Y-30.0799

G1X87.5219Y-50.1160

G1X84.0721Y-59.9273

G1X82.0135Y-66.2533

G1X77.7861Y-80.0080

G1X70.4644Y-102.7333

G1X68.0474Y-110.9823

G1X66.3871Y-117.7032

G1X65.7607Y-120.8030

G1X65.2650Y-123.7935

G1X64.9142Y-126.5798

G1X64.6964Y-129.2057

G1X64.6096Y-134.0735

G1X64.8789Y-139.5377

G1X65.3545Y-144.3644

G1X66.8347Y-156.2187

G1X67.1443Y-159.6518

G1X67.3348Y-163.1779

G1X67.3679Y-167.2254

G1X67.1910Y-171.3039

G1X66.9236Y-174.3496

G1X66.1680Y-180.3054

G1X66.0050Y-182.2895

G1X66.0986Y-185.2642

G1X66.2779Y-186.5748

G1X66.5522Y-187.8469

G1X67.1359Y-189.6733

G1X67.9965Y-191.5086

G1X69.0342Y-193.1348

G1X70.2582Y-194.6488

G1X71.6277Y-196.0437

G1X73.2510Y-197.4561

G1X78.3215Y-201.3400

G1X79.9563Y-202.7006

G1X81.5469Y-204.2381

G1X82.8743Y-205.8128

G1X84.0817Y-207.6610

G1X85.0381Y-209.6517

G1X85.7642Y-211.8438

G1X86.2683Y-214.2348

G1X86.5251Y-216.2979

G1X86.6577Y-218.4249

G1X86.6888Y-220.7573

G1X86.6063Y-223.5085

G1X86.2095Y-228.7640

G1X84.8993Y-240.6902

G1X84.4934Y-245.2101

G1X84.2679Y-250.0096

G1X84.3476Y-254.1781

G1 Z0F20000

(Start Block)


G1X99.9080Y-20.0000
G1Z5F20000
(Plotting speed under)
G1 F4000


G1X96.1660Y-30.5078

G1X89.1995Y-49.6471

G1X85.7917Y-59.3920

G1X83.7588Y-65.6446

G1X79.3904Y-79.8206

G1X71.2879Y-104.7307

G1X69.0657Y-112.3244

G1X67.4683Y-118.8217

G1X66.8801Y-121.7507

G1X66.4131Y-124.5743

G1X66.0808Y-127.1992

G1X65.8594Y-129.8287

G1X65.7716Y-134.8080

G1X66.0661Y-140.3951

G1X66.5690Y-145.1258

G1X68.1406Y-156.8886

G1X68.4744Y-160.3858

G1X68.6673Y-163.7855

G1X68.7043Y-167.7159

G1X68.5320Y-171.6762

G1X68.2599Y-174.7129

G1X67.4765Y-180.8856

G1X67.3533Y-182.5800

G1X67.4392Y-185.5756

G1X67.6109Y-186.9062

G1X67.8940Y-188.2851

G1X68.4678Y-190.1546

G1X69.2524Y-191.9327

G1X70.2952Y-193.6833

G1X71.4742Y-195.2482

G1X72.6386Y-196.5482

G1X74.1780Y-198.0371

G1X79.0909Y-202.2292

G1X80.7253Y-203.7383

G1X82.2513Y-205.3663

G1X83.5129Y-206.9989

G1X84.6247Y-208.8142

G1X85.5925Y-210.9262

G1X86.2895Y-213.1263

G1X86.7785Y-215.5128

G1X87.0223Y-217.4517

G1X87.1657Y-219.5677

G1X87.1596Y-224.4773

G1X86.8305Y-229.6033

G1X85.6808Y-241.3384

G1X85.3300Y-245.8106

G1X85.1565Y-250.5830

G1X85.2672Y-254.6371

G1 Z0F20000

(Start Block)


G1X101.3367Y-20.0000
G1Z5F20000
(Plotting speed under)
G1 F4000


G1X90.8104Y-49.4176

G1X87.6111Y-58.6238

G1X85.5916Y-64.8334

G1X81.0186Y-79.6378

G1X72.2352Y-106.3531

G1X70.1289Y-113.5463

G1X68.6033Y-119.7435

G1X67.5885Y-125.2506

G1X67.2649Y-127.7710

G1X67.0473Y-130.2586

G1X66.9434Y-135.3591

G1X67.2476Y-140.9562

G1X67.7812Y-145.6706

G1X69.4979Y-157.6516

G1X69.8465Y-161.1200

G1X70.0392Y-164.3636

G1X70.0800Y-168.1770

G1X69.9124Y-172.0191

G1X69.6576Y-174.8493

G1X68.8694Y-181.0324

G1X68.7354Y-182.9514

G1X68.8299Y-186.0678

G1X69.2807Y-188.8048

G1X69.8291Y-190.6679

G1X70.5653Y-192.4452

G1X71.5540Y-194.2385

G1X72.6795Y-195.8623

G1X73.7148Y-197.1378

G1X75.1665Y-198.7053

G1X79.8973Y-203.2312

G1X81.4481Y-204.8291

G1X82.9410Y-206.5928

G1X84.1049Y-208.2392

G1X85.2124Y-210.1878

G1X86.1046Y-212.2510

G1X86.7759Y-214.4555

G1X87.2687Y-216.9358

G1X87.5049Y-218.8421

G1X87.6526Y-220.9546

G1X87.6813Y-225.6001

G1X87.4121Y-230.6823

G1X86.4446Y-242.0676

G1X86.1578Y-246.4306

G1X86.0393Y-251.0891

G1X86.1814Y-255.1093

G1 Z0F20000

(Start Block)


G1X102.7802Y-20.0000
G1Z5F20000
(Plotting speed under)
G1 F4000


G1X92.5195Y-48.9625

G1X89.5290Y-57.6196

G1X87.4984Y-63.8562

G1X82.6342Y-79.5656

G1X75.3537Y-101.2766

G1X73.2787Y-107.6943

G1X71.2213Y-114.6943

G1X69.7638Y-120.5970

G1X68.7748Y-125.9315

G1X68.2426Y-130.7734

G1X68.1357Y-133.2790

G1X68.1286Y-135.9044

G1X68.2286Y-138.6160

G1X68.4465Y-141.5081

G1X69.0297Y-146.3019

G1X70.8801Y-158.2753

G1X71.2565Y-161.8097

G1X71.4551Y-165.0582

G1X71.4899Y-168.8114

G1X71.3229Y-172.4341

G1X71.0808Y-175.0569

G1X70.2989Y-181.1518

G1X70.1714Y-182.7698

G1X70.1657Y-185.3307

G1X70.3960Y-187.7623

G1X70.7833Y-189.7389

G1X71.3784Y-191.6981

G1X72.1183Y-193.4739

G1X73.0628Y-195.2417

G1X74.2855Y-197.0868

G1X75.6119Y-198.7772

G1X81.4015Y-205.1224

G1X82.5697Y-206.5245

G1X83.7732Y-208.1550

G1X84.9611Y-210.0652

G1X85.9246Y-211.9832

G1X86.6334Y-213.7874

G1X87.2258Y-215.8276

G1X87.6619Y-217.9914

G1X87.9611Y-220.3085

G1X88.1410Y-222.9710

G1X88.1882Y-225.8598

G1X88.0092Y-231.2321

G1X87.2016Y-242.7601

G1X86.9754Y-247.1117

G1X86.9150Y-251.5931

G1X87.0902Y-255.5945

G1 Z0F20000

(Start Block)


G1X104.2382Y-20.0000
G1Z5F20000
(Plotting speed under)
G1 F4000


G1X91.5440Y-56.3756

G1X89.4397Y-62.8330

G1X86.3921Y-72.8363

G1X84.2669Y-79.5055

G1X76.5560Y-102.2160

G1X74.2472Y-109.3022

G1X72.3110Y-115.8817

G1X70.9251Y-121.4930

G1X69.9755Y-126.5911

G1X69.4502Y-131.2883

G1X69.3342Y-133.8984

G1X69.3271Y-136.4437

G1X69.4314Y-139.1605

G1X69.6556Y-141.9751

G1X70.3023Y-146.9178

G1X72.2849Y-158.7716

G1X72.6859Y-162.2692

G1X72.8984Y-165.4919

G1X72.9405Y-169.1158

G1X72.7752Y-172.7222

G1X72.5386Y-175.2382

G1X71.7592Y-181.2734

G1X71.6193Y-183.0726

G1X71.6170Y-185.9571

G1X71.8707Y-188.5369

G1X72.2608Y-190.5366

G1X72.8210Y-192.4651

G1X73.5320Y-194.2757

G1X74.3874Y-196.0132

G1X75.4289Y-197.7660

G1X76.7801Y-199.7060

G1X82.1995Y-206.4330

G1X84.3161Y-209.4488

G1X85.4521Y-211.4218

G1X86.3785Y-213.3705

G1X87.0597Y-215.1814

G1X87.6401Y-217.2319

G1X88.0723Y-219.3871

G1X88.3775Y-221.6785

G1X88.5711Y-224.2028

G1X88.6530Y-227.0423

G1X88.5501Y-232.3698

G1X87.9419Y-243.5759

G1X87.7872Y-247.7682

G1X87.7863Y-252.2281

G1X87.9935Y-256.0929

G1 Z0F20000

(Start Block)


G1X105.7101Y-20.0000
G1Z5F20000
(Plotting speed under)
G1 F4000


G1X93.7887Y-54.4877

G1X91.4743Y-61.5698

G1X88.1826Y-72.3737

G1X85.9787Y-79.2628

G1X83.2431Y-87.3765

G1X77.8654Y-102.8661

G1X75.2149Y-110.9241

G1X73.4219Y-117.0209

G1X72.0970Y-122.3854

G1X71.1845Y-127.2656

G1X70.6702Y-131.7978

G1X70.5441Y-134.5188

G1X70.5410Y-137.0774

G1X70.6497Y-139.6971

G1X70.8907Y-142.5169

G1X71.6159Y-147.6156

G1X73.7035Y-159.1080

G1X74.1369Y-162.5744

G1X74.3711Y-165.7978

G1X74.4246Y-169.3627

G1X74.2674Y-172.8846

G1X74.0404Y-175.2947

G1X73.2430Y-181.4397

G1X73.0852Y-183.5731

G1X73.0850Y-186.5010

G1X73.3519Y-189.3084

G1X73.7160Y-191.2614

G1X74.2445Y-193.2258

G1X74.9581Y-195.2021

G1X75.7725Y-197.0002

G1X76.6827Y-198.7030

G1X77.8454Y-200.5973

G1X82.9367Y-207.8097

G1X84.9641Y-211.0521

G1X85.9526Y-212.9255

G1X86.8739Y-214.9916

G1X87.5421Y-216.9006

G1X88.0645Y-218.8483

G1X88.4718Y-220.9153

G1X88.7758Y-223.1379

G1X88.9857Y-225.5965

G1X89.0994Y-228.3634

G1X89.0773Y-233.5394

G1X88.5911Y-248.4801

G1X88.6487Y-252.7624

G1X88.8911Y-256.6044

G1 Z0F20000

(Start Block)


G1X107.1957Y-20.0000
G1Z5F20000
(Plotting speed under)
G1 F4000


G1X95.1798Y-55.1967

G1X93.0022Y-61.9758

G1X89.5090Y-73.4524

G1X87.1240Y-80.7748

G1X78.9207Y-104.2800

G1X76.3326Y-112.0833

G1X74.6043Y-117.9277

G1X73.2927Y-123.2089

G1X72.4044Y-127.9357

G1X71.9023Y-132.3020

G1X71.7686Y-135.0461

G1X71.7688Y-137.7043

G1X71.8905Y-140.3249

G1X72.1441Y-143.0480

G1X72.9215Y-148.1043

G1X74.5835Y-156.2701

G1X75.1589Y-159.4661

G1X75.6113Y-162.7908

G1X75.8736Y-166.0548

G1X75.9399Y-169.5224

G1X75.7916Y-172.9908

G1X75.5597Y-175.4277

G1X74.7550Y-181.5842

G1X74.5767Y-184.0087

G1X74.5748Y-187.2076

G1X74.8498Y-190.2090

G1X75.2249Y-192.3078

G1X75.7361Y-194.3136

G1X76.3794Y-196.2546

G1X77.2312Y-198.3224

G1X79.0966Y-201.9304

G1X83.7257Y-209.4381

G1X85.7357Y-213.0681

G1X86.6836Y-215.0791

G1X87.3661Y-216.7567

G1X87.9885Y-218.6603

G1X88.4680Y-220.5333

G1X88.8630Y-222.5648

G1X89.1712Y-224.7743

G1X89.5313Y-229.7207

G1X89.5929Y-234.8415

G1X89.3888Y-249.1710

G1X89.5045Y-253.3255

G1X89.7829Y-257.1293

G1 Z0F20000

(Start Block)


G1X108.6944Y-20.0000
G1Z5F20000
(Plotting speed under)
G1 F4000


G1X97.0470Y-54.5196

G1X94.9063Y-61.2279

G1X91.5418Y-72.3299

G1X89.2147Y-79.4951

G1X86.3758Y-87.7356

G1X80.0236Y-105.5567

G1X77.4683Y-113.2040

G1X75.7839Y-118.8698

G1X74.5043Y-123.9972

G1X73.6409Y-128.5615

G1X73.1495Y-132.7547

G1X73.0087Y-135.4627

G1X73.0057Y-138.1235

G1X73.1333Y-140.7450

G1X73.4032Y-143.4669

G1X74.2316Y-148.4850

G1X76.0037Y-156.5225

G1X76.6260Y-159.7014

G1X77.1253Y-163.0869

G1X77.4064Y-166.3224

G1X77.4826Y-169.6599

G1X77.3400Y-173.1132

G1X77.1057Y-175.5394

G1X76.2920Y-181.7091

G1X76.0764Y-184.6652

G1X76.0791Y-188.1304

G1X76.3826Y-191.4713

G1X76.7419Y-193.5726

G1X77.2350Y-195.6440

G1X77.8259Y-197.5883

G1X78.5934Y-199.6732

G1X79.4318Y-201.6260

G1X80.4975Y-203.8283

G1X84.7093Y-211.6568

G1X86.4347Y-215.1634

G1X87.2756Y-217.1053

G1X87.8684Y-218.7102

G1X88.4310Y-220.5537

G1X88.8859Y-222.4260

G1X89.2649Y-224.4228

G1X89.5768Y-226.6316

G1X89.9606Y-231.2745

G1X90.1073Y-236.3919

G1X90.1827Y-249.9815

G1X90.3588Y-253.9895

G1X90.6687Y-257.6674

G1 Z0F20000

(Start Block)


G1X110.2056Y-20.0000
G1Z5F20000
(Plotting speed under)
G1 F4000


G1X98.9367Y-53.8082

G1X96.8341Y-60.4447

G1X93.5837Y-71.2232

G1X91.2428Y-78.4509

G1X88.0984Y-87.5268

G1X81.2099Y-106.6003

G1X78.4781Y-114.7340

G1X76.8716Y-120.1655

G1X75.6877Y-124.9482

G1X74.8678Y-129.3110

G1X74.4056Y-133.2400

G1X74.2594Y-135.9516

G1X74.2613Y-138.7391

G1X74.4069Y-141.3542

G1X74.6927Y-143.9765

G1X75.5655Y-148.8688

G1X77.4314Y-156.6869

G1X78.1158Y-159.9042

G1X78.6528Y-163.2542

G1X78.9654Y-166.5686

G1X79.0501Y-169.7772

G1X78.9125Y-173.2160

G1X78.6630Y-175.7323

G1X77.8400Y-181.9158

G1X77.5790Y-185.5250

G1X77.5935Y-189.4676

G1X77.9253Y-193.1016

G1X78.2746Y-195.2183

G1X78.7550Y-197.3900

G1X79.3765Y-199.6114

G1X80.1469Y-201.8912

G1X81.8459Y-206.0440

G1X85.7991Y-214.4499

G1X87.4513Y-218.2326

G1X88.5132Y-221.2863

G1X89.3045Y-224.4424

G1X89.9589Y-228.3771

G1X90.3974Y-232.9904

G1X90.6302Y-237.9420

G1X90.9754Y-250.8354

G1X91.2095Y-254.6798

G1X91.5485Y-258.2188

G1 Z0F20000

(Start Block)


G1X111.7288Y-20.0000
G1Z5F20000
(Plotting speed under)
G1 F4000


G1X100.8153Y-53.1616

G1X98.7831Y-59.6277

G1X95.6278Y-70.1480

G1X93.2848Y-77.4075

G1X89.8436Y-87.2897

G1X82.4789Y-107.4193

G1X79.5982Y-115.9216

G1X78.0576Y-121.1230

G1X76.9155Y-125.7323

G1X76.1301Y-129.8916

G1X75.6729Y-133.7199

G1X75.5222Y-136.4515

G1X75.5290Y-139.2524

G1X75.6977Y-141.9529

G1X76.0006Y-144.4746

G1X76.8943Y-149.1299

G1X78.9035Y-156.9346

G1X79.6325Y-160.1086

G1X80.2051Y-163.4157

G1X80.5478Y-166.7922

G1X80.6390Y-169.9729

G1X80.4985Y-173.4048

G1X80.2408Y-175.9085

G1X79.4059Y-182.1130

G1X79.0805Y-186.4807

G1X79.0885Y-190.9293

G1X79.4730Y-195.2671

G1X79.8201Y-197.4662

G1X80.3094Y-199.8229

G1X80.9372Y-202.2443

G1X81.6488Y-204.5593

G1X83.4685Y-209.5026

G1X87.9736Y-220.3335

G1X88.9406Y-223.3132

G1X89.7252Y-226.5561

G1X90.3825Y-230.4688

G1X90.8612Y-234.9461

G1X91.1585Y-239.3957

G1X91.7592Y-251.5771

G1X92.0467Y-255.2825

G1X92.4219Y-258.7837

G1 Z0F20000

(Start Block)


G1X113.2633Y-20.0000
G1Z5F20000
(Plotting speed under)
G1 F4000


G1X102.7745Y-52.2893

G1X100.7512Y-58.7785

G1X97.5937Y-69.3593

G1X95.2652Y-76.5837

G1X91.5754Y-87.1206

G1X83.6522Y-108.5147

G1X80.7950Y-116.8782

G1X79.3166Y-121.8362

G1X78.1902Y-126.3389

G1X77.4097Y-130.4222

G1X76.9489Y-134.2256

G1X76.7976Y-136.9448

G1X76.8076Y-139.6553

G1X76.9870Y-142.3464

G1X77.3111Y-144.8623

G1X77.6862Y-146.9397

G1X78.2640Y-149.4789

G1X80.3686Y-157.0596

G1X81.1707Y-160.2959

G1X81.7920Y-163.6524

G1X82.1574Y-167.0914

G1X82.2464Y-170.2563

G1X82.1021Y-173.5788

G1X81.8362Y-176.0701

G1X80.9404Y-182.7065

G1X80.5540Y-187.9250

G1X80.5062Y-190.5372

G1X80.5658Y-193.1489

G1X80.7260Y-195.6094

G1X80.9990Y-198.1352

G1X81.3619Y-200.5272

G1X81.8433Y-202.9919

G1X83.1122Y-207.8952

G1X84.8970Y-213.2356

G1X88.5765Y-222.8294

G1X89.4718Y-225.8261

G1X90.1961Y-228.9642

G1X90.8404Y-232.7347

G1X91.3486Y-236.9226

G1X92.5569Y-252.5523

G1X93.2889Y-259.3619

G1 Z0F20000

(Start Block)


G1X114.8089Y-20.0000
G1Z5F20000
(Plotting speed under)
G1 F4000


G1X104.7491Y-51.3873

G1X99.6134Y-68.4257

G1X97.2177Y-75.8739

G1X93.2564Y-87.1141

G1X84.7635Y-109.7777

G1X82.0073Y-117.8001

G1X80.5808Y-122.5538

G1X79.4592Y-127.0063

G1X78.6969Y-130.9642

G1X78.2392Y-134.6869

G1X78.0882Y-137.3298

G1X78.1000Y-140.0505

G1X78.2916Y-142.7373

G1X78.6377Y-145.2402

G1X79.0486Y-147.3507

G1X79.6345Y-149.7484

G1X81.8540Y-157.1857

G1X82.7515Y-160.5661

G1X83.4294Y-164.0681

G1X83.7923Y-167.4736

G1X83.8701Y-170.5087

G1X83.7285Y-173.6364

G1X82.4349Y-183.7070

G1X82.1505Y-186.8324

G1X81.9761Y-189.9280

G1X81.9177Y-193.0615

G1X81.9812Y-196.0514

G1X82.1661Y-199.0122

G1X82.4751Y-201.9448

G1X83.2826Y-206.8451

G1X84.4793Y-211.8167

G1X86.0195Y-216.7507

G1X88.2977Y-222.8637

G1X89.1119Y-225.2627

G1X89.9865Y-228.3577

G1X90.7112Y-231.5673

G1X91.3343Y-235.0802

G1X91.8844Y-239.0742

G1X93.3687Y-253.6267

G1X94.1493Y-259.9535

G1 Z0F20000

(Start Block)


G1X116.3650Y-20.0000
G1Z5F20000
(Plotting speed under)
G1 F4000


G1X106.8322Y-50.1516

G1X101.6133Y-67.5805

G1X99.1542Y-75.2363

G1X94.9882Y-86.9884

G1X86.0375Y-110.5908

G1X83.1841Y-118.8447

G1X81.8222Y-123.3754

G1X80.7568Y-127.5809

G1X79.9981Y-131.4763

G1X79.5493Y-135.0433

G1X79.3913Y-137.7080

G1X79.4060Y-140.4378

G1X79.6117Y-143.1252

G1X79.9800Y-145.6082

G1X80.3957Y-147.6088

G1X81.0132Y-149.9812

G1X83.3845Y-157.3973

G1X84.3766Y-160.9168

G1X85.0772Y-164.4062

G1X85.4426Y-167.8422

G1X85.5064Y-170.7771

G1X85.3596Y-173.7653

G1X83.8874Y-185.0369

G1X83.5360Y-188.8089

G1X83.3154Y-192.4703

G1X83.2266Y-196.1067

G1X83.2771Y-199.6174

G1X83.4635Y-202.9795

G1X83.7980Y-206.3424

G1X84.5285Y-210.9968

G1X85.5875Y-215.6116

G1X86.7814Y-219.5885

G1X88.6750Y-224.8115

G1X89.5658Y-227.5222

G1X90.4494Y-230.6956

G1X91.2435Y-234.1546

G1X91.9211Y-237.7635

G1X92.5583Y-241.8762

G1X95.0027Y-260.5585

G1 Z0F20000

(Start Block)


G1X117.9313Y-20.0000
G1Z5F20000
(Plotting speed under)
G1 F4000


G1X108.8895Y-49.0025

G1X103.6564Y-66.6128

G1X101.1218Y-74.5267

G1X99.1071Y-80.3450

G1X96.6794Y-86.9871

G1X87.3033Y-111.4304

G1X84.3705Y-119.8656

G1X83.0163Y-124.3845

G1X82.0143Y-128.3670

G1X81.2912Y-132.0947

G1X80.8611Y-135.5029

G1X80.7040Y-138.1809

G1X80.7255Y-140.8173

G1X80.9344Y-143.4027

G1X81.3193Y-145.8703

G1X81.7568Y-147.8583

G1X82.3763Y-150.1074

G1X85.0879Y-158.0720

G1X86.0215Y-161.2500

G1X86.7527Y-164.8057

G1X87.1079Y-168.2611

G1X87.1504Y-171.1224

G1X86.9893Y-173.9856

G1X85.2725Y-186.7703

G1X84.8155Y-191.3552

G1X84.5148Y-195.7330

G1X84.3759Y-199.7957

G1X84.3914Y-203.6387

G1X84.5592Y-207.2565

G1X84.8849Y-210.7434

G1X85.5390Y-215.0096

G1X86.4513Y-219.0202

G1X87.3683Y-222.0831

G1X89.0710Y-226.8629

G1X90.0436Y-229.8864

G1X91.0245Y-233.4167

G1X91.8937Y-237.1029

G1X93.3404Y-244.8255

G1X95.8492Y-261.1768

G1 Z0F20000

(Start Block)


G1X119.5072Y-20.0000
G1Z5F20000
(Plotting speed under)
G1 F4000


G1X110.0383Y-50.8464

G1X105.5107Y-66.2798

G1X103.0529Y-73.9411

G1X100.8918Y-80.1550

G1X98.3646Y-87.0121

G1X88.6850Y-111.9624

G1X86.9514Y-116.7418

G1X85.6019Y-120.7550

G1X84.2947Y-125.1080

G1X83.3242Y-128.9506

G1X82.6243Y-132.5223

G1X82.1945Y-135.8419

G1X82.0308Y-138.5782

G1X82.0583Y-141.1889

G1X82.2722Y-143.6887

G1X82.6900Y-146.2170

G1X83.1569Y-148.1967

G1X83.8123Y-150.4202

G1X86.6683Y-158.2808

G1X87.6431Y-161.4201

G1X88.0583Y-163.1256

G1X88.4249Y-165.0929

G1X88.7826Y-168.7320

G1X88.7926Y-171.6687

G1X88.5916Y-174.5010

G1X86.5382Y-189.0974

G1X85.9383Y-194.4936

G1X85.5401Y-199.3010

G1X85.3266Y-203.6666

G1X85.2897Y-207.5507

G1X85.4197Y-211.1967

G1X85.7170Y-214.5952

G1X86.2795Y-218.3176

G1X87.0723Y-221.7918

G1X87.8000Y-224.2118

G1X89.4599Y-228.9198

G1X90.5561Y-232.3409

G1X91.6287Y-236.1114

G1X92.6395Y-240.1732

G1X94.3425Y-248.3826

G1X96.6885Y-261.8084

G1 Z0F20000

(Start Block)


G1X121.0923Y-20.0000
G1Z5F20000
(Plotting speed under)
G1 F4000


G1X111.9416Y-50.2459

G1X107.6027Y-65.1760

G1X104.9946Y-73.3356

G1X103.0795Y-78.8518

G1X100.8490Y-84.9340

G1X98.1618Y-91.9324

G1X90.5361Y-111.2649

G1X88.4941Y-116.7747

G1X86.8858Y-121.4925

G1X85.5949Y-125.7719

G1X84.6513Y-129.4902

G1X83.9707Y-132.9243

G1X83.5394Y-136.1745

G1X83.3733Y-138.8311

G1X83.3989Y-141.4519

G1X83.6212Y-143.9540

G1X84.0562Y-146.4661

G1X84.5448Y-148.4292

G1X85.2307Y-150.6277

G1X88.2538Y-158.4555

G1X89.2936Y-161.6425

G1X89.7564Y-163.5073

G1X90.1056Y-165.3724

G1X90.3362Y-167.2574

G1X90.4548Y-169.0970

G1X90.4355Y-172.1157

G1X90.1647Y-175.2242

G1X87.5454Y-192.6948

G1X86.8574Y-198.1383

G1X86.3779Y-202.9112

G1X86.0940Y-207.1622

G1X85.9968Y-210.9209

G1X86.0782Y-214.4783

G1X86.3371Y-217.7147

G1X86.8466Y-221.1227

G1X87.5889Y-224.2901

G1X91.2731Y-235.3759

G1X92.4952Y-239.5398

G1X93.6333Y-243.8489

G1X95.5649Y-252.3171

G1X97.5203Y-262.4533

G1 Z0F20000

(Start Block)


G1X122.6863Y-20.0000
G1Z5F20000
(Plotting speed under)
G1 F4000


G1X113.7951Y-49.8224

G1X109.8184Y-63.6597

G1X107.9060Y-69.8087

G1X105.4744Y-76.9724

G1X102.6655Y-84.6419

G1X99.6304Y-92.4739

G1X92.2999Y-110.8357

G1X89.0307Y-119.6741

G1X87.4414Y-124.5765

G1X86.2656Y-128.8516

G1X85.4144Y-132.8198

G1X84.9047Y-136.4105

G1X84.7251Y-139.1759

G1X84.7517Y-141.7075

G1X84.9824Y-144.2120

G1X85.4130Y-146.6110

G1X85.9069Y-148.5269

G1X86.6070Y-150.6813

G1X89.8500Y-158.6218

G1X90.9537Y-161.8565

G1X91.4497Y-163.8165

G1X91.7903Y-165.6408

G1X92.0234Y-167.6096

G1X92.1279Y-169.5341

G1X92.0459Y-172.9721

G1X91.6158Y-176.7804

G1X88.3222Y-196.7808

G1X87.6094Y-201.6747

G1X87.0873Y-205.9794

G1X86.7359Y-209.9654

G1X86.5669Y-213.6982

G1X86.5903Y-217.0516

G1X86.8187Y-220.3142

G1X87.3018Y-223.5662

G1X88.0401Y-226.6002

G1X92.2557Y-239.0507

G1X93.6451Y-243.5604

G1X94.8993Y-248.0001

G1X96.7618Y-255.4977

G1X98.3446Y-263.1113

G1 Z0F20000

(Start Block)


G1X124.2884Y-20.0000
G1Z5F20000
(Plotting speed under)
G1 F4000


G1X115.7117Y-49.1915

G1X111.8646Y-62.7059

G1X109.7650Y-69.4699

G1X107.2376Y-76.8775

G1X104.2745Y-84.8999

G1X100.9549Y-93.3716

G1X93.8224Y-111.0476

G1X90.4491Y-120.0558

G1X88.8189Y-125.0268

G1X87.6370Y-129.2764

G1X86.7987Y-133.1186

G1X86.2707Y-136.7456

G1X86.0914Y-139.4145

G1X86.1114Y-141.8551

G1X86.3410Y-144.3598

G1X86.7799Y-146.7504

G1X87.3171Y-148.7503

G1X88.0462Y-150.8807

G1X91.4547Y-158.7818

G1X92.5832Y-161.9415

G1X93.0999Y-163.9053

G1X93.4630Y-165.8174

G1X93.7067Y-167.9319

G1X93.7956Y-169.9587

G1X93.6783Y-173.2822

G1X93.1600Y-177.4793

G1X91.7852Y-185.3513

G1X88.8666Y-201.0852

G1X87.6470Y-209.0639

G1X87.2325Y-213.0292

G1X87.0330Y-216.5098

G1X87.0292Y-219.6823

G1X87.2218Y-222.6323

G1X87.6690Y-225.6546

G1X88.3817Y-228.5126

G1X93.6563Y-243.6080

G1X96.1841Y-251.6132

G1X97.8286Y-257.7562

G1X99.1610Y-263.7823

G1 Z0F20000

(Start Block)


G1X125.8978Y-20.0000
G1Z5F20000
(Plotting speed under)
G1 F4000


G1X117.5763Y-48.7432

G1X113.9148Y-61.7342

G1X111.6561Y-69.0326

G1X109.0732Y-76.5787

G1X105.9604Y-84.9542

G1X102.4335Y-93.8758

G1X95.3180Y-111.3374

G1X91.8449Y-120.5146

G1X90.2224Y-125.4108

G1X89.0454Y-129.5833

G1X88.1789Y-133.4884

G1X87.6493Y-137.0602

G1X87.4658Y-139.7611

G1X87.4929Y-142.1974

G1X87.7249Y-144.6042

G1X88.1802Y-146.9870

G1X88.7376Y-148.9675

G1X89.4949Y-151.0746

G1X90.3324Y-153.0431

G1X93.0496Y-158.9002

G1X94.2255Y-162.0595

G1X94.7736Y-164.0917

G1X95.1477Y-166.0799

G1X95.3811Y-168.2024

G1X95.4545Y-170.3928

G1X95.4038Y-172.2311

G1X95.2507Y-174.0990

G1X94.5576Y-178.9039

G1X93.0012Y-187.1609

G1X89.4100Y-204.3698

G1X88.1928Y-211.3551

G1X87.7215Y-215.0747

G1X87.4497Y-218.5961

G1X87.4003Y-221.7679

G1X87.5613Y-224.6096

G1X87.9620Y-227.3967

G1X88.6123Y-230.0251

G1X90.3104Y-234.9518

G1X94.7578Y-246.7956

G1X96.6595Y-252.2284

G1X98.5229Y-258.4126

G1X99.9695Y-264.4661

G1 Z0F20000

(Start Block)


G1X127.5143Y-20.0000
G1Z5F20000
(Plotting speed under)
G1 F4000


G1X119.4367Y-48.3125

G1X115.9662Y-60.7501

G1X113.4602Y-68.8584

G1X110.7624Y-76.6857

G1X107.5778Y-85.1832

G1X104.1424Y-93.8071

G1X96.8594Y-111.5209

G1X94.8969Y-116.5076

G1X93.2846Y-120.8611

G1X91.6502Y-125.7355

G1X90.4544Y-129.9173

G1X89.5840Y-133.7708

G1X89.0490Y-137.2728

G1X88.8583Y-139.8864

G1X88.8753Y-142.3313

G1X89.1048Y-144.7396

G1X89.5662Y-147.1158

G1X90.1357Y-149.0838

G1X90.9129Y-151.1708

G1X91.8190Y-153.2068

G1X94.6252Y-158.9675

G1X95.8680Y-162.1787

G1X96.4600Y-164.3406

G1X96.8286Y-166.3468

G1X97.0478Y-168.4813

G1X97.1008Y-170.8004

G1X96.9848Y-173.1501

G1X96.6742Y-175.8681

G1X95.4761Y-182.6654

G1X93.8765Y-190.1668

G1X90.0733Y-206.4274

G1X88.6399Y-213.7437

G1X88.1143Y-217.4333

G1X87.8221Y-220.6652

G1X87.7383Y-223.6192

G1X87.8734Y-226.4452

G1X88.0842Y-228.1560

G1X88.4263Y-229.9404

G1X89.4199Y-233.2597

G1X91.4383Y-238.7570

G1X95.7931Y-249.4410

G1X97.6287Y-254.2747

G1X99.4076Y-259.7695

G1X100.7697Y-265.1626

G1 Z0F20000

(Start Block)


G1X129.1372Y-20.0000
G1Z5F20000
(Plotting speed under)
G1 F4000


G1X118.0124Y-59.7730

G1X115.3285Y-68.4823

G1X112.5341Y-76.5578

G1X109.2342Y-85.3065

G1X105.8180Y-93.8215

G1X98.1741Y-112.2735

G1X94.7014Y-121.2842

G1X93.0594Y-126.1386

G1X91.8594Y-130.2943

G1X90.9864Y-134.1119

G1X90.4483Y-137.5828

G1X90.2556Y-140.1987

G1X90.2738Y-142.5594

G1X90.4946Y-144.8693

G1X90.9606Y-147.2401

G1X91.5732Y-149.2917

G1X92.3759Y-151.3573

G1X93.2659Y-153.2766

G1X96.2005Y-159.0372

G1X97.5080Y-162.3017

G1X98.1070Y-164.4437

G1X98.5022Y-166.6217

G1X98.7024Y-168.7541

G1X98.7323Y-171.1786

G1X98.5782Y-173.5922

G1X98.1931Y-176.6218

G1X96.6977Y-184.4092

G1X94.9566Y-191.8155

G1X90.7899Y-207.9485

G1X89.8368Y-212.0307

G1X89.1044Y-215.6335

G1X88.5039Y-219.3733

G1X88.1730Y-222.5352

G1X88.0602Y-225.3895

G1X88.1700Y-228.1387

G1X88.3951Y-229.9550

G1X88.7428Y-231.7077

G1X89.9955Y-235.6927

G1X92.1262Y-241.1709

G1X96.7301Y-251.5744

G1X98.5564Y-256.0349

G1X100.2811Y-261.0407

G1X101.5617Y-265.8715

G1 Z0F20000

(Start Block)


G1X130.7662Y-20.0000
G1Z5F20000
(Plotting speed under)
G1 F4000


G1X120.0329Y-58.8732

G1X118.6330Y-63.5966

G1X117.1556Y-68.2240

G1X114.2725Y-76.5154

G1X110.7826Y-85.7000

G1X107.4204Y-94.0129

G1X99.6080Y-112.7306

G1X96.2026Y-121.4862

G1X94.5483Y-126.3089

G1X93.3125Y-130.5157

G1X92.4118Y-134.3783

G1X91.8698Y-137.7820

G1X91.6670Y-140.4073

G1X91.6829Y-142.7810

G1X91.9091Y-145.0958

G1X92.3630Y-147.3604

G1X92.9851Y-149.4016

G1X93.8042Y-151.4501

G1X94.7614Y-153.4375

G1X97.7736Y-159.1113

G1X98.5608Y-160.8747

G1X99.1430Y-162.4312

G1X99.7467Y-164.5556

G1X100.1522Y-166.8094

G1X100.3431Y-169.0231

G1X100.3496Y-171.4705

G1X100.1510Y-174.0571

G1X99.7200Y-177.1570

G1X98.9120Y-181.4037

G1X97.9796Y-185.6209

G1X95.9566Y-193.5032

G1X91.2764Y-210.1628

G1X89.5857Y-217.2276

G1X88.9195Y-220.9126

G1X88.5282Y-224.1104

G1X88.3757Y-227.0242

G1X88.4571Y-229.6434

G1X88.6904Y-231.5738

G1X89.0544Y-233.3411

G1X89.8395Y-235.9197

G1X90.6825Y-238.2890

G1X91.7429Y-240.9492

G1X92.9201Y-243.6289

G1X97.4294Y-253.0098

G1X99.3244Y-257.2833

G1X101.0663Y-262.0079

G1X102.3452Y-266.5927

G1 Z0F20000

(Start Block)


G1X132.4009Y-20.0000
G1Z5F20000
(Plotting speed under)
G1 F4000


G1X122.0226Y-58.0681

G1X120.5796Y-62.9584

G1X118.9908Y-67.9320

G1X116.0454Y-76.3709

G1X112.5520Y-85.5255

G1X109.1021Y-94.0106

G1X100.9722Y-113.3595

G1X97.6706Y-121.7933

G1X96.0074Y-126.5929

G1X94.7644Y-130.7698

G1X93.8559Y-134.5931

G1X93.2932Y-138.0499

G1X93.0888Y-140.6144

G1X93.1022Y-142.9966

G1X93.3331Y-145.3167

G1X93.7985Y-147.5776

G1X94.4365Y-149.6028

G1X95.2591Y-151.5929

G1X96.2125Y-153.5094

G1X99.3305Y-159.1677

G1X100.1864Y-161.0284

G1X100.7686Y-162.5630

G1X101.3765Y-164.6792

G1X101.7843Y-166.9698

G1X101.9680Y-169.3099

G1X101.9479Y-171.7837

G1X101.7008Y-174.5476

G1X101.2169Y-177.7346

G1X100.3585Y-182.0093

G1X99.3044Y-186.4731

G1X97.0300Y-194.7163

G1X91.8466Y-211.8378

G1X90.7827Y-215.7519

G1X90.0245Y-218.9010

G1X89.3313Y-222.3909

G1X88.8754Y-225.6948

G1X88.6931Y-228.6182

G1X88.7568Y-231.1377

G1X88.9859Y-233.0740

G1X89.3406Y-234.7635

G1X90.1610Y-237.4567

G1X91.1750Y-240.2184

G1X92.2012Y-242.6617

G1X93.3992Y-245.2298

G1X98.1115Y-254.3303

G1X100.1078Y-258.5193

G1X101.0476Y-260.7822

G1X101.8510Y-262.9785

G1X102.5209Y-265.0932

G1X103.1200Y-267.3257

G1 Z0F20000

(Start Block)


G1X134.0407Y-20.0000
G1Z5F20000
(Plotting speed under)
G1 F4000


G1X124.0354Y-57.1642

G1X122.5039Y-62.3806

G1X120.7766Y-67.7783

G1X117.7543Y-76.3927

G1X114.2106Y-85.6260

G1X110.7473Y-94.0945

G1X102.3824Y-113.8775

G1X99.1486Y-122.0859

G1X97.5077Y-126.7693

G1X96.2275Y-131.0096

G1X95.3012Y-134.8435

G1X94.7361Y-138.2335

G1X94.5212Y-140.8078

G1X94.5312Y-143.2064

G1X94.7503Y-145.4309

G1X95.2156Y-147.6908

G1X95.8595Y-149.7089

G1X96.6937Y-151.6861

G1X97.7123Y-153.6722

G1X100.8951Y-159.2602

G1X101.7646Y-161.0979

G1X102.3895Y-162.7192

G1X103.0151Y-164.9109

G1X103.4078Y-167.1988

G1X103.5742Y-169.6178

G1X103.5269Y-172.0806

G1X103.2249Y-175.0669

G1X102.6839Y-178.3455

G1X101.7597Y-182.6980

G1X100.5952Y-187.3229

G1X98.1843Y-195.5285

G1X92.4784Y-213.1831

G1X91.2939Y-217.2494

G1X90.4669Y-220.4583

G1X89.7384Y-223.8570

G1X89.2364Y-227.1468

G1X89.0222Y-230.0692

G1X89.0710Y-232.5764

G1X89.3193Y-234.6517

G1X89.7046Y-236.3539

G1X90.5423Y-239.0613

G1X91.6686Y-242.0162

G1X92.6981Y-244.3377

G1X93.9633Y-246.8864

G1X98.9121Y-255.8057

G1X100.8197Y-259.5614

G1X101.8023Y-261.7892

G1X102.6009Y-263.8584

G1X103.3020Y-265.9730

G1X103.8861Y-268.0703

G1 Z0F20000

(Start Block)


G1X135.6853Y-20.0000
G1Z5F20000
(Plotting speed under)
G1 F4000


G1X126.0366Y-56.2830

G1X124.3924Y-61.9061

G1X122.6051Y-67.4847

G1X119.5218Y-76.2466

G1X115.9053Y-85.6297

G1X112.3347Y-94.3134

G1X103.8931Y-114.1560

G1X100.6363Y-122.3646

G1X98.9577Y-127.1174

G1X97.6828Y-131.3031

G1X96.7464Y-135.1331

G1X96.1764Y-138.5139

G1X95.9590Y-141.1014

G1X95.9663Y-143.3445

G1X96.1760Y-145.5406

G1X96.6391Y-147.8011

G1X97.2868Y-149.8141

G1X98.1302Y-151.7806

G1X99.1823Y-153.7838

G1X102.4519Y-159.3631

G1X103.3733Y-161.2729

G1X103.9966Y-162.8828

G1X104.5957Y-164.9696

G1X105.0013Y-167.3452

G1X105.1575Y-169.8495

G1X105.0834Y-172.3907

G1X104.7052Y-175.7232

G1X104.0984Y-179.0942

G1X103.1115Y-183.4691

G1X101.8763Y-188.0898

G1X99.2727Y-196.4588

G1X93.1051Y-214.4796

G1X91.8360Y-218.5757

G1X90.8979Y-222.0005

G1X90.1225Y-225.4214

G1X89.6205Y-228.4675

G1X89.3724Y-231.3517

G1X89.4017Y-233.9103

G1X89.6475Y-236.0116

G1X90.0984Y-237.9143

G1X90.9896Y-240.7300

G1X92.1626Y-243.6826

G1X93.2365Y-245.9756

G1X94.5212Y-248.4139

G1X99.6121Y-257.0249

G1X101.4930Y-260.5089

G1X102.4777Y-262.6099

G1X103.3287Y-264.6957

G1X104.0403Y-266.7435

G1X104.6433Y-268.8261

G1 Z0F20000

(Start Block)


G1X137.3341Y-20.0000
G1Z5F20000
(Plotting speed under)
G1 F4000


G1X128.0094Y-55.4846

G1X126.2960Y-61.3680

G1X124.3977Y-67.2864

G1X121.2514Y-76.1943

G1X117.5986Y-85.6313

G1X113.8610Y-94.6737

G1X105.4302Y-114.3771

G1X102.1599Y-122.5597

G1X100.4815Y-127.2603

G1X99.1665Y-131.5194

G1X98.2106Y-135.3689

G1X97.6440Y-138.6467

G1X97.4152Y-141.1875

G1X97.4135Y-143.5408

G1X97.6249Y-145.7482

G1X98.0686Y-147.9091

G1X98.7178Y-149.9191

G1X99.6130Y-151.9688

G1X100.6317Y-153.8668

G1X103.9993Y-159.4783

G1X104.9296Y-161.3700

G1X105.5899Y-163.0630

G1X106.2013Y-165.2372

G1X106.5868Y-167.6184

G1X106.7186Y-170.1071

G1X106.6147Y-172.7299

G1X106.1917Y-176.1580

G1X105.4534Y-179.9876

G1X104.4170Y-184.2981

G1X103.1228Y-188.8735

G1X100.3605Y-197.3096

G1X93.8146Y-215.4889

G1X92.4280Y-219.7117

G1X91.3798Y-223.3189

G1X90.5548Y-226.7475

G1X90.0194Y-229.7760

G1X89.7443Y-232.6309

G1X89.7558Y-235.1646

G1X90.0292Y-237.4523

G1X90.6623Y-239.9333

G1X91.5441Y-242.5536

G1X92.6130Y-245.1256

G1X93.7713Y-247.4857

G1X95.1190Y-249.9049

G1X100.3190Y-258.2074

G1X102.2097Y-261.5329

G1X103.2334Y-263.6188

G1X104.0714Y-265.5907

G1X104.7706Y-267.5234

G1X105.3916Y-269.5928

G1 Z0F20000

(Start Block)


G1X138.9863Y-20.0000
G1Z5F20000
(Plotting speed under)
G1 F4000


G1X129.9745Y-54.6938

G1X128.2005Y-60.8113

G1X126.1943Y-67.0630

G1X122.9794Y-76.1370

G1X119.2744Y-85.6706

G1X115.3484Y-95.1209

G1X106.8971Y-114.7718

G1X103.5781Y-123.0463

G1X101.9501Y-127.5863

G1X100.6124Y-131.8935

G1X99.6762Y-135.6340

G1X99.1036Y-138.9110

G1X98.8762Y-141.3746

G1X98.8692Y-143.7325

G1X99.0811Y-145.9520

G1X99.5299Y-148.1152

G1X100.1871Y-150.1162

G1X101.0513Y-152.0681

G1X102.0782Y-153.9558

G1X105.5356Y-159.6079

G1X106.5129Y-161.5762

G1X107.1671Y-163.2625

G1X107.7650Y-165.4227

G1X108.1390Y-167.8135

G1X108.2552Y-170.3933

G1X108.1190Y-173.1008

G1X107.6505Y-176.6070

G1X106.8245Y-180.6664

G1X105.7167Y-185.0306

G1X104.3352Y-189.6744

G1X102.9500Y-193.8613

G1X101.3358Y-198.4045

G1X94.5308Y-216.4716

G1X93.0668Y-220.7051

G1X91.8981Y-224.5114

G1X91.0253Y-227.9385

G1X90.4525Y-230.9635

G1X90.1491Y-233.7703

G1X90.1377Y-236.3297

G1X90.3835Y-238.5236

G1X91.0378Y-241.1486

G1X91.9634Y-243.8747

G1X93.1016Y-246.5325

G1X94.3490Y-248.9617

G1X95.7035Y-251.2724

G1X100.9320Y-259.2006

G1X102.8909Y-262.4786

G1X103.9035Y-264.4457

G1X104.7712Y-266.3958

G1X105.4928Y-268.3123

G1X106.1308Y-270.3697

G1 Z0F20000

(Start Block)


G1X140.6416Y-20.0000
G1Z5F20000
(Plotting speed under)
G1 F4000


G1X131.8990Y-54.0315

G1X130.0607Y-60.3841

G1X127.9743Y-66.8765

G1X124.7386Y-75.9864

G1X120.9226Y-85.7725

G1X116.7186Y-95.8382

G1X108.4484Y-114.9713

G1X105.0799Y-123.3207

G1X103.4524Y-127.8281

G1X102.1159Y-132.0863

G1X101.1585Y-135.8558

G1X100.5854Y-139.0689

G1X100.3461Y-141.5566

G1X100.3330Y-143.9199

G1X100.5290Y-146.0508

G1X100.9699Y-148.2200

G1X101.6240Y-150.2223

G1X102.4893Y-152.1712

G1X103.5744Y-154.1399

G1X107.0098Y-159.6643

G1X107.9857Y-161.5901

G1X108.6938Y-163.3887

G1X109.3079Y-165.6331

G1X109.6677Y-168.0368

G1X109.7653Y-170.7110

G1X109.5942Y-173.5058

G1X109.1104Y-176.9098

G1X108.2330Y-181.0674

G1X107.0712Y-185.4714

G1X105.5842Y-190.2803

G1X104.0797Y-194.6484

G1X102.4056Y-199.1773

G1X94.9898Y-218.1432

G1X93.6240Y-221.9564

G1X92.4329Y-225.6734

G1X91.4957Y-229.1909

G1X90.8938Y-232.2357

G1X90.5809Y-234.9551

G1X90.5566Y-237.4988

G1X90.7984Y-239.6794

G1X91.4803Y-242.4280

G1X92.4161Y-245.1458

G1X93.5419Y-247.7184

G1X94.7711Y-250.0513

G1X96.2151Y-252.4332

G1X101.6119Y-260.2692

G1X103.5745Y-263.4217

G1X104.6146Y-265.3659

G1X105.5047Y-267.3014

G1X106.2407Y-269.2047

G1X106.8609Y-271.1566

G1 Z0F20000

(Start Block)


G1X142.2997Y-20.0000
G1Z5F20000
(Plotting speed under)
G1 F4000


G1X133.8462Y-53.2638

G1X131.9178Y-59.9507

G1X129.7525Y-66.6828

G1X126.4927Y-75.8407

G1X122.6063Y-85.7819

G1X118.2466Y-96.1822

G1X110.0448Y-115.0710

G1X106.5543Y-123.6774

G1X104.9274Y-128.1658

G1X103.6296Y-132.2674

G1X102.6650Y-136.0027

G1X102.0691Y-139.2739

G1X101.8246Y-141.7339

G1X101.8006Y-144.0046

G1X101.9836Y-146.1467

G1X102.4145Y-148.3238

G1X103.0980Y-150.4213

G1X103.9723Y-152.3689

G1X105.0133Y-154.2432

G1X108.5189Y-159.8283

G1X109.4966Y-161.7489

G1X110.2331Y-163.6342

G1X110.8282Y-165.8709

G1X111.1701Y-168.2784

G1X111.2492Y-170.9579

G1X111.0500Y-173.8461

G1X110.5222Y-177.3458

G1X109.5818Y-181.6152

G1X108.3637Y-186.0481

G1X106.8083Y-190.8958

G1X105.1466Y-195.5467

G1X103.3431Y-200.2450

G1X95.6018Y-219.3702

G1X94.2880Y-222.9099

G1X93.0471Y-226.6131

G1X92.0498Y-230.1672

G1X91.4202Y-233.1383

G1X91.0614Y-235.9178

G1X91.0076Y-238.4897

G1X91.2354Y-240.6963

G1X91.8981Y-243.4453

G1X92.8381Y-246.1975

G1X94.0206Y-248.8679

G1X95.2791Y-251.1978

G1X96.7587Y-253.5633

G1X102.2459Y-261.2405

G1X104.2604Y-264.3621

G1X105.3243Y-266.2873

G1X106.1930Y-268.1178

G1X106.9478Y-270.0094

G1X107.5819Y-271.9528

G1 Z0F20000

(Start Block)


G1X143.9603Y-20.0000
G1Z5F20000
(Plotting speed under)
G1 F4000


G1X135.7569Y-52.6097

G1X133.7948Y-59.4361

G1X131.4846Y-66.6124

G1X128.1362Y-75.9812

G1X124.1729Y-86.0735

G1X119.8872Y-96.2612

G1X111.6094Y-115.2533

G1X108.0247Y-124.0543

G1X106.4064Y-128.5058

G1X105.1007Y-132.6180

G1X104.1435Y-136.3070

G1X103.5548Y-139.5193

G1X103.2904Y-142.3089

G1X103.3177Y-144.9682

G1X103.6261Y-147.3472

G1X104.2370Y-149.6938

G1X104.9643Y-151.5631

G1X105.9783Y-153.5537

G1X109.5013Y-159.1381

G1X110.5403Y-161.0027

G1X111.4159Y-162.9668

G1X112.0670Y-164.9903

G1X112.4911Y-167.1213

G1X112.6908Y-169.3108

G1X112.6893Y-171.6637

G1X112.4631Y-174.3247

G1X111.8813Y-177.9201

G1X110.9043Y-182.1655

G1X109.6288Y-186.6367

G1X107.9716Y-191.6251

G1X106.2291Y-196.3447

G1X104.2172Y-201.4149

G1X96.2881Y-220.4045

G1X94.8587Y-224.1481

G1X93.6589Y-227.6153

G1X92.6248Y-231.1543

G1X91.9486Y-234.2060

G1X91.5751Y-236.9325

G1X91.5047Y-239.5420

G1X91.7346Y-241.7755

G1X92.4217Y-244.6385

G1X93.3391Y-247.3049

G1X94.5397Y-249.9803

G1X95.7615Y-252.2040

G1X97.2773Y-254.5774

G1X102.8898Y-262.2010

G1X104.9467Y-265.2961

G1X105.9856Y-267.1209

G1X106.9170Y-269.0324

G1X107.6819Y-270.9158

G1X108.2939Y-272.7579

G1 Z0F20000

(Start Block)


G1X145.6228Y-20.0000
G1Z5F20000
(Plotting speed under)
G1 F4000


G1X137.6569Y-51.9736

G1X135.6287Y-59.0464

G1X133.2451Y-66.4455

G1X129.8312Y-75.9758

G1X125.7746Y-86.2735

G1X121.5687Y-96.2443

G1X113.1820Y-115.4237

G1X109.5516Y-124.2941

G1X107.8995Y-128.8188

G1X106.6264Y-132.8010

G1X105.6689Y-136.4340

G1X105.0626Y-139.6608

G1X104.7834Y-142.4765

G1X104.8009Y-145.1569

G1X105.1084Y-147.5648

G1X105.6825Y-149.8029

G1X106.4008Y-151.6789

G1X107.4083Y-153.6740

G1X110.9278Y-159.2557

G1X112.0152Y-161.2078

G1X112.8815Y-163.1693

G1X113.5248Y-165.1992

G1X113.9385Y-167.3274

G1X114.1320Y-169.6120

G1X114.1072Y-172.0656

G1X113.8555Y-174.7403

G1X113.2246Y-178.4363

G1X112.2084Y-182.6896

G1X110.8939Y-187.1536

G1X109.1631Y-192.2171

G1X107.3960Y-196.8799

G1X105.3042Y-202.0214

G1X96.9887Y-221.4146

G1X95.4849Y-225.2535

G1X94.3002Y-228.5826

G1X93.2355Y-232.1021

G1X92.5281Y-235.1648

G1X92.1290Y-237.9319

G1X92.0441Y-240.4805

G1X92.2544Y-242.6713

G1X92.9341Y-245.5965

G1X93.8844Y-248.3731

G1X95.1006Y-251.0552

G1X96.3404Y-253.2748

G1X97.8276Y-255.5610

G1X103.5619Y-263.1753

G1X105.6352Y-266.2269

G1X106.6914Y-268.0444

G1X107.5941Y-269.8580

G1X108.3739Y-271.7341

G1X108.9968Y-273.5711

G1 Z0F20000

(Start Block)


G1X147.2870Y-20.0000
G1Z5F20000
(Plotting speed under)
G1 F4000


G1X139.5419Y-51.3719

G1X137.4542Y-58.6683

G1X134.9668Y-66.3807

G1X131.4947Y-76.0456

G1X127.3787Y-86.4633

G1X123.2093Y-96.3216

G1X114.7953Y-115.5057

G1X111.0512Y-124.6158

G1X109.3914Y-129.1491

G1X108.1288Y-133.0834

G1X107.1854Y-136.6311

G1X106.5724Y-139.8389

G1X106.2837Y-142.6408

G1X106.2897Y-145.3437

G1X106.5895Y-147.7580

G1X107.1606Y-150.0091

G1X107.8780Y-151.8937

G1X108.8836Y-153.8935

G1X112.3907Y-159.4799

G1X113.4702Y-161.4376

G1X114.3241Y-163.4000

G1X114.9570Y-165.4395

G1X115.3719Y-167.6687

G1X115.5432Y-169.9496

G1X115.4991Y-172.3976

G1X115.2145Y-175.1957

G1X114.5324Y-178.9940

G1X113.4919Y-183.2001

G1X112.1168Y-187.7361

G1X110.3379Y-192.8063

G1X108.5444Y-197.4306

G1X106.3792Y-202.6362

G1X97.7849Y-222.2133

G1X96.2097Y-226.1311

G1X95.0054Y-229.4221

G1X93.8848Y-233.0093

G1X93.1370Y-236.1471

G1X92.7273Y-238.8935

G1X92.6328Y-241.4485

G1X92.8469Y-243.6630

G1X93.5225Y-246.6114

G1X94.4757Y-249.4014

G1X95.7047Y-252.0922

G1X96.9058Y-254.2242

G1X98.4701Y-256.5986

G1X104.2241Y-264.1104

G1X106.3259Y-267.1541

G1X107.3955Y-268.9683

G1X108.3084Y-270.7801

G1X109.0580Y-272.5585

G1X109.6906Y-274.3920

G1 Z0F20000

(Start Block)


G1X148.9526Y-20.0000
G1Z5F20000
(Plotting speed under)
G1 F4000


G1X145.3776Y-34.8235

G1X141.4196Y-50.7764

G1X139.2720Y-58.3001

G1X136.7130Y-66.2322

G1X133.1690Y-76.0796

G1X128.9712Y-86.6774

G1X124.8491Y-96.4000

G1X116.1191Y-116.2692

G1X112.5750Y-124.8849

G1X110.9019Y-129.4392

G1X109.6421Y-133.3469

G1X108.7070Y-136.8345

G1X108.0812Y-140.0690

G1X107.7849Y-142.9067

G1X107.7837Y-145.5292

G1X108.0736Y-147.9517

G1X108.6391Y-150.2186

G1X109.3113Y-152.0200

G1X110.3031Y-154.0314

G1X113.7840Y-159.6396

G1X114.8584Y-161.6016

G1X115.7084Y-163.5673

G1X116.3381Y-165.6097

G1X116.7501Y-167.8416

G1X116.9210Y-170.2250

G1X116.8590Y-172.7682

G1X116.5543Y-175.5871

G1X115.8431Y-179.4175

G1X114.7551Y-183.6998

G1X113.3222Y-188.3078

G1X111.4885Y-193.4152

G1X109.6657Y-198.0185

G1X107.4432Y-203.2583

G1X98.5412Y-223.1341

G1X96.9266Y-227.0717

G1X95.7466Y-230.2264

G1X94.5821Y-233.8518

G1X93.8220Y-236.9297

G1X93.3850Y-239.6942

G1X93.2692Y-242.2936

G1X93.4730Y-244.5137

G1X94.1603Y-247.5851

G1X95.0769Y-250.2946

G1X96.3055Y-252.9998

G1X97.5107Y-255.1383

G1X99.0677Y-257.4934

G1X100.6895Y-259.6788

G1X104.8963Y-265.0343

G1X107.0187Y-268.0777

G1X108.0491Y-269.8039

G1X108.9746Y-271.6126

G1X109.7345Y-273.3884

G1X110.3756Y-275.2197

G1 Z0F20000

(Start Block)


G1X150.6191Y-20.0000
G1Z5F20000
(Plotting speed under)
G1 F4000


G1X146.9683Y-35.2660

G1X143.2059Y-50.5050

G1X140.8480Y-58.7076

G1X138.0200Y-67.3530

G1X134.4569Y-77.1204

G1X130.3312Y-87.4501

G1X126.3937Y-96.6965

G1X118.2266Y-115.2176

G1X114.8301Y-123.3134

G1X112.2262Y-130.2834

G1X111.2495Y-133.3154

G1X110.4717Y-136.0775

G1X109.7194Y-139.5451

G1X109.3201Y-142.7182

G1X109.2824Y-145.7138

G1X109.5945Y-148.3392

G1X110.1782Y-150.6230

G1X111.0787Y-152.9020

G1X112.1718Y-154.9905

G1X115.8045Y-160.9732

G1X116.7422Y-162.9243

G1X117.4797Y-165.0076

G1X118.0298Y-167.5445

G1X118.2610Y-170.2384

G1X118.1930Y-173.0817

G1X117.8110Y-176.3374

G1X117.1274Y-179.8473

G1X116.1257Y-183.7462

G1X114.8689Y-187.8110

G1X113.2771Y-192.3090

G1X111.2732Y-197.4052

G1X108.9371Y-202.8890

G1X101.0032Y-220.2397

G1X97.8518Y-227.5378

G1X96.5907Y-230.8144

G1X95.4835Y-234.1173

G1X94.7462Y-236.8286

G1X94.2393Y-239.3621

G1X94.0402Y-240.9873

G1X93.9579Y-242.5944

G1X93.9925Y-243.9835

G1X94.1517Y-245.3218

G1X94.5401Y-247.3122

G1X94.9925Y-249.0084

G1X95.6164Y-250.8587

G1X96.4049Y-252.7468

G1X97.7897Y-255.4035

G1X99.4851Y-258.0520

G1X101.2212Y-260.4137

G1X105.6998Y-266.1084

G1X107.8748Y-269.2526

G1X108.8470Y-270.9054

G1X109.7227Y-272.6334

G1X110.4402Y-274.3171

G1X111.0519Y-276.0536

G1 Z0F20000

(Start Block)


G1X152.2861Y-20.0000
G1Z5F20000
(Plotting speed under)
G1 F4000


G1X148.6226Y-35.4435

G1X145.0592Y-49.9608

G1X142.6189Y-58.4639

G1X139.7158Y-67.3291

G1X136.1434Y-77.1082

G1X132.0260Y-87.4090

G1X128.0297Y-96.7830

G1X119.5543Y-115.9807

G1X116.3685Y-123.5715

G1X113.8018Y-130.4095

G1X112.8092Y-133.4629

G1X112.0324Y-136.1851

G1X111.2615Y-139.6644

G1X110.8408Y-142.8711

G1X110.7805Y-145.7905

G1X111.0814Y-148.5374

G1X111.6537Y-150.8424

G1X112.5422Y-153.1403

G1X113.6222Y-155.2450

G1X116.4147Y-159.8520

G1X117.2486Y-161.3673

G1X118.1209Y-163.2458

G1X118.8378Y-165.3400

G1X119.3658Y-167.8875

G1X119.5779Y-170.5881

G1X119.4868Y-173.5318

G1X119.0822Y-176.7984

G1X118.3774Y-180.3171

G1X117.3817Y-184.1227

G1X116.1034Y-188.2002

G1X114.4558Y-192.7909

G1X112.4095Y-197.9216

G1X110.0243Y-203.4439

G1X101.7518Y-221.2838

G1X98.6710Y-228.3238

G1X97.4053Y-231.5624

G1X96.2706Y-234.8856

G1X95.5108Y-237.6293

G1X94.9932Y-240.1674

G1X94.7864Y-241.8239

G1X94.7016Y-243.4322

G1X94.7378Y-244.8304

G1X94.9067Y-246.2270

G1X95.2782Y-248.1760

G1X95.7660Y-250.0148

G1X96.3906Y-251.8616

G1X97.1373Y-253.6534

G1X98.4769Y-256.2435

G1X100.1688Y-258.9075

G1X101.9069Y-261.2856

G1X106.3318Y-266.9295

G1X108.5719Y-270.1694

G1X109.4967Y-271.7402

G1X110.3788Y-273.4706

G1X111.1023Y-275.1558

G1X111.7195Y-276.8930

G1 Z0F20000

(Start Block)


G1X153.9534Y-20.0000
G1Z5F20000
(Plotting speed under)
G1 F4000


G1X149.1950Y-40.1338

G1X146.8726Y-49.5469

G1X144.4009Y-58.1711

G1X141.4181Y-67.2773

G1X137.8503Y-77.0376

G1X133.6822Y-87.4584

G1X129.6863Y-96.8228

G1X120.9339Y-116.6273

G1X117.9271Y-123.7885

G1X115.3393Y-130.6607

G1X114.3699Y-133.6249

G1X113.5818Y-136.3593

G1X112.7845Y-139.9216

G1X112.3617Y-143.0885

G1X112.2906Y-146.0633

G1X112.5690Y-148.7385

G1X113.1269Y-151.0676

G1X113.9997Y-153.3883

G1X115.0624Y-155.5132

G1X117.7553Y-160.0783

G1X118.5763Y-161.6070

G1X119.4353Y-163.4997

G1X120.1404Y-165.6068

G1X120.6710Y-168.2676

G1X120.8625Y-170.9766

G1X120.7544Y-173.9249

G1X120.3206Y-177.2866

G1X119.5926Y-180.8271

G1X118.5473Y-184.7345

G1X117.2243Y-188.8683

G1X115.5665Y-193.4107

G1X113.5231Y-198.4668

G1X111.0989Y-204.0133

G1X102.5128Y-222.3173

G1X99.5487Y-229.0204

G1X98.2577Y-232.2828

G1X97.1244Y-235.5488

G1X96.3238Y-238.3922

G1X95.8144Y-240.8384

G1X95.5956Y-242.5157

G1X95.5016Y-244.1300

G1X95.5320Y-245.5443

G1X95.6939Y-246.9469

G1X96.0520Y-248.9148

G1X96.5275Y-250.7654

G1X97.1247Y-252.5826

G1X97.8791Y-254.4354

G1X99.2075Y-257.0475

G1X100.9460Y-259.8153

G1X102.6619Y-262.1848

G1X106.9734Y-267.7386

G1X109.1085Y-270.8249

G1X109.9955Y-272.3060

G1X110.8514Y-273.9375

G1X112.1312Y-277.0005

G1 Z0F20000

(Start Block)


G1X155.6203Y-20.0000
G1Z5F20000
(Plotting speed under)
G1 F4000


G1X151.0211Y-39.6051

G1X148.7009Y-49.0567

G1X146.1404Y-58.0025

G1X143.0740Y-67.3495

G1X139.4444Y-77.2553

G1X135.2849Y-87.6338

G1X131.2780Y-97.0115

G1X122.4295Y-117.0118

G1X119.4565Y-124.0875

G1X116.8952Y-130.8731

G1X115.9149Y-133.8550

G1X115.1341Y-136.5451

G1X114.3400Y-140.0329

G1X113.9028Y-143.1326

G1X113.7977Y-146.1384

G1X114.0427Y-148.8436

G1X114.5752Y-151.2200

G1X115.4233Y-153.5811

G1X116.4650Y-155.7441

G1X119.1275Y-160.4153

G1X119.9183Y-161.9439

G1X120.7269Y-163.7860

G1X121.4423Y-166.0066

G1X121.9452Y-168.6843

G1X122.1151Y-171.5049

G1X121.9702Y-174.5547

G1X121.5238Y-177.8149

G1X120.7729Y-181.3763

G1X119.7283Y-185.2171

G1X118.3667Y-189.4166

G1X116.6866Y-193.9656

G1X114.6173Y-199.0319

G1X112.1668Y-204.5844

G1X103.3889Y-223.1238

G1X100.4783Y-229.6471

G1X99.1490Y-232.9736

G1X98.0329Y-236.1495

G1X97.2214Y-238.9762

G1X96.6883Y-241.4707

G1X96.4634Y-243.1247

G1X96.3566Y-244.8009

G1X96.3823Y-246.2152

G1X96.5511Y-247.7222

G1X96.9019Y-249.7113

G1X97.3696Y-251.5701

G1X97.9613Y-253.4024

G1X98.7105Y-255.2716

G1X100.0316Y-257.9058

G1X101.7011Y-260.6091

G1X103.4020Y-263.0025

G1X107.6856Y-268.6170

G1X109.6460Y-271.4728

G1X111.2211Y-274.2212

G1X112.4678Y-277.0005

G1 Z0F20000

(Start Block)


G1X157.2787Y-20.0000
G1Z5F20000
(Plotting speed under)
G1 F4000


G1X152.7597Y-39.3905

G1X150.4626Y-48.7678

G1X147.8435Y-57.9130

G1X144.7702Y-67.2752

G1X141.1365Y-77.1951

G1X136.9736Y-87.5877

G1X132.8934Y-97.1386

G1X123.9610Y-117.3249

G1X121.0291Y-124.3018

G1X118.5020Y-130.9782

G1X117.4792Y-134.0725

G1X116.7189Y-136.6750

G1X115.8985Y-140.2382

G1X115.4520Y-143.3458

G1X115.3321Y-146.2853

G1X115.5533Y-149.0226

G1X116.0880Y-151.5157

G1X116.8839Y-153.8133

G1X117.8980Y-156.0064

G1X120.4425Y-160.6600

G1X121.2560Y-162.2997

G1X122.0375Y-164.1701

G1X122.7235Y-166.4168

G1X123.1954Y-169.1148

G1X123.3403Y-171.9484

G1X123.1758Y-175.0049

G1X122.6983Y-178.3615

G1X121.9246Y-181.9428

G1X120.8635Y-185.7779

G1X119.4842Y-189.9769

G1X117.7852Y-194.5285

G1X115.7341Y-199.5078

G1X113.2622Y-205.0680

G1X104.3554Y-223.7379

G1X101.4137Y-230.2809

G1X100.0664Y-233.6294

G1X98.9420Y-236.8056

G1X98.1434Y-239.5573

G1X97.5986Y-242.0575

G1X97.3640Y-243.7299

G1X97.2492Y-245.4112

G1X97.2700Y-246.8434

G1X97.4302Y-248.3574

G1X97.7663Y-250.3657

G1X98.2457Y-252.3341

G1X98.8308Y-254.1821

G1X99.5732Y-256.0686

G1X100.8834Y-258.7270

G1X102.5370Y-261.4523

G1X104.2218Y-263.8687

G1X108.3468Y-269.3868

G1X110.1884Y-272.0955

G1X111.5829Y-274.4861

G1X112.7817Y-277.0005

G1 Z0F20000

(Start Block)


G1X158.9250Y-20.0000
G1Z5F20000
(Plotting speed under)
G1 F4000


G1X154.5238Y-39.0009

G1X152.2276Y-48.4040

G1X149.5752Y-57.6802

G1X146.4289Y-67.2696

G1X142.7873Y-77.2132

G1X138.5708Y-87.7418

G1X134.3800Y-97.5494

G1X125.5414Y-117.5382

G1X122.6551Y-124.4103

G1X120.1192Y-131.0997

G1X119.1209Y-134.1021

G1X118.3369Y-136.7615

G1X117.5167Y-140.2604

G1X117.0382Y-143.4639

G1X116.8968Y-146.3613

G1X117.0904Y-149.1598

G1X117.5945Y-151.6800

G1X118.3600Y-154.0135

G1X119.2958Y-156.1519

G1X121.8017Y-160.9816

G1X122.6247Y-162.7400

G1X123.3934Y-164.7291

G1X123.9894Y-166.8428

G1X124.4238Y-169.5502

G1X124.5413Y-172.3989

G1X124.3497Y-175.5243

G1X123.8459Y-178.9171

G1X123.0500Y-182.5173

G1X121.9736Y-186.3450

G1X120.5787Y-190.5408

G1X118.8636Y-195.0914

G1X116.7957Y-200.0709

G1X114.3053Y-205.6325

G1X105.3315Y-224.3237

G1X102.4462Y-230.6938

G1X101.0855Y-234.0370

G1X99.9300Y-237.2547

G1X99.1182Y-239.9982

G1X98.5540Y-242.5097

G1X98.2937Y-244.2932

G1X98.1715Y-245.9791

G1X98.1815Y-247.3247

G1X98.3385Y-248.9502

G1X98.6594Y-250.9779

G1X99.1232Y-252.9636

G1X99.6927Y-254.8259

G1X100.3798Y-256.6370

G1X101.5490Y-259.1205

G1X103.0052Y-261.6537

G1X104.7036Y-264.2046

G1X108.7186Y-269.7036

G1X110.2938Y-271.9929

G1X111.8416Y-274.5412

G1X113.0844Y-277.0005

G1 Z0F20000


G00 X0.0000 Y0.0000


