$H
G21
G17
G90
G1 Z0F20000
G1 F15000
(Start Layer)
(Start Block)

G1X56.2285Y-72.0084
G1 Z3.0F20000
(Plotting speed under)
G1 F4000

G1X55.5805Y-70.2249
G1X55.2773Y-69.6874
G1X54.1404Y-69.5853
G1X51.8444Y-69.5484
G1X49.7259Y-69.5901
G1X48.6760Y-69.6966
G1X48.2936Y-70.4874
G1X47.5238Y-72.6871
G1X46.8195Y-74.9904
G1X46.6003Y-76.0416
G1X47.5738Y-76.9040
G1X49.7854Y-78.5464
G1X51.5445Y-79.7337
G1X51.9128Y-79.9346
G1X52.0654Y-79.9346
G1X53.1103Y-79.2968
G1X54.8936Y-78.0416
G1X56.5831Y-76.7627
G1X57.3696Y-76.0594
G1X57.1287Y-74.8825
G1X56.2285Y-72.0084
G1 Z0F20000
(Start Block)

G1X58.0565Y-76.5766
G1 Z3.0F20000
(Plotting speed under)
G1 F4000

G1X58.5653Y-76.0190
G1X58.4455Y-75.4443
G1X56.8745Y-71.1728
G1X56.0773Y-69.3085
G1X55.6656Y-68.5703
G1X54.3121Y-68.5050
G1X51.3784Y-68.6258
G1X48.6087Y-68.8525
G1X47.6578Y-69.0602
G1X47.2696Y-70.0881
G1X46.6701Y-72.1544
G1X45.6721Y-76.3877
G1X45.6762Y-76.7934
G1X46.4510Y-77.4207
G1X50.1015Y-79.8277
G1X51.6892Y-80.7667
G1X52.3769Y-81.0779
G1X53.0985Y-80.6379
G1X54.6020Y-79.4923
G1X58.0565Y-76.5766
G1 Z0F20000
(Start Block)

G1X51.9156Y-67.6221
G1 Z3.0F20000
(Plotting speed under)
G1 F4000

G1X48.1791Y-68.0820
G1X47.0428Y-68.2858
G1X46.6495Y-68.4265
G1X46.2120Y-69.7842
G1X45.5353Y-72.7196
G1X44.9259Y-75.8843
G1X44.7392Y-77.4714
G1X44.8790Y-77.6736
G1X45.5000Y-78.1203
G1X48.2528Y-79.7991
G1X51.4221Y-81.5515
G1X52.8440Y-82.1758
G1X54.0987Y-81.2616
G1X56.7133Y-78.9677
G1X59.0156Y-76.7774
G1X59.5962Y-76.1505
G1X59.7543Y-75.8728
G1X59.2709Y-74.4387
G1X58.0156Y-71.5051
G1X56.7158Y-68.7489
G1X55.9649Y-67.4346
G1X55.7046Y-67.3707
G1X54.8944Y-67.3812
G1X51.9156Y-67.6221
G1 Z0F20000
(Start Block)

G1X60.9122Y-75.6671
G1 Z3.0F20000
(Plotting speed under)
G1 F4000

G1X60.1816Y-73.8457
G1X58.6556Y-70.6569
G1X57.0764Y-67.6353
G1X56.2198Y-66.2789
G1X55.8147Y-66.2225
G1X54.6518Y-66.3028
G1X50.4510Y-66.8487
G1X46.9268Y-67.4569
G1X45.9372Y-67.6921
G1X45.6201Y-67.8473
G1X45.1930Y-69.3935
G1X44.5320Y-72.8848
G1X43.9893Y-76.4649
G1X43.8534Y-78.2580
G1X44.0260Y-78.4748
G1X44.7984Y-78.9830
G1X47.9661Y-80.7470
G1X51.5854Y-82.5706
G1X52.7738Y-83.0972
G1X53.3162Y-83.2574
G1X53.7886Y-82.9473
G1X54.8577Y-82.0229
G1X58.1131Y-78.9039
G1X60.4611Y-76.4385
G1X60.8879Y-75.8900
G1X60.9122Y-75.6671
G1 Z0F20000
(Start Block)

G1X57.1025Y-81.2618
G1 Z3.0F20000
(Plotting speed under)
G1 F4000

G1X60.6732Y-77.5232
G1X61.7216Y-76.3076
G1X62.0831Y-75.7417
G1X61.4679Y-74.1634
G1X59.7449Y-70.7006
G1X57.7468Y-67.0306
G1X56.5995Y-65.2291
G1X56.3801Y-65.1207
G1X55.5430Y-65.1563
G1X51.6731Y-65.6894
G1X46.8643Y-66.5710
G1X45.3710Y-66.9194
G1X44.7012Y-67.1583
G1X44.5051Y-67.6592
G1X44.2260Y-68.9250
G1X43.5218Y-73.2026
G1X42.9997Y-77.4274
G1X42.9238Y-78.6343
G1X42.9844Y-79.0666
G1X44.5817Y-80.0674
G1X48.0809Y-81.8800
G1X51.7018Y-83.5940
G1X53.6167Y-84.3374
G1X53.8906Y-84.2476
G1X54.5456Y-83.7133
G1X57.1025Y-81.2618
G1 Z0F20000
(Start Block)

G1X47.2823Y-65.5240
G1 Z3.0F20000
(Plotting speed under)
G1 F4000

G1X44.3569Y-66.2011
G1X43.8744Y-66.3879
G1X43.7557Y-66.5862
G1X43.2178Y-69.0248
G1X42.5094Y-73.6024
G1X42.0258Y-77.6953
G1X41.9388Y-78.9853
G1X41.9723Y-79.5861
G1X42.4137Y-79.9472
G1X43.5849Y-80.6330
G1X47.7605Y-82.7798
G1X52.0518Y-84.7768
G1X53.4095Y-85.3212
G1X53.9655Y-85.4477
G1X54.7382Y-84.8679
G1X56.3393Y-83.3683
G1X60.6840Y-78.9040
G1X62.9896Y-76.2531
G1X63.2051Y-75.8941
G1X63.1377Y-75.5549
G1X62.0211Y-73.0699
G1X59.9277Y-69.0236
G1X57.9956Y-65.5909
G1X56.9804Y-64.1183
G1X56.0610Y-64.1103
G1X53.8058Y-64.3893
G1X47.2823Y-65.5240
G1 Z0F20000
(Start Block)

G1X62.4958Y-78.4249
G1 Z3.0F20000
(Plotting speed under)
G1 F4000

G1X64.1808Y-76.4574
G1X64.3057Y-76.2030
G1X64.2320Y-75.8678
G1X63.0548Y-73.1370
G1X60.8523Y-68.7148
G1X58.7363Y-64.8167
G1X58.0365Y-63.6732
G1X57.6449Y-63.1840
G1X56.9877Y-63.1410
G1X55.4454Y-63.2737
G1X50.1281Y-64.0227
G1X45.0635Y-64.9455
G1X43.6423Y-65.2917
G1X43.1369Y-65.5204
G1X42.7443Y-66.8361
G1X42.1751Y-69.7211
G1X41.5410Y-73.5917
G1X41.0448Y-77.2357
G1X40.8594Y-79.8204
G1X40.9463Y-80.0365
G1X41.3910Y-80.3725
G1X44.1535Y-81.9665
G1X48.4759Y-84.2004
G1X52.1916Y-85.9618
G1X53.3378Y-86.4350
G1X53.9421Y-86.6007
G1X54.8927Y-85.9226
G1X56.9605Y-84.0258
G1X59.8307Y-81.1991
G1X62.4958Y-78.4249
G1 Z0F20000
(Start Block)

G1X43.3743Y-64.1410
G1 Z3.0F20000
(Plotting speed under)
G1 F4000

G1X42.7744Y-64.3237
G1X42.5965Y-64.5056
G1X42.2901Y-65.4081
G1X41.8410Y-67.1948
G1X40.9983Y-71.1807
G1X40.1950Y-75.5864
G1X39.7316Y-78.7500
G1X39.6880Y-80.0870
G1X40.3037Y-80.6064
G1X41.9123Y-81.6331
G1X47.1395Y-84.6096
G1X51.9499Y-87.0963
G1X53.3167Y-87.6897
G1X53.7824Y-87.7536
G1X54.4399Y-87.3132
G1X55.6930Y-86.2851
G1X59.4711Y-82.8767
G1X63.3424Y-79.1266
G1X65.2477Y-77.0244
G1X65.3503Y-76.7706
G1X65.1769Y-76.1120
G1X63.8381Y-72.8370
G1X60.4251Y-65.6269
G1X59.1631Y-63.2675
G1X58.5180Y-62.3631
G1X57.8614Y-62.3106
G1X56.5574Y-62.3708
G1X52.1130Y-62.8097
G1X46.8560Y-63.5129
G1X43.3743Y-64.1410
G1 Z0F20000
(Start Block)

G1X61.3043Y-64.7898
G1 Z3.0F20000
(Plotting speed under)
G1 F4000

G1X59.9088Y-62.0154
G1X59.6707Y-61.7197
G1X59.2990Y-61.6429
G1X55.8345Y-61.6834
G1X49.9357Y-62.0887
G1X44.7353Y-62.6313
G1X43.1462Y-62.8801
G1X42.4214Y-63.0902
G1X42.0761Y-63.7964
G1X41.5273Y-65.5283
G1X39.9470Y-71.6365
G1X38.6594Y-77.5862
G1X38.3907Y-79.2979
G1X38.4038Y-79.9776
G1X39.6232Y-80.9773
G1X42.4254Y-82.8502
G1X46.3565Y-85.2950
G1X50.0372Y-87.4513
G1X51.9078Y-88.4616
G1X52.9566Y-88.9334
G1X53.2459Y-88.9535
G1X53.7882Y-88.6422
G1X56.7735Y-86.3582
G1X61.2512Y-82.5817
G1X64.8566Y-79.3192
G1X65.8926Y-78.2769
G1X66.3124Y-77.7279
G1X66.2646Y-77.2862
G1X66.0036Y-76.3911
G1X64.8520Y-73.2293
G1X63.0698Y-68.8295
G1X61.3043Y-64.7898
G1 Z0F20000
(Start Block)

G1X42.5400Y-61.6122
G1 Z3.0F20000
(Plotting speed under)
G1 F4000

G1X42.3509Y-61.6894
G1X42.2269Y-61.8516
G1X41.6913Y-63.0675
G1X39.7382Y-68.9316
G1X37.6673Y-76.2111
G1X37.1349Y-78.5042
G1X37.0263Y-79.5633
G1X37.7210Y-80.2744
G1X39.4473Y-81.6376
G1X45.2173Y-85.7467
G1X50.5432Y-89.2182
G1X51.9462Y-90.0000
G1X52.2974Y-90.1381
G1X52.4865Y-90.1259
G1X53.3924Y-89.6338
G1X55.1007Y-88.4888
G1X60.1125Y-84.7936
G1X64.9621Y-80.9401
G1X66.4832Y-79.6123
G1X67.1573Y-78.8937
G1X67.1536Y-78.3118
G1X66.7226Y-76.6190
G1X64.7252Y-70.4848
G1X62.2012Y-63.7084
G1X61.3857Y-61.8516
G1X60.9430Y-61.2032
G1X60.0152Y-61.0629
G1X58.1439Y-60.9813
G1X52.1626Y-61.0051
G1X45.8509Y-61.2559
G1X43.6920Y-61.4307
G1X42.5400Y-61.6122
G1 Z0F20000
(Start Block)

G1X41.7733Y-61.4207
G1 Z3.0F20000
(Plotting speed under)
G1 F4000

G1X39.9817Y-65.7752
G1X37.7576Y-71.8534
G1X36.1378Y-76.8003
G1X35.7387Y-78.2985
G1X35.6537Y-78.9850
G1X35.9511Y-79.3975
G1X36.7710Y-80.1926
G1X39.7722Y-82.7464
G1X44.1538Y-86.2159
G1X48.2729Y-89.2942
G1X51.0922Y-91.1564
G1X51.4410Y-91.2787
G1X51.8908Y-91.1220
G1X55.3008Y-89.1316
G1X60.7922Y-85.5077
G1X65.7290Y-82.0011
G1X67.1985Y-80.8508
G1X67.9159Y-80.1700
G1X67.9881Y-79.9706
G1X67.9596Y-79.5341
G1X67.6173Y-77.7552
G1X65.8943Y-71.1723
G1X63.6724Y-63.9109
G1X62.9029Y-61.7878
G1X62.4319Y-60.8786
G1X61.8598Y-60.7117
G1X60.5750Y-60.5423
G1X55.9747Y-60.2182
G1X49.9085Y-60.0022
G1X44.7987Y-59.9878
G1X43.2136Y-60.0680
G1X42.4924Y-60.1961
G1X42.2225Y-60.5324
G1X41.7733Y-61.4207
G1 Z0F20000
(Start Block)

G1X52.5662Y-91.4213
G1 Z3.0F20000
(Plotting speed under)
G1 F4000

G1X57.1779Y-88.8512
G1X62.8703Y-85.4226
G1X67.0671Y-82.6913
G1X68.2344Y-81.8264
G1X68.6769Y-81.3776
G1X68.6880Y-80.6929
G1X68.4900Y-79.2181
G1X67.5275Y-74.2577
G1X66.0380Y-67.7800
G1X64.6652Y-62.6325
G1X64.2175Y-61.2732
G1X63.9127Y-60.6352
G1X63.5300Y-60.4612
G1X62.5222Y-60.2433
G1X57.6966Y-59.6021
G1X50.9718Y-58.9800
G1X45.3941Y-58.6483
G1X43.6354Y-58.6296
G1X42.7291Y-58.7160
G1X42.5362Y-58.8602
G1X42.2428Y-59.2945
G1X41.2798Y-61.1190
G1X38.2184Y-67.8959
G1X35.2900Y-75.1415
G1X34.5133Y-77.3957
G1X34.3264Y-78.3812
G1X34.7922Y-79.0124
G1X35.9428Y-80.1995
G1X40.1601Y-84.0953
G1X45.4830Y-88.6801
G1X49.3153Y-91.7106
G1X50.0877Y-92.2184
G1X50.4415Y-92.3519
G1X51.1662Y-92.1047
G1X52.5662Y-91.4213
G1 Z0F20000
(Start Block)

G1X64.8591Y-85.5667
G1 Z3.0F20000
(Plotting speed under)
G1 F4000

G1X68.7947Y-83.1192
G1X69.3488Y-82.6351
G1X69.4166Y-82.2328
G1X69.3057Y-80.6159
G1X68.9538Y-77.9549
G1X67.6493Y-70.3170
G1X66.2144Y-63.4116
G1X65.6719Y-61.3303
G1X65.2901Y-60.3590
G1X64.4338Y-60.0240
G1X62.1434Y-59.5392
G1X54.1836Y-58.3172
G1X46.1429Y-57.4081
G1X43.7627Y-57.2699
G1X42.7866Y-57.3690
G1X42.4218Y-57.8108
G1X41.8227Y-58.7766
G1X39.9687Y-62.2218
G1X37.5372Y-67.1378
G1X35.2054Y-72.1552
G1X33.8575Y-75.2836
G1X33.1407Y-77.2295
G1X33.0439Y-77.7779
G1X33.3928Y-78.3378
G1X34.6280Y-79.7492
G1X36.6215Y-81.8151
G1X42.1727Y-87.1960
G1X47.1071Y-91.6515
G1X48.6400Y-92.8952
G1X49.4353Y-93.3837
G1X49.9489Y-93.2780
G1X51.0218Y-92.8484
G1X54.6203Y-91.1184
G1X59.8546Y-88.3661
G1X64.8591Y-85.5667
G1 Z0F20000
(Start Block)

G1X67.4344Y-63.4439
G1 Z3.0F20000
(Plotting speed under)
G1 F4000

G1X66.9622Y-61.3153
G1X66.5970Y-60.1292
G1X66.4014Y-59.8798
G1X65.6893Y-59.6103
G1X63.6902Y-59.1080
G1X60.7025Y-58.4947
G1X52.6319Y-57.1060
G1X45.8334Y-56.1816
G1X43.8016Y-56.0148
G1X42.8373Y-56.0631
G1X42.1218Y-56.9298
G1X40.7518Y-59.1807
G1X36.6208Y-66.8451
G1X32.9464Y-74.3656
G1X32.0168Y-76.5978
G1X31.8414Y-77.1918
G1X31.8499Y-77.4544
G1X32.3129Y-78.1608
G1X33.4087Y-79.4784
G1X37.1019Y-83.4735
G1X42.0659Y-88.5051
G1X46.3252Y-92.5594
G1X47.8218Y-93.8498
G1X48.6422Y-94.4054
G1X49.0990Y-94.3578
G1X50.1625Y-93.9850
G1X55.2748Y-91.6934
G1X62.3181Y-88.1841
G1X67.8661Y-85.1762
G1X69.4559Y-84.1957
G1X70.1160Y-83.6427
G1X70.1865Y-82.9524
G1X70.1093Y-81.4655
G1X69.5389Y-76.4119
G1X68.5088Y-69.4522
G1X67.4344Y-63.4439
G1 Z0F20000
(Start Block)

G1X32.2131Y-73.4366
G1 Z3.0F20000
(Plotting speed under)
G1 F4000

G1X31.1987Y-75.6684
G1X30.7053Y-77.0094
G1X30.6900Y-77.3661
G1X31.0914Y-78.0141
G1X32.4044Y-79.6365
G1X34.5560Y-82.0584
G1X40.4748Y-88.2960
G1X45.7545Y-93.4802
G1X47.4074Y-94.9368
G1X48.2381Y-95.4907
G1X49.3607Y-95.2181
G1X51.9596Y-94.1708
G1X55.7660Y-92.4542
G1X60.3425Y-90.2648
G1X64.6933Y-88.0802
G1X68.2253Y-86.1988
G1X70.3572Y-84.9301
G1X70.8581Y-84.5561
G1X71.0287Y-84.3211
G1X71.0839Y-83.4444
G1X70.9979Y-81.7584
G1X70.4312Y-76.3110
G1X69.4533Y-69.1689
G1X68.4107Y-62.9337
G1X67.9140Y-60.5982
G1X67.5333Y-59.4148
G1X67.1968Y-59.1719
G1X66.1556Y-58.8288
G1X60.5226Y-57.5554
G1X52.3760Y-56.0756
G1X45.5580Y-55.0780
G1X43.4996Y-54.8910
G1X42.5629Y-54.9339
G1X42.0864Y-55.4347
G1X41.2361Y-56.6980
G1X38.5823Y-61.2320
G1X35.1114Y-67.6669
G1X32.2131Y-73.4366
G1 Z0F20000
(Start Block)

G1X45.1860Y-94.1843
G1 Z3.0F20000
(Plotting speed under)
G1 F4000

G1X46.9801Y-95.7799
G1X48.0180Y-96.5550
G1X48.3659Y-96.6328
G1X49.2250Y-96.3913
G1X51.4097Y-95.5184
G1X54.5345Y-94.1156
G1X62.6536Y-90.1609
G1X69.3389Y-86.6080
G1X71.2685Y-85.4439
G1X72.0667Y-84.8006
G1X72.1460Y-84.4044
G1X72.1493Y-83.5589
G1X71.9302Y-80.6814
G1X71.4195Y-76.3086
G1X70.6800Y-71.0204
G1X69.8717Y-65.9494
G1X69.1256Y-61.8903
G1X68.5224Y-59.2873
G1X68.3017Y-58.6408
G1X68.1178Y-58.3828
G1X67.2156Y-58.0345
G1X65.4057Y-57.5651
G1X59.2458Y-56.3103
G1X51.4492Y-54.9870
G1X45.0003Y-54.1059
G1X42.9482Y-53.9346
G1X41.9609Y-53.9729
G1X41.5472Y-54.3584
G1X40.8148Y-55.4179
G1X37.6485Y-60.8847
G1X33.5890Y-68.5919
G1X30.5557Y-74.8734
G1X29.7951Y-76.7103
G1X29.5701Y-77.6054
G1X29.9462Y-78.2631
G1X31.0096Y-79.5911
G1X34.8998Y-83.8834
G1X40.2903Y-89.4363
G1X45.1860Y-94.1843
G1 Z0F20000
(Start Block)

G1X69.7885Y-61.4491
G1 Z3.0F20000
(Plotting speed under)
G1 F4000

G1X69.1617Y-58.8507
G1X68.7021Y-57.4434
G1X68.4573Y-57.1400
G1X67.6708Y-56.8576
G1X65.3919Y-56.3284
G1X61.8638Y-55.6752
G1X52.5447Y-54.2596
G1X44.4483Y-53.3187
G1X42.0604Y-53.1673
G1X40.8987Y-53.2392
G1X40.5946Y-53.5206
G1X40.1225Y-54.1917
G1X38.6025Y-56.7905
G1X36.4361Y-60.8782
G1X33.9820Y-65.7752
G1X31.6384Y-70.6814
G1X29.7924Y-74.7958
G1X28.7719Y-77.3794
G1X28.5666Y-78.0965
G1X28.5672Y-78.4420
G1X29.0926Y-79.2224
G1X30.3349Y-80.6652
G1X34.7130Y-85.2242
G1X40.5810Y-90.9447
G1X45.6106Y-95.5567
G1X47.5029Y-97.1364
G1X48.5265Y-97.8194
G1X49.0372Y-97.7806
G1X50.2194Y-97.3480
G1X52.7262Y-96.2252
G1X56.0939Y-94.5815
G1X64.1804Y-90.3536
G1X70.6691Y-86.6726
G1X72.5394Y-85.4731
G1X73.3451Y-84.7870
G1X73.4205Y-84.0352
G1X73.3096Y-82.3896
G1X72.5363Y-76.5261
G1X71.1865Y-68.4891
G1X69.7885Y-61.4491
G1 Z0F20000
(Start Block)

G1X41.8831Y-93.1857
G1 Z3.0F20000
(Plotting speed under)
G1 F4000

G1X45.2305Y-96.0148
G1X47.7891Y-98.0422
G1X49.1955Y-98.9873
G1X49.4773Y-99.0928
G1X49.7419Y-99.0548
G1X51.4120Y-98.3689
G1X54.3549Y-96.8756
G1X63.1073Y-91.9598
G1X71.2079Y-87.0155
G1X73.6930Y-85.3270
G1X74.7639Y-84.4084
G1X74.8496Y-84.0457
G1X74.8173Y-83.2419
G1X74.4178Y-80.3003
G1X73.5913Y-75.7410
G1X72.4424Y-70.1540
G1X71.1790Y-64.5504
G1X70.0038Y-59.8418
G1X69.1303Y-56.8717
G1X68.8140Y-56.0507
G1X68.5725Y-55.6783
G1X67.9767Y-55.4512
G1X66.7605Y-55.1778
G1X62.5431Y-54.5154
G1X56.4995Y-53.7843
G1X49.8744Y-53.1333
G1X44.6877Y-52.7422
G1X41.1280Y-52.6032
G1X39.5823Y-52.6966
G1X39.3815Y-52.7930
G1X39.1150Y-53.1141
G1X38.0695Y-54.9031
G1X36.4952Y-58.0350
G1X32.3796Y-67.0531
G1X28.8477Y-75.5856
G1X27.9024Y-78.2447
G1X27.6168Y-79.5114
G1X27.8710Y-79.9905
G1X28.6543Y-80.9074
G1X31.7416Y-84.0027
G1X36.4967Y-88.4190
G1X41.8831Y-93.1857
G1 Z0F20000
(Start Block)

G1X52.3093Y-99.6668
G1 Z3.0F20000
(Plotting speed under)
G1 F4000

G1X54.8939Y-98.2142
G1X58.3724Y-96.0997
G1X66.8378Y-90.6204
G1X73.6527Y-85.8661
G1X75.5708Y-84.3633
G1X76.3483Y-83.5587
G1X76.3640Y-82.8380
G1X76.1173Y-81.2292
G1X74.8892Y-75.7117
G1X72.8698Y-67.9476
G1X70.6936Y-60.3994
G1X69.6014Y-56.9958
G1X68.7669Y-54.7668
G1X68.3440Y-53.9999
G1X67.7853Y-53.7811
G1X65.6288Y-53.4348
G1X62.0145Y-53.0764
G1X51.8381Y-52.4451
G1X42.3836Y-52.1871
G1X39.3490Y-52.2463
G1X37.8516Y-52.4247
G1X37.5911Y-52.6044
G1X37.2187Y-53.1795
G1X35.9887Y-55.7095
G1X34.1529Y-60.0367
G1X31.9790Y-65.5437
G1X29.8114Y-71.3623
G1X28.1006Y-76.2880
G1X27.0833Y-79.6326
G1X26.8591Y-80.6436
G1X26.8441Y-81.1419
G1X27.3836Y-81.8535
G1X28.7600Y-83.2042
G1X33.7251Y-87.5246
G1X40.7161Y-93.1976
G1X46.8545Y-97.8801
G1X49.2585Y-99.5534
G1X50.5749Y-100.2893
G1X51.0760Y-100.2394
G1X52.3093Y-99.6668
G1 Z0F20000
(Start Block)

G1X31.6718Y-63.1340
G1 Z3.0F20000
(Plotting speed under)
G1 F4000

G1X29.3927Y-70.3053
G1X27.4837Y-76.8426
G1X26.3976Y-81.1823
G1X26.1916Y-82.4048
G1X26.2197Y-82.9700
G1X27.1999Y-84.0073
G1X29.5776Y-85.9815
G1X33.2579Y-88.8012
G1X37.7239Y-92.0712
G1X42.4781Y-95.4277
G1X46.7471Y-98.3208
G1X49.9071Y-100.3305
G1X51.8089Y-101.3641
G1X52.1922Y-101.4833
G1X52.4801Y-101.4233
G1X54.1851Y-100.5016
G1X57.6509Y-98.2254
G1X62.4321Y-94.8520
G1X68.1528Y-90.6263
G1X73.2236Y-86.7020
G1X76.5832Y-83.9018
G1X77.5085Y-83.0192
G1X77.9137Y-82.5006
G1X77.9327Y-82.0327
G1X77.7684Y-81.0632
G1X76.9065Y-77.7009
G1X75.3953Y-72.6734
G1X73.4381Y-66.6598
G1X71.3865Y-60.7429
G1X69.6087Y-55.9889
G1X68.3691Y-53.0908
G1X67.9718Y-52.3718
G1X67.6957Y-52.1034
G1X66.1312Y-51.8385
G1X62.8256Y-51.6422
G1X58.0853Y-51.5342
G1X52.3631Y-51.5245
G1X46.5732Y-51.6152
G1X41.5298Y-51.7947
G1X37.9670Y-52.0357
G1X36.0505Y-52.3259
G1X35.7845Y-52.4513
G1X35.5502Y-52.7773
G1X34.6846Y-54.6709
G1X33.3397Y-58.2543
G1X31.6718Y-63.1340
G1 Z0F20000
(Start Block)

G1X33.9393Y-52.4654
G1 Z3.0F20000
(Plotting speed under)
G1 F4000

G1X33.6725Y-52.7965
G1X33.3029Y-53.6224
G1X32.2456Y-56.7315
G1X30.7912Y-61.7244
G1X29.1502Y-67.8959
G1X27.6062Y-74.1734
G1X26.4044Y-79.5723
G1X25.7532Y-83.1515
G1X25.6386Y-84.2392
G1X25.6758Y-84.7834
G1X26.0540Y-85.2332
G1X26.9080Y-85.9564
G1X30.1501Y-88.3132
G1X35.0604Y-91.6003
G1X40.9062Y-95.3278
G1X46.3623Y-98.6562
G1X50.5997Y-101.0885
G1X53.1431Y-102.3608
G1X53.7411Y-102.5533
G1X54.0553Y-102.4975
G1X55.6900Y-101.5081
G1X58.6656Y-99.3264
G1X62.7960Y-96.0815
G1X67.4780Y-92.2476
G1X72.0530Y-88.3660
G1X75.7931Y-85.0551
G1X78.2797Y-82.6902
G1X79.4000Y-81.3787
G1X79.4490Y-80.9803
G1X79.2694Y-80.0853
G1X78.1826Y-76.5977
G1X76.1969Y-71.1252
G1X73.6412Y-64.5782
G1X71.1658Y-58.5906
G1X69.1091Y-53.9460
G1X67.6842Y-51.1182
G1X67.2530Y-50.4697
G1X66.9764Y-50.2774
G1X65.1411Y-50.0993
G1X61.5257Y-50.1060
G1X56.3251Y-50.2955
G1X50.1564Y-50.6488
G1X44.1639Y-51.0983
G1X39.0589Y-51.5900
G1X35.5879Y-52.0534
G1X34.5106Y-52.2703
G1X33.9393Y-52.4654
G1 Z0F20000
(Start Block)

G1X78.9093Y-82.5583
G1 Z3.0F20000
(Plotting speed under)
G1 F4000

G1X80.3202Y-80.9736
G1X80.8672Y-80.1286
G1X80.7200Y-79.2381
G1X80.0957Y-77.3691
G1X78.7782Y-74.0162
G1X76.9089Y-69.6153
G1X72.3564Y-59.6120
G1X68.4720Y-51.7979
G1X67.2210Y-49.6003
G1X66.4803Y-48.6390
G1X65.9407Y-48.5192
G1X64.8739Y-48.4829
G1X61.0059Y-48.6557
G1X55.1093Y-49.1589
G1X48.2439Y-49.9008
G1X41.5276Y-50.7579
G1X36.2589Y-51.5635
G1X33.0496Y-52.2165
G1X32.2504Y-52.4777
G1X31.9689Y-52.7049
G1X31.4058Y-54.1242
G1X30.5762Y-57.0804
G1X29.5426Y-61.3696
G1X28.4100Y-66.5408
G1X26.2641Y-77.6015
G1X25.5428Y-82.0304
G1X25.1773Y-85.0065
G1X25.1390Y-86.2621
G1X25.3083Y-86.7006
G1X26.5043Y-87.6737
G1X28.9188Y-89.2826
G1X36.4794Y-93.8290
G1X45.4563Y-98.8522
G1X52.2853Y-102.3723
G1X54.3364Y-103.2802
G1X55.3596Y-103.5587
G1X56.3850Y-102.9916
G1X58.3666Y-101.4779
G1X64.8485Y-95.9117
G1X72.9391Y-88.4654
G1X76.3212Y-85.1937
G1X78.9093Y-82.5583
G1 Z0F20000
(Start Block)

G1X24.6481Y-85.3039
G1 Z3.0F20000
(Plotting speed under)
G1 F4000

G1X24.5541Y-87.1933
G1X24.6667Y-88.0556
G1X25.6068Y-88.8494
G1X27.7181Y-90.1942
G1X31.1496Y-92.1749
G1X35.4785Y-94.5402
G1X45.3932Y-99.6558
G1X53.1437Y-103.3243
G1X55.4322Y-104.2509
G1X56.5870Y-104.5378
G1X57.1140Y-104.2836
G1X58.0269Y-103.6141
G1X61.1206Y-100.9515
G1X65.6520Y-96.7236
G1X70.8067Y-91.6932
G1X75.6561Y-86.7760
G1X79.4532Y-82.7294
G1X81.6477Y-80.1415
G1X82.1019Y-79.4549
G1X82.1794Y-79.0797
G1X81.6725Y-77.4187
G1X80.3842Y-74.3318
G1X78.3508Y-69.9109
G1X75.8290Y-64.7139
G1X73.0643Y-59.2439
G1X70.3992Y-54.1896
G1X68.2613Y-50.3620
G1X66.7507Y-47.9355
G1X66.1133Y-47.1616
G1X65.5908Y-47.0201
G1X63.5500Y-47.0596
G1X60.0552Y-47.3766
G1X50.8114Y-48.5757
G1X40.6962Y-50.1873
G1X33.3881Y-51.6154
G1X31.3347Y-52.1546
G1X30.4663Y-52.5456
G1X29.9900Y-53.6982
G1X29.3216Y-56.3030
G1X28.4696Y-60.3534
G1X27.5311Y-65.3889
G1X25.6893Y-76.7930
G1X25.0397Y-81.6069
G1X24.6481Y-85.3039
G1 Z0F20000
(Start Block)

G1X60.8541Y-102.8176
G1 Z3.0F20000
(Plotting speed under)
G1 F4000

G1X63.9079Y-99.9320
G1X67.5605Y-96.3274
G1X75.4989Y-88.1248
G1X78.7699Y-84.5785
G1X81.2450Y-81.7638
G1X82.8034Y-79.8206
G1X83.3954Y-78.8015
G1X83.3370Y-78.3612
G1X83.0951Y-77.6046
G1X82.0919Y-75.1887
G1X80.3772Y-71.5313
G1X78.1349Y-67.0266
G1X72.6074Y-56.5631
G1X70.1079Y-52.1011
G1X68.0438Y-48.6247
G1X66.7388Y-46.6487
G1X65.9997Y-45.8228
G1X65.1217Y-45.7234
G1X63.1739Y-45.8367
G1X59.5126Y-46.2536
G1X54.6281Y-46.9512
G1X43.1282Y-48.8979
G1X37.9077Y-49.9070
G1X33.6287Y-50.8298
G1X30.7686Y-51.5623
G1X29.3447Y-52.0941
G1X29.0874Y-52.4161
G1X28.7877Y-53.2709
G1X27.9907Y-56.7093
G1X26.9547Y-62.4232
G1X25.8469Y-69.5234
G1X24.8378Y-76.9168
G1X24.1270Y-83.1654
G1X23.8206Y-87.3188
G1X23.8242Y-88.5105
G1X23.9376Y-89.1153
G1X24.2643Y-89.4464
G1X24.9719Y-89.9570
G1X27.5142Y-91.4900
G1X31.5040Y-93.6653
G1X36.4636Y-96.2240
G1X47.5428Y-101.5999
G1X52.1144Y-103.6593
G1X55.4178Y-105.0116
G1X56.8875Y-105.4903
G1X57.5151Y-105.5182
G1X58.7299Y-104.6739
G1X60.8541Y-102.8176
G1 Z0F20000
(Start Block)

G1X62.6896Y-44.8908
G1 Z3.0F20000
(Plotting speed under)
G1 F4000

G1X58.5254Y-45.4089
G1X53.1790Y-46.2085
G1X41.2289Y-48.2948
G1X36.1780Y-49.3022
G1X32.1436Y-50.2060
G1X29.5010Y-50.9268
G1X28.3928Y-51.4192
G1X27.9354Y-52.5420
G1X27.3348Y-55.0289
G1X26.6029Y-58.8021
G1X25.7774Y-63.6752
G1X24.0984Y-75.2600
G1X23.4436Y-80.6416
G1X23.0109Y-84.9680
G1X22.8255Y-87.9808
G1X22.8977Y-89.5316
G1X22.9979Y-89.7417
G1X23.2740Y-90.0064
G1X24.4921Y-90.8503
G1X27.4797Y-92.5930
G1X31.8021Y-94.9097
G1X37.2635Y-97.6917
G1X43.0277Y-100.5115
G1X48.2951Y-102.9847
G1X52.7301Y-104.9551
G1X55.8126Y-106.1909
G1X57.4701Y-106.6656
G1X57.8633Y-106.5737
G1X58.6217Y-106.0575
G1X61.3783Y-103.6678
G1X65.6374Y-99.5902
G1X70.8907Y-94.3056
G1X76.2540Y-88.6986
G1X80.6867Y-83.8524
G1X83.5099Y-80.5110
G1X84.2458Y-79.4922
G1X84.5243Y-78.9071
G1X84.4480Y-78.4165
G1X84.1738Y-77.5860
G1X83.0304Y-74.8777
G1X81.1613Y-70.9333
G1X78.6881Y-66.0078
G1X72.7995Y-54.9582
G1X70.1744Y-50.3327
G1X68.1705Y-47.0318
G1X67.0441Y-45.3947
G1X66.4179Y-44.7677
G1X65.1845Y-44.6953
G1X62.6896Y-44.8908
G1 Z0F20000
(Start Block)

G1X85.5585Y-79.5890
G1 Z3.0F20000
(Plotting speed under)
G1 F4000

G1X85.4156Y-78.8995
G1X85.0040Y-77.7103
G1X83.3702Y-73.8511
G1X80.7869Y-68.3326
G1X77.5637Y-61.8132
G1X74.2019Y-55.3048
G1X71.1697Y-49.7204
G1X68.9466Y-45.9434
G1X68.1836Y-44.8031
G1X67.6408Y-44.1483
G1X67.2828Y-43.9732
G1X66.3565Y-43.9203
G1X62.5991Y-44.1710
G1X56.3971Y-44.9029
G1X48.7330Y-46.0025
G1X40.3977Y-47.3674
G1X33.5978Y-48.6498
G1X29.3724Y-49.6471
G1X28.3188Y-50.0113
G1X27.9209Y-50.3103
G1X27.6253Y-51.0021
G1X27.2538Y-52.2524
G1X26.3212Y-56.3064
G1X25.1656Y-62.3153
G1X23.9651Y-69.3525
G1X22.8785Y-76.4594
G1X22.0561Y-82.6722
G1X21.6184Y-87.1076
G1X21.5958Y-89.3928
G1X21.7305Y-89.7523
G1X22.2743Y-90.2366
G1X25.2072Y-92.1277
G1X30.3598Y-95.0434
G1X37.1083Y-98.6295
G1X44.5671Y-102.4053
G1X50.9140Y-105.4419
G1X55.2627Y-107.3201
G1X56.5355Y-107.7620
G1X57.2332Y-107.8786
G1X57.8263Y-107.5786
G1X58.8339Y-106.8306
G1X62.1845Y-103.9271
G1X66.9422Y-99.4658
G1X72.5711Y-93.9481
G1X77.9315Y-88.4916
G1X82.2172Y-83.9174
G1X84.7719Y-80.9331
G1X85.3933Y-80.0484
G1X85.5585Y-79.5890
G1 Z0F20000
(Start Block)

G1X69.2509Y-43.7397
G1 Z3.0F20000
(Plotting speed under)
G1 F4000

G1X68.8840Y-43.5353
G1X67.9808Y-43.4472
G1X64.2127Y-43.5576
G1X57.9550Y-44.0670
G1X50.1730Y-44.8987
G1X41.7679Y-45.9619
G1X34.7458Y-47.0098
G1X30.0534Y-47.8974
G1X28.7189Y-48.2551
G1X28.0881Y-48.5473
G1X27.7337Y-49.1943
G1X27.2741Y-50.5244
G1X26.0094Y-55.2877
G1X24.4103Y-62.3989
G1X22.7317Y-70.7213
G1X21.3203Y-78.5045
G1X20.3837Y-84.5801
G1X20.0387Y-88.1516
G1X20.0789Y-88.9346
G1X20.2801Y-89.2828
G1X20.9631Y-89.8756
G1X22.1623Y-90.7386
G1X25.9831Y-93.1845
G1X31.5678Y-96.5033
G1X38.0547Y-100.1827
G1X44.5595Y-103.7247
G1X50.0998Y-106.5934
G1X54.0319Y-108.4543
G1X55.2538Y-108.9435
G1X56.0323Y-109.1602
G1X56.4762Y-109.0667
G1X57.4048Y-108.4885
G1X60.7769Y-105.8301
G1X66.0037Y-101.2928
G1X72.3080Y-95.5444
G1X78.2586Y-89.8997
G1X82.9326Y-85.2449
G1X85.7281Y-82.1812
G1X86.3381Y-81.3417
G1X86.4644Y-80.9058
G1X86.3058Y-80.1133
G1X85.8851Y-78.7913
G1X84.3025Y-74.6986
G1X81.8393Y-68.9391
G1X78.7224Y-62.0527
G1X75.5359Y-55.3276
G1X72.6560Y-49.5587
G1X70.5271Y-45.6366
G1X69.7725Y-44.4189
G1X69.2509Y-43.7397
G1 Z0F20000
(Start Block)

G1X85.3326Y-85.2038
G1 Z3.0F20000
(Plotting speed under)
G1 F4000

G1X86.7510Y-83.6733
G1X87.0918Y-83.2051
G1X87.2031Y-82.9164
G1X87.1454Y-82.3035
G1X86.9083Y-81.2962
G1X85.9027Y-78.0859
G1X84.2982Y-73.6002
G1X82.1806Y-68.0609
G1X77.2686Y-56.0470
G1X75.0789Y-51.0358
G1X73.2712Y-47.1504
G1X71.9430Y-44.6016
G1X71.4733Y-43.8612
G1X71.1535Y-43.5075
G1X70.4742Y-43.3308
G1X69.0563Y-43.2284
G1X64.2218Y-43.2480
G1X56.9030Y-43.5649
G1X48.3091Y-44.1296
G1X40.0779Y-44.8309
G1X33.5888Y-45.5500
G1X29.7092Y-46.1854
G1X28.8055Y-46.4555
G1X28.4862Y-46.7246
G1X27.6513Y-48.6533
G1X26.3993Y-52.5482
G1X24.8041Y-58.1865
G1X23.0275Y-64.9986
G1X21.2797Y-72.1831
G1X19.8126Y-78.7162
G1X18.8192Y-83.7378
G1X18.3666Y-86.8960
G1X18.3855Y-87.9127
G1X18.8989Y-88.5301
G1X21.0717Y-90.2553
G1X24.7730Y-92.8449
G1X33.9611Y-98.8115
G1X43.9744Y-104.9271
G1X48.0693Y-107.2962
G1X51.3404Y-109.0809
G1X53.5417Y-110.1436
G1X54.2113Y-110.3917
G1X54.6120Y-110.4568
G1X55.1262Y-110.2588
G1X55.9652Y-109.7639
G1X58.6288Y-107.8891
G1X62.5334Y-104.8810
G1X67.3506Y-100.9909
G1X72.8028Y-96.4354
G1X77.9583Y-91.9882
G1X82.2492Y-88.1425
G1X85.3326Y-85.2038
G1 Z0F20000
(Start Block)

G1X44.8487Y-107.2730
G1 Z3.0F20000
(Plotting speed under)
G1 F4000

G1X49.0395Y-109.9105
G1X51.6976Y-111.3805
G1X52.5847Y-111.6797
G1X53.5038Y-111.3310
G1X56.3678Y-109.6069
G1X60.8616Y-106.5494
G1X66.6309Y-102.4000
G1X72.8930Y-97.7226
G1X78.7368Y-93.2008
G1X83.4467Y-89.3873
G1X86.4689Y-86.7337
G1X87.3231Y-85.8645
G1X87.7144Y-85.3262
G1X87.7379Y-84.6803
G1X87.5053Y-83.3617
G1X86.2941Y-78.7691
G1X84.1813Y-71.9138
G1X81.4347Y-63.6716
G1X78.6005Y-55.6747
G1X76.1067Y-49.1321
G1X74.3442Y-45.0663
G1X73.7563Y-44.0076
G1X73.3838Y-43.6365
G1X72.0708Y-43.3688
G1X69.5572Y-43.1636
G1X61.1301Y-42.9465
G1X49.5624Y-43.0308
G1X38.6148Y-43.3972
G1X33.0989Y-43.7694
G1X30.0524Y-44.1931
G1X29.6282Y-44.3334
G1X29.4169Y-44.5046
G1X28.6642Y-45.9029
G1X27.2553Y-49.4407
G1X25.3706Y-54.8147
G1X23.1527Y-61.6265
G1X20.8975Y-68.9749
G1X18.9597Y-75.6940
G1X17.5442Y-81.0516
G1X16.7462Y-84.6742
G1X16.5920Y-85.7760
G1X16.6032Y-86.3786
G1X16.8003Y-86.7107
G1X17.2630Y-87.2116
G1X19.0892Y-88.8248
G1X21.9423Y-91.0934
G1X25.7540Y-93.9674
G1X35.4614Y-100.9243
G1X44.8487Y-107.2730
G1 Z0F20000
(Start Block)

G1X34.7636Y-101.7667
G1 Z3.0F20000
(Plotting speed under)
G1 F4000

G1X41.2844Y-106.7536
G1X46.3383Y-110.4107
G1X49.4379Y-112.3983
G1X50.2222Y-112.7549
G1X50.6382Y-112.7446
G1X51.5303Y-112.3964
G1X52.9363Y-111.6861
G1X57.2307Y-109.2036
G1X63.1346Y-105.5195
G1X69.9558Y-101.0683
G1X76.6850Y-96.5095
G1X82.3255Y-92.5169
G1X86.2126Y-89.5574
G1X87.3732Y-88.5597
G1X87.9974Y-87.8979
G1X88.1447Y-87.4582
G1X88.0764Y-86.3977
G1X87.2999Y-82.2374
G1X85.6941Y-75.5182
G1X83.4299Y-66.9937
G1X80.9065Y-58.1862
G1X78.6298Y-50.8631
G1X76.9063Y-46.0086
G1X76.3144Y-44.6803
G1X75.9046Y-44.0839
G1X75.0894Y-43.8015
G1X73.4197Y-43.5090
G1X67.7106Y-42.9168
G1X59.2787Y-42.3571
G1X49.6334Y-41.9309
G1X41.0736Y-41.7283
G1X34.6196Y-41.7659
G1X32.5977Y-41.8672
G1X31.2668Y-42.0193
G1X30.6946Y-42.1838
G1X30.3668Y-42.5341
G1X29.8049Y-43.4785
G1X29.0445Y-45.0064
G1X26.9657Y-49.7489
G1X24.2701Y-56.4624
G1X21.3665Y-64.1259
G1X18.6421Y-71.7110
G1X16.5356Y-77.9933
G1X15.2404Y-82.3939
G1X14.9408Y-83.7320
G1X14.8635Y-84.5416
G1X15.1705Y-85.1251
G1X16.1714Y-86.2145
G1X20.3204Y-89.9913
G1X26.8937Y-95.4905
G1X34.7636Y-101.7667
G1 Z0F20000

G00 X0.0000 Y0.0000

