$H
G21
G17
G90
G1 Z0F20000
G1 F15000

(Start Layer)

(Start Block)


G1X11.3447Y-112.5172
G1Z5F20000
(Plotting speed under)
G1 F4000


G1X12.5135Y-112.7539

G1X13.3636Y-113.1413

G1X14.6387Y-113.8854

G1X16.7639Y-114.3986

G1X19.6328Y-115.5748

G1X19.9516Y-115.6411

G1X21.6517Y-115.2738

G1X25.2646Y-114.0837

G1X27.1772Y-113.5748

G1X29.4087Y-113.2138

G1X31.6401Y-113.0999

G1X33.7653Y-113.2101

G1X35.8904Y-113.5457

G1X37.8031Y-114.0461

G1X41.6284Y-115.3079

G1X42.9035Y-115.5966

G1X43.3285Y-115.6209

G1X43.8598Y-115.4749

G1X46.5163Y-114.3407

G1X48.0039Y-113.9944

G1X49.7040Y-112.8594

G1X50.3416Y-112.6021

G1X50.8729Y-112.5174

G1X51.5104Y-112.6018

G1X52.0771Y-112.8545

G1X52.7855Y-113.3738

G1X54.3794Y-114.8045

G1X54.9107Y-115.1129

G1X55.4420Y-115.2270

G1X55.8670Y-115.1553

G1X56.3275Y-114.9183

G1X58.0984Y-113.2881

G1X58.5412Y-113.0186

G1X58.9485Y-112.9233

G1X59.2673Y-112.9579

G1X59.6923Y-113.1530

G1X61.2103Y-114.5044

G1X61.6050Y-114.7464

G1X62.0300Y-114.8522

G1X62.6675Y-114.6793

G1X64.2083Y-113.4820

G1X64.8990Y-113.2612

G1X65.6251Y-113.4762

G1X67.0419Y-114.4089

G1X67.6617Y-114.5485

G1X68.2993Y-114.4046

G1X69.6806Y-113.6837

G1X70.4244Y-113.5338

G1X71.0620Y-113.6379

G1X72.5496Y-114.1948

G1X73.2934Y-114.3067

G1X74.0373Y-114.2321

G1X75.7374Y-113.8208

G1X76.5875Y-113.7422

G1X80.6253Y-114.1269

G1X87.1070Y-113.9857

G1X93.6951Y-114.1240

G1 Z0F20000

(Start Block)


G1X11.3447Y-111.7755
G1Z5F20000
(Plotting speed under)
G1 F4000


G1X12.7615Y-112.8199

G1X14.5324Y-113.8388

G1X15.0637Y-114.0138

G1X16.1263Y-114.1803

G1X16.9764Y-114.0034

G1X17.8264Y-113.6620

G1X20.9079Y-111.9125

G1X22.5018Y-111.1908

G1X24.2020Y-110.7428

G1X26.1147Y-110.5787

G1X31.4276Y-110.7169

G1X36.6342Y-110.5776

G1X38.6532Y-110.7525

G1X39.7157Y-111.0019

G1X40.7783Y-111.3842

G1X42.0711Y-112.0213

G1X45.0286Y-113.7308

G1X45.8787Y-114.0608

G1X46.7288Y-114.1964

G1X47.6851Y-114.0184

G1X48.2695Y-113.7697

G1X49.1424Y-113.1454

G1X51.0146Y-111.5102

G1X51.6167Y-111.1695

G1X52.1480Y-111.0476

G1X52.6793Y-111.1253

G1X53.2283Y-111.4180

G1X55.1763Y-113.3231

G1X55.6545Y-113.6376

G1X56.0795Y-113.7539

G1X56.5046Y-113.6929

G1X56.8588Y-113.5059

G1X58.5538Y-111.8251

G1X58.9839Y-111.5453

G1X59.3735Y-111.4532

G1X59.6923Y-111.5012

G1X60.0465Y-111.6865

G1X61.5518Y-113.0939

G1X61.9238Y-113.3105

G1X62.2425Y-113.3830

G1X62.8801Y-113.1946

G1X64.2969Y-112.0242

G1X64.6865Y-111.8386

G1X65.0052Y-111.7903

G1X65.6251Y-111.9785

G1X66.9533Y-112.8987

G1X67.5554Y-113.0759

G1X68.2993Y-112.9090

G1X69.6806Y-112.1718

G1X70.3182Y-112.0641

G1X70.9557Y-112.1848

G1X72.3371Y-112.7280

G1X72.9746Y-112.8354

G1X73.6122Y-112.7905

G1X75.3124Y-112.3635

G1X76.1624Y-112.2724

G1X79.9877Y-112.6589

G1X87.1070Y-112.4641

G1X93.6951Y-112.6625

G1 Z0F20000

(Start Block)


G1X11.3447Y-111.4038
G1Z5F20000
(Plotting speed under)
G1 F4000


G1X12.2302Y-112.1082

G1X13.0448Y-112.5494

G1X13.7886Y-112.7191

G1X14.5324Y-112.6551

G1X15.1700Y-112.4326

G1X15.7721Y-112.1086

G1X18.2515Y-110.3295

G1X19.3141Y-109.6993

G1X20.4829Y-109.2613

G1X21.7580Y-109.1058

G1X22.6081Y-109.1610

G1X23.5644Y-109.3338

G1X26.9647Y-110.2691

G1X28.5586Y-110.6089

G1X31.3213Y-110.7168

G1X32.9152Y-110.6856

G1X33.8715Y-110.5419

G1X39.1844Y-109.1963

G1X40.1408Y-109.1072

G1X40.9908Y-109.1518

G1X41.9472Y-109.3713

G1X42.8681Y-109.7640

G1X43.9306Y-110.4196

G1X46.4100Y-112.2299

G1X47.1538Y-112.5867

G1X47.8976Y-112.7249

G1X48.5352Y-112.6260

G1X49.1550Y-112.3273

G1X49.8255Y-111.8026

G1X51.6470Y-110.0295

G1X52.1657Y-109.7059

G1X52.6793Y-109.5772

G1X53.1043Y-109.6390

G1X53.5825Y-109.8902

G1X54.0758Y-110.3223

G1X55.5305Y-111.8948

G1X55.9733Y-112.1890

G1X56.3983Y-112.2865

G1X56.7171Y-112.2289

G1X57.1117Y-112.0119

G1X58.7183Y-110.3399

G1X59.0725Y-110.0921

G1X59.4798Y-109.9837

G1X59.7809Y-110.0274

G1X60.1351Y-110.2171

G1X61.5518Y-111.5921

G1X61.9238Y-111.8278

G1X62.2425Y-111.9118

G1X62.5613Y-111.8739

G1X62.8801Y-111.7267

G1X64.2083Y-110.5952

G1X64.5802Y-110.3905

G1X64.8990Y-110.3224

G1X65.5365Y-110.4954

G1X66.7762Y-111.3776

G1X67.4492Y-111.6046

G1X67.9805Y-111.5194

G1X69.3618Y-110.7749

G1X70.1057Y-110.5955

G1X70.7432Y-110.7041

G1X72.2308Y-111.2834

G1X72.8684Y-111.3673

G1X73.6122Y-111.2732

G1X75.0999Y-110.8812

G1X75.9499Y-110.8021

G1X79.5627Y-111.1898

G1X87.0008Y-110.9685

G1X90.1885Y-111.0125

G1X93.6951Y-111.1856

G1 Z0F20000

(Start Block)


G1X11.3447Y-110.6308
G1Z5F20000
(Plotting speed under)
G1 F4000


G1X11.9822Y-111.0259

G1X12.5135Y-111.2107

G1X13.0448Y-111.2515

G1X13.6824Y-111.1153

G1X14.7095Y-110.5475

G1X16.7461Y-108.8942

G1X17.7202Y-108.2308

G1X18.6765Y-107.8083

G1X19.7391Y-107.6367

G1X20.5892Y-107.7041

G1X21.5455Y-107.9471

G1X25.1583Y-109.4203

G1X26.8585Y-109.9683

G1X28.5586Y-110.3028

G1X30.3650Y-110.4261

G1X32.0651Y-110.3306

G1X33.7653Y-110.0222

G1X35.5717Y-109.4568

G1X39.5032Y-107.8838

G1X40.5658Y-107.6630

G1X41.6284Y-107.6756

G1X42.4785Y-107.8910

G1X43.3108Y-108.2865

G1X44.1963Y-108.8856

G1X46.4986Y-110.7166

G1X47.2601Y-111.1163

G1X47.8976Y-111.2530

G1X48.5352Y-111.1680

G1X49.1550Y-110.8634

G1X49.8255Y-110.3163

G1X51.5458Y-108.5815

G1X52.0771Y-108.2371

G1X52.5730Y-108.1083

G1X52.9980Y-108.1692

G1X53.4939Y-108.4397

G1X55.3661Y-110.4111

G1X55.7962Y-110.7056

G1X56.1858Y-110.8135

G1X56.5931Y-110.7484

G1X56.9473Y-110.5422

G1X58.5538Y-108.8602

G1X58.8954Y-108.6273

G1X59.2673Y-108.5147

G1X59.8694Y-108.6859

G1X61.3747Y-110.1255

G1X61.7289Y-110.3556

G1X62.1363Y-110.4421

G1X62.7030Y-110.2478

G1X63.9427Y-109.1801

G1X64.3854Y-108.9204

G1X64.6865Y-108.8550

G1X65.2178Y-108.9618

G1X66.5991Y-109.9199

G1X67.2367Y-110.1349

G1X67.7680Y-110.0590

G1X69.1493Y-109.3091

G1X69.8931Y-109.1245

G1X70.4244Y-109.1961

G1X71.8058Y-109.7489

G1X72.5496Y-109.8953

G1X73.1871Y-109.8472

G1X74.7811Y-109.4312

G1X75.6311Y-109.3327

G1X79.3502Y-109.7212

G1X83.7068Y-109.5302

G1X86.7883Y-109.4897

G1X90.1885Y-109.5299

G1X93.6951Y-109.7105

G1 Z0F20000

(Start Block)


G1X11.3447Y-109.4490
G1Z5F20000
(Plotting speed under)
G1 F4000


G1X11.8760Y-109.6937

G1X12.3010Y-109.7788

G1X12.7260Y-109.7635

G1X13.2573Y-109.6118

G1X14.1782Y-109.0649

G1X16.1263Y-107.4229

G1X17.1003Y-106.7417

G1X18.1452Y-106.2944

G1X19.1016Y-106.1660

G1X19.9516Y-106.2507

G1X20.8017Y-106.4784

G1X24.3082Y-107.9225

G1X26.0084Y-108.4738

G1X27.7085Y-108.8074

G1X29.5149Y-108.9266

G1X31.2151Y-108.8250

G1X32.8089Y-108.5349

G1X34.6153Y-107.9733

G1X38.4406Y-106.4335

G1X39.5032Y-106.2000

G1X40.5658Y-106.1983

G1X41.4159Y-106.4018

G1X42.2482Y-106.7837

G1X43.2223Y-107.4313

G1X45.6131Y-109.2850

G1X46.3037Y-109.6342

G1X47.0476Y-109.7843

G1X47.6851Y-109.6891

G1X48.3581Y-109.3552

G1X49.0665Y-108.7824

G1X50.7489Y-107.1428

G1X51.2979Y-106.7871

G1X51.8292Y-106.6397

G1X52.2542Y-106.6857

G1X52.7855Y-106.9517

G1X53.3927Y-107.4901

G1X54.7589Y-108.9461

G1X55.2295Y-109.2498

G1X55.6545Y-109.3457

G1X56.0618Y-109.2626

G1X56.4160Y-109.0515

G1X58.0225Y-107.4088

G1X58.4526Y-107.1292

G1X58.8423Y-107.0434

G1X59.2496Y-107.1358

G1X59.6038Y-107.3628

G1X61.1091Y-108.7774

G1X61.7112Y-108.9739

G1X62.0300Y-108.9144

G1X62.4373Y-108.6936

G1X63.7655Y-107.5781

G1X64.3677Y-107.3821

G1X64.6865Y-107.4241

G1X65.0938Y-107.6056

G1X66.4220Y-108.5234

G1X67.0242Y-108.6676

G1X67.6617Y-108.5120

G1X69.0431Y-107.7718

G1X69.6806Y-107.6551

G1X70.3182Y-107.7715

G1X71.6995Y-108.3172

G1X72.4433Y-108.4282

G1X73.0809Y-108.3574

G1X74.6748Y-107.9447

G1X75.5249Y-107.8623

G1X79.1377Y-108.2496

G1X83.7068Y-108.0590

G1X86.7883Y-108.0210

G1X90.1885Y-108.0644

G1X93.6951Y-108.2433

G1 Z0F20000

(Start Block)


G1X11.3447Y-108.0250
G1Z5F20000
(Plotting speed under)
G1 F4000


G1X11.8760Y-108.2462

G1X12.3010Y-108.3132

G1X12.7260Y-108.2831

G1X13.2573Y-108.1195

G1X14.1782Y-107.5744

G1X16.1263Y-106.0017

G1X17.1003Y-105.3473

G1X18.2515Y-104.8600

G1X19.4203Y-104.6962

G1X21.0142Y-104.8835

G1X25.5834Y-106.0735

G1X26.9647Y-106.2651

G1X28.2398Y-106.3242

G1X29.6212Y-106.2578

G1X31.1088Y-106.0407

G1X36.1029Y-104.7897

G1X37.0593Y-104.6977

G1X37.9093Y-104.7426

G1X38.7594Y-104.9325

G1X39.6095Y-105.2762

G1X41.1856Y-106.2496

G1X42.5139Y-106.9415

G1X44.1963Y-108.1557

G1X44.4974Y-108.2643

G1X45.0286Y-108.3148

G1X45.7725Y-108.2026

G1X46.4986Y-107.8688

G1X47.2070Y-107.3583

G1X49.1550Y-105.6639

G1X49.8103Y-105.2938

G1X50.3416Y-105.1700

G1X50.8729Y-105.2323

G1X51.4573Y-105.5177

G1X53.5825Y-107.4841

G1X54.0606Y-107.7700

G1X54.4856Y-107.8747

G1X54.9107Y-107.8196

G1X55.3534Y-107.5939

G1X57.1244Y-105.9236

G1X57.5671Y-105.6560

G1X57.9922Y-105.5722

G1X58.3110Y-105.6291

G1X58.7183Y-105.8384

G1X60.1477Y-107.1428

G1X60.5778Y-107.4078

G1X60.9674Y-107.5022

G1X61.6050Y-107.3322

G1X63.1457Y-106.1307

G1X63.8364Y-105.9117

G1X64.5625Y-106.1312

G1X65.9793Y-107.0651

G1X66.5991Y-107.1988

G1X67.2367Y-107.0470

G1X68.6180Y-106.3231

G1X69.2556Y-106.1852

G1X69.8931Y-106.2687

G1X71.3807Y-106.8338

G1X72.1246Y-106.9567

G1X72.8684Y-106.8841

G1X74.5685Y-106.4637

G1X75.3124Y-106.3931

G1X79.1377Y-106.7792

G1X86.7883Y-106.5636

G1X89.8698Y-106.6063

G1X93.6951Y-106.7811

G1 Z0F20000

(Start Block)


G1X11.3447Y-106.4145
G1Z5F20000
(Plotting speed under)
G1 F4000


G1X11.8760Y-106.6841

G1X12.4073Y-106.8242

G1X12.9386Y-106.8338

G1X13.4698Y-106.7232

G1X14.4439Y-106.2742

G1X17.0118Y-104.5563

G1X18.3577Y-103.8592

G1X19.9516Y-103.3909

G1X21.8643Y-103.2274

G1X26.4334Y-103.3334

G1X31.2151Y-103.2280

G1X33.2340Y-103.3958

G1X34.8278Y-103.8151

G1X36.7405Y-104.6778

G1X38.0156Y-104.7581

G1X39.0782Y-105.0435

G1X39.9282Y-105.4433

G1X41.1856Y-106.2496

G1X42.1597Y-106.7349

G1X42.7972Y-106.5682

G1X43.5764Y-106.1646

G1X46.5163Y-104.0838

G1X47.1538Y-103.8084

G1X47.7914Y-103.6976

G1X48.4289Y-103.7763

G1X49.0665Y-104.0451

G1X50.4832Y-105.0808

G1X51.2802Y-105.4076

G1X52.2542Y-106.1984

G1X52.7855Y-106.4051

G1X53.3168Y-106.2802

G1X53.8481Y-105.9800

G1X55.7962Y-104.3518

G1X56.1858Y-104.1714

G1X56.6108Y-104.1019

G1X57.0359Y-104.1781

G1X57.3901Y-104.3484

G1X59.0725Y-105.7155

G1X59.4798Y-105.9363

G1X59.9048Y-106.0326

G1X60.2236Y-106.0066

G1X60.6486Y-105.8415

G1X62.2602Y-104.6696

G1X62.9863Y-104.4419

G1X63.6239Y-104.5747

G1X65.2178Y-105.5456

G1X65.9616Y-105.7282

G1X66.7054Y-105.5601

G1X68.1930Y-104.8320

G1X68.8305Y-104.7149

G1X69.4681Y-104.7959

G1X70.9557Y-105.3336

G1X71.8058Y-105.4858

G1X72.5496Y-105.4298

G1X74.4623Y-104.9881

G1X75.3124Y-104.9222

G1X79.3502Y-105.3098

G1X86.5758Y-105.1245

G1X93.6951Y-105.3107

G1 Z0F20000

(Start Block)


G1X11.3447Y-104.5572
G1Z5F20000
(Plotting speed under)
G1 F4000


G1X12.0885Y-105.0058

G1X12.7260Y-105.2522

G1X13.3636Y-105.3652

G1X14.1074Y-105.3438

G1X15.2762Y-105.0546

G1X18.3577Y-103.7917

G1X20.0579Y-103.2469

G1X21.9705Y-102.8886

G1X24.0957Y-102.7705

G1X26.2209Y-102.9088

G1X28.3461Y-103.2977

G1X31.1088Y-103.2269

G1X32.9152Y-103.3463

G1X34.7216Y-103.7775

G1X36.7405Y-104.6778

G1X38.0156Y-104.7365

G1X38.6177Y-104.5713

G1X41.8409Y-102.6392

G1X42.6910Y-102.3342

G1X43.5410Y-102.2267

G1X44.2848Y-102.3140

G1X45.0286Y-102.5669

G1X45.8787Y-103.0251

G1X46.9413Y-103.7427

G1X48.0039Y-103.7020

G1X48.6414Y-103.8453

G1X49.2436Y-104.1505

G1X50.0405Y-104.7854

G1X50.2353Y-104.8415

G1X51.1916Y-104.4365

G1X53.3168Y-102.9564

G1X53.8481Y-102.7246

G1X54.3794Y-102.6322

G1X54.9107Y-102.6966

G1X55.3357Y-102.8588

G1X57.3901Y-104.2660

G1X57.8859Y-104.4864

G1X58.3110Y-104.5630

G1X58.7360Y-104.5261

G1X59.1610Y-104.3787

G1X60.9674Y-103.2197

G1X61.3924Y-103.0431

G1X61.8175Y-102.9715

G1X62.5613Y-103.1166

G1X64.2614Y-104.0610

G1X65.1115Y-104.2590

G1X65.8553Y-104.1172

G1X67.5554Y-103.3627

G1X68.2993Y-103.2443

G1X69.0431Y-103.3519

G1X70.7432Y-103.9139

G1X71.4870Y-104.0166

G1X72.2308Y-103.9670

G1X74.1435Y-103.5523

G1X75.2061Y-103.4526

G1X79.7752Y-103.8394

G1X86.1507Y-103.7122

G1X92.1012Y-103.8405

G1X93.6951Y-103.8086

G1 Z0F20000

(Start Block)


G1X11.3447Y-102.3928
G1Z5F20000
(Plotting speed under)
G1 F4000


G1X12.4073Y-103.0308

G1X13.4698Y-103.4946

G1X14.5324Y-103.7691

G1X15.7013Y-103.8929

G1X18.1452Y-103.8491

G1X20.6954Y-103.0982

G1X23.1394Y-102.7904

G1X25.6896Y-102.8507

G1X28.3461Y-103.2977

G1X29.9399Y-103.2421

G1X30.7900Y-103.0625

G1X35.1466Y-101.1054

G1X36.1029Y-100.8469

G1X37.0593Y-100.7569

G1X38.0156Y-100.8612

G1X38.9719Y-101.1576

G1X39.9282Y-101.6099

G1X41.6284Y-102.5721

G1X41.9472Y-102.5564

G1X43.0097Y-102.2688

G1X43.8598Y-102.2431

G1X44.7099Y-102.4396

G1X45.7902Y-102.9923

G1X46.0912Y-103.0521

G1X46.6225Y-102.9220

G1X49.3852Y-101.4654

G1X50.1291Y-101.2354

G1X50.7666Y-101.1621

G1X51.2979Y-101.1990

G1X51.9355Y-101.3609

G1X52.7855Y-101.7448

G1X54.2731Y-102.5923

G1X54.9107Y-102.6966

G1X56.0795Y-103.0991

G1X57.1421Y-102.8022

G1X59.1610Y-101.7159

G1X60.1174Y-101.5014

G1X60.9674Y-101.6431

G1X62.8801Y-102.5599

G1X63.4114Y-102.7299

G1X63.9427Y-102.7893

G1X64.7927Y-102.6461

G1X66.7054Y-101.8960

G1X67.5554Y-101.7747

G1X68.4055Y-101.8863

G1X70.3182Y-102.4512

G1X71.1682Y-102.5477

G1X72.1246Y-102.4701

G1X74.2498Y-102.0576

G1X75.2061Y-101.9838

G1X80.6253Y-102.3685

G1X86.2570Y-102.3194

G1X91.3574Y-102.3721

G1X93.6951Y-102.2509

G1 Z0F20000

(Start Block)


G1X11.3447Y-100.0434
G1Z5F20000
(Plotting speed under)
G1 F4000


G1X13.0448Y-100.6926

G1X14.4262Y-101.0866

G1X15.9138Y-101.3413

G1X17.5077Y-101.4355

G1X19.2078Y-101.3556

G1X20.9079Y-101.0994

G1X22.6081Y-100.6802

G1X26.2209Y-99.5845

G1X27.2835Y-99.3709

G1X28.3461Y-99.2870

G1X29.5149Y-99.3812

G1X30.6838Y-99.6804

G1X34.2966Y-101.3089

G1X34.7216Y-101.2631

G1X35.9967Y-100.8681

G1X37.0593Y-100.7569

G1X38.2281Y-100.9113

G1X39.5032Y-101.3933

G1X42.4785Y-100.0574

G1X43.4348Y-99.7950

G1X44.3911Y-99.6925

G1X45.3474Y-99.7589

G1X46.3037Y-99.9779

G1X49.5978Y-101.2479

G1X51.0854Y-101.1734

G1X52.4667Y-101.5079

G1X52.8918Y-101.4707

G1X53.5293Y-101.2718

G1X56.1858Y-100.2252

G1X57.3546Y-100.0319

G1X58.5235Y-100.1817

G1X60.9674Y-101.1062

G1X62.1363Y-101.3180

G1X63.0926Y-101.2182

G1X65.4303Y-100.4553

G1X66.4928Y-100.3050

G1X67.3429Y-100.3766

G1X69.5743Y-100.9423

G1X70.7432Y-101.0777

G1X71.6995Y-101.0218

G1X74.0373Y-100.6252

G1X75.4186Y-100.5146

G1X80.3065Y-100.8338

G1X82.8567Y-100.8998

G1X90.1885Y-100.8822

G1X93.6951Y-100.6420

G1 Z0F20000

(Start Block)


G1X11.3447Y-97.9108
G1Z5F20000
(Plotting speed under)
G1 F4000


G1X14.4262Y-98.0741

G1X18.8890Y-97.8254

G1X20.4829Y-97.8676

G1X21.6517Y-98.0607

G1X22.7143Y-98.3789

G1X25.6896Y-99.7263

G1X27.1772Y-99.3871

G1X28.4523Y-99.2871

G1X29.6212Y-99.4001

G1X31.1088Y-99.7980

G1X31.6401Y-99.6728

G1X33.2340Y-98.8956

G1X34.2966Y-98.4888

G1X35.3591Y-98.2586

G1X36.3155Y-98.2324

G1X37.8031Y-98.5113

G1X40.9908Y-99.6889

G1X41.9472Y-99.9653

G1X42.3722Y-100.0129

G1X44.2848Y-99.6955

G1X45.9850Y-99.8568

G1X49.9165Y-98.8250

G1X50.9791Y-98.6432

G1X52.0417Y-98.5632

G1X53.9544Y-98.7132

G1X57.6734Y-99.6503

G1X59.2673Y-99.8482

G1X60.6486Y-99.7384

G1X63.6239Y-98.9984

G1X65.0052Y-98.8355

G1X66.1741Y-98.9151

G1X68.9368Y-99.4829

G1X70.3182Y-99.6082

G1X71.4870Y-99.5497

G1X74.2498Y-99.1635

G1X75.8436Y-99.0487

G1X77.4375Y-99.0681

G1X82.2192Y-99.3266

G1X85.6194Y-99.3796

G1X89.3385Y-99.3172

G1X93.6951Y-99.0542

G1 Z0F20000

(Start Block)


G1X11.3447Y-96.4620
G1Z5F20000
(Plotting speed under)
G1 F4000


G1X13.2573Y-96.5331

G1X14.7449Y-96.7233

G1X16.2326Y-97.0989

G1X18.1452Y-97.8341

G1X19.7391Y-97.8215

G1X20.9079Y-97.9194

G1X21.9705Y-98.1418

G1X23.5644Y-98.6600

G1X26.4334Y-97.1399

G1X27.2835Y-96.8514

G1X28.0273Y-96.7534

G1X28.7711Y-96.8085

G1X29.5149Y-97.0007

G1X32.3839Y-98.2659

G1X33.6590Y-98.6199

G1X35.3591Y-98.2586

G1X36.8468Y-98.2562

G1X39.8220Y-97.3463

G1X40.8846Y-97.1619

G1X41.9472Y-97.0920

G1X44.0723Y-97.2453

G1X49.7040Y-98.1740

G1X52.7855Y-98.3787

G1X55.6545Y-98.2369

G1X60.5424Y-97.5124

G1X62.4550Y-97.3668

G1X64.2614Y-97.4473

G1X68.0867Y-98.0178

G1X69.8931Y-98.1384

G1X71.3807Y-98.0823

G1X74.9936Y-97.6990

G1X77.1188Y-97.5815

G1X85.1944Y-97.7197

G1X91.8887Y-97.5743

G1X93.6951Y-97.6198

G1 Z0F20000

(Start Block)


G1X11.3447Y-95.7729
G1Z5F20000
(Plotting speed under)
G1 F4000


G1X13.5761Y-96.5157

G1X15.4888Y-96.8848

G1X17.1889Y-97.4513

G1X17.6139Y-97.5129

G1X18.0390Y-97.4280

G1X18.7828Y-97.1079

G1X21.3330Y-95.5699

G1X21.9705Y-95.3491

G1X22.5018Y-95.2823

G1X23.0331Y-95.3304

G1X23.6707Y-95.5292

G1X26.0084Y-96.8433

G1X26.6459Y-97.0141

G1X27.8148Y-96.7655

G1X29.0899Y-96.8011

G1X31.4276Y-95.8516

G1X32.8089Y-95.6222

G1X34.2966Y-95.7906

G1X37.8031Y-96.7159

G1X39.7157Y-96.9078

G1X41.6284Y-96.8183

G1X48.0039Y-96.1141

G1X54.0606Y-95.9008

G1X59.9048Y-95.9968

G1X67.0242Y-96.5671

G1X69.3618Y-96.6667

G1X71.9120Y-96.6056

G1X77.7563Y-96.2010

G1X80.9440Y-96.1132

G1X89.7635Y-96.1249

G1X91.7824Y-96.2127

G1X93.6951Y-96.3989

G1 Z0F20000

(Start Block)


G1X11.3447Y-95.3529
G1Z5F20000
(Plotting speed under)
G1 F4000


G1X12.4073Y-95.8130

G1X13.1511Y-96.0393

G1X13.7886Y-96.1176

G1X14.4262Y-96.0559

G1X15.5065Y-95.6081

G1X17.7202Y-94.0923

G1X18.2515Y-93.8807

G1X18.7828Y-93.8123

G1X19.3141Y-93.8993

G1X19.8453Y-94.1295

G1X21.5455Y-95.2729

G1X21.9705Y-95.3491

G1X22.8206Y-95.2979

G1X23.5644Y-95.4868

G1X24.1843Y-95.3526

G1X26.0084Y-94.3354

G1X26.9647Y-94.1515

G1X27.9210Y-94.3129

G1X30.3650Y-95.2761

G1X31.5338Y-95.4397

G1X32.7027Y-95.3150

G1X35.7842Y-94.5795

G1X37.6968Y-94.4248

G1X39.2907Y-94.4980

G1X44.2848Y-94.9590

G1X48.3227Y-95.1007

G1X60.6486Y-95.0822

G1X71.2745Y-95.1954

G1X81.2628Y-94.8789

G1X85.1944Y-94.8277

G1X88.9134Y-94.9045

G1X93.6951Y-95.1833

G1 Z0F20000

(Start Block)


G1X11.3447Y-94.5566
G1Z5F20000
(Plotting speed under)
G1 F4000


G1X12.0885Y-94.6445

G1X12.8323Y-94.4595

G1X13.5584Y-94.0223

G1X15.2408Y-92.6666

G1X15.7013Y-92.4355

G1X16.2326Y-92.3428

G1X16.6576Y-92.4179

G1X17.0826Y-92.6195

G1X18.5702Y-93.7275

G1X20.0579Y-94.1604

G1X20.5537Y-94.0524

G1X22.2893Y-92.8848

G1X22.7143Y-92.7294

G1X23.1394Y-92.6819

G1X23.8832Y-92.8560

G1X25.6896Y-93.7939

G1X26.5397Y-93.9686

G1X27.3898Y-93.8492

G1X29.5149Y-93.0876

G1X30.5775Y-92.9548

G1X31.6401Y-93.0655

G1X34.1903Y-93.6070

G1X35.7842Y-93.7286

G1X41.9472Y-93.3217

G1X46.3037Y-93.2263

G1X50.9791Y-93.2906

G1X58.4172Y-93.6411

G1X62.0300Y-93.7247

G1X90.1885Y-93.7280

G1X93.6951Y-93.5829

G1 Z0F20000

(Start Block)


G1X11.3447Y-93.1157
G1Z5F20000
(Plotting speed under)
G1 F4000


G1X12.0531Y-92.7204

G1X13.7355Y-91.1639

G1X14.1074Y-90.9577

G1X14.5324Y-90.8723

G1X14.9575Y-90.9674

G1X15.3294Y-91.1833

G1X16.7461Y-92.4625

G1X17.6139Y-92.7973

G1X17.9327Y-92.7476

G1X18.3400Y-92.5393

G1X19.7568Y-91.4238

G1X20.1641Y-91.2522

G1X20.4829Y-91.2120

G1X21.1205Y-91.3846

G1X22.6081Y-92.3173

G1X23.3519Y-92.4985

G1X24.0957Y-92.3393

G1X25.6896Y-91.6023

G1X26.4334Y-91.4855

G1X27.1772Y-91.5896

G1X28.9836Y-92.1494

G1X29.9399Y-92.2591

G1X30.7900Y-92.1961

G1X33.1277Y-91.7885

G1X34.5091Y-91.6942

G1X40.2470Y-91.9822

G1X44.3911Y-92.0421

G1X48.3227Y-91.9903

G1X53.8481Y-91.7260

G1X55.9733Y-91.6976

G1X57.9922Y-91.7946

G1X62.4550Y-92.1846

G1X65.0052Y-92.2591

G1X74.6748Y-91.9626

G1X87.7446Y-91.9705

G1X90.6136Y-91.8572

G1X93.6951Y-91.6241

G1 Z0F20000

(Start Block)


G1X11.3447Y-91.2140
G1Z5F20000
(Plotting speed under)
G1 F4000


G1X12.7109Y-89.7194

G1X13.0448Y-89.4974

G1X13.4698Y-89.4038

G1X13.7886Y-89.4933

G1X14.1529Y-89.7341

G1X15.5191Y-91.1236

G1X16.1263Y-91.3359

G1X16.7461Y-91.0836

G1X18.0744Y-89.9122

G1X18.5702Y-89.7463

G1X19.1016Y-89.8680

G1X20.3767Y-90.7876

G1X20.8017Y-90.9836

G1X21.1205Y-91.0280

G1X21.6517Y-90.9135

G1X23.0331Y-90.1545

G1X23.6707Y-90.0156

G1X24.3082Y-90.1186

G1X25.6896Y-90.6644

G1X26.4334Y-90.7880

G1X27.1772Y-90.7120

G1X28.8774Y-90.2958

G1X29.7274Y-90.2234

G1X32.8089Y-90.5599

G1X34.1903Y-90.6141

G1X42.5847Y-90.4058

G1X52.3605Y-90.6100

G1X57.0359Y-90.2591

G1X58.4172Y-90.2259

G1X59.9048Y-90.3245

G1X62.9863Y-90.7133

G1X64.5802Y-90.7893

G1X66.3866Y-90.7028

G1X71.2745Y-90.1966

G1X74.3560Y-90.0544

G1X89.8698Y-90.0160

G1X93.6951Y-90.1077

G1 Z0F20000

(Start Block)


G1X11.3447Y-89.1821
G1Z5F20000
(Plotting speed under)
G1 F4000


G1X12.1796Y-88.1665

G1X12.4073Y-88.0094

G1X12.7260Y-87.9375

G1X13.0271Y-88.0171

G1X13.2928Y-88.2159

G1X14.5324Y-89.6276

G1X15.0637Y-89.8663

G1X15.5950Y-89.6589

G1X16.6576Y-88.5824

G1X17.0118Y-88.3463

G1X17.2952Y-88.2741

G1X17.8087Y-88.4245

G1X18.9599Y-89.3617

G1X19.5266Y-89.5565

G1X19.9339Y-89.4801

G1X21.2267Y-88.6848

G1X21.7580Y-88.5488

G1X22.2893Y-88.6374

G1X23.5644Y-89.2146

G1X24.2020Y-89.3192

G1X24.7333Y-89.2478

G1X26.1147Y-88.8281

G1X26.8585Y-88.7533

G1X28.9836Y-89.0820

G1X29.9399Y-89.1442

G1X34.2966Y-88.8954

G1X41.0971Y-88.9847

G1X49.2790Y-88.8994

G1X54.4856Y-89.1426

G1X59.0548Y-88.7538

G1X60.3299Y-88.8553

G1X62.7738Y-89.2558

G1X63.9427Y-89.3188

G1X65.3240Y-89.2021

G1X68.5118Y-88.6568

G1X70.4244Y-88.5452

G1X78.6064Y-89.0852

G1X89.0197Y-89.1412

G1X93.6951Y-89.3536

G1 Z0F20000

(Start Block)


G1X11.3447Y-87.2379
G1Z5F20000
(Plotting speed under)
G1 F4000


G1X11.8760Y-86.6086

G1X12.1948Y-86.4726

G1X12.4073Y-86.4898

G1X12.9386Y-86.9300

G1X13.9252Y-88.1977

G1X14.4262Y-88.3895

G1X14.8866Y-88.1425

G1X15.9745Y-86.9691

G1X16.4451Y-86.8100

G1X16.8347Y-86.9474

G1X17.8087Y-87.8286

G1X18.3577Y-88.0851

G1X18.8713Y-87.9628

G1X19.8453Y-87.2652

G1X20.4829Y-87.0763

G1X21.0142Y-87.2156

G1X21.9705Y-87.7236

G1X22.5018Y-87.8478

G1X23.0331Y-87.7822

G1X24.3082Y-87.3462

G1X24.8395Y-87.2841

G1X26.6459Y-87.6114

G1X27.3898Y-87.6744

G1X30.5775Y-87.4254

G1X35.5717Y-87.5648

G1X45.8787Y-87.5605

G1X51.0854Y-87.4265

G1X55.1232Y-87.6741

G1X58.9485Y-87.2834

G1X60.0111Y-87.3745

G1X62.1363Y-87.7953

G1X62.9863Y-87.8489

G1X64.0489Y-87.7364

G1X66.4928Y-87.1698

G1X67.6617Y-87.0754

G1X69.0431Y-87.2080

G1X72.5496Y-87.9034

G1X74.6748Y-88.0779

G1X81.6879Y-87.9749

G1X90.2948Y-87.9934

G1X93.6951Y-87.8997

G1 Z0F20000

(Start Block)


G1X11.3447Y-85.4424
G1Z5F20000
(Plotting speed under)
G1 F4000


G1X11.8001Y-85.0225

G1X12.1416Y-85.0515

G1X12.5253Y-85.3863

G1X13.4034Y-86.6523

G1X13.6824Y-86.8619

G1X13.8949Y-86.9211

G1X14.2668Y-86.7580

G1X15.2408Y-85.6194

G1X15.7013Y-85.3404

G1X16.1263Y-85.4571

G1X17.1130Y-86.4153

G1X17.6139Y-86.6159

G1X17.9858Y-86.5121

G1X18.9599Y-85.7841

G1X19.4203Y-85.6105

G1X19.8453Y-85.6768

G1X20.9079Y-86.2663

G1X21.4392Y-86.3795

G1X21.9705Y-86.2713

G1X22.9268Y-85.8935

G1X23.4581Y-85.8147

G1X25.6896Y-86.2041

G1X28.3461Y-85.9556

G1X31.6401Y-86.0944

G1X39.0782Y-86.0352

G1X47.1538Y-86.0949

G1X51.5104Y-85.9556

G1X55.1232Y-86.2042

G1X58.4172Y-85.8137

G1X59.2673Y-85.8825

G1X61.0737Y-86.3028

G1X61.8175Y-86.3793

G1X62.7738Y-86.2727

G1X64.8990Y-85.6751

G1X65.7490Y-85.6070

G1X66.8116Y-85.7669

G1X69.2556Y-86.4915

G1X70.5307Y-86.6202

G1X71.9120Y-86.4882

G1X75.8436Y-85.7113

G1X78.3939Y-85.4694

G1X82.0066Y-85.3866

G1X93.6951Y-85.4122

G1 Z0F20000

(Start Block)


G1X11.3447Y-83.7702
G1Z5F20000
(Plotting speed under)
G1 F4000


G1X11.6989Y-83.5390

G1X12.0278Y-83.6389

G1X13.0903Y-85.1504

G1X13.3180Y-85.3725

G1X13.5584Y-85.4533

G1X14.0676Y-85.1362

G1X14.9119Y-84.0463

G1X15.2762Y-83.8751

G1X15.6709Y-84.0014

G1X16.6576Y-85.0097

G1X17.0826Y-85.1431

G1X17.4545Y-85.0022

G1X18.3577Y-84.2797

G1X18.7828Y-84.1357

G1X19.3141Y-84.2956

G1X20.1641Y-84.8086

G1X20.5892Y-84.9054

G1X21.0142Y-84.8413

G1X21.9705Y-84.4360

G1X22.5018Y-84.3435

G1X24.0957Y-84.6919

G1X24.6270Y-84.7343

G1X26.9647Y-84.4858

G1X29.9399Y-84.6249

G1X34.5091Y-84.5624

G1X47.8976Y-84.6242

G1X51.5104Y-84.4861

G1X54.6982Y-84.7340

G1X57.6734Y-84.3438

G1X58.5235Y-84.4402

G1X60.1174Y-84.8564

G1X60.7549Y-84.9090

G1X61.4987Y-84.8001

G1X63.1988Y-84.2299

G1X63.9427Y-84.1355

G1X64.8990Y-84.3038

G1X66.8116Y-85.0292

G1X67.7680Y-85.1494

G1X68.8305Y-84.9656

G1X71.3807Y-84.0659

G1X72.1246Y-83.9200

G1X72.9746Y-83.8620

G1X74.3560Y-83.9640

G1X78.5001Y-84.6123

G1X81.1566Y-84.8011

G1X83.9193Y-84.8112

G1X90.5073Y-84.5661

G1X93.6951Y-84.5434

G1 Z0F20000

(Start Block)


G1X11.3447Y-82.1761
G1Z5F20000
(Plotting speed under)
G1 F4000


G1X11.6634Y-82.0766

G1X11.9350Y-82.2206

G1X12.8795Y-83.7073

G1X13.1511Y-83.9262

G1X13.3636Y-83.9733

G1X13.6975Y-83.7695

G1X14.5324Y-82.6451

G1X14.9752Y-82.3983

G1X15.3294Y-82.5498

G1X16.2149Y-83.4911

G1X16.6576Y-83.6800

G1X17.1003Y-83.4737

G1X17.8264Y-82.8519

G1X18.2515Y-82.6683

G1X18.6765Y-82.7662

G1X19.5266Y-83.2943

G1X19.9516Y-83.4338

G1X20.3767Y-83.3839

G1X21.3330Y-82.9654

G1X21.8643Y-82.8757

G1X23.7769Y-83.2632

G1X26.0084Y-83.0164

G1X28.5586Y-83.1546

G1X42.6910Y-83.0925

G1X47.3663Y-83.1551

G1X50.7666Y-83.0160

G1X53.8481Y-83.2644

G1X56.6108Y-82.8740

G1X57.2484Y-82.9348

G1X58.7360Y-83.3542

G1X59.3735Y-83.4386

G1X60.1174Y-83.3336

G1X61.6050Y-82.7732

G1X62.2425Y-82.6663

G1X63.0926Y-82.8178

G1X64.7927Y-83.5725

G1X65.5365Y-83.6794

G1X66.3866Y-83.4906

G1X68.4055Y-82.5469

G1X69.3618Y-82.3921

G1X70.5307Y-82.6139

G1X73.2934Y-83.6921

G1X74.8873Y-83.9658

G1X76.2687Y-83.9677

G1X79.9877Y-83.6717

G1X82.4317Y-83.5936

G1X93.6951Y-83.9307

G1 Z0F20000

(Start Block)


G1X11.3447Y-80.6276
G1Z5F20000
(Plotting speed under)
G1 F4000


G1X11.6103Y-80.6289

G1X11.8760Y-80.8374

G1X12.7393Y-82.2566

G1X12.9386Y-82.4546

G1X13.1511Y-82.4979

G1X13.5289Y-82.2816

G1X14.3996Y-81.0805

G1X14.7449Y-80.9377

G1X15.1301Y-81.1129

G1X15.9745Y-82.0632

G1X16.3388Y-82.1985

G1X16.7335Y-82.0603

G1X17.5431Y-81.3422

G1X17.9327Y-81.2051

G1X18.3400Y-81.2969

G1X19.2255Y-81.8735

G1X19.6328Y-81.9633

G1X20.0579Y-81.8822

G1X20.9079Y-81.4923

G1X21.4392Y-81.4040

G1X23.2456Y-81.7925

G1X25.3709Y-81.5469

G1X27.9210Y-81.6849

G1X42.0534Y-81.6226

G1X46.4100Y-81.6852

G1X49.7040Y-81.5462

G1X52.6793Y-81.7946

G1X55.3357Y-81.4037

G1X55.9733Y-81.4689

G1X57.3546Y-81.8848

G1X57.9922Y-81.9695

G1X58.6297Y-81.8706

G1X60.0111Y-81.3074

G1X60.6486Y-81.1960

G1X61.3924Y-81.3534

G1X62.8801Y-82.0997

G1X63.5176Y-82.2096

G1X64.2614Y-82.0229

G1X65.9616Y-81.0680

G1X66.7054Y-80.9225

G1X67.1304Y-80.9795

G1X67.6617Y-81.1780

G1X69.6806Y-82.3072

G1X70.2119Y-82.4654

G1X70.7432Y-82.5166

G1X71.9120Y-82.2978

G1X74.1435Y-81.3599

G1X75.2061Y-80.9986

G1X76.2687Y-80.7647

G1X77.3313Y-80.6409

G1X87.4258Y-80.5891

G1X93.6951Y-80.8105

G1 Z0F20000

(Start Block)


G1X11.3447Y-79.1161
G1Z5F20000
(Plotting speed under)
G1 F4000


G1X11.4965Y-79.1490

G1X11.7242Y-79.3579

G1X12.4832Y-80.6274

G1X12.7109Y-80.9070

G1X12.9386Y-81.0448

G1X13.2928Y-80.8575

G1X14.0011Y-79.8555

G1X14.2668Y-79.5820

G1X14.5324Y-79.4523

G1X14.9752Y-79.7091

G1X15.6836Y-80.5214

G1X16.1263Y-80.7405

G1X16.4805Y-80.5889

G1X17.2952Y-79.8817

G1X17.7202Y-79.7257

G1X18.1452Y-79.8717

G1X18.8890Y-80.3604

G1X19.3141Y-80.4981

G1X19.8453Y-80.3874

G1X20.6954Y-80.0026

G1X21.1205Y-79.9364

G1X22.5018Y-80.2709

G1X23.0331Y-80.3247

G1X25.1583Y-80.0760

G1X27.6023Y-80.2145

G1X40.5658Y-80.1527

G1X45.1349Y-80.2152

G1X48.4289Y-80.0760

G1X51.1916Y-80.3245

G1X51.9355Y-80.2720

G1X53.8481Y-79.9338

G1X54.4856Y-79.9998

G1X55.8670Y-80.4287

G1X56.3983Y-80.4996

G1X57.0359Y-80.4013

G1X58.4172Y-79.8150

G1X58.9485Y-79.7273

G1X59.6923Y-79.9060

G1X61.0737Y-80.6501

G1X61.6050Y-80.7383

G1X62.3488Y-80.5118

G1X63.7301Y-79.6176

G1X64.3677Y-79.4529

G1X64.7927Y-79.5174

G1X65.1823Y-79.6869

G1X66.9179Y-80.8690

G1X67.6617Y-81.0471

G1X68.0867Y-80.9865

G1X68.6180Y-80.7679

G1X70.2296Y-79.6948

G1X70.8494Y-79.3647

G1X71.3807Y-79.1869

G1X72.0183Y-79.1128

G1X73.1871Y-79.3099

G1X75.8436Y-80.3435

G1X76.9062Y-80.6441

G1X79.2439Y-80.5829

G1X89.7635Y-80.6313

G1X93.6951Y-80.1201

G1 Z0F20000

(Start Block)


G1X11.3447Y-77.6605
G1Z5F20000
(Plotting speed under)
G1 F4000


G1X11.6767Y-78.0105

G1X12.4073Y-79.2782

G1X12.6729Y-79.5123

G1X12.8500Y-79.5654

G1X13.1378Y-79.4016

G1X14.0011Y-78.1858

G1X14.4262Y-77.9974

G1X14.7601Y-78.1863

G1X15.5286Y-79.0839

G1X15.9138Y-79.2549

G1X16.2149Y-79.1929

G1X17.1130Y-78.4029

G1X17.5077Y-78.2672

G1X17.8973Y-78.3545

G1X18.7828Y-78.9319

G1X19.2078Y-79.0258

G1X19.5266Y-78.9719

G1X20.4829Y-78.5482

G1X20.9079Y-78.4646

G1X22.8206Y-78.8524

G1X25.0521Y-78.6066

G1X27.7085Y-78.7449

G1X38.0156Y-78.6828

G1X43.3285Y-78.7453

G1X46.7288Y-78.6061

G1X49.5978Y-78.8549

G1X52.2542Y-78.4640

G1X52.8918Y-78.5477

G1X54.1669Y-78.9576

G1X54.6982Y-79.0287

G1X55.3357Y-78.9201

G1X56.5046Y-78.3946

G1X57.1421Y-78.2571

G1X57.7797Y-78.3980

G1X59.1610Y-79.1760

G1X59.6923Y-79.2693

G1X60.3121Y-79.0744

G1X61.6404Y-78.1458

G1X62.2425Y-77.9831

G1X62.5613Y-78.0350

G1X62.9686Y-78.2297

G1X64.4739Y-79.4044

G1X65.1115Y-79.5763

G1X65.5365Y-79.4872

G1X65.8907Y-79.2971

G1X67.6617Y-77.8804

G1X68.0867Y-77.6987

G1X68.5118Y-77.6443

G1X68.9368Y-77.7140

G1X69.4327Y-77.9317

G1X70.7609Y-78.8970

G1X71.2745Y-79.1627

G1X72.0183Y-79.1128

G1X72.6558Y-79.1760

G1X74.5685Y-79.7791

G1X77.2250Y-78.9510

G1X78.6064Y-78.6080

G1X80.2003Y-78.3714

G1X82.0066Y-78.2878

G1X83.6005Y-78.3463

G1X85.3007Y-78.5178

G1X91.1449Y-79.4882

G1X93.6951Y-79.7943

G1 Z0F20000

(Start Block)


G1X11.3447Y-76.2990
G1Z5F20000
(Plotting speed under)
G1 F4000


G1X12.2892Y-77.8649

G1X12.6198Y-78.0814

G1X12.9976Y-77.9257

G1X13.8683Y-76.6929

G1X14.2137Y-76.5297

G1X14.5988Y-76.6963

G1X15.4432Y-77.6588

G1X15.8075Y-77.7884

G1X16.2022Y-77.6386

G1X17.0118Y-76.9191

G1X17.4014Y-76.7943

G1X17.8087Y-76.8983

G1X18.6942Y-77.4705

G1X19.1016Y-77.5539

G1X19.5266Y-77.4712

G1X20.3767Y-77.0879

G1X20.9079Y-76.9938

G1X22.3956Y-77.3383

G1X22.9268Y-77.3838

G1X25.1583Y-77.1366

G1X28.0273Y-77.2741

G1X34.5091Y-77.2166

G1X40.9908Y-77.2755

G1X44.7099Y-77.1362

G1X47.7914Y-77.3843

G1X50.3416Y-76.9951

G1X50.9791Y-77.0622

G1X52.2542Y-77.4704

G1X52.7855Y-77.5589

G1X53.4231Y-77.4686

G1X54.6982Y-76.8944

G1X55.2295Y-76.7880

G1X55.7608Y-76.8886

G1X57.0359Y-77.6345

G1X57.6734Y-77.7991

G1X58.2755Y-77.6141

G1X59.6038Y-76.6471

G1X60.1174Y-76.5134

G1X60.4361Y-76.5733

G1X60.8435Y-76.7958

G1X62.0831Y-77.8553

G1X62.7738Y-78.0987

G1X63.0926Y-78.0325

G1X63.4873Y-77.7947

G1X64.9167Y-76.4467

G1X65.3240Y-76.2314

G1X65.6428Y-76.1738

G1X66.0678Y-76.2602

G1X66.4220Y-76.4627

G1X67.6617Y-77.6288

G1X68.8305Y-77.6848

G1X69.2556Y-77.8397

G1X69.6983Y-78.1213

G1X69.9994Y-78.1815

G1X70.4953Y-78.0216

G1X72.0891Y-76.7877

G1X72.8861Y-76.2839

G1X73.7185Y-75.9416

G1X74.5685Y-75.7851

G1X75.7374Y-75.8111

G1X79.2439Y-76.3858

G1X81.4754Y-76.5433

G1X83.8130Y-76.4395

G1X89.7635Y-75.7953

G1X91.6762Y-75.7831

G1X93.6951Y-75.9430

G1 Z0F20000

(Start Block)


G1X11.3447Y-75.0706
G1Z5F20000
(Plotting speed under)
G1 F4000


G1X12.0752Y-76.3256

G1X12.2745Y-76.5513

G1X12.4958Y-76.6325

G1X12.9386Y-76.3161

G1X13.6975Y-75.2529

G1X13.9252Y-75.0739

G1X14.0897Y-75.0461

G1X14.5324Y-75.3126

G1X15.0637Y-75.9536

G1X15.5950Y-76.3246

G1X16.0201Y-76.2001

G1X16.8347Y-75.5118

G1X17.2952Y-75.3193

G1X17.7202Y-75.4236

G1X18.6057Y-75.9772

G1X18.9953Y-76.0826

G1X19.4203Y-76.0352

G1X20.3767Y-75.6264

G1X20.9079Y-75.5246

G1X23.0331Y-75.9148

G1X25.6896Y-75.6663

G1X29.5149Y-75.8056

G1X38.6532Y-75.8026

G1X42.5847Y-75.6668

G1X45.7725Y-75.9134

G1X48.4289Y-75.5247

G1X49.0665Y-75.6114

G1X50.3416Y-76.0189

G1X50.8729Y-76.0884

G1X51.4042Y-76.0072

G1X52.6793Y-75.4320

G1X53.2105Y-75.3170

G1X53.8481Y-75.4566

G1X54.9107Y-76.1157

G1X55.5482Y-76.3277

G1X56.1504Y-76.1746

G1X57.3901Y-75.2320

G1X57.9922Y-75.0440

G1X58.3110Y-75.1168

G1X58.6297Y-75.3010

G1X59.7986Y-76.3635

G1X60.6486Y-76.5901

G1X61.1977Y-76.2685

G1X62.4373Y-74.9837

G1X62.7915Y-74.7652

G1X63.0926Y-74.7061

G1X63.4999Y-74.8065

G1X63.8541Y-75.0598

G1X65.0052Y-76.3418

G1X65.5365Y-76.1803

G1X65.8553Y-76.1982

G1X66.1564Y-76.3061

G1X66.5106Y-76.5610

G1X66.8116Y-76.6176

G1X67.2822Y-76.4005

G1X68.4207Y-75.1587

G1X68.9899Y-74.6677

G1X69.4681Y-74.4061

G1X69.9994Y-74.2990

G1X70.5307Y-74.3757

G1X71.1151Y-74.6328

G1X73.0809Y-76.0006

G1X73.5060Y-76.0103

G1X74.5685Y-75.7851

G1X75.4186Y-75.7834

G1X78.9251Y-76.3418

G1X80.4128Y-76.5021

G1X81.9004Y-76.5430

G1X83.3880Y-76.4752

G1X89.7635Y-75.7953

G1X93.6951Y-75.8638

G1 Z0F20000

(Start Block)


G1X11.3447Y-74.0012
G1Z5F20000
(Plotting speed under)
G1 F4000


G1X11.8760Y-74.9038

G1X12.1416Y-75.1141

G1X12.3187Y-75.1555

G1X12.6350Y-74.9638

G1X13.4698Y-73.8197

G1X13.9126Y-73.5796

G1X14.2668Y-73.7420

G1X15.0637Y-74.6160

G1X15.5950Y-74.8600

G1X15.9492Y-74.7144

G1X16.8701Y-73.9772

G1X17.2952Y-73.8476

G1X17.8087Y-74.0096

G1X18.6765Y-74.5315

G1X19.1016Y-74.6158

G1X19.5266Y-74.5506

G1X20.5892Y-74.1332

G1X21.1205Y-74.0554

G1X23.3519Y-74.4432

G1X26.3272Y-74.1970

G1X32.9152Y-74.3308

G1X39.7157Y-74.1964

G1X43.2223Y-74.4449

G1X44.0723Y-74.3916

G1X46.1975Y-74.0547

G1X46.8351Y-74.1275

G1X48.2164Y-74.5500

G1X48.7477Y-74.6187

G1X49.2790Y-74.5421

G1X50.5541Y-73.9732

G1X51.1916Y-73.8466

G1X51.8115Y-74.0133

G1X53.1043Y-74.7864

G1X53.5293Y-74.8566

G1X54.1138Y-74.6537

G1X55.3534Y-73.6962

G1X55.8670Y-73.5767

G1X56.1504Y-73.6525

G1X56.5046Y-73.8795

G1X57.5671Y-74.9137

G1X57.8859Y-75.0278

G1X58.4172Y-75.0717

G1X58.8574Y-74.8410

G1X60.0718Y-73.4950

G1X60.6486Y-73.2350

G1X60.9320Y-73.2889

G1X61.3526Y-73.5768

G1X62.3488Y-74.8073

G1X63.3051Y-74.7369

G1X63.9427Y-75.1381

G1X64.2083Y-75.0401

G1X64.4739Y-74.8093

G1X65.4037Y-73.6096

G1X65.8401Y-73.1643

G1X66.1741Y-72.9397

G1X66.5991Y-72.8286

G1X67.0242Y-72.9201

G1X67.4846Y-73.2137

G1X68.7243Y-74.5404

G1X69.0431Y-74.5594

G1X69.8931Y-74.3045

G1X70.4244Y-74.3465

G1X71.2036Y-74.6844

G1X72.4433Y-75.5275

G1X75.0113Y-73.9758

G1X76.6937Y-73.2717

G1X78.7126Y-72.8609

G1X81.2628Y-72.7582

G1X83.6005Y-72.9361

G1X85.7257Y-73.3376

G1X87.5321Y-73.8640

G1X91.5699Y-75.2859

G1X93.6951Y-75.8092

G1 Z0F20000

(Start Block)


G1X11.3447Y-73.0584
G1Z5F20000
(Plotting speed under)
G1 F4000


G1X11.8096Y-73.6297

G1X11.9822Y-73.6888

G1X12.1948Y-73.6341

G1X12.4737Y-73.4197

G1X13.3180Y-72.2964

G1X13.6824Y-72.1165

G1X14.0770Y-72.2438

G1X15.0637Y-73.2524

G1X15.4888Y-73.3842

G1X15.8607Y-73.2506

G1X16.7639Y-72.5455

G1X17.2952Y-72.3773

G1X17.8087Y-72.5275

G1X18.6765Y-73.0274

G1X19.2078Y-73.1480

G1X19.7391Y-73.0605

G1X20.8017Y-72.6713

G1X21.4392Y-72.5841

G1X23.3519Y-72.9223

G1X24.0957Y-72.9752

G1X26.7522Y-72.7639

G1X28.2398Y-72.7264

G1X36.7405Y-72.7341

G1X40.7783Y-72.9724

G1X43.7536Y-72.5841

G1X44.4974Y-72.6608

G1X45.8787Y-73.0672

G1X46.5163Y-73.1493

G1X47.1538Y-73.0389

G1X48.4289Y-72.4763

G1X48.9602Y-72.3765

G1X49.5978Y-72.5266

G1X50.6604Y-73.1863

G1X51.2979Y-73.3887

G1X51.8115Y-73.2649

G1X53.1397Y-72.2487

G1X53.6356Y-72.1066

G1X53.9367Y-72.1695

G1X54.2908Y-72.3986

G1X55.3661Y-73.4683

G1X55.8670Y-73.5971

G1X56.5046Y-73.4446

G1X57.7442Y-72.0404

G1X58.0099Y-71.8441

G1X58.3110Y-71.7684

G1X58.6297Y-71.8467

G1X58.8574Y-72.0110

G1X59.6333Y-72.9973

G1X59.9579Y-73.2767

G1X60.2236Y-73.3825

G1X60.7549Y-73.2391

G1X61.1977Y-73.4919

G1X61.3924Y-73.5241

G1X61.6050Y-73.4880

G1X61.8765Y-73.3000

G1X62.6808Y-72.1115

G1X63.0572Y-71.6823

G1X63.4114Y-71.4272

G1X63.7301Y-71.3617

G1X64.1197Y-71.4828

G1X64.4739Y-71.7712

G1X65.5365Y-73.1836

G1X65.7490Y-73.1762

G1X66.4928Y-72.8422

G1X66.9179Y-72.8799

G1X67.4846Y-73.2137

G1X68.1930Y-73.9279

G1X68.4586Y-73.7912

G1X69.8628Y-72.2437

G1X70.5838Y-71.5794

G1X71.3807Y-71.0991

G1X72.1246Y-70.9047

G1X72.7621Y-70.9052

G1X73.6122Y-71.0772

G1X76.2687Y-72.0349

G1X77.5438Y-72.3988

G1X78.6064Y-72.5917

G1X79.7752Y-72.6854

G1X81.1566Y-72.6476

G1X82.6442Y-72.4504

G1X87.5321Y-71.2334

G1X89.4447Y-70.9234

G1X90.5073Y-70.8908

G1X91.5699Y-70.9773

G1X92.6325Y-71.1834

G1X93.6951Y-71.4967

G1 Z0F20000

(Start Block)


G1X11.3447Y-72.0755
G1Z5F20000
(Plotting speed under)
G1 F4000


G1X11.6634Y-72.2130

G1X11.9519Y-72.1338

G1X12.9386Y-70.9375

G1X13.2042Y-70.7253

G1X13.4698Y-70.6327

G1X14.0011Y-70.8932

G1X14.8866Y-71.7618

G1X15.2762Y-71.9120

G1X15.6836Y-71.8327

G1X16.6576Y-71.1185

G1X17.2952Y-70.9069

G1X17.8264Y-71.0374

G1X18.8890Y-71.5797

G1X19.4203Y-71.6801

G1X19.9516Y-71.6085

G1X21.3330Y-71.1739

G1X21.9705Y-71.1143

G1X24.2020Y-71.4446

G1X25.2646Y-71.5054

G1X31.1088Y-71.3017

G1X37.5906Y-71.5021

G1X41.2033Y-71.1155

G1X42.0534Y-71.2190

G1X43.5410Y-71.6231

G1X44.1786Y-71.6781

G1X44.9224Y-71.5236

G1X46.1975Y-70.9842

G1X46.7288Y-70.9085

G1X47.2601Y-71.0270

G1X48.4466Y-71.7292

G1X49.0665Y-71.9205

G1X49.6863Y-71.7482

G1X50.8374Y-70.8461

G1X51.4042Y-70.6374

G1X51.9000Y-70.7877

G1X53.1650Y-72.0054

G1X53.6356Y-72.1659

G1X54.0606Y-72.0722

G1X54.3794Y-71.8762

G1X55.3756Y-70.6656

G1X55.7076Y-70.3978

G1X55.9733Y-70.2973

G1X56.2920Y-70.3600

G1X56.6374Y-70.6167

G1X57.5671Y-71.8991

G1X58.5235Y-71.8197

G1X59.0725Y-72.1565

G1X59.3381Y-71.9680

G1X60.4513Y-70.2609

G1X60.7549Y-69.9926

G1X61.0737Y-69.8930

G1X61.4633Y-70.0181

G1X61.8175Y-70.3539

G1X62.8210Y-71.8340

G1X63.0319Y-71.8130

G1X63.4114Y-71.4272

G1X63.9427Y-71.3988

G1X64.4739Y-71.7712

G1X64.8724Y-72.3477

G1X65.0052Y-72.4257

G1X65.2045Y-72.2805

G1X66.2670Y-70.6990

G1X66.8268Y-70.0147

G1X67.3961Y-69.5688

G1X67.9805Y-69.4191

G1X68.4055Y-69.4962

G1X68.9899Y-69.8142

G1X70.7609Y-71.3677

G1X70.9380Y-71.3746

G1X71.3807Y-71.0991

G1X71.9120Y-70.9369

G1X72.8684Y-70.9177

G1X73.8247Y-71.1419

G1X76.2687Y-72.0349

G1X77.5438Y-72.3988

G1X78.9251Y-72.6294

G1X80.4128Y-72.6870

G1X81.6879Y-72.5943

G1X83.0692Y-72.3688

G1X87.2133Y-71.3080

G1X88.7009Y-71.0105

G1X90.0823Y-70.8900

G1X91.8887Y-70.9373

G1X93.6951Y-70.1391

G1 Z0F20000

(Start Block)


G1X11.3447Y-70.7404
G1Z5F20000
(Plotting speed under)
G1 F4000


G1X11.7874Y-70.4137

G1X12.6729Y-69.3883

G1X12.9386Y-69.2090

G1X13.1511Y-69.1698

G1X13.6470Y-69.3579

G1X14.6387Y-70.2567

G1X15.1700Y-70.4502

G1X15.6836Y-70.2990

G1X16.7639Y-69.5787

G1X17.2952Y-69.4372

G1X17.8264Y-69.5307

G1X19.1016Y-70.1040

G1X19.7391Y-70.2094

G1X20.3767Y-70.1306

G1X21.8643Y-69.7276

G1X22.6081Y-69.6462

G1X26.5397Y-70.0064

G1X32.0651Y-70.0354

G1X34.5091Y-69.9776

G1X38.0156Y-69.6446

G1X38.9719Y-69.7131

G1X40.7783Y-70.1348

G1X41.5221Y-70.2101

G1X42.2659Y-70.0939

G1X43.6473Y-69.5509

G1X44.2848Y-69.4363

G1X44.9224Y-69.5632

G1X46.3037Y-70.3348

G1X46.8351Y-70.4506

G1X47.4726Y-70.2513

G1X48.5352Y-69.4213

G1X49.1727Y-69.1659

G1X49.6863Y-69.3139

G1X51.0146Y-70.5625

G1X51.5104Y-70.7307

G1X51.8115Y-70.6591

G1X52.0771Y-70.4850

G1X53.2504Y-69.1086

G1X53.5293Y-68.9079

G1X53.8481Y-68.8245

G1X54.1138Y-68.9155

G1X54.4458Y-69.1913

G1X55.3239Y-70.5014

G1X55.5305Y-70.6080

G1X55.9733Y-70.2973

G1X56.6108Y-70.5074

G1X56.8233Y-70.5135

G1X57.0359Y-70.4086

G1X58.0394Y-68.8185

G1X58.3641Y-68.5223

G1X58.6297Y-68.4203

G1X58.9839Y-68.5301

G1X59.2791Y-68.7986

G1X60.2236Y-70.3512

G1X60.4007Y-70.3173

G1X60.7549Y-69.9926

G1X61.2862Y-69.9246

G1X62.2729Y-70.8196

G1X62.5082Y-70.6518

G1X63.3051Y-69.2039

G1X63.8098Y-68.4798

G1X64.2969Y-68.0548

G1X64.6865Y-67.9496

G1X65.0938Y-68.0613

G1X65.5365Y-68.4111

G1X66.5991Y-69.8066

G1X66.9179Y-69.8213

G1X67.7680Y-69.4364

G1X68.4055Y-69.4962

G1X69.0785Y-69.8800

G1X70.4953Y-71.1901

G1X70.8494Y-71.3871

G1X71.9120Y-70.8179

G1X73.5060Y-69.7923

G1X74.6748Y-69.2291

G1X76.1624Y-68.7779

G1X77.7563Y-68.5712

G1X79.8815Y-68.6427

G1X82.0066Y-69.0638

G1X83.9193Y-69.7204

G1X87.3196Y-71.2122

G1X89.7635Y-70.9017

G1X91.7824Y-70.9569

G1X92.2074Y-70.8359

G1X93.6951Y-70.1391

G1 Z0F20000

(Start Block)


G1X11.3447Y-68.8239
G1Z5F20000
(Plotting speed under)
G1 F4000


G1X12.2302Y-67.8844

G1X12.7260Y-67.6986

G1X13.2042Y-67.8520

G1X14.4439Y-68.8399

G1X14.9575Y-68.9791

G1X15.5950Y-68.7908

G1X16.7639Y-68.0989

G1X17.4014Y-67.9677

G1X17.9327Y-68.0548

G1X19.4203Y-68.6264

G1X20.2704Y-68.7398

G1X21.0142Y-68.6590

G1X22.9268Y-68.2614

G1X24.3082Y-68.1743

G1X29.0899Y-68.3482

G1X34.7216Y-68.1835

G1X35.8904Y-68.2946

G1X37.9093Y-68.6865

G1X38.7594Y-68.7366

G1X39.6095Y-68.5960

G1X41.2033Y-68.0422

G1X41.8409Y-67.9693

G1X42.4785Y-68.1067

G1X43.8598Y-68.8318

G1X44.4974Y-68.9788

G1X45.1349Y-68.7945

G1X46.3215Y-67.9174

G1X46.9413Y-67.6932

G1X47.5612Y-67.9064

G1X48.8008Y-69.0436

G1X49.1727Y-69.2108

G1X49.4915Y-69.2548

G1X49.7749Y-69.1334

G1X50.0405Y-68.8949

G1X51.1158Y-67.6098

G1X51.6167Y-67.3563

G1X51.9000Y-67.4180

G1X52.2542Y-67.6976

G1X53.2504Y-69.0149

G1X53.4231Y-69.0519

G1X53.8481Y-68.8245

G1X54.3794Y-69.1230

G1X54.6450Y-69.0412

G1X54.9107Y-68.8074

G1X55.8552Y-67.2846

G1X56.0795Y-67.0774

G1X56.3983Y-66.9513

G1X56.6817Y-67.0387

G1X56.9473Y-67.2824

G1X57.5140Y-68.1987

G1X57.9466Y-68.6865

G1X58.1870Y-68.7374

G1X58.6297Y-68.4203

G1X58.8954Y-68.4790

G1X59.2201Y-68.7398

G1X59.5152Y-69.2514

G1X59.6923Y-69.4087

G1X59.9875Y-69.1202

G1X61.2272Y-66.9507

G1X61.5518Y-66.6283

G1X61.9238Y-66.4798

G1X62.2425Y-66.5592

G1X62.5765Y-66.8228

G1X63.3582Y-67.9952

G1X63.6770Y-68.2719

G1X64.0312Y-68.3060

G1X64.5802Y-67.9559

G1X64.8990Y-67.9823

G1X65.1823Y-68.1146

G1X65.8022Y-68.7078

G1X66.4810Y-69.6998

G1X66.7054Y-69.8366

G1X67.1968Y-69.5595

G1X68.5915Y-67.8424

G1X69.4327Y-66.9925

G1X70.3182Y-66.3796

G1X71.1682Y-66.0598

G1X71.9120Y-65.9516

G1X72.6558Y-65.9547

G1X75.7374Y-66.3196

G1X77.4375Y-66.3930

G1X79.0314Y-66.3135

G1X82.2192Y-65.9844

G1X83.4943Y-65.9438

G1X85.1944Y-66.1195

G1X86.8945Y-66.6347

G1X88.4707Y-67.4050

G1X92.2074Y-69.6284

G1X93.0575Y-70.0374

G1X93.6951Y-70.1391

G1 Z0F20000

(Start Block)


G1X11.3447Y-66.5862
G1Z5F20000
(Plotting speed under)
G1 F4000


G1X11.8760Y-66.2636

G1X12.4073Y-66.2657

G1X12.9386Y-66.5539

G1X13.9126Y-67.2861

G1X14.6387Y-67.5111

G1X15.2762Y-67.3694

G1X16.6576Y-66.6573

G1X17.4014Y-66.4982

G1X18.1452Y-66.5914

G1X19.9516Y-67.1548

G1X20.8017Y-67.2659

G1X21.7580Y-67.2297

G1X25.0521Y-66.8235

G1X28.0273Y-66.7377

G1X31.1088Y-66.8261

G1X35.2529Y-67.2707

G1X36.4217Y-67.1509

G1X38.3344Y-66.5885

G1X39.0782Y-66.4972

G1X39.8220Y-66.6240

G1X41.4159Y-67.3770

G1X42.0534Y-67.5113

G1X42.7795Y-67.3200

G1X44.1078Y-66.4023

G1X44.7099Y-66.2234

G1X45.0286Y-66.2830

G1X45.4233Y-66.5010

G1X46.5163Y-67.5094

G1X46.9413Y-67.6932

G1X47.3663Y-67.7720

G1X47.6497Y-67.6502

G1X47.9154Y-67.4100

G1X48.9906Y-66.1471

G1X49.2790Y-65.9538

G1X49.5978Y-65.8866

G1X50.1291Y-66.2024

G1X51.1252Y-67.5085

G1X51.2979Y-67.5539

G1X51.7229Y-67.3587

G1X52.2542Y-67.6976

G1X52.5199Y-67.6179

G1X52.7855Y-67.3802

G1X53.7301Y-65.8322

G1X53.9544Y-65.6167

G1X54.2731Y-65.4816

G1X54.5312Y-65.5530

G1X54.8348Y-65.8355

G1X55.3889Y-66.7778

G1X55.6191Y-67.0159

G1X55.9733Y-67.1616

G1X56.3983Y-66.9680

G1X56.5931Y-66.9927

G1X57.0359Y-67.3875

G1X57.4343Y-67.9334

G1X57.5671Y-67.9712

G1X57.7603Y-67.7242

G1X58.4848Y-66.1808

G1X58.8659Y-65.5426

G1X59.2673Y-65.1140

G1X59.5861Y-65.0109

G1X59.8694Y-65.1043

G1X60.1351Y-65.3431

G1X61.1344Y-66.7957

G1X61.3747Y-66.8651

G1X61.8175Y-66.4944

G1X62.2425Y-66.5592

G1X62.7283Y-67.0003

G1X63.4114Y-68.0588

G1X63.6770Y-68.2797

G1X63.8541Y-68.3210

G1X64.1197Y-68.1035

G1X65.2414Y-66.2494

G1X65.9350Y-65.3141

G1X66.5991Y-64.7309

G1X67.2367Y-64.4880

G1X67.7680Y-64.5010

G1X68.4055Y-64.7205

G1X69.1670Y-65.1757

G1X70.2296Y-65.9684

G1X70.6369Y-66.1309

G1X70.9557Y-66.1404

G1X71.6995Y-65.9692

G1X72.5496Y-65.9491

G1X75.7374Y-66.3196

G1X77.3313Y-66.3935

G1X78.8189Y-66.3309

G1X83.3880Y-65.9106

G1X86.1507Y-64.7897

G1X87.2133Y-64.5436

G1X88.1696Y-64.4724

G1X89.3385Y-64.5995

G1X90.6136Y-65.0015

G1X91.9241Y-65.6534

G1X93.6951Y-66.7574

G1 Z0F20000

(Start Block)


G1X11.3447Y-64.7541
G1Z5F20000
(Plotting speed under)
G1 F4000


G1X11.9645Y-64.9347

G1X13.4698Y-65.8709

G1X14.2137Y-66.0407

G1X14.9575Y-65.8963

G1X16.6576Y-65.1720

G1X17.6139Y-65.0270

G1X18.4640Y-65.1203

G1X20.9079Y-65.6815

G1X22.7143Y-65.8008

G1X26.6459Y-65.7005

G1X31.7463Y-65.7784

G1X33.1277Y-65.6094

G1X35.3591Y-65.0932

G1X36.2092Y-65.0288

G1X37.0593Y-65.1726

G1X38.8657Y-65.9243

G1X39.6095Y-66.0391

G1X40.3533Y-65.8378

G1X41.9472Y-64.8555

G1X42.4785Y-64.7563

G1X42.7972Y-64.8210

G1X43.2223Y-65.0566

G1X44.3911Y-66.0742

G1X45.2412Y-66.3012

G1X45.5245Y-66.1865

G1X45.7902Y-65.9603

G1X46.9413Y-64.6662

G1X47.4726Y-64.4142

G1X47.7914Y-64.4993

G1X48.1367Y-64.7738

G1X49.0665Y-66.0763

G1X49.1727Y-66.0927

G1X49.5978Y-65.8866

G1X50.0405Y-66.1671

G1X50.3416Y-66.2361

G1X50.5541Y-66.1927

G1X50.7666Y-65.9901

G1X51.7229Y-64.3910

G1X52.0771Y-64.0726

G1X52.3428Y-64.0133

G1X52.7855Y-64.2881

G1X53.6963Y-65.6036

G1X53.9544Y-65.7020

G1X54.2731Y-65.5029

G1X54.4679Y-65.5212

G1X54.9107Y-65.9292

G1X55.2649Y-66.5245

G1X55.4420Y-66.6480

G1X55.6352Y-66.4192

G1X56.7997Y-64.0589

G1X57.1421Y-63.6705

G1X57.4609Y-63.5410

G1X57.7189Y-63.6142

G1X58.0225Y-63.8968

G1X58.5766Y-64.8572

G1X58.8068Y-65.0804

G1X59.1610Y-65.1928

G1X59.6923Y-65.0238

G1X59.9579Y-65.1702

G1X60.2767Y-65.5158

G1X60.9826Y-66.6369

G1X61.2862Y-66.8801

G1X61.4854Y-66.7588

G1X61.8658Y-66.2055

G1X62.7738Y-64.5033

G1X63.2933Y-63.7199

G1X63.8541Y-63.1808

G1X64.3677Y-63.0047

G1X64.7927Y-63.0766

G1X65.2709Y-63.3552

G1X66.5991Y-64.7309

G1X67.3429Y-64.4766

G1X68.0867Y-64.5883

G1X68.8128Y-64.9443

G1X70.2296Y-65.9684

G1X70.5307Y-66.1043

G1X70.8494Y-66.1518

G1X71.5933Y-65.9814

G1X72.5496Y-65.9491

G1X76.9062Y-66.3886

G1X78.8189Y-66.3309

G1X83.4943Y-65.8908

G1X85.0881Y-65.1763

G1X86.5758Y-64.6261

G1X88.7009Y-63.5025

G1X90.1885Y-63.0701

G1X91.0386Y-63.0023

G1X91.8887Y-63.0697

G1X92.7387Y-63.2655

G1X93.6951Y-63.6218

G1 Z0F20000

(Start Block)


G1X11.3447Y-63.7023
G1Z5F20000
(Plotting speed under)
G1 F4000


G1X12.6198Y-64.3789

G1X13.5761Y-64.5717

G1X14.5324Y-64.4126

G1X16.5513Y-63.7181

G1X17.6139Y-63.5627

G1X18.7828Y-63.6135

G1X22.5018Y-64.1206

G1X25.3709Y-64.2249

G1X28.2398Y-64.1102

G1X31.8526Y-63.6091

G1X32.9152Y-63.5603

G1X33.9778Y-63.7099

G1X36.1029Y-64.4520

G1X36.9530Y-64.5699

G1X37.8031Y-64.3726

G1X39.4147Y-63.4563

G1X40.1408Y-63.2846

G1X40.5658Y-63.3677

G1X40.9200Y-63.5505

G1X42.2659Y-64.6293

G1X43.1160Y-64.8435

G1X43.3994Y-64.7411

G1X43.7536Y-64.4664

G1X44.9932Y-63.1549

G1X45.2589Y-62.9941

G1X45.5600Y-62.9504

G1X45.8787Y-63.0552

G1X46.1064Y-63.2348

G1X46.9413Y-64.3251

G1X47.6851Y-64.4924

G1X48.4466Y-64.9637

G1X48.7123Y-64.7864

G1X49.9298Y-62.8438

G1X50.1291Y-62.6580

G1X50.4478Y-62.5452

G1X50.7362Y-62.6358

G1X51.0398Y-62.9482

G1X51.7229Y-64.1351

G1X51.8292Y-64.1744

G1X52.2542Y-64.0117

G1X52.6084Y-64.1399

G1X52.8445Y-64.3629

G1X53.1987Y-65.0066

G1X53.4054Y-65.1390

G1X53.5825Y-65.0604

G1X53.8924Y-64.6900

G1X54.9866Y-62.5290

G1X55.3661Y-62.1372

G1X55.6545Y-62.0773

G1X56.0913Y-62.3665

G1X56.9768Y-63.7189

G1X57.1421Y-63.7703

G1X57.5671Y-63.5500

G1X57.7189Y-63.6142

G1X58.1516Y-64.0679

G1X58.6297Y-64.9258

G1X58.8954Y-65.1329

G1X59.2496Y-65.1912

G1X59.5152Y-65.1103

G1X59.7406Y-64.8821

G1X60.6583Y-63.0061

G1X61.2272Y-62.0990

G1X61.7289Y-61.6390

G1X62.1363Y-61.5347

G1X62.5259Y-61.6482

G1X62.8801Y-61.9140

G1X63.9427Y-63.1282

G1X64.5802Y-63.0159

G1X65.1823Y-63.2888

G1X65.6883Y-63.7303

G1X66.5327Y-64.6960

G1X66.7054Y-64.7350

G1X67.1304Y-64.5080

G1X67.3429Y-64.4766

G1X68.0867Y-64.5883

G1X68.9014Y-64.9993

G1X70.4244Y-66.0612

G1X70.8494Y-66.1137

G1X72.5496Y-65.7758

G1X74.1435Y-65.7148

G1X75.5249Y-65.8548

G1X77.7563Y-66.3100

G1X78.3939Y-66.3652

G1X83.6005Y-65.8623

G1X86.2570Y-64.6861

G1X88.7364Y-62.9757

G1X90.4011Y-62.0796

G1X91.2511Y-61.7744

G1X92.1012Y-61.5905

G1X92.8450Y-61.5329

G1X93.6951Y-61.5830

G1 Z0F20000

(Start Block)


G1X11.3447Y-62.8962
G1Z5F20000
(Plotting speed under)
G1 F4000


G1X12.1948Y-63.0805

G1X13.1511Y-63.0653

G1X16.2326Y-62.3036

G1X17.8264Y-62.1035

G1X23.6707Y-62.2626

G1X28.6649Y-62.0872

G1X30.4713Y-62.2504

G1X33.1277Y-62.9816

G1X34.1903Y-63.0991

G1X35.1466Y-62.9011

G1X36.9530Y-62.0007

G1X37.8031Y-61.8138

G1X38.5292Y-62.0080

G1X40.1408Y-63.1757

G1X40.5658Y-63.3677

G1X40.8846Y-63.4043

G1X41.2742Y-63.3075

G1X41.6284Y-63.0855

G1X43.0452Y-61.6873

G1X43.3285Y-61.5318

G1X43.6473Y-61.4763

G1X43.9306Y-61.5553

G1X44.2848Y-61.8110

G1X45.2715Y-62.9155

G1X45.8787Y-63.0552

G1X46.3341Y-63.5375

G1X46.4986Y-63.5773

G1X46.7642Y-63.4482

G1X47.0003Y-63.2153

G1X48.2316Y-61.3517

G1X48.4593Y-61.1550

G1X48.7477Y-61.0753

G1X48.9602Y-61.1276

G1X49.1993Y-61.3082

G1X50.1291Y-62.6580

G1X50.2353Y-62.6909

G1X50.5541Y-62.5785

G1X50.8121Y-62.6997

G1X51.2448Y-63.2385

G1X51.5635Y-63.8551

G1X51.7229Y-63.9926

G1X51.9591Y-63.7597

G1X53.2685Y-61.1597

G1X53.6204Y-60.7438

G1X53.9544Y-60.6011

G1X54.3794Y-60.8180

G1X54.8516Y-61.5537

G1X55.2143Y-61.9409

G1X55.4420Y-62.1003

G1X55.8670Y-62.1768

G1X56.0323Y-62.2964

G1X56.8588Y-63.5792

G1X57.1421Y-63.7820

G1X57.9213Y-63.4226

G1X58.0984Y-63.2614

G1X58.9678Y-61.4460

G1X59.3972Y-60.7243

G1X59.8694Y-60.2157

G1X60.3299Y-60.0633

G1X60.6486Y-60.1604

G1X60.9826Y-60.4135

G1X61.8175Y-61.5535

G1X62.3488Y-61.5712

G1X62.7915Y-61.8374

G1X63.8762Y-63.0881

G1X64.0489Y-63.1449

G1X64.5802Y-63.0159

G1X65.1823Y-63.2888

G1X65.6883Y-63.7303

G1X66.5991Y-64.7309

G1X67.6617Y-64.3712

G1X69.1493Y-63.5660

G1X70.3182Y-63.1051

G1X71.4870Y-62.8444

G1X72.7621Y-62.7852

G1X73.9310Y-62.9173

G1X75.2061Y-63.2340

G1X79.9877Y-65.0222

G1X81.0503Y-65.2398

G1X82.0066Y-65.2870

G1X83.3880Y-65.0682

G1X84.8402Y-64.4808

G1X86.1684Y-63.6929

G1X89.2676Y-61.5844

G1X90.8261Y-60.7445

G1X92.3137Y-60.2397

G1X93.6951Y-60.0647

G1 Z0F20000

(Start Block)


G1X11.3447Y-61.6209
G1Z5F20000
(Plotting speed under)
G1 F4000


G1X12.4073Y-61.5033

G1X15.0637Y-60.9986

G1X16.6576Y-60.7791

G1X18.5702Y-60.6571

G1X21.4392Y-60.6230

G1X24.0957Y-60.6515

G1X25.9021Y-60.7623

G1X27.3898Y-60.9754

G1X30.1525Y-61.5591

G1X31.3213Y-61.6229

G1X32.3839Y-61.4190

G1X34.5091Y-60.5079

G1X35.3591Y-60.3439

G1X35.7842Y-60.3875

G1X36.3155Y-60.5756

G1X38.0156Y-61.7010

G1X38.4406Y-61.8860

G1X38.8657Y-61.9357

G1X39.2907Y-61.8266

G1X39.6803Y-61.5946

G1X41.2033Y-60.2066

G1X41.5221Y-60.0455

G1X41.8409Y-60.0093

G1X42.3368Y-60.2054

G1X43.2223Y-61.1789

G1X44.1963Y-61.7510

G1X44.8161Y-62.2431

G1X45.0438Y-62.1186

G1X45.4065Y-61.6920

G1X46.5618Y-59.9836

G1X46.8654Y-59.7019

G1X47.1538Y-59.6056

G1X47.4726Y-59.6860

G1X47.7003Y-59.8821

G1X48.5352Y-61.1159

G1X48.9602Y-61.1493

G1X49.1993Y-61.3087

G1X49.9520Y-62.4750

G1X50.1291Y-62.6353

G1X50.2619Y-62.5795

G1X50.4611Y-62.3088

G1X51.9222Y-59.5773

G1X52.2542Y-59.2259

G1X52.5730Y-59.1355

G1X52.7855Y-59.2028

G1X52.9847Y-59.3807

G1X53.8481Y-60.6136

G1X54.3794Y-60.8180

G1X54.8516Y-61.5537

G1X55.2143Y-61.9409

G1X55.6545Y-62.1886

G1X56.2920Y-62.2930

G1X56.5046Y-62.1888

G1X56.6374Y-61.9896

G1X57.4786Y-60.1587

G1X58.0453Y-59.1833

G1X58.4779Y-58.7349

G1X58.9485Y-58.5981

G1X59.2496Y-58.6983

G1X59.6038Y-58.9948

G1X60.2236Y-59.8442

G1X60.7549Y-60.2232

G1X61.2103Y-60.6692

G1X61.8175Y-61.5535

G1X62.3488Y-61.5712

G1X62.7030Y-61.7675

G1X63.9427Y-63.1282

G1X64.4739Y-63.0041

G1X65.0052Y-63.1766

G1X65.4303Y-63.0744

G1X67.5731Y-61.6522

G1X69.0431Y-60.9767

G1X70.2119Y-60.6978

G1X71.4870Y-60.6355

G1X72.8684Y-60.8208

G1X74.2498Y-61.2325

G1X78.1813Y-63.0541

G1X79.3502Y-63.5059

G1X80.4128Y-63.7584

G1X81.3691Y-63.8181

G1X82.6442Y-63.6243

G1X84.0255Y-63.0809

G1X85.2829Y-62.3562

G1X88.5592Y-60.1801

G1X90.2948Y-59.2853

G1X91.9949Y-58.7577

G1X93.6951Y-58.5926

G1 Z0F20000

(Start Block)


G1X11.3447Y-59.8491
G1Z5F20000
(Plotting speed under)
G1 F4000


G1X15.4888Y-59.4244

G1X19.5266Y-59.3423

G1X22.3956Y-59.4947

G1X26.6459Y-60.0877

G1X28.1336Y-60.1537

G1X29.4087Y-59.9590

G1X31.9589Y-59.0341

G1X33.0214Y-58.8746

G1X33.9778Y-59.0917

G1X35.9967Y-60.2691

G1X36.4217Y-60.4224

G1X36.8468Y-60.4668

G1X37.2718Y-60.3804

G1X37.6437Y-60.1984

G1X39.3261Y-58.7930

G1X39.7157Y-58.5944

G1X40.0345Y-58.5342

G1X40.6543Y-58.7399

G1X41.7169Y-59.8218

G1X42.9566Y-60.7138

G1X43.2223Y-60.8021

G1X43.4879Y-60.6701

G1X43.8200Y-60.3430

G1X45.2146Y-58.4275

G1X45.4537Y-58.2405

G1X45.7725Y-58.1308

G1X46.0558Y-58.1976

G1X46.4100Y-58.4846

G1X46.9413Y-59.2617

G1X47.9280Y-60.1687

G1X48.4821Y-61.0696

G1X48.7477Y-61.1657

G1X49.0665Y-60.9822

G1X49.3026Y-60.6814

G1X50.6604Y-58.1792

G1X51.0398Y-57.7705

G1X51.4042Y-57.6665

G1X51.8558Y-57.9524

G1X53.3168Y-59.8228

G1X53.7891Y-60.5505

G1X53.9544Y-60.6848

G1X54.3794Y-60.8180

G1X54.7779Y-61.4020

G1X54.9107Y-61.4745

G1X55.2058Y-61.1300

G1X56.9296Y-57.7995

G1X57.4154Y-57.2768

G1X57.8859Y-57.1260

G1X58.2755Y-57.2641

G1X58.6962Y-57.6514

G1X60.1646Y-59.7772

G1X61.1344Y-60.5840

G1X61.8175Y-61.5535

G1X62.3488Y-61.5712

G1X63.3228Y-62.1975

G1X63.6239Y-62.1616

G1X66.1564Y-60.5582

G1X67.3429Y-59.9468

G1X68.6180Y-59.5496

G1X69.9994Y-59.4233

G1X71.0620Y-59.5213

G1X72.2308Y-59.8011

G1X73.6122Y-60.3210

G1X77.2250Y-61.9574

G1X78.3939Y-62.2702

G1X79.4564Y-62.3477

G1X80.7315Y-62.1425

G1X82.0066Y-61.6274

G1X83.2463Y-60.9001

G1X86.6112Y-58.6424

G1X87.6383Y-58.0869

G1X88.7009Y-57.6413

G1X89.8698Y-57.3139

G1X91.0386Y-57.1503

G1X92.3137Y-57.1350

G1X93.6951Y-57.2719

G1 Z0F20000

(Start Block)


G1X11.3447Y-57.9966
G1Z5F20000
(Plotting speed under)
G1 F4000


G1X14.4262Y-57.9612

G1X17.1889Y-58.0389

G1X19.4203Y-58.2051

G1X23.2456Y-58.6356

G1X24.7333Y-58.6882

G1X26.3272Y-58.5017

G1X29.3024Y-57.5773

G1X30.5775Y-57.4054

G1X31.6401Y-57.6155

G1X33.8715Y-58.7749

G1X34.4028Y-58.9527

G1X34.8278Y-58.9977

G1X35.2529Y-58.9396

G1X35.7842Y-58.7171

G1X37.6437Y-57.3064

G1X38.0156Y-57.1318

G1X38.4406Y-57.0650

G1X38.7594Y-57.1268

G1X39.1490Y-57.3273

G1X40.9200Y-58.9964

G1X41.3096Y-59.2599

G1X41.6284Y-59.3696

G1X41.9472Y-59.2887

G1X42.3874Y-58.9586

G1X44.0192Y-56.9082

G1X44.2848Y-56.7285

G1X44.6036Y-56.6633

G1X44.9047Y-56.7528

G1X45.1703Y-56.9630

G1X45.8787Y-57.9444

G1X46.4100Y-58.4846

G1X46.9413Y-59.2617

G1X47.2955Y-59.6006

G1X47.5789Y-59.7015

G1X47.8976Y-59.6086

G1X48.2400Y-59.2488

G1X49.4384Y-57.0892

G1X49.8255Y-56.5405

G1X50.1291Y-56.2711

G1X50.4478Y-56.1945

G1X50.7362Y-56.3002

G1X50.9639Y-56.5101

G1X52.4535Y-58.7886

G1X53.4939Y-60.0080

G1X53.8481Y-60.2245

G1X54.0758Y-60.0758

G1X54.5388Y-59.4351

G1X55.7801Y-57.0504

G1X56.2389Y-56.3184

G1X56.7702Y-55.7872

G1X57.2484Y-55.6560

G1X57.7442Y-55.8611

G1X58.2313Y-56.3464

G1X59.9875Y-59.0563

G1X60.6885Y-59.9612

G1X61.2862Y-60.4922

G1X61.9238Y-60.8027

G1X62.4550Y-60.8807

G1X63.0926Y-60.8037

G1X66.4928Y-59.4358

G1X67.5554Y-59.1821

G1X68.6180Y-59.0986

G1X69.4681Y-59.1504

G1X70.4244Y-59.3202

G1X72.4433Y-59.8692

G1X74.3560Y-60.6014

G1X75.4186Y-60.8258

G1X76.2687Y-60.8797

G1X77.5438Y-60.6956

G1X78.8189Y-60.1820

G1X80.0586Y-59.4226

G1X83.6005Y-56.9018

G1X84.8756Y-56.2469

G1X86.0445Y-55.8600

G1X87.4258Y-55.6629

G1X89.0197Y-55.7243

G1X90.8261Y-56.0395

G1X93.6951Y-56.7529

G1 Z0F20000

(Start Block)


G1X11.3447Y-56.3094
G1Z5F20000
(Plotting speed under)
G1 F4000


G1X14.4262Y-56.4998

G1X19.7391Y-57.1281

G1X21.6517Y-57.2195

G1X23.3519Y-57.0440

G1X26.7522Y-56.0949

G1X27.4960Y-55.9628

G1X28.2398Y-55.9402

G1X29.5149Y-56.2165

G1X31.9589Y-57.3614

G1X32.9152Y-57.5273

G1X33.3402Y-57.4721

G1X33.8715Y-57.2823

G1X35.9967Y-55.8404

G1X36.4217Y-55.6589

G1X36.8468Y-55.5944

G1X37.2718Y-55.6693

G1X37.7322Y-55.9074

G1X39.5032Y-57.5606

G1X39.9460Y-57.8255

G1X40.3533Y-57.8983

G1X40.7429Y-57.7973

G1X41.0971Y-57.5611

G1X42.6910Y-55.6572

G1X43.1337Y-55.2983

G1X43.5410Y-55.1920

G1X43.9306Y-55.3133

G1X44.2848Y-55.6100

G1X45.8197Y-57.8292

G1X46.2329Y-58.2146

G1X46.6225Y-58.3347

G1X46.9413Y-58.2416

G1X47.3208Y-57.8994

G1X48.9484Y-55.2495

G1X49.3321Y-54.8627

G1X49.7040Y-54.7209

G1X50.1291Y-54.8747

G1X50.5939Y-55.4025

G1X52.2542Y-58.3131

G1X52.7096Y-58.7442

G1X53.1043Y-58.8357

G1X53.4686Y-58.6882

G1X53.9662Y-58.1584

G1X55.3889Y-55.6485

G1X55.9733Y-54.7876

G1X56.5046Y-54.3140

G1X57.0359Y-54.1858

G1X57.5671Y-54.3886

G1X58.0984Y-54.8618

G1X60.1572Y-57.6235

G1X61.1344Y-58.6247

G1X62.1363Y-59.2030

G1X62.7738Y-59.3646

G1X63.4114Y-59.4104

G1X67.1304Y-59.0813

G1X69.1493Y-59.1194

G1X71.5933Y-59.4084

G1X72.5496Y-59.3719

G1X73.5060Y-59.1957

G1X74.5685Y-58.8028

G1X75.6311Y-58.2021

G1X78.8189Y-55.7554

G1X79.9700Y-54.9913

G1X81.1566Y-54.4487

G1X82.3254Y-54.2024

G1X83.1755Y-54.1979

G1X84.1318Y-54.3431

G1X85.4069Y-54.7181

G1X87.7446Y-55.6277

G1X90.0823Y-55.8874

G1X93.6951Y-56.7529

G1 Z0F20000

(Start Block)


G1X11.3447Y-54.7689
G1Z5F20000
(Plotting speed under)
G1 F4000


G1X13.4698Y-54.9805

G1X17.5077Y-55.6543

G1X19.2078Y-55.7497

G1X21.1205Y-55.5097

G1X24.5208Y-54.5703

G1X25.9021Y-54.4743

G1X27.2835Y-54.7691

G1X29.9399Y-55.9001

G1X31.0025Y-56.0568

G1X31.6401Y-55.9550

G1X32.2776Y-55.7003

G1X34.5091Y-54.3191

G1X35.0404Y-54.1507

G1X35.4654Y-54.1308

G1X35.9967Y-54.2663

G1X36.4926Y-54.5480

G1X38.3521Y-56.1476

G1X38.7594Y-56.3560

G1X39.1844Y-56.4290

G1X39.5918Y-56.3428

G1X40.0345Y-56.0729

G1X41.8940Y-54.0522

G1X42.2659Y-53.8098

G1X42.6910Y-53.7210

G1X43.1160Y-53.8636

G1X43.5259Y-54.2064

G1X45.2810Y-56.5318

G1X45.6131Y-56.7737

G1X45.9850Y-56.8666

G1X46.4100Y-56.7154

G1X46.8654Y-56.2644

G1X48.5352Y-53.7032

G1X48.9779Y-53.3314

G1X49.3852Y-53.2581

G1X49.7496Y-53.4158

G1X50.2471Y-53.9455

G1X51.5635Y-56.1889

G1X52.0550Y-56.8797

G1X52.5199Y-57.2736

G1X52.8918Y-57.3710

G1X53.3927Y-57.1851

G1X53.9071Y-56.6628

G1X55.4420Y-54.2128

G1X56.1251Y-53.3155

G1X56.7171Y-52.8503

G1X57.3546Y-52.7176

G1X57.8859Y-52.8753

G1X58.4526Y-53.2564

G1X60.9826Y-55.8335

G1X61.7289Y-56.4416

G1X62.4550Y-56.8912

G1X63.3051Y-57.2537

G1X64.1552Y-57.4759

G1X65.2178Y-57.6138

G1X66.4928Y-57.6412

G1X68.5118Y-57.4155

G1X70.2119Y-56.8705

G1X71.8235Y-55.9717

G1X74.4800Y-54.0051

G1X75.5426Y-53.3252

G1X76.6937Y-52.8461

G1X77.7563Y-52.7140

G1X78.5001Y-52.8074

G1X79.3502Y-53.0835

G1X80.2357Y-53.5239

G1X81.4754Y-54.2975

G1X82.7504Y-54.1829

G1X83.9193Y-54.2989

G1X85.3007Y-54.6810

G1X87.7446Y-55.6277

G1X90.0823Y-55.8874

G1X93.6951Y-56.7529

G1 Z0F20000

(Start Block)


G1X11.3447Y-53.2961
G1Z5F20000
(Plotting speed under)
G1 F4000


G1X12.7260Y-53.4883

G1X15.8075Y-54.1706

G1X17.2952Y-54.2801

G1X18.8890Y-54.0640

G1X22.1830Y-53.1056

G1X22.9268Y-53.0056

G1X23.6707Y-53.0098

G1X25.0521Y-53.3092

G1X27.8148Y-54.4153

G1X28.9836Y-54.5879

G1X29.6212Y-54.5121

G1X30.3650Y-54.2646

G1X33.0214Y-52.8132

G1X33.5528Y-52.6756

G1X33.9778Y-52.6593

G1X34.5091Y-52.7681

G1X34.9872Y-52.9871

G1X37.1124Y-54.6202

G1X37.6968Y-54.8996

G1X38.1218Y-54.9595

G1X38.5469Y-54.8820

G1X39.0605Y-54.6031

G1X41.0212Y-52.6414

G1X41.5398Y-52.3234

G1X41.9472Y-52.2513

G1X42.4253Y-52.3892

G1X42.9187Y-52.7732

G1X44.7402Y-55.0194

G1X45.1703Y-55.3160

G1X45.5600Y-55.3959

G1X45.9673Y-55.2730

G1X46.4764Y-54.8341

G1X47.8858Y-52.7723

G1X48.3834Y-52.1696

G1X48.7477Y-51.8922

G1X49.1727Y-51.7803

G1X49.6737Y-51.9643

G1X50.1881Y-52.4742

G1X51.6049Y-54.6693

G1X52.1878Y-55.4156

G1X52.6970Y-55.8034

G1X53.1043Y-55.9004

G1X53.5825Y-55.7723

G1X54.0758Y-55.3956

G1X56.5046Y-52.2180

G1X57.2129Y-51.6010

G1X57.8859Y-51.2986

G1X58.5235Y-51.2516

G1X59.2673Y-51.4285

G1X61.9238Y-52.8239

G1X63.0926Y-53.3017

G1X64.0489Y-53.5260

G1X65.0052Y-53.5929

G1X65.9616Y-53.5084

G1X67.0242Y-53.2520

G1X68.0867Y-52.8529

G1X70.9557Y-51.5588

G1X71.8058Y-51.3194

G1X72.5496Y-51.2433

G1X73.3997Y-51.3408

G1X74.2498Y-51.6473

G1X75.0999Y-52.1446

G1X76.1624Y-52.9606

G1X77.4375Y-52.7206

G1X78.6064Y-52.8327

G1X79.7752Y-53.2787

G1X81.3868Y-54.2629

G1X81.5816Y-54.3119

G1X82.5379Y-54.1882

G1X83.4943Y-54.2304

G1X84.4506Y-54.4206

G1X85.8319Y-54.8329

G1X88.0634Y-54.2445

G1X89.7635Y-53.9568

G1X91.6762Y-53.8412

G1X93.6951Y-53.9320

G1 Z0F20000

(Start Block)


G1X11.3447Y-51.8899
G1Z5F20000
(Plotting speed under)
G1 F4000


G1X14.3199Y-52.6753

G1X15.7013Y-52.8100

G1X17.0826Y-52.5911

G1X19.9516Y-51.6594

G1X20.6954Y-51.5412

G1X21.4392Y-51.5367

G1X22.8206Y-51.8335

G1X25.5834Y-52.9185

G1X26.3272Y-53.0814

G1X26.9647Y-53.1172

G1X27.7085Y-53.0225

G1X28.4523Y-52.7865

G1X31.3213Y-51.3646

G1X31.9589Y-51.2085

G1X32.4902Y-51.1912

G1X33.1277Y-51.3208

G1X33.7475Y-51.5989

G1X36.1384Y-53.2366

G1X36.6342Y-53.4299

G1X37.1655Y-53.4883

G1X37.6968Y-53.3719

G1X38.3521Y-52.9942

G1X40.4773Y-51.0722

G1X40.9908Y-50.8276

G1X41.4159Y-50.7842

G1X41.8409Y-50.8973

G1X42.3874Y-51.2649

G1X44.4619Y-53.5680

G1X44.9224Y-53.8508

G1X45.3474Y-53.9274

G1X45.8787Y-53.7504

G1X46.4100Y-53.2955

G1X47.9375Y-51.2579

G1X48.4593Y-50.6937

G1X48.9779Y-50.3686

G1X49.3852Y-50.3140

G1X49.8634Y-50.4803

G1X50.4327Y-50.9699

G1X52.1214Y-53.2611

G1X52.7096Y-53.9138

G1X53.3168Y-54.3248

G1X53.8481Y-54.4314

G1X54.4679Y-54.2669

G1X55.1384Y-53.8054

G1X56.5805Y-52.1396

G1X58.3641Y-50.6422

G1X59.4798Y-50.0787

G1X60.7549Y-49.8149

G1X66.1741Y-49.7762

G1X67.8742Y-49.9444

G1X68.6180Y-50.1501

G1X69.3441Y-50.4561

G1X70.8494Y-51.4281

G1X71.1682Y-51.4515

G1X72.6558Y-51.2442

G1X73.8247Y-51.4684

G1X74.7457Y-51.9165

G1X76.0739Y-52.9202

G1X76.2687Y-52.9723

G1X77.5438Y-52.7152

G1X78.9251Y-52.8710

G1X79.4387Y-52.6093

G1X80.8555Y-51.6312

G1X81.7941Y-51.1194

G1X82.8567Y-50.7035

G1X84.0255Y-50.4372

G1X85.7257Y-50.3110

G1X89.9760Y-50.3921

G1X93.6951Y-50.3163

G1 Z0F20000

(Start Block)


G1X11.3447Y-50.6494
G1Z5F20000
(Plotting speed under)
G1 F4000


G1X13.1511Y-51.2337

G1X14.3199Y-51.3350

G1X15.3825Y-51.1330

G1X17.9327Y-50.2024

G1X18.6765Y-50.0700

G1X19.3141Y-50.0639

G1X20.5892Y-50.3409

G1X23.3519Y-51.4451

G1X24.0957Y-51.6083

G1X24.8395Y-51.6453

G1X25.5834Y-51.5475

G1X26.3272Y-51.3258

G1X29.4087Y-49.9250

G1X30.1525Y-49.7477

G1X30.7900Y-49.7196

G1X31.5338Y-49.8486

G1X32.2776Y-50.1450

G1X35.0404Y-51.7972

G1X35.5717Y-51.9687

G1X36.1029Y-52.0198

G1X36.6342Y-51.9357

G1X37.2718Y-51.6561

G1X39.7689Y-49.6712

G1X40.3533Y-49.3878

G1X40.8846Y-49.3113

G1X41.4159Y-49.4296

G1X42.0711Y-49.8345

G1X43.7536Y-51.5790

G1X44.3734Y-52.1215

G1X44.8161Y-52.3672

G1X45.3474Y-52.4567

G1X45.8787Y-52.3057

G1X46.4859Y-51.8613

G1X48.2316Y-49.8037

G1X48.8008Y-49.2527

G1X49.2790Y-48.9555

G1X49.8103Y-48.8400

G1X50.3416Y-48.9600

G1X51.0146Y-49.4155

G1X53.0891Y-51.7577

G1X53.8481Y-52.4447

G1X54.5919Y-52.8463

G1X55.3357Y-52.9606

G1X55.9733Y-52.8569

G1X56.8082Y-51.9265

G1X58.0099Y-50.9012

G1X58.7360Y-50.4128

G1X59.7986Y-49.9806

G1X60.9674Y-49.7977

G1X66.0678Y-49.7745

G1X67.5554Y-49.8852

G1X68.4055Y-50.0810

G1X69.1493Y-50.3633

G1X70.0525Y-50.8601

G1X70.7609Y-51.3853

G1X71.0620Y-51.4596

G1X72.4433Y-51.2453

G1X73.5945Y-51.3416

G1X76.0739Y-49.3931

G1X76.9062Y-49.0010

G1X77.7563Y-48.8422

G1X78.6064Y-48.9180

G1X79.4564Y-49.1827

G1X82.5379Y-50.7434

G1X84.0255Y-50.4372

G1X85.3007Y-50.3215

G1X90.0823Y-50.3921

G1X93.6951Y-50.3163

G1 Z0F20000

(Start Block)


G1X11.3447Y-49.6218
G1Z5F20000
(Plotting speed under)
G1 F4000


G1X12.3010Y-49.8548

G1X13.1511Y-49.8267

G1X14.0011Y-49.5801

G1X16.0201Y-48.7400

G1X17.1889Y-48.5874

G1X18.3577Y-48.8329

G1X21.1205Y-49.9945

G1X21.8643Y-50.1502

G1X22.6081Y-50.1699

G1X23.3519Y-50.0535

G1X24.0957Y-49.8210

G1X27.1772Y-48.4849

G1X28.0273Y-48.2871

G1X28.7711Y-48.2479

G1X29.6212Y-48.3706

G1X30.4713Y-48.6614

G1X33.6590Y-50.3129

G1X34.4028Y-50.5137

G1X35.0404Y-50.5453

G1X35.7842Y-50.3975

G1X36.4926Y-50.0776

G1X39.3261Y-48.1169

G1X39.9282Y-47.8941

G1X40.4595Y-47.8414

G1X41.0971Y-47.9754

G1X41.8055Y-48.3672

G1X43.7536Y-50.1406

G1X44.4619Y-50.6747

G1X45.0286Y-50.9273

G1X45.5600Y-50.9849

G1X46.1975Y-50.8111

G1X46.8528Y-50.3809

G1X48.8388Y-48.3585

G1X49.5092Y-47.7991

G1X50.1291Y-47.4749

G1X50.7666Y-47.3699

G1X51.4042Y-47.4975

G1X52.1657Y-47.9104

G1X54.5565Y-49.9704

G1X55.5305Y-50.6712

G1X56.7171Y-51.2227

G1X57.3546Y-51.3278

G1X57.6557Y-51.2259

G1X58.2755Y-50.7031

G1X59.0548Y-50.2503

G1X59.7986Y-49.9806

G1X60.5424Y-49.8381

G1X61.6050Y-49.7744

G1X66.1741Y-49.7762

G1X67.2367Y-49.8414

G1X68.1930Y-50.0201

G1X68.5118Y-49.9961

G1X68.9014Y-49.8008

G1X70.4067Y-48.4951

G1X71.2922Y-47.8527

G1X72.0183Y-47.5041

G1X72.7621Y-47.3699

G1X73.5060Y-47.4831

G1X74.2143Y-47.8049

G1X75.0113Y-48.3588

G1X76.1624Y-49.3225

G1X77.3313Y-48.8907

G1X77.8626Y-48.8394

G1X78.5001Y-48.8968

G1X79.7752Y-49.3187

G1X82.0066Y-50.4778

G1X85.3007Y-49.5271

G1X86.5758Y-49.3175

G1X87.8508Y-49.2332

G1X89.2322Y-49.2798

G1X90.6136Y-49.4645

G1X91.9949Y-49.7754

G1X93.6951Y-50.2742

G1 Z0F20000

(Start Block)


G1X11.3447Y-48.3922
G1Z5F20000
(Plotting speed under)
G1 F4000


G1X12.1948Y-48.1745

G1X14.1074Y-47.2882

G1X14.6387Y-47.1507

G1X15.1700Y-47.1159

G1X16.2326Y-47.3529

G1X18.7828Y-48.5298

G1X19.5266Y-48.6889

G1X20.2704Y-48.6885

G1X21.5455Y-48.3552

G1X24.5208Y-47.0493

G1X25.4771Y-46.8234

G1X26.3272Y-46.7781

G1X27.1772Y-46.8841

G1X28.1336Y-47.1643

G1X31.0025Y-48.4940

G1X31.9589Y-48.8574

G1X32.8089Y-49.0455

G1X33.6590Y-49.0687

G1X34.5091Y-48.9087

G1X35.3591Y-48.5739

G1X37.8208Y-47.0738

G1X38.6532Y-46.6465

G1X39.3970Y-46.4172

G1X40.0345Y-46.3736

G1X40.7783Y-46.5207

G1X41.6284Y-46.9382

G1X43.8421Y-48.6721

G1X44.6390Y-49.1906

G1X45.2412Y-49.4346

G1X45.8787Y-49.5184

G1X46.5163Y-49.4110

G1X47.2070Y-49.0920

G1X48.0039Y-48.5194

G1X50.3062Y-46.5880

G1X51.0854Y-46.1568

G1X51.8292Y-45.9381

G1X52.6793Y-45.9215

G1X53.6356Y-46.1527

G1X56.7171Y-47.6063

G1X58.0984Y-48.1214

G1X59.2673Y-48.3799

G1X60.4361Y-48.4664

G1X61.7112Y-48.3615

G1X62.9863Y-48.0412

G1X64.1552Y-47.5632

G1X66.8116Y-46.2171

G1X67.5554Y-45.9766

G1X68.1930Y-45.8997

G1X68.9368Y-45.9985

G1X69.6806Y-46.3158

G1X70.4067Y-46.8161

G1X71.3807Y-47.6815

G1X72.5496Y-47.3831

G1X73.3997Y-47.4522

G1X74.2143Y-47.8049

G1X75.5426Y-48.8194

G1X75.9499Y-48.9362

G1X76.3395Y-48.8095

G1X78.0219Y-47.5646

G1X78.9251Y-47.0079

G1X79.7752Y-46.6384

G1X80.6253Y-46.4322

G1X82.1129Y-46.3956

G1X85.7257Y-46.9012

G1X87.6383Y-47.0036

G1X89.3385Y-46.9093

G1X92.5262Y-46.4636

G1X93.6951Y-46.3723

G1 Z0F20000

(Start Block)


G1X11.3447Y-46.2641
G1Z5F20000
(Plotting speed under)
G1 F4000


G1X12.5135Y-45.7263

G1X12.9386Y-45.6505

G1X13.4698Y-45.6764

G1X14.2137Y-45.9173

G1X16.3388Y-47.0337

G1X16.9764Y-47.2057

G1X17.6139Y-47.2306

G1X18.7828Y-46.9263

G1X21.6517Y-45.5682

G1X22.6081Y-45.3429

G1X23.4581Y-45.3128

G1X24.3082Y-45.4335

G1X25.1583Y-45.6777

G1X28.1336Y-46.9315

G1X29.3024Y-47.3372

G1X30.3650Y-47.5594

G1X31.4276Y-47.6047

G1X32.4902Y-47.4589

G1X33.5528Y-47.1320

G1X36.7405Y-45.5708

G1X37.6968Y-45.1756

G1X38.5469Y-44.9571

G1X39.3970Y-44.9042

G1X40.3533Y-45.0690

G1X41.2742Y-45.4439

G1X44.0192Y-47.2164

G1X44.9224Y-47.7029

G1X45.7725Y-47.9816

G1X46.5163Y-48.0475

G1X47.2601Y-47.9402

G1X48.1101Y-47.6256

G1X51.7229Y-45.3697

G1X52.6793Y-44.9224

G1X53.6356Y-44.6271

G1X55.3357Y-44.4322

G1X59.2673Y-44.5573

G1X62.6675Y-44.4295

G1X63.8364Y-44.5065

G1X64.8990Y-44.7790

G1X65.8022Y-45.2133

G1X67.1304Y-46.0974

G1X68.1930Y-45.8997

G1X69.1493Y-46.0669

G1X70.1411Y-46.6146

G1X71.3807Y-47.6815

G1X71.5933Y-47.6464

G1X72.0891Y-47.3143

G1X74.3915Y-45.3834

G1X75.0999Y-45.0328

G1X75.7374Y-44.9041

G1X76.3749Y-44.9527

G1X77.0125Y-45.1542

G1X79.2616Y-46.4449

G1X79.7752Y-46.5995

G1X80.8378Y-46.4046

G1X81.9004Y-46.3818

G1X85.8319Y-46.9124

G1X87.8508Y-47.0012

G1X89.4447Y-46.8982

G1X92.5262Y-46.4636

G1X93.6951Y-46.3723

G1 Z0F20000

(Start Block)


G1X11.3447Y-44.1914
G1Z5F20000
(Plotting speed under)
G1 F4000


G1X12.0885Y-44.4418

G1X14.0011Y-45.5722

G1X14.5324Y-45.7343

G1X14.9575Y-45.7684

G1X15.4888Y-45.6920

G1X16.0201Y-45.5009

G1X17.9858Y-44.3837

G1X18.7828Y-44.0335

G1X19.5266Y-43.8611

G1X20.3767Y-43.8600

G1X21.6517Y-44.1856

G1X24.4145Y-45.4059

G1X25.5834Y-45.8166

G1X26.7522Y-46.0685

G1X28.0273Y-46.1382

G1X29.3024Y-46.0052

G1X30.6838Y-45.6687

G1X34.7216Y-44.1363

G1X36.1029Y-43.6965

G1X37.2718Y-43.4751

G1X38.4406Y-43.4425

G1X39.6095Y-43.6241

G1X40.7783Y-44.0137

G1X44.1786Y-45.7551

G1X45.2412Y-46.2094

G1X46.1975Y-46.4760

G1X47.1538Y-46.5781

G1X48.2164Y-46.4940

G1X49.2790Y-46.2292

G1X52.9980Y-44.7223

G1X54.4856Y-44.2346

G1X55.9733Y-43.9220

G1X57.4609Y-43.7876

G1X59.5861Y-43.9070

G1X61.8175Y-44.4546

G1X63.1988Y-44.4427

G1X64.2614Y-44.5875

G1X65.5365Y-45.0652

G1X67.1304Y-46.0974

G1X68.1930Y-45.8997

G1X68.6180Y-45.7233

G1X70.7609Y-43.9056

G1X71.3807Y-43.5702

G1X72.0183Y-43.4317

G1X72.5496Y-43.4901

G1X73.1517Y-43.7344

G1X74.5685Y-44.7788

G1X74.9936Y-45.0088

G1X75.8436Y-44.9005

G1X76.4812Y-44.9769

G1X77.2250Y-45.2480

G1X78.3939Y-45.8619

G1X78.9251Y-45.7834

G1X80.9440Y-44.8503

G1X82.2192Y-44.3842

G1X83.4943Y-44.0948

G1X84.9819Y-43.9348

G1X87.9571Y-43.8858

G1X90.2948Y-44.0212

G1X91.9949Y-44.3383

G1X93.6951Y-44.9237

G1 Z0F20000

(Start Block)


G1X11.3447Y-43.9265
G1Z5F20000
(Plotting speed under)
G1 F4000


G1X12.1948Y-44.2756

G1X12.9386Y-44.2305

G1X13.6470Y-43.9073

G1X15.5950Y-42.6405

G1X16.2326Y-42.4199

G1X16.8701Y-42.3687

G1X17.4014Y-42.4501

G1X18.0390Y-42.6705

G1X20.3767Y-43.8600

G1X21.3330Y-44.0755

G1X22.8206Y-44.6285

G1X23.8832Y-44.6485

G1X25.9021Y-44.2633

G1X30.1525Y-42.9058

G1X32.1714Y-42.3701

G1X34.1903Y-42.0363

G1X35.9967Y-41.9656

G1X37.6968Y-42.1298

G1X39.3970Y-42.5220

G1X40.8846Y-43.0222

G1X44.1786Y-44.3072

G1X45.6662Y-44.7647

G1X47.0476Y-45.0264

G1X48.5352Y-45.1081

G1X50.7666Y-44.9077

G1X53.8481Y-44.4118

G1X55.7608Y-43.9556

G1X57.4609Y-43.7876

G1X59.5861Y-43.9070

G1X61.8175Y-44.4546

G1X63.3051Y-44.4492

G1X64.5802Y-44.6253

G1X65.3594Y-44.2217

G1X67.7503Y-42.3731

G1X68.4055Y-42.0604

G1X68.9368Y-41.9621

G1X69.4681Y-42.0223

G1X70.0525Y-42.2687

G1X71.3807Y-43.3158

G1X72.7621Y-43.5571

G1X73.3288Y-43.8378

G1X74.0373Y-44.3446

G1X74.4623Y-44.5071

G1X74.8873Y-44.3778

G1X77.3313Y-42.7969

G1X78.0751Y-42.4998

G1X78.7126Y-42.3802

G1X79.3502Y-42.3773

G1X80.0940Y-42.4918

G1X82.8567Y-43.3144

G1X84.1318Y-43.6120

G1X85.4069Y-43.7939

G1X86.7883Y-43.8757

G1X88.4884Y-43.8347

G1X90.0823Y-43.6465

G1X91.5699Y-43.3230

G1X93.6951Y-42.7016

G1 Z0F20000

(Start Block)


G1X11.3447Y-42.2548
G1Z5F20000
(Plotting speed under)
G1 F4000


G1X12.8500Y-41.1245

G1X13.3636Y-40.9345

G1X13.8949Y-40.9049

G1X14.7981Y-41.2108

G1X16.5513Y-42.3311

G1X17.5077Y-42.4788

G1X18.8890Y-43.0786

G1X19.4203Y-43.1672

G1X20.6954Y-42.8063

G1X24.0957Y-41.4052

G1X25.6896Y-40.9344

G1X28.0273Y-40.5661

G1X30.6838Y-40.5027

G1X33.2340Y-40.6843

G1X35.9967Y-41.0885

G1X38.5469Y-41.6260

G1X43.9661Y-42.9691

G1X46.9413Y-43.4688

G1X49.8103Y-43.6356

G1X58.4172Y-43.6272

G1X60.0111Y-43.4659

G1X61.2862Y-43.1053

G1X62.5259Y-42.4928

G1X65.0052Y-40.8825

G1X65.7490Y-40.5759

G1X66.3866Y-40.4910

G1X66.9179Y-40.5726

G1X67.4492Y-40.7958

G1X68.7243Y-41.7733

G1X69.9640Y-42.2197

G1X71.3807Y-43.1789

G1X71.6995Y-43.1105

G1X72.2662Y-42.8110

G1X74.3915Y-41.2355

G1X74.9936Y-40.9787

G1X75.5249Y-40.8964

G1X76.0562Y-40.9476

G1X76.6937Y-41.1561

G1X78.8189Y-42.2829

G1X79.9877Y-42.4691

G1X81.4754Y-42.8237

G1X85.3007Y-42.3162

G1X87.2133Y-42.1984

G1X89.4447Y-42.3073

G1X93.0575Y-42.8022

G1X93.6951Y-42.7016

G1 Z0F20000

(Start Block)


G1X11.3447Y-39.5056
G1Z5F20000
(Plotting speed under)
G1 F4000


G1X11.9645Y-39.8511

G1X13.1511Y-40.8058

G1X13.4698Y-40.9145

G1X14.3199Y-40.9995

G1X15.5950Y-41.6400

G1X16.3920Y-41.2953

G1X18.4286Y-40.0043

G1X19.4203Y-39.4987

G1X20.5892Y-39.1394

G1X21.9705Y-39.0211

G1X23.7769Y-39.1952

G1X30.1525Y-40.3326

G1X35.4654Y-40.9768

G1X44.4974Y-41.8816

G1X47.4726Y-42.0505

G1X50.7666Y-42.1204

G1X54.9107Y-42.0424

G1X56.3983Y-41.8989

G1X57.5671Y-41.6839

G1X58.6297Y-41.3763

G1X59.5861Y-40.9917

G1X62.7738Y-39.3193

G1X63.4114Y-39.1051

G1X63.9427Y-39.0242

G1X64.5802Y-39.0737

G1X65.3240Y-39.3528

G1X66.8648Y-40.4774

G1X67.7503Y-40.9796

G1X68.6357Y-41.6582

G1X68.9368Y-41.7426

G1X69.4681Y-41.6687

G1X69.9640Y-41.4568

G1X72.0891Y-39.8027

G1X72.5496Y-39.5612

G1X73.0809Y-39.4312

G1X73.5060Y-39.4502

G1X74.0373Y-39.6156

G1X76.1624Y-40.9497

G1X77.1188Y-41.3038

G1X77.5438Y-41.3594

G1X78.7126Y-41.1748

G1X81.5816Y-40.1045

G1X83.1755Y-39.8180

G1X91.4637Y-39.7670

G1X92.6325Y-39.8251

G1X93.6951Y-39.9748

G1 Z0F20000

(Start Block)


G1X11.3447Y-39.5056
G1Z5F20000
(Plotting speed under)
G1 F4000


G1X12.2302Y-40.0086

G1X12.4958Y-40.0240

G1X14.9752Y-37.9852

G1X15.7013Y-37.6554

G1X16.4451Y-37.5510

G1X17.0826Y-37.6288

G1X17.8264Y-37.8653

G1X20.3767Y-39.1126

G1X21.8643Y-39.0206

G1X23.1394Y-39.1052

G1X29.4087Y-40.2212

G1X33.2340Y-40.6719

G1X48.7477Y-40.6547

G1X51.5104Y-40.5851

G1X53.4231Y-40.4451

G1X55.1232Y-40.1835

G1X56.6108Y-39.7853

G1X57.9922Y-39.2420

G1X60.7549Y-37.9069

G1X61.6050Y-37.6321

G1X62.2425Y-37.5512

G1X62.9863Y-37.6365

G1X63.7301Y-37.9356

G1X64.4739Y-38.4276

G1X66.2449Y-39.8438

G1X66.8116Y-40.1402

G1X67.3429Y-40.2584

G1X67.8742Y-40.1976

G1X68.3701Y-39.9824

G1X70.4067Y-38.3503

G1X70.8494Y-38.1004

G1X71.3807Y-37.9606

G1X71.8058Y-37.9870

G1X72.2308Y-38.1287

G1X74.3915Y-39.5943

G1X74.8873Y-39.8031

G1X75.4186Y-39.8885

G1X76.3749Y-39.6963

G1X78.7126Y-38.5422

G1X79.8815Y-38.3003

G1X81.1566Y-38.4041

G1X84.6631Y-39.1913

G1X86.8945Y-39.4071

G1X88.8072Y-39.4363

G1X90.6136Y-39.3615

G1X92.1012Y-39.2007

G1X93.6951Y-38.9074

G1 Z0F20000

(Start Block)


G1X11.3447Y-36.5359
G1Z5F20000
(Plotting speed under)
G1 F4000


G1X12.0885Y-36.1268

G1X12.4073Y-36.0809

G1X12.8323Y-36.1405

G1X13.6470Y-36.5624

G1X15.0637Y-37.7573

G1X16.2326Y-37.5573

G1X17.0826Y-37.6288

G1X18.1452Y-38.0015

G1X19.8453Y-38.8523

G1X20.3767Y-38.9515

G1X22.8206Y-38.3614

G1X24.4145Y-38.0691

G1X26.2209Y-37.8800

G1X28.1336Y-37.8291

G1X31.2151Y-37.9782

G1X38.5469Y-38.6999

G1X42.9035Y-39.0154

G1X48.1101Y-39.2199

G1X51.5104Y-39.1592

G1X53.4231Y-38.9312

G1X55.1232Y-38.5112

G1X56.6108Y-37.9312

G1X59.6923Y-36.4115

G1X60.4361Y-36.1714

G1X61.1799Y-36.0805

G1X61.9238Y-36.1841

G1X62.6144Y-36.4706

G1X63.4114Y-37.0039

G1X65.0938Y-38.3551

G1X65.6428Y-38.6531

G1X66.1741Y-38.7858

G1X66.7054Y-38.7379

G1X67.2190Y-38.5196

G1X69.2556Y-36.8590

G1X69.6983Y-36.6116

G1X70.2119Y-36.4880

G1X70.6369Y-36.5314

G1X71.0266Y-36.6789

G1X72.9746Y-38.1005

G1X73.5060Y-38.3444

G1X73.9310Y-38.4179

G1X74.3560Y-38.3795

G1X74.8873Y-38.1941

G1X76.9062Y-37.0432

G1X77.8626Y-36.8263

G1X78.8189Y-36.9514

G1X81.2628Y-37.8327

G1X82.6442Y-38.0868

G1X83.9193Y-38.0977

G1X87.2133Y-37.8238

G1X89.0197Y-37.7619

G1X90.9323Y-37.8174

G1X93.6951Y-38.0417

G1 Z0F20000

(Start Block)


G1X11.3447Y-36.4976
G1Z5F20000
(Plotting speed under)
G1 F4000


G1X12.0885Y-36.1296

G1X12.7260Y-36.1137

G1X13.4698Y-36.4431

G1X14.3806Y-37.2113

G1X14.6210Y-37.2913

G1X17.1889Y-35.4907

G1X18.6765Y-34.7396

G1X19.5266Y-34.4760

G1X20.4829Y-34.2941

G1X23.1394Y-34.1441

G1X29.7274Y-34.1711

G1X33.5528Y-34.4597

G1X37.0593Y-35.0627

G1X46.6225Y-37.1896

G1X49.1727Y-37.5958

G1X51.1916Y-37.7552

G1X53.1043Y-37.6585

G1X54.8044Y-37.2602

G1X56.2920Y-36.6217

G1X59.1610Y-35.0103

G1X59.9048Y-34.7273

G1X60.5424Y-34.6155

G1X61.2862Y-34.6826

G1X61.9946Y-34.9635

G1X62.7030Y-35.4371

G1X64.4739Y-36.9008

G1X65.0052Y-37.1924

G1X65.5365Y-37.3191

G1X66.0678Y-37.2528

G1X66.4928Y-37.0608

G1X68.4586Y-35.4121

G1X68.9368Y-35.1354

G1X69.3618Y-35.0225

G1X69.7869Y-35.0510

G1X70.2119Y-35.2173

G1X72.0891Y-36.6488

G1X72.5496Y-36.8704

G1X72.9746Y-36.9491

G1X73.7185Y-36.7870

G1X75.5426Y-35.6440

G1X76.0562Y-35.4351

G1X76.4812Y-35.3602

G1X77.4375Y-35.5059

G1X79.6689Y-36.4703

G1X80.7315Y-36.6420

G1X81.6879Y-36.5673

G1X84.4506Y-35.9466

G1X86.2570Y-35.7135

G1X89.4447Y-35.6313

G1X93.6951Y-35.6956

G1 Z0F20000

(Start Block)


G1X11.3447Y-35.0955
G1Z5F20000
(Plotting speed under)
G1 F4000


G1X12.3409Y-33.9307

G1X13.1157Y-33.2162

G1X13.8949Y-32.7917

G1X14.6387Y-32.6701

G1X15.2762Y-32.7505

G1X15.9138Y-32.9541

G1X19.3141Y-34.5318

G1X20.5892Y-34.2800

G1X22.2893Y-34.1594

G1X30.4713Y-34.1986

G1X33.6590Y-33.3049

G1X35.6779Y-32.8803

G1X37.6968Y-32.6802

G1X39.7157Y-32.7391

G1X41.3096Y-32.9606

G1X43.0097Y-33.3412

G1X45.1349Y-33.9762

G1X50.4478Y-35.8058

G1X51.9355Y-36.1607

G1X53.2105Y-36.2888

G1X54.4856Y-36.1776

G1X55.6545Y-35.8165

G1X56.7702Y-35.2368

G1X59.3735Y-33.5325

G1X60.0111Y-33.2600

G1X60.6486Y-33.1425

G1X61.2862Y-33.2160

G1X61.9060Y-33.4811

G1X62.5259Y-33.9172

G1X64.2969Y-35.4638

G1X64.7927Y-35.7382

G1X65.3240Y-35.8510

G1X65.7490Y-35.7875

G1X66.2449Y-35.5454

G1X68.1044Y-33.9020

G1X68.5118Y-33.6644

G1X68.9368Y-33.5515

G1X69.3618Y-33.5904

G1X69.7869Y-33.7767

G1X71.4693Y-35.1400

G1X71.9120Y-35.3816

G1X72.3371Y-35.4770

G1X73.0632Y-35.3222

G1X74.8342Y-34.1444

G1X75.3124Y-33.9484

G1X75.7374Y-33.8853

G1X76.5875Y-34.0683

G1X78.5001Y-35.0097

G1X79.3502Y-35.1719

G1X80.4128Y-35.0319

G1X82.7504Y-34.3193

G1X83.9193Y-34.1681

G1X85.1944Y-34.1923

G1X89.8698Y-34.5786

G1X93.6951Y-34.5118

G1 Z0F20000

(Start Block)


G1X11.3447Y-31.5527
G1Z5F20000
(Plotting speed under)
G1 F4000


G1X11.9519Y-32.0791

G1X12.9386Y-33.1286

G1X13.1511Y-33.1263

G1X14.2137Y-32.7077

G1X15.1700Y-32.7271

G1X16.2326Y-33.0867

G1X19.3141Y-34.5318

G1X20.5892Y-34.2800

G1X22.2893Y-34.1594

G1X30.4713Y-34.1986

G1X34.7216Y-33.0576

G1X36.2092Y-32.8035

G1X37.9093Y-32.6540

G1X39.7157Y-31.9348

G1X41.3096Y-31.4739

G1X42.4785Y-31.2725

G1X43.5410Y-31.2016

G1X45.3474Y-31.3358

G1X47.1538Y-31.7821

G1X48.9602Y-32.4979

G1X52.7855Y-34.3396

G1X53.7419Y-34.6593

G1X54.6982Y-34.8137

G1X55.7608Y-34.7239

G1X56.7171Y-34.3712

G1X57.6557Y-33.7879

G1X59.8694Y-32.0903

G1X60.5424Y-31.7681

G1X61.0737Y-31.6720

G1X61.6050Y-31.7421

G1X62.1717Y-32.0054

G1X62.7915Y-32.4861

G1X64.3854Y-33.9915

G1X64.8990Y-34.2880

G1X65.3240Y-34.3801

G1X65.7490Y-34.3180

G1X66.1564Y-34.1180

G1X68.0159Y-32.4061

G1X68.4055Y-32.1786

G1X68.8305Y-32.0772

G1X69.1493Y-32.1144

G1X69.5212Y-32.2722

G1X71.2036Y-33.6854

G1X71.5933Y-33.9045

G1X72.0183Y-34.0077

G1X72.6558Y-33.8720

G1X74.3915Y-32.6621

G1X74.7811Y-32.4905

G1X75.2061Y-32.4157

G1X75.9499Y-32.5750

G1X77.7563Y-33.5441

G1X78.5001Y-33.7013

G1X79.4564Y-33.5549

G1X81.4754Y-32.8210

G1X82.5379Y-32.6886

G1X83.3880Y-32.7515

G1X85.9382Y-33.2328

G1X87.4258Y-33.4020

G1X93.6951Y-33.4591

G1 Z0F20000

(Start Block)


G1X11.3447Y-31.5527
G1Z5F20000
(Plotting speed under)
G1 F4000


G1X12.0278Y-32.1548

G1X12.7868Y-33.0160

G1X13.0448Y-33.1487

G1X13.7355Y-32.8325

G1X16.1263Y-31.1173

G1X17.7202Y-30.3846

G1X18.7828Y-30.0976

G1X19.9516Y-29.9239

G1X21.2267Y-29.8626

G1X22.6081Y-29.9192

G1X24.5208Y-30.2005

G1X26.3272Y-30.6979

G1X28.0273Y-31.3616

G1X31.6401Y-33.0115

G1X32.4902Y-33.3392

G1X33.0214Y-33.4446

G1X35.6779Y-32.8803

G1X37.9093Y-32.6540

G1X40.2470Y-31.7596

G1X42.6910Y-31.1727

G1X44.0723Y-30.5372

G1X45.2412Y-30.1121

G1X46.3037Y-29.8508

G1X47.3663Y-29.7346

G1X48.8540Y-29.8515

G1X50.2353Y-30.2700

G1X51.6344Y-30.9745

G1X54.6982Y-32.8773

G1X55.5482Y-33.2217

G1X56.2920Y-33.3479

G1X57.0359Y-33.2663

G1X57.8328Y-32.9274

G1X58.6297Y-32.3530

G1X60.5778Y-30.6293

G1X61.0737Y-30.3443

G1X61.6050Y-30.2055

G1X62.1363Y-30.2710

G1X62.6144Y-30.5088

G1X63.1837Y-30.9821

G1X64.6511Y-32.4904

G1X65.1115Y-32.7932

G1X65.5365Y-32.9100

G1X65.9616Y-32.8459

G1X66.3335Y-32.6491

G1X68.0412Y-30.9744

G1X68.5118Y-30.6853

G1X68.8305Y-30.6091

G1X69.1493Y-30.6410

G1X69.5212Y-30.8059

G1X71.1151Y-32.2150

G1X71.4870Y-32.4362

G1X71.9120Y-32.5395

G1X72.5319Y-32.3842

G1X74.0373Y-31.2542

G1X74.4623Y-31.0341

G1X74.8873Y-30.9477

G1X75.5249Y-31.0725

G1X77.1365Y-32.0114

G1X77.9688Y-32.2315

G1X78.7126Y-32.1206

G1X80.4128Y-31.4112

G1X81.3691Y-31.2225

G1X82.3254Y-31.3049

G1X84.6631Y-31.8738

G1X85.8319Y-31.9888

G1X90.9323Y-31.6590

G1X93.6951Y-31.6106

G1 Z0F20000

(Start Block)


G1X11.3447Y-29.2283
G1Z5F20000
(Plotting speed under)
G1 F4000


G1X12.0531Y-28.5439

G1X12.6729Y-28.1220

G1X13.2573Y-27.8731

G1X14.0011Y-27.7346

G1X15.1700Y-27.7990

G1X18.4640Y-28.4383

G1X20.0579Y-28.5495

G1X22.0768Y-28.4176

G1X26.2209Y-27.7780

G1X27.2835Y-27.7245

G1X28.2398Y-27.7739

G1X29.5149Y-28.0127

G1X30.8963Y-28.5037

G1X32.2422Y-29.1820

G1X36.2092Y-31.4936

G1X37.4843Y-32.0201

G1X38.5469Y-32.2719

G1X39.0782Y-32.1795

G1X40.8846Y-31.5771

G1X42.5847Y-31.2094

G1X44.3911Y-30.4091

G1X46.0912Y-29.8551

G1X48.5352Y-28.6711

G1X49.4915Y-28.3827

G1X50.3416Y-28.2662

G1X51.5104Y-28.3659

G1X52.5730Y-28.7436

G1X53.6710Y-29.4049

G1X56.3275Y-31.4219

G1X57.0359Y-31.7609

G1X57.6734Y-31.8789

G1X58.3110Y-31.7813

G1X58.8954Y-31.4918

G1X59.6164Y-30.9019

G1X61.2862Y-29.2133

G1X61.8175Y-28.8640

G1X62.3488Y-28.7313

G1X62.7738Y-28.8085

G1X63.2343Y-29.0744

G1X65.0938Y-31.0500

G1X65.5365Y-31.3484

G1X65.9616Y-31.4412

G1X66.3866Y-31.3280

G1X66.7509Y-31.0844

G1X68.3701Y-29.3993

G1X68.7243Y-29.1960

G1X69.0431Y-29.1383

G1X69.4327Y-29.2248

G1X69.7869Y-29.4432

G1X71.2922Y-30.8530

G1X71.9120Y-31.0698

G1X72.5319Y-30.8916

G1X73.9487Y-29.7627

G1X74.6748Y-29.4800

G1X75.3124Y-29.5959

G1X76.9062Y-30.5732

G1X77.6500Y-30.7626

G1X78.3939Y-30.6188

G1X79.9877Y-29.8922

G1X80.7315Y-29.7515

G1X81.5816Y-29.8438

G1X83.6005Y-30.4250

G1X84.5568Y-30.5223

G1X85.4069Y-30.4781

G1X89.1259Y-30.0077

G1X93.6951Y-29.9657

G1 Z0F20000

(Start Block)


G1X11.3447Y-26.8152
G1Z5F20000
(Plotting speed under)
G1 F4000


G1X12.6729Y-27.8597

G1X12.9386Y-27.9916

G1X13.6824Y-27.7721

G1X14.6387Y-27.7374

G1X18.3577Y-28.4238

G1X20.4829Y-28.5452

G1X22.0768Y-28.4176

G1X25.3709Y-27.8816

G1X27.0710Y-27.6913

G1X28.8774Y-26.8756

G1X30.0462Y-26.4746

G1X31.2151Y-26.2716

G1X32.3839Y-26.3021

G1X33.5528Y-26.5717

G1X34.8278Y-27.1068

G1X38.7948Y-29.5107

G1X40.2470Y-30.2595

G1X41.6284Y-30.7326

G1X43.0097Y-30.9272

G1X43.3285Y-30.8803

G1X44.6036Y-30.3284

G1X46.0912Y-29.8551

G1X48.9602Y-28.4780

G1X51.0854Y-27.2339

G1X51.9355Y-26.9187

G1X52.6793Y-26.7951

G1X53.6356Y-26.8973

G1X54.5565Y-27.3001

G1X55.5179Y-28.0133

G1X57.5671Y-29.8772

G1X58.2047Y-30.2598

G1X58.8423Y-30.4090

G1X59.3735Y-30.3155

G1X59.9579Y-29.9758

G1X60.5272Y-29.4399

G1X62.0452Y-27.7294

G1X62.5613Y-27.3698

G1X62.9863Y-27.2624

G1X63.4114Y-27.3511

G1X63.7655Y-27.5754

G1X65.4606Y-29.5255

G1X65.8907Y-29.8551

G1X66.2803Y-29.9690

G1X66.5991Y-29.9198

G1X66.9533Y-29.7110

G1X68.4966Y-28.0147

G1X68.8305Y-27.7771

G1X69.2556Y-27.6663

G1X69.8628Y-27.9092

G1X71.2289Y-29.2744

G1X71.5933Y-29.5067

G1X71.9120Y-29.5972

G1X72.5319Y-29.4328

G1X73.9487Y-28.2570

G1X74.3560Y-28.0577

G1X74.6748Y-28.0058

G1X75.1884Y-28.1236

G1X76.6052Y-29.0576

G1X77.3313Y-29.2904

G1X77.9688Y-29.1941

G1X79.4564Y-28.4666

G1X80.3065Y-28.2799

G1X81.0503Y-28.3805

G1X82.7504Y-28.9393

G1X83.6005Y-29.0520

G1X84.4506Y-28.9936

G1X86.6820Y-28.5857

G1X87.8508Y-28.4924

G1X93.6951Y-28.7108

G1 Z0F20000


G00 X0.0000 Y0.0000


