$H
G21
G17
G90
G1 Z0F20000
G1 F15000
(Start Layer)
(Start Block)

G1X159.3702Y-31.9206
G1 Z3.0F20000
(Plotting speed under)
G1 F4000

G1X153.7485Y-112.3141
G1 Z0F20000
(Start Block)

G1X153.7485Y-112.3141
G1 Z3.0F20000
(Plotting speed under)
G1 F4000

G1X197.2307Y-78.3421
G1 Z0F20000
(Start Block)

G1X197.2307Y-78.3421
G1 Z3.0F20000
(Plotting speed under)
G1 F4000

G1X136.7641Y-37.5569
G1 Z0F20000
(Start Block)

G1X136.7641Y-37.5569
G1 Z3.0F20000
(Plotting speed under)
G1 F4000

G1X128.8030Y-43.7768
G1 Z0F20000
(Start Block)

G1X128.8030Y-43.7768
G1 Z3.0F20000
(Plotting speed under)
G1 F4000

G1X194.4460Y-88.0536
G1 Z0F20000
(Start Block)

G1X194.4460Y-88.0536
G1 Z3.0F20000
(Plotting speed under)
G1 F4000

G1X163.8451Y-111.9615
G1 Z0F20000
(Start Block)

G1X163.8451Y-111.9615
G1 Z3.0F20000
(Plotting speed under)
G1 F4000

G1X118.0991Y-81.1055
G1 Z0F20000
(Start Block)

G1X118.0991Y-81.1055
G1 Z3.0F20000
(Plotting speed under)
G1 F4000

G1X175.5734Y-36.2016
G1 Z0F20000
(Start Block)

G1X175.5734Y-36.2016
G1 Z3.0F20000
(Plotting speed under)
G1 F4000

G1X183.9490Y-41.8510
G1 Z0F20000
(Start Block)

G1X183.9490Y-41.8510
G1 Z3.0F20000
(Plotting speed under)
G1 F4000

G1X121.5545Y-90.5990
G1 Z0F20000
(Start Block)

G1X121.5545Y-90.5990
G1 Z3.0F20000
(Plotting speed under)
G1 F4000

G1X153.7485Y-112.3141
G1 Z0F20000
(Start Block)

G1X150.4027Y-111.8677
G1 Z3.0F20000
(Plotting speed under)
G1 F4000

G1X118.6589Y-61.0670
G1 Z0F20000
(Start Block)

G1X118.6589Y-61.0670
G1 Z3.0F20000
(Plotting speed under)
G1 F4000

G1X195.2745Y-58.3915
G1 Z0F20000
(Start Block)

G1X195.2745Y-58.3915
G1 Z3.0F20000
(Plotting speed under)
G1 F4000

G1X118.6589Y-61.0670
G1 Z0F20000
(Start Block)

G1X119.7243Y-57.8641
G1 Z3.0F20000
(Plotting speed under)
G1 F4000

G1X118.0991Y-81.1055
G1 Z0F20000
(Start Block)

G1X118.9841Y-84.3629
G1 Z3.0F20000
(Plotting speed under)
G1 F4000

G1X143.8814Y-110.1447
G1 Z0F20000
(Start Block)

G1X143.8814Y-110.1447
G1 Z3.0F20000
(Plotting speed under)
G1 F4000

G1X122.6388Y-51.7811
G1 Z0F20000
(Start Block)

G1X122.6388Y-51.7811
G1 Z3.0F20000
(Plotting speed under)
G1 F4000

G1X117.1133Y-71.0508
G1 Z0F20000
(Start Block)

G1X117.1133Y-71.0508
G1 Z3.0F20000
(Plotting speed under)
G1 F4000

G1X127.2623Y-98.9350
G1 Z0F20000
(Start Block)

G1X127.2623Y-98.9350
G1 Z3.0F20000
(Plotting speed under)
G1 F4000

G1X146.0219Y-33.5122
G1 Z0F20000
(Start Block)

G1X146.0219Y-33.5122
G1 Z3.0F20000
(Plotting speed under)
G1 F4000

G1X173.5370Y-109.1091
G1 Z0F20000
(Start Block)

G1X173.5370Y-109.1091
G1 Z3.0F20000
(Plotting speed under)
G1 F4000

G1X190.6566Y-49.4059
G1 Z0F20000
(Start Block)

G1X190.6566Y-49.4059
G1 Z3.0F20000
(Plotting speed under)
G1 F4000

G1X197.5128Y-68.2432
G1 Z0F20000
(Start Block)

G1X197.5128Y-68.2432
G1 Z3.0F20000
(Plotting speed under)
G1 F4000

G1X189.3336Y-96.7674
G1 Z0F20000
(Start Block)

G1X189.3336Y-96.7674
G1 Z3.0F20000
(Plotting speed under)
G1 F4000

G1X166.0560Y-32.8126
G1 Z0F20000
(Start Block)

G1X166.0560Y-32.8126
G1 Z3.0F20000
(Plotting speed under)
G1 F4000

G1X143.8814Y-110.1447
G1 Z0F20000
(Start Block)

G1X140.7517Y-108.8802
G1 Z3.0F20000
(Plotting speed under)
G1 F4000

G1X189.3336Y-96.7674
G1 Z0F20000
(Start Block)

G1X191.2794Y-94.0091
G1 Z3.0F20000
(Plotting speed under)
G1 F4000

G1X153.7485Y-112.3141
G1 Z0F20000
(Start Block)

G1X157.1200Y-112.4790
G1 Z3.0F20000
(Plotting speed under)
G1 F4000

G1X117.1133Y-71.0508
G1 Z0F20000
(Start Block)

G1X117.3488Y-67.6836
G1 Z3.0F20000
(Plotting speed under)
G1 F4000

G1X190.6566Y-49.4059
G1 Z0F20000
(Start Block)

G1X188.6346Y-46.7031
G1 Z3.0F20000
(Plotting speed under)
G1 F4000

G1X118.0991Y-81.1055
G1 Z0F20000
(Start Block)

G1X117.4898Y-77.7854
G1 Z3.0F20000
(Plotting speed under)
G1 F4000

G1X134.8638Y-105.5896
G1 Z0F20000
(Start Block)

G1X134.8638Y-105.5896
G1 Z3.0F20000
(Plotting speed under)
G1 F4000

G1X182.2148Y-103.9360
G1 Z0F20000
(Start Block)

G1X182.2148Y-103.9360
G1 Z3.0F20000
(Plotting speed under)
G1 F4000

G1X134.8638Y-105.5896
G1 Z0F20000
(Start Block)

G1X137.7387Y-107.3583
G1 Z3.0F20000
(Plotting speed under)
G1 F4000

G1X128.8030Y-43.7768
G1 Z0F20000
(Start Block)

G1X131.2797Y-41.4834
G1 Z3.0F20000
(Plotting speed under)
G1 F4000

G1X122.6388Y-51.7811
G1 Z0F20000
(Start Block)

G1X124.4673Y-48.9438
G1 Z3.0F20000
(Plotting speed under)
G1 F4000

G1X197.2307Y-78.3421
G1 Z0F20000
(Start Block)

G1X196.5751Y-81.6533
G1 Z3.0F20000
(Plotting speed under)
G1 F4000

G1X173.5370Y-109.1091
G1 Z0F20000
(Start Block)

G1X176.5708Y-107.6294
G1 Z3.0F20000
(Plotting speed under)
G1 F4000

G1X127.2623Y-98.9350
G1 Z0F20000
(Start Block)

G1X125.1289Y-96.3191
G1 Z3.0F20000
(Plotting speed under)
G1 F4000

G1X163.8451Y-111.9615
G1 Z0F20000
(Start Block)

G1X160.4934Y-112.3612
G1 Z3.0F20000
(Plotting speed under)
G1 F4000

G1X197.5128Y-68.2432
G1 Z0F20000
(Start Block)

G1X197.0430Y-64.9006
G1 Z3.0F20000
(Plotting speed under)
G1 F4000

G1X122.6388Y-51.7811
G1 Z0F20000
(Start Block)

G1X121.0541Y-54.7615
G1 Z3.0F20000
(Plotting speed under)
G1 F4000

G1X197.5128Y-68.2432
G1 Z0F20000
(Start Block)

G1X197.7012Y-71.6135
G1 Z3.0F20000
(Plotting speed under)
G1 F4000

G1X128.8030Y-43.7768
G1 Z0F20000
(Start Block)

G1X126.5269Y-46.2695
G1 Z3.0F20000
(Plotting speed under)
G1 F4000

G1X118.6589Y-61.0670
G1 Z0F20000
(Start Block)

G1X117.8651Y-64.3478
G1 Z3.0F20000
(Plotting speed under)
G1 F4000

G1X121.5545Y-90.5990
G1 Z0F20000
(Start Block)

G1X120.1387Y-87.5348
G1 Z3.0F20000
(Plotting speed under)
G1 F4000

G1X166.0560Y-32.8126
G1 Z0F20000
(Start Block)

G1X169.3195Y-33.6749
G1 Z3.0F20000
(Plotting speed under)
G1 F4000

G1X175.5734Y-36.2016
G1 Z0F20000
(Start Block)

G1X172.4994Y-34.8072
G1 Z3.0F20000
(Plotting speed under)
G1 F4000

G1X134.8638Y-105.5896
G1 Z0F20000
(Start Block)

G1X132.1469Y-103.5865
G1 Z3.0F20000
(Plotting speed under)
G1 F4000

G1X136.7641Y-37.5569
G1 Z0F20000
(Start Block)

G1X133.9396Y-39.4052
G1 Z3.0F20000
(Plotting speed under)
G1 F4000

G1X189.3336Y-96.7674
G1 Z0F20000
(Start Block)

G1X187.1639Y-99.3532
G1 Z3.0F20000
(Plotting speed under)
G1 F4000

G1X143.8814Y-110.1447
G1 Z0F20000
(Start Block)

G1X147.1059Y-111.1428
G1 Z3.0F20000
(Plotting speed under)
G1 F4000

G1X194.4460Y-88.0536
G1 Z0F20000
(Start Block)

G1X192.9875Y-91.0977
G1 Z3.0F20000
(Plotting speed under)
G1 F4000

G1X155.9948Y-31.8970
G1 Z0F20000
(Start Block)

G1X152.6292Y-32.1560
G1 Z3.0F20000
(Plotting speed under)
G1 F4000

G1X163.8451Y-111.9615
G1 Z0F20000
(Start Block)

G1X167.1517Y-111.2828
G1 Z3.0F20000
(Plotting speed under)
G1 F4000

G1X195.2745Y-58.3915
G1 Z0F20000
(Start Block)

G1X193.9882Y-55.2707
G1 Z3.0F20000
(Plotting speed under)
G1 F4000

G1X197.2307Y-78.3421
G1 Z0F20000
(Start Block)

G1X197.6069Y-74.9877
G1 Z3.0F20000
(Plotting speed under)
G1 F4000

G1X182.2148Y-103.9360
G1 Z0F20000
(Start Block)

G1X179.4702Y-105.9010
G1 Z3.0F20000
(Plotting speed under)
G1 F4000

G1X183.9490Y-41.8510
G1 Z0F20000
(Start Block)

G1X186.3934Y-44.1789
G1 Z3.0F20000
(Plotting speed under)
G1 F4000

G1X195.2745Y-58.3915
G1 Z0F20000
(Start Block)

G1X196.2952Y-61.6090
G1 Z3.0F20000
(Plotting speed under)
G1 F4000

G1X194.4460Y-88.0536
G1 Z0F20000
(Start Block)

G1X195.6446Y-84.8981
G1 Z3.0F20000
(Plotting speed under)
G1 F4000

G1X146.0219Y-33.5122
G1 Z0F20000
(Start Block)

G1X149.2972Y-32.6956
G1 Z3.0F20000
(Plotting speed under)
G1 F4000

G1X146.0219Y-33.5122
G1 Z0F20000
(Start Block)

G1X142.8265Y-34.6001
G1 Z3.0F20000
(Plotting speed under)
G1 F4000

G1X136.7641Y-37.5569
G1 Z0F20000
(Start Block)

G1X139.7333Y-35.9514
G1 Z3.0F20000
(Plotting speed under)
G1 F4000

G1X182.2148Y-103.9360
G1 Z0F20000
(Start Block)

G1X184.7854Y-101.7483
G1 Z3.0F20000
(Plotting speed under)
G1 F4000

G1X175.5734Y-36.2016
G1 Z0F20000
(Start Block)

G1X178.5200Y-37.8484
G1 Z3.0F20000
(Plotting speed under)
G1 F4000

G1X127.2623Y-98.9350
G1 Z0F20000
(Start Block)

G1X129.6071Y-101.3631
G1 Z3.0F20000
(Plotting speed under)
G1 F4000

G1X173.5370Y-109.1091
G1 Z0F20000
(Start Block)

G1X170.3899Y-110.3297
G1 Z3.0F20000
(Plotting speed under)
G1 F4000

G1X121.5545Y-90.5990
G1 Z0F20000
(Start Block)

G1X123.2218Y-93.5340
G1 Z3.0F20000
(Plotting speed under)
G1 F4000

G1X155.9948Y-31.8970
G1 Z0F20000
(Start Block)

G1X162.7318Y-32.2265
G1 Z3.0F20000
(Plotting speed under)
G1 F4000

G1X166.0560Y-32.8126
G1 Z0F20000
(Start Block)

G1X181.3184Y-39.7360
G1 Z3.0F20000
(Plotting speed under)
G1 F4000

G1X190.6566Y-49.4059
G1 Z0F20000
(Start Block)

G1X192.4453Y-52.2685
G1 Z3.0F20000
(Plotting speed under)
G1 F4000

G1X117.1133Y-71.0508
G1 Z0F20000
(Start Block)

G1X117.1604Y-74.4260
G1 Z3.0F20000
(Plotting speed under)
G1 F4000

G1X183.9490Y-41.8510
G1 Z0F20000

G00 X0.0000 Y0.0000

