$H
G21
G17
G90
G1 Z0F20000
G1 F15000

(Start Layer)

(Start Block)


G1X53.6798Y-61.4850
G1Z5F20000
(Plotting speed under)
G1 F4000


G1X55.9169Y-16.0971

G1X128.3892Y-40.9443

G1X180.6343Y-45.5643

G1X210.3689Y-27.6740

G1X253.7235Y-23.4034

G1 Z0F20000

(Start Block)


G1X53.0952Y-61.9588
G1Z5F20000
(Plotting speed under)
G1 F4000


G1X56.2476Y-17.4861

G1X127.9439Y-41.5573

G1X180.1740Y-46.1624

G1X211.0396Y-29.4029

G1X253.8093Y-24.5476

G1 Z0F20000

(Start Block)


G1X52.5106Y-62.4325
G1Z5F20000
(Plotting speed under)
G1 F4000


G1X56.5783Y-18.8751

G1X127.4986Y-42.1703

G1X179.7138Y-46.7605

G1X211.7101Y-31.1318

G1X253.8951Y-25.6917

G1 Z0F20000

(Start Block)


G1X51.9260Y-62.9063
G1Z5F20000
(Plotting speed under)
G1 F4000


G1X56.9090Y-20.2641

G1X127.0532Y-42.7834

G1X179.2535Y-47.3586

G1X212.3807Y-32.8608

G1X253.9809Y-26.8359

G1 Z0F20000

(Start Block)


G1X51.3415Y-63.3800
G1Z5F20000
(Plotting speed under)
G1 F4000


G1X57.2396Y-21.6531

G1X126.6080Y-43.3964

G1X178.7933Y-47.9567

G1X213.0513Y-34.5897

G1X254.0667Y-27.9800

G1 Z0F20000

(Start Block)


G1X50.7569Y-63.8538
G1Z5F20000
(Plotting speed under)
G1 F4000


G1X57.5703Y-23.0421

G1X126.1626Y-44.0094

G1X178.3330Y-48.5547

G1X213.7219Y-36.3186

G1X254.1525Y-29.1242

G1 Z0F20000

(Start Block)


G1X50.1723Y-64.3275
G1Z5F20000
(Plotting speed under)
G1 F4000


G1X57.9010Y-24.4311

G1X125.7173Y-44.6224

G1X177.8728Y-49.1528

G1X214.3925Y-38.0476

G1X254.2383Y-30.2683

G1 Z0F20000

(Start Block)


G1X49.5877Y-64.8013
G1Z5F20000
(Plotting speed under)
G1 F4000


G1X58.2316Y-25.8202

G1X125.2720Y-45.2354

G1X177.4125Y-49.7509

G1X215.0631Y-39.7765

G1X254.3241Y-31.4125

G1 Z0F20000

(Start Block)


G1X49.0031Y-65.2750
G1Z5F20000
(Plotting speed under)
G1 F4000


G1X58.5623Y-27.2092

G1X124.8267Y-45.8485

G1X176.9523Y-50.3490

G1X215.7337Y-41.5054

G1X254.4100Y-32.5566

G1 Z0F20000

(Start Block)


G1X48.4185Y-65.7488
G1Z5F20000
(Plotting speed under)
G1 F4000


G1X58.8930Y-28.5982

G1X124.3814Y-46.4615

G1X176.4920Y-50.9471

G1X216.4043Y-43.2344

G1X254.4958Y-33.7008

G1 Z0F20000

(Start Block)


G1X47.8339Y-66.2225
G1Z5F20000
(Plotting speed under)
G1 F4000


G1X59.2237Y-29.9872

G1X123.9361Y-47.0745

G1X176.0318Y-51.5451

G1X217.0749Y-44.9633

G1X254.5816Y-34.8449

G1 Z0F20000

(Start Block)


G1X47.2494Y-66.6963
G1Z5F20000
(Plotting speed under)
G1 F4000


G1X59.5543Y-31.3762

G1X123.4908Y-47.6875

G1X175.5715Y-52.1432

G1X217.7455Y-46.6922

G1X254.6674Y-35.9890

G1 Z0F20000

(Start Block)


G1X46.6648Y-67.1700
G1Z5F20000
(Plotting speed under)
G1 F4000


G1X59.8850Y-32.7652

G1X123.0454Y-48.3006

G1X175.1112Y-52.7413

G1X218.4161Y-48.4212

G1X254.7532Y-37.1332

G1 Z0F20000

(Start Block)


G1X46.0802Y-67.6438
G1Z5F20000
(Plotting speed under)
G1 F4000


G1X60.2157Y-34.1542

G1X122.6001Y-48.9136

G1X174.6510Y-53.3394

G1X219.0867Y-50.1501

G1X254.8390Y-38.2773

G1 Z0F20000

(Start Block)


G1X45.4956Y-68.1175
G1Z5F20000
(Plotting speed under)
G1 F4000


G1X60.5464Y-35.5432

G1X122.1548Y-49.5266

G1X174.1908Y-53.9375

G1X219.7573Y-51.8790

G1X254.9248Y-39.4215

G1 Z0F20000

(Start Block)


G1X44.9110Y-68.5912
G1Z5F20000
(Plotting speed under)
G1 F4000


G1X60.8770Y-36.9322

G1X121.7095Y-50.1396

G1X173.7305Y-54.5355

G1X220.4279Y-53.6079

G1X255.0106Y-40.5656

G1 Z0F20000

(Start Block)


G1X44.3264Y-69.0650
G1Z5F20000
(Plotting speed under)
G1 F4000


G1X61.2077Y-38.3212

G1X121.2642Y-50.7526

G1X173.2702Y-55.1336

G1X221.0985Y-55.3369

G1X255.0964Y-41.7098

G1 Z0F20000

(Start Block)


G1X43.7418Y-69.5387
G1Z5F20000
(Plotting speed under)
G1 F4000


G1X61.5384Y-39.7102

G1X120.8189Y-51.3657

G1X172.8100Y-55.7317

G1X221.7691Y-57.0658

G1X255.1823Y-42.8539

G1 Z0F20000

(Start Block)


G1X43.1573Y-70.0125
G1Z5F20000
(Plotting speed under)
G1 F4000


G1X61.8690Y-41.0992

G1X120.3735Y-51.9787

G1X172.3497Y-56.3298

G1X222.4397Y-58.7947

G1X255.2681Y-43.9981

G1 Z0F20000

(Start Block)


G1X42.5727Y-70.4862
G1Z5F20000
(Plotting speed under)
G1 F4000


G1X62.1997Y-42.4882

G1X119.9282Y-52.5917

G1X171.8895Y-56.9279

G1X223.1103Y-60.5237

G1X255.3539Y-45.1422

G1 Z0F20000

(Start Block)


G1X41.9881Y-70.9600
G1Z5F20000
(Plotting speed under)
G1 F4000


G1X62.5304Y-43.8773

G1X119.4829Y-53.2047

G1X171.4292Y-57.5260

G1X223.7809Y-62.2526

G1X255.4397Y-46.2863

G1 Z0F20000

(Start Block)


G1X41.4035Y-71.4337
G1Z5F20000
(Plotting speed under)
G1 F4000


G1X62.8611Y-45.2663

G1X119.0376Y-53.8178

G1X170.9689Y-58.1240

G1X224.4515Y-63.9815

G1X255.5255Y-47.4305

G1 Z0F20000

(Start Block)


G1X40.8189Y-71.9075
G1Z5F20000
(Plotting speed under)
G1 F4000


G1X63.1917Y-46.6553

G1X118.5923Y-54.4308

G1X170.5087Y-58.7221

G1X225.1221Y-65.7104

G1X255.6113Y-48.5746

G1 Z0F20000

(Start Block)


G1X40.2343Y-72.3812
G1Z5F20000
(Plotting speed under)
G1 F4000


G1X63.5224Y-48.0443

G1X118.1470Y-55.0438

G1X170.0485Y-59.3202

G1X225.7927Y-67.4394

G1X255.6971Y-49.7188

G1 Z0F20000

(Start Block)


G1X39.6497Y-72.8550
G1Z5F20000
(Plotting speed under)
G1 F4000


G1X63.8531Y-49.4333

G1X117.7017Y-55.6568

G1X169.5882Y-59.9183

G1X226.4633Y-69.1683

G1X255.7829Y-50.8629

G1 Z0F20000

(Start Block)


G1X39.0652Y-73.3287
G1Z5F20000
(Plotting speed under)
G1 F4000


G1X64.1837Y-50.8223

G1X117.2564Y-56.2698

G1X169.1279Y-60.5164

G1X227.1339Y-70.8973

G1X255.8687Y-52.0071

G1 Z0F20000

(Start Block)


G1X38.4806Y-73.8025
G1Z5F20000
(Plotting speed under)
G1 F4000


G1X64.5144Y-52.2113

G1X116.8110Y-56.8829

G1X168.6677Y-61.1145

G1X227.8045Y-72.6262

G1X255.9546Y-53.1512

G1 Z0F20000

(Start Block)


G1X37.8960Y-74.2763
G1Z5F20000
(Plotting speed under)
G1 F4000


G1X64.8451Y-53.6003

G1X116.3657Y-57.4959

G1X168.2074Y-61.7125

G1X228.4751Y-74.3551

G1X256.0404Y-54.2954

G1 Z0F20000

(Start Block)


G1X37.3114Y-74.7500
G1Z5F20000
(Plotting speed under)
G1 F4000


G1X65.1758Y-54.9893

G1X115.9204Y-58.1089

G1X167.7472Y-62.3106

G1X229.1457Y-76.0841

G1X256.1262Y-55.4395

G1 Z0F20000

(Start Block)


G1X36.7268Y-75.2237
G1Z5F20000
(Plotting speed under)
G1 F4000


G1X65.5064Y-56.3783

G1X115.4751Y-58.7219

G1X167.2870Y-62.9087

G1X229.8163Y-77.8130

G1X256.2120Y-56.5836

G1 Z0F20000

(Start Block)


G1X36.1422Y-75.6975
G1Z5F20000
(Plotting speed under)
G1 F4000


G1X65.8371Y-57.7673

G1X115.0298Y-59.3350

G1X166.8267Y-63.5068

G1X230.4869Y-79.5419

G1X256.2978Y-57.7278

G1 Z0F20000

(Start Block)


G1X35.5576Y-76.1712
G1Z5F20000
(Plotting speed under)
G1 F4000


G1X66.1678Y-59.1563

G1X114.5845Y-59.9480

G1X166.3664Y-64.1049

G1X231.1575Y-81.2709

G1X256.3836Y-58.8719

G1 Z0F20000

(Start Block)


G1X34.9731Y-76.6450
G1Z5F20000
(Plotting speed under)
G1 F4000


G1X66.4985Y-60.5453

G1X114.1392Y-60.5610

G1X165.9062Y-64.7030

G1X231.8281Y-82.9998

G1X256.4694Y-60.0161

G1 Z0F20000

(Start Block)


G1X34.3885Y-77.1187
G1Z5F20000
(Plotting speed under)
G1 F4000


G1X66.8291Y-61.9343

G1X113.6939Y-61.1740

G1X165.4459Y-65.3010

G1X232.4987Y-84.7287

G1X256.5552Y-61.1602

G1 Z0F20000

(Start Block)


G1X33.8039Y-77.5925
G1Z5F20000
(Plotting speed under)
G1 F4000


G1X67.1598Y-63.3233

G1X113.2486Y-61.7870

G1X164.9857Y-65.8991

G1X233.1693Y-86.4577

G1X256.6410Y-62.3044

G1 Z0F20000

(Start Block)


G1X33.2193Y-78.0662
G1Z5F20000
(Plotting speed under)
G1 F4000


G1X67.4905Y-64.7123

G1X112.8032Y-62.4001

G1X164.5254Y-66.4972

G1X233.8399Y-88.1866

G1X256.7269Y-63.4485

G1 Z0F20000

(Start Block)


G1X32.6347Y-78.5400
G1Z5F20000
(Plotting speed under)
G1 F4000


G1X67.8211Y-66.1013

G1X112.3579Y-63.0131

G1X164.0652Y-67.0953

G1X234.5105Y-89.9155

G1X256.8127Y-64.5927

G1 Z0F20000

(Start Block)


G1X32.0501Y-79.0137
G1Z5F20000
(Plotting speed under)
G1 F4000


G1X68.1518Y-67.4903

G1X111.9126Y-63.6261

G1X163.6049Y-67.6934

G1X235.1811Y-91.6444

G1X256.8985Y-65.7368

G1 Z0F20000

(Start Block)


G1X31.4655Y-79.4875
G1Z5F20000
(Plotting speed under)
G1 F4000


G1X68.4825Y-68.8794

G1X111.4673Y-64.2391

G1X163.1447Y-68.2915

G1X235.8516Y-93.3734

G1X256.9843Y-66.8809

G1 Z0F20000

(Start Block)


G1X30.8810Y-79.9612
G1Z5F20000
(Plotting speed under)
G1 F4000


G1X68.8132Y-70.2684

G1X111.0220Y-64.8521

G1X162.6844Y-68.8895

G1X236.5223Y-95.1023

G1X257.0701Y-68.0251

G1 Z0F20000

(Start Block)


G1X30.2964Y-80.4350
G1Z5F20000
(Plotting speed under)
G1 F4000


G1X69.1438Y-71.6574

G1X110.5767Y-65.4652

G1X162.2242Y-69.4876

G1X237.1928Y-96.8312

G1X257.1559Y-69.1692

G1 Z0F20000

(Start Block)


G1X29.7118Y-80.9087
G1Z5F20000
(Plotting speed under)
G1 F4000


G1X69.4745Y-73.0464

G1X110.1314Y-66.0782

G1X161.7639Y-70.0857

G1X237.8635Y-98.5602

G1X257.2417Y-70.3134

G1 Z0F20000

(Start Block)


G1X29.1272Y-81.3825
G1Z5F20000
(Plotting speed under)
G1 F4000


G1X69.8052Y-74.4354

G1X109.6860Y-66.6912

G1X161.3037Y-70.6838

G1X238.5340Y-100.2891

G1X257.3275Y-71.4575

G1 Z0F20000

(Start Block)


G1X28.5426Y-81.8562
G1Z5F20000
(Plotting speed under)
G1 F4000


G1X70.1358Y-75.8244

G1X109.2407Y-67.3042

G1X160.8434Y-71.2819

G1X239.2046Y-102.0180

G1X257.4133Y-72.6017

G1 Z0F20000

(Start Block)


G1X27.9580Y-82.3300
G1Z5F20000
(Plotting speed under)
G1 F4000


G1X70.4665Y-77.2134

G1X108.7954Y-67.9173

G1X160.3832Y-71.8799

G1X239.8752Y-103.7470

G1X257.4991Y-73.7458

G1 Z0F20000

(Start Block)


G1X27.3734Y-82.8037
G1Z5F20000
(Plotting speed under)
G1 F4000


G1X70.7972Y-78.6024

G1X108.3501Y-68.5303

G1X159.9229Y-72.4780

G1X240.5458Y-105.4759

G1X257.5850Y-74.8900

G1 Z0F20000

(Start Block)


G1X27.2207Y-83.7093
G1Z5F20000
(Plotting speed under)
G1 F4000


G1X70.5402Y-79.4038

G1X109.1913Y-70.4298

G1X160.0380Y-73.6514

G1X240.0131Y-106.0015

G1X257.6212Y-75.9845

G1 Z0F20000

(Start Block)


G1X27.0681Y-84.6150
G1Z5F20000
(Plotting speed under)
G1 F4000


G1X70.2833Y-80.2052

G1X110.0325Y-72.3294

G1X160.1530Y-74.8248

G1X239.4804Y-106.5272

G1X257.6574Y-77.0791

G1 Z0F20000

(Start Block)


G1X26.9154Y-85.5206
G1Z5F20000
(Plotting speed under)
G1 F4000


G1X70.0263Y-81.0065

G1X110.8737Y-74.2289

G1X160.2681Y-75.9982

G1X238.9477Y-107.0528

G1X257.6936Y-78.1736

G1 Z0F20000

(Start Block)


G1X26.7627Y-86.4263
G1Z5F20000
(Plotting speed under)
G1 F4000


G1X69.7693Y-81.8079

G1X111.7149Y-76.1285

G1X160.3831Y-77.1716

G1X238.4151Y-107.5785

G1X257.7298Y-79.2682

G1 Z0F20000

(Start Block)


G1X26.6100Y-87.3319
G1Z5F20000
(Plotting speed under)
G1 F4000


G1X69.5123Y-82.6093

G1X112.5562Y-78.0280

G1X160.4982Y-78.3450

G1X237.8823Y-108.1041

G1X257.7660Y-80.3627

G1 Z0F20000

(Start Block)


G1X26.4573Y-88.2376
G1Z5F20000
(Plotting speed under)
G1 F4000


G1X69.2554Y-83.4106

G1X113.3974Y-79.9275

G1X160.6132Y-79.5183

G1X237.3497Y-108.6297

G1X257.8023Y-81.4573

G1 Z0F20000

(Start Block)


G1X26.3046Y-89.1432
G1Z5F20000
(Plotting speed under)
G1 F4000


G1X68.9984Y-84.2120

G1X114.2386Y-81.8271

G1X160.7283Y-80.6917

G1X236.8170Y-109.1554

G1X257.8385Y-82.5518

G1 Z0F20000

(Start Block)


G1X26.1519Y-90.0488
G1Z5F20000
(Plotting speed under)
G1 F4000


G1X68.7415Y-85.0134

G1X115.0798Y-83.7266

G1X160.8433Y-81.8651

G1X236.2843Y-109.6810

G1X257.8747Y-83.6464

G1 Z0F20000

(Start Block)


G1X25.9992Y-90.9545
G1Z5F20000
(Plotting speed under)
G1 F4000


G1X68.4845Y-85.8147

G1X115.9210Y-85.6262

G1X160.9584Y-83.0385

G1X235.7516Y-110.2066

G1X257.9109Y-84.7410

G1 Z0F20000

(Start Block)


G1X25.8465Y-91.8601
G1Z5F20000
(Plotting speed under)
G1 F4000


G1X68.2275Y-86.6161

G1X116.7622Y-87.5257

G1X161.0734Y-84.2119

G1X235.2189Y-110.7323

G1X257.9471Y-85.8355

G1 Z0F20000

(Start Block)


G1X25.6938Y-92.7658
G1Z5F20000
(Plotting speed under)
G1 F4000


G1X67.9705Y-87.4175

G1X117.6034Y-89.4253

G1X161.1885Y-85.3853

G1X234.6862Y-111.2579

G1X257.9834Y-86.9301

G1 Z0F20000

(Start Block)


G1X25.5411Y-93.6714
G1Z5F20000
(Plotting speed under)
G1 F4000


G1X67.7136Y-88.2188

G1X118.4446Y-91.3248

G1X161.3035Y-86.5587

G1X234.1535Y-111.7836

G1X258.0196Y-88.0246

G1 Z0F20000

(Start Block)


G1X25.3885Y-94.5771
G1Z5F20000
(Plotting speed under)
G1 F4000


G1X67.4566Y-89.0202

G1X119.2858Y-93.2243

G1X161.4186Y-87.7320

G1X233.6208Y-112.3092

G1X258.0558Y-89.1192

G1 Z0F20000

(Start Block)


G1X25.2358Y-95.4827
G1Z5F20000
(Plotting speed under)
G1 F4000


G1X67.1997Y-89.8216

G1X120.1270Y-95.1239

G1X161.5336Y-88.9054

G1X233.0881Y-112.8348

G1X258.0920Y-90.2137

G1 Z0F20000

(Start Block)


G1X25.0831Y-96.3883
G1Z5F20000
(Plotting speed under)
G1 F4000


G1X66.9427Y-90.6229

G1X120.9683Y-97.0234

G1X161.6487Y-90.0788

G1X232.5554Y-113.3605

G1X258.1282Y-91.3083

G1 Z0F20000

(Start Block)


G1X24.9304Y-97.2940
G1Z5F20000
(Plotting speed under)
G1 F4000


G1X66.6857Y-91.4243

G1X121.8094Y-98.9230

G1X161.7637Y-91.2522

G1X232.0227Y-113.8861

G1X258.1645Y-92.4028

G1 Z0F20000

(Start Block)


G1X24.7777Y-98.1996
G1Z5F20000
(Plotting speed under)
G1 F4000


G1X66.4288Y-92.2257

G1X122.6507Y-100.8225

G1X161.8788Y-92.4256

G1X231.4900Y-114.4117

G1X258.2007Y-93.4974

G1 Z0F20000

(Start Block)


G1X24.6250Y-99.1053
G1Z5F20000
(Plotting speed under)
G1 F4000


G1X66.1718Y-93.0270

G1X123.4919Y-102.7221

G1X161.9938Y-93.5990

G1X230.9573Y-114.9374

G1X258.2369Y-94.5920

G1 Z0F20000

(Start Block)


G1X24.4723Y-100.0109
G1Z5F20000
(Plotting speed under)
G1 F4000


G1X65.9148Y-93.8284

G1X124.3331Y-104.6216

G1X162.1089Y-94.7723

G1X230.4246Y-115.4630

G1X258.2731Y-95.6865

G1 Z0F20000

(Start Block)


G1X24.3196Y-100.9166
G1Z5F20000
(Plotting speed under)
G1 F4000


G1X65.6578Y-94.6298

G1X125.1743Y-106.5211

G1X162.2239Y-95.9457

G1X229.8919Y-115.9887

G1X258.3094Y-96.7811

G1 Z0F20000

(Start Block)


G1X24.1669Y-101.8222
G1Z5F20000
(Plotting speed under)
G1 F4000


G1X65.4009Y-95.4311

G1X126.0155Y-108.4207

G1X162.3390Y-97.1191

G1X229.3592Y-116.5143

G1X258.3456Y-97.8756

G1 Z0F20000

(Start Block)


G1X24.0142Y-102.7278
G1Z5F20000
(Plotting speed under)
G1 F4000


G1X65.1439Y-96.2325

G1X126.8567Y-110.3202

G1X162.4540Y-98.2925

G1X228.8266Y-117.0400

G1X258.3818Y-98.9702

G1 Z0F20000

(Start Block)


G1X23.8615Y-103.6335
G1Z5F20000
(Plotting speed under)
G1 F4000


G1X64.8870Y-97.0339

G1X127.6979Y-112.2198

G1X162.5691Y-99.4659

G1X228.2938Y-117.5656

G1X258.4180Y-100.0647

G1 Z0F20000

(Start Block)


G1X23.7088Y-104.5391
G1Z5F20000
(Plotting speed under)
G1 F4000


G1X64.6300Y-97.8352

G1X128.5392Y-114.1193

G1X162.6841Y-100.6393

G1X227.7612Y-118.0912

G1X258.4542Y-101.1593

G1 Z0F20000

(Start Block)


G1X23.5561Y-105.4447
G1Z5F20000
(Plotting speed under)
G1 F4000


G1X64.3730Y-98.6366

G1X129.3804Y-116.0189

G1X162.7992Y-101.8127

G1X227.2285Y-118.6169

G1X258.4904Y-102.2538

G1 Z0F20000

(Start Block)


G1X23.4034Y-106.3504
G1Z5F20000
(Plotting speed under)
G1 F4000


G1X64.1161Y-99.4380

G1X130.2216Y-117.9184

G1X162.9142Y-102.9860

G1X226.6958Y-119.1425

G1X258.5267Y-103.3484

G1 Z0F20000

(Start Block)


G1X23.2507Y-107.2560
G1Z5F20000
(Plotting speed under)
G1 F4000


G1X63.8591Y-100.2393

G1X131.0628Y-119.8180

G1X163.0293Y-104.1594

G1X226.1631Y-119.6681

G1X258.5629Y-104.4429

G1 Z0F20000

(Start Block)


G1X23.0980Y-108.1617
G1Z5F20000
(Plotting speed under)
G1 F4000


G1X63.6021Y-101.0407

G1X131.9040Y-121.7175

G1X163.1443Y-105.3328

G1X225.6304Y-120.1938

G1X258.5991Y-105.5375

G1 Z0F20000

(Start Block)


G1X22.9453Y-109.0673
G1Z5F20000
(Plotting speed under)
G1 F4000


G1X63.3451Y-101.8421

G1X132.7452Y-123.6171

G1X163.2594Y-106.5062

G1X225.0977Y-120.7194

G1X258.6353Y-106.6320

G1 Z0F20000

(Start Block)


G1X22.7926Y-109.9730
G1Z5F20000
(Plotting speed under)
G1 F4000


G1X63.0882Y-102.6434

G1X133.5864Y-125.5166

G1X163.3744Y-107.6796

G1X224.5650Y-121.2451

G1X258.6715Y-107.7266

G1 Z0F20000

(Start Block)


G1X22.6400Y-110.8786
G1Z5F20000
(Plotting speed under)
G1 F4000


G1X62.8312Y-103.4448

G1X134.4276Y-127.4162

G1X163.4895Y-108.8530

G1X224.0323Y-121.7707

G1X258.7078Y-108.8211

G1 Z0F20000

(Start Block)


G1X22.4873Y-111.7842
G1Z5F20000
(Plotting speed under)
G1 F4000


G1X62.5743Y-104.2462

G1X135.2688Y-129.3157

G1X163.6045Y-110.0264

G1X223.4996Y-122.2963

G1X258.7440Y-109.9157

G1 Z0F20000

(Start Block)


G1X22.3346Y-112.6899
G1Z5F20000
(Plotting speed under)
G1 F4000


G1X62.3173Y-105.0476

G1X136.1100Y-131.2152

G1X163.7196Y-111.1998

G1X222.9669Y-122.8220

G1X258.7802Y-111.0103

G1 Z0F20000

(Start Block)


G1X22.1819Y-113.5955
G1Z5F20000
(Plotting speed under)
G1 F4000


G1X62.0603Y-105.8489

G1X136.9512Y-133.1148

G1X163.8346Y-112.3731

G1X222.4342Y-123.3477

G1X258.8164Y-112.1048

G1 Z0F20000

(Start Block)


G1X22.0292Y-114.5012
G1Z5F20000
(Plotting speed under)
G1 F4000


G1X61.8033Y-106.6503

G1X137.7925Y-135.0143

G1X163.9497Y-113.5465

G1X221.9015Y-123.8733

G1X258.8527Y-113.1994

G1 Z0F20000

(Start Block)


G1X21.8765Y-115.4068
G1Z5F20000
(Plotting speed under)
G1 F4000


G1X61.5464Y-107.4516

G1X138.6336Y-136.9139

G1X164.0647Y-114.7199

G1X221.3688Y-124.3989

G1X258.8889Y-114.2939

G1 Z0F20000

(Start Block)


G1X21.7238Y-116.3125
G1Z5F20000
(Plotting speed under)
G1 F4000


G1X61.2894Y-108.2530

G1X139.4749Y-138.8134

G1X164.1798Y-115.8933

G1X220.8361Y-124.9246

G1X258.9251Y-115.3885

G1 Z0F20000

(Start Block)


G1X21.5711Y-117.2181
G1Z5F20000
(Plotting speed under)
G1 F4000


G1X61.0324Y-109.0544

G1X140.3161Y-140.7130

G1X164.2948Y-117.0667

G1X220.3034Y-125.4502

G1X258.9613Y-116.4830

G1 Z0F20000

(Start Block)


G1X21.4184Y-118.1237
G1Z5F20000
(Plotting speed under)
G1 F4000


G1X60.7755Y-109.8557

G1X141.1573Y-142.6125

G1X164.4099Y-118.2401

G1X219.7707Y-125.9758

G1X258.9975Y-117.5776

G1 Z0F20000

(Start Block)


G1X21.2657Y-119.0294
G1Z5F20000
(Plotting speed under)
G1 F4000


G1X60.5185Y-110.6571

G1X141.9985Y-144.5120

G1X164.5249Y-119.4134

G1X219.2380Y-126.5015

G1X259.0338Y-118.6721

G1 Z0F20000

(Start Block)


G1X21.1130Y-119.9350
G1Z5F20000
(Plotting speed under)
G1 F4000


G1X60.2616Y-111.4585

G1X142.8397Y-146.4116

G1X164.6400Y-120.5868

G1X218.7053Y-127.0271

G1X259.0700Y-119.7667

G1 Z0F20000

(Start Block)


G1X20.9604Y-120.8407
G1Z5F20000
(Plotting speed under)
G1 F4000


G1X60.0046Y-112.2599

G1X143.6809Y-148.3111

G1X164.7550Y-121.7602

G1X218.1726Y-127.5528

G1X259.1062Y-120.8612

G1 Z0F20000

(Start Block)


G1X20.8077Y-121.7463
G1Z5F20000
(Plotting speed under)
G1 F4000


G1X59.7476Y-113.0612

G1X144.5221Y-150.2107

G1X164.8701Y-122.9336

G1X217.6399Y-128.0784

G1X259.1424Y-121.9558

G1 Z0F20000

(Start Block)


G1X20.6550Y-122.6520
G1Z5F20000
(Plotting speed under)
G1 F4000


G1X59.4906Y-113.8626

G1X145.3633Y-152.1102

G1X164.9852Y-124.1070

G1X217.1072Y-128.6040

G1X259.1786Y-123.0504

G1 Z0F20000

(Start Block)


G1X20.5023Y-123.5576
G1Z5F20000
(Plotting speed under)
G1 F4000


G1X59.2337Y-114.6639

G1X146.2045Y-154.0097

G1X165.1002Y-125.2804

G1X216.5745Y-129.1297

G1X259.2148Y-124.1449

G1 Z0F20000

(Start Block)


G1X20.7616Y-124.8753
G1Z5F20000
(Plotting speed under)
G1 F4000


G1X59.9786Y-116.4672

G1X145.9006Y-154.7642

G1X165.4532Y-126.6917

G1X216.7699Y-130.3833

G1X259.4641Y-125.4525

G1 Z0F20000

(Start Block)


G1X21.0209Y-126.1929
G1Z5F20000
(Plotting speed under)
G1 F4000


G1X60.7235Y-118.2705

G1X145.5968Y-155.5186

G1X165.8062Y-128.1031

G1X216.9651Y-131.6369

G1X259.7134Y-126.7601

G1 Z0F20000

(Start Block)


G1X21.2803Y-127.5106
G1Z5F20000
(Plotting speed under)
G1 F4000


G1X61.4685Y-120.0737

G1X145.2929Y-156.2731

G1X166.1592Y-129.5144

G1X217.1605Y-132.8906

G1X259.9627Y-128.0677

G1 Z0F20000

(Start Block)


G1X21.5396Y-128.8283
G1Z5F20000
(Plotting speed under)
G1 F4000


G1X62.2134Y-121.8770

G1X144.9890Y-157.0276

G1X166.5123Y-130.9258

G1X217.3557Y-134.1442

G1X260.2119Y-129.3753

G1 Z0F20000

(Start Block)


G1X21.7989Y-130.1459
G1Z5F20000
(Plotting speed under)
G1 F4000


G1X62.9584Y-123.6803

G1X144.6851Y-157.7820

G1X166.8653Y-132.3371

G1X217.5511Y-135.3979

G1X260.4612Y-130.6830

G1 Z0F20000

(Start Block)


G1X22.0582Y-131.4636
G1Z5F20000
(Plotting speed under)
G1 F4000


G1X63.7033Y-125.4836

G1X144.3812Y-158.5365

G1X167.2183Y-133.7485

G1X217.7464Y-136.6515

G1X260.7105Y-131.9906

G1 Z0F20000

(Start Block)


G1X22.3176Y-132.7812
G1Z5F20000
(Plotting speed under)
G1 F4000


G1X64.4482Y-127.2869

G1X144.0774Y-159.2909

G1X167.5713Y-135.1598

G1X217.9417Y-137.9051

G1X260.9597Y-133.2982

G1 Z0F20000

(Start Block)


G1X22.5769Y-134.0989
G1Z5F20000
(Plotting speed under)
G1 F4000


G1X65.1932Y-129.0901

G1X143.7735Y-160.0454

G1X167.9244Y-136.5712

G1X218.1370Y-139.1588

G1X261.2090Y-134.6058

G1 Z0F20000

(Start Block)


G1X22.8362Y-135.4166
G1Z5F20000
(Plotting speed under)
G1 F4000


G1X65.9381Y-130.8934

G1X143.4696Y-160.7998

G1X168.2774Y-137.9826

G1X218.3323Y-140.4124

G1X261.4583Y-135.9134

G1 Z0F20000

(Start Block)


G1X23.0955Y-136.7342
G1Z5F20000
(Plotting speed under)
G1 F4000


G1X66.6831Y-132.6967

G1X143.1657Y-161.5543

G1X168.6304Y-139.3939

G1X218.5276Y-141.6660

G1X261.7076Y-137.2210

G1 Z0F20000

(Start Block)


G1X23.3549Y-138.0519
G1Z5F20000
(Plotting speed under)
G1 F4000


G1X67.4280Y-134.5000

G1X142.8618Y-162.3087

G1X168.9834Y-140.8053

G1X218.7229Y-142.9197

G1X261.9568Y-138.5286

G1 Z0F20000

(Start Block)


G1X23.6142Y-139.3696
G1Z5F20000
(Plotting speed under)
G1 F4000


G1X68.1729Y-136.3032

G1X142.5580Y-163.0632

G1X169.3364Y-142.2166

G1X218.9182Y-144.1733

G1X262.2061Y-139.8362

G1 Z0F20000

(Start Block)


G1X23.8735Y-140.6872
G1Z5F20000
(Plotting speed under)
G1 F4000


G1X68.9179Y-138.1065

G1X142.2541Y-163.8177

G1X169.6894Y-143.6280

G1X219.1135Y-145.4269

G1X262.4554Y-141.1438

G1 Z0F20000

(Start Block)


G1X24.1329Y-142.0049
G1Z5F20000
(Plotting speed under)
G1 F4000


G1X69.6628Y-139.9098

G1X141.9502Y-164.5721

G1X170.0425Y-145.0393

G1X219.3088Y-146.6806

G1X262.7046Y-142.4514

G1 Z0F20000

(Start Block)


G1X24.3922Y-143.3225
G1Z5F20000
(Plotting speed under)
G1 F4000


G1X70.4077Y-141.7130

G1X141.6463Y-165.3265

G1X170.3955Y-146.4507

G1X219.5041Y-147.9342

G1X262.9539Y-143.7590

G1 Z0F20000

(Start Block)


G1X24.6516Y-144.6402
G1Z5F20000
(Plotting speed under)
G1 F4000


G1X71.1527Y-143.5163

G1X141.3425Y-166.0810

G1X170.7485Y-147.8620

G1X219.6994Y-149.1879

G1X263.2032Y-145.0666

G1 Z0F20000

(Start Block)


G1X24.9109Y-145.9579
G1Z5F20000
(Plotting speed under)
G1 F4000


G1X71.8976Y-145.3196

G1X141.0386Y-166.8355

G1X171.1015Y-149.2734

G1X219.8947Y-150.4415

G1X263.4525Y-146.3742

G1 Z0F20000

(Start Block)


G1X25.1702Y-147.2755
G1Z5F20000
(Plotting speed under)
G1 F4000


G1X72.6425Y-147.1228

G1X140.7347Y-167.5899

G1X171.4545Y-150.6847

G1X220.0900Y-151.6951

G1X263.7017Y-147.6818

G1 Z0F20000

(Start Block)


G1X25.4295Y-148.5932
G1Z5F20000
(Plotting speed under)
G1 F4000


G1X73.3875Y-148.9261

G1X140.4308Y-168.3444

G1X171.8076Y-152.0961

G1X220.2853Y-152.9487

G1X263.9510Y-148.9894

G1 Z0F20000

(Start Block)


G1X25.6889Y-149.9109
G1Z5F20000
(Plotting speed under)
G1 F4000


G1X74.1324Y-150.7294

G1X140.1269Y-169.0988

G1X172.1606Y-153.5074

G1X220.4806Y-154.2024

G1X264.2003Y-150.2970

G1 Z0F20000

(Start Block)


G1X25.9482Y-151.2285
G1Z5F20000
(Plotting speed under)
G1 F4000


G1X74.8774Y-152.5326

G1X139.8231Y-169.8533

G1X172.5136Y-154.9188

G1X220.6759Y-155.4560

G1X264.4495Y-151.6046

G1 Z0F20000

(Start Block)


G1X26.2075Y-152.5462
G1Z5F20000
(Plotting speed under)
G1 F4000


G1X75.6223Y-154.3359

G1X139.5192Y-170.6077

G1X172.8666Y-156.3302

G1X220.8712Y-156.7097

G1X264.6988Y-152.9122

G1 Z0F20000

(Start Block)


G1X26.4668Y-153.8638
G1Z5F20000
(Plotting speed under)
G1 F4000


G1X76.3672Y-156.1392

G1X139.2153Y-171.3622

G1X173.2197Y-157.7415

G1X221.0665Y-157.9633

G1X264.9481Y-154.2198

G1 Z0F20000

(Start Block)


G1X26.7262Y-155.1815
G1Z5F20000
(Plotting speed under)
G1 F4000


G1X77.1122Y-157.9424

G1X138.9114Y-172.1167

G1X173.5727Y-159.1529

G1X221.2618Y-159.2169

G1X265.1974Y-155.5275

G1 Z0F20000

(Start Block)


G1X26.9855Y-156.4992
G1Z5F20000
(Plotting speed under)
G1 F4000


G1X77.8571Y-159.7457

G1X138.6075Y-172.8711

G1X173.9257Y-160.5642

G1X221.4571Y-160.4706

G1X265.4466Y-156.8351

G1 Z0F20000

(Start Block)


G1X27.2448Y-157.8168
G1Z5F20000
(Plotting speed under)
G1 F4000


G1X78.6020Y-161.5490

G1X138.3037Y-173.6256

G1X174.2787Y-161.9756

G1X221.6524Y-161.7242

G1X265.6959Y-158.1427

G1 Z0F20000

(Start Block)


G1X27.5042Y-159.1345
G1Z5F20000
(Plotting speed under)
G1 F4000


G1X79.3470Y-163.3523

G1X137.9998Y-174.3800

G1X174.6317Y-163.3869

G1X221.8477Y-162.9778

G1X265.9452Y-159.4503

G1 Z0F20000

(Start Block)


G1X27.7635Y-160.4522
G1Z5F20000
(Plotting speed under)
G1 F4000


G1X80.0919Y-165.1555

G1X137.6959Y-175.1345

G1X174.9848Y-164.7983

G1X222.0430Y-164.2315

G1X266.1944Y-160.7579

G1 Z0F20000

(Start Block)


G1X28.0228Y-161.7698
G1Z5F20000
(Plotting speed under)
G1 F4000


G1X80.8368Y-166.9588

G1X137.3920Y-175.8889

G1X175.3378Y-166.2096

G1X222.2383Y-165.4851

G1X266.4437Y-162.0655

G1 Z0F20000

(Start Block)


G1X28.2821Y-163.0875
G1Z5F20000
(Plotting speed under)
G1 F4000


G1X81.5818Y-168.7621

G1X137.0881Y-176.6434

G1X175.6908Y-167.6210

G1X222.4336Y-166.7388

G1X266.6930Y-163.3731

G1 Z0F20000

(Start Block)


G1X28.5415Y-164.4051
G1Z5F20000
(Plotting speed under)
G1 F4000


G1X82.3267Y-170.5653

G1X136.7843Y-177.3978

G1X176.0438Y-169.0323

G1X222.6289Y-167.9924

G1X266.9423Y-164.6807

G1 Z0F20000

(Start Block)


G1X28.8008Y-165.7228
G1Z5F20000
(Plotting speed under)
G1 F4000


G1X83.0716Y-172.3686

G1X136.4804Y-178.1523

G1X176.3969Y-170.4437

G1X222.8242Y-169.2460

G1X267.1915Y-165.9883

G1 Z0F20000

(Start Block)


G1X29.0601Y-167.0405
G1Z5F20000
(Plotting speed under)
G1 F4000


G1X83.8166Y-174.1719

G1X136.1765Y-178.9068

G1X176.7499Y-171.8551

G1X223.0195Y-170.4997

G1X267.4408Y-167.2959

G1 Z0F20000

(Start Block)


G1X29.3194Y-168.3581
G1Z5F20000
(Plotting speed under)
G1 F4000


G1X84.5615Y-175.9752

G1X135.8726Y-179.6612

G1X177.1029Y-173.2664

G1X223.2148Y-171.7533

G1X267.6901Y-168.6035

G1 Z0F20000

(Start Block)


G1X29.5788Y-169.6758
G1Z5F20000
(Plotting speed under)
G1 F4000


G1X85.3065Y-177.7785

G1X135.5687Y-180.4157

G1X177.4559Y-174.6778

G1X223.4101Y-173.0070

G1X267.9393Y-169.9111

G1 Z0F20000

(Start Block)


G1X29.8381Y-170.9934
G1Z5F20000
(Plotting speed under)
G1 F4000


G1X86.0514Y-179.5817

G1X135.2649Y-181.1701

G1X177.8089Y-176.0891

G1X223.6054Y-174.2606

G1X268.1886Y-171.2187

G1 Z0F20000

(Start Block)


G1X30.0974Y-172.3111
G1Z5F20000
(Plotting speed under)
G1 F4000


G1X86.7963Y-181.3850

G1X134.9610Y-181.9246

G1X178.1619Y-177.5005

G1X223.8007Y-175.5142

G1X268.4379Y-172.5263

G1 Z0F20000

(Start Block)


G1X30.3568Y-173.6288
G1Z5F20000
(Plotting speed under)
G1 F4000


G1X87.5413Y-183.1883

G1X134.6571Y-182.6790

G1X178.5149Y-178.9118

G1X223.9961Y-176.7679

G1X268.6871Y-173.8339

G1 Z0F20000

(Start Block)


G1X30.6161Y-174.9465
G1Z5F20000
(Plotting speed under)
G1 F4000


G1X88.2862Y-184.9915

G1X134.3532Y-183.4335

G1X178.8680Y-180.3232

G1X224.1913Y-178.0215

G1X268.9364Y-175.1416

G1 Z0F20000

(Start Block)


G1X30.8754Y-176.2641
G1Z5F20000
(Plotting speed under)
G1 F4000


G1X89.0311Y-186.7948

G1X134.0493Y-184.1879

G1X224.3867Y-179.2751

G1X269.1857Y-176.4492

G1 Z0F20000

(Start Block)


G1X31.1348Y-177.5818
G1Z5F20000
(Plotting speed under)
G1 F4000


G1X89.7761Y-188.5981

G1X133.7455Y-184.9424

G1X179.5740Y-183.1459

G1X224.5819Y-180.5288

G1X269.4350Y-177.7568

G1 Z0F20000

(Start Block)


G1X31.3941Y-178.8994
G1Z5F20000
(Plotting speed under)
G1 F4000


G1X90.5210Y-190.4013

G1X133.4416Y-185.6969

G1X179.9270Y-184.5572

G1X269.6843Y-179.0644

G1 Z0F20000

(Start Block)


G1X31.6534Y-180.2171
G1Z5F20000
(Plotting speed under)
G1 F4000


G1X91.2660Y-192.2046

G1X133.1377Y-186.4513

G1X180.2800Y-185.9686

G1X224.9726Y-183.0360

G1X269.9335Y-180.3720

G1 Z0F20000

(Start Block)


G1X31.9127Y-181.5348
G1Z5F20000
(Plotting speed under)
G1 F4000


G1X92.0109Y-194.0079

G1X132.8338Y-187.2057

G1X180.6331Y-187.3799

G1X225.1679Y-184.2897

G1X270.1828Y-181.6796

G1 Z0F20000

(Start Block)


G1X32.1721Y-182.8524
G1Z5F20000
(Plotting speed under)
G1 F4000


G1X92.7558Y-195.8111

G1X132.5299Y-187.9602

G1X180.9861Y-188.7913

G1X225.3632Y-185.5433

G1X270.4321Y-182.9872

G1 Z0F20000

(Start Block)


G1X32.4186Y-184.1573
G1Z5F20000
(Plotting speed under)
G1 F4000


G1X92.1081Y-196.2217

G1X132.5387Y-189.0273

G1X180.8651Y-189.7286

G1X224.9498Y-186.1883

G1X270.4976Y-184.1111

G1 Z0F20000

(Start Block)


G1X32.6651Y-185.4621
G1Z5F20000
(Plotting speed under)
G1 F4000


G1X91.4603Y-196.6323

G1X132.5475Y-190.0944

G1X180.7440Y-190.6659

G1X224.5364Y-186.8333

G1X270.5632Y-185.2350

G1 Z0F20000

(Start Block)


G1X32.9116Y-186.7670
G1Z5F20000
(Plotting speed under)
G1 F4000


G1X90.8126Y-197.0429

G1X132.5563Y-191.1615

G1X180.6230Y-191.6032

G1X224.1231Y-187.4782

G1X270.6288Y-186.3589

G1 Z0F20000

(Start Block)


G1X33.1582Y-188.0719
G1Z5F20000
(Plotting speed under)
G1 F4000


G1X90.1648Y-197.4535

G1X132.5651Y-192.2287

G1X180.5019Y-192.5405

G1X223.7097Y-188.1232

G1X270.6943Y-187.4828

G1 Z0F20000

(Start Block)


G1X33.4047Y-189.3767
G1Z5F20000
(Plotting speed under)
G1 F4000


G1X89.5171Y-197.8641

G1X132.5738Y-193.2957

G1X180.3809Y-193.4778

G1X223.2963Y-188.7682

G1X270.7599Y-188.6067

G1 Z0F20000

(Start Block)


G1X33.6512Y-190.6816
G1Z5F20000
(Plotting speed under)
G1 F4000


G1X88.8694Y-198.2747

G1X132.5826Y-194.3629

G1X180.2599Y-194.4151

G1X222.8830Y-189.4131

G1X270.8255Y-189.7306

G1 Z0F20000

(Start Block)


G1X33.8977Y-191.9865
G1Z5F20000
(Plotting speed under)
G1 F4000


G1X88.2216Y-198.6853

G1X132.5914Y-195.4300

G1X180.1388Y-195.3524

G1X222.4696Y-190.0581

G1X270.8911Y-190.8545

G1 Z0F20000

(Start Block)


G1X34.1443Y-193.2913
G1Z5F20000
(Plotting speed under)
G1 F4000


G1X87.5738Y-199.0958

G1X132.6001Y-196.4971

G1X180.0178Y-196.2897

G1X222.0562Y-190.7031

G1X270.9566Y-191.9784

G1 Z0F20000

(Start Block)


G1X34.3908Y-194.5962
G1Z5F20000
(Plotting speed under)
G1 F4000


G1X86.9261Y-199.5064

G1X132.6089Y-197.5642

G1X179.8968Y-197.2270

G1X221.6429Y-191.3480

G1X271.0222Y-193.1023

G1 Z0F20000

(Start Block)


G1X34.6373Y-195.9010
G1Z5F20000
(Plotting speed under)
G1 F4000


G1X86.2784Y-199.9170

G1X132.6177Y-198.6313

G1X179.7757Y-198.1643

G1X221.2295Y-191.9930

G1X271.0878Y-194.2262

G1 Z0F20000

(Start Block)


G1X34.8838Y-197.2059
G1Z5F20000
(Plotting speed under)
G1 F4000


G1X85.6306Y-200.3276

G1X179.6547Y-199.1016

G1X220.8161Y-192.6380

G1X271.1533Y-195.3501

G1 Z0F20000

(Start Block)


G1X35.1304Y-198.5108
G1Z5F20000
(Plotting speed under)
G1 F4000


G1X84.9829Y-200.7382

G1X132.6352Y-200.7655

G1X179.5336Y-200.0389

G1X220.4027Y-193.2829

G1X271.2189Y-196.4740

G1 Z0F20000

(Start Block)


G1X35.3769Y-199.8156
G1Z5F20000
(Plotting speed under)
G1 F4000


G1X84.3351Y-201.1488

G1X132.6440Y-201.8326

G1X179.4126Y-200.9762

G1X219.9894Y-193.9279

G1X271.2845Y-197.5979

G1 Z0F20000

(Start Block)


G1X35.6234Y-201.1205
G1Z5F20000
(Plotting speed under)
G1 F4000


G1X83.6874Y-201.5594

G1X132.6528Y-202.8997

G1X179.2916Y-201.9134

G1X219.5760Y-194.5729

G1X271.3500Y-198.7218

G1 Z0F20000

(Start Block)


G1X35.8700Y-202.4253
G1Z5F20000
(Plotting speed under)
G1 F4000


G1X83.0396Y-201.9700

G1X132.6615Y-203.9668

G1X179.1705Y-202.8508

G1X219.1626Y-195.2178

G1X271.4156Y-199.8457

G1 Z0F20000

(Start Block)


G1X36.1165Y-203.7302
G1Z5F20000
(Plotting speed under)
G1 F4000


G1X82.3919Y-202.3806

G1X132.6703Y-205.0339

G1X179.0495Y-203.7880

G1X218.7493Y-195.8628

G1X271.4812Y-200.9696

G1 Z0F20000

(Start Block)


G1X36.3630Y-205.0350
G1Z5F20000
(Plotting speed under)
G1 F4000


G1X81.7441Y-202.7911

G1X132.6791Y-206.1011

G1X178.9284Y-204.7253

G1X218.3359Y-196.5078

G1X271.5468Y-202.0935

G1 Z0F20000

(Start Block)


G1X36.6095Y-206.3399
G1Z5F20000
(Plotting speed under)
G1 F4000


G1X81.0964Y-203.2017

G1X132.6879Y-207.1681

G1X178.8074Y-205.6626

G1X217.9226Y-197.1528

G1X271.6123Y-203.2174

G1 Z0F20000

(Start Block)


G1X36.8561Y-207.6448
G1Z5F20000
(Plotting speed under)
G1 F4000


G1X80.4486Y-203.6123

G1X132.6967Y-208.2353

G1X178.6864Y-206.5999

G1X217.5092Y-197.7977

G1X271.6779Y-204.3413

G1 Z0F20000

(Start Block)


G1X37.1026Y-208.9496
G1Z5F20000
(Plotting speed under)
G1 F4000


G1X79.8009Y-204.0229

G1X132.7054Y-209.3024

G1X178.5654Y-207.5372

G1X217.0958Y-198.4427

G1X271.7434Y-205.4652

G1 Z0F20000

(Start Block)


G1X37.3491Y-210.2545
G1Z5F20000
(Plotting speed under)
G1 F4000


G1X79.1532Y-204.4335

G1X132.7142Y-210.3695

G1X178.4443Y-208.4745

G1X216.6825Y-199.0877

G1X271.8090Y-206.5891

G1 Z0F20000

(Start Block)


G1X37.5956Y-211.5594
G1Z5F20000
(Plotting speed under)
G1 F4000


G1X78.5054Y-204.8441

G1X132.7230Y-211.4366

G1X178.3233Y-209.4118

G1X216.2691Y-199.7326

G1X271.8746Y-207.7131

G1 Z0F20000

(Start Block)


G1X37.8422Y-212.8642
G1Z5F20000
(Plotting speed under)
G1 F4000


G1X77.8577Y-205.2547

G1X132.7317Y-212.5037

G1X178.2022Y-210.3491

G1X215.8557Y-200.3776

G1X271.9402Y-208.8370

G1 Z0F20000

(Start Block)


G1X38.0887Y-214.1691
G1Z5F20000
(Plotting speed under)
G1 F4000


G1X77.2099Y-205.6653

G1X132.7405Y-213.5708

G1X178.0812Y-211.2864

G1X215.4424Y-201.0226

G1X272.0057Y-209.9609

G1 Z0F20000

(Start Block)


G1X38.3352Y-215.4740
G1Z5F20000
(Plotting speed under)
G1 F4000


G1X76.5622Y-206.0758

G1X132.7493Y-214.6379

G1X177.9601Y-212.2237

G1X215.0290Y-201.6675

G1X272.0713Y-211.0848

G1 Z0F20000

(Start Block)


G1X38.5817Y-216.7788
G1Z5F20000
(Plotting speed under)
G1 F4000


G1X75.9144Y-206.4864

G1X132.7581Y-215.7050

G1X177.8391Y-213.1610

G1X214.6156Y-202.3125

G1X272.1369Y-212.2086

G1 Z0F20000

(Start Block)


G1X38.8283Y-218.0837
G1Z5F20000
(Plotting speed under)
G1 F4000


G1X75.2667Y-206.8970

G1X132.7669Y-216.7721

G1X177.7181Y-214.0983

G1X214.2023Y-202.9575

G1X272.2024Y-213.3326

G1 Z0F20000

(Start Block)


G1X39.0748Y-219.3885
G1Z5F20000
(Plotting speed under)
G1 F4000


G1X74.6189Y-207.3076

G1X132.7756Y-217.8392

G1X177.5970Y-215.0356

G1X213.7889Y-203.6024

G1X272.2680Y-214.4565

G1 Z0F20000

(Start Block)


G1X39.3213Y-220.6934
G1Z5F20000
(Plotting speed under)
G1 F4000


G1X73.9712Y-207.7182

G1X132.7844Y-218.9063

G1X177.4760Y-215.9729

G1X213.3755Y-204.2474

G1X272.3336Y-215.5804

G1 Z0F20000

(Start Block)


G1X39.5679Y-221.9983
G1Z5F20000
(Plotting speed under)
G1 F4000


G1X73.3234Y-208.1288

G1X132.7932Y-219.9734

G1X177.3550Y-216.9102

G1X212.9622Y-204.8924

G1X272.3991Y-216.7043

G1 Z0F20000

(Start Block)


G1X39.8144Y-223.3031
G1Z5F20000
(Plotting speed under)
G1 F4000


G1X72.6757Y-208.5394

G1X132.8019Y-221.0406

G1X177.2339Y-217.8475

G1X212.5488Y-205.5373

G1X272.4647Y-217.8282

G1 Z0F20000

(Start Block)


G1X40.0609Y-224.6080
G1Z5F20000
(Plotting speed under)
G1 F4000


G1X72.0279Y-208.9500

G1X132.8107Y-222.1077

G1X177.1129Y-218.7848

G1X212.1354Y-206.1823

G1X272.5303Y-218.9521

G1 Z0F20000

(Start Block)


G1X40.3074Y-225.9129
G1Z5F20000
(Plotting speed under)
G1 F4000


G1X71.3802Y-209.3605

G1X132.8195Y-223.1748

G1X176.9918Y-219.7221

G1X211.7221Y-206.8273

G1X272.5959Y-220.0760

G1 Z0F20000

(Start Block)


G1X40.5540Y-227.2177
G1Z5F20000
(Plotting speed under)
G1 F4000


G1X70.7325Y-209.7711

G1X132.8283Y-224.2419

G1X176.8708Y-220.6594

G1X211.3087Y-207.4723

G1X272.6614Y-221.1999

G1 Z0F20000

(Start Block)


G1X40.8005Y-228.5226
G1Z5F20000
(Plotting speed under)
G1 F4000


G1X70.0847Y-210.1817

G1X132.8370Y-225.3090

G1X176.7498Y-221.5967

G1X210.8953Y-208.1172

G1X272.7270Y-222.3238

G1 Z0F20000

(Start Block)


G1X41.0470Y-229.8274
G1Z5F20000
(Plotting speed under)
G1 F4000


G1X69.4369Y-210.5923

G1X132.8458Y-226.3761

G1X176.6287Y-222.5340

G1X210.4820Y-208.7622

G1X272.7925Y-223.4477

G1 Z0F20000

(Start Block)


G1X41.2935Y-231.1323
G1Z5F20000
(Plotting speed under)
G1 F4000


G1X68.7892Y-211.0029

G1X132.8546Y-227.4432

G1X176.5077Y-223.4713

G1X210.0686Y-209.4072

G1X272.8581Y-224.5716

G1 Z0F20000

(Start Block)


G1X41.5401Y-232.4372
G1Z5F20000
(Plotting speed under)
G1 F4000


G1X68.1415Y-211.4135

G1X132.8633Y-228.5103

G1X176.3867Y-224.4086

G1X209.6553Y-210.0521

G1X272.9237Y-225.6955

G1 Z0F20000

(Start Block)


G1X41.7866Y-233.7420
G1Z5F20000
(Plotting speed under)
G1 F4000


G1X67.4937Y-211.8241

G1X132.8721Y-229.5774

G1X176.2656Y-225.3459

G1X209.2419Y-210.6971

G1X272.9893Y-226.8194

G1 Z0F20000

(Start Block)


G1X42.0331Y-235.0469
G1Z5F20000
(Plotting speed under)
G1 F4000


G1X66.8460Y-212.2347

G1X132.8809Y-230.6446

G1X176.1446Y-226.2832

G1X208.8285Y-211.3421

G1X273.0548Y-227.9433

G1 Z0F20000

(Start Block)


G1X42.2796Y-236.3517
G1Z5F20000
(Plotting speed under)
G1 F4000


G1X66.1982Y-212.6453

G1X132.8897Y-231.7117

G1X176.0236Y-227.2205

G1X208.4152Y-211.9870

G1X273.1204Y-229.0672

G1 Z0F20000

(Start Block)


G1X42.5262Y-237.6566
G1Z5F20000
(Plotting speed under)
G1 F4000


G1X65.5505Y-213.0558

G1X132.8985Y-232.7788

G1X175.9025Y-228.1578

G1X208.0018Y-212.6320

G1X273.1860Y-230.1911

G1 Z0F20000

(Start Block)


G1X42.7727Y-238.9615
G1Z5F20000
(Plotting speed under)
G1 F4000


G1X64.9027Y-213.4664

G1X132.9072Y-233.8459

G1X175.7815Y-229.0951

G1X207.5884Y-213.2770

G1X273.2515Y-231.3150

G1 Z0F20000

(Start Block)


G1X43.0192Y-240.2663
G1Z5F20000
(Plotting speed under)
G1 F4000


G1X64.2550Y-213.8770

G1X132.9160Y-234.9130

G1X175.6604Y-230.0324

G1X207.1751Y-213.9219

G1X273.3171Y-232.4389

G1 Z0F20000

(Start Block)


G1X43.2657Y-241.5712
G1Z5F20000
(Plotting speed under)
G1 F4000


G1X63.6072Y-214.2876

G1X132.9248Y-235.9801

G1X175.5394Y-230.9697

G1X206.7617Y-214.5669

G1X273.3827Y-233.5628

G1 Z0F20000

(Start Block)


G1X42.9387Y-242.3025
G1Z5F20000
(Plotting speed under)
G1 F4000


G1X63.6213Y-215.3600

G1X132.7039Y-236.8175

G1X175.6464Y-232.1350

G1X207.3984Y-216.2620

G1X273.5087Y-234.7472

G1 Z0F20000

(Start Block)


G1X42.6118Y-243.0338
G1Z5F20000
(Plotting speed under)
G1 F4000


G1X63.6354Y-216.4325

G1X132.4830Y-237.6550

G1X175.7534Y-233.3004

G1X208.0352Y-217.9570

G1X273.6348Y-235.9316

G1 Z0F20000

(Start Block)


G1X42.2847Y-243.7651
G1Z5F20000
(Plotting speed under)
G1 F4000


G1X63.6496Y-217.5049

G1X132.2621Y-238.4924

G1X175.8604Y-234.4657

G1X208.6719Y-219.6521

G1X273.7608Y-237.1160

G1 Z0F20000

(Start Block)


G1X41.9577Y-244.4965
G1Z5F20000
(Plotting speed under)
G1 F4000


G1X63.6637Y-218.5774

G1X132.0413Y-239.3299

G1X175.9675Y-235.6311

G1X209.3086Y-221.3472

G1X273.8869Y-238.3004

G1 Z0F20000

(Start Block)


G1X41.6307Y-245.2278
G1Z5F20000
(Plotting speed under)
G1 F4000


G1X63.6778Y-219.6498

G1X131.8204Y-240.1674

G1X176.0745Y-236.7964

G1X209.9453Y-223.0423

G1X274.0129Y-239.4848

G1 Z0F20000

(Start Block)


G1X41.3037Y-245.9591
G1Z5F20000
(Plotting speed under)
G1 F4000


G1X63.6919Y-220.7223

G1X131.5995Y-241.0048

G1X176.1815Y-237.9617

G1X210.5821Y-224.7373

G1X274.1390Y-240.6692

G1 Z0F20000

(Start Block)


G1X40.9767Y-246.6905
G1Z5F20000
(Plotting speed under)
G1 F4000


G1X63.7060Y-221.7947

G1X131.3786Y-241.8423

G1X176.2885Y-239.1271

G1X211.2188Y-226.4324

G1X274.2651Y-241.8536

G1 Z0F20000

(Start Block)


G1X40.6497Y-247.4218
G1Z5F20000
(Plotting speed under)
G1 F4000


G1X63.7200Y-222.8671

G1X131.1577Y-242.6797

G1X176.3955Y-240.2924

G1X211.8555Y-228.1274

G1X274.3911Y-243.0379

G1 Z0F20000

(Start Block)


G1X40.3227Y-248.1531
G1Z5F20000
(Plotting speed under)
G1 F4000


G1X63.7341Y-223.9395

G1X130.9369Y-243.5172

G1X176.5025Y-241.4578

G1X212.4923Y-229.8225

G1X274.5172Y-244.2223

G1 Z0F20000

(Start Block)


G1X39.9957Y-248.8844
G1Z5F20000
(Plotting speed under)
G1 F4000


G1X63.7482Y-225.0120

G1X130.7160Y-244.3546

G1X176.6095Y-242.6231

G1X213.1290Y-231.5176

G1X274.6432Y-245.4067

G1 Z0F20000

(Start Block)


G1X39.6687Y-249.6158
G1Z5F20000
(Plotting speed under)
G1 F4000


G1X63.7623Y-226.0844

G1X130.4951Y-245.1921

G1X176.7165Y-243.7885

G1X213.7657Y-233.2127

G1X274.7693Y-246.5911

G1 Z0F20000

(Start Block)


G1X39.3417Y-250.3471
G1Z5F20000
(Plotting speed under)
G1 F4000


G1X63.7764Y-227.1568

G1X130.2742Y-246.0295

G1X176.8235Y-244.9538

G1X214.4025Y-234.9077

G1X274.8954Y-247.7755

G1 Z0F20000

(Start Block)


G1X39.0147Y-251.0784
G1Z5F20000
(Plotting speed under)
G1 F4000


G1X63.7905Y-228.2293

G1X130.0533Y-246.8670

G1X176.9305Y-246.1191

G1X215.0392Y-236.6028

G1X275.0214Y-248.9599

G1 Z0F20000

(Start Block)


G1X38.6876Y-251.8097
G1Z5F20000
(Plotting speed under)
G1 F4000


G1X63.8046Y-229.3017

G1X129.8325Y-247.7045

G1X177.0376Y-247.2845

G1X215.6759Y-238.2978

G1X275.1474Y-250.1443

G1 Z0F20000

(Start Block)


G1X38.3606Y-252.5411
G1Z5F20000
(Plotting speed under)
G1 F4000


G1X63.8188Y-230.3742

G1X129.6116Y-248.5419

G1X177.1446Y-248.4498

G1X216.3127Y-239.9929

G1X275.2735Y-251.3287

G1 Z0F20000

(Start Block)


G1X38.0336Y-253.2724
G1Z5F20000
(Plotting speed under)
G1 F4000


G1X63.8329Y-231.4466

G1X129.3907Y-249.3793

G1X177.2516Y-249.6152

G1X216.9494Y-241.6880

G1X275.3996Y-252.5131

G1 Z0F20000

(Start Block)


G1X37.7066Y-254.0037
G1Z5F20000
(Plotting speed under)
G1 F4000


G1X63.8470Y-232.5190

G1X129.1698Y-250.2168

G1X177.3586Y-250.7805

G1X217.5861Y-243.3830

G1X275.5256Y-253.6975

G1 Z0F20000

(Start Block)


G1X37.3796Y-254.7350
G1Z5F20000
(Plotting speed under)
G1 F4000


G1X63.8611Y-233.5915

G1X128.9489Y-251.0543

G1X177.4656Y-251.9459

G1X218.2229Y-245.0781

G1X275.6517Y-254.8818

G1 Z0F20000

(Start Block)


G1X37.0526Y-255.4664
G1Z5F20000
(Plotting speed under)
G1 F4000


G1X63.8752Y-234.6639

G1X128.7281Y-251.8917

G1X177.5726Y-253.1112

G1X218.8596Y-246.7732

G1X275.7777Y-256.0662

G1 Z0F20000

(Start Block)


G1X36.7256Y-256.1977
G1Z5F20000
(Plotting speed under)
G1 F4000


G1X63.8893Y-235.7363

G1X128.5072Y-252.7292

G1X177.6796Y-254.2766

G1X219.4963Y-248.4683

G1X275.9038Y-257.2506

G1 Z0F20000

(Start Block)


G1X36.3986Y-256.9290
G1Z5F20000
(Plotting speed under)
G1 F4000


G1X63.9034Y-236.8088

G1X128.2863Y-253.5666

G1X177.7866Y-255.4419

G1X220.1331Y-250.1633

G1X276.0298Y-258.4350

G1 Z0F20000

(Start Block)


G1X36.0716Y-257.6604
G1Z5F20000
(Plotting speed under)
G1 F4000


G1X63.9175Y-237.8812

G1X128.0654Y-254.4041

G1X177.8937Y-256.6073

G1X220.7698Y-251.8584

G1X276.1559Y-259.6194

G1 Z0F20000

(Start Block)


G1X35.7446Y-258.3917
G1Z5F20000
(Plotting speed under)
G1 F4000


G1X63.9316Y-238.9536

G1X127.8445Y-255.2415

G1X178.0007Y-257.7726

G1X221.4065Y-253.5534

G1X276.2820Y-260.8038

G1 Z0F20000

(Start Block)


G1X35.4176Y-259.1230
G1Z5F20000
(Plotting speed under)
G1 F4000


G1X63.9457Y-240.0261

G1X127.6237Y-256.0790

G1X178.1077Y-258.9380

G1X222.0433Y-255.2485

G1X276.4080Y-261.9882

G1 Z0F20000

(Start Block)


G1X35.0906Y-259.8543
G1Z5F20000
(Plotting speed under)
G1 F4000


G1X63.9598Y-241.0985

G1X127.4028Y-256.9164

G1X178.2147Y-260.1033

G1X222.6800Y-256.9436

G1X276.5341Y-263.1726

G1 Z0F20000

(Start Block)


G1X34.7635Y-260.5856
G1Z5F20000
(Plotting speed under)
G1 F4000


G1X63.9739Y-242.1709

G1X127.1819Y-257.7539

G1X178.3217Y-261.2686

G1X223.3167Y-258.6386

G1X276.6601Y-264.3570

G1 Z0F20000

(Start Block)


G1X34.4365Y-261.3170
G1Z5F20000
(Plotting speed under)
G1 F4000


G1X63.9880Y-243.2434

G1X126.9610Y-258.5913

G1X178.4287Y-262.4340

G1X223.9535Y-260.3337

G1X276.7862Y-265.5413

G1 Z0F20000

(Start Block)


G1X34.1095Y-262.0483
G1Z5F20000
(Plotting speed under)
G1 F4000


G1X64.0021Y-244.3158

G1X126.7401Y-259.4288

G1X178.5357Y-263.5993

G1X224.5902Y-262.0288

G1X276.9122Y-266.7257

G1 Z0F20000

(Start Block)


G1X33.7825Y-262.7796
G1Z5F20000
(Plotting speed under)
G1 F4000


G1X64.0162Y-245.3882

G1X126.5193Y-260.2663

G1X178.6427Y-264.7647

G1X225.2269Y-263.7238

G1X277.0383Y-267.9101

G1 Z0F20000

(Start Block)


G1X33.4555Y-263.5110
G1Z5F20000
(Plotting speed under)
G1 F4000


G1X64.0303Y-246.4607

G1X126.2984Y-261.1037

G1X178.7497Y-265.9300

G1X225.8637Y-265.4189

G1X277.1643Y-269.0945

G1 Z0F20000

(Start Block)


G1X33.1285Y-264.2423
G1Z5F20000
(Plotting speed under)
G1 F4000


G1X64.0444Y-247.5331

G1X126.0775Y-261.9412

G1X178.8567Y-267.0954

G1X226.5004Y-267.1140

G1X277.2904Y-270.2789

G1 Z0F20000

(Start Block)


G1X32.8015Y-264.9736
G1Z5F20000
(Plotting speed under)
G1 F4000


G1X64.0585Y-248.6055

G1X125.8566Y-262.7786

G1X178.9638Y-268.2607

G1X227.1371Y-268.8090

G1X277.4164Y-271.4633

G1 Z0F20000

(Start Block)


G1X32.4745Y-265.7049
G1Z5F20000
(Plotting speed under)
G1 F4000


G1X64.0726Y-249.6780

G1X125.6357Y-263.6161

G1X179.0708Y-269.4260

G1X227.7739Y-270.5041

G1X277.5425Y-272.6477

G1 Z0F20000

(Start Block)


G1X32.1475Y-266.4362
G1Z5F20000
(Plotting speed under)
G1 F4000


G1X64.0867Y-250.7504

G1X125.4149Y-264.4535

G1X179.1778Y-270.5914

G1X277.6686Y-273.8321

G1 Z0F20000

(Start Block)


G1X31.8205Y-267.1676
G1Z5F20000
(Plotting speed under)
G1 F4000


G1X64.1008Y-251.8229

G1X125.1940Y-265.2910

G1X179.2848Y-271.7568

G1X229.0473Y-273.8942

G1X277.7946Y-275.0165

G1 Z0F20000

(Start Block)


G1X31.4935Y-267.8989
G1Z5F20000
(Plotting speed under)
G1 F4000


G1X64.1149Y-252.8953

G1X124.9731Y-266.1284

G1X179.3918Y-272.9221

G1X229.6841Y-275.5893

G1X277.9207Y-276.2009

G1 Z0F20000

(Start Block)


G1X31.1665Y-268.6302
G1Z5F20000
(Plotting speed under)
G1 F4000


G1X64.1290Y-253.9677

G1X124.7522Y-266.9659

G1X179.4988Y-274.0874

G1X230.3208Y-277.2844

G1X278.0467Y-277.3853

G1 Z0F20000

(Start Block)


G1X30.8395Y-269.3616
G1Z5F20000
(Plotting speed under)
G1 F4000


G1X64.1431Y-255.0402

G1X124.5313Y-267.8034

G1X179.6058Y-275.2528

G1X230.9575Y-278.9794

G1X278.1728Y-278.5696

G1 Z0F20000

(Start Block)


G1X30.5125Y-270.0929
G1Z5F20000
(Plotting speed under)
G1 F4000


G1X64.1572Y-256.1126

G1X124.3105Y-268.6408

G1X179.7128Y-276.4181

G1X231.5943Y-280.6745

G1X278.2988Y-279.7540

G1 Z0F20000

(Start Block)


G1X30.1854Y-270.8242
G1Z5F20000
(Plotting speed under)
G1 F4000


G1X64.1713Y-257.1850

G1X124.0896Y-269.4782

G1X179.8198Y-277.5835

G1X232.2310Y-282.3696

G1X278.4249Y-280.9384

G1 Z0F20000

(Start Block)


G1X29.8584Y-271.5556
G1Z5F20000
(Plotting speed under)
G1 F4000


G1X64.1854Y-258.2575

G1X123.8687Y-270.3157

G1X179.9268Y-278.7488

G1X232.8677Y-284.0647

G1X278.5509Y-282.1228

G1 Z0F20000

(Start Block)


G1X29.5314Y-272.2869
G1Z5F20000
(Plotting speed under)
G1 F4000


G1X64.1995Y-259.3299

G1X123.6478Y-271.1532

G1X180.0339Y-279.9142

G1X233.5044Y-285.7597

G1X278.6770Y-283.3072

G1 Z0F20000

(Start Block)


G1X29.2044Y-273.0182
G1Z5F20000
(Plotting speed under)
G1 F4000


G1X64.2136Y-260.4023

G1X123.4269Y-271.9906

G1X180.1409Y-281.0795

G1X234.1412Y-287.4548

G1X278.8031Y-284.4916

G1 Z0F20000

(Start Block)


G1X28.8774Y-273.7495
G1Z5F20000
(Plotting speed under)
G1 F4000


G1X64.2277Y-261.4748

G1X123.2061Y-272.8281

G1X180.2479Y-282.2449

G1X234.7779Y-289.1498

G1X278.9291Y-285.6760

G1 Z0F20000

(Start Block)


G1X28.5504Y-274.4809
G1Z5F20000
(Plotting speed under)
G1 F4000


G1X64.2418Y-262.5472

G1X122.9852Y-273.6655

G1X180.3549Y-283.4102

G1X235.4146Y-290.8449

G1X279.0552Y-286.8604

G1 Z0F20000

(Start Block)


G1X28.3331Y-275.3219
G1Z5F20000
(Plotting speed under)
G1 F4000


G1X64.8781Y-264.2419

G1X123.2800Y-275.0187

G1X180.5558Y-284.6695

G1X235.3533Y-291.8419

G1X278.8022Y-287.6658

G1 Z0F20000

(Start Block)


G1X28.1157Y-276.1629
G1Z5F20000
(Plotting speed under)
G1 F4000


G1X65.5145Y-265.9366

G1X123.5748Y-276.3719

G1X180.7568Y-285.9288

G1X235.2919Y-292.8388

G1X278.5493Y-288.4712

G1 Z0F20000

(Start Block)


G1X27.8984Y-277.0039
G1Z5F20000
(Plotting speed under)
G1 F4000


G1X66.1508Y-267.6313

G1X123.8696Y-277.7250

G1X180.9577Y-287.1881

G1X235.2305Y-293.8358

G1X278.2963Y-289.2765

G1 Z0F20000

(Start Block)


G1X27.6810Y-277.8448
G1Z5F20000
(Plotting speed under)
G1 F4000


G1X66.7872Y-269.3259

G1X124.1644Y-279.0782

G1X181.1587Y-288.4473

G1X235.1691Y-294.8327

G1X278.0434Y-290.0819

G1 Z0F20000

(Start Block)


G1X27.4637Y-278.6859
G1Z5F20000
(Plotting speed under)
G1 F4000


G1X67.4235Y-271.0207

G1X124.4593Y-280.4313

G1X181.3596Y-289.7066

G1X235.1078Y-295.8297

G1X277.7905Y-290.8873

G1 Z0F20000

(Start Block)


G1X27.2464Y-279.5269
G1Z5F20000
(Plotting speed under)
G1 F4000


G1X68.0599Y-272.7153

G1X181.5606Y-290.9659

G1X235.0464Y-296.8267

G1X277.5375Y-291.6927

G1 Z0F20000

(Start Block)


G1X27.0291Y-280.3679
G1Z5F20000
(Plotting speed under)
G1 F4000


G1X68.6962Y-274.4100

G1X125.0489Y-283.1376

G1X181.7615Y-292.2252

G1X234.9850Y-297.8236

G1X277.2846Y-292.4981

G1 Z0F20000

(Start Block)


G1X26.8117Y-281.2088
G1Z5F20000
(Plotting speed under)
G1 F4000


G1X69.3326Y-276.1047

G1X125.3437Y-284.4908

G1X181.9625Y-293.4845

G1X234.9236Y-298.8206

G1X277.0316Y-293.3035

G1 Z0F20000

(Start Block)


G1X26.5944Y-282.0498
G1Z5F20000
(Plotting speed under)
G1 F4000


G1X69.9689Y-277.7994

G1X125.6385Y-285.8439

G1X182.1634Y-294.7438

G1X234.8623Y-299.8175

G1X276.7787Y-294.1089

G1 Z0F20000

(Start Block)


G1X26.3770Y-282.8909
G1Z5F20000
(Plotting speed under)
G1 F4000


G1X70.6053Y-279.4941

G1X125.9333Y-287.1971

G1X182.3644Y-296.0031

G1X234.8009Y-300.8145

G1X276.5257Y-294.9143

G1 Z0F20000

(Start Block)


G1X26.1597Y-283.7319
G1Z5F20000
(Plotting speed under)
G1 F4000


G1X71.2416Y-281.1888

G1X126.2282Y-288.5502

G1X182.5654Y-297.2623

G1X234.7395Y-301.8115

G1X276.2728Y-295.7197

G1 Z0F20000

(Start Block)


G1X25.9424Y-284.5728
G1Z5F20000
(Plotting speed under)
G1 F4000


G1X71.8780Y-282.8835

G1X126.5230Y-289.9034

G1X182.7663Y-298.5216

G1X234.6781Y-302.8084

G1X276.0199Y-296.5251

G1 Z0F20000

(Start Block)


G1X25.7250Y-285.4138
G1Z5F20000
(Plotting speed under)
G1 F4000


G1X72.5144Y-284.5782

G1X126.8178Y-291.2565

G1X182.9672Y-299.7809

G1X234.6168Y-303.8054

G1X275.7669Y-297.3305

G1 Z0F20000

(Start Block)


G1X25.5077Y-286.2548
G1Z5F20000
(Plotting speed under)
G1 F4000


G1X73.1507Y-286.2728

G1X127.1126Y-292.6097

G1X183.1682Y-301.0402

G1X234.5554Y-304.8023

G1X275.5140Y-298.1359

G1 Z0F20000

(Start Block)


G1X25.2904Y-287.0959
G1Z5F20000
(Plotting speed under)
G1 F4000


G1X73.7871Y-287.9675

G1X127.4074Y-293.9628

G1X183.3691Y-302.2995

G1X234.4940Y-305.7993

G1X275.2610Y-298.9413

G1 Z0F20000

(Start Block)


G1X25.0730Y-287.9368
G1Z5F20000
(Plotting speed under)
G1 F4000


G1X74.4234Y-289.6622

G1X127.7023Y-295.3160

G1X183.5701Y-303.5587

G1X234.4326Y-306.7962

G1X275.0081Y-299.7466

G1 Z0F20000

(Start Block)


G1X24.8557Y-288.7778
G1Z5F20000
(Plotting speed under)
G1 F4000


G1X75.0598Y-291.3569

G1X127.9971Y-296.6691

G1X183.7710Y-304.8180

G1X234.3713Y-307.7932

G1X274.7551Y-300.5520

G1 Z0F20000

(Start Block)


G1X24.6384Y-289.6188
G1Z5F20000
(Plotting speed under)
G1 F4000


G1X75.6961Y-293.0516

G1X128.2919Y-298.0223

G1X183.9720Y-306.0773

G1X234.3099Y-308.7902

G1X274.5022Y-301.3574

G1 Z0F20000

(Start Block)


G1X24.4210Y-290.4598
G1Z5F20000
(Plotting speed under)
G1 F4000


G1X76.3325Y-294.7463

G1X128.5867Y-299.3754

G1X184.1729Y-307.3366

G1X234.2485Y-309.7871

G1X274.2493Y-302.1628

G1 Z0F20000

(Start Block)


G1X24.2036Y-291.3008
G1Z5F20000
(Plotting speed under)
G1 F4000


G1X76.9688Y-296.4409

G1X128.8815Y-300.7286

G1X184.3739Y-308.5959

G1X234.1871Y-310.7841

G1X273.9963Y-302.9682

G1 Z0F20000

(Start Block)


G1X23.9863Y-292.1418
G1Z5F20000
(Plotting speed under)
G1 F4000


G1X77.6052Y-298.1356

G1X129.1763Y-302.0817

G1X184.5748Y-309.8552

G1X234.1258Y-311.7810

G1X273.7434Y-303.7736

G1 Z0F20000

(Start Block)


G1X23.7690Y-292.9828
G1Z5F20000
(Plotting speed under)
G1 F4000


G1X78.2415Y-299.8303

G1X129.4712Y-303.4349

G1X184.7758Y-311.1144

G1X234.0644Y-312.7780

G1X273.4904Y-304.5790

G1 Z0F20000

(Start Block)


G1X23.5517Y-293.8238
G1Z5F20000
(Plotting speed under)
G1 F4000


G1X78.8779Y-301.5250

G1X129.7660Y-304.7880

G1X184.9767Y-312.3737

G1X234.0030Y-313.7750

G1X273.2375Y-305.3844

G1 Z0F20000

(Start Block)


G1X23.3343Y-294.6648
G1Z5F20000
(Plotting speed under)
G1 F4000


G1X79.5143Y-303.2197

G1X130.0608Y-306.1412

G1X185.1777Y-313.6330

G1X233.9416Y-314.7719

G1X272.9846Y-306.1898

G1 Z0F20000

(Start Block)


G1X23.1170Y-295.5058
G1Z5F20000
(Plotting speed under)
G1 F4000


G1X80.1506Y-304.9144

G1X130.3556Y-307.4943

G1X185.3786Y-314.8923

G1X233.8803Y-315.7689

G1X272.7316Y-306.9952

G1 Z0F20000

(Start Block)


G1X22.8996Y-296.3468
G1Z5F20000
(Plotting speed under)
G1 F4000


G1X80.7870Y-306.6091

G1X130.6504Y-308.8475

G1X185.5796Y-316.1516

G1X233.8189Y-316.7658

G1X272.4787Y-307.8006

G1 Z0F20000

(Start Block)


G1X22.6823Y-297.1878
G1Z5F20000
(Plotting speed under)
G1 F4000


G1X81.4233Y-308.3038

G1X130.9452Y-310.2006

G1X185.7805Y-317.4108

G1X233.7575Y-317.7628

G1X272.2257Y-308.6060

G1 Z0F20000

(Start Block)


G1X22.4650Y-298.0288
G1Z5F20000
(Plotting speed under)
G1 F4000


G1X82.0597Y-309.9984

G1X131.2401Y-311.5538

G1X185.9815Y-318.6702

G1X233.6961Y-318.7598

G1X271.9728Y-309.4114

G1 Z0F20000

(Start Block)


G1X22.2476Y-298.8698
G1Z5F20000
(Plotting speed under)
G1 F4000


G1X82.6960Y-311.6931

G1X131.5349Y-312.9069

G1X186.1824Y-319.9294

G1X233.6348Y-319.7567

G1X271.7198Y-310.2167

G1 Z0F20000

(Start Block)


G1X22.0303Y-299.7108
G1Z5F20000
(Plotting speed under)
G1 F4000


G1X83.3324Y-313.3878

G1X131.8297Y-314.2601

G1X186.3834Y-321.1887

G1X233.5734Y-320.7537

G1X271.4669Y-311.0221

G1 Z0F20000

(Start Block)


G1X21.8130Y-300.5518
G1Z5F20000
(Plotting speed under)
G1 F4000


G1X83.9687Y-315.0825

G1X132.1245Y-315.6132

G1X186.5843Y-322.4480

G1X233.5120Y-321.7507

G1X271.2140Y-311.8275

G1 Z0F20000

(Start Block)


G1X21.5956Y-301.3928
G1Z5F20000
(Plotting speed under)
G1 F4000


G1X84.6051Y-316.7772

G1X132.4193Y-316.9664

G1X186.7853Y-323.7073

G1X233.4506Y-322.7476

G1X270.9610Y-312.6329

G1 Z0F20000

(Start Block)


G1X21.3783Y-302.2338
G1Z5F20000
(Plotting speed under)
G1 F4000


G1X85.2414Y-318.4719

G1X132.7141Y-318.3195

G1X186.9862Y-324.9666

G1X233.3893Y-323.7446

G1X270.7081Y-313.4383

G1 Z0F20000

(Start Block)


G1X21.1610Y-303.0748
G1Z5F20000
(Plotting speed under)
G1 F4000


G1X85.8778Y-320.1666

G1X133.0090Y-319.6727

G1X187.1872Y-326.2259

G1X233.3279Y-324.7415

G1X270.4551Y-314.2437

G1 Z0F20000

(Start Block)


G1X20.9436Y-303.9158
G1Z5F20000
(Plotting speed under)
G1 F4000


G1X86.5141Y-321.8613

G1X133.3038Y-321.0259

G1X187.3881Y-327.4852

G1X233.2665Y-325.7385

G1X270.2022Y-315.0491

G1 Z0F20000

(Start Block)


G1X20.7263Y-304.7568
G1Z5F20000
(Plotting speed under)
G1 F4000


G1X87.1505Y-323.5560

G1X133.5986Y-322.3790

G1X187.5891Y-328.7444

G1X233.2051Y-326.7355

G1X269.9493Y-315.8545

G1 Z0F20000

(Start Block)


G1X20.5090Y-305.5978
G1Z5F20000
(Plotting speed under)
G1 F4000


G1X87.7868Y-325.2506

G1X133.8934Y-323.7322

G1X187.7900Y-330.0037

G1X233.1438Y-327.7324

G1X269.6963Y-316.6599

G1 Z0F20000

(Start Block)


G1X20.2916Y-306.4388
G1Z5F20000
(Plotting speed under)
G1 F4000


G1X88.4232Y-326.9453

G1X134.1882Y-325.0853

G1X187.9910Y-331.2630

G1X233.0824Y-328.7294

G1X269.4434Y-317.4653

G1 Z0F20000

(Start Block)


G1X20.0743Y-307.2798
G1Z5F20000
(Plotting speed under)
G1 F4000


G1X89.0595Y-328.6400

G1X134.4831Y-326.4385

G1X188.1919Y-332.5223

G1X233.0210Y-329.7263

G1X269.1904Y-318.2707

G1 Z0F20000

(Start Block)


G1X19.8569Y-308.1208
G1Z5F20000
(Plotting speed under)
G1 F4000


G1X89.6959Y-330.3347

G1X134.7779Y-327.7916

G1X188.3929Y-333.7816

G1X232.9596Y-330.7233

G1X268.9375Y-319.0761

G1 Z0F20000

(Start Block)


G1X19.6396Y-308.9618
G1Z5F20000
(Plotting speed under)
G1 F4000


G1X90.3322Y-332.0294

G1X135.0727Y-329.1448

G1X188.5938Y-335.0408

G1X232.8983Y-331.7202

G1X268.6845Y-319.8815

G1 Z0F20000

(Start Block)


G1X19.4223Y-309.8028
G1Z5F20000
(Plotting speed under)
G1 F4000


G1X90.9686Y-333.7241

G1X135.3675Y-330.4979

G1X188.7948Y-336.3001

G1X232.8369Y-332.7172

G1X268.4316Y-320.6869

G1 Z0F20000

(Start Block)


G1X19.2049Y-310.6438
G1Z5F20000
(Plotting speed under)
G1 F4000


G1X91.6049Y-335.4187

G1X135.6623Y-331.8511

G1X188.9957Y-337.5594

G1X232.7755Y-333.7142

G1X268.1787Y-321.4923

G1 Z0F20000

(Start Block)


G1X18.9876Y-311.4848
G1Z5F20000
(Plotting speed under)
G1 F4000


G1X92.2413Y-337.1134

G1X135.9571Y-333.2042

G1X189.1967Y-338.8187

G1X232.7141Y-334.7111

G1X267.9257Y-322.2977

G1 Z0F20000

(Start Block)


G1X18.7703Y-312.3258
G1Z5F20000
(Plotting speed under)
G1 F4000


G1X92.8776Y-338.8081

G1X136.2520Y-334.5574

G1X189.3976Y-340.0780

G1X232.6527Y-335.7081

G1X267.6728Y-323.1031

G1 Z0F20000

(Start Block)


G1X18.8815Y-313.4954
G1Z5F20000
(Plotting speed under)
G1 F4000


G1X92.5217Y-339.5106

G1X135.6541Y-335.0179

G1X189.4326Y-341.1713

G1X232.1934Y-336.3071

G1X267.5154Y-324.0040

G1 Z0F20000

(Start Block)


G1X18.9927Y-314.6649
G1Z5F20000
(Plotting speed under)
G1 F4000


G1X92.1659Y-340.2130

G1X135.0563Y-335.4784

G1X189.4676Y-342.2646

G1X231.7341Y-336.9060

G1X267.3580Y-324.9050

G1 Z0F20000

(Start Block)


G1X19.1040Y-315.8345
G1Z5F20000
(Plotting speed under)
G1 F4000


G1X91.8099Y-340.9154

G1X134.4584Y-335.9388

G1X189.5025Y-343.3579

G1X231.2747Y-337.5050

G1X267.2007Y-325.8059

G1 Z0F20000

(Start Block)


G1X19.2152Y-317.0041
G1Z5F20000
(Plotting speed under)
G1 F4000


G1X91.4540Y-341.6179

G1X133.8606Y-336.3993

G1X189.5375Y-344.4513

G1X230.8153Y-338.1040

G1X267.0433Y-326.7069

G1 Z0F20000

(Start Block)


G1X19.3264Y-318.1736
G1Z5F20000
(Plotting speed under)
G1 F4000


G1X91.0982Y-342.3203

G1X133.2627Y-336.8598

G1X189.5725Y-345.5446

G1X230.3560Y-338.7030

G1X266.8859Y-327.6079

G1 Z0F20000

(Start Block)


G1X19.4377Y-319.3432
G1Z5F20000
(Plotting speed under)
G1 F4000


G1X90.7422Y-343.0227

G1X132.6649Y-337.3203

G1X189.6075Y-346.6379

G1X229.8967Y-339.3020

G1X266.7285Y-328.5088

G1 Z0F20000

(Start Block)


G1X19.5489Y-320.5128
G1Z5F20000
(Plotting speed under)
G1 F4000


G1X90.3863Y-343.7252

G1X132.0670Y-337.7808

G1X189.6425Y-347.7312

G1X229.4373Y-339.9009

G1X266.5712Y-329.4098

G1 Z0F20000

(Start Block)


G1X19.6601Y-321.6824
G1Z5F20000
(Plotting speed under)
G1 F4000


G1X90.0305Y-344.4276

G1X131.4692Y-338.2413

G1X189.6775Y-348.8245

G1X228.9779Y-340.4999

G1X266.4138Y-330.3107

G1 Z0F20000

(Start Block)


G1X19.7714Y-322.8519
G1Z5F20000
(Plotting speed under)
G1 F4000


G1X89.6745Y-345.1300

G1X130.8713Y-338.7018

G1X189.7124Y-349.9178

G1X228.5186Y-341.0989

G1X266.2564Y-331.2117

G1 Z0F20000

(Start Block)


G1X19.8826Y-324.0215
G1Z5F20000
(Plotting speed under)
G1 F4000


G1X89.3186Y-345.8325

G1X130.2735Y-339.1623

G1X189.7474Y-351.0111

G1X228.0592Y-341.6979

G1X266.0991Y-332.1127

G1 Z0F20000

(Start Block)


G1X19.9939Y-325.1911
G1Z5F20000
(Plotting speed under)
G1 F4000


G1X88.9628Y-346.5349

G1X129.6756Y-339.6227

G1X189.7824Y-352.1044

G1X227.5999Y-342.2969

G1X265.9417Y-333.0137

G1 Z0F20000

(Start Block)


G1X20.1051Y-326.3606
G1Z5F20000
(Plotting speed under)
G1 F4000


G1X88.6068Y-347.2373

G1X129.0778Y-340.0832

G1X189.8174Y-353.1978

G1X227.1405Y-342.8959

G1X265.7843Y-333.9146

G1 Z0F20000

(Start Block)


G1X20.2163Y-327.5302
G1Z5F20000
(Plotting speed under)
G1 F4000


G1X88.2509Y-347.9398

G1X128.4799Y-340.5437

G1X189.8524Y-354.2911

G1X226.6812Y-343.4948

G1X265.6269Y-334.8156

G1 Z0F20000

(Start Block)


G1X20.3276Y-328.6998
G1Z5F20000
(Plotting speed under)
G1 F4000


G1X87.8951Y-348.6422

G1X127.8821Y-341.0042

G1X189.8874Y-355.3844

G1X226.2218Y-344.0938

G1X265.4696Y-335.7165

G1 Z0F20000

(Start Block)


G1X20.4388Y-329.8693
G1Z5F20000
(Plotting speed under)
G1 F4000


G1X87.5391Y-349.3446

G1X127.2843Y-341.4647

G1X189.9223Y-356.4777

G1X225.7625Y-344.6928

G1X265.3122Y-336.6175

G1 Z0F20000

(Start Block)


G1X20.5500Y-331.0389
G1Z5F20000
(Plotting speed under)
G1 F4000


G1X87.1832Y-350.0471

G1X126.6864Y-341.9252

G1X189.9573Y-357.5710

G1X225.3031Y-345.2918

G1X265.1548Y-337.5185

G1 Z0F20000

(Start Block)


G1X20.6612Y-332.2085
G1Z5F20000
(Plotting speed under)
G1 F4000


G1X86.8274Y-350.7495

G1X126.0886Y-342.3856

G1X189.9923Y-358.6643

G1X224.8438Y-345.8908

G1X264.9974Y-338.4194

G1 Z0F20000

(Start Block)


G1X20.7725Y-333.3781
G1Z5F20000
(Plotting speed under)
G1 F4000


G1X86.4714Y-351.4519

G1X125.4907Y-342.8461

G1X190.0273Y-359.7576

G1X224.3844Y-346.4898

G1X264.8401Y-339.3204

G1 Z0F20000

(Start Block)


G1X20.8837Y-334.5476
G1Z5F20000
(Plotting speed under)
G1 F4000


G1X86.1155Y-352.1544

G1X124.8929Y-343.3066

G1X190.0623Y-360.8510

G1X223.9251Y-347.0888

G1X264.6827Y-340.2214

G1 Z0F20000

(Start Block)


G1X20.9950Y-335.7172
G1Z5F20000
(Plotting speed under)
G1 F4000


G1X85.7596Y-352.8568

G1X124.2950Y-343.7671

G1X190.0972Y-361.9443

G1X223.4657Y-347.6877

G1X264.5253Y-341.1223

G1 Z0F20000

(Start Block)


G1X21.1062Y-336.8868
G1Z5F20000
(Plotting speed under)
G1 F4000


G1X85.4037Y-353.5592

G1X123.6972Y-344.2276

G1X190.1322Y-363.0376

G1X223.0064Y-348.2867

G1X264.3680Y-342.0233

G1 Z0F20000

(Start Block)


G1X21.2174Y-338.0563
G1Z5F20000
(Plotting speed under)
G1 F4000


G1X85.0478Y-354.2617

G1X123.0993Y-344.6881

G1X190.1672Y-364.1309

G1X222.5470Y-348.8857

G1X264.2106Y-342.9242

G1 Z0F20000

(Start Block)


G1X21.3287Y-339.2259
G1Z5F20000
(Plotting speed under)
G1 F4000


G1X84.6919Y-354.9641

G1X122.5015Y-345.1486

G1X190.2022Y-365.2242

G1X222.0877Y-349.4847

G1X264.0532Y-343.8252

G1 Z0F20000

(Start Block)


G1X21.4399Y-340.3955
G1Z5F20000
(Plotting speed under)
G1 F4000


G1X84.3360Y-355.6665

G1X121.9036Y-345.6091

G1X190.2372Y-366.3175

G1X221.6283Y-350.0837

G1X263.8959Y-344.7262

G1 Z0F20000

(Start Block)


G1X21.5511Y-341.5650
G1Z5F20000
(Plotting speed under)
G1 F4000


G1X83.9801Y-356.3690

G1X121.3058Y-346.0696

G1X190.2721Y-367.4109

G1X221.1690Y-350.6826

G1X263.7385Y-345.6271

G1 Z0F20000

(Start Block)


G1X21.6624Y-342.7346
G1Z5F20000
(Plotting speed under)
G1 F4000


G1X83.6242Y-357.0714

G1X120.7079Y-346.5300

G1X190.3071Y-368.5042

G1X220.7096Y-351.2816

G1X263.5811Y-346.5281

G1 Z0F20000

(Start Block)


G1X21.7736Y-343.9042
G1Z5F20000
(Plotting speed under)
G1 F4000


G1X83.2683Y-357.7738

G1X120.1101Y-346.9905

G1X190.3421Y-369.5975

G1X220.2502Y-351.8806

G1X263.4237Y-347.4290

G1 Z0F20000

(Start Block)


G1X21.8848Y-345.0737
G1Z5F20000
(Plotting speed under)
G1 F4000


G1X82.9124Y-358.4763

G1X119.5122Y-347.4510

G1X190.3771Y-370.6908

G1X219.7909Y-352.4796

G1X263.2664Y-348.3300

G1 Z0F20000

(Start Block)


G1X21.9961Y-346.2433
G1Z5F20000
(Plotting speed under)
G1 F4000


G1X82.5565Y-359.1787

G1X118.9144Y-347.9115

G1X190.4121Y-371.7842

G1X219.3315Y-353.0786

G1X263.1090Y-349.2310

G1 Z0F20000

(Start Block)


G1X22.1073Y-347.4129
G1Z5F20000
(Plotting speed under)
G1 F4000


G1X82.2006Y-359.8811

G1X118.3165Y-348.3720

G1X190.4471Y-372.8775

G1X218.8722Y-353.6775

G1X262.9516Y-350.1319

G1 Z0F20000

(Start Block)


G1X22.2186Y-348.5825
G1Z5F20000
(Plotting speed under)
G1 F4000


G1X81.8447Y-360.5836

G1X117.7187Y-348.8325

G1X190.4820Y-373.9708

G1X218.4128Y-354.2765

G1X262.7943Y-351.0329

G1 Z0F20000

(Start Block)


G1X22.3298Y-349.7520
G1Z5F20000
(Plotting speed under)
G1 F4000


G1X81.4888Y-361.2860

G1X117.1208Y-349.2929

G1X190.5170Y-375.0641

G1X217.9535Y-354.8755

G1X262.6369Y-351.9339

G1 Z0F20000

(Start Block)


G1X22.4410Y-350.9216
G1Z5F20000
(Plotting speed under)
G1 F4000


G1X81.1329Y-361.9884

G1X116.5230Y-349.7535

G1X190.5520Y-376.1574

G1X217.4941Y-355.4745

G1X262.4795Y-352.8348

G1 Z0F20000

(Start Block)


G1X22.5522Y-352.0912
G1Z5F20000
(Plotting speed under)
G1 F4000


G1X80.7770Y-362.6909

G1X115.9251Y-350.2139

G1X190.5870Y-377.2507

G1X217.0348Y-356.0735

G1X262.3221Y-353.7358

G1 Z0F20000

(Start Block)


G1X22.6635Y-353.2607
G1Z5F20000
(Plotting speed under)
G1 F4000


G1X80.4211Y-363.3933

G1X115.3273Y-350.6744

G1X190.6220Y-378.3441

G1X216.5754Y-356.6725

G1X262.1648Y-354.6367

G1 Z0F20000

(Start Block)


G1X22.7747Y-354.4303
G1Z5F20000
(Plotting speed under)
G1 F4000


G1X80.0652Y-364.0957

G1X114.7294Y-351.1349

G1X190.6569Y-379.4374

G1X216.1161Y-357.2714

G1X262.0074Y-355.5377

G1 Z0F20000

(Start Block)


G1X22.8859Y-355.5998
G1Z5F20000
(Plotting speed under)
G1 F4000


G1X79.7093Y-364.7981

G1X114.1316Y-351.5954

G1X190.6919Y-380.5307

G1X215.6567Y-357.8704

G1X261.8500Y-356.4387

G1 Z0F20000

(Start Block)


G1X22.9972Y-356.7694
G1Z5F20000
(Plotting speed under)
G1 F4000


G1X79.3534Y-365.5006

G1X113.5337Y-352.0559

G1X190.7269Y-381.6240

G1X215.1974Y-358.4694

G1X261.6927Y-357.3396

G1 Z0F20000

(Start Block)


G1X23.1084Y-357.9390
G1Z5F20000
(Plotting speed under)
G1 F4000


G1X78.9975Y-366.2030

G1X112.9359Y-352.5164

G1X190.7619Y-382.7173

G1X214.7380Y-359.0684

G1X261.5353Y-358.2406

G1 Z0F20000

(Start Block)


G1X23.2197Y-359.1086
G1Z5F20000
(Plotting speed under)
G1 F4000


G1X78.6416Y-366.9054

G1X112.3380Y-352.9768

G1X190.7969Y-383.8106

G1X214.2787Y-359.6674

G1X261.3779Y-359.1416

G1 Z0F20000

(Start Block)


G1X23.3309Y-360.2781
G1Z5F20000
(Plotting speed under)
G1 F4000


G1X78.2857Y-367.6079

G1X111.7402Y-353.4373

G1X190.8318Y-384.9039

G1X213.8193Y-360.2664

G1X261.2205Y-360.0425

G1 Z0F20000

(Start Block)


G1X23.4421Y-361.4477
G1Z5F20000
(Plotting speed under)
G1 F4000


G1X77.9298Y-368.3104

G1X111.1424Y-353.8978

G1X190.8668Y-385.9973

G1X213.3600Y-360.8653

G1X261.0632Y-360.9435

G1 Z0F20000

(Start Block)


G1X23.5534Y-362.6173
G1Z5F20000
(Plotting speed under)
G1 F4000


G1X77.5739Y-369.0128

G1X110.5445Y-354.3583

G1X190.9018Y-387.0906

G1X212.9006Y-361.4643

G1X260.9058Y-361.8444

G1 Z0F20000

(Start Block)


G1X23.6646Y-363.7869
G1Z5F20000
(Plotting speed under)
G1 F4000


G1X77.2180Y-369.7152

G1X109.9467Y-354.8188

G1X190.9368Y-388.1839

G1X212.4413Y-362.0633

G1X260.7484Y-362.7454

G1 Z0F20000

(Start Block)


G1X23.7758Y-364.9564
G1Z5F20000
(Plotting speed under)
G1 F4000


G1X76.8621Y-370.4177

G1X109.3488Y-355.2793

G1X190.9718Y-389.2772

G1X211.9819Y-362.6623

G1X260.5910Y-363.6464

G1 Z0F20000


G00 X0.0000 Y0.0000


