$H
G21
G17
G90
G1 Z0F20000
G1 F15000
(Start Layer)
(Start Block)

G1X26.8719Y-50.0880
G1 Z3.0F20000
(Plotting speed under)
G1 F10000

G1X17.7958Y-64.8244
G1X24.4545Y-95.2956
G1X15.2946Y-109.9482
G1X15.3010Y-133.7672
G1X20.4048Y-162.6835
G1X21.8205Y-187.9118
G1X16.5796Y-206.4834
G1X21.9290Y-235.6453
G1X18.3193Y-255.8481
G1 Z0F20000
(Start Block)

G1X27.5905Y-49.8908
G1 Z3.0F20000
(Plotting speed under)
G1 F10000

G1X18.8409Y-64.9537
G1X25.3096Y-95.2348
G1X16.5083Y-110.2461
G1X16.6589Y-134.2092
G1X21.3112Y-162.6740
G1X22.4781Y-187.6535
G1X17.3991Y-206.3870
G1X22.6323Y-235.4328
G1X19.3219Y-255.9349
G1 Z0F20000
(Start Block)

G1X28.3092Y-49.6936
G1 Z3.0F20000
(Plotting speed under)
G1 F10000

G1X19.8861Y-65.0830
G1X26.1646Y-95.1740
G1X17.7221Y-110.5440
G1X18.0167Y-134.6512
G1X22.2176Y-162.6645
G1X23.1357Y-187.3952
G1X18.2186Y-206.2907
G1X23.3356Y-235.2202
G1X20.3246Y-256.0217
G1 Z0F20000
(Start Block)

G1X29.0279Y-49.4964
G1 Z3.0F20000
(Plotting speed under)
G1 F10000

G1X20.9313Y-65.2123
G1X27.0196Y-95.1132
G1X18.9359Y-110.8420
G1X19.3746Y-135.0932
G1X23.1240Y-162.6551
G1X23.7933Y-187.1369
G1X19.0381Y-206.1943
G1X24.0389Y-235.0076
G1X21.3272Y-256.1084
G1 Z0F20000
(Start Block)

G1X29.7465Y-49.2992
G1 Z3.0F20000
(Plotting speed under)
G1 F10000

G1X21.9764Y-65.3416
G1X27.8747Y-95.0524
G1X20.1496Y-111.1399
G1X20.7324Y-135.5352
G1X24.0303Y-162.6456
G1X24.4508Y-186.8786
G1X19.8576Y-206.0979
G1X24.7422Y-234.7951
G1X22.3299Y-256.1952
G1 Z0F20000
(Start Block)

G1X30.4652Y-49.1020
G1 Z3.0F20000
(Plotting speed under)
G1 F10000

G1X23.0216Y-65.4709
G1X28.7297Y-94.9915
G1X21.3634Y-111.4377
G1X22.0903Y-135.9772
G1X24.9368Y-162.6361
G1X25.1084Y-186.6204
G1X20.6771Y-206.0016
G1X25.4455Y-234.5825
G1X23.3325Y-256.2820
G1 Z0F20000
(Start Block)

G1X31.1839Y-48.9048
G1 Z3.0F20000
(Plotting speed under)
G1 F10000

G1X24.0667Y-65.6002
G1X29.5848Y-94.9307
G1X22.5772Y-111.7357
G1X23.4482Y-136.4192
G1X25.8432Y-162.6267
G1X25.7660Y-186.3621
G1X21.4966Y-205.9052
G1X26.1488Y-234.3699
G1X24.3351Y-256.3688
G1 Z0F20000
(Start Block)

G1X31.9025Y-48.7076
G1 Z3.0F20000
(Plotting speed under)
G1 F10000

G1X25.1119Y-65.7294
G1X30.4398Y-94.8699
G1X23.7909Y-112.0336
G1X24.8061Y-136.8612
G1X26.7496Y-162.6172
G1X26.4236Y-186.1038
G1X22.3162Y-205.8089
G1X26.8521Y-234.1573
G1X25.3378Y-256.4556
G1 Z0F20000
(Start Block)

G1X32.6212Y-48.5104
G1 Z3.0F20000
(Plotting speed under)
G1 F10000

G1X26.1571Y-65.8587
G1X31.2949Y-94.8091
G1X25.0048Y-112.3315
G1X26.1639Y-137.3032
G1X27.6560Y-162.6077
G1X27.0812Y-185.8455
G1X23.1357Y-205.7125
G1X27.5554Y-233.9448
G1X26.3404Y-256.5423
G1 Z0F20000
(Start Block)

G1X33.3399Y-48.3132
G1 Z3.0F20000
(Plotting speed under)
G1 F10000

G1X27.2023Y-65.9880
G1X32.1499Y-94.7482
G1X26.2185Y-112.6294
G1X27.5218Y-137.7452
G1X28.5624Y-162.5983
G1X27.7388Y-185.5872
G1X23.9552Y-205.6162
G1X28.2587Y-233.7322
G1X27.3431Y-256.6291
G1 Z0F20000
(Start Block)

G1X34.0586Y-48.1160
G1 Z3.0F20000
(Plotting speed under)
G1 F10000

G1X28.2474Y-66.1173
G1X33.0050Y-94.6874
G1X27.4323Y-112.9273
G1X28.8796Y-138.1872
G1X29.4688Y-162.5888
G1X28.3963Y-185.3289
G1X24.7747Y-205.5198
G1X28.9620Y-233.5196
G1X28.3457Y-256.7159
G1 Z0F20000
(Start Block)

G1X34.7772Y-47.9188
G1 Z3.0F20000
(Plotting speed under)
G1 F10000

G1X29.2926Y-66.2466
G1X33.8600Y-94.6266
G1X28.6461Y-113.2252
G1X30.2375Y-138.6292
G1X30.3752Y-162.5793
G1X29.0539Y-185.0706
G1X25.5942Y-205.4235
G1X29.6653Y-233.3070
G1X29.3484Y-256.8027
G1 Z0F20000
(Start Block)

G1X35.4959Y-47.7216
G1 Z3.0F20000
(Plotting speed under)
G1 F10000

G1X30.3377Y-66.3760
G1X34.7150Y-94.5658
G1X29.8598Y-113.5231
G1X31.5954Y-139.0712
G1X31.2815Y-162.5699
G1X29.7115Y-184.8124
G1X26.4137Y-205.3271
G1X30.3686Y-233.0945
G1X30.3510Y-256.8894
G1 Z0F20000
(Start Block)

G1X36.2146Y-47.5244
G1 Z3.0F20000
(Plotting speed under)
G1 F10000

G1X31.3829Y-66.5052
G1X35.5701Y-94.5050
G1X31.0736Y-113.8210
G1X32.9532Y-139.5131
G1X32.1880Y-162.5604
G1X30.3691Y-184.5541
G1X27.2333Y-205.2308
G1X31.0719Y-232.8819
G1X31.3536Y-256.9762
G1 Z0F20000
(Start Block)

G1X36.9333Y-47.3272
G1 Z3.0F20000
(Plotting speed under)
G1 F10000

G1X32.4281Y-66.6345
G1X36.4252Y-94.4442
G1X32.2874Y-114.1189
G1X34.3111Y-139.9552
G1X33.0943Y-162.5509
G1X31.0267Y-184.2958
G1X28.0528Y-205.1344
G1X31.7752Y-232.6693
G1X32.3563Y-257.0630
G1 Z0F20000
(Start Block)

G1X37.6519Y-47.1300
G1 Z3.0F20000
(Plotting speed under)
G1 F10000

G1X33.4732Y-66.7638
G1X37.2802Y-94.3833
G1X33.5011Y-114.4168
G1X35.6689Y-140.3971
G1X34.0007Y-162.5414
G1X31.6843Y-184.0375
G1X28.8723Y-205.0380
G1X32.4784Y-232.4567
G1X33.3589Y-257.1497
G1 Z0F20000
(Start Block)

G1X38.3706Y-46.9328
G1 Z3.0F20000
(Plotting speed under)
G1 F10000

G1X34.5184Y-66.8931
G1X38.1352Y-94.3225
G1X34.7149Y-114.7147
G1X37.0268Y-140.8391
G1X34.9071Y-162.5320
G1X29.6918Y-204.9417
G1X33.1817Y-232.2442
G1X34.3616Y-257.2365
G1 Z0F20000
(Start Block)

G1X39.0893Y-46.7356
G1 Z3.0F20000
(Plotting speed under)
G1 F10000

G1X35.5636Y-67.0224
G1X38.9903Y-94.2617
G1X35.9287Y-115.0126
G1X38.3847Y-141.2811
G1X35.8135Y-162.5225
G1X32.9994Y-183.5209
G1X30.5113Y-204.8453
G1X33.8850Y-232.0316
G1X35.3642Y-257.3233
G1 Z0F20000
(Start Block)

G1X39.8079Y-46.5384
G1 Z3.0F20000
(Plotting speed under)
G1 F10000

G1X36.6087Y-67.1517
G1X39.8453Y-94.2009
G1X37.1424Y-115.3105
G1X39.7425Y-141.7231
G1X33.6570Y-183.2627
G1X31.3308Y-204.7490
G1X34.5883Y-231.8190
G1X36.3669Y-257.4101
G1 Z0F20000
(Start Block)

G1X40.5266Y-46.3412
G1 Z3.0F20000
(Plotting speed under)
G1 F10000

G1X37.6539Y-67.2810
G1X40.7004Y-94.1401
G1X38.3562Y-115.6084
G1X41.1004Y-142.1651
G1X37.6263Y-162.5036
G1X34.3146Y-183.0044
G1X32.1503Y-204.6526
G1X35.2916Y-231.6065
G1X37.3695Y-257.4968
G1 Z0F20000
(Start Block)

G1X41.2453Y-46.1440
G1 Z3.0F20000
(Plotting speed under)
G1 F10000

G1X38.6990Y-67.4103
G1X41.5554Y-94.0792
G1X39.5700Y-115.9063
G1X42.4583Y-142.6071
G1X38.5327Y-162.4941
G1X34.9722Y-182.7461
G1X32.9699Y-204.5563
G1X35.9949Y-231.3939
G1X38.3721Y-257.5836
G1 Z0F20000
(Start Block)

G1X41.9639Y-45.9469
G1 Z3.0F20000
(Plotting speed under)
G1 F10000

G1X39.7442Y-67.5396
G1X42.4105Y-94.0184
G1X40.7838Y-116.2042
G1X43.8161Y-143.0491
G1X39.4391Y-162.4846
G1X35.6298Y-182.4878
G1X33.7893Y-204.4599
G1X36.6982Y-231.1813
G1X39.3748Y-257.6704
G1 Z0F20000
(Start Block)

G1X42.6826Y-45.7497
G1 Z3.0F20000
(Plotting speed under)
G1 F10000

G1X40.7894Y-67.6689
G1X43.2655Y-93.9576
G1X41.9975Y-116.5021
G1X45.1740Y-143.4911
G1X40.3455Y-162.4752
G1X36.2873Y-182.2295
G1X34.6089Y-204.3636
G1X37.4015Y-230.9688
G1X40.3774Y-257.7572
G1 Z0F20000
(Start Block)

G1X43.4013Y-45.5525
G1 Z3.0F20000
(Plotting speed under)
G1 F10000

G1X41.8345Y-67.7982
G1X44.1206Y-93.8968
G1X43.2113Y-116.8000
G1X46.5318Y-143.9331
G1X41.2519Y-162.4657
G1X36.9449Y-181.9712
G1X35.4284Y-204.2672
G1X38.1048Y-230.7562
G1X41.3801Y-257.8439
G1 Z0F20000
(Start Block)

G1X44.1200Y-45.3553
G1 Z3.0F20000
(Plotting speed under)
G1 F10000

G1X42.8797Y-67.9275
G1X44.9756Y-93.8360
G1X44.4251Y-117.0979
G1X47.8897Y-144.3751
G1X42.1583Y-162.4562
G1X37.6025Y-181.7129
G1X36.2479Y-204.1709
G1X38.8081Y-230.5436
G1X42.3827Y-257.9307
G1 Z0F20000
(Start Block)

G1X44.8386Y-45.1581
G1 Z3.0F20000
(Plotting speed under)
G1 F10000

G1X43.9249Y-68.0568
G1X45.8307Y-93.7752
G1X45.6389Y-117.3958
G1X49.2476Y-144.8171
G1X43.0647Y-162.4467
G1X38.2601Y-181.4547
G1X37.0674Y-204.0745
G1X39.5114Y-230.3310
G1X43.3853Y-258.0175
G1 Z0F20000
(Start Block)

G1X45.5573Y-44.9609
G1 Z3.0F20000
(Plotting speed under)
G1 F10000

G1X44.9700Y-68.1861
G1X46.6857Y-93.7143
G1X46.8526Y-117.6937
G1X50.6054Y-145.2591
G1X43.9711Y-162.4373
G1X38.9177Y-181.1964
G1X37.8869Y-203.9781
G1X40.2147Y-230.1185
G1X44.3880Y-258.1043
G1 Z0F20000
(Start Block)

G1X46.4828Y-44.9705
G1 Z3.0F20000
(Plotting speed under)
G1 F10000

G1X46.1139Y-68.4141
G1X47.4898Y-93.6026
G1X47.3906Y-117.3159
G1X50.9943Y-144.7321
G1X44.9696Y-162.5200
G1X40.1157Y-181.4786
G1X38.8126Y-203.9880
G1X41.2314Y-230.2193
G1X45.2932Y-258.0936
G1 Z0F20000
(Start Block)

G1X47.4084Y-44.9802
G1 Z3.0F20000
(Plotting speed under)
G1 F10000

G1X47.2577Y-68.6421
G1X48.2939Y-93.4908
G1X47.9286Y-116.9380
G1X51.3832Y-144.2051
G1X45.9682Y-162.6026
G1X41.3138Y-181.7608
G1X39.7383Y-203.9978
G1X42.2482Y-230.3202
G1X46.1984Y-258.0830
G1 Z0F20000
(Start Block)

G1X48.3339Y-44.9898
G1 Z3.0F20000
(Plotting speed under)
G1 F10000

G1X48.4016Y-68.8700
G1X49.0980Y-93.3790
G1X48.4666Y-116.5601
G1X51.7721Y-143.6781
G1X46.9667Y-162.6853
G1X42.5118Y-182.0430
G1X40.6640Y-204.0076
G1X43.2649Y-230.4211
G1X47.1037Y-258.0724
G1 Z0F20000
(Start Block)

G1X49.2594Y-44.9995
G1 Z3.0F20000
(Plotting speed under)
G1 F10000

G1X49.9021Y-93.2673
G1X49.0046Y-116.1823
G1X52.1609Y-143.1511
G1X43.7099Y-182.3252
G1X41.5896Y-204.0174
G1X44.2817Y-230.5220
G1X48.0089Y-258.0617
G1 Z0F20000
(Start Block)

G1X50.1849Y-45.0091
G1 Z3.0F20000
(Plotting speed under)
G1 F10000

G1X50.6892Y-69.3260
G1X50.7062Y-93.1555
G1X49.5426Y-115.8044
G1X52.5498Y-142.6241
G1X48.9638Y-162.8507
G1X44.9079Y-182.6073
G1X42.5153Y-204.0272
G1X45.2984Y-230.6228
G1X48.9141Y-258.0511
G1 Z0F20000
(Start Block)

G1X51.1104Y-45.0188
G1 Z3.0F20000
(Plotting speed under)
G1 F10000

G1X51.8331Y-69.5539
G1X51.5103Y-93.0437
G1X50.0806Y-115.4266
G1X52.9387Y-142.0971
G1X49.9623Y-162.9333
G1X46.1060Y-182.8895
G1X43.4410Y-204.0370
G1X46.3152Y-230.7237
G1X49.8194Y-258.0405
G1 Z0F20000
(Start Block)

G1X52.0359Y-45.0285
G1 Z3.0F20000
(Plotting speed under)
G1 F10000

G1X52.9769Y-69.7819
G1X52.3144Y-92.9320
G1X50.6186Y-115.0487
G1X53.3275Y-141.5702
G1X50.9609Y-163.0160
G1X47.3041Y-183.1717
G1X44.3667Y-204.0469
G1X47.3319Y-230.8246
G1X50.7246Y-258.0298
G1 Z0F20000
(Start Block)

G1X52.9615Y-45.0381
G1 Z3.0F20000
(Plotting speed under)
G1 F10000

G1X54.1208Y-70.0099
G1X53.1185Y-92.8202
G1X51.1566Y-114.6708
G1X53.7164Y-141.0432
G1X51.9594Y-163.0987
G1X48.5021Y-183.4539
G1X45.2924Y-204.0567
G1X48.3486Y-230.9255
G1X51.6298Y-258.0192
G1 Z0F20000
(Start Block)

G1X53.8870Y-45.0478
G1 Z3.0F20000
(Plotting speed under)
G1 F10000

G1X55.2646Y-70.2379
G1X53.9226Y-92.7085
G1X51.6946Y-114.2929
G1X54.1053Y-140.5162
G1X52.9580Y-163.1814
G1X49.7002Y-183.7361
G1X46.2181Y-204.0665
G1X52.5351Y-258.0086
G1 Z0F20000
(Start Block)

G1X54.8125Y-45.0574
G1 Z3.0F20000
(Plotting speed under)
G1 F10000

G1X56.4084Y-70.4659
G1X54.7267Y-92.5967
G1X52.2326Y-113.9151
G1X54.4941Y-139.9892
G1X53.9565Y-163.2640
G1X50.8982Y-184.0183
G1X47.1437Y-204.0763
G1X50.3821Y-231.1272
G1X53.4403Y-257.9979
G1 Z0F20000
(Start Block)

G1X55.7380Y-45.0671
G1 Z3.0F20000
(Plotting speed under)
G1 F10000

G1X57.5523Y-70.6938
G1X55.5308Y-92.4849
G1X52.7706Y-113.5372
G1X54.8830Y-139.4622
G1X54.9550Y-163.3467
G1X52.0963Y-184.3005
G1X48.0694Y-204.0861
G1X51.3989Y-231.2281
G1X54.3456Y-257.9873
G1 Z0F20000
(Start Block)

G1X56.6636Y-45.0767
G1 Z3.0F20000
(Plotting speed under)
G1 F10000

G1X58.6961Y-70.9218
G1X56.3350Y-92.3732
G1X53.3086Y-113.1593
G1X55.2719Y-138.9352
G1X55.9536Y-163.4294
G1X53.2944Y-184.5827
G1X48.9951Y-204.0959
G1X52.4156Y-231.3290
G1X55.2508Y-257.9767
G1 Z0F20000
(Start Block)

G1X57.5891Y-45.0864
G1 Z3.0F20000
(Plotting speed under)
G1 F10000

G1X59.8400Y-71.1498
G1X57.1391Y-92.2614
G1X53.8466Y-112.7815
G1X55.6608Y-138.4082
G1X56.9521Y-163.5121
G1X54.4924Y-184.8649
G1X49.9208Y-204.1058
G1X53.4324Y-231.4299
G1X56.1560Y-257.9660
G1 Z0F20000
(Start Block)

G1X58.5146Y-45.0961
G1 Z3.0F20000
(Plotting speed under)
G1 F10000

G1X60.9838Y-71.3778
G1X57.9431Y-92.1497
G1X54.3846Y-112.4036
G1X56.0497Y-137.8812
G1X57.9507Y-163.5947
G1X55.6905Y-185.1471
G1X50.8465Y-204.1156
G1X54.4491Y-231.5308
G1X57.0612Y-257.9554
G1 Z0F20000
(Start Block)

G1X59.4401Y-45.1057
G1 Z3.0F20000
(Plotting speed under)
G1 F10000

G1X62.1276Y-71.6057
G1X58.7472Y-92.0379
G1X54.9226Y-112.0258
G1X56.4385Y-137.3542
G1X58.9492Y-163.6774
G1X56.8885Y-185.4293
G1X51.7721Y-204.1254
G1X55.4659Y-231.6316
G1X57.9665Y-257.9448
G1 Z0F20000
(Start Block)

G1X60.3656Y-45.1153
G1 Z3.0F20000
(Plotting speed under)
G1 F10000

G1X63.2715Y-71.8337
G1X59.5514Y-91.9261
G1X55.4606Y-111.6479
G1X56.8274Y-136.8272
G1X59.9477Y-163.7601
G1X58.0866Y-185.7115
G1X52.6978Y-204.1352
G1X56.4826Y-231.7325
G1X58.8717Y-257.9341
G1 Z0F20000
(Start Block)

G1X61.2912Y-45.1250
G1 Z3.0F20000
(Plotting speed under)
G1 F10000

G1X64.4153Y-72.0617
G1X60.3555Y-91.8144
G1X55.9986Y-111.2700
G1X57.2163Y-136.3002
G1X60.9463Y-163.8427
G1X59.2846Y-185.9936
G1X53.6235Y-204.1450
G1X57.4993Y-231.8334
G1X59.7769Y-257.9235
G1 Z0F20000
(Start Block)

G1X62.2167Y-45.1347
G1 Z3.0F20000
(Plotting speed under)
G1 F10000

G1X65.5592Y-72.2897
G1X61.1596Y-91.7026
G1X56.5366Y-110.8921
G1X57.6051Y-135.7732
G1X61.9448Y-163.9254
G1X60.4827Y-186.2758
G1X54.5492Y-204.1548
G1X58.5161Y-231.9343
G1X60.6822Y-257.9129
G1 Z0F20000
(Start Block)

G1X63.1422Y-45.1443
G1 Z3.0F20000
(Plotting speed under)
G1 F10000

G1X66.7030Y-72.5176
G1X61.9637Y-91.5908
G1X57.0746Y-110.5143
G1X57.9940Y-135.2462
G1X62.9434Y-164.0081
G1X61.6808Y-186.5580
G1X55.4749Y-204.1646
G1X59.5328Y-232.0352
G1X61.5874Y-257.9022
G1 Z0F20000
(Start Block)

G1X64.0677Y-45.1540
G1 Z3.0F20000
(Plotting speed under)
G1 F10000

G1X67.8468Y-72.7456
G1X57.6126Y-110.1364
G1X58.3829Y-134.7192
G1X63.9419Y-164.0908
G1X62.8788Y-186.8402
G1X56.4005Y-204.1745
G1X60.5496Y-232.1360
G1X62.4926Y-257.8916
G1 Z0F20000
(Start Block)

G1X64.9932Y-45.1636
G1 Z3.0F20000
(Plotting speed under)
G1 F10000

G1X68.9907Y-72.9736
G1X58.1506Y-109.7585
G1X58.7718Y-134.1922
G1X64.9405Y-164.1734
G1X64.0769Y-187.1224
G1X57.3262Y-204.1843
G1X61.5663Y-232.2369
G1X63.3979Y-257.8810
G1 Z0F20000
(Start Block)

G1X65.9188Y-45.1733
G1 Z3.0F20000
(Plotting speed under)
G1 F10000

G1X70.1345Y-73.2016
G1X58.6886Y-109.3807
G1X59.1606Y-133.6652
G1X65.9390Y-164.2561
G1X65.2749Y-187.4046
G1X58.2519Y-204.1941
G1X62.5831Y-232.3378
G1X64.3031Y-257.8704
G1 Z0F20000
(Start Block)

G1X66.8443Y-45.1829
G1 Z3.0F20000
(Plotting speed under)
G1 F10000

G1X71.2784Y-73.4295
G1X65.1801Y-91.1438
G1X59.2266Y-109.0028
G1X59.5495Y-133.1383
G1X66.9375Y-164.3388
G1X66.4730Y-187.6868
G1X59.1776Y-204.2039
G1X63.5998Y-232.4387
G1X65.2083Y-257.8597
G1 Z0F20000
(Start Block)

G1X67.7698Y-45.1926
G1 Z3.0F20000
(Plotting speed under)
G1 F10000

G1X72.4222Y-73.6576
G1X65.9842Y-91.0320
G1X59.7646Y-108.6250
G1X59.9384Y-132.6113
G1X67.9361Y-164.4215
G1X67.6710Y-187.9690
G1X60.1033Y-204.2137
G1X64.6166Y-232.5395
G1X66.1136Y-257.8491
G1 Z0F20000
(Start Block)

G1X68.6953Y-45.2023
G1 Z3.0F20000
(Plotting speed under)
G1 F10000

G1X73.5661Y-73.8855
G1X66.7883Y-90.9202
G1X60.3026Y-108.2471
G1X60.3273Y-132.0843
G1X68.9346Y-164.5041
G1X68.8691Y-188.2512
G1X61.0290Y-204.2235
G1X65.6333Y-232.6404
G1X67.0188Y-257.8384
G1 Z0F20000
(Start Block)

G1X69.6209Y-45.2119
G1 Z3.0F20000
(Plotting speed under)
G1 F10000

G1X74.7099Y-74.1135
G1X67.5924Y-90.8085
G1X60.8406Y-107.8692
G1X60.7161Y-131.5573
G1X69.9331Y-164.5868
G1X70.0672Y-188.5334
G1X61.9546Y-204.2334
G1X66.6500Y-232.7413
G1X67.9241Y-257.8278
G1 Z0F20000
(Start Block)

G1X70.4262Y-45.1014
G1 Z3.0F20000
(Plotting speed under)
G1 F10000

G1X75.4856Y-73.9733
G1X68.4275Y-90.7278
G1X61.9176Y-108.0303
G1X61.6986Y-131.6240
G1X70.6567Y-164.3945
G1X70.6603Y-188.2107
G1X62.7286Y-204.0914
G1X67.6437Y-232.8191
G1X69.1644Y-258.1523
G1 Z0F20000
(Start Block)

G1X71.2316Y-44.9909
G1 Z3.0F20000
(Plotting speed under)
G1 F10000

G1X76.2613Y-73.8331
G1X69.2627Y-90.6471
G1X62.9946Y-108.1915
G1X62.6812Y-131.6906
G1X71.3803Y-164.2022
G1X71.2535Y-187.8879
G1X63.5025Y-203.9495
G1X68.6373Y-232.8968
G1X70.4047Y-258.4767
G1 Z0F20000
(Start Block)

G1X72.0370Y-44.8804
G1 Z3.0F20000
(Plotting speed under)
G1 F10000

G1X77.0369Y-73.6929
G1X70.0978Y-90.5664
G1X64.0715Y-108.3526
G1X63.6637Y-131.7573
G1X72.1039Y-164.0099
G1X71.8466Y-187.5652
G1X64.2764Y-203.8075
G1X69.6309Y-232.9746
G1X71.6450Y-258.8012
G1 Z0F20000
(Start Block)

G1X72.8423Y-44.7699
G1 Z3.0F20000
(Plotting speed under)
G1 F10000

G1X77.8126Y-73.5527
G1X70.9330Y-90.4856
G1X65.1485Y-108.5137
G1X64.6462Y-131.8239
G1X72.8274Y-163.8176
G1X72.4398Y-187.2425
G1X65.0503Y-203.6656
G1X70.6246Y-233.0524
G1X72.8853Y-259.1256
G1 Z0F20000
(Start Block)

G1X73.6477Y-44.6594
G1 Z3.0F20000
(Plotting speed under)
G1 F10000

G1X78.5883Y-73.4125
G1X71.7682Y-90.4049
G1X66.2255Y-108.6748
G1X65.6288Y-131.8906
G1X73.5510Y-163.6254
G1X73.0329Y-186.9198
G1X65.8243Y-203.5236
G1X71.6182Y-233.1301
G1X74.1256Y-259.4501
G1 Z0F20000
(Start Block)

G1X74.4531Y-44.5489
G1 Z3.0F20000
(Plotting speed under)
G1 F10000

G1X79.3640Y-73.2723
G1X72.6033Y-90.3242
G1X67.3025Y-108.8359
G1X66.6113Y-131.9573
G1X74.2746Y-163.4331
G1X73.6261Y-186.5971
G1X66.5982Y-203.3817
G1X72.6119Y-233.2079
G1X75.3659Y-259.7745
G1 Z0F20000
(Start Block)

G1X75.2585Y-44.4384
G1 Z3.0F20000
(Plotting speed under)
G1 F10000

G1X80.1396Y-73.1321
G1X73.4385Y-90.2435
G1X68.3795Y-108.9970
G1X67.5938Y-132.0239
G1X74.9982Y-163.2408
G1X74.2192Y-186.2744
G1X67.3721Y-203.2398
G1X73.6055Y-233.2857
G1X76.6063Y-260.0989
G1 Z0F20000
(Start Block)

G1X76.0638Y-44.3279
G1 Z3.0F20000
(Plotting speed under)
G1 F10000

G1X80.9153Y-72.9919
G1X74.2737Y-90.1628
G1X69.4565Y-109.1582
G1X68.5763Y-132.0906
G1X75.7217Y-163.0485
G1X74.8124Y-185.9516
G1X68.1460Y-203.0978
G1X74.5992Y-233.3634
G1X77.8466Y-260.4234
G1 Z0F20000
(Start Block)

G1X76.8692Y-44.2174
G1 Z3.0F20000
(Plotting speed under)
G1 F10000

G1X81.6910Y-72.8517
G1X75.1088Y-90.0821
G1X70.5335Y-109.3193
G1X69.5589Y-132.1572
G1X76.4453Y-162.8562
G1X75.4055Y-185.6289
G1X68.9200Y-202.9559
G1X75.5928Y-233.4412
G1X79.0869Y-260.7478
G1 Z0F20000
(Start Block)

G1X77.6746Y-44.1069
G1 Z3.0F20000
(Plotting speed under)
G1 F10000

G1X82.4666Y-72.7115
G1X75.9440Y-90.0014
G1X71.6104Y-109.4804
G1X70.5414Y-132.2239
G1X77.1689Y-162.6639
G1X75.9987Y-185.3062
G1X69.6939Y-202.8140
G1X76.5864Y-233.5190
G1X80.3272Y-261.0723
G1 Z0F20000
(Start Block)

G1X78.4800Y-43.9964
G1 Z3.0F20000
(Plotting speed under)
G1 F10000

G1X83.2423Y-72.5713
G1X76.7791Y-89.9207
G1X72.6874Y-109.6415
G1X71.5239Y-132.2905
G1X77.8924Y-162.4716
G1X76.5918Y-184.9835
G1X70.4678Y-202.6720
G1X77.5801Y-233.5968
G1X81.5675Y-261.3967
G1 Z0F20000
(Start Block)

G1X79.2853Y-43.8860
G1 Z3.0F20000
(Plotting speed under)
G1 F10000

G1X84.0180Y-72.4311
G1X77.6143Y-89.8400
G1X73.7644Y-109.8026
G1X72.5065Y-132.3572
G1X78.6160Y-162.2793
G1X77.1850Y-184.6608
G1X71.2417Y-202.5301
G1X78.5737Y-233.6745
G1X82.8078Y-261.7212
G1 Z0F20000
(Start Block)

G1X80.0907Y-43.7755
G1 Z3.0F20000
(Plotting speed under)
G1 F10000

G1X84.7936Y-72.2909
G1X78.4494Y-89.7593
G1X74.8414Y-109.9638
G1X73.4890Y-132.4239
G1X79.3396Y-162.0870
G1X77.7781Y-184.3381
G1X72.0157Y-202.3881
G1X79.5673Y-233.7523
G1X84.0481Y-262.0456
G1 Z0F20000
(Start Block)

G1X80.8961Y-43.6650
G1 Z3.0F20000
(Plotting speed under)
G1 F10000

G1X85.5693Y-72.1507
G1X79.2846Y-89.6785
G1X75.9184Y-110.1249
G1X74.4715Y-132.4905
G1X80.0632Y-161.8947
G1X78.3713Y-184.0153
G1X72.7896Y-202.2462
G1X80.5610Y-233.8301
G1X85.2885Y-262.3701
G1 Z0F20000
(Start Block)

G1X81.7014Y-43.5545
G1 Z3.0F20000
(Plotting speed under)
G1 F10000

G1X86.3450Y-72.0105
G1X80.1197Y-89.5978
G1X76.9954Y-110.2860
G1X75.4540Y-132.5572
G1X80.7867Y-161.7024
G1X78.9644Y-183.6926
G1X73.5635Y-202.1043
G1X81.5546Y-233.9079
G1X86.5287Y-262.6945
G1 Z0F20000
(Start Block)

G1X82.5068Y-43.4440
G1 Z3.0F20000
(Plotting speed under)
G1 F10000

G1X87.1206Y-71.8703
G1X80.9549Y-89.5171
G1X78.0724Y-110.4471
G1X76.4366Y-132.6239
G1X81.5103Y-161.5101
G1X79.5576Y-183.3699
G1X74.3375Y-201.9623
G1X82.5482Y-233.9856
G1X87.7691Y-263.0190
G1 Z0F20000
(Start Block)

G1X83.3122Y-43.3335
G1 Z3.0F20000
(Plotting speed under)
G1 F10000

G1X87.8963Y-71.7301
G1X81.7901Y-89.4364
G1X79.1494Y-110.6082
G1X77.4191Y-132.6905
G1X82.2339Y-161.3178
G1X80.1507Y-183.0472
G1X75.1114Y-201.8204
G1X83.5419Y-234.0634
G1X89.0094Y-263.3434
G1 Z0F20000
(Start Block)

G1X84.1175Y-43.2230
G1 Z3.0F20000
(Plotting speed under)
G1 F10000

G1X88.6720Y-71.5899
G1X82.6252Y-89.3557
G1X80.2263Y-110.7694
G1X78.4016Y-132.7572
G1X82.9575Y-161.1255
G1X80.7439Y-182.7245
G1X75.8853Y-201.6784
G1X84.5355Y-234.1412
G1X90.2497Y-263.6679
G1 Z0F20000
(Start Block)

G1X84.9229Y-43.1125
G1 Z3.0F20000
(Plotting speed under)
G1 F10000

G1X89.4477Y-71.4498
G1X83.4604Y-89.2750
G1X81.3033Y-110.9305
G1X79.3842Y-132.8238
G1X83.6810Y-160.9332
G1X81.3370Y-182.4018
G1X76.6593Y-201.5365
G1X85.5291Y-234.2189
G1X91.4900Y-263.9923
G1 Z0F20000
(Start Block)

G1X85.7283Y-43.0020
G1 Z3.0F20000
(Plotting speed under)
G1 F10000

G1X90.2233Y-71.3096
G1X84.2955Y-89.1943
G1X82.3803Y-111.0916
G1X80.3667Y-132.8905
G1X84.4046Y-160.7409
G1X81.9302Y-182.0790
G1X77.4332Y-201.3946
G1X86.5228Y-234.2967
G1X92.7303Y-264.3167
G1 Z0F20000
(Start Block)

G1X86.5336Y-42.8915
G1 Z3.0F20000
(Plotting speed under)
G1 F10000

G1X90.9990Y-71.1694
G1X85.1307Y-89.1136
G1X83.4573Y-111.2527
G1X81.3492Y-132.9572
G1X85.1281Y-160.5486
G1X82.5233Y-181.7563
G1X78.2071Y-201.2526
G1X87.5164Y-234.3745
G1X93.9706Y-264.6412
G1 Z0F20000
(Start Block)

G1X87.3390Y-42.7810
G1 Z3.0F20000
(Plotting speed under)
G1 F10000

G1X91.7747Y-71.0292
G1X85.9658Y-89.0329
G1X84.5343Y-111.4138
G1X82.3317Y-133.0238
G1X85.8517Y-160.3563
G1X83.1165Y-181.4336
G1X78.9810Y-201.1107
G1X88.5101Y-234.4522
G1X95.2109Y-264.9656
G1 Z0F20000
(Start Block)

G1X88.1444Y-42.6705
G1 Z3.0F20000
(Plotting speed under)
G1 F10000

G1X92.5503Y-70.8890
G1X86.8010Y-88.9521
G1X85.6113Y-111.5749
G1X83.3143Y-133.0905
G1X86.5753Y-160.1640
G1X83.7096Y-181.1109
G1X79.7550Y-200.9687
G1X89.5037Y-234.5300
G1X96.4513Y-265.2901
G1 Z0F20000
(Start Block)

G1X88.9498Y-42.5600
G1 Z3.0F20000
(Plotting speed under)
G1 F10000

G1X93.3260Y-70.7488
G1X87.6361Y-88.8714
G1X86.6882Y-111.7361
G1X84.2968Y-133.1571
G1X87.2989Y-159.9717
G1X84.3028Y-180.7882
G1X80.5289Y-200.8268
G1X90.4973Y-234.6078
G1X97.6916Y-265.6145
G1 Z0F20000
(Start Block)

G1X89.7551Y-42.4495
G1 Z3.0F20000
(Plotting speed under)
G1 F10000

G1X94.1017Y-70.6086
G1X88.4713Y-88.7907
G1X87.7652Y-111.8972
G1X85.2793Y-133.2238
G1X88.0225Y-159.7794
G1X84.8959Y-180.4655
G1X81.3028Y-200.6849
G1X91.4910Y-234.6855
G1X98.9319Y-265.9390
G1 Z0F20000
(Start Block)

G1X90.5605Y-42.3390
G1 Z3.0F20000
(Plotting speed under)
G1 F10000

G1X94.8774Y-70.4684
G1X89.3064Y-88.7100
G1X88.8422Y-112.0583
G1X86.2619Y-133.2905
G1X88.7460Y-159.5871
G1X85.4891Y-180.1427
G1X82.0767Y-200.5429
G1X92.4846Y-234.7633
G1X100.1722Y-266.2634
G1 Z0F20000
(Start Block)

G1X91.5175Y-42.3802
G1 Z3.0F20000
(Plotting speed under)
G1 F10000

G1X95.8712Y-70.5463
G1X90.2575Y-88.7452
G1X89.8325Y-112.1328
G1X87.5818Y-133.6945
G1X89.7378Y-159.6630
G1X86.6017Y-180.3396
G1X83.2546Y-200.8049
G1X93.1227Y-234.4856
G1X100.5795Y-265.7548
G1 Z0F20000
(Start Block)

G1X92.4745Y-42.4213
G1 Z3.0F20000
(Plotting speed under)
G1 F10000

G1X96.8649Y-70.6242
G1X91.2086Y-88.7805
G1X90.8229Y-112.2072
G1X88.9017Y-134.0986
G1X90.7295Y-159.7389
G1X87.7144Y-180.5364
G1X84.4324Y-201.0669
G1X93.7608Y-234.2078
G1X100.9867Y-265.2462
G1 Z0F20000
(Start Block)

G1X93.4315Y-42.4625
G1 Z3.0F20000
(Plotting speed under)
G1 F10000

G1X97.8587Y-70.7022
G1X92.1597Y-88.8157
G1X91.8132Y-112.2816
G1X90.2216Y-134.5026
G1X91.7212Y-159.8148
G1X88.8271Y-180.7332
G1X85.6102Y-201.3288
G1X94.3990Y-233.9301
G1X101.3940Y-264.7376
G1 Z0F20000
(Start Block)

G1X94.3886Y-42.5036
G1 Z3.0F20000
(Plotting speed under)
G1 F10000

G1X98.8525Y-70.7801
G1X93.1108Y-88.8509
G1X92.8035Y-112.3561
G1X91.5415Y-134.9067
G1X92.7130Y-159.8907
G1X89.9398Y-180.9300
G1X86.7881Y-201.5908
G1X95.0371Y-233.6524
G1X101.8013Y-264.2290
G1 Z0F20000
(Start Block)

G1X95.3456Y-42.5448
G1 Z3.0F20000
(Plotting speed under)
G1 F10000

G1X99.8463Y-70.8580
G1X94.0619Y-88.8862
G1X93.7938Y-112.4305
G1X92.8614Y-135.3107
G1X93.7048Y-159.9666
G1X91.0524Y-181.1268
G1X87.9659Y-201.8528
G1X95.6752Y-233.3746
G1X102.2085Y-263.7205
G1 Z0F20000
(Start Block)

G1X96.3026Y-42.5859
G1 Z3.0F20000
(Plotting speed under)
G1 F10000

G1X100.8401Y-70.9360
G1X95.0130Y-88.9214
G1X94.7841Y-112.5050
G1X94.1813Y-135.7148
G1X94.6965Y-160.0424
G1X92.1651Y-181.3236
G1X89.1438Y-202.1148
G1X96.3134Y-233.0969
G1X102.6158Y-263.2118
G1 Z0F20000
(Start Block)

G1X97.2596Y-42.6271
G1 Z3.0F20000
(Plotting speed under)
G1 F10000

G1X101.8339Y-71.0139
G1X95.9641Y-88.9566
G1X95.5012Y-136.1188
G1X95.6883Y-160.1183
G1X93.2778Y-181.5204
G1X90.3216Y-202.3767
G1X96.9515Y-232.8192
G1X103.0231Y-262.7033
G1 Z0F20000
(Start Block)

G1X98.2166Y-42.6682
G1 Z3.0F20000
(Plotting speed under)
G1 F10000

G1X102.8277Y-71.0918
G1X96.9152Y-88.9919
G1X96.7647Y-112.6539
G1X96.8212Y-136.5229
G1X96.6800Y-160.1942
G1X94.3905Y-181.7172
G1X91.4994Y-202.6387
G1X97.5896Y-232.5414
G1X103.4304Y-262.1947
G1 Z0F20000
(Start Block)

G1X99.1737Y-42.7094
G1 Z3.0F20000
(Plotting speed under)
G1 F10000

G1X103.8215Y-71.1698
G1X97.8663Y-89.0271
G1X97.7550Y-112.7283
G1X98.1411Y-136.9269
G1X97.6717Y-160.2701
G1X95.5031Y-181.9140
G1X92.6773Y-202.9007
G1X103.8376Y-261.6861
G1 Z0F20000
(Start Block)

G1X100.1307Y-42.7505
G1 Z3.0F20000
(Plotting speed under)
G1 F10000

G1X104.8153Y-71.2477
G1X98.8174Y-89.0623
G1X98.7454Y-112.8028
G1X99.4610Y-137.3310
G1X98.6635Y-160.3460
G1X96.6158Y-182.1108
G1X93.8551Y-203.1626
G1X98.8659Y-231.9860
G1X104.2449Y-261.1775
G1 Z0F20000
(Start Block)

G1X101.0877Y-42.7917
G1 Z3.0F20000
(Plotting speed under)
G1 F10000

G1X105.8091Y-71.3256
G1X99.7685Y-89.0976
G1X99.7357Y-112.8772
G1X100.7809Y-137.7350
G1X99.6552Y-160.4219
G1X97.7285Y-182.3076
G1X95.0330Y-203.4246
G1X99.5040Y-231.7082
G1X104.6522Y-260.6689
G1 Z0F20000
(Start Block)

G1X102.0447Y-42.8328
G1 Z3.0F20000
(Plotting speed under)
G1 F10000

G1X106.8029Y-71.4035
G1X100.7196Y-89.1328
G1X100.7260Y-112.9517
G1X102.1008Y-138.1391
G1X100.6470Y-160.4977
G1X98.8412Y-182.5044
G1X96.2108Y-203.6866
G1X100.1422Y-231.4305
G1X105.0594Y-260.1603
G1 Z0F20000
(Start Block)

G1X103.0017Y-42.8740
G1 Z3.0F20000
(Plotting speed under)
G1 F10000

G1X107.7967Y-71.4815
G1X101.6707Y-89.1680
G1X101.7163Y-113.0261
G1X103.4208Y-138.5431
G1X101.6387Y-160.5736
G1X99.9538Y-182.7012
G1X97.3886Y-203.9486
G1X100.7803Y-231.1528
G1X105.4667Y-259.6517
G1 Z0F20000
(Start Block)

G1X103.9587Y-42.9151
G1 Z3.0F20000
(Plotting speed under)
G1 F10000

G1X108.7905Y-71.5594
G1X102.6218Y-89.2033
G1X102.7066Y-113.1006
G1X104.7407Y-138.9472
G1X102.6305Y-160.6495
G1X101.0665Y-182.8980
G1X98.5665Y-204.2105
G1X101.4184Y-230.8750
G1X105.8740Y-259.1431
G1 Z0F20000
(Start Block)

G1X104.9158Y-42.9563
G1 Z3.0F20000
(Plotting speed under)
G1 F10000

G1X109.7843Y-71.6373
G1X103.5729Y-89.2385
G1X103.6969Y-113.1750
G1X106.0606Y-139.3512
G1X103.6222Y-160.7254
G1X102.1792Y-183.0949
G1X99.7443Y-204.4725
G1X102.0566Y-230.5973
G1X106.2813Y-258.6345
G1 Z0F20000
(Start Block)

G1X105.8728Y-42.9974
G1 Z3.0F20000
(Plotting speed under)
G1 F10000

G1X110.7781Y-71.7152
G1X104.5240Y-89.2737
G1X104.6872Y-113.2495
G1X107.3805Y-139.7553
G1X104.6140Y-160.8013
G1X103.2919Y-183.2917
G1X100.9221Y-204.7345
G1X102.6947Y-230.3196
G1X106.6885Y-258.1259
G1 Z0F20000
(Start Block)

G1X106.8298Y-43.0386
G1 Z3.0F20000
(Plotting speed under)
G1 F10000

G1X111.7719Y-71.7932
G1X105.4751Y-89.3090
G1X105.6776Y-113.3239
G1X108.7004Y-140.1593
G1X105.6057Y-160.8772
G1X104.4045Y-183.4885
G1X102.1000Y-204.9964
G1X103.3328Y-230.0418
G1X107.0958Y-257.6173
G1 Z0F20000
(Start Block)

G1X107.7868Y-43.0797
G1 Z3.0F20000
(Plotting speed under)
G1 F10000

G1X112.7657Y-71.8711
G1X106.4262Y-89.3442
G1X106.6679Y-113.3984
G1X110.0203Y-140.5634
G1X106.5975Y-160.9530
G1X105.5172Y-183.6853
G1X103.2778Y-205.2584
G1X103.9710Y-229.7641
G1X107.5030Y-257.1087
G1 Z0F20000
(Start Block)

G1X108.7438Y-43.1209
G1 Z3.0F20000
(Plotting speed under)
G1 F10000

G1X113.7595Y-71.9490
G1X107.3773Y-89.3794
G1X107.6582Y-113.4728
G1X111.3402Y-140.9674
G1X107.5892Y-161.0289
G1X106.6299Y-183.8821
G1X104.4557Y-205.5204
G1X104.6091Y-229.4863
G1X107.9103Y-256.6001
G1 Z0F20000
(Start Block)

G1X109.7009Y-43.1621
G1 Z3.0F20000
(Plotting speed under)
G1 F10000

G1X114.7532Y-72.0270
G1X108.3284Y-89.4146
G1X108.6485Y-113.5473
G1X112.6601Y-141.3714
G1X108.5810Y-161.1048
G1X107.7425Y-184.0789
G1X105.6335Y-205.7824
G1X105.2472Y-229.2086
G1X108.3176Y-256.0915
G1 Z0F20000
(Start Block)

G1X110.6579Y-43.2032
G1 Z3.0F20000
(Plotting speed under)
G1 F10000

G1X115.7470Y-72.1049
G1X109.2795Y-89.4499
G1X109.6388Y-113.6217
G1X113.9801Y-141.7755
G1X109.5727Y-161.1807
G1X108.8552Y-184.2757
G1X106.8113Y-206.0443
G1X105.8854Y-228.9309
G1X108.7249Y-255.5829
G1 Z0F20000
(Start Block)

G1X111.6149Y-43.2443
G1 Z3.0F20000
(Plotting speed under)
G1 F10000

G1X116.7408Y-72.1828
G1X110.2306Y-89.4851
G1X110.6291Y-113.6961
G1X115.3000Y-142.1796
G1X110.5645Y-161.2565
G1X109.9679Y-184.4725
G1X107.9892Y-206.3063
G1X106.5235Y-228.6531
G1X109.1321Y-255.0743
G1 Z0F20000
(Start Block)

G1X112.5719Y-43.2855
G1 Z3.0F20000
(Plotting speed under)
G1 F10000

G1X117.7346Y-72.2607
G1X111.1817Y-89.5203
G1X111.6194Y-113.7706
G1X116.6199Y-142.5836
G1X111.5562Y-161.3324
G1X111.0806Y-184.6693
G1X107.1616Y-228.3754
G1X109.5394Y-254.5657
G1 Z0F20000
(Start Block)

G1X113.5289Y-43.3267
G1 Z3.0F20000
(Plotting speed under)
G1 F10000

G1X118.7284Y-72.3387
G1X112.1328Y-89.5556
G1X112.6097Y-113.8451
G1X117.9398Y-142.9877
G1X112.5480Y-161.4083
G1X112.1932Y-184.8661
G1X110.3449Y-206.8302
G1X107.7997Y-228.0977
G1X109.9467Y-254.0571
G1 Z0F20000
(Start Block)

G1X114.4860Y-43.3678
G1 Z3.0F20000
(Plotting speed under)
G1 F10000

G1X119.7222Y-72.4166
G1X113.0839Y-89.5908
G1X113.6001Y-113.9195
G1X119.2597Y-143.3917
G1X113.5397Y-161.4842
G1X113.3059Y-185.0629
G1X111.5227Y-207.0922
G1X108.4379Y-227.8199
G1X110.3539Y-253.5485
G1 Z0F20000
(Start Block)

G1X115.4430Y-43.4090
G1 Z3.0F20000
(Plotting speed under)
G1 F10000

G1X120.7160Y-72.4945
G1X114.0350Y-89.6260
G1X114.5904Y-113.9939
G1X120.5796Y-143.7957
G1X114.5315Y-161.5601
G1X114.4186Y-185.2597
G1X112.7005Y-207.3542
G1X109.0760Y-227.5422
G1X110.7612Y-253.0399
G1 Z0F20000
(Start Block)

G1X116.2263Y-43.2764
G1 Z3.0F20000
(Plotting speed under)
G1 F10000

G1X121.3713Y-72.2339
G1X115.2245Y-89.8997
G1X115.8332Y-114.3209
G1X121.4825Y-143.7827
G1X115.3591Y-161.4718
G1X115.5174Y-185.4427
G1X113.6552Y-207.3930
G1X109.8966Y-227.4470
G1X111.7206Y-253.0835
G1 Z0F20000
(Start Block)

G1X117.0096Y-43.1439
G1 Z3.0F20000
(Plotting speed under)
G1 F10000

G1X122.0265Y-71.9733
G1X116.4141Y-90.1734
G1X117.0760Y-114.6479
G1X122.3854Y-143.7697
G1X116.1867Y-161.3836
G1X116.6163Y-185.6257
G1X114.6098Y-207.4317
G1X110.7173Y-227.3517
G1X112.6801Y-253.1271
G1 Z0F20000
(Start Block)

G1X117.7929Y-43.0113
G1 Z3.0F20000
(Plotting speed under)
G1 F10000

G1X122.6818Y-71.7127
G1X117.6037Y-90.4471
G1X118.3189Y-114.9749
G1X123.2883Y-143.7567
G1X117.0143Y-161.2954
G1X117.7152Y-185.8087
G1X115.5644Y-207.4705
G1X111.5379Y-227.2565
G1X113.6395Y-253.1707
G1 Z0F20000
(Start Block)

G1X118.5762Y-42.8788
G1 Z3.0F20000
(Plotting speed under)
G1 F10000

G1X123.3371Y-71.4521
G1X118.7932Y-90.7208
G1X119.5617Y-115.3018
G1X124.1911Y-143.7437
G1X117.8419Y-161.2071
G1X118.8140Y-185.9917
G1X116.5190Y-207.5093
G1X112.3585Y-227.1612
G1X114.5990Y-253.2142
G1 Z0F20000
(Start Block)

G1X119.3596Y-42.7462
G1 Z3.0F20000
(Plotting speed under)
G1 F10000

G1X123.9923Y-71.1915
G1X119.9828Y-90.9945
G1X120.8046Y-115.6288
G1X125.0940Y-143.7307
G1X118.6696Y-161.1188
G1X119.9129Y-186.1747
G1X117.4737Y-207.5480
G1X113.1791Y-227.0660
G1X115.5584Y-253.2578
G1 Z0F20000
(Start Block)

G1X120.1429Y-42.6137
G1 Z3.0F20000
(Plotting speed under)
G1 F10000

G1X124.6476Y-70.9309
G1X121.1723Y-91.2682
G1X122.0474Y-115.9557
G1X125.9968Y-143.7177
G1X119.4972Y-161.0306
G1X121.0118Y-186.3577
G1X118.4283Y-207.5868
G1X113.9997Y-226.9708
G1X116.5179Y-253.3014
G1 Z0F20000
(Start Block)

G1X120.9262Y-42.4812
G1 Z3.0F20000
(Plotting speed under)
G1 F10000

G1X125.3028Y-70.6703
G1X122.3619Y-91.5419
G1X123.2902Y-116.2827
G1X126.8997Y-143.7047
G1X120.3248Y-160.9423
G1X122.1106Y-186.5407
G1X119.3829Y-207.6256
G1X114.8204Y-226.8755
G1X117.4773Y-253.3450
G1 Z0F20000
(Start Block)

G1X121.7095Y-42.3486
G1 Z3.0F20000
(Plotting speed under)
G1 F10000

G1X125.9581Y-70.4097
G1X123.5515Y-91.8156
G1X124.5331Y-116.6097
G1X127.8026Y-143.6917
G1X121.1524Y-160.8541
G1X123.2095Y-186.7237
G1X120.3376Y-207.6643
G1X115.6410Y-226.7803
G1X118.4368Y-253.3886
G1 Z0F20000
(Start Block)

G1X122.4929Y-42.2161
G1 Z3.0F20000
(Plotting speed under)
G1 F10000

G1X126.6134Y-70.1490
G1X124.7410Y-92.0893
G1X125.7759Y-116.9367
G1X128.7054Y-143.6787
G1X121.9800Y-160.7659
G1X124.3084Y-186.9067
G1X121.2922Y-207.7031
G1X116.4616Y-226.6850
G1X119.3962Y-253.4322
G1 Z0F20000
(Start Block)

G1X123.2762Y-42.0835
G1 Z3.0F20000
(Plotting speed under)
G1 F10000

G1X127.2686Y-69.8884
G1X125.9306Y-92.3630
G1X127.0187Y-117.2636
G1X129.6083Y-143.6657
G1X122.8077Y-160.6776
G1X125.4072Y-187.0897
G1X122.2469Y-207.7419
G1X117.2822Y-226.5898
G1X120.3557Y-253.4757
G1 Z0F20000
(Start Block)

G1X124.0595Y-41.9510
G1 Z3.0F20000
(Plotting speed under)
G1 F10000

G1X127.9239Y-69.6278
G1X127.1202Y-92.6367
G1X128.2616Y-117.5906
G1X130.5111Y-143.6527
G1X123.6353Y-160.5894
G1X126.5061Y-187.2727
G1X123.2015Y-207.7806
G1X118.1029Y-226.4945
G1X121.3151Y-253.5193
G1 Z0F20000
(Start Block)

G1X124.8428Y-41.8184
G1 Z3.0F20000
(Plotting speed under)
G1 F10000

G1X128.5791Y-69.3672
G1X128.3097Y-92.9104
G1X129.5044Y-117.9176
G1X131.4140Y-143.6397
G1X124.4629Y-160.5011
G1X127.6050Y-187.4557
G1X124.1561Y-207.8194
G1X118.9235Y-226.3993
G1X122.2746Y-253.5629
G1 Z0F20000
(Start Block)

G1X125.6261Y-41.6859
G1 Z3.0F20000
(Plotting speed under)
G1 F10000

G1X129.2344Y-69.1066
G1X129.4993Y-93.1841
G1X130.7472Y-118.2445
G1X132.3168Y-143.6267
G1X125.2905Y-160.4129
G1X128.7038Y-187.6387
G1X125.1108Y-207.8582
G1X119.7441Y-226.3040
G1X123.2340Y-253.6065
G1 Z0F20000
(Start Block)

G1X126.4095Y-41.5533
G1 Z3.0F20000
(Plotting speed under)
G1 F10000

G1X129.8896Y-68.8460
G1X130.6888Y-93.4577
G1X133.2197Y-143.6137
G1X126.1182Y-160.3246
G1X129.8027Y-187.8217
G1X126.0654Y-207.8969
G1X120.5647Y-226.2088
G1X124.1935Y-253.6500
G1 Z0F20000
(Start Block)

G1X127.1928Y-41.4208
G1 Z3.0F20000
(Plotting speed under)
G1 F10000

G1X130.5449Y-68.5854
G1X133.2329Y-118.8985
G1X134.1226Y-143.6007
G1X126.9458Y-160.2364
G1X130.9016Y-188.0047
G1X127.0200Y-207.9357
G1X121.3853Y-226.1136
G1X125.1529Y-253.6936
G1 Z0F20000
(Start Block)

G1X127.9761Y-41.2882
G1 Z3.0F20000
(Plotting speed under)
G1 F10000

G1X131.2001Y-68.3248
G1X133.0679Y-94.0051
G1X134.4757Y-119.2254
G1X135.0254Y-143.5877
G1X127.7734Y-160.1481
G1X132.0004Y-188.1877
G1X127.9747Y-207.9745
G1X122.2060Y-226.0183
G1X126.1124Y-253.7372
G1 Z0F20000
(Start Block)

G1X128.7594Y-41.1557
G1 Z3.0F20000
(Plotting speed under)
G1 F10000

G1X131.8554Y-68.0642
G1X134.2575Y-94.2788
G1X135.7186Y-119.5524
G1X135.9283Y-143.5747
G1X128.6010Y-160.0599
G1X133.0993Y-188.3707
G1X128.9293Y-208.0132
G1X123.0266Y-225.9231
G1X127.0718Y-253.7808
G1 Z0F20000
(Start Block)

G1X129.5427Y-41.0231
G1 Z3.0F20000
(Plotting speed under)
G1 F10000

G1X135.4471Y-94.5525
G1X136.9614Y-119.8794
G1X136.8311Y-143.5616
G1X129.4287Y-159.9716
G1X134.1981Y-188.5537
G1X129.8839Y-208.0520
G1X123.8472Y-225.8278
G1X128.0313Y-253.8244
G1 Z0F20000
(Start Block)

G1X130.3261Y-40.8906
G1 Z3.0F20000
(Plotting speed under)
G1 F10000

G1X133.1659Y-67.5429
G1X136.6366Y-94.8262
G1X138.2042Y-120.2063
G1X137.7340Y-143.5486
G1X130.2563Y-159.8834
G1X135.2970Y-188.7367
G1X130.8386Y-208.0908
G1X124.6679Y-225.7326
G1X128.9907Y-253.8680
G1 Z0F20000
(Start Block)

G1X131.1094Y-40.7581
G1 Z3.0F20000
(Plotting speed under)
G1 F10000

G1X133.8212Y-67.2823
G1X137.8262Y-95.0999
G1X139.4471Y-120.5333
G1X138.6369Y-143.5356
G1X131.0839Y-159.7952
G1X136.3959Y-188.9197
G1X131.7932Y-208.1295
G1X125.4885Y-225.6373
G1X129.9501Y-253.9115
G1 Z0F20000
(Start Block)

G1X131.8927Y-40.6255
G1 Z3.0F20000
(Plotting speed under)
G1 F10000

G1X134.4764Y-67.0217
G1X139.0158Y-95.3736
G1X140.6899Y-120.8603
G1X139.5397Y-143.5226
G1X131.9115Y-159.7069
G1X137.4947Y-189.1027
G1X132.7478Y-208.1683
G1X126.3091Y-225.5421
G1X130.9096Y-253.9551
G1 Z0F20000
(Start Block)

G1X132.6760Y-40.4930
G1 Z3.0F20000
(Plotting speed under)
G1 F10000

G1X135.1317Y-66.7611
G1X140.2053Y-95.6473
G1X141.9327Y-121.1872
G1X140.4426Y-143.5096
G1X132.7391Y-159.6187
G1X138.5936Y-189.2857
G1X133.7025Y-208.2071
G1X127.1297Y-225.4469
G1X131.8690Y-253.9987
G1 Z0F20000
(Start Block)

G1X133.4593Y-40.3604
G1 Z3.0F20000
(Plotting speed under)
G1 F10000

G1X135.7869Y-66.5005
G1X141.3949Y-95.9210
G1X143.1756Y-121.5142
G1X141.3454Y-143.4966
G1X133.5667Y-159.5304
G1X139.6925Y-189.4687
G1X134.6571Y-208.2458
G1X127.9503Y-225.3516
G1X132.8285Y-254.0423
G1 Z0F20000
(Start Block)

G1X134.2427Y-40.2279
G1 Z3.0F20000
(Plotting speed under)
G1 F10000

G1X136.4422Y-66.2399
G1X142.5844Y-96.1947
G1X144.4184Y-121.8412
G1X142.2483Y-143.4836
G1X134.3944Y-159.4422
G1X140.7913Y-189.6517
G1X135.6117Y-208.2846
G1X128.7710Y-225.2564
G1X133.7879Y-254.0858
G1 Z0F20000
(Start Block)

G1X135.0260Y-40.0953
G1 Z3.0F20000
(Plotting speed under)
G1 F10000

G1X137.0974Y-65.9793
G1X143.7740Y-96.4684
G1X145.6612Y-122.1681
G1X143.1512Y-143.4706
G1X135.2220Y-159.3539
G1X141.8902Y-189.8347
G1X136.5663Y-208.3233
G1X129.5916Y-225.1611
G1X134.7474Y-254.1294
G1 Z0F20000
(Start Block)

G1X135.8093Y-39.9628
G1 Z3.0F20000
(Plotting speed under)
G1 F10000

G1X137.7527Y-65.7187
G1X144.9635Y-96.7421
G1X146.9041Y-122.4951
G1X144.0540Y-143.4576
G1X136.0496Y-159.2657
G1X142.9891Y-190.0177
G1X137.5210Y-208.3621
G1X130.4122Y-225.0659
G1X135.7068Y-254.1730
G1 Z0F20000
(Start Block)

G1X136.8640Y-40.1016
G1 Z3.0F20000
(Plotting speed under)
G1 F10000

G1X138.8879Y-65.9380
G1X145.7672Y-96.6299
G1X147.6256Y-122.3008
G1X144.9939Y-143.4816
G1X137.1819Y-159.4821
G1X143.6187Y-189.7315
G1X138.1978Y-208.1231
G1X131.5534Y-225.2912
G1X136.6218Y-254.1721
G1 Z0F20000
(Start Block)

G1X137.9187Y-40.2404
G1 Z3.0F20000
(Plotting speed under)
G1 F10000

G1X140.0231Y-66.1574
G1X146.5709Y-96.5176
G1X148.3472Y-122.1065
G1X145.9338Y-143.5056
G1X138.3142Y-159.6986
G1X144.2484Y-189.4453
G1X138.8747Y-207.8841
G1X132.6945Y-225.5165
G1X137.5367Y-254.1711
G1 Z0F20000
(Start Block)

G1X138.9734Y-40.3792
G1 Z3.0F20000
(Plotting speed under)
G1 F10000

G1X141.1584Y-66.3767
G1X147.3745Y-96.4055
G1X149.0687Y-121.9122
G1X146.8737Y-143.5297
G1X139.4466Y-159.9150
G1X144.8781Y-189.1591
G1X139.5516Y-207.6451
G1X133.8356Y-225.7417
G1X138.4516Y-254.1702
G1 Z0F20000
(Start Block)

G1X140.0281Y-40.5181
G1 Z3.0F20000
(Plotting speed under)
G1 F10000

G1X142.2936Y-66.5961
G1X148.1782Y-96.2933
G1X149.7903Y-121.7178
G1X147.8136Y-143.5537
G1X140.5789Y-160.1315
G1X145.5078Y-188.8729
G1X134.9768Y-225.9670
G1X139.3665Y-254.1693
G1 Z0F20000
(Start Block)

G1X141.0828Y-40.6569
G1 Z3.0F20000
(Plotting speed under)
G1 F10000

G1X143.4288Y-66.8155
G1X148.9818Y-96.1810
G1X150.5118Y-121.5235
G1X148.7535Y-143.5777
G1X141.7112Y-160.3479
G1X146.1374Y-188.5867
G1X140.9053Y-207.1671
G1X136.1179Y-226.1923
G1X140.2814Y-254.1683
G1 Z0F20000
(Start Block)

G1X142.1374Y-40.7957
G1 Z3.0F20000
(Plotting speed under)
G1 F10000

G1X144.5640Y-67.0348
G1X149.7855Y-96.0688
G1X151.2334Y-121.3292
G1X149.6934Y-143.6017
G1X142.8435Y-160.5644
G1X146.7671Y-188.3005
G1X141.5821Y-206.9281
G1X137.2591Y-226.4175
G1X141.1964Y-254.1674
G1 Z0F20000
(Start Block)

G1X143.1921Y-40.9345
G1 Z3.0F20000
(Plotting speed under)
G1 F10000

G1X145.6992Y-67.2542
G1X150.5892Y-95.9566
G1X151.9549Y-121.1349
G1X150.6332Y-143.6258
G1X143.9758Y-160.7808
G1X147.3968Y-188.0144
G1X142.2590Y-206.6891
G1X138.4002Y-226.6428
G1X142.1113Y-254.1664
G1 Z0F20000
(Start Block)

G1X144.2468Y-41.0734
G1 Z3.0F20000
(Plotting speed under)
G1 F10000

G1X146.8345Y-67.4735
G1X151.3928Y-95.8444
G1X152.6765Y-120.9406
G1X151.5731Y-143.6498
G1X145.1081Y-160.9973
G1X148.0265Y-187.7282
G1X142.9359Y-206.4501
G1X139.5414Y-226.8681
G1X143.0262Y-254.1655
G1 Z0F20000
(Start Block)

G1X145.3015Y-41.2122
G1 Z3.0F20000
(Plotting speed under)
G1 F10000

G1X147.9697Y-67.6929
G1X152.1965Y-95.7322
G1X153.3980Y-120.7463
G1X152.5130Y-143.6738
G1X146.2404Y-161.2137
G1X148.6561Y-187.4420
G1X143.6127Y-206.2110
G1X140.6825Y-227.0934
G1X143.9412Y-254.1645
G1 Z0F20000
(Start Block)

G1X146.3562Y-41.3510
G1 Z3.0F20000
(Plotting speed under)
G1 F10000

G1X149.1049Y-67.9122
G1X153.0002Y-95.6200
G1X154.1196Y-120.5520
G1X153.4529Y-143.6978
G1X147.3728Y-161.4302
G1X149.2858Y-187.1558
G1X144.2896Y-205.9720
G1X141.8236Y-227.3186
G1X144.8561Y-254.1636
G1 Z0F20000
(Start Block)

G1X147.4109Y-41.4898
G1 Z3.0F20000
(Plotting speed under)
G1 F10000

G1X150.2401Y-68.1316
G1X153.8038Y-95.5078
G1X154.8411Y-120.3576
G1X154.3928Y-143.7218
G1X148.5051Y-161.6466
G1X149.9155Y-186.8696
G1X144.9664Y-205.7330
G1X142.9648Y-227.5439
G1X145.7710Y-254.1627
G1 Z0F20000
(Start Block)

G1X148.4656Y-41.6287
G1 Z3.0F20000
(Plotting speed under)
G1 F10000

G1X151.3754Y-68.3509
G1X154.6075Y-95.3956
G1X155.5627Y-120.1633
G1X155.3327Y-143.7458
G1X149.6374Y-161.8631
G1X150.5452Y-186.5834
G1X145.6433Y-205.4940
G1X144.1059Y-227.7692
G1X146.6859Y-254.1617
G1 Z0F20000
(Start Block)

G1X149.5203Y-41.7675
G1 Z3.0F20000
(Plotting speed under)
G1 F10000

G1X155.4111Y-95.2834
G1X156.2842Y-119.9690
G1X156.2726Y-143.7699
G1X150.7697Y-162.0796
G1X151.1748Y-186.2972
G1X146.3201Y-205.2550
G1X145.2470Y-227.9945
G1X147.6009Y-254.1608
G1 Z0F20000
(Start Block)

G1X150.5750Y-41.9063
G1 Z3.0F20000
(Plotting speed under)
G1 F10000

G1X153.6458Y-68.7896
G1X156.2148Y-95.1712
G1X157.0058Y-119.7747
G1X157.2125Y-143.7939
G1X151.9020Y-162.2960
G1X151.8045Y-186.0110
G1X146.9970Y-205.0160
G1X146.3882Y-228.2197
G1X148.5158Y-254.1598
G1 Z0F20000
(Start Block)

G1X151.6296Y-42.0451
G1 Z3.0F20000
(Plotting speed under)
G1 F10000

G1X154.7810Y-69.0090
G1X157.0185Y-95.0590
G1X157.7273Y-119.5804
G1X158.1523Y-143.8179
G1X153.0343Y-162.5124
G1X152.4342Y-185.7248
G1X147.6739Y-204.7770
G1X147.5293Y-228.4450
G1X149.4307Y-254.1589
G1 Z0F20000
(Start Block)

G1X152.6844Y-42.1839
G1 Z3.0F20000
(Plotting speed under)
G1 F10000

G1X155.9162Y-69.2283
G1X157.8221Y-94.9468
G1X159.0922Y-143.8419
G1X154.1667Y-162.7289
G1X153.0639Y-185.4386
G1X148.3507Y-204.5380
G1X148.6705Y-228.6703
G1X150.3456Y-254.1580
G1 Z0F20000
(Start Block)

G1X153.7390Y-42.3228
G1 Z3.0F20000
(Plotting speed under)
G1 F10000

G1X157.0515Y-69.4477
G1X158.6258Y-94.8346
G1X159.1704Y-119.1917
G1X160.0321Y-143.8660
G1X155.2990Y-162.9453
G1X153.6936Y-185.1525
G1X149.0276Y-204.2990
G1X149.8116Y-228.8956
G1X151.2605Y-254.1570
G1 Z0F20000
(Start Block)

G1X154.7937Y-42.4616
G1 Z3.0F20000
(Plotting speed under)
G1 F10000

G1X158.1867Y-69.6671
G1X159.4295Y-94.7224
G1X159.8920Y-118.9974
G1X160.9720Y-143.8900
G1X156.4313Y-163.1618
G1X154.3232Y-184.8663
G1X149.7044Y-204.0600
G1X152.1755Y-254.1561
G1 Z0F20000
(Start Block)

G1X155.8484Y-42.6004
G1 Z3.0F20000
(Plotting speed under)
G1 F10000

G1X159.3219Y-69.8864
G1X160.2331Y-94.6102
G1X160.6135Y-118.8031
G1X161.9119Y-143.9140
G1X157.5636Y-163.3782
G1X154.9529Y-184.5801
G1X150.3813Y-203.8210
G1X152.0939Y-229.3461
G1X153.0904Y-254.1552
G1 Z0F20000
(Start Block)

G1X156.9031Y-42.7393
G1 Z3.0F20000
(Plotting speed under)
G1 F10000

G1X160.4571Y-70.1058
G1X161.0368Y-94.4980
G1X161.3351Y-118.6088
G1X162.8518Y-143.9380
G1X158.6959Y-163.5947
G1X155.5826Y-184.2939
G1X151.0581Y-203.5820
G1X153.2351Y-229.5714
G1X154.0053Y-254.1542
G1 Z0F20000
(Start Block)

G1X157.9578Y-42.8781
G1 Z3.0F20000
(Plotting speed under)
G1 F10000

G1X161.5923Y-70.3251
G1X162.0566Y-118.4145
G1X163.7917Y-143.9620
G1X159.8282Y-163.8111
G1X156.2123Y-184.0077
G1X151.7350Y-203.3430
G1X154.3762Y-229.7967
G1X154.9203Y-254.1533
G1 Z0F20000
(Start Block)

G1X159.0125Y-43.0169
G1 Z3.0F20000
(Plotting speed under)
G1 F10000

G1X162.7276Y-70.5445
G1X162.6441Y-94.2736
G1X162.7782Y-118.2202
G1X164.7316Y-143.9861
G1X160.9605Y-164.0276
G1X156.8420Y-183.7215
G1X152.4119Y-203.1039
G1X155.5173Y-230.0219
G1X155.8352Y-254.1523
G1 Z0F20000
(Start Block)

G1X160.0672Y-43.1557
G1 Z3.0F20000
(Plotting speed under)
G1 F10000

G1X163.8628Y-70.7638
G1X163.4478Y-94.1614
G1X163.4997Y-118.0258
G1X165.6714Y-144.0101
G1X162.0929Y-164.2440
G1X157.4716Y-183.4353
G1X153.0887Y-202.8649
G1X156.6585Y-230.2472
G1X156.7501Y-254.1514
G1 Z0F20000
(Start Block)

G1X161.1219Y-43.2945
G1 Z3.0F20000
(Plotting speed under)
G1 F10000

G1X164.9980Y-70.9832
G1X164.2514Y-94.0492
G1X164.2213Y-117.8315
G1X166.6113Y-144.0341
G1X163.2252Y-164.4605
G1X158.1013Y-183.1491
G1X153.7656Y-202.6259
G1X157.7996Y-230.4725
G1X157.6650Y-254.1504
G1 Z0F20000
(Start Block)

G1X162.1765Y-43.4334
G1 Z3.0F20000
(Plotting speed under)
G1 F10000

G1X166.1332Y-71.2026
G1X165.0551Y-93.9370
G1X164.9428Y-117.6372
G1X167.5512Y-144.0581
G1X164.3575Y-164.6769
G1X158.7310Y-182.8630
G1X154.4424Y-202.3869
G1X158.9407Y-230.6978
G1X158.5800Y-254.1495
G1 Z0F20000
(Start Block)

G1X163.2312Y-43.5722
G1 Z3.0F20000
(Plotting speed under)
G1 F10000

G1X167.2685Y-71.4219
G1X165.8588Y-93.8248
G1X165.6644Y-117.4429
G1X168.4911Y-144.0822
G1X165.4898Y-164.8934
G1X159.3607Y-182.5768
G1X155.1193Y-202.1479
G1X160.0819Y-230.9230
G1X159.4949Y-254.1486
G1 Z0F20000
(Start Block)

G1X163.9363Y-43.3614
G1 Z3.0F20000
(Plotting speed under)
G1 F10000

G1X168.2393Y-71.4769
G1X166.7385Y-93.7887
G1X166.6158Y-117.4785
G1X169.2904Y-143.9656
G1X166.1406Y-164.6283
G1X160.0985Y-182.3987
G1X156.0852Y-202.1979
G1X161.2040Y-231.1293
G1X160.3941Y-254.1319
G1 Z0F20000
(Start Block)

G1X164.6414Y-43.1506
G1 Z3.0F20000
(Plotting speed under)
G1 F10000

G1X169.2101Y-71.5318
G1X167.6183Y-93.7526
G1X167.5672Y-117.5140
G1X170.0897Y-143.8490
G1X166.7914Y-164.3633
G1X160.8363Y-182.2207
G1X157.0511Y-202.2480
G1X162.3262Y-231.3356
G1X161.2933Y-254.1153
G1 Z0F20000
(Start Block)

G1X165.3465Y-42.9398
G1 Z3.0F20000
(Plotting speed under)
G1 F10000

G1X170.1809Y-71.5868
G1X168.4981Y-93.7165
G1X168.5186Y-117.5495
G1X170.8890Y-143.7325
G1X167.4422Y-164.0982
G1X161.5742Y-182.0427
G1X158.0170Y-202.2980
G1X163.4483Y-231.5419
G1X162.1925Y-254.0986
G1 Z0F20000
(Start Block)

G1X166.0516Y-42.7290
G1 Z3.0F20000
(Plotting speed under)
G1 F10000

G1X171.1517Y-71.6417
G1X169.3779Y-93.6804
G1X169.4700Y-117.5851
G1X171.6884Y-143.6159
G1X168.0930Y-163.8331
G1X162.3120Y-181.8647
G1X158.9828Y-202.3480
G1X164.5704Y-231.7482
G1X163.0918Y-254.0820
G1 Z0F20000
(Start Block)

G1X166.7566Y-42.5182
G1 Z3.0F20000
(Plotting speed under)
G1 F10000

G1X172.1226Y-71.6967
G1X170.2577Y-93.6443
G1X170.4214Y-117.6206
G1X172.4877Y-143.4994
G1X168.7438Y-163.5681
G1X163.0499Y-181.6866
G1X159.9487Y-202.3980
G1X165.6926Y-231.9544
G1X163.9910Y-254.0653
G1 Z0F20000
(Start Block)

G1X167.4617Y-42.3075
G1 Z3.0F20000
(Plotting speed under)
G1 F10000

G1X173.0934Y-71.7517
G1X171.1374Y-93.6083
G1X171.3729Y-117.6562
G1X173.2870Y-143.3828
G1X169.3946Y-163.3030
G1X163.7877Y-181.5086
G1X160.9146Y-202.4481
G1X166.8147Y-232.1607
G1X164.8902Y-254.0487
G1 Z0F20000
(Start Block)

G1X168.1668Y-42.0967
G1 Z3.0F20000
(Plotting speed under)
G1 F10000

G1X174.0643Y-71.8066
G1X172.0173Y-93.5722
G1X172.3243Y-117.6917
G1X174.0863Y-143.2663
G1X170.0454Y-163.0379
G1X164.5255Y-181.3306
G1X161.8805Y-202.4981
G1X167.9369Y-232.3670
G1X165.7894Y-254.0320
G1 Z0F20000
(Start Block)

G1X168.8719Y-41.8859
G1 Z3.0F20000
(Plotting speed under)
G1 F10000

G1X175.0351Y-71.8616
G1X172.8970Y-93.5361
G1X173.2757Y-117.7273
G1X174.8856Y-143.1497
G1X170.6962Y-162.7729
G1X165.2634Y-181.1526
G1X162.8464Y-202.5481
G1X169.0590Y-232.5733
G1X166.6886Y-254.0154
G1 Z0F20000
(Start Block)

G1X169.5769Y-41.6751
G1 Z3.0F20000
(Plotting speed under)
G1 F10000

G1X176.0059Y-71.9165
G1X173.7768Y-93.5000
G1X174.2271Y-117.7628
G1X175.6849Y-143.0331
G1X171.3470Y-162.5078
G1X166.0012Y-180.9745
G1X163.8123Y-202.5981
G1X170.1812Y-232.7795
G1X167.5879Y-253.9987
G1 Z0F20000
(Start Block)

G1X170.2820Y-41.4643
G1 Z3.0F20000
(Plotting speed under)
G1 F10000

G1X176.9767Y-71.9715
G1X174.6566Y-93.4639
G1X175.1785Y-117.7984
G1X176.4842Y-142.9166
G1X171.9978Y-162.2427
G1X166.7391Y-180.7965
G1X164.7782Y-202.6481
G1X171.3033Y-232.9858
G1X168.4871Y-253.9821
G1 Z0F20000
(Start Block)

G1X170.9871Y-41.2535
G1 Z3.0F20000
(Plotting speed under)
G1 F10000

G1X177.9475Y-72.0265
G1X175.5364Y-93.4278
G1X176.1299Y-117.8339
G1X177.2835Y-142.8000
G1X172.6487Y-161.9777
G1X167.4769Y-180.6185
G1X165.7441Y-202.6982
G1X172.4255Y-233.1921
G1X169.3863Y-253.9655
G1 Z0F20000
(Start Block)

G1X171.6922Y-41.0427
G1 Z3.0F20000
(Plotting speed under)
G1 F10000

G1X178.9184Y-72.0814
G1X176.4161Y-93.3917
G1X177.0814Y-117.8695
G1X178.0829Y-142.6835
G1X173.2995Y-161.7126
G1X168.2147Y-180.4405
G1X166.7099Y-202.7482
G1X173.5476Y-233.3984
G1X170.2855Y-253.9488
G1 Z0F20000
(Start Block)

G1X172.3973Y-40.8320
G1 Z3.0F20000
(Plotting speed under)
G1 F10000

G1X179.8892Y-72.1364
G1X177.2959Y-93.3556
G1X178.0328Y-117.9050
G1X178.8822Y-142.5669
G1X168.9526Y-180.2624
G1X167.6758Y-202.7982
G1X174.6698Y-233.6046
G1X171.1847Y-253.9322
G1 Z0F20000
(Start Block)

G1X173.1024Y-40.6212
G1 Z3.0F20000
(Plotting speed under)
G1 F10000

G1X180.8600Y-72.1913
G1X178.1757Y-93.3195
G1X178.9842Y-117.9405
G1X179.6815Y-142.4504
G1X174.6010Y-161.1825
G1X169.6904Y-180.0844
G1X168.6417Y-202.8482
G1X175.7919Y-233.8109
G1X172.0840Y-253.9155
G1 Z0F20000
(Start Block)

G1X173.8075Y-40.4104
G1 Z3.0F20000
(Plotting speed under)
G1 F10000

G1X181.8309Y-72.2463
G1X179.0555Y-93.2835
G1X179.9356Y-117.9761
G1X180.4808Y-142.3338
G1X175.2518Y-160.9174
G1X170.4282Y-179.9064
G1X169.6076Y-202.8982
G1X176.9141Y-234.0172
G1X172.9832Y-253.8989
G1 Z0F20000
(Start Block)

G1X174.5125Y-40.1996
G1 Z3.0F20000
(Plotting speed under)
G1 F10000

G1X182.8017Y-72.3013
G1X179.9353Y-93.2474
G1X180.8870Y-118.0116
G1X181.2801Y-142.2173
G1X175.9026Y-160.6523
G1X171.1661Y-179.7283
G1X170.5735Y-202.9483
G1X178.0362Y-234.2235
G1X173.8824Y-253.8822
G1 Z0F20000
(Start Block)

G1X175.2176Y-39.9888
G1 Z3.0F20000
(Plotting speed under)
G1 F10000

G1X183.7725Y-72.3562
G1X180.8150Y-93.2113
G1X181.8384Y-118.0472
G1X182.0794Y-142.1007
G1X176.5534Y-160.3872
G1X171.9040Y-179.5503
G1X171.5394Y-202.9983
G1X179.1583Y-234.4297
G1X174.7816Y-253.8656
G1 Z0F20000
(Start Block)

G1X175.9227Y-39.7780
G1 Z3.0F20000
(Plotting speed under)
G1 F10000

G1X184.7433Y-72.4112
G1X181.6948Y-93.1752
G1X182.7898Y-118.0827
G1X182.8787Y-141.9841
G1X177.2042Y-160.1222
G1X172.6418Y-179.3723
G1X172.5053Y-203.0483
G1X180.2805Y-234.6360
G1X175.6809Y-253.8489
G1 Z0F20000
(Start Block)

G1X176.6278Y-39.5672
G1 Z3.0F20000
(Plotting speed under)
G1 F10000

G1X185.7142Y-72.4661
G1X182.5746Y-93.1391
G1X183.7412Y-118.1183
G1X183.6780Y-141.8676
G1X177.8551Y-159.8571
G1X173.3796Y-179.1943
G1X173.4712Y-203.0984
G1X181.4026Y-234.8423
G1X176.5801Y-253.8323
G1 Z0F20000
(Start Block)

G1X177.3329Y-39.3565
G1 Z3.0F20000
(Plotting speed under)
G1 F10000

G1X186.6850Y-72.5211
G1X183.4544Y-93.1030
G1X184.6927Y-118.1538
G1X184.4773Y-141.7510
G1X178.5058Y-159.5921
G1X174.1175Y-179.0162
G1X174.4371Y-203.1484
G1X182.5248Y-235.0486
G1X177.4793Y-253.8156
G1 Z0F20000
(Start Block)

G1X178.0379Y-39.1457
G1 Z3.0F20000
(Plotting speed under)
G1 F10000

G1X187.6558Y-72.5761
G1X184.3341Y-93.0669
G1X185.6441Y-118.1894
G1X185.2766Y-141.6345
G1X179.1566Y-159.3270
G1X174.8553Y-178.8382
G1X175.4030Y-203.1984
G1X183.6469Y-235.2548
G1X178.3785Y-253.7990
G1 Z0F20000
(Start Block)

G1X178.7430Y-38.9349
G1 Z3.0F20000
(Plotting speed under)
G1 F10000

G1X188.6266Y-72.6310
G1X185.2139Y-93.0308
G1X186.5955Y-118.2249
G1X186.0759Y-141.5179
G1X179.8074Y-159.0619
G1X175.5932Y-178.6602
G1X176.3689Y-203.2484
G1X184.7690Y-235.4611
G1X179.2777Y-253.7823
G1 Z0F20000
(Start Block)

G1X179.4481Y-38.7241
G1 Z3.0F20000
(Plotting speed under)
G1 F10000

G1X189.5974Y-72.6860
G1X186.0937Y-92.9947
G1X187.5469Y-118.2605
G1X186.8753Y-141.4014
G1X180.4582Y-158.7969
G1X176.3310Y-178.4821
G1X177.3347Y-203.2984
G1X185.8912Y-235.6674
G1X180.1770Y-253.7657
G1 Z0F20000
(Start Block)

G1X180.1532Y-38.5133
G1 Z3.0F20000
(Plotting speed under)
G1 F10000

G1X190.5683Y-72.7409
G1X186.9735Y-92.9587
G1X188.4983Y-118.2960
G1X187.6746Y-141.2848
G1X181.1090Y-158.5318
G1X177.0688Y-178.3041
G1X178.3006Y-203.3485
G1X187.0133Y-235.8737
G1X181.0762Y-253.7490
G1 Z0F20000
(Start Block)

G1X180.8583Y-38.3025
G1 Z3.0F20000
(Plotting speed under)
G1 F10000

G1X191.5391Y-72.7959
G1X187.8533Y-92.9226
G1X189.4497Y-118.3315
G1X188.4739Y-141.1682
G1X181.7598Y-158.2667
G1X177.8067Y-178.1261
G1X179.2665Y-203.3985
G1X188.1355Y-236.0800
G1X181.9754Y-253.7324
G1 Z0F20000
(Start Block)

G1X181.5633Y-38.0917
G1 Z3.0F20000
(Plotting speed under)
G1 F10000

G1X192.5099Y-72.8509
G1X188.7330Y-92.8865
G1X190.4011Y-118.3671
G1X189.2732Y-141.0517
G1X182.4106Y-158.0017
G1X178.5445Y-177.9481
G1X180.2324Y-203.4485
G1X189.2576Y-236.2862
G1X182.8746Y-253.7157
G1 Z0F20000

G00 X0.0000 Y0.0000

