$H
G21
G17
G90
G1 Z0F20000
G1 F15000

(Start Layer)

(Start Block)


G1X19.3344Y-27.9334
G1Z5F20000
(Plotting speed under)
G1 F4000


G1X74.1509Y-35.1248

G1X131.8666Y-45.2155

G1X177.0541Y-42.7779

G1X223.1130Y-41.2117

G1X259.9220Y-30.3957

G1 Z0F20000

(Start Block)


G1X19.4372Y-29.0945
G1Z5F20000
(Plotting speed under)
G1 F4000


G1X74.1618Y-36.1941

G1X131.9136Y-46.3208

G1X177.4390Y-44.2212

G1X223.5978Y-42.7549

G1X260.0761Y-31.6081

G1 Z0F20000

(Start Block)


G1X19.5400Y-30.2556
G1Z5F20000
(Plotting speed under)
G1 F4000


G1X74.1727Y-37.2633

G1X131.9606Y-47.4261

G1X177.8240Y-45.6644

G1X224.0827Y-44.2981

G1X260.2302Y-32.8206

G1 Z0F20000

(Start Block)


G1X19.6428Y-31.4168
G1Z5F20000
(Plotting speed under)
G1 F4000


G1X74.1836Y-38.3325

G1X132.0076Y-48.5315

G1X178.2089Y-47.1077

G1X224.5675Y-45.8413

G1X260.3843Y-34.0330

G1 Z0F20000

(Start Block)


G1X19.7456Y-32.5779
G1Z5F20000
(Plotting speed under)
G1 F4000


G1X74.1944Y-39.4017

G1X132.0546Y-49.6368

G1X225.0524Y-47.3845

G1X260.5384Y-35.2454

G1 Z0F20000

(Start Block)


G1X19.8484Y-33.7390
G1Z5F20000
(Plotting speed under)
G1 F4000


G1X74.2053Y-40.4709

G1X132.1016Y-50.7421

G1X178.9787Y-49.9942

G1X225.5373Y-48.9277

G1X260.6925Y-36.4579

G1 Z0F20000

(Start Block)


G1X19.9511Y-34.9001
G1Z5F20000
(Plotting speed under)
G1 F4000


G1X74.2162Y-41.5401

G1X132.1486Y-51.8475

G1X179.3636Y-51.4374

G1X226.0221Y-50.4709

G1X260.8466Y-37.6703

G1 Z0F20000

(Start Block)


G1X20.0539Y-36.0612
G1Z5F20000
(Plotting speed under)
G1 F4000


G1X74.2271Y-42.6093

G1X132.1956Y-52.9528

G1X179.7485Y-52.8807

G1X226.5070Y-52.0140

G1X261.0006Y-38.8827

G1 Z0F20000

(Start Block)


G1X20.1567Y-37.2224
G1Z5F20000
(Plotting speed under)
G1 F4000


G1X74.2379Y-43.6785

G1X132.2426Y-54.0581

G1X180.1335Y-54.3239

G1X226.9918Y-53.5572

G1X261.1547Y-40.0951

G1 Z0F20000

(Start Block)


G1X20.2595Y-38.3835
G1Z5F20000
(Plotting speed under)
G1 F4000


G1X74.2488Y-44.7478

G1X132.2896Y-55.1634

G1X180.5184Y-55.7672

G1X227.4767Y-55.1004

G1X261.3088Y-41.3076

G1 Z0F20000

(Start Block)


G1X20.3623Y-39.5446
G1Z5F20000
(Plotting speed under)
G1 F4000


G1X74.2597Y-45.8170

G1X132.3366Y-56.2688

G1X180.9033Y-57.2104

G1X227.9615Y-56.6436

G1X261.4630Y-42.5200

G1 Z0F20000

(Start Block)


G1X20.4651Y-40.7057
G1Z5F20000
(Plotting speed under)
G1 F4000


G1X74.2706Y-46.8862

G1X132.3835Y-57.3741

G1X181.2882Y-58.6537

G1X228.4464Y-58.1868

G1X261.6170Y-43.7324

G1 Z0F20000

(Start Block)


G1X20.5678Y-41.8668
G1Z5F20000
(Plotting speed under)
G1 F4000


G1X74.2815Y-47.9554

G1X132.4305Y-58.4794

G1X181.6731Y-60.0969

G1X228.9312Y-59.7300

G1X261.7711Y-44.9449

G1 Z0F20000

(Start Block)


G1X20.6706Y-43.0280
G1Z5F20000
(Plotting speed under)
G1 F4000


G1X74.2923Y-49.0246

G1X132.4775Y-59.5847

G1X182.0580Y-61.5402

G1X229.4161Y-61.2732

G1X261.9252Y-46.1573

G1 Z0F20000

(Start Block)


G1X20.7734Y-44.1891
G1Z5F20000
(Plotting speed under)
G1 F4000


G1X74.3032Y-50.0938

G1X132.5245Y-60.6901

G1X182.4429Y-62.9834

G1X229.9009Y-62.8164

G1X262.0793Y-47.3697

G1 Z0F20000

(Start Block)


G1X20.8762Y-45.3502
G1Z5F20000
(Plotting speed under)
G1 F4000


G1X74.3141Y-51.1630

G1X132.5715Y-61.7954

G1X182.8278Y-64.4267

G1X230.3858Y-64.3596

G1X262.2334Y-48.5822

G1 Z0F20000

(Start Block)


G1X20.9790Y-46.5113
G1Z5F20000
(Plotting speed under)
G1 F4000


G1X74.3250Y-52.2322

G1X132.6185Y-62.9007

G1X183.2128Y-65.8699

G1X230.8706Y-65.9027

G1X262.3875Y-49.7946

G1 Z0F20000

(Start Block)


G1X21.0818Y-47.6724
G1Z5F20000
(Plotting speed under)
G1 F4000


G1X74.3359Y-53.3015

G1X132.6655Y-64.0061

G1X183.5977Y-67.3132

G1X231.3555Y-67.4459

G1X262.5416Y-51.0070

G1 Z0F20000

(Start Block)


G1X21.1846Y-48.8336
G1Z5F20000
(Plotting speed under)
G1 F4000


G1X74.3467Y-54.3707

G1X132.7125Y-65.1114

G1X183.9826Y-68.7564

G1X231.8403Y-68.9891

G1X262.6957Y-52.2194

G1 Z0F20000

(Start Block)


G1X21.2874Y-49.9947
G1Z5F20000
(Plotting speed under)
G1 F4000


G1X74.3576Y-55.4399

G1X132.7595Y-66.2167

G1X184.3675Y-70.1997

G1X232.3252Y-70.5323

G1X262.8498Y-53.4319

G1 Z0F20000

(Start Block)


G1X21.3901Y-51.1558
G1Z5F20000
(Plotting speed under)
G1 F4000


G1X74.3685Y-56.5091

G1X132.8065Y-67.3220

G1X184.7524Y-71.6429

G1X232.8101Y-72.0755

G1X263.0039Y-54.6443

G1 Z0F20000

(Start Block)


G1X21.4929Y-52.3169
G1Z5F20000
(Plotting speed under)
G1 F4000


G1X74.3794Y-57.5783

G1X132.8535Y-68.4273

G1X185.1373Y-73.0862

G1X233.2949Y-73.6187

G1X263.1580Y-55.8567

G1 Z0F20000

(Start Block)


G1X21.5957Y-53.4780
G1Z5F20000
(Plotting speed under)
G1 F4000


G1X74.3902Y-58.6475

G1X132.9005Y-69.5327

G1X185.5223Y-74.5294

G1X233.7798Y-75.1619

G1X263.3121Y-57.0692

G1 Z0F20000

(Start Block)


G1X21.6985Y-54.6392
G1Z5F20000
(Plotting speed under)
G1 F4000


G1X74.4011Y-59.7167

G1X132.9475Y-70.6380

G1X185.9072Y-75.9727

G1X234.2646Y-76.7051

G1X263.4662Y-58.2816

G1 Z0F20000

(Start Block)


G1X21.8013Y-55.8003
G1Z5F20000
(Plotting speed under)
G1 F4000


G1X74.4120Y-60.7859

G1X132.9944Y-71.7433

G1X186.2921Y-77.4159

G1X234.7495Y-78.2483

G1X263.6203Y-59.4940

G1 Z0F20000

(Start Block)


G1X21.9041Y-56.9614
G1Z5F20000
(Plotting speed under)
G1 F4000


G1X74.4229Y-61.8551

G1X133.0414Y-72.8486

G1X186.6770Y-78.8592

G1X235.2343Y-79.7915

G1X263.7744Y-60.7065

G1 Z0F20000

(Start Block)


G1X22.0069Y-58.1225
G1Z5F20000
(Plotting speed under)
G1 F4000


G1X74.4338Y-62.9244

G1X133.0884Y-73.9540

G1X187.0619Y-80.3024

G1X235.7192Y-81.3347

G1X263.9285Y-61.9189

G1 Z0F20000

(Start Block)


G1X22.1096Y-59.2836
G1Z5F20000
(Plotting speed under)
G1 F4000


G1X74.4446Y-63.9936

G1X133.1354Y-75.0593

G1X187.4468Y-81.7457

G1X236.2040Y-82.8778

G1X264.0826Y-63.1313

G1 Z0F20000

(Start Block)


G1X22.2124Y-60.4448
G1Z5F20000
(Plotting speed under)
G1 F4000


G1X74.4555Y-65.0628

G1X133.1824Y-76.1646

G1X187.8318Y-83.1889

G1X236.6889Y-84.4210

G1X264.2367Y-64.3437

G1 Z0F20000

(Start Block)


G1X22.3152Y-61.6059
G1Z5F20000
(Plotting speed under)
G1 F4000


G1X74.4664Y-66.1320

G1X133.2294Y-77.2700

G1X188.2167Y-84.6322

G1X237.1737Y-85.9642

G1X264.3908Y-65.5562

G1 Z0F20000

(Start Block)


G1X22.4180Y-62.7670
G1Z5F20000
(Plotting speed under)
G1 F4000


G1X74.4773Y-67.2012

G1X133.2764Y-78.3753

G1X188.6016Y-86.0754

G1X237.6586Y-87.5074

G1X264.5448Y-66.7686

G1 Z0F20000

(Start Block)


G1X22.5208Y-63.9281
G1Z5F20000
(Plotting speed under)
G1 F4000


G1X74.4881Y-68.2704

G1X133.3234Y-79.4806

G1X188.9865Y-87.5187

G1X238.1435Y-89.0506

G1X264.6989Y-67.9810

G1 Z0F20000

(Start Block)


G1X22.6236Y-65.0892
G1Z5F20000
(Plotting speed under)
G1 F4000


G1X74.4990Y-69.3396

G1X133.3704Y-80.5860

G1X189.3714Y-88.9619

G1X238.6283Y-90.5938

G1X264.8530Y-69.1934

G1 Z0F20000

(Start Block)


G1X22.7263Y-66.2504
G1Z5F20000
(Plotting speed under)
G1 F4000


G1X74.5099Y-70.4088

G1X133.4174Y-81.6913

G1X189.7563Y-90.4052

G1X239.1132Y-92.1370

G1X265.0071Y-70.4059

G1 Z0F20000

(Start Block)


G1X22.8291Y-67.4115
G1Z5F20000
(Plotting speed under)
G1 F4000


G1X74.5208Y-71.4780

G1X133.4644Y-82.7966

G1X190.1412Y-91.8484

G1X239.5980Y-93.6801

G1X265.1612Y-71.6183

G1 Z0F20000

(Start Block)


G1X22.9319Y-68.5726
G1Z5F20000
(Plotting speed under)
G1 F4000


G1X74.5317Y-72.5473

G1X133.5114Y-83.9019

G1X190.5261Y-93.2917

G1X240.0829Y-95.2233

G1X265.3153Y-72.8308

G1 Z0F20000

(Start Block)


G1X23.0347Y-69.7337
G1Z5F20000
(Plotting speed under)
G1 F4000


G1X74.5425Y-73.6165

G1X133.5584Y-85.0073

G1X190.9111Y-94.7349

G1X240.5677Y-96.7665

G1X265.4694Y-74.0432

G1 Z0F20000

(Start Block)


G1X23.1375Y-70.8948
G1Z5F20000
(Plotting speed under)
G1 F4000


G1X74.5534Y-74.6857

G1X133.6053Y-86.1126

G1X191.2960Y-96.1782

G1X241.0526Y-98.3097

G1X265.6235Y-75.2556

G1 Z0F20000

(Start Block)


G1X23.2403Y-72.0559
G1Z5F20000
(Plotting speed under)
G1 F4000


G1X74.5643Y-75.7549

G1X133.6523Y-87.2179

G1X191.6809Y-97.6214

G1X241.5374Y-99.8529

G1X265.7776Y-76.4681

G1 Z0F20000

(Start Block)


G1X23.3431Y-73.2171
G1Z5F20000
(Plotting speed under)
G1 F4000


G1X74.5752Y-76.8241

G1X133.6993Y-88.3232

G1X192.0658Y-99.0647

G1X242.0223Y-101.3961

G1X265.9317Y-77.6805

G1 Z0F20000

(Start Block)


G1X23.4459Y-74.3782
G1Z5F20000
(Plotting speed under)
G1 F4000


G1X74.5861Y-77.8933

G1X133.7463Y-89.4286

G1X192.4507Y-100.5079

G1X242.5071Y-102.9393

G1X266.0858Y-78.8929

G1 Z0F20000

(Start Block)


G1X23.5486Y-75.5393
G1Z5F20000
(Plotting speed under)
G1 F4000


G1X74.5969Y-78.9626

G1X133.7933Y-90.5339

G1X192.8356Y-101.9512

G1X242.9920Y-104.4825

G1X266.2399Y-80.1053

G1 Z0F20000

(Start Block)


G1X23.6514Y-76.7004
G1Z5F20000
(Plotting speed under)
G1 F4000


G1X74.6078Y-80.0318

G1X133.8403Y-91.6392

G1X193.2206Y-103.3944

G1X243.4769Y-106.0257

G1X266.3940Y-81.3178

G1 Z0F20000

(Start Block)


G1X23.7542Y-77.8616
G1Z5F20000
(Plotting speed under)
G1 F4000


G1X74.6187Y-81.1010

G1X133.8873Y-92.7446

G1X193.6055Y-104.8377

G1X243.9617Y-107.5688

G1X266.5481Y-82.5302

G1 Z0F20000

(Start Block)


G1X23.8570Y-79.0227
G1Z5F20000
(Plotting speed under)
G1 F4000


G1X74.6296Y-82.1702

G1X133.9343Y-93.8499

G1X193.9904Y-106.2809

G1X244.4466Y-109.1120

G1X266.7022Y-83.7426

G1 Z0F20000

(Start Block)


G1X23.9598Y-80.1838
G1Z5F20000
(Plotting speed under)
G1 F4000


G1X74.6404Y-83.2394

G1X133.9813Y-94.9552

G1X194.3753Y-107.7242

G1X244.9314Y-110.6552

G1X266.8563Y-84.9551

G1 Z0F20000

(Start Block)


G1X24.4453Y-81.7277
G1Z5F20000
(Plotting speed under)
G1 F4000


G1X75.0038Y-84.6611

G1X133.7920Y-95.8242

G1X193.7193Y-108.1265

G1X243.8851Y-110.6672

G1X266.4860Y-85.6432

G1 Z0F20000

(Start Block)


G1X24.9308Y-83.2715
G1Z5F20000
(Plotting speed under)
G1 F4000


G1X75.3672Y-86.0829

G1X133.6026Y-96.6932

G1X193.0634Y-108.5289

G1X242.8388Y-110.6792

G1X266.1158Y-86.3312

G1 Z0F20000

(Start Block)


G1X25.4163Y-84.8154
G1Z5F20000
(Plotting speed under)
G1 F4000


G1X75.7306Y-87.5046

G1X133.4133Y-97.5622

G1X192.4075Y-108.9313

G1X241.7924Y-110.6912

G1X265.7455Y-87.0193

G1 Z0F20000

(Start Block)


G1X25.9019Y-86.3592
G1Z5F20000
(Plotting speed under)
G1 F4000


G1X76.0940Y-88.9263

G1X133.2239Y-98.4312

G1X191.7515Y-109.3337

G1X240.7461Y-110.7033

G1X265.3753Y-87.7074

G1 Z0F20000

(Start Block)


G1X26.3874Y-87.9031
G1Z5F20000
(Plotting speed under)
G1 F4000


G1X76.4575Y-90.3481

G1X133.0346Y-99.3002

G1X191.0956Y-109.7361

G1X239.6998Y-110.7153

G1X265.0050Y-88.3955

G1 Z0F20000

(Start Block)


G1X26.8729Y-89.4469
G1Z5F20000
(Plotting speed under)
G1 F4000


G1X76.8209Y-91.7698

G1X132.8452Y-100.1692

G1X190.4396Y-110.1385

G1X238.6535Y-110.7273

G1X264.6348Y-89.0836

G1 Z0F20000

(Start Block)


G1X27.3584Y-90.9908
G1Z5F20000
(Plotting speed under)
G1 F4000


G1X77.1842Y-93.1915

G1X132.6559Y-101.0382

G1X189.7837Y-110.5409

G1X237.6072Y-110.7393

G1X264.2645Y-89.7717

G1 Z0F20000

(Start Block)


G1X27.8439Y-92.5346
G1Z5F20000
(Plotting speed under)
G1 F4000


G1X77.5476Y-94.6133

G1X132.4666Y-101.9072

G1X189.1278Y-110.9433

G1X236.5608Y-110.7513

G1X263.8943Y-90.4597

G1 Z0F20000

(Start Block)


G1X28.3295Y-94.0785
G1Z5F20000
(Plotting speed under)
G1 F4000


G1X77.9110Y-96.0350

G1X132.2772Y-102.7762

G1X188.4718Y-111.3457

G1X235.5145Y-110.7633

G1X263.5241Y-91.1478

G1 Z0F20000

(Start Block)


G1X28.8150Y-95.6223
G1Z5F20000
(Plotting speed under)
G1 F4000


G1X78.2745Y-97.4568

G1X132.0879Y-103.6452

G1X187.8159Y-111.7481

G1X234.4682Y-110.7753

G1X263.1538Y-91.8359

G1 Z0F20000

(Start Block)


G1X29.3005Y-97.1662
G1Z5F20000
(Plotting speed under)
G1 F4000


G1X78.6379Y-98.8785

G1X131.8986Y-104.5142

G1X187.1599Y-112.1505

G1X233.4219Y-110.7873

G1X262.7835Y-92.5240

G1 Z0F20000

(Start Block)


G1X29.7860Y-98.7100
G1Z5F20000
(Plotting speed under)
G1 F4000


G1X79.0013Y-100.3002

G1X131.7092Y-105.3831

G1X186.5040Y-112.5529

G1X232.3755Y-110.7994

G1X262.4133Y-93.2121

G1 Z0F20000

(Start Block)


G1X30.2715Y-100.2539
G1Z5F20000
(Plotting speed under)
G1 F4000


G1X79.3647Y-101.7220

G1X131.5199Y-106.2521

G1X185.8480Y-112.9552

G1X231.3292Y-110.8114

G1X262.0431Y-93.9002

G1 Z0F20000

(Start Block)


G1X30.7570Y-101.7977
G1Z5F20000
(Plotting speed under)
G1 F4000


G1X79.7281Y-103.1437

G1X131.3306Y-107.1211

G1X185.1921Y-113.3576

G1X230.2829Y-110.8234

G1X261.6728Y-94.5883

G1 Z0F20000

(Start Block)


G1X31.2425Y-103.3416
G1Z5F20000
(Plotting speed under)
G1 F4000


G1X80.0915Y-104.5654

G1X131.1412Y-107.9901

G1X184.5362Y-113.7600

G1X229.2366Y-110.8354

G1X261.3026Y-95.2764

G1 Z0F20000

(Start Block)


G1X31.7281Y-104.8854
G1Z5F20000
(Plotting speed under)
G1 F4000


G1X80.4549Y-105.9872

G1X130.9519Y-108.8591

G1X183.8802Y-114.1624

G1X228.1903Y-110.8474

G1X260.9323Y-95.9644

G1 Z0F20000

(Start Block)


G1X32.2136Y-106.4293
G1Z5F20000
(Plotting speed under)
G1 F4000


G1X80.8183Y-107.4089

G1X130.7625Y-109.7281

G1X183.2243Y-114.5648

G1X227.1440Y-110.8594

G1X260.5621Y-96.6525

G1 Z0F20000

(Start Block)


G1X32.6991Y-107.9731
G1Z5F20000
(Plotting speed under)
G1 F4000


G1X81.1817Y-108.8306

G1X130.5732Y-110.5971

G1X182.5683Y-114.9672

G1X226.0976Y-110.8715

G1X260.1918Y-97.3406

G1 Z0F20000

(Start Block)


G1X33.1846Y-109.5170
G1Z5F20000
(Plotting speed under)
G1 F4000


G1X81.5451Y-110.2524

G1X130.3839Y-111.4661

G1X181.9124Y-115.3696

G1X225.0513Y-110.8835

G1X259.8216Y-98.0287

G1 Z0F20000

(Start Block)


G1X33.6701Y-111.0608
G1Z5F20000
(Plotting speed under)
G1 F4000


G1X130.1945Y-112.3351

G1X181.2565Y-115.7720

G1X224.0050Y-110.8955

G1X259.4513Y-98.7168

G1 Z0F20000

(Start Block)


G1X34.1556Y-112.6047
G1Z5F20000
(Plotting speed under)
G1 F4000


G1X82.2719Y-113.0959

G1X130.0052Y-113.2041

G1X180.6005Y-116.1744

G1X222.9587Y-110.9075

G1X259.0811Y-99.4049

G1 Z0F20000

(Start Block)


G1X34.6411Y-114.1485
G1Z5F20000
(Plotting speed under)
G1 F4000


G1X82.6353Y-114.5176

G1X129.8158Y-114.0731

G1X179.9446Y-116.5768

G1X221.9124Y-110.9195

G1X258.7108Y-100.0929

G1 Z0F20000

(Start Block)


G1X35.1267Y-115.6924
G1Z5F20000
(Plotting speed under)
G1 F4000


G1X82.9987Y-115.9393

G1X129.6265Y-114.9421

G1X179.2886Y-116.9792

G1X220.8660Y-110.9315

G1X258.3406Y-100.7810

G1 Z0F20000

(Start Block)


G1X35.6122Y-117.2362
G1Z5F20000
(Plotting speed under)
G1 F4000


G1X83.3621Y-117.3611

G1X129.4372Y-115.8111

G1X178.6327Y-117.3816

G1X219.8197Y-110.9435

G1X257.9703Y-101.4691

G1 Z0F20000

(Start Block)


G1X36.0977Y-118.7801
G1Z5F20000
(Plotting speed under)
G1 F4000


G1X83.7255Y-118.7828

G1X129.2478Y-116.6801

G1X177.9767Y-117.7839

G1X218.7734Y-110.9555

G1X257.6001Y-102.1572

G1 Z0F20000

(Start Block)


G1X36.5832Y-120.3239
G1Z5F20000
(Plotting speed under)
G1 F4000


G1X84.0889Y-120.2045

G1X129.0585Y-117.5491

G1X177.3208Y-118.1863

G1X217.7270Y-110.9676

G1X257.2298Y-102.8453

G1 Z0F20000

(Start Block)


G1X37.0687Y-121.8678
G1Z5F20000
(Plotting speed under)
G1 F4000


G1X84.4523Y-121.6263

G1X128.8692Y-118.4181

G1X176.6648Y-118.5887

G1X216.6807Y-110.9796

G1X256.8596Y-103.5334

G1 Z0F20000

(Start Block)


G1X37.5542Y-123.4116
G1Z5F20000
(Plotting speed under)
G1 F4000


G1X84.8157Y-123.0480

G1X128.6798Y-119.2871

G1X176.0089Y-118.9911

G1X215.6344Y-110.9916

G1X256.4893Y-104.2215

G1 Z0F20000

(Start Block)


G1X38.0398Y-124.9555
G1Z5F20000
(Plotting speed under)
G1 F4000


G1X85.1791Y-124.4698

G1X128.4905Y-120.1561

G1X175.3530Y-119.3935

G1X214.5881Y-111.0036

G1X256.1191Y-104.9095

G1 Z0F20000

(Start Block)


G1X38.5253Y-126.4993
G1Z5F20000
(Plotting speed under)
G1 F4000


G1X85.5425Y-125.8915

G1X128.3011Y-121.0251

G1X174.6970Y-119.7959

G1X213.5418Y-111.0156

G1X255.7488Y-105.5976

G1 Z0F20000

(Start Block)


G1X39.0108Y-128.0432
G1Z5F20000
(Plotting speed under)
G1 F4000


G1X85.9059Y-127.3132

G1X128.1118Y-121.8941

G1X174.0411Y-120.1983

G1X212.4954Y-111.0276

G1X255.3786Y-106.2857

G1 Z0F20000

(Start Block)


G1X39.4963Y-129.5870
G1Z5F20000
(Plotting speed under)
G1 F4000


G1X86.2693Y-128.7350

G1X127.9225Y-122.7631

G1X173.3852Y-120.6007

G1X211.4491Y-111.0396

G1X255.0083Y-106.9738

G1 Z0F20000

(Start Block)


G1X39.9818Y-131.1309
G1Z5F20000
(Plotting speed under)
G1 F4000


G1X86.6327Y-130.1567

G1X127.7331Y-123.6321

G1X172.7292Y-121.0031

G1X210.4028Y-111.0516

G1X254.6381Y-107.6619

G1 Z0F20000

(Start Block)


G1X40.4674Y-132.6747
G1Z5F20000
(Plotting speed under)
G1 F4000


G1X86.9961Y-131.5784

G1X127.5438Y-124.5011

G1X172.0733Y-121.4055

G1X209.3565Y-111.0637

G1X254.2678Y-108.3500

G1 Z0F20000

(Start Block)


G1X40.9529Y-134.2186
G1Z5F20000
(Plotting speed under)
G1 F4000


G1X87.3595Y-133.0002

G1X127.3545Y-125.3701

G1X171.4173Y-121.8079

G1X208.3101Y-111.0757

G1X253.8976Y-109.0381

G1 Z0F20000

(Start Block)


G1X41.4384Y-135.7624
G1Z5F20000
(Plotting speed under)
G1 F4000


G1X87.7229Y-134.4219

G1X127.1651Y-126.2391

G1X170.7614Y-122.2103

G1X207.2638Y-111.0877

G1X253.5274Y-109.7262

G1 Z0F20000

(Start Block)


G1X41.9239Y-137.3063
G1Z5F20000
(Plotting speed under)
G1 F4000


G1X88.0863Y-135.8436

G1X126.9758Y-127.1081

G1X170.1054Y-122.6127

G1X206.2175Y-111.0997

G1X253.1571Y-110.4142

G1 Z0F20000

(Start Block)


G1X42.4094Y-138.8501
G1Z5F20000
(Plotting speed under)
G1 F4000


G1X88.4497Y-137.2654

G1X126.7864Y-127.9771

G1X169.4495Y-123.0151

G1X205.1712Y-111.1117

G1X252.7868Y-111.1023

G1 Z0F20000

(Start Block)


G1X42.8949Y-140.3940
G1Z5F20000
(Plotting speed under)
G1 F4000


G1X88.8131Y-138.6871

G1X126.5971Y-128.8461

G1X168.7935Y-123.4174

G1X204.1249Y-111.1237

G1X252.4166Y-111.7904

G1 Z0F20000

(Start Block)


G1X43.3804Y-141.9378
G1Z5F20000
(Plotting speed under)
G1 F4000


G1X89.1765Y-140.1089

G1X126.4078Y-129.7151

G1X168.1376Y-123.8199

G1X203.0785Y-111.1357

G1X252.0463Y-112.4785

G1 Z0F20000

(Start Block)


G1X43.8660Y-143.4817
G1Z5F20000
(Plotting speed under)
G1 F4000


G1X89.5399Y-141.5306

G1X126.2184Y-130.5841

G1X167.4816Y-124.2222

G1X202.0322Y-111.1477

G1X251.6761Y-113.1666

G1 Z0F20000

(Start Block)


G1X44.3515Y-145.0255
G1Z5F20000
(Plotting speed under)
G1 F4000


G1X89.9033Y-142.9523

G1X126.0291Y-131.4530

G1X166.8257Y-124.6246

G1X200.9859Y-111.1597

G1X251.3059Y-113.8547

G1 Z0F20000

(Start Block)


G1X44.8370Y-146.5694
G1Z5F20000
(Plotting speed under)
G1 F4000


G1X90.2667Y-144.3741

G1X125.8397Y-132.3220

G1X166.1697Y-125.0270

G1X199.9396Y-111.1718

G1X250.9356Y-114.5427

G1 Z0F20000

(Start Block)


G1X45.3225Y-148.1132
G1Z5F20000
(Plotting speed under)
G1 F4000


G1X90.6301Y-145.7958

G1X125.6504Y-133.1910

G1X165.5138Y-125.4294

G1X198.8932Y-111.1838

G1X250.5654Y-115.2308

G1 Z0F20000

(Start Block)


G1X45.8080Y-149.6571
G1Z5F20000
(Plotting speed under)
G1 F4000


G1X90.9935Y-147.2175

G1X125.4611Y-134.0600

G1X164.8579Y-125.8318

G1X197.8469Y-111.1958

G1X250.1951Y-115.9189

G1 Z0F20000

(Start Block)


G1X45.7963Y-150.7037
G1Z5F20000
(Plotting speed under)
G1 F4000


G1X90.7305Y-148.0128

G1X125.3289Y-134.9862

G1X164.7988Y-126.8311

G1X198.0000Y-112.4072

G1X250.4734Y-117.2555

G1 Z0F20000

(Start Block)


G1X45.7845Y-151.7502
G1Z5F20000
(Plotting speed under)
G1 F4000


G1X90.4674Y-148.8081

G1X125.1967Y-135.9124

G1X164.7397Y-127.8303

G1X198.1531Y-113.6187

G1X250.7517Y-118.5922

G1 Z0F20000

(Start Block)


G1X45.7727Y-152.7968
G1Z5F20000
(Plotting speed under)
G1 F4000


G1X90.2044Y-149.6034

G1X125.0646Y-136.8385

G1X164.6806Y-128.8296

G1X198.3062Y-114.8301

G1X251.0300Y-119.9288

G1 Z0F20000

(Start Block)


G1X45.7609Y-153.8433
G1Z5F20000
(Plotting speed under)
G1 F4000


G1X89.9414Y-150.3987

G1X124.9324Y-137.7647

G1X164.6216Y-129.8288

G1X198.4593Y-116.0415

G1X251.3083Y-121.2654

G1 Z0F20000

(Start Block)


G1X45.7492Y-154.8899
G1Z5F20000
(Plotting speed under)
G1 F4000


G1X89.6783Y-151.1940

G1X124.8002Y-138.6908

G1X164.5625Y-130.8281

G1X198.6124Y-117.2530

G1X251.5866Y-122.6021

G1 Z0F20000

(Start Block)


G1X45.7374Y-155.9365
G1Z5F20000
(Plotting speed under)
G1 F4000


G1X89.4153Y-151.9893

G1X124.6681Y-139.6170

G1X164.5034Y-131.8273

G1X198.7655Y-118.4644

G1X251.8649Y-123.9387

G1 Z0F20000

(Start Block)


G1X45.7256Y-156.9830
G1Z5F20000
(Plotting speed under)
G1 F4000


G1X89.1522Y-152.7846

G1X124.5359Y-140.5432

G1X164.4443Y-132.8266

G1X198.9186Y-119.6758

G1X252.1432Y-125.2754

G1 Z0F20000

(Start Block)


G1X45.7138Y-158.0296
G1Z5F20000
(Plotting speed under)
G1 F4000


G1X88.8892Y-153.5799

G1X124.4037Y-141.4693

G1X164.3852Y-133.8258

G1X199.0717Y-120.8873

G1X252.4215Y-126.6120

G1 Z0F20000

(Start Block)


G1X45.7021Y-159.0761
G1Z5F20000
(Plotting speed under)
G1 F4000


G1X88.6262Y-154.3752

G1X124.2716Y-142.3955

G1X164.3262Y-134.8251

G1X199.2248Y-122.0987

G1X252.6998Y-127.9486

G1 Z0F20000

(Start Block)


G1X45.6903Y-160.1227
G1Z5F20000
(Plotting speed under)
G1 F4000


G1X88.3631Y-155.1705

G1X124.1394Y-143.3217

G1X164.2671Y-135.8244

G1X199.3779Y-123.3102

G1X252.9781Y-129.2852

G1 Z0F20000

(Start Block)


G1X45.6785Y-161.1693
G1Z5F20000
(Plotting speed under)
G1 F4000


G1X88.1001Y-155.9658

G1X124.0072Y-144.2478

G1X164.2080Y-136.8236

G1X199.5311Y-124.5216

G1X253.2564Y-130.6219

G1 Z0F20000

(Start Block)


G1X45.6667Y-162.2158
G1Z5F20000
(Plotting speed under)
G1 F4000


G1X87.8371Y-156.7611

G1X123.8750Y-145.1740

G1X164.1489Y-137.8229

G1X199.6841Y-125.7330

G1X253.5347Y-131.9585

G1 Z0F20000

(Start Block)


G1X45.6550Y-163.2624
G1Z5F20000
(Plotting speed under)
G1 F4000


G1X87.5740Y-157.5564

G1X123.7429Y-146.1002

G1X164.0898Y-138.8221

G1X199.8373Y-126.9445

G1X253.8129Y-133.2951

G1 Z0F20000

(Start Block)


G1X45.6432Y-164.3089
G1Z5F20000
(Plotting speed under)
G1 F4000


G1X87.3110Y-158.3517

G1X123.6107Y-147.0263

G1X164.0307Y-139.8214

G1X199.9903Y-128.1559

G1X254.0912Y-134.6317

G1 Z0F20000

(Start Block)


G1X45.6314Y-165.3555
G1Z5F20000
(Plotting speed under)
G1 F4000


G1X87.0479Y-159.1470

G1X123.4785Y-147.9525

G1X163.9717Y-140.8206

G1X200.1435Y-129.3673

G1X254.3695Y-135.9684

G1 Z0F20000

(Start Block)


G1X45.6196Y-166.4021
G1Z5F20000
(Plotting speed under)
G1 F4000


G1X86.7849Y-159.9422

G1X123.3464Y-148.8787

G1X163.9126Y-141.8199

G1X200.2965Y-130.5788

G1X254.6478Y-137.3050

G1 Z0F20000

(Start Block)


G1X45.6079Y-167.4486
G1Z5F20000
(Plotting speed under)
G1 F4000


G1X86.5219Y-160.7376

G1X123.2142Y-149.8048

G1X163.8535Y-142.8191

G1X200.4497Y-131.7902

G1X254.9261Y-138.6416

G1 Z0F20000

(Start Block)


G1X45.5961Y-168.4952
G1Z5F20000
(Plotting speed under)
G1 F4000


G1X86.2588Y-161.5328

G1X123.0820Y-150.7310

G1X163.7944Y-143.8184

G1X200.6027Y-133.0016

G1X255.2044Y-139.9783

G1 Z0F20000

(Start Block)


G1X45.5843Y-169.5417
G1Z5F20000
(Plotting speed under)
G1 F4000


G1X85.9958Y-162.3281

G1X122.9499Y-151.6572

G1X163.7354Y-144.8176

G1X200.7559Y-134.2131

G1X255.4827Y-141.3149

G1 Z0F20000

(Start Block)


G1X45.5725Y-170.5883
G1Z5F20000
(Plotting speed under)
G1 F4000


G1X85.7327Y-163.1234

G1X122.8177Y-152.5833

G1X163.6763Y-145.8169

G1X200.9089Y-135.4245

G1X255.7610Y-142.6515

G1 Z0F20000

(Start Block)


G1X45.5608Y-171.6349
G1Z5F20000
(Plotting speed under)
G1 F4000


G1X85.4697Y-163.9187

G1X122.6855Y-153.5095

G1X163.6172Y-146.8162

G1X201.0621Y-136.6360

G1X256.0393Y-143.9882

G1 Z0F20000

(Start Block)


G1X45.5490Y-172.6814
G1Z5F20000
(Plotting speed under)
G1 F4000


G1X85.2067Y-164.7140

G1X122.5533Y-154.4357

G1X163.5581Y-147.8154

G1X201.2152Y-137.8474

G1X256.3176Y-145.3248

G1 Z0F20000

(Start Block)


G1X45.5372Y-173.7280
G1Z5F20000
(Plotting speed under)
G1 F4000


G1X84.9436Y-165.5093

G1X122.4212Y-155.3618

G1X163.4990Y-148.8147

G1X201.3683Y-139.0588

G1X256.5959Y-146.6614

G1 Z0F20000

(Start Block)


G1X45.5255Y-174.7746
G1Z5F20000
(Plotting speed under)
G1 F4000


G1X84.6806Y-166.3046

G1X122.2890Y-156.2880

G1X163.4400Y-149.8139

G1X201.5214Y-140.2703

G1X256.8742Y-147.9980

G1 Z0F20000

(Start Block)


G1X45.5137Y-175.8211
G1Z5F20000
(Plotting speed under)
G1 F4000


G1X84.4176Y-167.0999

G1X122.1568Y-157.2142

G1X163.3809Y-150.8132

G1X201.6745Y-141.4817

G1X257.1525Y-149.3347

G1 Z0F20000

(Start Block)


G1X45.5019Y-176.8677
G1Z5F20000
(Plotting speed under)
G1 F4000


G1X84.1545Y-167.8952

G1X122.0247Y-158.1403

G1X163.3218Y-151.8124

G1X201.8276Y-142.6931

G1X257.4308Y-150.6713

G1 Z0F20000

(Start Block)


G1X45.4901Y-177.9142
G1Z5F20000
(Plotting speed under)
G1 F4000


G1X83.8915Y-168.6905

G1X121.8925Y-159.0665

G1X163.2627Y-152.8117

G1X201.9807Y-143.9046

G1X257.7091Y-152.0079

G1 Z0F20000

(Start Block)


G1X45.4784Y-178.9608
G1Z5F20000
(Plotting speed under)
G1 F4000


G1X121.7603Y-159.9926

G1X163.2036Y-153.8109

G1X202.1338Y-145.1160

G1X257.9874Y-153.3446

G1 Z0F20000

(Start Block)


G1X45.4666Y-180.0074
G1Z5F20000
(Plotting speed under)
G1 F4000


G1X83.3654Y-170.2811

G1X121.6282Y-160.9188

G1X163.1446Y-154.8102

G1X202.2869Y-146.3274

G1X258.2657Y-154.6812

G1 Z0F20000

(Start Block)


G1X45.4548Y-181.0539
G1Z5F20000
(Plotting speed under)
G1 F4000


G1X83.1024Y-171.0764

G1X121.4960Y-161.8450

G1X163.0855Y-155.8094

G1X202.4400Y-147.5389

G1X258.5440Y-156.0178

G1 Z0F20000

(Start Block)


G1X45.4430Y-182.1005
G1Z5F20000
(Plotting speed under)
G1 F4000


G1X82.8393Y-171.8717

G1X121.3638Y-162.7711

G1X163.0264Y-156.8087

G1X202.5931Y-148.7503

G1X258.8223Y-157.3544

G1 Z0F20000

(Start Block)


G1X45.4313Y-183.1470
G1Z5F20000
(Plotting speed under)
G1 F4000


G1X82.5763Y-172.6670

G1X121.2316Y-163.6973

G1X162.9673Y-157.8079

G1X202.7462Y-149.9617

G1X259.1006Y-158.6911

G1 Z0F20000

(Start Block)


G1X45.4195Y-184.1936
G1Z5F20000
(Plotting speed under)
G1 F4000


G1X82.3132Y-173.4623

G1X121.0995Y-164.6235

G1X162.9083Y-158.8072

G1X202.8993Y-151.1732

G1X259.3789Y-160.0277

G1 Z0F20000

(Start Block)


G1X45.4077Y-185.2402
G1Z5F20000
(Plotting speed under)
G1 F4000


G1X82.0502Y-174.2576

G1X120.9673Y-165.5496

G1X162.8492Y-159.8065

G1X203.0524Y-152.3846

G1X259.6571Y-161.3643

G1 Z0F20000

(Start Block)


G1X45.3959Y-186.2867
G1Z5F20000
(Plotting speed under)
G1 F4000


G1X81.7871Y-175.0529

G1X120.8351Y-166.4758

G1X162.7901Y-160.8057

G1X203.2055Y-153.5961

G1X259.9354Y-162.7010

G1 Z0F20000

(Start Block)


G1X45.3842Y-187.3333
G1Z5F20000
(Plotting speed under)
G1 F4000


G1X81.5241Y-175.8482

G1X120.7030Y-167.4020

G1X162.7310Y-161.8050

G1X203.3586Y-154.8075

G1X260.2137Y-164.0376

G1 Z0F20000

(Start Block)


G1X45.3724Y-188.3798
G1Z5F20000
(Plotting speed under)
G1 F4000


G1X81.2611Y-176.6435

G1X120.5708Y-168.3281

G1X162.6719Y-162.8042

G1X203.5117Y-156.0189

G1X260.4920Y-165.3742

G1 Z0F20000

(Start Block)


G1X45.3606Y-189.4264
G1Z5F20000
(Plotting speed under)
G1 F4000


G1X80.9981Y-177.4388

G1X120.4386Y-169.2543

G1X162.6128Y-163.8035

G1X203.6648Y-157.2303

G1X260.7703Y-166.7108

G1 Z0F20000

(Start Block)


G1X45.3488Y-190.4730
G1Z5F20000
(Plotting speed under)
G1 F4000


G1X80.7350Y-178.2341

G1X120.3065Y-170.1805

G1X162.5538Y-164.8027

G1X203.8179Y-158.4418

G1X261.0486Y-168.0475

G1 Z0F20000

(Start Block)


G1X45.3371Y-191.5195
G1Z5F20000
(Plotting speed under)
G1 F4000


G1X80.4720Y-179.0294

G1X120.1743Y-171.1066

G1X162.4947Y-165.8020

G1X203.9710Y-159.6532

G1X261.3269Y-169.3841

G1 Z0F20000

(Start Block)


G1X45.3253Y-192.5661
G1Z5F20000
(Plotting speed under)
G1 F4000


G1X80.2089Y-179.8247

G1X120.0421Y-172.0328

G1X162.4356Y-166.8012

G1X204.1241Y-160.8647

G1X261.6052Y-170.7207

G1 Z0F20000

(Start Block)


G1X45.3135Y-193.6126
G1Z5F20000
(Plotting speed under)
G1 F4000


G1X79.9459Y-180.6199

G1X119.9099Y-172.9590

G1X162.3765Y-167.8005

G1X204.2772Y-162.0761

G1X261.8835Y-172.0574

G1 Z0F20000

(Start Block)


G1X45.3017Y-194.6592
G1Z5F20000
(Plotting speed under)
G1 F4000


G1X79.6828Y-181.4152

G1X119.7778Y-173.8852

G1X162.3174Y-168.7997

G1X204.4303Y-163.2875

G1X262.1618Y-173.3940

G1 Z0F20000

(Start Block)


G1X45.2900Y-195.7058
G1Z5F20000
(Plotting speed under)
G1 F4000


G1X79.4198Y-182.2105

G1X119.6456Y-174.8113

G1X162.2584Y-169.7990

G1X204.5834Y-164.4990

G1X262.4401Y-174.7307

G1 Z0F20000

(Start Block)


G1X45.2782Y-196.7523
G1Z5F20000
(Plotting speed under)
G1 F4000


G1X79.1568Y-183.0058

G1X119.5134Y-175.7375

G1X162.1993Y-170.7982

G1X204.7365Y-165.7104

G1X262.7184Y-176.0673

G1 Z0F20000

(Start Block)


G1X44.7493Y-197.2817
G1Z5F20000
(Plotting speed under)
G1 F4000


G1X78.7550Y-183.6624

G1X119.3850Y-176.6674

G1X205.2441Y-167.2764

G1X263.1351Y-177.5423

G1 Z0F20000

(Start Block)


G1X44.2204Y-197.8112
G1Z5F20000
(Plotting speed under)
G1 F4000


G1X78.3533Y-184.3190

G1X119.2565Y-177.5972

G1X162.3745Y-173.0902

G1X205.7518Y-168.8424

G1X263.5518Y-179.0174

G1 Z0F20000

(Start Block)


G1X43.6915Y-198.3406
G1Z5F20000
(Plotting speed under)
G1 F4000


G1X77.9516Y-184.9757

G1X119.1281Y-178.5271

G1X162.4621Y-174.2361

G1X206.2594Y-170.4083

G1X263.9685Y-180.4924

G1 Z0F20000

(Start Block)


G1X43.1626Y-198.8701
G1Z5F20000
(Plotting speed under)
G1 F4000


G1X77.5498Y-185.6322

G1X118.9996Y-179.4570

G1X162.5497Y-175.3820

G1X206.7671Y-171.9743

G1X264.3853Y-181.9675

G1 Z0F20000

(Start Block)


G1X42.6337Y-199.3995
G1Z5F20000
(Plotting speed under)
G1 F4000


G1X77.1481Y-186.2889

G1X118.8712Y-180.3869

G1X162.6373Y-176.5280

G1X207.2747Y-173.5403

G1X264.8020Y-183.4425

G1 Z0F20000

(Start Block)


G1X42.1049Y-199.9290
G1Z5F20000
(Plotting speed under)
G1 F4000


G1X76.7464Y-186.9455

G1X118.7427Y-181.3168

G1X162.7249Y-177.6739

G1X207.7824Y-175.1063

G1X265.2187Y-184.9176

G1 Z0F20000

(Start Block)


G1X41.5760Y-200.4584
G1Z5F20000
(Plotting speed under)
G1 F4000


G1X76.3447Y-187.6021

G1X118.6143Y-182.2467

G1X162.8125Y-178.8199

G1X208.2900Y-176.6723

G1X265.6354Y-186.3926

G1 Z0F20000

(Start Block)


G1X41.0471Y-200.9879
G1Z5F20000
(Plotting speed under)
G1 F4000


G1X75.9429Y-188.2587

G1X118.4858Y-183.1765

G1X162.9001Y-179.9658

G1X208.7976Y-178.2382

G1X266.0521Y-187.8677

G1 Z0F20000

(Start Block)


G1X40.5182Y-201.5173
G1Z5F20000
(Plotting speed under)
G1 F4000


G1X75.5412Y-188.9153

G1X118.3574Y-184.1064

G1X162.9877Y-181.1117

G1X209.3053Y-179.8042

G1X266.4688Y-189.3427

G1 Z0F20000

(Start Block)


G1X39.9893Y-202.0468
G1Z5F20000
(Plotting speed under)
G1 F4000


G1X75.1395Y-189.5719

G1X118.2289Y-185.0363

G1X163.0753Y-182.2577

G1X209.8129Y-181.3702

G1X266.8856Y-190.8178

G1 Z0F20000

(Start Block)


G1X39.4604Y-202.5762
G1Z5F20000
(Plotting speed under)
G1 F4000


G1X74.7377Y-190.2285

G1X118.1005Y-185.9662

G1X163.1629Y-183.4036

G1X210.3206Y-182.9362

G1X267.3023Y-192.2928

G1 Z0F20000

(Start Block)


G1X38.9315Y-203.1057
G1Z5F20000
(Plotting speed under)
G1 F4000


G1X74.3360Y-190.8851

G1X117.9720Y-186.8961

G1X163.2505Y-184.5495

G1X210.8282Y-184.5022

G1X267.7190Y-193.7679

G1 Z0F20000

(Start Block)


G1X38.4026Y-203.6351
G1Z5F20000
(Plotting speed under)
G1 F4000


G1X73.9343Y-191.5417

G1X117.8435Y-187.8259

G1X163.3381Y-185.6955

G1X211.3359Y-186.0681

G1X268.1357Y-195.2429

G1 Z0F20000

(Start Block)


G1X37.8737Y-204.1645
G1Z5F20000
(Plotting speed under)
G1 F4000


G1X73.5326Y-192.1983

G1X117.7151Y-188.7558

G1X163.4258Y-186.8414

G1X211.8435Y-187.6341

G1X268.5524Y-196.7180

G1 Z0F20000

(Start Block)


G1X37.3448Y-204.6940
G1Z5F20000
(Plotting speed under)
G1 F4000


G1X73.1308Y-192.8549

G1X117.5866Y-189.6857

G1X163.5134Y-187.9874

G1X212.3512Y-189.2001

G1X268.9691Y-198.1930

G1 Z0F20000

(Start Block)


G1X36.8160Y-205.2234
G1Z5F20000
(Plotting speed under)
G1 F4000


G1X72.7291Y-193.5115

G1X117.4582Y-190.6156

G1X163.6010Y-189.1333

G1X212.8588Y-190.7661

G1X269.3859Y-199.6681

G1 Z0F20000

(Start Block)


G1X36.2871Y-205.7529
G1Z5F20000
(Plotting speed under)
G1 F4000


G1X72.3274Y-194.1681

G1X117.3298Y-191.5455

G1X163.6886Y-190.2793

G1X213.3664Y-192.3321

G1X269.8026Y-201.1431

G1 Z0F20000

(Start Block)


G1X35.7582Y-206.2823
G1Z5F20000
(Plotting speed under)
G1 F4000


G1X71.9256Y-194.8247

G1X117.2013Y-192.4754

G1X163.7762Y-191.4252

G1X213.8741Y-193.8980

G1X270.2193Y-202.6182

G1 Z0F20000

(Start Block)


G1X35.2293Y-206.8118
G1Z5F20000
(Plotting speed under)
G1 F4000


G1X71.5239Y-195.4813

G1X117.0728Y-193.4052

G1X163.8638Y-192.5711

G1X214.3817Y-195.4640

G1X270.6360Y-204.0932

G1 Z0F20000

(Start Block)


G1X34.7004Y-207.3412
G1Z5F20000
(Plotting speed under)
G1 F4000


G1X71.1222Y-196.1380

G1X116.9444Y-194.3351

G1X163.9514Y-193.7171

G1X214.8894Y-197.0300

G1X271.0527Y-205.5683

G1 Z0F20000

(Start Block)


G1X34.1715Y-207.8706
G1Z5F20000
(Plotting speed under)
G1 F4000


G1X70.7204Y-196.7945

G1X116.8159Y-195.2650

G1X164.0390Y-194.8630

G1X215.3970Y-198.5960

G1X271.4694Y-207.0433

G1 Z0F20000

(Start Block)


G1X33.6426Y-208.4001
G1Z5F20000
(Plotting speed under)
G1 F4000


G1X70.3187Y-197.4512

G1X116.6875Y-196.1949

G1X164.1266Y-196.0089

G1X215.9046Y-200.1619

G1X271.8862Y-208.5184

G1 Z0F20000

(Start Block)


G1X33.1137Y-208.9295
G1Z5F20000
(Plotting speed under)
G1 F4000


G1X69.9170Y-198.1078

G1X116.5590Y-197.1247

G1X164.2142Y-197.1549

G1X216.4123Y-201.7279

G1X272.3029Y-209.9934

G1 Z0F20000

(Start Block)


G1X32.5849Y-209.4590
G1Z5F20000
(Plotting speed under)
G1 F4000


G1X69.5153Y-198.7644

G1X116.4306Y-198.0546

G1X164.3018Y-198.3008

G1X216.9200Y-203.2939

G1X272.7196Y-211.4685

G1 Z0F20000

(Start Block)


G1X32.0560Y-209.9884
G1Z5F20000
(Plotting speed under)
G1 F4000


G1X69.1135Y-199.4210

G1X116.3021Y-198.9845

G1X164.3894Y-199.4468

G1X217.4276Y-204.8599

G1X273.1363Y-212.9435

G1 Z0F20000

(Start Block)


G1X31.5271Y-210.5179
G1Z5F20000
(Plotting speed under)
G1 F4000


G1X68.7118Y-200.0776

G1X116.1737Y-199.9144

G1X164.4770Y-200.5927

G1X217.9352Y-206.4259

G1X273.5530Y-214.4186

G1 Z0F20000

(Start Block)


G1X30.9982Y-211.0473
G1Z5F20000
(Plotting speed under)
G1 F4000


G1X68.3101Y-200.7342

G1X116.0452Y-200.8443

G1X164.5647Y-201.7387

G1X218.4429Y-207.9918

G1X273.9697Y-215.8936

G1 Z0F20000

(Start Block)


G1X30.4693Y-211.5768
G1Z5F20000
(Plotting speed under)
G1 F4000


G1X67.9083Y-201.3908

G1X115.9167Y-201.7741

G1X164.6523Y-202.8846

G1X218.9505Y-209.5578

G1X274.3865Y-217.3687

G1 Z0F20000

(Start Block)


G1X29.9404Y-212.1062
G1Z5F20000
(Plotting speed under)
G1 F4000


G1X67.5066Y-202.0474

G1X115.7883Y-202.7040

G1X164.7399Y-204.0305

G1X219.4582Y-211.1238

G1X274.8032Y-218.8437

G1 Z0F20000

(Start Block)


G1X29.4115Y-212.6357
G1Z5F20000
(Plotting speed under)
G1 F4000


G1X67.1049Y-202.7040

G1X115.6598Y-203.6339

G1X164.8275Y-205.1765

G1X275.2199Y-220.3188

G1 Z0F20000

(Start Block)


G1X28.8826Y-213.1651
G1Z5F20000
(Plotting speed under)
G1 F4000


G1X66.7032Y-203.3606

G1X115.5314Y-204.5638

G1X164.9151Y-206.3224

G1X220.4734Y-214.2557

G1X275.6366Y-221.7938

G1 Z0F20000

(Start Block)


G1X28.3537Y-213.6945
G1Z5F20000
(Plotting speed under)
G1 F4000


G1X66.3014Y-204.0172

G1X115.4030Y-205.4937

G1X165.0027Y-207.4683

G1X220.9811Y-215.8217

G1X276.0533Y-223.2689

G1 Z0F20000

(Start Block)


G1X27.8249Y-214.2240
G1Z5F20000
(Plotting speed under)
G1 F4000


G1X65.8997Y-204.6738

G1X115.2745Y-206.4236

G1X165.0903Y-208.6143

G1X221.4888Y-217.3877

G1X276.4700Y-224.7440

G1 Z0F20000

(Start Block)


G1X27.2960Y-214.7534
G1Z5F20000
(Plotting speed under)
G1 F4000


G1X65.4980Y-205.3304

G1X115.1460Y-207.3534

G1X165.1779Y-209.7602

G1X221.9964Y-218.9537

G1X276.8867Y-226.2190

G1 Z0F20000

(Start Block)


G1X26.7671Y-215.2829
G1Z5F20000
(Plotting speed under)
G1 F4000


G1X65.0962Y-205.9870

G1X115.0176Y-208.2833

G1X165.2655Y-210.9062

G1X222.5040Y-220.5197

G1X277.3035Y-227.6940

G1 Z0F20000

(Start Block)


G1X26.2382Y-215.8123
G1Z5F20000
(Plotting speed under)
G1 F4000


G1X64.6945Y-206.6436

G1X114.8891Y-209.2132

G1X165.3531Y-212.0521

G1X223.0117Y-222.0857

G1X277.7202Y-229.1691

G1 Z0F20000

(Start Block)


G1X25.7093Y-216.3418
G1Z5F20000
(Plotting speed under)
G1 F4000


G1X64.2928Y-207.3002

G1X114.7607Y-210.1431

G1X165.4407Y-213.1981

G1X223.5193Y-223.6516

G1X278.1369Y-230.6441

G1 Z0F20000

(Start Block)


G1X25.1804Y-216.8712
G1Z5F20000
(Plotting speed under)
G1 F4000


G1X63.8911Y-207.9568

G1X114.6322Y-211.0729

G1X165.5283Y-214.3440

G1X224.0270Y-225.2176

G1X278.5536Y-232.1192

G1 Z0F20000

(Start Block)


G1X24.6515Y-217.4007
G1Z5F20000
(Plotting speed under)
G1 F4000


G1X63.4893Y-208.6134

G1X165.6159Y-215.4899

G1X224.5346Y-226.7836

G1X278.9703Y-233.5942

G1 Z0F20000

(Start Block)


G1X24.1226Y-217.9301
G1Z5F20000
(Plotting speed under)
G1 F4000


G1X63.0876Y-209.2701

G1X165.7035Y-216.6359

G1X225.0423Y-228.3496

G1X279.3871Y-235.0693

G1 Z0F20000

(Start Block)


G1X23.5937Y-218.4596
G1Z5F20000
(Plotting speed under)
G1 F4000


G1X62.6859Y-209.9267

G1X165.7911Y-217.7818

G1X225.5499Y-229.9156

G1X279.8038Y-236.5443

G1 Z0F20000

(Start Block)


G1X23.0648Y-218.9890
G1Z5F20000
(Plotting speed under)
G1 F4000


G1X62.2841Y-210.5833

G1X165.8787Y-218.9277

G1X226.0576Y-231.4815

G1X280.2205Y-238.0194

G1 Z0F20000

(Start Block)


G1X22.5360Y-219.5185
G1Z5F20000
(Plotting speed under)
G1 F4000


G1X61.8824Y-211.2399

G1X113.9899Y-215.7223

G1X165.9663Y-220.0737

G1X226.5652Y-233.0475

G1X280.6372Y-239.4944

G1 Z0F20000

(Start Block)


G1X22.0070Y-220.0479
G1Z5F20000
(Plotting speed under)
G1 F4000


G1X61.4807Y-211.8965

G1X113.8615Y-216.6522

G1X166.0539Y-221.2196

G1X227.0728Y-234.6135

G1X281.0539Y-240.9695

G1 Z0F20000

(Start Block)


G1X21.4782Y-220.5774
G1Z5F20000
(Plotting speed under)
G1 F4000


G1X61.0790Y-212.5531

G1X113.7331Y-217.5821

G1X166.1415Y-222.3656

G1X227.5805Y-236.1795

G1X281.4706Y-242.4445

G1 Z0F20000

(Start Block)


G1X21.4769Y-221.6344
G1Z5F20000
(Plotting speed under)
G1 F4000


G1X61.0543Y-213.5868

G1X113.8197Y-218.7271

G1X166.3779Y-223.6603

G1X227.4761Y-237.1334

G1X281.2481Y-243.2803

G1 Z0F20000

(Start Block)


G1X21.4756Y-222.6914
G1Z5F20000
(Plotting speed under)
G1 F4000


G1X61.0296Y-214.6204

G1X113.9063Y-219.8720

G1X166.6143Y-224.9550

G1X227.3716Y-238.0873

G1X281.0255Y-244.1161

G1 Z0F20000

(Start Block)


G1X21.4743Y-223.7485
G1Z5F20000
(Plotting speed under)
G1 F4000


G1X61.0050Y-215.6541

G1X113.9929Y-221.0169

G1X166.8506Y-226.2497

G1X227.2672Y-239.0412

G1X280.8029Y-244.9518

G1 Z0F20000

(Start Block)


G1X21.4730Y-224.8055
G1Z5F20000
(Plotting speed under)
G1 F4000


G1X60.9803Y-216.6878

G1X167.0870Y-227.5444

G1X227.1628Y-239.9951

G1X280.5804Y-245.7876

G1 Z0F20000

(Start Block)


G1X21.4717Y-225.8626
G1Z5F20000
(Plotting speed under)
G1 F4000


G1X60.9556Y-217.7214

G1X167.3233Y-228.8390

G1X227.0584Y-240.9490

G1X280.3578Y-246.6234

G1 Z0F20000

(Start Block)


G1X21.4704Y-226.9196
G1Z5F20000
(Plotting speed under)
G1 F4000


G1X60.9310Y-218.7551

G1X167.5597Y-230.1337

G1X226.9539Y-241.9029

G1X280.1352Y-247.4591

G1 Z0F20000

(Start Block)


G1X21.4691Y-227.9767
G1Z5F20000
(Plotting speed under)
G1 F4000


G1X60.9063Y-219.7888

G1X167.7960Y-231.4284

G1X226.8495Y-242.8568

G1X279.9126Y-248.2949

G1 Z0F20000

(Start Block)


G1X21.4679Y-229.0337
G1Z5F20000
(Plotting speed under)
G1 F4000


G1X60.8816Y-220.8224

G1X168.0324Y-232.7231

G1X226.7451Y-243.8107

G1X279.6901Y-249.1307

G1 Z0F20000

(Start Block)


G1X21.4666Y-230.0908
G1Z5F20000
(Plotting speed under)
G1 F4000


G1X60.8570Y-221.8561

G1X168.2688Y-234.0178

G1X226.6407Y-244.7646

G1X279.4675Y-249.9664

G1 Z0F20000

(Start Block)


G1X21.4653Y-231.1479
G1Z5F20000
(Plotting speed under)
G1 F4000


G1X60.8323Y-222.8898

G1X114.5990Y-229.0315

G1X168.5051Y-235.3125

G1X226.5362Y-245.7185

G1X279.2449Y-250.8022

G1 Z0F20000

(Start Block)


G1X21.4640Y-232.2049
G1Z5F20000
(Plotting speed under)
G1 F4000


G1X60.8076Y-223.9234

G1X114.6856Y-230.1764

G1X168.7415Y-236.6072

G1X226.4318Y-246.6724

G1X279.0224Y-251.6380

G1 Z0F20000

(Start Block)


G1X21.4627Y-233.2619
G1Z5F20000
(Plotting speed under)
G1 F4000


G1X60.7829Y-224.9571

G1X114.7722Y-231.3213

G1X168.9778Y-237.9019

G1X226.3274Y-247.6263

G1X278.7998Y-252.4737

G1 Z0F20000

(Start Block)


G1X21.4615Y-234.3190
G1Z5F20000
(Plotting speed under)
G1 F4000


G1X60.7583Y-225.9908

G1X114.8588Y-232.4663

G1X169.2142Y-239.1966

G1X226.2229Y-248.5803

G1X278.5772Y-253.3095

G1 Z0F20000

(Start Block)


G1X21.4602Y-235.3760
G1Z5F20000
(Plotting speed under)
G1 F4000


G1X60.7336Y-227.0244

G1X114.9454Y-233.6112

G1X169.4505Y-240.4912

G1X226.1185Y-249.5342

G1X278.3546Y-254.1452

G1 Z0F20000

(Start Block)


G1X21.4589Y-236.4331
G1Z5F20000
(Plotting speed under)
G1 F4000


G1X60.7089Y-228.0581

G1X115.0320Y-234.7561

G1X169.6869Y-241.7860

G1X226.0141Y-250.4881

G1X278.1321Y-254.9810

G1 Z0F20000

(Start Block)


G1X21.4576Y-237.4901
G1Z5F20000
(Plotting speed under)
G1 F4000


G1X60.6843Y-229.0918

G1X115.1186Y-235.9011

G1X169.9233Y-243.0806

G1X225.9097Y-251.4420

G1X277.9095Y-255.8168

G1 Z0F20000

(Start Block)


G1X21.4563Y-238.5472
G1Z5F20000
(Plotting speed under)
G1 F4000


G1X60.6596Y-230.1254

G1X115.2052Y-237.0460

G1X170.1596Y-244.3753

G1X225.8052Y-252.3959

G1X277.6869Y-256.6525

G1 Z0F20000

(Start Block)


G1X21.4550Y-239.6042
G1Z5F20000
(Plotting speed under)
G1 F4000


G1X60.6349Y-231.1591

G1X115.2919Y-238.1910

G1X170.3960Y-245.6700

G1X225.7008Y-253.3498

G1X277.4644Y-257.4883

G1 Z0F20000

(Start Block)


G1X21.4537Y-240.6613
G1Z5F20000
(Plotting speed under)
G1 F4000


G1X60.6103Y-232.1928

G1X115.3785Y-239.3359

G1X170.6323Y-246.9647

G1X225.5964Y-254.3037

G1X277.2418Y-258.3241

G1 Z0F20000

(Start Block)


G1X21.4525Y-241.7183
G1Z5F20000
(Plotting speed under)
G1 F4000


G1X60.5856Y-233.2264

G1X115.4650Y-240.4808

G1X170.8687Y-248.2594

G1X225.4920Y-255.2576

G1X277.0192Y-259.1598

G1 Z0F20000

(Start Block)


G1X21.4512Y-242.7754
G1Z5F20000
(Plotting speed under)
G1 F4000


G1X60.5609Y-234.2601

G1X115.5516Y-241.6258

G1X171.1050Y-249.5541

G1X225.3876Y-256.2115

G1X276.7967Y-259.9956

G1 Z0F20000

(Start Block)


G1X21.4499Y-243.8324
G1Z5F20000
(Plotting speed under)
G1 F4000


G1X60.5363Y-235.2938

G1X115.6382Y-242.7707

G1X171.3414Y-250.8488

G1X225.2831Y-257.1654

G1X276.5741Y-260.8314

G1 Z0F20000

(Start Block)


G1X21.4486Y-244.8895
G1Z5F20000
(Plotting speed under)
G1 F4000


G1X60.5116Y-236.3274

G1X115.7248Y-243.9156

G1X171.5778Y-252.1435

G1X225.1787Y-258.1193

G1X276.3515Y-261.6671

G1 Z0F20000

(Start Block)


G1X21.4473Y-245.9465
G1Z5F20000
(Plotting speed under)
G1 F4000


G1X60.4869Y-237.3611

G1X115.8114Y-245.0605

G1X171.8141Y-253.4382

G1X225.0743Y-259.0733

G1X276.1290Y-262.5029

G1 Z0F20000

(Start Block)


G1X21.4460Y-247.0036
G1Z5F20000
(Plotting speed under)
G1 F4000


G1X60.4623Y-238.3948

G1X115.8980Y-246.2055

G1X172.0505Y-254.7328

G1X224.9699Y-260.0272

G1X275.9064Y-263.3387

G1 Z0F20000

(Start Block)


G1X21.4447Y-248.0606
G1Z5F20000
(Plotting speed under)
G1 F4000


G1X60.4376Y-239.4284

G1X115.9846Y-247.3504

G1X172.2868Y-256.0275

G1X224.8654Y-260.9811

G1X275.6838Y-264.1744

G1 Z0F20000

(Start Block)


G1X21.4434Y-249.1176
G1Z5F20000
(Plotting speed under)
G1 F4000


G1X60.4129Y-240.4621

G1X116.0712Y-248.4953

G1X172.5232Y-257.3222

G1X224.7610Y-261.9350

G1X275.4613Y-265.0102

G1 Z0F20000

(Start Block)


G1X21.4422Y-250.1747
G1Z5F20000
(Plotting speed under)
G1 F4000


G1X60.3883Y-241.4958

G1X116.1578Y-249.6403

G1X172.7595Y-258.6169

G1X224.6566Y-262.8889

G1X275.2387Y-265.8460

G1 Z0F20000

(Start Block)


G1X21.4409Y-251.2317
G1Z5F20000
(Plotting speed under)
G1 F4000


G1X60.3636Y-242.5294

G1X116.2444Y-250.7852

G1X172.9959Y-259.9116

G1X224.5522Y-263.8428

G1X275.0161Y-266.6817

G1 Z0F20000

(Start Block)


G1X21.4396Y-252.2888
G1Z5F20000
(Plotting speed under)
G1 F4000


G1X60.3389Y-243.5631

G1X116.3310Y-251.9301

G1X173.2323Y-261.2063

G1X224.4477Y-264.7967

G1X274.7936Y-267.5175

G1 Z0F20000

(Start Block)


G1X21.4383Y-253.3458
G1Z5F20000
(Plotting speed under)
G1 F4000


G1X60.3143Y-244.5968

G1X116.4176Y-253.0751

G1X173.4686Y-262.5010

G1X224.3433Y-265.7506

G1X274.5710Y-268.3533

G1 Z0F20000

(Start Block)


G1X21.4370Y-254.4029
G1Z5F20000
(Plotting speed under)
G1 F4000


G1X60.2896Y-245.6304

G1X116.5042Y-254.2200

G1X173.7050Y-263.7957

G1X224.2389Y-266.7045

G1X274.3484Y-269.1890

G1 Z0F20000

(Start Block)


G1X21.4357Y-255.4600
G1Z5F20000
(Plotting speed under)
G1 F4000


G1X60.2649Y-246.6641

G1X116.5908Y-255.3649

G1X173.9413Y-265.0904

G1X224.1344Y-267.6584

G1X274.1259Y-270.0248

G1 Z0F20000

(Start Block)


G1X21.4344Y-256.5170
G1Z5F20000
(Plotting speed under)
G1 F4000


G1X60.2403Y-247.6978

G1X116.6774Y-256.5099

G1X174.1777Y-266.3851

G1X273.9033Y-270.8606

G1 Z0F20000

(Start Block)


G1X21.4332Y-257.5741
G1Z5F20000
(Plotting speed under)
G1 F4000


G1X60.2156Y-248.7314

G1X116.7640Y-257.6548

G1X174.4140Y-267.6797

G1X223.9256Y-269.5663

G1X273.6807Y-271.6964

G1 Z0F20000

(Start Block)


G1X21.4319Y-258.6311
G1Z5F20000
(Plotting speed under)
G1 F4000


G1X60.1909Y-249.7651

G1X116.8506Y-258.7997

G1X174.6504Y-268.9745

G1X223.8212Y-270.5202

G1X273.4581Y-272.5321

G1 Z0F20000

(Start Block)


G1X21.4306Y-259.6881
G1Z5F20000
(Plotting speed under)
G1 F4000


G1X60.1663Y-250.7988

G1X116.9372Y-259.9447

G1X174.8868Y-270.2692

G1X223.7167Y-271.4741

G1X273.2356Y-273.3679

G1 Z0F20000

(Start Block)


G1X21.4293Y-260.7452
G1Z5F20000
(Plotting speed under)
G1 F4000


G1X60.1416Y-251.8324

G1X117.0238Y-261.0896

G1X175.1231Y-271.5638

G1X223.6123Y-272.4280

G1X273.0130Y-274.2036

G1 Z0F20000

(Start Block)


G1X21.4280Y-261.8022
G1Z5F20000
(Plotting speed under)
G1 F4000


G1X60.1169Y-252.8661

G1X117.1104Y-262.2346

G1X175.3595Y-272.8585

G1X223.5079Y-273.3819

G1X272.7904Y-275.0394

G1 Z0F20000

(Start Block)


G1X21.4267Y-262.8593
G1Z5F20000
(Plotting speed under)
G1 F4000


G1X60.0923Y-253.8998

G1X117.1970Y-263.3795

G1X175.5958Y-274.1532

G1X223.4035Y-274.3358

G1X272.5679Y-275.8752

G1 Z0F20000

(Start Block)


G1X21.4254Y-263.9163
G1Z5F20000
(Plotting speed under)
G1 F4000


G1X60.0676Y-254.9334

G1X117.2836Y-264.5244

G1X175.8322Y-275.4479

G1X223.2990Y-275.2897

G1X272.3453Y-276.7109

G1 Z0F20000

(Start Block)


G1X21.4241Y-264.9734
G1Z5F20000
(Plotting speed under)
G1 F4000


G1X60.0429Y-255.9671

G1X117.3702Y-265.6694

G1X176.0685Y-276.7426

G1X223.1946Y-276.2436

G1X272.1227Y-277.5467

G1 Z0F20000

(Start Block)


G1X21.4229Y-266.0304
G1Z5F20000
(Plotting speed under)
G1 F4000


G1X60.0182Y-257.0008

G1X117.4568Y-266.8143

G1X176.3049Y-278.0373

G1X223.0902Y-277.1975

G1X271.9002Y-278.3825

G1 Z0F20000

(Start Block)


G1X21.4216Y-267.0875
G1Z5F20000
(Plotting speed under)
G1 F4000


G1X59.9936Y-258.0344

G1X117.5434Y-267.9592

G1X176.5413Y-279.3320

G1X222.9858Y-278.1514

G1X271.6776Y-279.2182

G1 Z0F20000

(Start Block)


G1X21.4203Y-268.1445
G1Z5F20000
(Plotting speed under)
G1 F4000


G1X59.9689Y-259.0681

G1X117.6300Y-269.1041

G1X176.7776Y-280.6267

G1X222.8813Y-279.1054

G1X271.4550Y-280.0540

G1 Z0F20000

(Start Block)


G1X21.2950Y-269.0776
G1Z5F20000
(Plotting speed under)
G1 F4000


G1X60.0739Y-260.2314

G1X117.7422Y-270.2747

G1X176.7273Y-281.6347

G1X222.8243Y-280.1066

G1X271.5018Y-281.1590

G1 Z0F20000

(Start Block)


G1X21.1698Y-270.0107
G1Z5F20000
(Plotting speed under)
G1 F4000


G1X60.1789Y-261.3947

G1X117.8544Y-271.4452

G1X176.6771Y-282.6428

G1X222.7672Y-281.1079

G1X271.5485Y-282.2641

G1 Z0F20000

(Start Block)


G1X21.0445Y-270.9437
G1Z5F20000
(Plotting speed under)
G1 F4000


G1X60.2838Y-262.5580

G1X117.9666Y-272.6158

G1X176.6268Y-283.6509

G1X222.7102Y-282.1092

G1X271.5952Y-283.3692

G1 Z0F20000

(Start Block)


G1X20.9192Y-271.8768
G1Z5F20000
(Plotting speed under)
G1 F4000


G1X60.3888Y-263.7213

G1X118.0788Y-273.7863

G1X176.5766Y-284.6590

G1X222.6532Y-283.1105

G1X271.6419Y-284.4742

G1 Z0F20000

(Start Block)


G1X20.7940Y-272.8099
G1Z5F20000
(Plotting speed under)
G1 F4000


G1X60.4938Y-264.8846

G1X118.1910Y-274.9568

G1X176.5263Y-285.6670

G1X222.5961Y-284.1118

G1X271.6887Y-285.5793

G1 Z0F20000

(Start Block)


G1X20.6687Y-273.7430
G1Z5F20000
(Plotting speed under)
G1 F4000


G1X60.5987Y-266.0479

G1X118.3032Y-276.1274

G1X176.4760Y-286.6751

G1X222.5391Y-285.1131

G1X271.7354Y-286.6843

G1 Z0F20000

(Start Block)


G1X20.5435Y-274.6760
G1Z5F20000
(Plotting speed under)
G1 F4000


G1X60.7037Y-267.2112

G1X118.4154Y-277.2979

G1X176.4258Y-287.6832

G1X222.4821Y-286.1144

G1X271.7821Y-287.7894

G1 Z0F20000

(Start Block)


G1X20.4182Y-275.6091
G1Z5F20000
(Plotting speed under)
G1 F4000


G1X60.8087Y-268.3745

G1X118.5276Y-278.4684

G1X176.3755Y-288.6913

G1X222.4250Y-287.1157

G1X271.8288Y-288.8945

G1 Z0F20000

(Start Block)


G1X20.2929Y-276.5422
G1Z5F20000
(Plotting speed under)
G1 F4000


G1X60.9137Y-269.5379

G1X176.3253Y-289.6993

G1X222.3680Y-288.1170

G1X271.8756Y-289.9995

G1 Z0F20000

(Start Block)


G1X20.1676Y-277.4752
G1Z5F20000
(Plotting speed under)
G1 F4000


G1X61.0186Y-270.7012

G1X118.7520Y-280.8095

G1X176.2750Y-290.7074

G1X222.3109Y-289.1183

G1X271.9223Y-291.1046

G1 Z0F20000

(Start Block)


G1X20.0424Y-278.4083
G1Z5F20000
(Plotting speed under)
G1 F4000


G1X61.1236Y-271.8645

G1X118.8642Y-281.9800

G1X176.2247Y-291.7155

G1X222.2539Y-290.1196

G1X271.9690Y-292.2096

G1 Z0F20000

(Start Block)


G1X19.9171Y-279.3414
G1Z5F20000
(Plotting speed under)
G1 F4000


G1X61.2286Y-273.0278

G1X118.9764Y-283.1506

G1X176.1745Y-292.7235

G1X222.1969Y-291.1209

G1X272.0157Y-293.3147

G1 Z0F20000

(Start Block)


G1X19.7918Y-280.2744
G1Z5F20000
(Plotting speed under)
G1 F4000


G1X61.3335Y-274.1911

G1X119.0886Y-284.3211

G1X176.1242Y-293.7316

G1X222.1398Y-292.1222

G1X272.0625Y-294.4198

G1 Z0F20000

(Start Block)


G1X19.6666Y-281.2075
G1Z5F20000
(Plotting speed under)
G1 F4000


G1X61.4385Y-275.3544

G1X119.2008Y-285.4916

G1X176.0740Y-294.7397

G1X222.0828Y-293.1235

G1X272.1092Y-295.5248

G1 Z0F20000

(Start Block)


G1X19.5413Y-282.1406
G1Z5F20000
(Plotting speed under)
G1 F4000


G1X61.5435Y-276.5177

G1X119.3130Y-286.6622

G1X176.0237Y-295.7478

G1X222.0257Y-294.1248

G1X272.1559Y-296.6299

G1 Z0F20000

(Start Block)


G1X19.4161Y-283.0737
G1Z5F20000
(Plotting speed under)
G1 F4000


G1X61.6485Y-277.6810

G1X119.4252Y-287.8327

G1X175.9734Y-296.7558

G1X221.9687Y-295.1261

G1X272.2026Y-297.7349

G1 Z0F20000

(Start Block)


G1X19.2908Y-284.0067
G1Z5F20000
(Plotting speed under)
G1 F4000


G1X61.7534Y-278.8443

G1X119.5374Y-289.0032

G1X175.9232Y-297.7639

G1X221.9117Y-296.1274

G1X272.2494Y-298.8400

G1 Z0F20000

(Start Block)


G1X19.1655Y-284.9398
G1Z5F20000
(Plotting speed under)
G1 F4000


G1X61.8584Y-280.0076

G1X119.6496Y-290.1738

G1X175.8729Y-298.7720

G1X221.8546Y-297.1286

G1X272.2961Y-299.9451

G1 Z0F20000

(Start Block)


G1X19.0403Y-285.8729
G1Z5F20000
(Plotting speed under)
G1 F4000


G1X61.9634Y-281.1709

G1X119.7618Y-291.3443

G1X175.8226Y-299.7800

G1X221.7976Y-298.1299

G1X272.3428Y-301.0501

G1 Z0F20000

(Start Block)


G1X18.9150Y-286.8059
G1Z5F20000
(Plotting speed under)
G1 F4000


G1X62.0683Y-282.3342

G1X119.8740Y-292.5148

G1X175.7724Y-300.7881

G1X221.7405Y-299.1312

G1X272.3896Y-302.1552

G1 Z0F20000

(Start Block)


G1X18.7897Y-287.7390
G1Z5F20000
(Plotting speed under)
G1 F4000


G1X62.1733Y-283.4975

G1X119.9862Y-293.6854

G1X175.7221Y-301.7962

G1X221.6835Y-300.1325

G1X272.4363Y-303.2603

G1 Z0F20000

(Start Block)


G1X18.6645Y-288.6721
G1Z5F20000
(Plotting speed under)
G1 F4000


G1X62.2783Y-284.6608

G1X120.0984Y-294.8559

G1X175.6718Y-302.8043

G1X221.6265Y-301.1338

G1X272.4830Y-304.3653

G1 Z0F20000

(Start Block)


G1X18.5392Y-289.6051
G1Z5F20000
(Plotting speed under)
G1 F4000


G1X62.3832Y-285.8241

G1X120.2106Y-296.0264

G1X175.6216Y-303.8123

G1X221.5694Y-302.1351

G1X272.5297Y-305.4704

G1 Z0F20000

(Start Block)


G1X18.4140Y-290.5382
G1Z5F20000
(Plotting speed under)
G1 F4000


G1X62.4882Y-286.9874

G1X120.3228Y-297.1970

G1X175.5713Y-304.8204

G1X221.5124Y-303.1364

G1X272.5765Y-306.5754

G1 Z0F20000

(Start Block)


G1X18.2887Y-291.4713
G1Z5F20000
(Plotting speed under)
G1 F4000


G1X62.5932Y-288.1507

G1X120.4350Y-298.3675

G1X175.5211Y-305.8285

G1X221.4553Y-304.1377

G1X272.6232Y-307.6805

G1 Z0F20000

(Start Block)


G1X18.1634Y-292.4043
G1Z5F20000
(Plotting speed under)
G1 F4000


G1X62.6982Y-289.3140

G1X120.5472Y-299.5380

G1X175.4708Y-306.8365

G1X221.3983Y-305.1390

G1X272.6699Y-308.7856

G1 Z0F20000

(Start Block)


G1X18.0381Y-293.3374
G1Z5F20000
(Plotting speed under)
G1 F4000


G1X62.8031Y-290.4773

G1X120.6594Y-300.7086

G1X175.4205Y-307.8446

G1X221.3413Y-306.1403

G1X272.7166Y-309.8906

G1 Z0F20000

(Start Block)


G1X17.9129Y-294.2705
G1Z5F20000
(Plotting speed under)
G1 F4000


G1X62.9081Y-291.6406

G1X120.7716Y-301.8791

G1X175.3703Y-308.8527

G1X221.2842Y-307.1416

G1X272.7634Y-310.9957

G1 Z0F20000

(Start Block)


G1X17.7876Y-295.2036
G1Z5F20000
(Plotting speed under)
G1 F4000


G1X63.0131Y-292.8039

G1X120.8838Y-303.0496

G1X175.3200Y-309.8607

G1X221.2272Y-308.1429

G1X272.8101Y-312.1007

G1 Z0F20000

(Start Block)


G1X17.6623Y-296.1366
G1Z5F20000
(Plotting speed under)
G1 F4000


G1X63.1180Y-293.9672

G1X120.9960Y-304.2202

G1X175.2698Y-310.8688

G1X221.1701Y-309.1442

G1X272.8568Y-313.2058

G1 Z0F20000

(Start Block)


G1X17.5371Y-297.0697
G1Z5F20000
(Plotting speed under)
G1 F4000


G1X63.2230Y-295.1305

G1X121.1082Y-305.3907

G1X175.2195Y-311.8769

G1X221.1131Y-310.1455

G1X272.9035Y-314.3109

G1 Z0F20000

(Start Block)


G1X17.4118Y-298.0028
G1Z5F20000
(Plotting speed under)
G1 F4000


G1X63.3280Y-296.2939

G1X121.2204Y-306.5612

G1X175.1692Y-312.8850

G1X221.0561Y-311.1468

G1X272.9503Y-315.4159

G1 Z0F20000

(Start Block)


G1X17.2866Y-298.9358
G1Z5F20000
(Plotting speed under)
G1 F4000


G1X63.4329Y-297.4572

G1X121.3326Y-307.7317

G1X175.1190Y-313.8931

G1X220.9990Y-312.1481

G1X272.9970Y-316.5210

G1 Z0F20000

(Start Block)


G1X17.1613Y-299.8689
G1Z5F20000
(Plotting speed under)
G1 F4000


G1X63.5379Y-298.6205

G1X121.4448Y-308.9023

G1X175.0687Y-314.9011

G1X220.9420Y-313.1494

G1X273.0437Y-317.6260

G1 Z0F20000

(Start Block)


G1X17.0360Y-300.8020
G1Z5F20000
(Plotting speed under)
G1 F4000


G1X63.6429Y-299.7838

G1X121.5570Y-310.0728

G1X175.0184Y-315.9092

G1X220.8849Y-314.1507

G1X273.0904Y-318.7311

G1 Z0F20000

(Start Block)


G1X16.9108Y-301.7350
G1Z5F20000
(Plotting speed under)
G1 F4000


G1X63.7478Y-300.9471

G1X121.6692Y-311.2434

G1X174.9682Y-316.9173

G1X220.8279Y-315.1519

G1X273.1372Y-319.8362

G1 Z0F20000

(Start Block)


G1X16.7855Y-302.6681
G1Z5F20000
(Plotting speed under)
G1 F4000


G1X63.8528Y-302.1104

G1X121.7814Y-312.4139

G1X174.9179Y-317.9253

G1X220.7709Y-316.1532

G1X273.1839Y-320.9412

G1 Z0F20000

(Start Block)


G1X16.6602Y-303.6012
G1Z5F20000
(Plotting speed under)
G1 F4000


G1X63.9578Y-303.2737

G1X121.8936Y-313.5844

G1X174.8676Y-318.9334

G1X220.7138Y-317.1545

G1X273.2306Y-322.0463

G1 Z0F20000

(Start Block)


G1X16.5350Y-304.5342
G1Z5F20000
(Plotting speed under)
G1 F4000


G1X64.0628Y-304.4370

G1X122.0058Y-314.7550

G1X174.8174Y-319.9415

G1X220.6568Y-318.1558

G1X273.2773Y-323.1514

G1 Z0F20000

(Start Block)


G1X16.4097Y-305.4673
G1Z5F20000
(Plotting speed under)
G1 F4000


G1X64.1677Y-305.6003

G1X122.1180Y-315.9255

G1X174.7671Y-320.9496

G1X220.5998Y-319.1572

G1X273.3241Y-324.2564

G1 Z0F20000

(Start Block)


G1X16.2845Y-306.4004
G1Z5F20000
(Plotting speed under)
G1 F4000


G1X64.2727Y-306.7636

G1X122.2302Y-317.0960

G1X174.7169Y-321.9576

G1X220.5427Y-320.1584

G1X273.3708Y-325.3615

G1 Z0F20000

(Start Block)


G1X16.1592Y-307.3334
G1Z5F20000
(Plotting speed under)
G1 F4000


G1X64.3777Y-307.9269

G1X122.3424Y-318.2666

G1X174.6666Y-322.9657

G1X220.4856Y-321.1597

G1X273.4175Y-326.4665

G1 Z0F20000

(Start Block)


G1X16.0339Y-308.2665
G1Z5F20000
(Plotting speed under)
G1 F4000


G1X64.4826Y-309.0902

G1X122.4546Y-319.4371

G1X174.6163Y-323.9738

G1X220.4286Y-322.1610

G1X273.4642Y-327.5716

G1 Z0F20000

(Start Block)


G1X15.9086Y-309.1996
G1Z5F20000
(Plotting speed under)
G1 F4000


G1X64.5876Y-310.2535

G1X122.5668Y-320.6077

G1X174.5661Y-324.9819

G1X220.3716Y-323.1623

G1X273.5110Y-328.6767

G1 Z0F20000

(Start Block)


G1X15.7834Y-310.1327
G1Z5F20000
(Plotting speed under)
G1 F4000


G1X64.6926Y-311.4168

G1X122.6790Y-321.7782

G1X174.5158Y-325.9899

G1X220.3145Y-324.1636

G1X273.5577Y-329.7817

G1 Z0F20000

(Start Block)


G1X15.8121Y-311.2197
G1Z5F20000
(Plotting speed under)
G1 F4000


G1X65.3562Y-313.1388

G1X122.4742Y-322.6317

G1X173.9764Y-326.5089

G1X220.2884Y-325.1958

G1X273.5801Y-330.8624

G1 Z0F20000

(Start Block)


G1X15.8409Y-312.3068
G1Z5F20000
(Plotting speed under)
G1 F4000


G1X66.0199Y-314.8608

G1X122.2693Y-323.4852

G1X173.4371Y-327.0278

G1X220.2622Y-326.2280

G1X273.6024Y-331.9431

G1 Z0F20000

(Start Block)


G1X15.8696Y-313.3938
G1Z5F20000
(Plotting speed under)
G1 F4000


G1X66.6835Y-316.5828

G1X122.0645Y-324.3387

G1X172.8977Y-327.5468

G1X220.2361Y-327.2602

G1X273.6248Y-333.0238

G1 Z0F20000

(Start Block)


G1X15.8983Y-314.4809
G1Z5F20000
(Plotting speed under)
G1 F4000


G1X67.3472Y-318.3047

G1X121.8597Y-325.1922

G1X172.3583Y-328.0658

G1X220.2099Y-328.2923

G1X273.6471Y-334.1045

G1 Z0F20000

(Start Block)


G1X15.9270Y-315.5680
G1Z5F20000
(Plotting speed under)
G1 F4000


G1X68.0108Y-320.0268

G1X121.6549Y-326.0457

G1X171.8189Y-328.5847

G1X220.1838Y-329.3245

G1X273.6695Y-335.1852

G1 Z0F20000

(Start Block)


G1X15.9558Y-316.6550
G1Z5F20000
(Plotting speed under)
G1 F4000


G1X121.4500Y-326.8992

G1X171.2795Y-329.1037

G1X220.1576Y-330.3567

G1X273.6918Y-336.2659

G1 Z0F20000

(Start Block)


G1X15.9845Y-317.7421
G1Z5F20000
(Plotting speed under)
G1 F4000


G1X69.3381Y-323.4707

G1X121.2452Y-327.7528

G1X220.1315Y-331.3889

G1X273.7142Y-337.3465

G1 Z0F20000

(Start Block)


G1X16.0132Y-318.8292
G1Z5F20000
(Plotting speed under)
G1 F4000


G1X70.0018Y-325.1927

G1X121.0404Y-328.6063

G1X170.2008Y-330.1416

G1X220.1053Y-332.4211

G1X273.7365Y-338.4272

G1 Z0F20000

(Start Block)


G1X16.0419Y-319.9162
G1Z5F20000
(Plotting speed under)
G1 F4000


G1X70.6655Y-326.9147

G1X120.8356Y-329.4598

G1X169.6614Y-330.6606

G1X220.0792Y-333.4533

G1X273.7589Y-339.5079

G1 Z0F20000

(Start Block)


G1X16.0707Y-321.0033
G1Z5F20000
(Plotting speed under)
G1 F4000


G1X71.3291Y-328.6367

G1X120.6308Y-330.3133

G1X169.1220Y-331.1795

G1X220.0530Y-334.4855

G1X273.7812Y-340.5886

G1 Z0F20000

(Start Block)


G1X16.0994Y-322.0904
G1Z5F20000
(Plotting speed under)
G1 F4000


G1X71.9927Y-330.3587

G1X120.4259Y-331.1668

G1X168.5827Y-331.6985

G1X220.0269Y-335.5176

G1X273.8036Y-341.6693

G1 Z0F20000

(Start Block)


G1X16.1281Y-323.1774
G1Z5F20000
(Plotting speed under)
G1 F4000


G1X72.6564Y-332.0807

G1X120.2211Y-332.0203

G1X168.0433Y-332.2174

G1X220.0007Y-336.5498

G1X273.8260Y-342.7500

G1 Z0F20000

(Start Block)


G1X16.1569Y-324.2645
G1Z5F20000
(Plotting speed under)
G1 F4000


G1X73.3201Y-333.8026

G1X120.0163Y-332.8738

G1X167.5039Y-332.7364

G1X219.9746Y-337.5820

G1X273.8483Y-343.8307

G1 Z0F20000

(Start Block)


G1X16.1856Y-325.3516
G1Z5F20000
(Plotting speed under)
G1 F4000


G1X73.9837Y-335.5246

G1X119.8114Y-333.7273

G1X166.9645Y-333.2554

G1X219.9484Y-338.6142

G1X273.8707Y-344.9114

G1 Z0F20000

(Start Block)


G1X16.2143Y-326.4386
G1Z5F20000
(Plotting speed under)
G1 F4000


G1X74.6474Y-337.2466

G1X119.6066Y-334.5808

G1X166.4251Y-333.7743

G1X219.9223Y-339.6464

G1X273.8930Y-345.9921

G1 Z0F20000

(Start Block)


G1X16.2430Y-327.5257
G1Z5F20000
(Plotting speed under)
G1 F4000


G1X75.3110Y-338.9686

G1X119.4018Y-335.4344

G1X165.8858Y-334.2933

G1X273.9154Y-347.0727

G1 Z0F20000

(Start Block)


G1X16.2718Y-328.6128
G1Z5F20000
(Plotting speed under)
G1 F4000


G1X75.9747Y-340.6906

G1X119.1970Y-336.2878

G1X165.3464Y-334.8122

G1X219.8700Y-341.7108

G1X273.9377Y-348.1534

G1 Z0F20000

(Start Block)


G1X16.3005Y-329.6998
G1Z5F20000
(Plotting speed under)
G1 F4000


G1X76.6384Y-342.4126

G1X118.9922Y-337.1414

G1X164.8070Y-335.3312

G1X219.8438Y-342.7429

G1X273.9601Y-349.2341

G1 Z0F20000

(Start Block)


G1X16.3292Y-330.7869
G1Z5F20000
(Plotting speed under)
G1 F4000


G1X77.3020Y-344.1346

G1X118.7873Y-337.9949

G1X164.2677Y-335.8501

G1X219.8177Y-343.7751

G1X273.9824Y-350.3148

G1 Z0F20000

(Start Block)


G1X16.3580Y-331.8739
G1Z5F20000
(Plotting speed under)
G1 F4000


G1X77.9656Y-345.8565

G1X118.5825Y-338.8484

G1X163.7283Y-336.3691

G1X219.7915Y-344.8073

G1X274.0048Y-351.3955

G1 Z0F20000

(Start Block)


G1X16.3867Y-332.9610
G1Z5F20000
(Plotting speed under)
G1 F4000


G1X78.6293Y-347.5785

G1X118.3777Y-339.7019

G1X163.1889Y-336.8881

G1X219.7654Y-345.8395

G1X274.0271Y-352.4762

G1 Z0F20000

(Start Block)


G1X16.4154Y-334.0481
G1Z5F20000
(Plotting speed under)
G1 F4000


G1X79.2929Y-349.3005

G1X118.1728Y-340.5554

G1X162.6495Y-337.4070

G1X219.7392Y-346.8717

G1X274.0495Y-353.5569

G1 Z0F20000

(Start Block)


G1X16.4442Y-335.1351
G1Z5F20000
(Plotting speed under)
G1 F4000


G1X79.9566Y-351.0225

G1X117.9680Y-341.4089

G1X162.1102Y-337.9260

G1X219.7131Y-347.9039

G1X274.0719Y-354.6376

G1 Z0F20000

(Start Block)


G1X16.4729Y-336.2222
G1Z5F20000
(Plotting speed under)
G1 F4000


G1X80.6203Y-352.7445

G1X117.7632Y-342.2624

G1X161.5708Y-338.4449

G1X219.6869Y-348.9360

G1X274.0942Y-355.7182

G1 Z0F20000

(Start Block)


G1X16.5016Y-337.3092
G1Z5F20000
(Plotting speed under)
G1 F4000


G1X81.2839Y-354.4665

G1X117.5584Y-343.1159

G1X161.0314Y-338.9639

G1X219.6608Y-349.9682

G1X274.1166Y-356.7989

G1 Z0F20000

(Start Block)


G1X16.5303Y-338.3963
G1Z5F20000
(Plotting speed under)
G1 F4000


G1X81.9476Y-356.1885

G1X117.3536Y-343.9694

G1X160.4920Y-339.4829

G1X219.6346Y-351.0004

G1X274.1389Y-357.8796

G1 Z0F20000

(Start Block)


G1X16.5591Y-339.4834
G1Z5F20000
(Plotting speed under)
G1 F4000


G1X82.6112Y-357.9105

G1X117.1488Y-344.8230

G1X159.9526Y-340.0018

G1X219.6085Y-352.0326

G1X274.1613Y-358.9603

G1 Z0F20000

(Start Block)


G1X16.5878Y-340.5704
G1Z5F20000
(Plotting speed under)
G1 F4000


G1X83.2749Y-359.6324

G1X116.9439Y-345.6765

G1X159.4133Y-340.5208

G1X219.5823Y-353.0648

G1X274.1836Y-360.0410

G1 Z0F20000

(Start Block)


G1X16.6165Y-341.6575
G1Z5F20000
(Plotting speed under)
G1 F4000


G1X83.9385Y-361.3544

G1X116.7391Y-346.5300

G1X158.8739Y-341.0397

G1X219.5562Y-354.0970

G1X274.2060Y-361.1217

G1 Z0F20000

(Start Block)


G1X16.6452Y-342.7446
G1Z5F20000
(Plotting speed under)
G1 F4000


G1X84.6022Y-363.0764

G1X116.5343Y-347.3835

G1X158.3345Y-341.5587

G1X219.5300Y-355.1292

G1X274.2283Y-362.2024

G1 Z0F20000

(Start Block)


G1X16.6740Y-343.8316
G1Z5F20000
(Plotting speed under)
G1 F4000


G1X85.2658Y-364.7984

G1X116.3294Y-348.2370

G1X157.7952Y-342.0776

G1X219.5039Y-356.1613

G1X274.2507Y-363.2831

G1 Z0F20000

(Start Block)


G1X16.7027Y-344.9187
G1Z5F20000
(Plotting speed under)
G1 F4000


G1X85.9295Y-366.5204

G1X116.1246Y-349.0905

G1X157.2558Y-342.5966

G1X219.4777Y-357.1935

G1X274.2731Y-364.3638

G1 Z0F20000

(Start Block)


G1X16.7314Y-346.0058
G1Z5F20000
(Plotting speed under)
G1 F4000


G1X86.5931Y-368.2424

G1X115.9198Y-349.9440

G1X156.7164Y-343.1156

G1X219.4516Y-358.2257

G1X274.2954Y-365.4444

G1 Z0F20000

(Start Block)


G1X16.7602Y-347.0928
G1Z5F20000
(Plotting speed under)
G1 F4000


G1X87.2568Y-369.9644

G1X115.7150Y-350.7975

G1X156.1770Y-343.6345

G1X219.4254Y-359.2579

G1X274.3178Y-366.5251

G1 Z0F20000

(Start Block)


G1X16.7889Y-348.1799
G1Z5F20000
(Plotting speed under)
G1 F4000


G1X87.9204Y-371.6864

G1X115.5102Y-351.6510

G1X155.6377Y-344.1535

G1X219.3993Y-360.2901

G1X274.3401Y-367.6059

G1 Z0F20000

(Start Block)


G1X16.8176Y-349.2669
G1Z5F20000
(Plotting speed under)
G1 F4000


G1X88.5841Y-373.4084

G1X115.3053Y-352.5045

G1X155.0983Y-344.6724

G1X219.3731Y-361.3223

G1X274.3625Y-368.6865

G1 Z0F20000

(Start Block)


G1X16.8463Y-350.3540
G1Z5F20000
(Plotting speed under)
G1 F4000


G1X89.2477Y-375.1303

G1X115.1005Y-353.3581

G1X154.5589Y-345.1914

G1X219.3470Y-362.3544

G1X274.3848Y-369.7672

G1 Z0F20000

(Start Block)


G1X16.8751Y-351.4411
G1Z5F20000
(Plotting speed under)
G1 F4000


G1X89.9114Y-376.8523

G1X114.8957Y-354.2116

G1X154.0195Y-345.7104

G1X219.3208Y-363.3866

G1X274.4072Y-370.8479

G1 Z0F20000

(Start Block)


G1X16.9038Y-352.5281
G1Z5F20000
(Plotting speed under)
G1 F4000


G1X90.5750Y-378.5743

G1X114.6909Y-355.0651

G1X153.4801Y-346.2293

G1X219.2947Y-364.4188

G1X274.4296Y-371.9286

G1 Z0F20000

(Start Block)


G1X16.9325Y-353.6152
G1Z5F20000
(Plotting speed under)
G1 F4000


G1X91.2387Y-380.2963

G1X114.4860Y-355.9186

G1X152.9408Y-346.7483

G1X219.2685Y-365.4510

G1X274.4519Y-373.0093

G1 Z0F20000

(Start Block)


G1X16.9613Y-354.7022
G1Z5F20000
(Plotting speed under)
G1 F4000


G1X91.9023Y-382.0183

G1X114.2812Y-356.7721

G1X152.4014Y-347.2672

G1X219.2424Y-366.4832

G1X274.4742Y-374.0900

G1 Z0F20000

(Start Block)


G1X16.9900Y-355.7893
G1Z5F20000
(Plotting speed under)
G1 F4000


G1X92.5660Y-383.7403

G1X114.0764Y-357.6256

G1X151.8620Y-347.7862

G1X219.2162Y-367.5154

G1X274.4966Y-375.1707

G1 Z0F20000

(Start Block)


G1X17.0187Y-356.8764
G1Z5F20000
(Plotting speed under)
G1 F4000


G1X93.2296Y-385.4622

G1X113.8716Y-358.4791

G1X151.3226Y-348.3051

G1X219.1901Y-368.5476

G1X274.5190Y-376.2514

G1 Z0F20000

(Start Block)


G1X17.0475Y-357.9635
G1Z5F20000
(Plotting speed under)
G1 F4000


G1X93.8933Y-387.1842

G1X113.6667Y-359.3326

G1X150.7833Y-348.8241

G1X219.1639Y-369.5798

G1X274.5413Y-377.3320

G1 Z0F20000

(Start Block)


G1X17.0762Y-359.0505
G1Z5F20000
(Plotting speed under)
G1 F4000


G1X94.5569Y-388.9062

G1X113.4619Y-360.1861

G1X150.2439Y-349.3431

G1X219.1378Y-370.6119

G1X274.5637Y-378.4127

G1 Z0F20000


G00 X0.0000 Y0.0000


