$H
G21
G17
G90
G1 Z0F20000
G1 F15000

(Start Layer)

(Start Block)


G1X54.1662Y-69.7010
G1Z5F20000
(Plotting speed under)
G1 F4000


G1X56.1854Y-73.7098

G1X57.7158Y-77.4775

G1X58.8256Y-81.1738

G1X59.5453Y-84.8889

G1X59.7767Y-86.9178

G1X59.9011Y-89.0483

G1X59.9041Y-91.2023

G1X59.7986Y-93.1441

G1X59.5482Y-95.4195

G1X59.1346Y-97.7760

G1X58.7728Y-98.9762

G1X58.5983Y-99.2808

G1X58.3758Y-99.4450

G1X58.1735Y-99.4179

G1X57.8964Y-99.1888

G1X57.2399Y-98.1652

G1X52.5423Y-88.4820

G1X50.8886Y-85.5301

G1X49.8353Y-83.9012

G1X48.5443Y-82.1119

G1X43.9920Y-76.2685

G1X42.9134Y-74.5694

G1X42.0186Y-72.7769

G1X41.3458Y-70.9869

G1X40.7911Y-68.9813

G1X40.3402Y-66.7194

G1X40.0438Y-64.4019

G1X40.0041Y-62.8240

G1X40.1397Y-61.4847

G1X40.4793Y-60.2949

G1X40.9857Y-59.4026

G1X41.6128Y-58.7817

G1X42.4059Y-58.3634

G1X43.3343Y-58.1752

G1X44.4416Y-58.2370

G1X45.5365Y-58.5325

G1X46.6639Y-59.0393

G1X47.8717Y-59.8052

G1X48.9657Y-60.6917

G1X50.0208Y-61.7359

G1X50.9939Y-62.8728

G1X53.1291Y-66.0118

G1X55.7976Y-70.5735

G1X57.7851Y-74.6092

G1X59.0797Y-77.9412

G1X60.0132Y-81.1878

G1X60.6532Y-84.5601

G1X60.9846Y-87.9604

G1X61.0035Y-91.9052

G1X60.6461Y-95.8185

G1X60.2460Y-98.2514

G1X59.8888Y-99.8095

G1X59.5903Y-100.6073

G1X59.3632Y-100.8917

G1X59.2006Y-100.9450

G1X59.0259Y-100.8912

G1X58.7334Y-100.6154

G1X58.0885Y-99.5860

G1X53.6013Y-90.6943

G1X52.0047Y-87.7069

G1X50.8694Y-85.8530

G1X49.4803Y-83.8621

G1X48.2077Y-82.2565

G1X42.7217Y-76.0643

G1X41.5629Y-74.4063

G1X40.6443Y-72.6798

G1X39.8740Y-70.6888

G1X39.2624Y-68.4766

G1X38.7241Y-65.7770

G1X38.3962Y-63.1565

G1X38.3678Y-61.4269

G1X38.5434Y-59.9488

G1X38.9377Y-58.6878

G1X39.5398Y-57.6929

G1X40.2949Y-56.9877

G1X41.2344Y-56.5152

G1X42.2968Y-56.2957

G1X43.4962Y-56.3252

G1X44.7225Y-56.5938

G1X46.0672Y-57.1242

G1X47.3839Y-57.8823

G1X48.6458Y-58.8244

G1X49.8083Y-59.9070

G1X50.9577Y-61.1792

G1X53.3495Y-64.5407

G1X56.5792Y-69.6669

G1X57.8552Y-71.9577

G1X58.8365Y-73.9453

G1X60.1998Y-77.3040

G1X61.1698Y-80.5955

G1X61.8374Y-84.0865

G1X62.1850Y-87.7601

G1X62.2365Y-89.9131

G1X62.1796Y-92.0460

G1X62.0391Y-93.9839

G1X61.7506Y-96.3861

G1X61.3096Y-99.0149

G1X60.9138Y-100.8133

G1X60.5381Y-101.8746

G1X60.3415Y-102.1324

G1X60.1749Y-102.2035

G1X59.8070Y-102.0093

G1X59.2215Y-101.1769

G1X53.8737Y-91.1525

G1X51.8234Y-87.5978

G1X50.6030Y-85.7311

G1X49.0141Y-83.6584

G1X47.5199Y-81.9528

G1X45.9005Y-80.3009

G1X42.6038Y-77.2012

G1X41.4656Y-76.0142

G1X40.3068Y-74.5223

G1X39.3254Y-72.8000

G1X38.5256Y-70.8086

G1X37.8369Y-68.3632

G1X37.1897Y-65.1680

G1X36.8199Y-62.1886

G1X36.7996Y-60.3059

G1X37.0092Y-58.7087

G1X37.4532Y-57.3736

G1X38.1573Y-56.2607

G1X39.0632Y-55.4537

G1X40.1027Y-54.9420

G1X41.3580Y-54.6658

G1X42.6670Y-54.6585

G1X44.0104Y-54.8886

G1X45.4980Y-55.3895

G1X46.9308Y-56.1231

G1X48.3138Y-57.0575

G1X49.3727Y-57.9593

G1X50.4698Y-59.0500

G1X51.3585Y-60.0645

G1X52.2909Y-61.2917

G1X57.1992Y-68.3055

G1X58.7842Y-70.8798

G1X59.9765Y-73.1254

G1X60.7060Y-74.7208

G1X61.4010Y-76.4935

G1X62.4169Y-79.8850

G1X63.1121Y-83.5589

G1X63.4603Y-87.4746

G1X63.4997Y-89.6863

G1X63.4340Y-91.8322

G1X63.2670Y-94.0542

G1X62.9886Y-96.2885

G1X62.5597Y-98.9598

G1X62.0011Y-101.6234

G1X61.5925Y-102.8590

G1X61.3928Y-103.1517

G1X61.2201Y-103.2463

G1X60.8317Y-103.0614

G1X60.2594Y-102.2765

G1X56.8550Y-96.1564

G1X53.9984Y-91.2518

G1X51.6585Y-87.5088

G1X50.1600Y-85.3688

G1X48.5115Y-83.4155

G1X46.6535Y-81.5136

G1X44.9906Y-80.0358

G1X41.7251Y-77.4450

G1X40.2454Y-76.1379

G1X39.0467Y-74.7486

G1X38.1076Y-73.2099

G1X37.2584Y-71.1911

G1X36.5091Y-68.5910

G1X35.7349Y-64.8219

G1X35.3327Y-61.6449

G1X35.2958Y-59.6154

G1X35.5203Y-57.8553

G1X35.9803Y-56.4540

G1X36.7257Y-55.2398

G1X37.7070Y-54.3254

G1X38.7985Y-53.7304

G1X40.1487Y-53.3421

G1X41.6639Y-53.2253

G1X43.2078Y-53.3735

G1X44.8743Y-53.8110

G1X46.4784Y-54.5097

G1X47.9684Y-55.3976

G1X48.9348Y-56.1338

G1X50.0365Y-57.1227

G1X51.2008Y-58.3222

G1X52.0397Y-59.3169

G1X58.1381Y-67.2199

G1X59.7723Y-69.6131

G1X61.1159Y-71.9485

G1X61.9073Y-73.5912

G1X62.6308Y-75.3624

G1X63.1933Y-77.0194

G1X63.7027Y-78.8567

G1X64.1211Y-80.7716

G1X64.4393Y-82.7353

G1X64.6745Y-84.8575

G1X64.7977Y-86.8731

G1X64.7680Y-91.2675

G1X64.5782Y-93.7949

G1X64.3208Y-95.9015

G1X63.7956Y-99.1734

G1X63.1677Y-102.2017

G1X62.7393Y-103.5936

G1X62.5660Y-103.9080

G1X62.3367Y-104.0892

G1X62.1408Y-104.0661

G1X61.9143Y-103.9080

G1X61.3693Y-103.1883

G1X57.6221Y-96.8682

G1X53.9083Y-90.9705

G1X51.4224Y-87.3168

G1X49.6054Y-84.9195

G1X47.8143Y-82.9953

G1X45.6382Y-81.0316

G1X43.8018Y-79.6449

G1X40.4098Y-77.4356

G1X38.9282Y-76.3151

G1X37.7929Y-75.1098

G1X36.9138Y-73.7443

G1X36.0232Y-71.6867

G1X35.2317Y-68.9556

G1X34.3196Y-64.4770

G1X33.9187Y-61.2766

G1X33.8678Y-59.1874

G1X34.0972Y-57.3000

G1X34.6006Y-55.7441

G1X35.3847Y-54.4616

G1X36.4139Y-53.4811

G1X37.6458Y-52.7652

G1X39.1867Y-52.2665

G1X40.7992Y-52.0594

G1X42.5142Y-52.1088

G1X44.2896Y-52.4418

G1X45.8571Y-52.9786

G1X47.6106Y-53.8569

G1X48.5777Y-54.4976

G1X49.6239Y-55.3411

G1X51.9593Y-57.6447

G1X54.1318Y-60.2459

G1X59.4071Y-66.2668

G1X60.9230Y-68.2877

G1X62.2902Y-70.4976

G1X63.1203Y-72.1323

G1X63.8758Y-73.9027

G1X64.4906Y-75.6580

G1X65.0534Y-77.6549

G1X65.4917Y-79.6538

G1X65.8256Y-81.7232

G1X66.0710Y-83.9663

G1X66.2000Y-86.1747

G1X66.2266Y-88.6042

G1X66.1515Y-90.8416

G1X65.9350Y-93.5602

G1X65.6558Y-95.8288

G1X65.0182Y-99.6621

G1X64.3476Y-102.8338

G1X63.9031Y-104.2609

G1X63.6735Y-104.6399

G1X63.4571Y-104.7628

G1X63.0256Y-104.5392

G1X62.5343Y-103.9120

G1X58.1617Y-97.0582

G1X53.0047Y-89.5562

G1X50.7586Y-86.5940

G1X48.8866Y-84.3681

G1X46.9942Y-82.5307

G1X44.5272Y-80.5946

G1X42.4870Y-79.3267

G1X39.1367Y-77.6373

G1X37.7445Y-76.7744

G1X36.6544Y-75.7461

G1X35.8073Y-74.5227

G1X34.8910Y-72.4981

G1X34.0497Y-69.6482

G1X33.0172Y-64.5572

G1X32.5893Y-61.2506

G1X32.5169Y-58.9922

G1X32.7387Y-57.0282

G1X33.2713Y-55.3239

G1X34.1097Y-53.9500

G1X35.1553Y-52.9282

G1X36.4566Y-52.1227

G1X38.0850Y-51.5189

G1X39.8591Y-51.1753

G1X41.8463Y-51.0879

G1X43.7549Y-51.2929

G1X45.3795Y-51.6928

G1X47.2940Y-52.4769

G1X48.8898Y-53.4400

G1X50.7689Y-55.0114

G1X52.1858Y-56.3706

G1X54.9483Y-59.3256

G1X59.3381Y-63.5137

G1X61.6338Y-66.0631

G1X63.4013Y-68.6274

G1X64.3179Y-70.3264

G1X65.1305Y-72.1470

G1X65.7971Y-73.9869

G1X66.4084Y-76.1004

G1X66.8679Y-78.1414

G1X67.2395Y-80.3884

G1X67.5104Y-82.8220

G1X67.6486Y-85.1362

G1X67.6785Y-87.6765

G1X67.6016Y-90.1075

G1X67.3854Y-92.8408

G1X67.0570Y-95.5857

G1X66.3344Y-99.8436

G1X65.6310Y-103.1566

G1X65.1693Y-104.6780

G1X64.9550Y-105.0754

G1X64.7021Y-105.2592

G1X64.3660Y-105.1500

G1X63.8452Y-104.6024

G1X59.0355Y-97.6157

G1X52.4283Y-88.7814

G1X50.3333Y-86.2532

G1X48.1234Y-83.8780

G1X46.0234Y-82.0405

G1X43.3771Y-80.2663

G1X41.1438Y-79.1812

G1X37.9087Y-78.0577

G1X36.6321Y-77.4484

G1X35.6117Y-76.6182

G1X34.8004Y-75.5595

G1X34.2813Y-74.6079

G1X33.8389Y-73.5634

G1X32.9588Y-70.6615

G1X31.9169Y-65.5699

G1X31.3708Y-61.8919

G1X31.2386Y-59.2252

G1X31.4096Y-57.2002

G1X31.9051Y-55.3931

G1X32.2716Y-54.6135

G1X32.7138Y-53.9273

G1X33.8048Y-52.7535

G1X35.2414Y-51.8029

G1X36.9223Y-51.1021

G1X38.9131Y-50.5926

G1X41.2586Y-50.3237

G1X43.2867Y-50.3727

G1X45.0679Y-50.6408

G1X47.0391Y-51.2668

G1X48.5411Y-51.9971

G1X49.8259Y-52.8940

G1X52.3287Y-55.0451

G1X55.2887Y-57.7980

G1X60.3402Y-61.7594

G1X62.5899Y-63.9388

G1X63.6003Y-65.1855

G1X64.4672Y-66.4251

G1X65.4391Y-68.1093

G1X66.3586Y-70.0672

G1X67.0855Y-71.9947

G1X67.7310Y-74.1412

G1X68.2699Y-76.4435

G1X68.6717Y-78.7927

G1X68.9689Y-81.3311

G1X69.1335Y-83.8460

G1X69.1749Y-86.5672

G1X69.0914Y-89.3836

G1X68.8635Y-92.2349

G1X68.4912Y-95.3521

G1X67.6659Y-100.1224

G1X66.9523Y-103.4312

G1X66.4660Y-105.0150

G1X66.2337Y-105.4306

G1X65.9814Y-105.6062

G1X65.6590Y-105.5273

G1X65.0537Y-104.9338

G1X60.0645Y-98.2156

G1X51.6874Y-87.9453

G1X49.7157Y-85.7612

G1X47.4239Y-83.5463

G1X45.2192Y-81.7807

G1X42.7029Y-80.3055

G1X41.5100Y-79.7870

G1X40.0412Y-79.3093

G1X36.8561Y-78.7391

G1X35.7831Y-78.4182

G1X35.2343Y-78.1431

G1X34.6837Y-77.7315

G1X33.8406Y-76.7693

G1X33.3183Y-75.8828

G1X32.8257Y-74.7848

G1X31.9197Y-71.8591

G1X31.0462Y-67.7378

G1X30.1870Y-62.3591

G1X30.0316Y-59.6424

G1X30.1641Y-57.5171

G1X30.6066Y-55.7052

G1X30.9749Y-54.8279

G1X31.4007Y-54.1008

G1X32.5262Y-52.8236

G1X33.7794Y-51.9228

G1X35.5078Y-51.0842

G1X37.8276Y-50.3561

G1X40.3337Y-49.8740

G1X42.4474Y-49.6860

G1X44.7242Y-49.7673

G1X46.7525Y-50.1950

G1X48.1729Y-50.7031

G1X49.4187Y-51.3772

G1X55.5560Y-56.1478

G1X61.3040Y-59.6912

G1X62.5566Y-60.6730

G1X63.5367Y-61.5706

G1X64.5407Y-62.6935

G1X65.4544Y-63.8962

G1X66.4980Y-65.5837

G1X67.4916Y-67.5824

G1X68.3073Y-69.6305

G1X69.0383Y-71.9505

G1X69.6342Y-74.3663

G1X70.0827Y-76.8205

G1X70.4394Y-79.6337

G1X70.6408Y-82.3714

G1X70.7014Y-85.4355

G1X70.6153Y-88.5821

G1X70.3894Y-91.4567

G1X69.9792Y-94.9338

G1X69.1359Y-99.8252

G1X68.4427Y-103.1073

G1X67.8738Y-105.0831

G1X67.6229Y-105.5691

G1X67.3604Y-105.8006

G1X67.1383Y-105.8198

G1X66.9151Y-105.7176

G1X66.2707Y-105.0952

G1X63.3758Y-101.3914

G1X60.8649Y-98.3873

G1X50.7422Y-87.0558

G1X48.9124Y-85.1964

G1X46.6951Y-83.2705

G1X45.2768Y-82.1932

G1X44.1069Y-81.4269

G1X42.9104Y-80.7940

G1X41.4628Y-80.1764

G1X40.3038Y-79.8280

G1X38.7868Y-79.5830

G1X35.7544Y-79.6240

G1X34.7439Y-79.4727

G1X34.2501Y-79.2933

G1X33.7428Y-78.9757

G1X33.2858Y-78.5781

G1X32.8458Y-78.0516

G1X32.2736Y-77.1016

G1X31.7977Y-76.0499

G1X31.3197Y-74.6738

G1X30.8622Y-73.0083

G1X29.9428Y-68.5903

G1X29.0354Y-62.6998

G1X28.8812Y-60.0082

G1X29.0278Y-57.7132

G1X29.4548Y-55.9536

G1X30.2246Y-54.3674

G1X31.1326Y-53.2797

G1X32.4543Y-52.2301

G1X34.3540Y-51.2684

G1X36.3961Y-50.5510

G1X39.1418Y-49.8160

G1X42.1559Y-49.2592

G1X44.6532Y-49.1040

G1X46.6424Y-49.3204

G1X48.0130Y-49.6555

G1X49.2930Y-50.1714

G1X50.3823Y-50.8379

G1X52.7399Y-52.5474

G1X55.6745Y-54.3592

G1X56.9477Y-54.9924

G1X60.8462Y-56.6118

G1X62.0993Y-57.2542

G1X63.3340Y-58.0626

G1X64.3695Y-58.8880

G1X65.3579Y-59.8834

G1X66.3534Y-61.0902

G1X67.4637Y-62.7666

G1X68.6215Y-64.9867

G1X69.5127Y-67.1367

G1X70.3340Y-69.6448

G1X71.0058Y-72.2534

G1X71.5173Y-74.9223

G1X71.9225Y-77.9345

G1X72.1667Y-80.9784

G1X72.2452Y-84.3108

G1X72.1561Y-87.8233

G1X71.9121Y-90.9256

G1X71.4502Y-94.7813

G1X70.5594Y-99.9012

G1X69.8665Y-103.1415

G1X69.2685Y-105.1647

G1X68.9946Y-105.6668

G1X68.7053Y-105.8988

G1X68.3127Y-105.8528

G1X67.7594Y-105.3908

G1X64.2742Y-101.3066

G1X61.9678Y-98.7881

G1X49.8184Y-86.3825

G1X48.0195Y-84.6908

G1X45.8925Y-83.0230

G1X44.3680Y-82.0021

G1X42.9912Y-81.2143

G1X41.7227Y-80.6721

G1X40.2597Y-80.2365

G1X39.1534Y-80.0643

G1X37.7197Y-80.0951

G1X34.8452Y-80.7460

G1X33.9226Y-80.7768

G1X33.3138Y-80.6549

G1X32.8634Y-80.4304

G1X32.3368Y-80.0274

G1X31.8998Y-79.5458

G1X31.3336Y-78.6515

G1X30.8239Y-77.5604

G1X30.3390Y-76.1932

G1X29.8801Y-74.5282

G1X28.8939Y-69.7315

G1X27.9971Y-63.7396

G1X27.7840Y-61.0491

G1X27.8721Y-58.6200

G1X28.2441Y-56.6904

G1X28.5360Y-55.8925

G1X28.9377Y-55.0962

G1X29.7388Y-53.9741

G1X30.9382Y-52.9355

G1X32.2219Y-52.1565

G1X34.2009Y-51.3177

G1X38.0469Y-50.0977

G1X41.9538Y-49.0472

G1X44.6436Y-48.5936

G1X46.5537Y-48.5815

G1X48.2239Y-48.8218

G1X49.6159Y-49.2590

G1X50.5697Y-49.7561

G1X53.1900Y-51.4112

G1X55.9166Y-52.6141

G1X57.3539Y-53.0801

G1X61.2219Y-53.9932

G1X62.7548Y-54.5320

G1X64.0484Y-55.2248

G1X65.1287Y-55.9774

G1X66.1076Y-56.8734

G1X67.0775Y-57.9597

G1X68.3230Y-59.7130

G1X69.5701Y-61.9802

G1X70.5782Y-64.2757

G1X71.5110Y-66.9686

G1X72.2965Y-69.8296

G1X72.8900Y-72.7053

G1X73.3720Y-75.9826

G1X73.6722Y-79.2337

G1X73.7930Y-82.8897

G1X73.7131Y-86.9194

G1X73.4723Y-90.1506

G1X72.9865Y-94.2564

G1X72.3719Y-98.0310

G1X71.3867Y-102.8343

G1X70.7262Y-105.0690

G1X70.4799Y-105.5461

G1X70.1574Y-105.8629

G1X69.6936Y-105.8458

G1X69.2096Y-105.5098

G1X65.4958Y-101.4860

G1X63.2082Y-99.1809

G1X48.7044Y-85.7101

G1X46.8641Y-84.1279

G1X44.8689Y-82.7317

G1X43.3290Y-81.8446

G1X41.7802Y-81.1094

G1X40.5247Y-80.7135

G1X39.2513Y-80.5088

G1X38.0838Y-80.5024

G1X36.7442Y-80.8211

G1X34.0467Y-82.0639

G1X33.1835Y-82.2665

G1X32.5891Y-82.2613

G1X32.1030Y-82.1244

G1X31.5551Y-81.7894

G1X31.0381Y-81.3013

G1X30.4850Y-80.5135

G1X29.9515Y-79.4511

G1X29.4473Y-78.1167

G1X29.0265Y-76.6764

G1X28.0505Y-72.0761

G1X27.2042Y-66.5949

G1X26.7816Y-62.8509

G1X26.7285Y-60.2940

G1X26.8312Y-59.0348

G1X27.0406Y-57.8237

G1X27.3078Y-56.8693

G1X27.6891Y-55.9851

G1X28.3803Y-54.9103

G1X29.1988Y-54.0268

G1X30.3653Y-53.2064

G1X31.7165Y-52.5053

G1X33.8532Y-51.7101

G1X42.3034Y-48.8797

G1X44.9241Y-48.1681

G1X46.5123Y-47.9731

G1X48.2822Y-48.0265

G1X49.8966Y-48.3470

G1X50.8784Y-48.7469

G1X53.4091Y-50.0868

G1X55.3705Y-50.6769

G1X57.6229Y-51.0294

G1X60.0778Y-51.0991

G1X61.4796Y-51.2353

G1X63.2402Y-51.5669

G1X64.4973Y-52.0833

G1X65.6128Y-52.7340

G1X66.5450Y-53.4772

G1X67.5869Y-54.5371

G1X68.9916Y-56.3706

G1X70.3243Y-58.6510

G1X71.5074Y-61.1776

G1X72.5804Y-64.0902

G1X73.4995Y-67.2102

G1X74.1981Y-70.3201

G1X74.7753Y-73.8730

G1X75.1545Y-77.4377

G1X75.3267Y-81.1815

G1X75.2903Y-85.4245

G1X75.0963Y-88.7257

G1X74.6563Y-92.7434

G1X74.0396Y-96.9448

G1X72.9677Y-102.2998

G1X72.2306Y-104.8252

G1X71.9127Y-105.4444

G1X71.5789Y-105.7567

G1X71.1301Y-105.7590

G1X70.5830Y-105.4429

G1X66.5192Y-101.3530

G1X63.2793Y-98.4136

G1X55.9445Y-92.3519

G1X47.0486Y-84.7803

G1X45.4794Y-83.5854

G1X43.8174Y-82.5600

G1X42.2615Y-81.8020

G1X40.6276Y-81.1944

G1X39.5011Y-80.9611

G1X38.4372Y-80.9326

G1X37.3814Y-81.0627

G1X36.5214Y-81.3978

G1X35.4850Y-81.9898

G1X33.3819Y-83.5335

G1X32.5651Y-83.9217

G1X31.8340Y-84.0326

G1X31.3141Y-83.9679

G1X30.7177Y-83.6762

G1X30.1438Y-83.1871

G1X29.5927Y-82.4649

G1X29.0480Y-81.4313

G1X28.5566Y-80.1919

G1X28.1178Y-78.7667

G1X27.2583Y-74.8101

G1X26.3490Y-69.1718

G1X25.8123Y-64.4295

G1X25.6768Y-61.4918

G1X25.7461Y-60.2090

G1X25.9162Y-58.9798

G1X26.2022Y-57.8123

G1X26.5508Y-56.8772

G1X27.1857Y-55.8157

G1X28.1665Y-54.7418

G1X29.0607Y-54.0993

G1X30.4210Y-53.4095

G1X31.5121Y-52.9821

G1X37.1802Y-51.1337

G1X44.8556Y-47.9363

G1X45.9195Y-47.6040

G1X46.8009Y-47.4361

G1X48.5811Y-47.3178

G1X50.3032Y-47.4794

G1X51.2426Y-47.7456

G1X53.7165Y-48.7382

G1X55.1998Y-48.9890

G1X56.3113Y-48.9929

G1X58.0807Y-48.8690

G1X61.0577Y-48.4011

G1X62.5958Y-48.3427

G1X63.6003Y-48.4225

G1X64.8176Y-48.7730

G1X65.9520Y-49.3219

G1X66.9099Y-49.9959

G1X67.9350Y-50.9565

G1X69.4617Y-52.8168

G1X70.9741Y-55.2682

G1X72.3660Y-58.0948

G1X73.5401Y-61.1103

G1X74.5991Y-64.4565

G1X75.4194Y-67.7873

G1X76.1208Y-71.6788

G1X76.6020Y-75.6238

G1X76.8338Y-79.4676

G1X76.8525Y-83.7386

G1X76.6982Y-87.3887

G1X76.2931Y-91.4746

G1X75.6030Y-96.4365

G1X74.5398Y-101.7979

G1X74.1225Y-103.3976

G1X73.7016Y-104.6251

G1X73.3555Y-105.2683

G1X72.9924Y-105.5840

G1X72.5396Y-105.5900

G1X71.7804Y-105.1504

G1X67.8172Y-101.3904

G1X63.6707Y-97.9746

G1X55.5364Y-91.9864

G1X45.8169Y-84.4250

G1X44.1294Y-83.2712

G1X42.6052Y-82.4565

G1X41.1632Y-81.8891

G1X39.6488Y-81.4909

G1X38.6235Y-81.3766

G1X37.7205Y-81.4683

G1X36.6565Y-81.7838

G1X35.9382Y-82.1870

G1X34.6407Y-83.3184

G1X33.2861Y-84.7357

G1X32.4398Y-85.4338

G1X31.8404Y-85.7929

G1X31.0767Y-85.9954

G1X30.3811Y-85.9612

G1X29.7795Y-85.6873

G1X29.2150Y-85.2249

G1X28.6039Y-84.4503

G1X28.1079Y-83.5301

G1X27.5697Y-82.1902

G1X27.1031Y-80.6693

G1X26.3395Y-77.1158

G1X25.4095Y-71.1879

G1X24.8471Y-66.1275

G1X24.6608Y-62.4734

G1X24.7106Y-61.2273

G1X24.8647Y-59.9809

G1X25.1084Y-58.8990

G1X25.4644Y-57.8679

G1X25.9270Y-56.9574

G1X26.5455Y-56.1671

G1X27.5557Y-55.2731

G1X28.3344Y-54.7980

G1X30.4317Y-53.9660

G1X34.6753Y-52.7532

G1X36.8815Y-51.9532

G1X39.8062Y-50.5791

G1X45.2444Y-47.6322

G1X46.2647Y-47.1889

G1X47.1232Y-46.9268

G1X48.8159Y-46.6422

G1X50.7473Y-46.6023

G1X51.6347Y-46.7240

G1X54.1255Y-47.3260

G1X55.4098Y-47.3410

G1X56.6092Y-47.1033

G1X58.6217Y-46.5017

G1X61.3755Y-45.4917

G1X62.7617Y-45.2066

G1X63.7459Y-45.1244

G1X64.8099Y-45.2690

G1X66.0341Y-45.7239

G1X67.0916Y-46.3771

G1X68.0711Y-47.2249

G1X69.7443Y-49.1447

G1X71.3758Y-51.6498

G1X72.9966Y-54.7505

G1X74.3473Y-57.9998

G1X75.5978Y-61.6740

G1X76.5605Y-65.2450

G1X77.3879Y-69.3852

G1X77.9841Y-73.6218

G1X78.2908Y-77.4605

G1X78.3838Y-81.7645

G1X78.2750Y-86.0745

G1X77.9266Y-90.1427

G1X77.1929Y-95.7403

G1X76.1387Y-101.1511

G1X75.6908Y-102.9047

G1X75.2659Y-104.1550

G1X74.8672Y-104.9430

G1X74.4808Y-105.3135

G1X74.2283Y-105.3964

G1X73.9658Y-105.3703

G1X73.0443Y-104.8569

G1X68.6451Y-100.9541

G1X64.4187Y-97.8011

G1X55.0737Y-91.7018

G1X44.7044Y-84.3248

G1X42.9355Y-83.2376

G1X41.5319Y-82.5819

G1X40.2866Y-82.1882

G1X39.0142Y-81.9732

G1X37.8873Y-81.9403

G1X36.9790Y-82.1513

G1X35.9745Y-82.6834

G1X35.2696Y-83.2338

G1X32.6985Y-86.4891

G1X31.8843Y-87.2948

G1X31.2476Y-87.7873

G1X30.4617Y-88.1196

G1X29.6399Y-88.1839

G1X29.0332Y-88.0062

G1X28.3269Y-87.4991

G1X27.7361Y-86.8192

G1X27.2436Y-86.0038

G1X26.7845Y-84.9767

G1X26.3241Y-83.6467

G1X25.5877Y-80.6654

G1X24.8546Y-76.1739

G1X24.0224Y-69.6923

G1X23.6795Y-64.8903

G1X23.6602Y-63.1063

G1X23.7460Y-61.6626

G1X23.9495Y-60.3881

G1X24.2533Y-59.3083

G1X24.7606Y-58.1489

G1X25.3375Y-57.2841

G1X26.0691Y-56.5890

G1X27.1362Y-55.8778

G1X28.7207Y-55.2727

G1X32.5073Y-54.3600

G1X34.1207Y-53.8947

G1X36.5819Y-52.9637

G1X39.7494Y-51.2502

G1X45.5053Y-47.4179

G1X46.4676Y-46.8605

G1X47.3702Y-46.4587

G1X49.0353Y-45.9992

G1X51.2263Y-45.6975

G1X52.1335Y-45.6742

G1X54.3660Y-45.8002

G1X55.6280Y-45.6275

G1X56.3986Y-45.3500

G1X57.3315Y-44.8930

G1X61.6039Y-42.4277

G1X62.7344Y-41.9832

G1X63.7098Y-41.7284

G1X64.6907Y-41.6984

G1X65.7531Y-41.9630

G1X66.8012Y-42.4805

G1X67.7971Y-43.2259

G1X68.6340Y-44.0274

G1X69.5283Y-45.0338

G1X71.2267Y-47.4011

G1X73.1994Y-50.8559

G1X74.8093Y-54.3642

G1X76.3363Y-58.4512

G1X77.5428Y-62.4549

G1X78.5255Y-66.8205

G1X79.2694Y-71.3536

G1X79.6807Y-75.2857

G1X79.8646Y-79.6130

G1X79.8188Y-84.7765

G1X79.5501Y-88.6985

G1X78.7710Y-95.0410

G1X77.8013Y-100.1616

G1X77.3456Y-102.0541

G1X76.9241Y-103.4015

G1X76.4819Y-104.3968

G1X76.0245Y-104.9531

G1X75.7622Y-105.0874

G1X75.4444Y-105.1155

G1X74.7321Y-104.7998

G1X73.9080Y-104.2203

G1X72.1847Y-102.7084

G1X69.5522Y-100.5743

G1X66.1312Y-98.2108

G1X63.5042Y-96.6020

G1X54.3648Y-91.3891

G1X48.2283Y-87.2699

G1X44.0063Y-84.6175

G1X42.0354Y-83.5187

G1X40.5921Y-82.9149

G1X39.2852Y-82.6083

G1X38.0864Y-82.5600

G1X36.9466Y-82.7191

G1X36.0358Y-83.1662

G1X35.3630Y-83.7500

G1X34.6309Y-84.5439

G1X32.5562Y-87.8277

G1X31.8588Y-88.7913

G1X30.8807Y-89.7661

G1X29.9834Y-90.3510

G1X29.0119Y-90.5664

G1X28.1991Y-90.4397

G1X27.3506Y-89.8907

G1X26.5906Y-89.0011

G1X26.0084Y-87.9628

G1X25.4602Y-86.5719

G1X24.9655Y-84.8823

G1X24.4986Y-82.7938

G1X23.6563Y-77.0391

G1X22.8095Y-69.2045

G1X22.6407Y-64.9830

G1X22.8009Y-62.1394

G1X22.9937Y-61.1088

G1X23.3055Y-60.0966

G1X23.7396Y-59.1640

G1X24.2806Y-58.3304

G1X24.7793Y-57.8071

G1X25.3365Y-57.3951

G1X26.9266Y-56.6213

G1X27.9027Y-56.3721

G1X32.4254Y-55.5385

G1X34.4049Y-54.9337

G1X35.9634Y-54.2840

G1X37.7412Y-53.3038

G1X39.8177Y-51.9335

G1X45.9005Y-47.1219

G1X47.4659Y-46.0849

G1X48.5112Y-45.6193

G1X49.6839Y-45.2554

G1X52.2372Y-44.6318

G1X54.7417Y-44.1958

G1X55.7842Y-43.8606

G1X56.5736Y-43.4366

G1X57.4142Y-42.8403

G1X61.3597Y-39.5047

G1X62.1853Y-38.9094

G1X63.2214Y-38.3806

G1X63.9710Y-38.1398

G1X64.7427Y-38.0895

G1X65.5295Y-38.2487

G1X66.4712Y-38.6582

G1X67.4609Y-39.3401

G1X68.5303Y-40.3311

G1X69.6559Y-41.5958

G1X70.7613Y-43.0552

G1X71.8560Y-44.7219

G1X73.0944Y-46.8078

G1X74.2039Y-48.8860

G1X75.1393Y-50.8557

G1X76.1541Y-53.2621

G1X77.9218Y-58.1090

G1X79.1239Y-62.3621

G1X80.1821Y-67.3632

G1X80.8851Y-72.0749

G1X81.2352Y-76.3357

G1X81.3461Y-81.7846

G1X81.1765Y-86.7795

G1X80.9010Y-89.7638

G1X80.4010Y-93.8429

G1X79.6075Y-98.4249

G1X79.0399Y-100.9544

G1X78.5331Y-102.7135

G1X77.9885Y-103.9786

G1X77.4590Y-104.6293

G1X77.1615Y-104.7723

G1X76.7656Y-104.8023

G1X76.0069Y-104.4597

G1X74.9489Y-103.7172

G1X72.8803Y-101.9948

G1X70.4135Y-100.1546

G1X68.7359Y-99.0259

G1X66.7012Y-97.8161

G1X63.5301Y-96.1135

G1X54.0577Y-91.4495

G1X51.9437Y-90.2295

G1X46.2671Y-86.6181

G1X42.8145Y-84.7260

G1X40.5325Y-83.6867

G1X39.1613Y-83.3020

G1X37.9676Y-83.2345

G1X36.7297Y-83.4943

G1X36.1465Y-83.7257

G1X35.7285Y-83.9908

G1X35.1064Y-84.6224

G1X34.1657Y-85.9544

G1X32.8102Y-88.5728

G1X31.7823Y-90.2975

G1X31.1399Y-91.1973

G1X30.3465Y-92.0225

G1X29.5397Y-92.6480

G1X28.8859Y-92.9646

G1X28.1252Y-93.1041

G1X27.3393Y-93.0200

G1X26.5897Y-92.6540

G1X25.8537Y-91.9551

G1X25.1620Y-90.9441

G1X24.6291Y-89.8199

G1X24.1413Y-88.3994

G1X23.6825Y-86.6187

G1X23.2701Y-84.5518

G1X22.7377Y-80.7123

G1X21.9642Y-73.1976

G1X21.6745Y-69.4217

G1X21.6015Y-66.4476

G1X21.7044Y-63.9257

G1X21.9979Y-62.0333

G1X22.5148Y-60.5736

G1X23.3653Y-59.2780

G1X23.8572Y-58.7808

G1X24.3602Y-58.4379

G1X25.9520Y-57.8051

G1X26.8251Y-57.6127

G1X30.6941Y-57.1995

G1X31.9353Y-56.9798

G1X34.2533Y-56.2273

G1X36.2550Y-55.2272

G1X38.0727Y-54.0270

G1X40.0447Y-52.5063

G1X46.2523Y-46.8263

G1X47.5564Y-45.7645

G1X48.9755Y-44.9548

G1X52.0965Y-43.8123

G1X54.6804Y-42.7062

G1X55.9096Y-42.0506

G1X56.7124Y-41.4715

G1X57.5959Y-40.6358

G1X61.4595Y-36.1540

G1X62.2430Y-35.3880

G1X63.0582Y-34.8251

G1X63.7893Y-34.4956

G1X64.4599Y-34.4044

G1X65.2368Y-34.5418

G1X66.2157Y-34.9881

G1X67.2757Y-35.7670

G1X68.4511Y-36.9052

G1X69.7004Y-38.3452

G1X70.9540Y-40.0226

G1X72.2184Y-41.9478

G1X73.5949Y-44.2274

G1X74.7892Y-46.4126

G1X75.8008Y-48.4858

G1X76.9800Y-51.1763

G1X78.8990Y-56.1981

G1X80.2398Y-60.6981

G1X81.3933Y-65.7914

G1X82.1976Y-70.6802

G1X82.6277Y-75.1698

G1X82.7964Y-80.7796

G1X82.6604Y-86.2674

G1X82.3900Y-89.3601

G1X81.8794Y-93.5745

G1X81.1061Y-98.0625

G1X80.4969Y-100.7020

G1X79.9723Y-102.4489

G1X79.4476Y-103.6112

G1X79.1569Y-104.0342

G1X78.8609Y-104.3060

G1X78.5399Y-104.4475

G1X78.1744Y-104.4796

G1X77.8028Y-104.3990

G1X77.4075Y-104.2034

G1X75.8339Y-103.1048

G1X73.4360Y-101.2164

G1X71.8981Y-100.1504

G1X69.6379Y-98.7078

G1X67.5999Y-97.5897

G1X63.4296Y-95.6436

G1X58.4589Y-93.6448

G1X53.4511Y-91.4644

G1X50.9850Y-90.1804

G1X44.9534Y-86.5570

G1X41.8825Y-85.1041

G1X39.6184Y-84.2791

G1X38.3833Y-84.0365

G1X37.2768Y-84.0883

G1X36.3084Y-84.4401

G1X35.2537Y-85.1633

G1X34.8749Y-85.6024

G1X34.4481Y-86.2901

G1X33.4949Y-88.1342

G1X32.2947Y-90.8158

G1X30.8471Y-93.2276

G1X30.1861Y-94.0552

G1X29.3136Y-94.8659

G1X28.5427Y-95.3904

G1X27.7711Y-95.7070

G1X26.8928Y-95.7929

G1X26.0002Y-95.6004

G1X25.2563Y-95.1484

G1X24.5022Y-94.3357

G1X23.8565Y-93.3025

G1X23.2801Y-91.9899

G1X22.7884Y-90.4010

G1X22.3443Y-88.4306

G1X21.8431Y-85.3889

G1X21.4573Y-81.8865

G1X20.7385Y-73.1369

G1X20.5299Y-68.9360

G1X20.5894Y-65.9837

G1X20.8287Y-63.7959

G1X21.2598Y-62.1184

G1X21.5802Y-61.4172

G1X21.9513Y-60.8347

G1X22.9649Y-59.7880

G1X23.9710Y-59.2877

G1X25.7816Y-58.9186

G1X29.6630Y-58.7972

G1X31.4227Y-58.5486

G1X32.7835Y-58.1249

G1X34.0655Y-57.5894

G1X35.2125Y-56.9751

G1X36.4679Y-56.1538

G1X38.3221Y-54.7267

G1X40.1797Y-53.0937

G1X46.7137Y-46.3774

G1X48.0730Y-45.1214

G1X49.4416Y-44.2084

G1X51.8835Y-43.0850

G1X52.7570Y-42.6067

G1X54.6799Y-41.2992

G1X56.1068Y-40.1477

G1X57.0399Y-39.2232

G1X57.9232Y-38.1056

G1X61.3887Y-32.6694

G1X61.9812Y-31.8717

G1X62.7432Y-31.1765

G1X63.3263Y-30.8340

G1X63.9512Y-30.7064

G1X64.5657Y-30.7957

G1X65.5614Y-31.2457

G1X66.5840Y-32.0064

G1X67.9036Y-33.2887

G1X69.3775Y-34.9782

G1X70.7702Y-36.8115

G1X72.2252Y-38.9686

G1X73.7530Y-41.4003

G1X75.1011Y-43.7539

G1X76.2083Y-45.9116

G1X77.5630Y-48.8366

G1X79.6689Y-54.0005

G1X81.1231Y-58.4890

G1X82.4553Y-63.8381

G1X83.4293Y-69.1125

G1X83.9631Y-73.7672

G1X84.2100Y-79.3945

G1X84.1415Y-85.4150

G1X83.9385Y-88.1637

G1X83.5739Y-91.4459

G1X83.1483Y-94.6336

G1X82.6629Y-97.3276

G1X82.0347Y-100.0566

G1X81.5076Y-101.8570

G1X80.9598Y-103.1275

G1X80.3521Y-103.9097

G1X80.0331Y-104.0907

G1X79.5894Y-104.1527

G1X79.1412Y-104.0844

G1X78.6913Y-103.8890

G1X73.3848Y-100.0926

G1X70.5940Y-98.4208

G1X68.1143Y-97.1611

G1X66.0133Y-96.2738

G1X63.1488Y-95.1984

G1X57.7477Y-93.4431

G1X52.8236Y-91.6059

G1X50.0040Y-90.2922

G1X45.3807Y-87.6130

G1X43.6896Y-86.7244

G1X41.1978Y-85.7137

G1X39.0649Y-85.1109

G1X37.6424Y-84.9617

G1X36.6635Y-85.1345

G1X35.8247Y-85.6084

G1X34.8590Y-86.5569

G1X34.4844Y-87.0815

G1X34.1274Y-87.7778

G1X31.8653Y-93.1386

G1X30.7264Y-95.1147

G1X29.8918Y-96.2800

G1X29.1208Y-97.1131

G1X28.1903Y-97.8540

G1X27.2176Y-98.3804

G1X26.3400Y-98.5998

G1X25.3602Y-98.5446

G1X24.4994Y-98.2220

G1X23.6825Y-97.5763

G1X22.9425Y-96.6098

G1X22.3193Y-95.4334

G1X21.7484Y-93.9089

G1X21.3048Y-92.2087

G1X20.7390Y-88.9567

G1X20.2869Y-84.9692

G1X19.6228Y-74.8309

G1X19.4303Y-70.5103

G1X19.4726Y-67.6641

G1X19.7001Y-65.3157

G1X20.1351Y-63.4041

G1X20.7098Y-62.1623

G1X21.2029Y-61.5471

G1X21.8886Y-60.9675

G1X22.4556Y-60.6293

G1X23.1195Y-60.4281

G1X25.0515Y-60.2862

G1X27.2928Y-60.4885

G1X29.0922Y-60.4727

G1X30.2191Y-60.3559

G1X31.3133Y-60.0692

G1X32.6259Y-59.5624

G1X33.9199Y-58.9007

G1X35.2273Y-58.0576

G1X36.6626Y-56.9597

G1X38.6389Y-55.2294

G1X40.4153Y-53.4738

G1X44.4445Y-49.0198

G1X47.2024Y-45.8166

G1X48.4692Y-44.4990

G1X49.8270Y-43.4132

G1X52.2101Y-42.0284

G1X53.1037Y-41.4202

G1X54.2842Y-40.3712

G1X55.5450Y-39.0659

G1X57.0128Y-37.2628

G1X58.0535Y-35.6453

G1X61.5796Y-28.2440

G1X62.0839Y-27.6292

G1X62.5611Y-27.2346

G1X63.0760Y-27.0538

G1X63.5749Y-27.0835

G1X64.5116Y-27.4734

G1X65.6144Y-28.2904

G1X67.0438Y-29.6839

G1X68.7364Y-31.5912

G1X70.2081Y-33.4598

G1X71.7782Y-35.6836

G1X73.6199Y-38.4587

G1X75.1408Y-40.9539

G1X76.3618Y-43.1766

G1X77.7320Y-45.9365

G1X80.1438Y-51.3669

G1X81.7455Y-55.7858

G1X83.2270Y-61.0399

G1X84.4315Y-66.6100

G1X85.1823Y-71.6865

G1X85.5532Y-77.0687

G1X85.6185Y-83.6099

G1X85.5160Y-86.0525

G1X85.3010Y-88.6482

G1X84.4567Y-95.1735

G1X83.9817Y-97.6238

G1X83.3774Y-100.0838

G1X82.8714Y-101.6959

G1X82.3829Y-102.7805

G1X81.9756Y-103.3664

G1X81.4846Y-103.7537

G1X80.9528Y-103.8507

G1X80.1815Y-103.6840

G1X79.3594Y-103.2267

G1X75.3632Y-100.3843

G1X73.8365Y-99.3880

G1X71.2334Y-97.9659

G1X68.7090Y-96.7930

G1X66.8487Y-96.0845

G1X64.4508Y-95.3235

G1X61.7278Y-94.5507

G1X57.0124Y-93.4068

G1X52.4809Y-91.9888

G1X49.1138Y-90.6185

G1X44.1228Y-87.9082

G1X42.4389Y-87.1028

G1X40.0831Y-86.3415

G1X38.1400Y-86.0469

G1X37.0092Y-86.1041

G1X36.2310Y-86.3475

G1X35.5981Y-86.7981

G1X34.9638Y-87.5623

G1X34.0031Y-89.1779

G1X32.9277Y-92.1331

G1X31.8276Y-94.7901

G1X31.1658Y-96.1839

G1X29.7444Y-98.3888

G1X28.3539Y-99.9527

G1X27.6197Y-100.5333

G1X26.7861Y-101.0373

G1X25.9400Y-101.3841

G1X25.2078Y-101.5292

G1X24.3757Y-101.4904

G1X23.6333Y-101.2823

G1X22.9220Y-100.8971

G1X22.3451Y-100.4040

G1X21.6902Y-99.5689

G1X21.0929Y-98.4985

G1X20.6006Y-97.3075

G1X20.1494Y-95.8440

G1X19.5255Y-92.5846

G1X18.9954Y-87.6577

G1X18.7476Y-83.5698

G1X18.3983Y-75.1141

G1X18.2988Y-70.0996

G1X18.4059Y-68.0240

G1X18.6253Y-66.2698

G1X18.9697Y-64.7748

G1X19.4401Y-63.5513

G1X19.8701Y-62.8968

G1X20.4361Y-62.3613

G1X21.2873Y-61.8689

G1X21.9368Y-61.6653

G1X22.6473Y-61.6286

G1X24.1222Y-61.7522

G1X26.3820Y-62.1900

G1X27.6658Y-62.2597

G1X29.0535Y-62.1938

G1X30.3740Y-61.8578

G1X31.9831Y-61.1612

G1X33.6424Y-60.1719

G1X35.3342Y-58.8953

G1X37.2212Y-57.2384

G1X39.2044Y-55.2848

G1X40.9723Y-53.3306

G1X48.9589Y-43.7038

G1X50.2338Y-42.5109

G1X53.3597Y-40.1764

G1X54.1276Y-39.3942

G1X55.1170Y-38.1679

G1X56.8166Y-35.6039

G1X58.1752Y-32.9977

G1X58.9898Y-30.8093

G1X60.9872Y-24.5553

G1X61.3420Y-23.9991

G1X61.6949Y-23.6412

G1X62.0864Y-23.4780

G1X62.4600Y-23.4935

G1X63.4260Y-23.9244

G1X64.6245Y-24.8778

G1X66.2796Y-26.5495

G1X68.2236Y-28.7376

G1X69.9289Y-30.8674

G1X71.8649Y-33.5364

G1X73.7397Y-36.2498

G1X75.3213Y-38.7273

G1X76.5906Y-40.9214

G1X78.1504Y-43.8921

G1X80.7656Y-49.4284

G1X82.5388Y-53.9794

G1X84.1067Y-59.1120

G1X85.5197Y-65.0643

G1X86.0618Y-67.9837

G1X86.4446Y-70.5975

G1X86.7110Y-73.2155

G1X86.8963Y-76.1199

G1X87.0178Y-82.8720

G1X86.9465Y-85.3653

G1X86.7532Y-88.0058

G1X85.9187Y-94.6372

G1X85.4819Y-96.9770

G1X84.9493Y-99.2019

G1X84.4002Y-101.0349

G1X83.8745Y-102.2956

G1X83.3903Y-103.0329

G1X82.8350Y-103.4850

G1X82.3171Y-103.5910

G1X81.6216Y-103.4490

G1X80.5552Y-102.9439

G1X78.3652Y-101.3801

G1X74.2283Y-98.7167

G1X71.7992Y-97.4991

G1X69.1379Y-96.3886

G1X67.1110Y-95.7052

G1X64.9564Y-95.1470

G1X61.1827Y-94.3560

G1X56.2547Y-93.5465

G1X52.0565Y-92.4639

G1X49.9941Y-91.7911

G1X48.1560Y-91.0734

G1X43.2008Y-88.5637

G1X41.5575Y-87.8331

G1X39.7939Y-87.3440

G1X38.2092Y-87.1901

G1X37.1364Y-87.3009

G1X36.1921Y-87.6027

G1X35.5593Y-88.0360

G1X35.0697Y-88.6307

G1X33.8516Y-91.0302

G1X32.5509Y-94.8265

G1X30.9120Y-98.4875

G1X30.2707Y-99.6170

G1X29.5006Y-100.7256

G1X28.6339Y-101.7899

G1X27.7922Y-102.6552

G1X26.9386Y-103.3529

G1X26.0060Y-103.9162

G1X25.0398Y-104.3189

G1X24.0869Y-104.5231

G1X23.2724Y-104.5066

G1X22.4654Y-104.3044

G1X21.6855Y-103.9185

G1X20.9589Y-103.3377

G1X20.3082Y-102.5475

G1X19.7023Y-101.4915

G1X19.1687Y-100.2123

G1X18.7091Y-98.7152

G1X18.3621Y-97.1869

G1X18.0928Y-95.4944

G1X17.6498Y-90.7188

G1X17.3409Y-83.8122

G1X17.1484Y-74.2388

G1X17.1515Y-71.0419

G1X17.2662Y-69.0185

G1X17.4975Y-67.3036

G1X17.8204Y-65.9447

G1X18.2892Y-64.7237

G1X18.7234Y-64.0001

G1X19.2652Y-63.4874

G1X19.9501Y-63.1332

G1X20.8513Y-62.8959

G1X21.9371Y-62.9995

G1X23.5481Y-63.3991

G1X25.0834Y-63.9085

G1X25.9016Y-64.0580

G1X27.0196Y-64.1127

G1X27.8007Y-64.0656

G1X28.5327Y-63.9233

G1X29.3224Y-63.6563

G1X31.2866Y-62.6854

G1X33.2209Y-61.3665

G1X35.5689Y-59.3782

G1X38.0711Y-56.9310

G1X39.8843Y-54.9398

G1X42.1652Y-52.1910

G1X44.9769Y-48.6638

G1X49.5942Y-42.6358

G1X50.7573Y-41.3998

G1X53.6784Y-38.7425

G1X54.3976Y-37.9033

G1X55.1765Y-36.7624

G1X56.7000Y-33.9509

G1X58.1068Y-30.5918

G1X58.5484Y-29.1503

G1X58.9389Y-27.4964

G1X59.6507Y-23.9426

G1X60.1168Y-21.0559

G1X60.3240Y-20.5548

G1X60.5746Y-20.1997

G1X60.8575Y-20.0316

G1X61.1167Y-20.0275

G1X62.0331Y-20.4584

G1X63.2578Y-21.4694

G1X65.0933Y-23.3434

G1X67.6564Y-26.1817

G1X69.5520Y-28.4888

G1X71.9412Y-31.6589

G1X73.8352Y-34.2812

G1X75.4104Y-36.6297

G1X76.7777Y-38.8693

G1X78.4110Y-41.8071

G1X81.2637Y-47.4674

G1X83.2397Y-52.1677

G1X84.8821Y-57.1150

G1X85.7111Y-60.0868

G1X86.4676Y-63.1827

G1X87.1073Y-66.2314

G1X87.5964Y-69.0463

G1X87.9195Y-71.5632

G1X88.1481Y-74.1727

G1X88.3761Y-80.3394

G1X88.3756Y-83.7363

G1X88.2477Y-86.5027

G1X87.9621Y-89.5420

G1X87.4519Y-93.4577

G1X87.0469Y-95.8957

G1X86.5446Y-98.1736

G1X85.9344Y-100.3132

G1X85.3633Y-101.7975

G1X84.8505Y-102.6614

G1X84.2976Y-103.1880

G1X83.7874Y-103.3765

G1X83.1435Y-103.3071

G1X81.6542Y-102.6451

G1X78.7687Y-100.6218

G1X74.6560Y-98.1379

G1X72.3606Y-97.0608

G1X69.6220Y-96.0377

G1X67.2060Y-95.3317

G1X65.0129Y-94.8882

G1X60.4917Y-94.2971

G1X55.7265Y-93.9107

G1X52.1469Y-93.2075

G1X49.7079Y-92.5430

G1X47.3416Y-91.7475

G1X42.3212Y-89.4136

G1X40.8323Y-88.8111

G1X39.4172Y-88.4769

G1X38.1705Y-88.4295

G1X37.2203Y-88.6013

G1X36.4011Y-88.9400

G1X35.5989Y-89.4762

G1X35.0717Y-90.1065

G1X34.6212Y-90.9782

G1X33.6101Y-93.5290

G1X32.2265Y-97.6043

G1X31.0708Y-100.1098

G1X30.2397Y-101.6537

G1X29.4393Y-102.9037

G1X28.5411Y-104.0422

G1X27.5204Y-105.1259

G1X26.4539Y-106.0506

G1X25.4457Y-106.7179

G1X24.2770Y-107.2466

G1X23.1886Y-107.5272

G1X22.1413Y-107.5758

G1X21.2600Y-107.3946

G1X20.3309Y-106.9674

G1X19.5398Y-106.3680

G1X18.8936Y-105.6494

G1X18.3266Y-104.7551

G1X17.8126Y-103.6421

G1X17.3678Y-102.3460

G1X16.9647Y-100.7606

G1X16.6474Y-99.0563

G1X16.2666Y-95.2327

G1X15.9567Y-86.4593

G1X15.9630Y-72.4643

G1X16.0624Y-70.3916

G1X16.2587Y-68.7274

G1X16.5742Y-67.2650

G1X17.0055Y-66.0650

G1X17.5456Y-65.0987

G1X18.0257Y-64.6068

G1X18.7495Y-64.2679

G1X19.6996Y-64.1398

G1X20.1576Y-64.1740

G1X20.7218Y-64.3377

G1X23.8073Y-65.6904

G1X24.5966Y-65.9106

G1X25.5948Y-65.9874

G1X26.4445Y-65.9391

G1X27.2778Y-65.7512

G1X28.1450Y-65.4131

G1X29.3104Y-64.8221

G1X30.4967Y-64.0912

G1X32.9516Y-62.2104

G1X36.1143Y-59.2876

G1X39.0451Y-56.1502

G1X41.4726Y-53.2033

G1X44.8570Y-48.8331

G1X50.4428Y-41.1554

G1X54.2087Y-36.8973

G1X54.8879Y-35.9303

G1X55.4718Y-34.9045

G1X56.2408Y-33.2692

G1X56.9957Y-31.3299

G1X57.6935Y-29.1906

G1X58.2613Y-27.0916

G1X58.5588Y-25.4541

G1X58.7731Y-23.5454

G1X59.0430Y-20.1113

G1X59.0896Y-17.5317

G1X59.3208Y-16.8794

G1X59.6340Y-16.7206

G1X60.0175Y-16.8713

G1X60.5778Y-17.2485

G1X61.8884Y-18.4133

G1X67.3692Y-24.2724

G1X69.1978Y-26.4430

G1X72.2023Y-30.2587

G1X75.5303Y-34.8211

G1X76.9524Y-37.0335

G1X78.7476Y-40.0947

G1X81.7743Y-45.7655

G1X83.9028Y-50.4894

G1X85.6329Y-55.3068

G1X86.5520Y-58.3513

G1X87.3978Y-61.5380

G1X88.1253Y-64.6915

G1X88.7366Y-67.8254

G1X89.0917Y-70.1201

G1X89.3745Y-72.6589

G1X89.6867Y-78.2794

G1X89.6965Y-84.7003

G1X89.5287Y-87.4058

G1X89.2235Y-90.2759

G1X88.6800Y-94.1794

G1X88.2037Y-96.7440

G1X87.5525Y-99.2960

G1X86.8058Y-101.3899

G1X86.3094Y-102.3073

G1X85.7622Y-102.9104

G1X85.2164Y-103.2007

G1X84.5516Y-103.2037

G1X83.8053Y-102.9287

G1X82.5710Y-102.2898

G1X79.2317Y-99.9804

G1X75.4050Y-97.7947

G1X73.0451Y-96.7075

G1X70.0763Y-95.7046

G1X67.2113Y-95.0076

G1X64.7078Y-94.6474

G1X59.6890Y-94.4184

G1X55.2377Y-94.4510

G1X53.9980Y-94.3490

G1X52.3887Y-94.0946

G1X49.6656Y-93.4806

G1X46.5808Y-92.5875

G1X41.6859Y-90.5451

G1X40.3170Y-90.0502

G1X39.2973Y-89.8235

G1X38.2011Y-89.8099

G1X37.3085Y-90.0221

G1X36.5644Y-90.4166

G1X35.7074Y-91.1504

G1X35.0802Y-91.9187

G1X34.5547Y-93.0381

G1X32.3368Y-99.3869

G1X31.4521Y-101.4882

G1X30.3807Y-103.4834

G1X29.3349Y-105.1530

G1X28.3253Y-106.4919

G1X27.2494Y-107.6411

G1X25.9710Y-108.7553

G1X24.7416Y-109.5964

G1X23.5336Y-110.1810

G1X22.2974Y-110.5391

G1X21.0745Y-110.6561

G1X20.0232Y-110.5217

G1X18.9333Y-110.0690

G1X18.0052Y-109.3942

G1X17.3017Y-108.6363

G1X16.7389Y-107.7981

G1X16.2245Y-106.7408

G1X15.7760Y-105.4734

G1X15.3794Y-103.9289

G1X15.0588Y-102.1938

G1X14.8155Y-100.3325

G1X14.6699Y-98.4157

G1X14.5588Y-94.8794

G1X14.5025Y-87.8151

G1X14.7348Y-73.9400

G1X14.8411Y-71.7131

G1X15.0136Y-69.9934

G1X15.2834Y-68.5786

G1X15.6803Y-67.3528

G1X16.1465Y-66.4519

G1X16.6856Y-65.7586

G1X17.2087Y-65.4314

G1X17.7762Y-65.3204

G1X18.7364Y-65.3993

G1X19.2745Y-65.5732

G1X22.3105Y-67.4475

G1X23.1820Y-67.7742

G1X24.1440Y-67.8481

G1X25.0740Y-67.7497

G1X25.9291Y-67.4913

G1X27.0497Y-66.9628

G1X28.5421Y-66.0774

G1X30.1290Y-64.9472

G1X31.7909Y-63.5802

G1X33.7964Y-61.7699

G1X35.6469Y-59.9653

G1X37.4498Y-58.0641

G1X40.9008Y-53.9499

G1X45.4657Y-47.9214

G1X51.1278Y-39.7116

G1X54.1003Y-35.7597

G1X55.0921Y-34.2112

G1X55.8413Y-32.6992

G1X56.5518Y-30.8039

G1X57.1986Y-28.5793

G1X57.7865Y-25.9665

G1X58.1929Y-23.5266

G1X58.3203Y-21.7374

G1X58.3074Y-19.5352

G1X58.1770Y-16.4343

G1X57.8706Y-14.1174

G1X57.9572Y-13.6998

G1X58.1269Y-13.6009

G1X59.0852Y-14.3313

G1X60.3426Y-15.5337

G1X67.3340Y-22.9072

G1X72.5858Y-29.1845

G1X75.7405Y-33.3374

G1X77.2140Y-35.5284

G1X79.0662Y-38.5350

G1X82.2655Y-44.2145

G1X84.5890Y-49.0585

G1X86.3946Y-53.7408

G1X87.3695Y-56.7522

G1X88.2485Y-59.8236

G1X89.0674Y-63.0816

G1X89.7539Y-66.2454

G1X90.2301Y-68.8520

G1X90.5551Y-71.2057

G1X90.8067Y-73.8408

G1X90.9700Y-76.7108

G1X91.0478Y-83.9799

G1X90.9298Y-86.5436

G1X90.6838Y-89.2245

G1X90.0570Y-93.8061

G1X89.6142Y-96.3066

G1X88.9834Y-98.8762

G1X88.2539Y-100.9842

G1X87.7161Y-102.0567

G1X87.2008Y-102.6969

G1X86.5448Y-103.0954

G1X85.8389Y-103.1491

G1X85.0640Y-102.8710

G1X83.3850Y-101.9342

G1X79.6468Y-99.3932

G1X76.3861Y-97.6185

G1X73.3672Y-96.2697

G1X70.4531Y-95.3805

G1X67.2438Y-94.7569

G1X64.4290Y-94.5102

G1X58.9965Y-94.7502

G1X54.8321Y-95.1758

G1X53.6953Y-95.1852

G1X52.5106Y-95.0862

G1X49.8913Y-94.6105

G1X45.8037Y-93.5648

G1X39.9968Y-91.5365

G1X39.0096Y-91.3621

G1X38.1395Y-91.4007

G1X37.3630Y-91.6403

G1X36.6576Y-92.1073

G1X36.0035Y-92.8115

G1X35.1502Y-94.0166

G1X34.6164Y-95.1799

G1X33.6258Y-98.2750

G1X32.4409Y-101.3699

G1X31.1719Y-104.3032

G1X30.2214Y-105.9674

G1X29.0799Y-107.6818

G1X27.9637Y-109.1177

G1X26.8615Y-110.3003

G1X25.4736Y-111.4908

G1X24.0021Y-112.4821

G1X22.5374Y-113.2000

G1X21.1885Y-113.5895

G1X19.8378Y-113.7267

G1X18.5492Y-113.5863

G1X17.4144Y-113.1499

G1X16.3793Y-112.4160

G1X15.6396Y-111.6359

G1X14.9814Y-110.6735

G1X14.4670Y-109.6379

G1X14.0163Y-108.3692

G1X13.6535Y-106.9260

G1X13.3518Y-105.2101

G1X12.9537Y-101.0502

G1X12.8989Y-97.3833

G1X13.0341Y-88.4379

G1X13.4466Y-75.6612

G1X13.7759Y-71.0376

G1X14.0397Y-69.5411

G1X14.3749Y-68.4421

G1X14.7672Y-67.6297

G1X15.2933Y-66.9282

G1X15.8058Y-66.4973

G1X16.2831Y-66.3672

G1X16.9848Y-66.4568

G1X17.9132Y-66.8227

G1X20.6652Y-69.1735

G1X21.0816Y-69.4370

G1X21.5574Y-69.5972

G1X22.6513Y-69.6354

G1X23.7067Y-69.4000

G1X24.8383Y-68.8966

G1X26.4847Y-67.9280

G1X28.4949Y-66.5035

G1X30.5298Y-64.8213

G1X33.3055Y-62.2973

G1X35.8464Y-59.7681

G1X37.7270Y-57.7109

G1X39.6612Y-55.3991

G1X44.5116Y-49.0373

G1X48.5560Y-43.2296

G1X53.9768Y-34.7175

G1X55.4393Y-32.0689

G1X56.3803Y-29.6817

G1X56.9376Y-27.5940

G1X57.4046Y-25.1055

G1X57.7438Y-22.3872

G1X57.9145Y-19.8279

G1X57.8563Y-18.1109

G1X57.6259Y-16.1110

G1X57.1143Y-12.9913

G1X56.4865Y-10.9416

G1X56.4909Y-10.7277

G1X56.5577Y-10.6766

G1X67.5120Y-21.9696

G1X72.9132Y-28.1690

G1X76.0341Y-32.1150

G1X77.4834Y-34.1785

G1X79.4992Y-37.3063

G1X82.8123Y-42.9215

G1X85.2838Y-47.7963

G1X86.2651Y-50.0420

G1X87.1639Y-52.3533

G1X88.1619Y-55.2405

G1X89.1267Y-58.4018

G1X89.9804Y-61.5743

G1X90.7564Y-64.8740

G1X91.3710Y-67.9233

G1X91.7492Y-70.2634

G1X92.0430Y-72.8153

G1X92.2445Y-75.6108

G1X92.3584Y-79.1732

G1X92.3630Y-83.7495

G1X92.2751Y-86.1307

G1X92.0775Y-88.5713

G1X91.6546Y-91.9367

G1X91.0049Y-95.9085

G1X90.4156Y-98.4489

G1X89.7118Y-100.5932

G1X89.1143Y-101.8650

G1X88.5480Y-102.6296

G1X87.8376Y-103.0789

G1X87.0494Y-103.1612

G1X86.4974Y-102.9967

G1X85.8126Y-102.6389

G1X83.5274Y-101.2280

G1X80.1822Y-98.9700

G1X77.7632Y-97.6689

G1X75.6572Y-96.6902

G1X73.8447Y-95.9637

G1X72.2272Y-95.4389

G1X70.5444Y-95.0349

G1X68.8264Y-94.7417

G1X67.1146Y-94.5540

G1X65.2552Y-94.4614

G1X63.9215Y-94.4897

G1X62.2021Y-94.6753

G1X58.2577Y-95.3132

G1X54.4785Y-96.0931

G1X53.3665Y-96.2073

G1X52.3356Y-96.2037

G1X50.8101Y-96.0218

G1X48.9044Y-95.6234

G1X44.4771Y-94.5492

G1X40.1927Y-93.3199

G1X39.1079Y-93.1580

G1X38.2239Y-93.2089

G1X37.5602Y-93.4358

G1X37.0165Y-93.7970

G1X36.5624Y-94.2698

G1X36.0612Y-95.0047

G1X34.8817Y-97.2103

G1X33.2560Y-101.9629

G1X31.8914Y-105.1001

G1X30.8833Y-107.1463

G1X30.0069Y-108.6269

G1X28.8073Y-110.3074

G1X27.5447Y-111.8306

G1X26.2832Y-113.1289

G1X24.8453Y-114.3303

G1X23.2365Y-115.3728

G1X21.5909Y-116.1617

G1X20.0963Y-116.6137

G1X18.5304Y-116.7778

G1X17.0121Y-116.6183

G1X15.8094Y-116.1930

G1X14.6887Y-115.4266

G1X13.8535Y-114.5532

G1X13.1703Y-113.5562

G1X12.5836Y-112.3738

G1X12.1199Y-111.0509

G1X11.7578Y-109.5132

G1X11.4932Y-107.7934

G1X11.1605Y-103.2275

G1X11.1947Y-98.5890

G1X11.9816Y-79.1632

G1X12.4654Y-72.4413

G1X12.7399Y-70.6116

G1X13.0854Y-69.3425

G1X13.5254Y-68.4313

G1X14.1222Y-67.7379

G1X14.6867Y-67.3710

G1X14.9673Y-67.3228

G1X15.3547Y-67.3831

G1X15.9384Y-67.6550

G1X16.6994Y-68.1946

G1X17.9298Y-69.7804

G1X19.1004Y-71.0501

G1X19.6182Y-71.3129

G1X20.4275Y-71.3583

G1X21.3690Y-71.1731

G1X22.4495Y-70.7167

G1X24.1102Y-69.7503

G1X25.8205Y-68.5972

G1X28.2400Y-66.7176

G1X31.5140Y-63.8357

G1X34.3368Y-61.1455

G1X36.7322Y-58.6312

G1X39.0214Y-55.9516

G1X41.5568Y-52.7344

G1X44.4816Y-48.7898

G1X47.3023Y-44.7816

G1X50.8353Y-39.2860

G1X54.1048Y-33.3803

G1X55.0691Y-31.3983

G1X55.8280Y-29.5846

G1X56.3915Y-27.9223

G1X56.8099Y-26.2655

G1X57.1852Y-23.9762

G1X57.4106Y-21.4420

G1X57.4892Y-18.4534

G1X57.3951Y-15.9439

G1X56.9733Y-13.4885

G1X56.0046Y-10.0558

G1X55.6058Y-9.0430

G1X54.9837Y-7.9656

G1X55.8779Y-9.2025

G1X57.1968Y-10.6373

G1X60.7759Y-14.3199

G1X66.7131Y-20.1288

G1X73.5658Y-27.6279

G1X75.5761Y-30.0397

G1X77.3447Y-32.3648

G1X79.3486Y-35.2920

G1X81.3576Y-38.4106

G1X83.4973Y-41.9861

G1X85.3661Y-45.4305

G1X86.9165Y-48.6604

G1X88.2120Y-51.8089

G1X89.5316Y-55.5861

G1X90.7700Y-59.7650

G1X91.8517Y-64.0903

G1X92.7482Y-68.4391

G1 Z0F20000


G00 X0.0000 Y0.0000


