$H
G21
G17
G90
G1 Z0F20000
G1 F15000

(Start Layer)

(Start Block)


G1X10.5833Y-47.4927
G1Z5F20000
(Plotting speed under)
G1 F4000


G1X21.5607Y-31.7616

G1X26.2438Y-25.2935

G1X28.3897Y-22.5222

G1X30.0192Y-20.6017

G1X31.2225Y-19.4259

G1X31.6350Y-19.1448

G1X31.9438Y-19.0505

G1X32.0927Y-19.1016

G1X32.1711Y-19.2386

G1X32.1355Y-19.8229

G1X31.8346Y-20.8386

G1X31.2654Y-22.2970

G1X29.8005Y-25.5781

G1X23.0924Y-39.9014

G1X21.1896Y-44.3885

G1X19.7837Y-48.1774

G1X18.8647Y-51.3765

G1X18.6156Y-52.7058

G1X18.5159Y-53.7940

G1X18.5565Y-54.7189

G1X18.7304Y-55.4173

G1X19.0452Y-55.9482

G1X19.5105Y-56.2989

G1X20.0117Y-56.4457

G1X20.6148Y-56.4760

G1X22.1636Y-56.2000

G1X24.1526Y-55.4819

G1X26.6482Y-54.2996

G1X29.4825Y-52.7519

G1X32.8857Y-50.7322

G1X50.0126Y-39.8728

G1X54.1762Y-37.3440

G1X57.6868Y-35.3304

G1X61.5007Y-33.3317

G1X64.7488Y-31.8666

G1X67.5145Y-30.8928

G1X69.8638Y-30.3941

G1X71.2813Y-30.2978

G1X72.6597Y-30.3440

G1X73.9993Y-30.5224

G1X75.4068Y-30.8530

G1X76.7692Y-31.3137

G1X78.0865Y-31.8914

G1X79.4550Y-32.6293

G1X80.8640Y-33.5352

G1X83.1665Y-35.3298

G1X85.6050Y-37.6358

G1X88.0202Y-40.2802

G1X92.6352Y-45.7702

G1X93.6194Y-46.7938

G1X94.4563Y-47.4927

G1 Z0F20000

(Start Block)


G1X10.5833Y-47.4927
G1Z5F20000
(Plotting speed under)
G1 F4000


G1X21.5607Y-31.7616

G1X26.2438Y-25.2935

G1X28.3897Y-22.5222

G1X30.0192Y-20.6017

G1X31.2225Y-19.4259

G1X31.6350Y-19.1448

G1X31.9438Y-19.0505

G1X32.0927Y-19.1016

G1X32.1711Y-19.2386

G1X32.1355Y-19.8229

G1X31.8346Y-20.8386

G1X31.2654Y-22.2970

G1X29.8005Y-25.5781

G1X23.0924Y-39.9014

G1X21.1896Y-44.3885

G1X19.7837Y-48.1774

G1X18.8647Y-51.3765

G1X18.6156Y-52.7058

G1X18.5159Y-53.7940

G1X18.5565Y-54.7189

G1X18.7304Y-55.4173

G1X19.0452Y-55.9482

G1X19.5105Y-56.2989

G1X20.0117Y-56.4457

G1X20.6148Y-56.4760

G1X22.1636Y-56.2000

G1X24.1526Y-55.4819

G1X26.6482Y-54.2996

G1X29.4825Y-52.7519

G1X32.8857Y-50.7322

G1X50.0126Y-39.8728

G1X54.1762Y-37.3440

G1X57.6868Y-35.3304

G1X61.5007Y-33.3317

G1X64.7488Y-31.8666

G1X67.5145Y-30.8928

G1X69.8638Y-30.3941

G1X71.2813Y-30.2978

G1X72.6597Y-30.3440

G1X73.9993Y-30.5224

G1X75.4068Y-30.8530

G1X76.7692Y-31.3137

G1X78.0865Y-31.8914

G1X79.4550Y-32.6293

G1X80.8640Y-33.5352

G1X83.1665Y-35.3298

G1X85.6050Y-37.6358

G1X88.0202Y-40.2802

G1X92.6352Y-45.7702

G1X93.6194Y-46.7938

G1X94.4563Y-47.4927

G1 Z0F20000

(Start Block)


G1X10.5833Y-49.2566
G1Z5F20000
(Plotting speed under)
G1 F4000


G1X21.3543Y-33.7239

G1X26.0217Y-27.2536

G1X28.1688Y-24.4857

G1X29.8055Y-22.5747

G1X30.9851Y-21.4446

G1X31.4130Y-21.1611

G1X31.7392Y-21.0658

G1X31.9013Y-21.1173

G1X31.9929Y-21.2566

G1X31.9862Y-21.8534

G1X31.7182Y-22.8915

G1X31.1865Y-24.3817

G1X29.7947Y-27.7301

G1X23.5283Y-41.9874

G1X21.7453Y-46.5022

G1X20.4914Y-50.1822

G1X19.6979Y-53.2803

G1X19.5029Y-54.5235

G1X19.4361Y-55.6146

G1X19.5095Y-56.5371

G1X19.7138Y-57.2281

G1X20.0592Y-57.7460

G1X20.5115Y-58.0588

G1X20.9879Y-58.1919

G1X21.5929Y-58.2183

G1X23.1421Y-57.9270

G1X25.1263Y-57.1837

G1X27.5333Y-56.0074

G1X30.3430Y-54.4272

G1X33.7160Y-52.3638

G1X50.5747Y-41.3400

G1X54.6992Y-38.7556

G1X58.1775Y-36.6976

G1X61.9570Y-34.6554

G1X65.1765Y-33.1593

G1X67.9183Y-32.1663

G1X70.2479Y-31.6603

G1X71.6461Y-31.5659

G1X73.0054Y-31.6175

G1X74.3260Y-31.8044

G1X75.7132Y-32.1474

G1X77.0555Y-32.6236

G1X78.3532Y-33.2196

G1X79.7009Y-33.9800

G1X81.0881Y-34.9126

G1X83.3541Y-36.7585

G1X85.7530Y-39.1290

G1X88.1279Y-41.8461

G1X92.6649Y-47.4860

G1X93.6328Y-48.5379

G1X94.4563Y-49.2566

G1 Z0F20000

(Start Block)


G1X10.5833Y-51.0205
G1Z5F20000
(Plotting speed under)
G1 F4000


G1X21.2272Y-35.5733

G1X25.7997Y-29.2138

G1X27.8856Y-26.5261

G1X29.5412Y-24.6021

G1X30.7470Y-23.4633

G1X31.1906Y-23.1775

G1X31.5344Y-23.0812

G1X31.7099Y-23.1330

G1X31.8148Y-23.2743

G1X31.8387Y-23.8815

G1X31.6067Y-24.9384

G1X31.0882Y-26.5367

G1X29.7648Y-29.9656

G1X23.9494Y-44.1362

G1X22.3401Y-48.5389

G1X21.2290Y-52.1082

G1X20.5473Y-55.1104

G1X20.3886Y-56.3560

G1X20.3573Y-57.4454

G1X20.4528Y-58.3022

G1X20.6783Y-58.9955

G1X21.0102Y-59.4786

G1X21.4688Y-59.7998

G1X21.9633Y-59.9388

G1X22.5706Y-59.9616

G1X24.0647Y-59.6721

G1X26.0330Y-58.9171

G1X28.4972Y-57.6759

G1X31.2913Y-56.0529

G1X34.6420Y-53.9371

G1X51.2451Y-42.7404

G1X55.3273Y-40.1047

G1X58.7687Y-38.0084

G1X62.4143Y-35.9800

G1X65.6047Y-34.4524

G1X68.3224Y-33.4400

G1X69.5559Y-33.1135

G1X70.6321Y-32.9265

G1X72.0109Y-32.8341

G1X73.3510Y-32.8910

G1X74.6527Y-33.0863

G1X76.0196Y-33.4419

G1X77.3420Y-33.9336

G1X78.6199Y-34.5478

G1X79.9468Y-35.3306

G1X81.3122Y-36.2899

G1X83.5418Y-38.1873

G1X85.9009Y-40.6221

G1X88.2356Y-43.4121

G1X92.6945Y-49.2018

G1X93.6461Y-50.2819

G1X94.4563Y-51.0205

G1 Z0F20000

(Start Block)


G1X10.5833Y-52.7844
G1Z5F20000
(Plotting speed under)
G1 F4000


G1X12.5819Y-49.9540

G1X21.0213Y-37.5356

G1X25.5776Y-31.1739

G1X27.6647Y-28.4895

G1X29.2763Y-26.6298

G1X30.5083Y-25.4821

G1X30.9677Y-25.1938

G1X31.3294Y-25.0966

G1X31.5184Y-25.1487

G1X31.6371Y-25.2920

G1X31.6925Y-25.9100

G1X31.4977Y-26.9863

G1X31.0251Y-28.6132

G1X29.7471Y-32.2085

G1X24.3828Y-46.2877

G1X22.9430Y-50.5769

G1X21.9429Y-54.1467

G1X21.3837Y-57.0346

G1X21.2709Y-58.2718

G1X21.2799Y-59.2762

G1X21.4084Y-60.1268

G1X21.6415Y-60.7631

G1X21.9923Y-61.2448

G1X22.4685Y-61.5608

G1X22.9378Y-61.6864

G1X23.5478Y-61.7059

G1X25.0431Y-61.4020

G1X27.0072Y-60.6221

G1X29.3842Y-59.3887

G1X32.1540Y-57.7331

G1X35.4745Y-55.5730

G1X51.8110Y-44.2126

G1X55.8531Y-41.5199

G1X59.2614Y-39.3780

G1X62.9641Y-37.2567

G1X66.1171Y-35.7091

G1X68.8011Y-34.6907

G1X71.0162Y-34.1927

G1X72.3714Y-34.1023

G1X73.6884Y-34.1636

G1X74.9673Y-34.3657

G1X76.3101Y-34.7310

G1X77.6089Y-35.2348

G1X78.8638Y-35.8634

G1X80.1667Y-36.6638

G1X81.5071Y-37.6442

G1X83.7765Y-39.6624

G1X86.0845Y-42.1571

G1X88.3682Y-45.0108

G1X92.6834Y-50.8658

G1X93.6622Y-52.0289

G1X94.4563Y-52.7844

G1 Z0F20000

(Start Block)


G1X10.5833Y-54.5483
G1Z5F20000
(Plotting speed under)
G1 F4000


G1X12.5233Y-51.7898

G1X20.8939Y-39.3850

G1X25.3555Y-33.1341

G1X27.4439Y-30.4529

G1X29.0631Y-28.6026

G1X30.3088Y-27.4721

G1X30.7770Y-27.1956

G1X31.1241Y-27.1119

G1X31.3269Y-27.1643

G1X31.4597Y-27.3098

G1X31.5476Y-27.9389

G1X31.3913Y-29.0353

G1X30.9663Y-30.6918

G1X29.7807Y-34.3476

G1X24.8290Y-48.4420

G1X23.5542Y-52.6161

G1X22.6910Y-56.0738

G1X22.2352Y-58.8650

G1X22.1618Y-60.0212

G1X22.1965Y-61.0351

G1X22.3492Y-61.8921

G1X22.6032Y-62.5308

G1X22.9737Y-63.0112

G1X23.4220Y-63.3027

G1X23.9115Y-63.4349

G1X24.5244Y-63.4511

G1X26.0213Y-63.1331

G1X27.9816Y-62.3282

G1X30.3489Y-61.0602

G1X33.0182Y-59.4162

G1X36.3086Y-57.2117

G1X52.5868Y-45.5425

G1X56.4820Y-42.8699

G1X59.8527Y-40.6887

G1X63.4225Y-38.5824

G1X66.5457Y-37.0025

G1X69.2050Y-35.9641

G1X70.3429Y-35.6502

G1X71.4003Y-35.4589

G1X72.7363Y-35.3704

G1X74.0342Y-35.4370

G1X75.2942Y-35.6476

G1X76.6168Y-36.0252

G1X77.8956Y-36.5445

G1X79.1309Y-37.1913

G1X80.4130Y-38.0140

G1X81.7317Y-39.0209

G1X83.9633Y-41.0923

G1X86.2319Y-43.6513

G1X88.4754Y-46.5776

G1X92.7137Y-52.5802

G1X93.6755Y-53.7731

G1X94.4563Y-54.5483

G1 Z0F20000

(Start Block)


G1X10.5833Y-56.3122
G1Z5F20000
(Plotting speed under)
G1 F4000


G1X12.5109Y-53.5578

G1X20.7289Y-41.2885

G1X25.1583Y-35.0610

G1X27.1766Y-32.4732

G1X28.8071Y-30.6203

G1X30.0741Y-29.4879

G1X30.5566Y-29.2109

G1X30.9193Y-29.1273

G1X31.1564Y-29.1923

G1X31.2951Y-29.3503

G1X31.4039Y-30.0138

G1X31.2759Y-31.1521

G1X30.8895Y-32.8593

G1X29.7868Y-36.6036

G1X25.3283Y-50.4643

G1X24.2058Y-54.5305

G1X23.4635Y-57.8889

G1X23.0863Y-60.6953

G1X23.0493Y-61.8538

G1X23.1100Y-62.7937

G1X23.2698Y-63.5968

G1X23.5363Y-64.2511

G1X23.9170Y-64.7444

G1X24.3731Y-65.0447

G1X24.8466Y-65.1788

G1X25.4564Y-65.2003

G1X26.9440Y-64.8837

G1X28.8897Y-64.0683

G1X31.2378Y-62.7781

G1X33.9682Y-61.0464

G1X37.2359Y-58.7880

G1X53.1556Y-47.0183

G1X57.0109Y-44.2887

G1X60.3475Y-42.0605

G1X63.8820Y-39.9092

G1X66.9750Y-38.2963

G1X69.6091Y-37.2377

G1X70.7366Y-36.9186

G1X71.7845Y-36.7252

G1X73.0971Y-36.6385

G1X74.3719Y-36.7095

G1X75.6094Y-36.9267

G1X76.9081Y-37.3139

G1X78.1635Y-37.8451

G1X79.4675Y-38.5616

G1X80.7223Y-39.4104

G1X82.0125Y-40.4463

G1X84.1176Y-42.4873

G1X86.3429Y-45.0994

G1X88.5438Y-48.0885

G1X92.7501Y-54.3031

G1X93.6914Y-55.5202

G1X94.4563Y-56.3122

G1 Z0F20000

(Start Block)


G1X10.5833Y-58.0761
G1Z5F20000
(Plotting speed under)
G1 F4000


G1X12.5053Y-55.3153

G1X20.5240Y-43.2506

G1X24.9362Y-37.0212

G1X26.9558Y-34.4366

G1X28.5944Y-32.5933

G1X29.8347Y-31.5065

G1X30.3336Y-31.2271

G1X30.7135Y-31.1426

G1X30.9665Y-31.2081

G1X31.1198Y-31.3680

G1X31.2636Y-32.0410

G1X31.1786Y-33.1958

G1X30.8463Y-34.9270

G1X29.8495Y-38.7192

G1X25.8179Y-52.5470

G1X24.8210Y-56.6165

G1X24.2113Y-59.8483

G1X23.9363Y-62.5455

G1X23.9381Y-63.7011

G1X24.0334Y-64.6352

G1X24.2264Y-65.4291

G1X24.5247Y-66.0702

G1X24.8970Y-66.5131

G1X25.3700Y-66.8076

G1X25.8562Y-66.9341

G1X26.4757Y-66.9444

G1X27.9773Y-66.5989

G1X29.8645Y-65.7777

G1X32.2034Y-64.4527

G1X34.8347Y-62.7345

G1X38.0722Y-60.4311

G1X53.8284Y-48.4218

G1X57.6406Y-45.6397

G1X60.9389Y-43.3713

G1X64.4312Y-41.1852

G1X67.4048Y-39.5906

G1X70.0135Y-38.5115

G1X71.1303Y-38.1870

G1X72.1686Y-37.9914

G1X73.4580Y-37.9067

G1X74.7100Y-37.9819

G1X75.9250Y-38.2056

G1X77.1999Y-38.6023

G1X78.4321Y-39.1452

G1X79.7118Y-39.8768

G1X80.9429Y-40.7428

G1X82.2085Y-41.7993

G1X84.3493Y-43.9661

G1X86.5245Y-46.6372

G1X88.6752Y-49.6890

G1X92.7863Y-56.0262

G1X93.7073Y-57.2675

G1X94.4563Y-58.0761

G1 Z0F20000

(Start Block)


G1X10.5833Y-59.8400
G1Z5F20000
(Plotting speed under)
G1 F4000


G1X12.4474Y-57.1509

G1X20.3959Y-45.1002

G1X24.7142Y-38.9813

G1X26.7351Y-36.4002

G1X28.3283Y-34.6207

G1X29.5947Y-33.5252

G1X30.1101Y-33.2433

G1X30.5075Y-33.1579

G1X30.7766Y-33.2239

G1X30.9448Y-33.3858

G1X31.1246Y-34.0685

G1X31.0838Y-35.2403

G1X30.8073Y-36.9960

G1X29.9198Y-40.8372

G1X26.3174Y-54.6309

G1X25.4723Y-58.5769

G1X24.9653Y-61.8076

G1X24.7869Y-64.4894

G1X24.9591Y-66.4763

G1X25.1630Y-67.2010

G1X25.4536Y-67.7949

G1X25.8367Y-68.2482

G1X26.3179Y-68.5509

G1X26.8270Y-68.6848

G1X27.4490Y-68.6926

G1X28.9504Y-68.3352

G1X30.8302Y-67.4932

G1X33.1542Y-66.1379

G1X35.7640Y-64.3825

G1X38.9708Y-62.0314

G1X54.5399Y-49.7962

G1X58.2033Y-47.0396

G1X61.4596Y-44.7293

G1X64.9080Y-42.5034

G1X67.8449Y-40.8807

G1X70.4223Y-39.7839

G1X71.5262Y-39.4550

G1X72.5527Y-39.2576

G1X73.8190Y-39.1748

G1X75.0483Y-39.2543

G1X76.2411Y-39.4845

G1X77.4923Y-39.8904

G1X78.7015Y-40.4449

G1X79.9569Y-41.1913

G1X81.1644Y-42.0744

G1X82.4056Y-43.1514

G1X84.5047Y-45.3599

G1X86.6371Y-48.0832

G1X88.8056Y-51.2910

G1X92.8222Y-57.7497

G1X93.7230Y-59.0150

G1X94.4563Y-59.8400

G1 Z0F20000

(Start Block)


G1X10.5833Y-61.6038
G1Z5F20000
(Plotting speed under)
G1 F4000


G1X12.4416Y-58.9086

G1X20.1917Y-47.0622

G1X24.4921Y-40.9414

G1X26.5145Y-38.3638

G1X28.1161Y-36.5937

G1X29.3978Y-35.5154

G1X29.8861Y-35.2595

G1X30.3012Y-35.1733

G1X30.5867Y-35.2397

G1X30.7698Y-35.4030

G1X30.9865Y-36.0926

G1X30.9923Y-37.2763

G1X30.7755Y-39.0491

G1X30.0055Y-42.9235

G1X26.8429Y-56.6384

G1X26.1211Y-60.5815

G1X25.7325Y-63.6859

G1X25.6397Y-66.2655

G1X25.8554Y-68.1840

G1X26.0763Y-68.9194

G1X26.3810Y-69.5231

G1X26.7752Y-69.9851

G1X27.2646Y-70.2950

G1X27.7970Y-70.4363

G1X28.3786Y-70.4455

G1X29.0848Y-70.3297

G1X29.8726Y-70.0912

G1X31.8054Y-69.2051

G1X34.1204Y-67.8146

G1X36.7154Y-66.0162

G1X39.8991Y-63.6098

G1X55.2129Y-51.2000

G1X58.8335Y-48.3912

G1X62.0507Y-46.0398

G1X65.4561Y-43.7785

G1X68.3550Y-42.1357

G1X70.8272Y-41.0579

G1X71.9202Y-40.7235

G1X72.9369Y-40.5238

G1X74.1802Y-40.4429

G1X75.3869Y-40.5265

G1X76.6535Y-40.7893

G1X77.8781Y-41.2167

G1X79.0610Y-41.7936

G1X80.2889Y-42.5652

G1X81.4697Y-43.4743

G1X82.6831Y-44.5799

G1X84.7343Y-46.8410

G1X86.8173Y-49.6228

G1X88.8762Y-52.7987

G1X92.8578Y-59.4736

G1X93.7385Y-60.7625

G1X94.4563Y-61.6038

G1 Z0F20000

(Start Block)


G1X10.5833Y-63.3677
G1Z5F20000
(Plotting speed under)
G1 F4000


G1X12.3843Y-60.7441

G1X20.0632Y-48.9117

G1X24.2701Y-42.9015

G1X26.2300Y-40.4037

G1X27.8493Y-38.6211

G1X29.1575Y-37.5339

G1X29.6616Y-37.2758

G1X30.0946Y-37.1886

G1X30.3969Y-37.2554

G1X30.5950Y-37.4203

G1X30.8494Y-38.1169

G1X30.9029Y-39.3128

G1X30.7471Y-41.1029

G1X30.0747Y-45.1293

G1X27.3743Y-58.6461

G1X26.7776Y-62.5860

G1X26.4952Y-65.6756

G1X26.4946Y-68.1351

G1X26.7832Y-70.0359

G1X27.0363Y-70.7590

G1X27.3714Y-71.3476

G1X27.7942Y-71.7913

G1X28.2591Y-72.0602

G1X28.8051Y-72.1930

G1X29.3951Y-72.1918

G1X30.1082Y-72.0632

G1X30.9008Y-71.8099

G1X32.7716Y-70.9233

G1X35.0722Y-69.5024

G1X37.6458Y-67.6664

G1X40.7985Y-65.2116

G1X55.9237Y-52.5737

G1X59.4937Y-49.7194

G1X62.5729Y-47.3992

G1X65.9336Y-45.0972

G1X68.7951Y-43.4257

G1X71.2365Y-42.3306

G1X72.3162Y-41.9915

G1X73.3210Y-41.7900

G1X74.5415Y-41.7109

G1X75.7259Y-41.7987

G1X76.9686Y-42.0685

G1X78.1698Y-42.5050

G1X79.3300Y-43.0935

G1X80.5340Y-43.8797

G1X81.6915Y-44.8056

G1X82.8807Y-45.9313

G1X84.8908Y-48.2336

G1X86.9314Y-51.0669

G1X89.0059Y-54.4017

G1X92.8932Y-61.1978

G1X93.7540Y-62.5102

G1X94.4563Y-63.3677

G1 Z0F20000

(Start Block)


G1X10.5833Y-65.1316
G1Z5F20000
(Plotting speed under)
G1 F4000


G1X12.3781Y-62.5018

G1X19.9343Y-50.7614

G1X24.0480Y-44.8617

G1X26.0095Y-42.3672

G1X27.6377Y-40.5941

G1X28.9166Y-39.5525

G1X29.4366Y-39.2920

G1X29.8877Y-39.2039

G1X30.2070Y-39.2712

G1X30.4204Y-39.4375

G1X30.7133Y-40.1414

G1X30.8156Y-41.3497

G1X30.7222Y-43.1575

G1X30.1767Y-47.2189

G1X27.9116Y-60.6541

G1X27.4533Y-64.4647

G1X27.2685Y-67.5537

G1X27.3519Y-70.0043

G1X27.6920Y-71.8160

G1X27.9706Y-72.5384

G1X28.2928Y-73.0770

G1X28.7281Y-73.5296

G1X29.2017Y-73.8054

G1X29.6948Y-73.9362

G1X30.3218Y-73.9470

G1X31.0312Y-73.8228

G1X31.8184Y-73.5711

G1X33.7381Y-72.6428

G1X36.0244Y-71.1915

G1X38.6578Y-69.2554

G1X41.7862Y-66.7418

G1X56.6339Y-53.9467

G1X60.1527Y-51.0466

G1X63.1865Y-48.6925

G1X66.4120Y-46.4166

G1X69.2358Y-44.7161

G1X71.6459Y-43.6033

G1X72.7124Y-43.2596

G1X73.7051Y-43.0563

G1X74.9029Y-42.9790

G1X76.0651Y-43.0709

G1X77.2841Y-43.3474

G1X78.4622Y-43.7932

G1X79.5997Y-44.3929

G1X80.7799Y-45.1936

G1X81.9143Y-46.1361

G1X83.0795Y-47.2818

G1X85.0485Y-49.6248

G1X87.1103Y-52.6083

G1X89.1346Y-56.0061

G1X92.9284Y-62.9223

G1X93.7694Y-64.2580

G1X94.4563Y-65.1316

G1 Z0F20000

(Start Block)


G1X10.5833Y-66.8955
G1Z5F20000
(Plotting speed under)
G1 F4000


G1X12.3717Y-64.2594

G1X19.7308Y-52.7233

G1X21.9510Y-49.4360

G1X23.8260Y-46.8218

G1X25.7890Y-44.3307

G1X27.3701Y-42.6215

G1X28.6750Y-41.5712

G1X29.2109Y-41.3083

G1X29.6806Y-41.2192

G1X30.0171Y-41.2870

G1X30.2456Y-41.4543

G1X30.5774Y-42.1622

G1X30.7300Y-43.3773

G1X30.7021Y-45.1946

G1X30.2900Y-49.2735

G1X28.4487Y-62.7197

G1X28.1260Y-66.3867

G1X28.0420Y-69.3512

G1X28.2017Y-71.8003

G1X28.6021Y-73.6068

G1X28.9069Y-74.3249

G1X29.2504Y-74.8585

G1X29.6612Y-75.2701

G1X30.1433Y-75.5515

G1X30.7007Y-75.6949

G1X31.2924Y-75.6992

G1X32.0038Y-75.5709

G1X32.7911Y-75.3129

G1X34.7050Y-74.3638

G1X36.9773Y-72.8820

G1X39.5888Y-70.9069

G1X42.6859Y-68.3442

G1X57.3434Y-55.3191

G1X60.8108Y-52.3731

G1X63.7987Y-49.9848

G1X66.9741Y-47.6805

G1X69.7528Y-45.9650

G1X72.1234Y-44.8503

G1X73.1720Y-44.5106

G1X74.0892Y-44.3225

G1X75.2646Y-44.2470

G1X76.4045Y-44.3429

G1X77.6001Y-44.6262

G1X78.7550Y-45.0810

G1X79.8700Y-45.6920

G1X81.0266Y-46.5069

G1X82.2157Y-47.5394

G1X83.3537Y-48.7135

G1X85.2758Y-51.1085

G1X87.2876Y-54.1515

G1X89.2623Y-57.6118

G1X92.9238Y-64.5770

G1X93.7847Y-66.0059

G1X94.4563Y-66.8955

G1 Z0F20000

(Start Block)


G1X10.5833Y-68.6594
G1Z5F20000
(Plotting speed under)
G1 F4000


G1X12.3151Y-66.0949

G1X19.6014Y-54.5730

G1X21.7346Y-51.3965

G1X23.6040Y-48.7819

G1X25.5686Y-46.2944

G1X27.1591Y-44.5945

G1X28.4809Y-43.5614

G1X29.0280Y-43.3101

G1X29.4731Y-43.2344

G1X29.8272Y-43.3028

G1X30.0710Y-43.4709

G1X30.4421Y-44.1831

G1X30.6460Y-45.4051

G1X30.6846Y-47.2320

G1X30.4081Y-51.3286

G1X29.0063Y-64.6494

G1X28.8013Y-68.3085

G1X28.8166Y-71.2595

G1X29.0490Y-73.5964

G1X29.5106Y-75.3979

G1X29.8420Y-76.1117

G1X30.2072Y-76.6402

G1X30.6372Y-77.0455

G1X31.1357Y-77.3194

G1X31.7065Y-77.4536

G1X32.3075Y-77.4477

G1X33.0263Y-77.3066

G1X33.8187Y-77.0337

G1X35.7364Y-76.0476

G1X38.0033Y-74.5209

G1X40.6002Y-72.4943

G1X43.6721Y-69.8719

G1X58.0522Y-56.6908

G1X61.3769Y-53.7761

G1X64.3224Y-51.3452

G1X67.4530Y-49.0003

G1X70.1934Y-47.2553

G1X72.5324Y-46.1228

G1X73.5676Y-45.7785

G1X74.4733Y-45.5887

G1X75.6263Y-45.5150

G1X76.7443Y-45.6149

G1X77.9164Y-45.9048

G1X79.0485Y-46.3686

G1X80.1411Y-46.9906

G1X81.2741Y-47.8197

G1X82.4387Y-48.8696

G1X83.5530Y-50.0634

G1X85.4346Y-52.4985

G1X87.4034Y-55.5935

G1X89.3356Y-59.1159

G1X92.9594Y-66.3010

G1X93.7999Y-67.7539

G1X94.4563Y-68.6594

G1 Z0F20000

(Start Block)


G1X10.5833Y-70.4233
G1Z5F20000
(Plotting speed under)
G1 F4000


G1X12.3084Y-67.8526

G1X19.3986Y-56.5349

G1X21.5183Y-53.3571

G1X23.3820Y-50.7420

G1X25.2832Y-48.3342

G1X26.8906Y-46.6218

G1X28.2390Y-45.5799

G1X28.8027Y-45.3262

G1X29.2653Y-45.2497

G1X29.6023Y-45.3055

G1X29.8699Y-45.4632

G1X30.1133Y-45.7684

G1X30.3076Y-46.2040

G1X30.5635Y-47.4331

G1X30.6697Y-49.2696

G1X30.5308Y-53.3839

G1X29.5591Y-66.7141

G1X29.4791Y-70.2301

G1X29.5947Y-73.1674

G1X29.9122Y-75.4845

G1X30.4176Y-77.1893

G1X30.7407Y-77.8400

G1X31.1218Y-78.3754

G1X31.5648Y-78.7871

G1X32.0732Y-79.0669

G1X32.6506Y-79.2063

G1X33.2769Y-79.2015

G1X33.9981Y-79.0566

G1X34.7910Y-78.7775

G1X36.7035Y-77.7705

G1X38.9567Y-76.2132

G1X41.5318Y-74.1471

G1X44.5721Y-71.4749

G1X58.7604Y-58.0619

G1X62.0343Y-55.1019

G1X64.9333Y-52.6364

G1X68.0132Y-50.2630

G1X70.6345Y-48.5459

G1X72.9416Y-47.3954

G1X73.9632Y-47.0464

G1X74.8575Y-46.8549

G1X75.9847Y-46.7829

G1X77.1671Y-46.9017

G1X78.3097Y-47.2100

G1X79.4130Y-47.6922

G1X80.4775Y-48.3328

G1X81.5813Y-49.1820

G1X82.7156Y-50.2536

G1X83.8007Y-51.4692

G1X85.6326Y-53.9438

G1X87.5492Y-57.0846

G1X89.4303Y-60.6577

G1X92.9997Y-68.0349

G1X93.8170Y-69.5055

G1X94.4563Y-70.4233

G1 Z0F20000

(Start Block)


G1X10.5833Y-72.1872
G1Z5F20000
(Plotting speed under)
G1 F4000


G1X12.2524Y-69.6880

G1X19.2688Y-58.3846

G1X21.3023Y-55.3176

G1X23.1600Y-52.7021

G1X25.0628Y-50.2977

G1X26.6802Y-48.5949

G1X27.9964Y-47.5985

G1X28.5768Y-47.3424

G1X29.0572Y-47.2650

G1X29.4105Y-47.3212

G1X29.6931Y-47.4793

G1X29.9558Y-47.7849

G1X30.1724Y-48.2211

G1X30.4925Y-49.5245

G1X30.6610Y-51.3830

G1X30.6559Y-55.5237

G1X30.1231Y-68.6997

G1X30.1611Y-72.1937

G1X30.3669Y-74.9954

G1X30.7619Y-77.3000

G1X31.3278Y-78.9914

G1X31.6757Y-79.6349

G1X32.0791Y-80.1625

G1X32.5412Y-80.5659

G1X33.0102Y-80.8156

G1X33.5936Y-80.9597

G1X34.2454Y-80.9562

G1X34.9695Y-80.8077

G1X35.7632Y-80.5225

G1X37.6709Y-79.4949

G1X39.9108Y-77.9069

G1X42.4641Y-75.8012

G1X45.5569Y-73.0002

G1X59.4679Y-59.4324

G1X62.6906Y-56.4268

G1X65.4583Y-53.9980

G1X68.4928Y-51.5831

G1X71.0761Y-49.8368

G1X73.3510Y-48.6680

G1X74.3589Y-48.3143

G1X75.2416Y-48.1211

G1X76.3468Y-48.0509

G1X77.5058Y-48.1740

G1X78.6253Y-48.4889

G1X79.7061Y-48.9799

G1X80.7486Y-49.6314

G1X81.8293Y-50.4945

G1X82.9394Y-51.5832

G1X84.0012Y-52.8181

G1X85.7931Y-55.3321

G1X87.6672Y-58.5240

G1X89.5571Y-62.2645

G1X93.0347Y-69.7597

G1X93.8319Y-71.2538

G1X94.4563Y-72.1872

G1 Z0F20000

(Start Block)


G1X10.5833Y-73.9511
G1Z5F20000
(Plotting speed under)
G1 F4000


G1X12.2389Y-71.4561

G1X19.0325Y-60.3999

G1X21.0458Y-57.3381

G1X22.8926Y-54.7235

G1X24.7942Y-52.3175

G1X26.4217Y-50.6123

G1X27.7585Y-49.6141

G1X28.3536Y-49.3576

G1X28.8502Y-49.2803

G1X29.2188Y-49.3369

G1X29.5164Y-49.4953

G1X29.7985Y-49.8014

G1X30.0375Y-50.2381

G1X30.4137Y-51.5427

G1X30.6526Y-53.4023

G1X30.7911Y-57.5424

G1X30.6923Y-70.6846

G1X30.8487Y-74.1563

G1X31.1535Y-76.9320

G1X31.6102Y-79.1159

G1X32.2372Y-80.7938

G1X32.6103Y-81.4301

G1X33.0359Y-81.9499

G1X33.5173Y-82.3447

G1X34.0010Y-82.5863

G1X34.5975Y-82.7206

G1X35.2595Y-82.7061

G1X35.9914Y-82.5447

G1X36.7905Y-82.2446

G1X38.7023Y-81.1793

G1X40.9365Y-79.5455

G1X43.4746Y-77.3872

G1X46.5405Y-74.5233

G1X60.1747Y-60.8022

G1X63.3459Y-57.7508

G1X66.0680Y-55.2882

G1X69.0511Y-52.8445

G1X71.5898Y-51.0838

G1X73.7606Y-49.9408

G1X74.7547Y-49.5823

G1X75.6257Y-49.3873

G1X76.7058Y-49.3188

G1X77.8381Y-49.4448

G1X78.9317Y-49.7639

G1X79.9873Y-50.2604

G1X81.0820Y-50.9754

G1X82.1340Y-51.8584

G1X83.2145Y-52.9685

G1X84.2477Y-54.2248

G1X86.0528Y-56.8778

G1X87.8697Y-60.1218

G1X89.6522Y-63.8057

G1X93.0741Y-71.4946

G1X93.8487Y-73.0057

G1X94.4563Y-73.9511

G1 Z0F20000

(Start Block)


G1X10.5833Y-75.7150
G1Z5F20000
(Plotting speed under)
G1 F4000


G1X12.2315Y-73.2139

G1X19.0446Y-62.0263

G1X21.1873Y-58.7739

G1X23.0183Y-56.2182

G1X24.9648Y-53.8385

G1X26.5666Y-52.2832

G1X27.2995Y-51.7569

G1X27.9282Y-51.4405

G1X28.5057Y-51.3011

G1X29.0269Y-51.3526

G1X29.3066Y-51.4878

G1X29.5831Y-51.7443

G1X30.0399Y-52.5712

G1X30.3997Y-53.8527

G1X30.6653Y-55.5928

G1X30.9320Y-59.6445

G1X31.1286Y-69.2076

G1X31.3009Y-73.2501

G1X31.6623Y-77.1105

G1X32.1991Y-80.0171

G1X32.5797Y-81.2992

G1X33.0412Y-82.3974

G1X33.5918Y-83.2887

G1X34.1902Y-83.9107

G1X34.8795Y-84.3159

G1X35.6021Y-84.4815

G1X36.4150Y-84.4330

G1X37.3245Y-84.1731

G1X38.7970Y-83.4535

G1X40.5725Y-82.2697

G1X42.5937Y-80.6542

G1X44.9292Y-78.5579

G1X49.5876Y-73.9539

G1X61.8745Y-61.1678

G1X65.2083Y-57.9242

G1X68.0653Y-55.3644

G1X70.8190Y-53.1961

G1X73.1351Y-51.7220

G1X74.1742Y-51.2120

G1X75.1522Y-50.8498

G1X76.0099Y-50.6536

G1X76.8915Y-50.5850

G1X77.9193Y-50.6679

G1X78.9145Y-50.9195

G1X79.8776Y-51.3273

G1X80.8855Y-51.9312

G1X81.8569Y-52.6883

G1X82.8629Y-53.6570

G1X83.8281Y-54.7656

G1X84.8179Y-56.0865

G1X86.4274Y-58.6323

G1X88.1227Y-61.8318

G1X89.7959Y-65.4553

G1X93.0784Y-73.1544

G1X93.8342Y-74.7003

G1X94.4563Y-75.7150

G1 Z0F20000

(Start Block)


G1X10.5833Y-77.4789
G1Z5F20000
(Plotting speed under)
G1 F4000


G1X12.1764Y-75.0492

G1X18.9130Y-63.8764

G1X20.9704Y-60.7341

G1X22.7960Y-58.1785

G1X24.7462Y-55.8038

G1X26.3614Y-54.2603

G1X27.1051Y-53.7436

G1X27.7463Y-53.4386

G1X28.3388Y-53.3132

G1X28.8350Y-53.3683

G1X29.1617Y-53.5263

G1X29.4511Y-53.7942

G1X29.9426Y-54.6404

G1X30.3504Y-55.9373

G1X30.6773Y-57.6882

G1X31.0810Y-61.7461

G1X31.5875Y-71.1360

G1X31.8927Y-75.1520

G1X32.3826Y-78.9828

G1X33.0189Y-81.8622

G1X33.4452Y-83.1299

G1X33.9473Y-84.2134

G1X34.5332Y-85.0899

G1X35.1589Y-85.6982

G1X35.8697Y-86.0895

G1X36.6067Y-86.2424

G1X37.3826Y-86.1896

G1X38.2956Y-85.9247

G1X39.7677Y-85.1916

G1X41.5362Y-83.9858

G1X43.5435Y-82.3404

G1X45.9348Y-80.1313

G1X50.5456Y-75.4306

G1X62.6489Y-62.4324

G1X65.8406Y-59.2303

G1X68.6476Y-56.6378

G1X71.3521Y-54.4476

G1X73.6262Y-52.9660

G1X74.6462Y-52.4574

G1X75.5482Y-52.1178

G1X76.3940Y-51.9198

G1X77.2551Y-51.8525

G1X78.2588Y-51.9378

G1X79.2304Y-52.1927

G1X80.2476Y-52.6460

G1X81.2283Y-53.2681

G1X82.1735Y-54.0434

G1X83.1520Y-55.0317

G1X84.0907Y-56.1600

G1X85.0531Y-57.5019

G1X86.6175Y-60.0843

G1X88.2650Y-63.3261

G1X89.9374Y-67.1069

G1X93.1178Y-74.8895

G1X93.8515Y-76.4519

G1X94.4563Y-77.4789

G1 Z0F20000

(Start Block)


G1X10.5833Y-79.2428
G1Z5F20000
(Plotting speed under)
G1 F4000


G1X12.1687Y-76.8070

G1X18.7108Y-65.8379

G1X20.7536Y-62.6944

G1X22.5737Y-60.1388

G1X24.4625Y-57.8402

G1X26.0972Y-56.2845

G1X26.8556Y-55.7632

G1X27.5135Y-55.4552

G1X28.1258Y-55.3285

G1X28.6431Y-55.3839

G1X28.9836Y-55.5413

G1X29.2890Y-55.8072

G1X29.8209Y-56.6464

G1X30.2819Y-57.9320

G1X30.6749Y-59.6672

G1X31.2218Y-63.6885

G1X32.0525Y-73.1301

G1X32.4912Y-77.1055

G1X33.1103Y-80.8909

G1X33.8462Y-83.7298

G1X34.3177Y-84.9769

G1X34.8600Y-86.0403

G1X35.4332Y-86.8436

G1X36.0791Y-87.4506

G1X36.8035Y-87.8433

G1X37.5468Y-87.9996

G1X38.3484Y-87.9473

G1X39.2634Y-87.6786

G1X40.7324Y-86.9348

G1X42.4901Y-85.7112

G1X44.4790Y-84.0415

G1X46.8425Y-81.7997

G1X51.4704Y-76.9392

G1X63.3653Y-63.7517

G1X66.4945Y-60.5127

G1X69.2449Y-57.8953

G1X71.8232Y-55.7439

G1X74.0566Y-54.2431

G1X75.0590Y-53.7284

G1X75.9459Y-53.3853

G1X76.7781Y-53.1860

G1X77.6215Y-53.1199

G1X78.6042Y-53.2086

G1X79.5552Y-53.4687

G1X80.5504Y-53.9296

G1X81.5097Y-54.5614

G1X82.4338Y-55.3483

G1X83.3903Y-56.3510

G1X84.3075Y-57.4955

G1X85.2475Y-58.8566

G1X86.8313Y-61.5823

G1X88.4340Y-64.8789

G1X90.0600Y-68.7188

G1X93.1523Y-76.6147

G1X93.8666Y-78.1999

G1X94.4563Y-79.2428

G1 Z0F20000

(Start Block)


G1X10.5833Y-81.0066
G1Z5F20000
(Plotting speed under)
G1 F4000


G1X12.1144Y-78.6422

G1X18.5787Y-67.6880

G1X20.6073Y-64.5506

G1X22.3514Y-62.0990

G1X24.2439Y-59.8054

G1X25.8930Y-58.2618

G1X26.6052Y-57.7828

G1X27.2800Y-57.4719

G1X27.9124Y-57.3438

G1X28.4511Y-57.3996

G1X28.8054Y-57.5563

G1X29.1267Y-57.8202

G1X29.6986Y-58.6525

G1X30.2124Y-59.9269

G1X30.6921Y-61.7416

G1X31.3766Y-65.7507

G1X32.5219Y-75.1229

G1X33.0932Y-79.0579

G1X33.8403Y-82.7981

G1X34.6751Y-85.5969

G1X35.1915Y-86.8234

G1X35.7736Y-87.8668

G1X36.3784Y-88.6522

G1X37.0506Y-89.2422

G1X37.7952Y-89.6189

G1X38.5513Y-89.7616

G1X39.3622Y-89.6964

G1X40.2309Y-89.4336

G1X41.7568Y-88.6424

G1X43.5100Y-87.3863

G1X45.4861Y-85.6792

G1X47.8268Y-83.3929

G1X52.3943Y-78.4468

G1X64.0796Y-65.0694

G1X67.1461Y-61.7937

G1X69.7649Y-59.2210

G1X72.2947Y-57.0404

G1X74.4872Y-55.5202

G1X75.4719Y-54.9995

G1X76.3437Y-54.6528

G1X77.1622Y-54.4522

G1X77.9855Y-54.3873

G1X78.9446Y-54.4783

G1X79.8725Y-54.7416

G1X80.8433Y-55.2070

G1X81.7788Y-55.8444

G1X82.6798Y-56.6380

G1X83.6123Y-57.6492

G1X84.5686Y-58.8910

G1X85.4818Y-60.2728

G1X87.0198Y-63.0357

G1X88.5758Y-66.3737

G1X90.1543Y-70.2609

G1X93.1590Y-78.2718

G1X93.8835Y-79.9518

G1X94.4563Y-81.0066

G1 Z0F20000

(Start Block)


G1X10.5833Y-82.7705
G1Z5F20000
(Plotting speed under)
G1 F4000


G1X12.1064Y-80.4001

G1X18.3773Y-69.6495

G1X20.3906Y-66.5109

G1X22.1290Y-64.0593

G1X23.9594Y-61.8420

G1X25.6280Y-60.2858

G1X26.3540Y-59.8025

G1X27.0457Y-59.4885

G1X27.6986Y-59.3590

G1X28.2591Y-59.4153

G1X28.6271Y-59.5713

G1X28.9642Y-59.8333

G1X29.5759Y-60.6587

G1X30.1421Y-61.9219

G1X30.6903Y-63.7205

G1X31.5371Y-67.8119

G1X32.9956Y-77.1146

G1X33.6986Y-81.0093

G1X34.5416Y-84.5929

G1X35.4676Y-87.3707

G1X36.0245Y-88.5890

G1X36.6414Y-89.6263

G1X37.2732Y-90.4081

G1X37.9664Y-90.9968

G1X38.7258Y-91.3746

G1X39.4894Y-91.5207

G1X40.2778Y-91.4652

G1X41.1982Y-91.1897

G1X42.7217Y-90.3879

G1X44.4648Y-89.1142

G1X46.4930Y-87.3165

G1X48.8108Y-84.9853

G1X53.3172Y-79.9532

G1X64.7918Y-66.3857

G1X67.7953Y-63.0734

G1X70.3590Y-60.4768

G1X72.8346Y-58.2821

G1X74.9179Y-56.7974

G1X75.8849Y-56.2706

G1X76.7415Y-55.9203

G1X77.5463Y-55.7184

G1X78.3475Y-55.6547

G1X79.2805Y-55.7469

G1X80.2570Y-56.0408

G1X81.1984Y-56.5214

G1X82.1056Y-57.1729

G1X82.9791Y-57.9798

G1X83.8829Y-59.0045

G1X84.8098Y-60.2602

G1X85.6947Y-61.6555

G1X87.1851Y-64.4424

G1X88.6928Y-67.8083

G1X90.2228Y-71.7310

G1X93.2020Y-80.0181

G1X93.9019Y-81.7077

G1X94.4563Y-82.7705

G1 Z0F20000

(Start Block)


G1X10.5833Y-84.5344
G1Z5F20000
(Plotting speed under)
G1 F4000


G1X12.0981Y-82.1580

G1X18.2446Y-71.4997

G1X20.1740Y-68.4711

G1X21.9067Y-66.0196

G1X23.7408Y-63.8070

G1X24.5958Y-62.9531

G1X25.4248Y-62.2633

G1X26.1622Y-61.7892

G1X26.8683Y-61.4870

G1X27.4843Y-61.3743

G1X28.0670Y-61.4309

G1X28.4478Y-61.5857

G1X28.7998Y-61.8447

G1X29.4493Y-62.6595

G1X30.0969Y-63.9814

G1X30.7090Y-65.7738

G1X31.6952Y-69.8346

G1X33.4600Y-79.0371

G1X34.2895Y-82.8846

G1X35.2487Y-86.4240

G1X36.2650Y-89.1681

G1X36.8618Y-90.3720

G1X37.5130Y-91.3979

G1X38.1710Y-92.1719

G1X38.8844Y-92.7558

G1X39.6575Y-93.1323

G1X40.4276Y-93.2804

G1X41.2414Y-93.2255

G1X42.1650Y-92.9469

G1X43.6868Y-92.1347

G1X45.4202Y-90.8437

G1X47.4301Y-89.0209

G1X49.7205Y-86.6569

G1X54.2392Y-81.4585

G1X65.5807Y-67.6079

G1X68.4423Y-64.3517

G1X70.9507Y-61.7315

G1X73.3721Y-59.5231

G1X75.4098Y-58.0368

G1X76.2980Y-57.5416

G1X77.1393Y-57.1878

G1X77.9305Y-56.9846

G1X78.7120Y-56.9221

G1X79.6220Y-57.0164

G1X80.5742Y-57.3137

G1X81.4919Y-57.7985

G1X82.3760Y-58.4554

G1X83.2270Y-59.2687

G1X84.1074Y-60.3016

G1X85.0100Y-61.5675

G1X85.8715Y-62.9744

G1X87.3221Y-65.7863

G1X88.8356Y-69.3021

G1X90.3602Y-73.3868

G1X93.2403Y-81.7542

G1X93.9182Y-83.4600

G1X94.4563Y-84.5344

G1 Z0F20000

(Start Block)


G1X10.5833Y-86.2983
G1Z5F20000
(Plotting speed under)
G1 F4000


G1X12.0385Y-84.0033

G1X18.0787Y-73.4038

G1X19.9867Y-70.3876

G1X21.7075Y-67.9493

G1X23.5389Y-65.7548

G1X25.1691Y-64.2798

G1X25.9178Y-63.8048

G1X26.6388Y-63.5021

G1X27.2719Y-63.3894

G1X27.8751Y-63.4466

G1X28.2684Y-63.6002

G1X28.6350Y-63.8563

G1X29.3217Y-64.6606

G1X30.0222Y-65.9648

G1X30.7004Y-67.7330

G1X31.8276Y-71.7399

G1X33.9544Y-81.0890

G1X34.9123Y-84.8832

G1X35.9916Y-88.3651

G1X37.1032Y-91.0571

G1X37.7432Y-92.2351

G1X38.4324Y-93.2361

G1X39.1205Y-93.9884

G1X39.8586Y-94.5524

G1X40.6503Y-94.9109

G1X41.4319Y-95.0445

G1X42.2537Y-94.9769

G1X43.1315Y-94.7052

G1X44.6521Y-93.8829

G1X46.4405Y-92.5202

G1X48.4371Y-90.6583

G1X50.7043Y-88.2492

G1X55.1602Y-82.9626

G1X66.3641Y-68.8267

G1X69.1609Y-65.5451

G1X71.5399Y-62.9851

G1X73.8421Y-60.8188

G1X75.8398Y-59.3137

G1X76.7113Y-58.8128

G1X77.5372Y-58.4554

G1X78.3146Y-58.2509

G1X79.0768Y-58.1895

G1X79.9641Y-58.2859

G1X80.8922Y-58.5863

G1X81.7865Y-59.0754

G1X82.6477Y-59.7375

G1X83.5389Y-60.6262

G1X84.3935Y-61.6780

G1X85.2692Y-62.9640

G1X86.1049Y-64.3910

G1X87.5115Y-67.2388

G1X88.9785Y-70.7959

G1X90.4560Y-74.9274

G1X93.2780Y-83.4908

G1X93.9344Y-85.2124

G1X94.4563Y-86.2983

G1 Z0F20000

(Start Block)


G1X10.5833Y-88.0622
G1Z5F20000
(Plotting speed under)
G1 F4000


G1X12.0298Y-85.7614

G1X15.9402Y-78.7122

G1X17.9450Y-75.2542

G1X19.7705Y-72.3477

G1X21.4852Y-69.9096

G1X23.2536Y-67.7910

G1X24.1197Y-66.9410

G1X24.9025Y-66.3038

G1X25.6653Y-65.8243

G1X26.4041Y-65.5186

G1X27.0568Y-65.4046

G1X27.6829Y-65.4623

G1X28.0889Y-65.6147

G1X28.4698Y-65.8678

G1X29.2322Y-66.7167

G1X29.9820Y-68.0233

G1X30.7235Y-69.7852

G1X31.9876Y-73.7619

G1X34.4224Y-83.0101

G1X35.5040Y-86.7583

G1X36.6968Y-90.1972

G1X37.8973Y-92.8562

G1X38.5766Y-94.0201

G1X39.2999Y-95.0098

G1X40.0143Y-95.7543

G1X40.7731Y-96.3136

G1X41.5793Y-96.6706

G1X42.3684Y-96.8061

G1X43.2159Y-96.7387

G1X44.0976Y-96.4646

G1X45.6176Y-95.6325

G1X47.3968Y-94.2521

G1X49.3756Y-92.3653

G1X51.6876Y-89.8407

G1X56.1568Y-84.3677

G1X67.0665Y-70.1363

G1X69.8015Y-66.8199

G1X72.1267Y-64.2375

G1X74.3762Y-62.0586

G1X76.3283Y-60.5525

G1X77.1801Y-60.0553

G1X77.9876Y-59.7043

G1X78.6987Y-59.5171

G1X79.4419Y-59.4568

G1X80.3067Y-59.5553

G1X81.2110Y-59.8589

G1X82.0820Y-60.3520

G1X82.9838Y-61.0772

G1X83.8488Y-61.9849

G1X84.6778Y-63.0555

G1X85.5272Y-64.3615

G1X86.3374Y-65.8083

G1X87.7005Y-68.6916

G1X89.1216Y-72.2895

G1X90.5525Y-76.4675

G1X93.2874Y-85.1456

G1X93.9251Y-86.9023

G1X94.4563Y-88.0622

G1 Z0F20000

(Start Block)


G1X10.5833Y-89.8261
G1Z5F20000
(Plotting speed under)
G1 F4000


G1X11.9771Y-87.5962

G1X15.8284Y-80.5607

G1X17.7449Y-77.2154

G1X19.5545Y-74.3077

G1X21.2629Y-71.8699

G1X23.0354Y-69.7562

G1X23.9082Y-68.9115

G1X24.7005Y-68.2812

G1X25.4759Y-67.8113

G1X26.1687Y-67.5351

G1X26.8413Y-67.4198

G1X27.4908Y-67.4779

G1X28.3024Y-67.8779

G1X29.1011Y-68.7121

G1X29.9007Y-69.9955

G1X30.7424Y-71.8169

G1X32.1752Y-75.8608

G1X34.8700Y-84.8658

G1X36.0689Y-88.5622

G1X37.4138Y-92.0635

G1X38.7002Y-94.6776

G1X39.4175Y-95.8220

G1X40.1735Y-96.7953

G1X40.9713Y-97.5771

G1X41.7524Y-98.1137

G1X42.5751Y-98.4509

G1X43.3735Y-98.5711

G1X44.2277Y-98.4909

G1X45.1171Y-98.2024

G1X46.6419Y-97.3433

G1X48.4171Y-95.9291

G1X50.3827Y-94.0030

G1X52.6705Y-91.4316

G1X57.0746Y-85.8680

G1X67.8405Y-71.3491

G1X70.4397Y-68.0933

G1X72.7110Y-65.4889

G1X74.8457Y-63.3539

G1X76.7005Y-61.8677

G1X77.5382Y-61.3552

G1X78.3332Y-60.9905

G1X79.0344Y-60.7920

G1X79.7337Y-60.7241

G1X80.5764Y-60.8085

G1X81.4573Y-61.0977

G1X82.3058Y-61.5777

G1X83.1840Y-62.2901

G1X84.0262Y-63.1867

G1X84.8332Y-64.2482

G1X85.6600Y-65.5467

G1X86.4999Y-67.0895

G1X87.8691Y-70.0962

G1X89.2429Y-73.7207

G1X90.6635Y-78.0520

G1X93.3287Y-86.8934

G1X93.9433Y-88.6586

G1X94.4563Y-89.8261

G1 Z0F20000

(Start Block)


G1X10.5833Y-91.5900
G1Z5F20000
(Plotting speed under)
G1 F4000


G1X11.9681Y-89.3544

G1X15.7163Y-82.4093

G1X17.6108Y-79.0658

G1X19.4063Y-76.1645

G1X21.0406Y-73.8302

G1X22.8173Y-71.7215

G1X23.6300Y-70.9409

G1X24.4330Y-70.3051

G1X25.2229Y-69.8306

G1X25.9324Y-69.5517

G1X26.6252Y-69.4351

G1X27.2985Y-69.4936

G1X28.1324Y-69.8867

G1X29.0076Y-70.7565

G1X29.8521Y-72.0301

G1X30.7547Y-73.8286

G1X32.3178Y-77.8083

G1X35.3335Y-86.7832

G1X36.6910Y-90.5331

G1X38.1457Y-93.9625

G1X39.5142Y-96.5206

G1X40.2675Y-97.6401

G1X41.0542Y-98.5923

G1X41.8769Y-99.3575

G1X42.6753Y-99.8832

G1X43.5090Y-100.2147

G1X44.3119Y-100.3346

G1X45.1879Y-100.2544

G1X46.0801Y-99.9646

G1X47.6607Y-99.0580

G1X49.4278Y-97.6146

G1X51.4423Y-95.5828

G1X53.7038Y-92.9593

G1X58.1105Y-87.2043

G1X68.5613Y-72.6221

G1X71.0942Y-69.3422

G1X73.3064Y-66.7241

G1X75.3852Y-64.5843

G1X77.1918Y-63.1025

G1X78.0081Y-62.5955

G1X78.7328Y-62.2575

G1X79.4195Y-62.0582

G1X80.1011Y-61.9912

G1X80.9889Y-62.0929

G1X81.8442Y-62.4003

G1X82.6675Y-62.8981

G1X83.5194Y-63.6295

G1X84.3360Y-64.5448

G1X85.1183Y-65.6249

G1X85.9193Y-66.9429

G1X86.7326Y-68.5064

G1X88.0579Y-71.5492

G1X89.4275Y-75.3345

G1X90.7607Y-79.5913

G1X93.3658Y-88.6305

G1X93.9596Y-90.4110

G1X94.4563Y-91.5900

G1 Z0F20000

(Start Block)


G1X10.5833Y-93.3539
G1Z5F20000
(Plotting speed under)
G1 F4000


G1X11.9587Y-91.1124

G1X15.5441Y-84.3686

G1X17.4115Y-81.0269

G1X19.1903Y-78.1245

G1X20.8182Y-75.7905

G1X22.5995Y-73.6869

G1X23.4189Y-72.9113

G1X24.2320Y-72.2827

G1X25.0355Y-71.8180

G1X25.7608Y-71.5505

G1X26.4727Y-71.4481

G1X27.1062Y-71.5092

G1X27.9640Y-71.8971

G1X28.8760Y-72.7521

G1X29.7682Y-74.0033

G1X30.7337Y-75.7701

G1X32.4724Y-79.7921

G1X35.8206Y-88.7643

G1X37.2980Y-92.4558

G1X38.8630Y-95.8287

G1X40.3146Y-98.3435

G1X41.1050Y-99.4440

G1X41.9238Y-100.3803

G1X42.7730Y-101.1331

G1X43.5907Y-101.6510

G1X44.4380Y-101.9786

G1X45.3166Y-102.1004

G1X46.1474Y-102.0186

G1X47.0428Y-101.7277

G1X48.6209Y-100.8146

G1X50.4386Y-99.3000

G1X52.4343Y-97.2340

G1X54.6661Y-94.5714

G1X56.6983Y-91.9184

G1X58.9957Y-88.7401

G1X69.2784Y-73.8933

G1X71.7452Y-70.5898

G1X73.8985Y-67.9583

G1X75.8625Y-65.8710

G1X77.6260Y-64.3759

G1X78.4236Y-63.8648

G1X79.1323Y-63.5245

G1X79.8045Y-63.3244

G1X80.4670Y-63.2584

G1X81.3290Y-63.3610

G1X82.1591Y-63.6692

G1X82.9580Y-64.1676

G1X83.7844Y-64.8998

G1X84.5764Y-65.8162

G1X85.3878Y-66.9807

G1X86.1619Y-68.3116

G1X86.9476Y-69.8881

G1X88.2275Y-72.9531

G1X89.5499Y-76.7648

G1X90.8715Y-81.1760

G1X93.3806Y-90.2949

G1X93.9771Y-92.1675

G1X94.4563Y-93.3539

G1 Z0F20000

(Start Block)


G1X10.5833Y-95.1178
G1Z5F20000
(Plotting speed under)
G1 F4000


G1X11.9014Y-92.9574

G1X15.4690Y-86.1487

G1X17.3094Y-82.8208

G1X19.0026Y-80.0412

G1X20.6188Y-77.7206

G1X22.3300Y-75.7054

G1X23.1536Y-74.9287

G1X23.9746Y-74.2990

G1X24.7900Y-73.8335

G1X25.5300Y-73.5656

G1X26.2603Y-73.4632

G1X26.9141Y-73.5249

G1X27.7931Y-73.9062

G1X28.7385Y-74.7431

G1X29.7214Y-76.0373

G1X30.7456Y-77.7821

G1X32.6122Y-81.7409

G1X36.2850Y-90.6813

G1X37.8748Y-94.3095

G1X39.5419Y-97.6267

G1X41.1276Y-100.1871

G1X42.0126Y-101.3346

G1X42.8631Y-102.2383

G1X43.7387Y-102.9613

G1X44.5756Y-103.4546

G1X45.4367Y-103.7612

G1X46.2540Y-103.8656

G1X47.1064Y-103.7835

G1X48.0072Y-103.4910

G1X49.5868Y-102.5686

G1X51.3965Y-101.0362

G1X53.3748Y-98.9444

G1X55.6470Y-96.1593

G1X57.6501Y-93.4627

G1X59.9800Y-90.1311

G1X70.0373Y-75.0977

G1X72.4404Y-71.7723

G1X74.4746Y-69.2064

G1X76.3892Y-67.1084

G1X78.0556Y-65.6526

G1X78.8363Y-65.1357

G1X79.5305Y-64.7921

G1X80.1896Y-64.5906

G1X80.8348Y-64.5255

G1X81.6736Y-64.6301

G1X82.4812Y-64.9411

G1X83.2580Y-65.4431

G1X84.0613Y-66.1802

G1X84.8308Y-67.1025

G1X85.6187Y-68.2747

G1X86.4190Y-69.7091

G1X87.1789Y-71.3059

G1X88.4161Y-74.4061

G1X89.6935Y-78.2580

G1X90.9695Y-82.7147

G1X93.4175Y-92.0322

G1X93.9930Y-93.9202

G1X94.4563Y-95.1178

G1 Z0F20000

(Start Block)


G1X10.5833Y-96.8817
G1Z5F20000
(Plotting speed under)
G1 F4000


G1X11.8916Y-94.7156

G1X15.3565Y-87.9974

G1X17.1107Y-84.7816

G1X18.7870Y-82.0011

G1X20.3964Y-79.6809

G1X22.1122Y-77.6709

G1X22.9430Y-76.8993

G1X23.7748Y-76.2770

G1X24.5358Y-75.8526

G1X25.2932Y-75.5819

G1X26.0450Y-75.4783

G1X26.7217Y-75.5406

G1X27.6682Y-75.9451

G1X28.6436Y-76.7810

G1X29.6689Y-78.0597

G1X30.7479Y-79.7754

G1X32.7845Y-83.7637

G1X36.7208Y-92.5375

G1X38.4153Y-96.0982

G1X40.2348Y-99.4585

G1X41.8945Y-101.9699

G1X42.8124Y-103.0981

G1X43.6885Y-103.9893

G1X44.5845Y-104.7060

G1X45.5012Y-105.2302

G1X46.3718Y-105.5290

G1X47.2620Y-105.6322

G1X48.1161Y-105.5380

G1X49.0236Y-105.2322

G1X50.6057Y-104.2850

G1X52.4075Y-102.7226

G1X54.3674Y-100.5965

G1X56.6090Y-97.7711

G1X58.6472Y-94.9399

G1X60.9329Y-91.5596

G1X70.8123Y-76.2664

G1X73.0831Y-73.0165

G1X75.0604Y-70.4386

G1X76.9214Y-68.3372

G1X78.5418Y-66.8866

G1X79.2519Y-66.4051

G1X79.9300Y-66.0591

G1X80.5747Y-65.8569

G1X81.2011Y-65.7927

G1X82.0150Y-65.8982

G1X82.7981Y-66.2097

G1X83.6080Y-66.7584

G1X84.3841Y-67.5098

G1X85.1273Y-68.4454

G1X85.8881Y-69.6307

G1X86.6605Y-71.0783

G1X87.3937Y-72.6877

G1X88.6274Y-75.9265

G1X89.8546Y-79.8107

G1X91.0802Y-84.2995

G1X93.4338Y-93.6953

G1X93.9888Y-95.6114

G1X94.4563Y-96.8817

G1 Z0F20000

(Start Block)


G1X10.5833Y-98.6455
G1Z5F20000
(Plotting speed under)
G1 F4000


G1X11.8408Y-96.5501

G1X15.2437Y-89.8460

G1X16.9748Y-86.6324

G1X18.6371Y-83.8585

G1X20.1740Y-81.6412

G1X21.8948Y-79.6364

G1X22.7331Y-78.8702

G1X23.5057Y-78.3004

G1X24.2805Y-77.8719

G1X25.0556Y-77.5983

G1X25.8291Y-77.4934

G1X26.5293Y-77.5562

G1X27.4953Y-77.9526

G1X28.4999Y-78.7675

G1X29.5663Y-80.0134

G1X30.7498Y-81.7689

G1X32.9059Y-85.6799

G1X37.1526Y-94.3965

G1X39.0082Y-98.0002

G1X40.9252Y-101.2919

G1X42.7204Y-103.8343

G1X43.6720Y-104.9325

G1X44.5750Y-105.7997

G1X45.4927Y-106.4969

G1X46.4258Y-107.0069

G1X47.3062Y-107.2979

G1X48.2007Y-107.3990

G1X49.0733Y-107.3045

G1X49.9852Y-106.9981

G1X50.7641Y-106.5883

G1X51.6246Y-106.0015

G1X53.4186Y-104.4089

G1X55.4240Y-102.1711

G1X57.6370Y-99.2918

G1X59.6417Y-96.4144

G1X61.8830Y-92.9854

G1X71.5156Y-77.5308

G1X73.7223Y-74.2594

G1X75.6428Y-71.6698

G1X77.3959Y-69.6229

G1X78.9748Y-68.1597

G1X79.6674Y-67.6744

G1X80.3296Y-67.3261

G1X80.9598Y-67.1231

G1X81.5678Y-67.0597

G1X82.3570Y-67.1661

G1X83.1161Y-67.4782

G1X83.9010Y-68.0273

G1X84.6527Y-68.7791

G1X85.4226Y-69.7887

G1X86.1567Y-70.9870

G1X86.9016Y-72.4476

G1X87.6086Y-74.0694

G1X88.7975Y-77.3299

G1X89.9795Y-81.2391

G1X91.1905Y-85.8847

G1X93.4734Y-95.4445

G1X94.0063Y-97.3681

G1X94.4563Y-98.6455

G1 Z0F20000

(Start Block)


G1X10.5833Y-100.4094
G1Z5F20000
(Plotting speed under)
G1 F4000


G1X11.8307Y-98.3085

G1X15.0746Y-91.8049

G1X16.7770Y-88.5932

G1X18.4215Y-85.8183

G1X19.9517Y-83.6015

G1X21.6775Y-81.6021

G1X22.5237Y-80.8413

G1X23.3071Y-80.2786

G1X24.0962Y-79.8594

G1X24.8893Y-79.5978

G1X25.6126Y-79.5086

G1X26.3368Y-79.5718

G1X27.3217Y-79.9604

G1X28.4067Y-80.8045

G1X29.5137Y-82.0358

G1X30.7514Y-83.7626

G1X33.0802Y-87.7015

G1X37.6408Y-96.3711

G1X39.6010Y-99.9021

G1X41.6134Y-103.1271

G1X43.4823Y-105.6210

G1X44.4658Y-106.7007

G1X45.4609Y-107.6106

G1X46.4001Y-108.2887

G1X47.3493Y-108.7847

G1X48.2398Y-109.0679

G1X49.1390Y-109.1666

G1X50.0296Y-109.0716

G1X50.9463Y-108.7649

G1X51.7264Y-108.3532

G1X52.5855Y-107.7625

G1X54.3689Y-106.1577

G1X56.3527Y-103.9006

G1X58.5979Y-100.9024

G1X60.5675Y-97.9876

G1X62.8301Y-94.4084

G1X72.2779Y-78.6940

G1X74.4176Y-75.4131

G1X76.2219Y-72.9002

G1X77.9235Y-70.8506

G1X79.4078Y-69.4328

G1X80.0830Y-68.9437

G1X80.7292Y-68.5931

G1X81.3449Y-68.3893

G1X81.9348Y-68.3268

G1X82.6997Y-68.4340

G1X83.4906Y-68.7787

G1X84.2484Y-69.3432

G1X84.9740Y-70.1092

G1X85.7167Y-71.1326

G1X86.4246Y-72.3437

G1X87.8236Y-75.4510

G1X88.9684Y-78.7329

G1X90.1396Y-82.7925

G1X91.3005Y-87.4700

G1X93.5124Y-97.1941

G1X94.0235Y-99.1250

G1X94.4563Y-100.4094

G1 Z0F20000


G00 X0.0000 Y0.0000


