$H
G21
G17
G90
G1 Z0F20000
G1 F15000

(Start Layer)

(Start Block)


G1X22.3015Y-29.5776
G1Z5F20000
(Plotting speed under)
G1 F4000


G1X18.3131Y-73.2142

G1X33.4326Y-135.9588

G1X41.6264Y-191.7776

G1X24.9999Y-222.7761

G1X31.5493Y-276.9506

G1X15.5520Y-308.5783

G1X38.5068Y-379.1582

G1 Z0F20000

(Start Block)


G1X23.3631Y-29.5809
G1Z5F20000
(Plotting speed under)
G1 F4000


G1X19.7759Y-73.6187

G1X34.6998Y-136.1676

G1X42.5122Y-191.6050

G1X25.8634Y-222.5813

G1X32.5432Y-276.8861

G1X16.7993Y-308.7673

G1X39.2954Y-378.8884

G1 Z0F20000

(Start Block)


G1X24.4248Y-29.5842
G1Z5F20000
(Plotting speed under)
G1 F4000


G1X21.2387Y-74.0231

G1X35.9669Y-136.3764

G1X43.3979Y-191.4325

G1X26.7269Y-222.3865

G1X33.5371Y-276.8217

G1X18.0466Y-308.9563

G1X40.0839Y-378.6187

G1 Z0F20000

(Start Block)


G1X25.4865Y-29.5875
G1Z5F20000
(Plotting speed under)
G1 F4000


G1X22.7014Y-74.4275

G1X37.2341Y-136.5852

G1X44.2837Y-191.2599

G1X27.5904Y-222.1916

G1X34.5310Y-276.7573

G1X19.2939Y-309.1453

G1X40.8725Y-378.3489

G1 Z0F20000

(Start Block)


G1X26.5481Y-29.5908
G1Z5F20000
(Plotting speed under)
G1 F4000


G1X24.1642Y-74.8320

G1X38.5012Y-136.7940

G1X45.1695Y-191.0873

G1X28.4539Y-221.9968

G1X35.5249Y-276.6929

G1X20.5412Y-309.3343

G1X41.6610Y-378.0791

G1 Z0F20000

(Start Block)


G1X27.6097Y-29.5941
G1Z5F20000
(Plotting speed under)
G1 F4000


G1X25.6270Y-75.2364

G1X39.7684Y-137.0028

G1X46.0552Y-190.9148

G1X29.3174Y-221.8020

G1X36.5188Y-276.6284

G1X21.7886Y-309.5232

G1X42.4496Y-377.8093

G1 Z0F20000

(Start Block)


G1X28.6714Y-29.5974
G1Z5F20000
(Plotting speed under)
G1 F4000


G1X27.0898Y-75.6409

G1X41.0355Y-137.2116

G1X46.9410Y-190.7422

G1X30.1809Y-221.6071

G1X37.5127Y-276.5640

G1X23.0359Y-309.7122

G1X43.2381Y-377.5395

G1 Z0F20000

(Start Block)


G1X29.7330Y-29.6007
G1Z5F20000
(Plotting speed under)
G1 F4000


G1X28.5525Y-76.0453

G1X42.3027Y-137.4205

G1X47.8268Y-190.5696

G1X31.0444Y-221.4123

G1X38.5066Y-276.4996

G1X24.2832Y-309.9012

G1X44.0267Y-377.2697

G1 Z0F20000

(Start Block)


G1X30.7947Y-29.6040
G1Z5F20000
(Plotting speed under)
G1 F4000


G1X30.0153Y-76.4497

G1X43.5698Y-137.6293

G1X48.7125Y-190.3971

G1X31.9079Y-221.2175

G1X39.5005Y-276.4351

G1X25.5305Y-310.0902

G1X44.8152Y-376.9999

G1 Z0F20000

(Start Block)


G1X31.8563Y-29.6073
G1Z5F20000
(Plotting speed under)
G1 F4000


G1X31.4781Y-76.8542

G1X44.8370Y-137.8381

G1X49.5983Y-190.2245

G1X32.7714Y-221.0226

G1X40.4944Y-276.3707

G1X26.7778Y-310.2792

G1X45.6037Y-376.7301

G1 Z0F20000

(Start Block)


G1X32.9179Y-29.6106
G1Z5F20000
(Plotting speed under)
G1 F4000


G1X32.9409Y-77.2586

G1X46.1041Y-138.0469

G1X50.4841Y-190.0519

G1X33.6349Y-220.8278

G1X41.4883Y-276.3063

G1X28.0251Y-310.4681

G1X46.3923Y-376.4604

G1 Z0F20000

(Start Block)


G1X33.9796Y-29.6140
G1Z5F20000
(Plotting speed under)
G1 F4000


G1X34.4036Y-77.6631

G1X47.3712Y-138.2557

G1X51.3698Y-189.8794

G1X34.4984Y-220.6329

G1X42.4822Y-276.2418

G1X29.2725Y-310.6571

G1X47.1808Y-376.1906

G1 Z0F20000

(Start Block)


G1X35.0412Y-29.6173
G1Z5F20000
(Plotting speed under)
G1 F4000


G1X35.8664Y-78.0675

G1X48.6384Y-138.4645

G1X52.2556Y-189.7068

G1X35.3618Y-220.4381

G1X43.4761Y-276.1774

G1X30.5198Y-310.8461

G1X47.9694Y-375.9208

G1 Z0F20000

(Start Block)


G1X36.1029Y-29.6206
G1Z5F20000
(Plotting speed under)
G1 F4000


G1X37.3292Y-78.4719

G1X49.9056Y-138.6734

G1X53.1414Y-189.5342

G1X36.2253Y-220.2432

G1X44.4700Y-276.1130

G1X31.7671Y-311.0351

G1X48.7579Y-375.6510

G1 Z0F20000

(Start Block)


G1X37.1645Y-29.6239
G1Z5F20000
(Plotting speed under)
G1 F4000


G1X38.7919Y-78.8764

G1X51.1727Y-138.8822

G1X54.0272Y-189.3617

G1X37.0888Y-220.0484

G1X45.4639Y-276.0486

G1X33.0144Y-311.2241

G1X49.5465Y-375.3812

G1 Z0F20000

(Start Block)


G1X38.2261Y-29.6272
G1Z5F20000
(Plotting speed under)
G1 F4000


G1X40.2547Y-79.2808

G1X52.4398Y-139.0910

G1X54.9129Y-189.1891

G1X37.9523Y-219.8535

G1X46.4578Y-275.9841

G1X34.2617Y-311.4130

G1X50.3350Y-375.1115

G1 Z0F20000

(Start Block)


G1X39.2878Y-29.6305
G1Z5F20000
(Plotting speed under)
G1 F4000


G1X41.7175Y-79.6852

G1X53.7070Y-139.2998

G1X55.7987Y-189.0165

G1X38.8158Y-219.6587

G1X47.4518Y-275.9197

G1X35.5090Y-311.6020

G1X51.1236Y-374.8417

G1 Z0F20000

(Start Block)


G1X40.3494Y-29.6338
G1Z5F20000
(Plotting speed under)
G1 F4000


G1X43.1802Y-80.0897

G1X54.9741Y-139.5086

G1X56.6844Y-188.8440

G1X39.6793Y-219.4639

G1X48.4457Y-275.8553

G1X36.7563Y-311.7910

G1X51.9122Y-374.5719

G1 Z0F20000

(Start Block)


G1X41.4111Y-29.6371
G1Z5F20000
(Plotting speed under)
G1 F4000


G1X44.6430Y-80.4941

G1X56.2413Y-139.7174

G1X57.5702Y-188.6714

G1X40.5428Y-219.2690

G1X49.4395Y-275.7908

G1X38.0037Y-311.9800

G1X52.7007Y-374.3021

G1 Z0F20000

(Start Block)


G1X42.4727Y-29.6404
G1Z5F20000
(Plotting speed under)
G1 F4000


G1X46.1058Y-80.8985

G1X57.5084Y-139.9262

G1X58.4560Y-188.4988

G1X41.4063Y-219.0742

G1X50.4334Y-275.7264

G1X39.2510Y-312.1689

G1X53.4893Y-374.0323

G1 Z0F20000

(Start Block)


G1X43.5344Y-29.6437
G1Z5F20000
(Plotting speed under)
G1 F4000


G1X47.5685Y-81.3030

G1X58.7756Y-140.1351

G1X59.3417Y-188.3263

G1X42.2698Y-218.8794

G1X51.4274Y-275.6620

G1X40.4983Y-312.3579

G1X54.2778Y-373.7625

G1 Z0F20000

(Start Block)


G1X44.5960Y-29.6470
G1Z5F20000
(Plotting speed under)
G1 F4000


G1X49.0313Y-81.7074

G1X60.0427Y-140.3439

G1X60.2275Y-188.1537

G1X43.1333Y-218.6845

G1X52.4213Y-275.5976

G1X41.7456Y-312.5469

G1X55.0663Y-373.4927

G1 Z0F20000

(Start Block)


G1X45.6576Y-29.6503
G1Z5F20000
(Plotting speed under)
G1 F4000


G1X50.4941Y-82.1118

G1X61.3099Y-140.5527

G1X61.1133Y-187.9811

G1X43.9968Y-218.4897

G1X53.4152Y-275.5331

G1X42.9929Y-312.7359

G1X55.8549Y-373.2230

G1 Z0F20000

(Start Block)


G1X46.7193Y-29.6536
G1Z5F20000
(Plotting speed under)
G1 F4000


G1X51.9569Y-82.5163

G1X62.5770Y-140.7615

G1X61.9991Y-187.8086

G1X44.8603Y-218.2948

G1X54.4091Y-275.4687

G1X44.2402Y-312.9249

G1X56.6434Y-372.9532

G1 Z0F20000

(Start Block)


G1X47.7809Y-29.6570
G1Z5F20000
(Plotting speed under)
G1 F4000


G1X53.4196Y-82.9207

G1X63.8442Y-140.9703

G1X62.8848Y-187.6360

G1X45.7238Y-218.1000

G1X55.4030Y-275.4043

G1X45.4875Y-313.1139

G1X57.4320Y-372.6834

G1 Z0F20000

(Start Block)


G1X48.8426Y-29.6603
G1Z5F20000
(Plotting speed under)
G1 F4000


G1X54.8824Y-83.3251

G1X65.1113Y-141.1791

G1X63.7706Y-187.4634

G1X46.5873Y-217.9052

G1X56.3969Y-275.3399

G1X46.7349Y-313.3028

G1X58.2205Y-372.4136

G1 Z0F20000

(Start Block)


G1X49.9042Y-29.6636
G1Z5F20000
(Plotting speed under)
G1 F4000


G1X56.3452Y-83.7296

G1X66.3785Y-141.3879

G1X64.6563Y-187.2909

G1X47.4508Y-217.7103

G1X57.3908Y-275.2754

G1X47.9822Y-313.4918

G1X59.0091Y-372.1438

G1 Z0F20000

(Start Block)


G1X50.9659Y-29.6669
G1Z5F20000
(Plotting speed under)
G1 F4000


G1X57.8079Y-84.1340

G1X67.6456Y-141.5967

G1X65.5421Y-187.1183

G1X48.3143Y-217.5155

G1X58.3847Y-275.2110

G1X49.2295Y-313.6808

G1X59.7976Y-371.8740

G1 Z0F20000

(Start Block)


G1X52.0275Y-29.6702
G1Z5F20000
(Plotting speed under)
G1 F4000


G1X59.2707Y-84.5384

G1X68.9128Y-141.8056

G1X66.4279Y-186.9457

G1X49.1778Y-217.3206

G1X59.3786Y-275.1465

G1X50.4768Y-313.8698

G1X60.5862Y-371.6042

G1 Z0F20000

(Start Block)


G1X53.0892Y-29.6735
G1Z5F20000
(Plotting speed under)
G1 F4000


G1X60.7335Y-84.9429

G1X70.1799Y-142.0144

G1X67.3137Y-186.7732

G1X50.0413Y-217.1258

G1X60.3725Y-275.0821

G1X51.7241Y-314.0588

G1X61.3747Y-371.3345

G1 Z0F20000

(Start Block)


G1X54.1508Y-29.6768
G1Z5F20000
(Plotting speed under)
G1 F4000


G1X62.1962Y-85.3473

G1X71.4471Y-142.2232

G1X68.1994Y-186.6006

G1X50.9048Y-216.9310

G1X61.3664Y-275.0177

G1X52.9714Y-314.2477

G1X62.1633Y-371.0647

G1 Z0F20000

(Start Block)


G1X55.2124Y-29.6801
G1Z5F20000
(Plotting speed under)
G1 F4000


G1X63.6590Y-85.7518

G1X72.7142Y-142.4320

G1X69.0852Y-186.4280

G1X51.7683Y-216.7361

G1X62.3603Y-274.9533

G1X54.2187Y-314.4367

G1X62.9518Y-370.7949

G1 Z0F20000

(Start Block)


G1X56.2741Y-29.6834
G1Z5F20000
(Plotting speed under)
G1 F4000


G1X73.9814Y-142.6408

G1X69.9710Y-186.2555

G1X52.6318Y-216.5413

G1X63.3542Y-274.8888

G1X55.4660Y-314.6257

G1X63.7404Y-370.5251

G1 Z0F20000

(Start Block)


G1X57.3357Y-29.6867
G1Z5F20000
(Plotting speed under)
G1 F4000


G1X66.5845Y-86.5606

G1X75.2485Y-142.8496

G1X70.8567Y-186.0829

G1X53.4953Y-216.3465

G1X64.3481Y-274.8244

G1X56.7134Y-314.8147

G1X64.5289Y-370.2553

G1 Z0F20000

(Start Block)


G1X58.3974Y-29.6900
G1Z5F20000
(Plotting speed under)
G1 F4000


G1X68.0473Y-86.9651

G1X76.5157Y-143.0585

G1X71.7425Y-185.9103

G1X54.3588Y-216.1516

G1X65.3420Y-274.7600

G1X57.9607Y-315.0037

G1X65.3175Y-369.9855

G1 Z0F20000

(Start Block)


G1X59.4590Y-29.6934
G1Z5F20000
(Plotting speed under)
G1 F4000


G1X69.5101Y-87.3695

G1X77.7828Y-143.2673

G1X72.6282Y-185.7378

G1X55.2222Y-215.9568

G1X66.3359Y-274.6956

G1X59.2080Y-315.1926

G1X66.1060Y-369.7157

G1 Z0F20000

(Start Block)


G1X60.5206Y-29.6967
G1Z5F20000
(Plotting speed under)
G1 F4000


G1X70.9729Y-87.7739

G1X79.0500Y-143.4761

G1X73.5140Y-185.5652

G1X56.0857Y-215.7620

G1X67.3299Y-274.6311

G1X60.4553Y-315.3816

G1X66.8946Y-369.4460

G1 Z0F20000

(Start Block)


G1X61.5823Y-29.7000
G1Z5F20000
(Plotting speed under)
G1 F4000


G1X72.4356Y-88.1784

G1X80.3171Y-143.6849

G1X74.3998Y-185.3926

G1X56.9492Y-215.5671

G1X68.3237Y-274.5667

G1X61.7026Y-315.5706

G1X67.6831Y-369.1762

G1 Z0F20000

(Start Block)


G1X62.6439Y-29.7033
G1Z5F20000
(Plotting speed under)
G1 F4000


G1X73.8984Y-88.5828

G1X81.5843Y-143.8937

G1X75.2856Y-185.2201

G1X57.8127Y-215.3723

G1X69.3176Y-274.5023

G1X62.9499Y-315.7596

G1X68.4717Y-368.9064

G1 Z0F20000

(Start Block)


G1X63.7056Y-29.7066
G1Z5F20000
(Plotting speed under)
G1 F4000


G1X75.3612Y-88.9873

G1X82.8514Y-144.1025

G1X76.1714Y-185.0475

G1X58.6762Y-215.1774

G1X70.3116Y-274.4378

G1X64.1972Y-315.9485

G1X69.2602Y-368.6366

G1 Z0F20000

(Start Block)


G1X64.7672Y-29.7099
G1Z5F20000
(Plotting speed under)
G1 F4000


G1X76.8240Y-89.3917

G1X84.1186Y-144.3113

G1X77.0571Y-184.8749

G1X59.5397Y-214.9826

G1X71.3055Y-274.3734

G1X65.4446Y-316.1375

G1X70.0488Y-368.3668

G1 Z0F20000

(Start Block)


G1X65.8288Y-29.7132
G1Z5F20000
(Plotting speed under)
G1 F4000


G1X78.2867Y-89.7961

G1X85.3857Y-144.5202

G1X77.9429Y-184.7024

G1X60.4032Y-214.7878

G1X72.2994Y-274.3090

G1X66.6919Y-316.3265

G1X70.8373Y-368.0971

G1 Z0F20000

(Start Block)


G1X66.8905Y-29.7165
G1Z5F20000
(Plotting speed under)
G1 F4000


G1X79.7495Y-90.2006

G1X86.6529Y-144.7290

G1X78.8287Y-184.5298

G1X61.2667Y-214.5929

G1X73.2933Y-274.2446

G1X67.9392Y-316.5155

G1X71.6259Y-367.8273

G1 Z0F20000

(Start Block)


G1X67.9521Y-29.7198
G1Z5F20000
(Plotting speed under)
G1 F4000


G1X81.2123Y-90.6050

G1X87.9200Y-144.9378

G1X79.7144Y-184.3572

G1X62.1302Y-214.3981

G1X74.2872Y-274.1801

G1X69.1865Y-316.7045

G1X72.4144Y-367.5575

G1 Z0F20000

(Start Block)


G1X69.0138Y-29.7231
G1Z5F20000
(Plotting speed under)
G1 F4000


G1X82.6750Y-91.0094

G1X89.1871Y-145.1466

G1X80.6002Y-184.1847

G1X62.9937Y-214.2032

G1X75.2811Y-274.1157

G1X70.4338Y-316.8935

G1X73.2030Y-367.2877

G1 Z0F20000

(Start Block)


G1X70.0754Y-29.7264
G1Z5F20000
(Plotting speed under)
G1 F4000


G1X84.1378Y-91.4139

G1X90.4543Y-145.3554

G1X81.4859Y-184.0121

G1X63.8572Y-214.0084

G1X76.2750Y-274.0513

G1X71.6811Y-317.0824

G1X73.9915Y-367.0179

G1 Z0F20000

(Start Block)


G1X71.5439Y-30.1366
G1Z5F20000
(Plotting speed under)
G1 F4000


G1X84.7964Y-91.0141

G1X91.2716Y-145.1144

G1X82.1995Y-183.6673

G1X65.4309Y-214.5238

G1X77.0919Y-273.8098

G1X72.7470Y-317.0900

G1X74.7024Y-366.6704

G1 Z0F20000

(Start Block)


G1X73.0124Y-30.5468
G1Z5F20000
(Plotting speed under)
G1 F4000


G1X85.4549Y-90.6143

G1X92.0890Y-144.8734

G1X82.9131Y-183.3226

G1X67.0045Y-215.0391

G1X77.9088Y-273.5684

G1X73.8130Y-317.0976

G1X75.4132Y-366.3229

G1 Z0F20000

(Start Block)


G1X74.4810Y-30.9570
G1Z5F20000
(Plotting speed under)
G1 F4000


G1X86.1135Y-90.2145

G1X92.9063Y-144.6324

G1X83.6267Y-182.9778

G1X68.5782Y-215.5544

G1X78.7257Y-273.3270

G1X74.8789Y-317.1052

G1X76.1240Y-365.9753

G1 Z0F20000

(Start Block)


G1X75.9495Y-31.3671
G1Z5F20000
(Plotting speed under)
G1 F4000


G1X86.7720Y-89.8147

G1X93.7237Y-144.3914

G1X84.3403Y-182.6331

G1X70.1519Y-216.0698

G1X79.5426Y-273.0855

G1X75.9449Y-317.1128

G1X76.8348Y-365.6278

G1 Z0F20000

(Start Block)


G1X77.4180Y-31.7773
G1Z5F20000
(Plotting speed under)
G1 F4000


G1X87.4306Y-89.4149

G1X94.5410Y-144.1504

G1X85.0539Y-182.2883

G1X71.7256Y-216.5851

G1X80.3595Y-272.8441

G1X77.0108Y-317.1204

G1X77.5457Y-365.2803

G1 Z0F20000

(Start Block)


G1X78.8865Y-32.1875
G1Z5F20000
(Plotting speed under)
G1 F4000


G1X88.0891Y-89.0151

G1X95.3583Y-143.9094

G1X85.7674Y-181.9436

G1X73.2993Y-217.1005

G1X81.1764Y-272.6027

G1X78.0767Y-317.1280

G1X78.2565Y-364.9328

G1 Z0F20000

(Start Block)


G1X80.3550Y-32.5977
G1Z5F20000
(Plotting speed under)
G1 F4000


G1X88.7476Y-88.6154

G1X96.1757Y-143.6685

G1X86.4810Y-181.5988

G1X74.8730Y-217.6158

G1X81.9933Y-272.3612

G1X79.1426Y-317.1355

G1X78.9673Y-364.5853

G1 Z0F20000

(Start Block)


G1X81.8235Y-33.0078
G1Z5F20000
(Plotting speed under)
G1 F4000


G1X96.9930Y-143.4274

G1X87.1946Y-181.2541

G1X76.4467Y-218.1312

G1X82.8102Y-272.1198

G1X80.2085Y-317.1431

G1X79.6781Y-364.2378

G1 Z0F20000

(Start Block)


G1X83.2920Y-33.4180
G1Z5F20000
(Plotting speed under)
G1 F4000


G1X90.0647Y-87.8158

G1X97.8104Y-143.1865

G1X78.0203Y-218.6465

G1X83.6271Y-271.8783

G1X81.2745Y-317.1507

G1X80.3890Y-363.8903

G1 Z0F20000

(Start Block)


G1X84.7606Y-33.8282
G1Z5F20000
(Plotting speed under)
G1 F4000


G1X90.7233Y-87.4160

G1X98.6277Y-142.9455

G1X88.6218Y-180.5646

G1X79.5940Y-219.1618

G1X84.4440Y-271.6369

G1X82.3404Y-317.1583

G1X81.0998Y-363.5428

G1 Z0F20000

(Start Block)


G1X86.2291Y-34.2384
G1Z5F20000
(Plotting speed under)
G1 F4000


G1X91.3818Y-87.0162

G1X99.4450Y-142.7045

G1X89.3353Y-180.2198

G1X81.1677Y-219.6772

G1X85.2609Y-271.3955

G1X83.4063Y-317.1659

G1X81.8106Y-363.1952

G1 Z0F20000

(Start Block)


G1X87.6976Y-34.6486
G1Z5F20000
(Plotting speed under)
G1 F4000


G1X92.0404Y-86.6164

G1X100.2624Y-142.4635

G1X90.0489Y-179.8751

G1X82.7414Y-220.1925

G1X86.0778Y-271.1540

G1X84.4722Y-317.1735

G1X82.5214Y-362.8477

G1 Z0F20000

(Start Block)


G1X89.1661Y-35.0587
G1Z5F20000
(Plotting speed under)
G1 F4000


G1X92.6989Y-86.2166

G1X101.0797Y-142.2225

G1X90.7625Y-179.5303

G1X84.3151Y-220.7079

G1X86.8947Y-270.9126

G1X85.5381Y-317.1811

G1X83.2322Y-362.5002

G1 Z0F20000

(Start Block)


G1X90.6346Y-35.4689
G1Z5F20000
(Plotting speed under)
G1 F4000


G1X93.3575Y-85.8169

G1X101.8971Y-141.9815

G1X91.4761Y-179.1856

G1X85.8887Y-221.2232

G1X87.7116Y-270.6711

G1X86.6041Y-317.1887

G1X83.9431Y-362.1527

G1 Z0F20000

(Start Block)


G1X92.1031Y-35.8791
G1Z5F20000
(Plotting speed under)
G1 F4000


G1X94.0160Y-85.4171

G1X102.7144Y-141.7405

G1X92.1897Y-178.8408

G1X87.4624Y-221.7386

G1X88.5285Y-270.4297

G1X87.6700Y-317.1963

G1X84.6539Y-361.8052

G1 Z0F20000

(Start Block)


G1X93.5716Y-36.2893
G1Z5F20000
(Plotting speed under)
G1 F4000


G1X94.6746Y-85.0173

G1X103.5318Y-141.4995

G1X92.9032Y-178.4961

G1X89.0361Y-222.2540

G1X89.3454Y-270.1883

G1X88.7359Y-317.2039

G1X85.3647Y-361.4577

G1 Z0F20000

(Start Block)


G1X95.0401Y-36.6994
G1Z5F20000
(Plotting speed under)
G1 F4000


G1X95.3331Y-84.6175

G1X104.3491Y-141.2585

G1X93.6168Y-178.1513

G1X90.6098Y-222.7693

G1X89.8019Y-317.2115

G1X86.0755Y-361.1102

G1 Z0F20000

(Start Block)


G1X96.5086Y-37.1096
G1Z5F20000
(Plotting speed under)
G1 F4000


G1X95.9917Y-84.2177

G1X105.1664Y-141.0175

G1X94.3304Y-177.8066

G1X92.1834Y-223.2846

G1X90.9791Y-269.7054

G1X90.8678Y-317.2191

G1X86.7863Y-360.7627

G1 Z0F20000

(Start Block)


G1X97.9772Y-37.5198
G1Z5F20000
(Plotting speed under)
G1 F4000


G1X96.6502Y-83.8179

G1X105.9838Y-140.7765

G1X95.0440Y-177.4618

G1X93.7571Y-223.8000

G1X91.7960Y-269.4639

G1X91.9337Y-317.2266

G1X87.4972Y-360.4152

G1 Z0F20000

(Start Block)


G1X99.4457Y-37.9300
G1Z5F20000
(Plotting speed under)
G1 F4000


G1X97.3088Y-83.4181

G1X106.8011Y-140.5355

G1X95.7576Y-177.1170

G1X95.3308Y-224.3153

G1X92.6129Y-269.2225

G1X92.9996Y-317.2342

G1X88.2080Y-360.0677

G1 Z0F20000

(Start Block)


G1X100.9142Y-38.3402
G1Z5F20000
(Plotting speed under)
G1 F4000


G1X97.9673Y-83.0184

G1X107.6185Y-140.2945

G1X96.4712Y-176.7723

G1X96.9045Y-224.8307

G1X93.4298Y-268.9811

G1X94.0655Y-317.2418

G1X88.9188Y-359.7202

G1 Z0F20000

(Start Block)


G1X102.3827Y-38.7503
G1Z5F20000
(Plotting speed under)
G1 F4000


G1X98.6259Y-82.6186

G1X108.4358Y-140.0536

G1X97.1847Y-176.4275

G1X98.4782Y-225.3460

G1X94.2468Y-268.7396

G1X95.1315Y-317.2494

G1X89.6296Y-359.3726

G1 Z0F20000

(Start Block)


G1X103.8512Y-39.1605
G1Z5F20000
(Plotting speed under)
G1 F4000


G1X99.2844Y-82.2188

G1X109.2531Y-139.8125

G1X97.8983Y-176.0828

G1X100.0518Y-225.8614

G1X95.0636Y-268.4982

G1X96.1974Y-317.2570

G1X90.3405Y-359.0251

G1 Z0F20000

(Start Block)


G1X105.3197Y-39.5707
G1Z5F20000
(Plotting speed under)
G1 F4000


G1X99.9430Y-81.8190

G1X110.0705Y-139.5716

G1X98.6119Y-175.7380

G1X101.6255Y-226.3767

G1X95.8805Y-268.2567

G1X97.2633Y-317.2646

G1X91.0513Y-358.6776

G1 Z0F20000

(Start Block)


G1X106.7882Y-39.9809
G1Z5F20000
(Plotting speed under)
G1 F4000


G1X100.6015Y-81.4192

G1X110.8878Y-139.3306

G1X99.3255Y-175.3933

G1X103.1992Y-226.8921

G1X96.6974Y-268.0153

G1X98.3292Y-317.2722

G1X91.7621Y-358.3301

G1 Z0F20000

(Start Block)


G1X108.2567Y-40.3910
G1Z5F20000
(Plotting speed under)
G1 F4000


G1X101.2601Y-81.0194

G1X111.7052Y-139.0896

G1X100.0391Y-175.0485

G1X104.7729Y-227.4074

G1X97.5143Y-267.7739

G1X99.3951Y-317.2797

G1X92.4729Y-357.9826

G1 Z0F20000

(Start Block)


G1X109.7253Y-40.8012
G1Z5F20000
(Plotting speed under)
G1 F4000


G1X101.9186Y-80.6196

G1X112.5225Y-138.8486

G1X100.7526Y-174.7038

G1X106.3466Y-227.9227

G1X98.3312Y-267.5324

G1X100.4611Y-317.2873

G1X93.1838Y-357.6351

G1 Z0F20000

(Start Block)


G1X111.1938Y-41.2114
G1Z5F20000
(Plotting speed under)
G1 F4000


G1X102.5772Y-80.2199

G1X113.3398Y-138.6076

G1X101.4662Y-174.3590

G1X107.9202Y-228.4381

G1X99.1481Y-267.2910

G1X101.5270Y-317.2949

G1X93.8946Y-357.2876

G1 Z0F20000

(Start Block)


G1X112.6623Y-41.6216
G1Z5F20000
(Plotting speed under)
G1 F4000


G1X103.2357Y-79.8201

G1X114.1572Y-138.3666

G1X102.1798Y-174.0143

G1X109.4939Y-228.9534

G1X99.9650Y-267.0496

G1X102.5929Y-317.3025

G1X94.6054Y-356.9400

G1 Z0F20000

(Start Block)


G1X114.1308Y-42.0318
G1Z5F20000
(Plotting speed under)
G1 F4000


G1X103.8943Y-79.4203

G1X114.9745Y-138.1256

G1X102.8934Y-173.6695

G1X111.0676Y-229.4688

G1X100.7819Y-266.8081

G1X103.6588Y-317.3101

G1X95.3162Y-356.5925

G1 Z0F20000

(Start Block)


G1X115.5993Y-42.4419
G1Z5F20000
(Plotting speed under)
G1 F4000


G1X104.5528Y-79.0205

G1X115.7919Y-137.8846

G1X103.6070Y-173.3248

G1X112.6413Y-229.9841

G1X101.5988Y-266.5667

G1X104.7248Y-317.3177

G1X96.0271Y-356.2450

G1 Z0F20000

(Start Block)


G1X117.0678Y-42.8521
G1Z5F20000
(Plotting speed under)
G1 F4000


G1X105.2114Y-78.6207

G1X116.6092Y-137.6436

G1X104.3206Y-172.9800

G1X114.2149Y-230.4995

G1X102.4157Y-266.3253

G1X105.7907Y-317.3253

G1X96.7379Y-355.8975

G1 Z0F20000

(Start Block)


G1X118.5363Y-43.2623
G1Z5F20000
(Plotting speed under)
G1 F4000


G1X105.8699Y-78.2209

G1X117.4265Y-137.4026

G1X105.0341Y-172.6353

G1X115.7886Y-231.0148

G1X103.2326Y-266.0838

G1X106.8566Y-317.3329

G1X97.4487Y-355.5500

G1 Z0F20000

(Start Block)


G1X120.0048Y-43.6725
G1Z5F20000
(Plotting speed under)
G1 F4000


G1X106.5285Y-77.8211

G1X118.2439Y-137.1616

G1X105.7477Y-172.2905

G1X117.3623Y-231.5301

G1X104.0495Y-265.8424

G1X107.9225Y-317.3405

G1X98.1595Y-355.2025

G1 Z0F20000

(Start Block)


G1X121.4733Y-44.0826
G1Z5F20000
(Plotting speed under)
G1 F4000


G1X107.1870Y-77.4214

G1X119.0612Y-136.9206

G1X106.4613Y-171.9458

G1X118.9360Y-232.0455

G1X104.8664Y-265.6009

G1X108.9885Y-317.3481

G1X98.8703Y-354.8550

G1 Z0F20000

(Start Block)


G1X122.9419Y-44.4928
G1Z5F20000
(Plotting speed under)
G1 F4000


G1X107.8455Y-77.0216

G1X119.8786Y-136.6796

G1X107.1749Y-171.6010

G1X120.5097Y-232.5608

G1X105.6833Y-265.3595

G1X110.0544Y-317.3556

G1X99.5812Y-354.5075

G1 Z0F20000

(Start Block)


G1X124.4104Y-44.9030
G1Z5F20000
(Plotting speed under)
G1 F4000


G1X108.5041Y-76.6218

G1X120.6959Y-136.4387

G1X107.8885Y-171.2562

G1X122.0833Y-233.0762

G1X106.5002Y-265.1181

G1X111.1203Y-317.3632

G1X100.2920Y-354.1600

G1 Z0F20000

(Start Block)


G1X125.8789Y-45.3132
G1Z5F20000
(Plotting speed under)
G1 F4000


G1X109.1626Y-76.2220

G1X121.5132Y-136.1977

G1X108.6020Y-170.9115

G1X123.6571Y-233.5915

G1X107.3171Y-264.8766

G1X112.1862Y-317.3708

G1X101.0028Y-353.8125

G1 Z0F20000

(Start Block)


G1X127.3474Y-45.7234
G1Z5F20000
(Plotting speed under)
G1 F4000


G1X109.8212Y-75.8222

G1X122.3306Y-135.9567

G1X109.3156Y-170.5667

G1X125.2307Y-234.1069

G1X108.1340Y-264.6352

G1X113.2522Y-317.3784

G1X101.7136Y-353.4650

G1 Z0F20000

(Start Block)


G1X128.8159Y-46.1335
G1Z5F20000
(Plotting speed under)
G1 F4000


G1X110.4797Y-75.4224

G1X123.1479Y-135.7157

G1X110.0292Y-170.2220

G1X126.8044Y-234.6222

G1X108.9509Y-264.3937

G1X114.3181Y-317.3860

G1X102.4244Y-353.1174

G1 Z0F20000

(Start Block)


G1X130.2844Y-46.5437
G1Z5F20000
(Plotting speed under)
G1 F4000


G1X111.1383Y-75.0226

G1X123.9653Y-135.4747

G1X110.7428Y-169.8772

G1X128.3781Y-235.1376

G1X109.7678Y-264.1523

G1X115.3840Y-317.3936

G1X103.1353Y-352.7699

G1 Z0F20000

(Start Block)


G1X131.7530Y-46.9539
G1Z5F20000
(Plotting speed under)
G1 F4000


G1X111.7968Y-74.6229

G1X124.7826Y-135.2337

G1X111.4564Y-169.5325

G1X129.9518Y-235.6529

G1X110.5847Y-263.9109

G1X116.4499Y-317.4012

G1X103.8461Y-352.4224

G1 Z0F20000

(Start Block)


G1X133.2215Y-47.3641
G1Z5F20000
(Plotting speed under)
G1 F4000


G1X112.4554Y-74.2231

G1X125.6000Y-134.9927

G1X112.1700Y-169.1877

G1X131.5255Y-236.1683

G1X111.4016Y-263.6694

G1X117.5158Y-317.4088

G1X104.5569Y-352.0749

G1 Z0F20000

(Start Block)


G1X134.6900Y-47.7743
G1Z5F20000
(Plotting speed under)
G1 F4000


G1X113.1139Y-73.8233

G1X126.4173Y-134.7517

G1X112.8835Y-168.8430

G1X133.0991Y-236.6836

G1X112.2185Y-263.4280

G1X118.5818Y-317.4164

G1X105.2677Y-351.7274

G1 Z0F20000

(Start Block)


G1X136.1585Y-48.1844
G1Z5F20000
(Plotting speed under)
G1 F4000


G1X113.7725Y-73.4235

G1X127.2346Y-134.5107

G1X113.5971Y-168.4982

G1X134.6728Y-237.1990

G1X113.0354Y-263.1866

G1X119.6477Y-317.4239

G1X105.9786Y-351.3799

G1 Z0F20000

(Start Block)


G1X137.1790Y-48.1466
G1Z5F20000
(Plotting speed under)
G1 F4000


G1X114.8814Y-73.4740

G1X128.4272Y-134.6449

G1X115.2763Y-169.1191

G1X135.7144Y-237.1822

G1X114.5493Y-263.6421

G1X120.8027Y-317.5206

G1X107.0701Y-351.4130

G1 Z0F20000

(Start Block)


G1X138.1995Y-48.1088
G1Z5F20000
(Plotting speed under)
G1 F4000


G1X115.9902Y-73.5245

G1X129.6198Y-134.7792

G1X116.9556Y-169.7400

G1X136.7560Y-237.1655

G1X116.0632Y-264.0977

G1X121.9577Y-317.6173

G1X108.1615Y-351.4462

G1 Z0F20000

(Start Block)


G1X139.2200Y-48.0710
G1Z5F20000
(Plotting speed under)
G1 F4000


G1X117.0991Y-73.5751

G1X130.8123Y-134.9134

G1X118.6348Y-170.3609

G1X137.7976Y-237.1488

G1X117.5771Y-264.5533

G1X123.1128Y-317.7140

G1X109.2530Y-351.4793

G1 Z0F20000

(Start Block)


G1X140.2406Y-48.0332
G1Z5F20000
(Plotting speed under)
G1 F4000


G1X118.2079Y-73.6256

G1X132.0049Y-135.0476

G1X120.3140Y-170.9818

G1X138.8392Y-237.1320

G1X119.0910Y-265.0088

G1X124.2678Y-317.8107

G1X110.3445Y-351.5125

G1 Z0F20000

(Start Block)


G1X141.2611Y-47.9954
G1Z5F20000
(Plotting speed under)
G1 F4000


G1X119.3168Y-73.6761

G1X133.1975Y-135.1819

G1X121.9933Y-171.6027

G1X139.8808Y-237.1153

G1X120.6048Y-265.4644

G1X125.4228Y-317.9074

G1X111.4360Y-351.5456

G1 Z0F20000

(Start Block)


G1X142.2816Y-47.9575
G1Z5F20000
(Plotting speed under)
G1 F4000


G1X120.4256Y-73.7267

G1X134.3900Y-135.3161

G1X123.6725Y-172.2236

G1X140.9225Y-237.0986

G1X122.1187Y-265.9199

G1X126.5778Y-318.0041

G1X112.5274Y-351.5787

G1 Z0F20000

(Start Block)


G1X143.3021Y-47.9197
G1Z5F20000
(Plotting speed under)
G1 F4000


G1X121.5345Y-73.7772

G1X135.5826Y-135.4503

G1X125.3518Y-172.8445

G1X141.9641Y-237.0819

G1X123.6327Y-266.3755

G1X127.7329Y-318.1008

G1X113.6189Y-351.6119

G1 Z0F20000

(Start Block)


G1X144.3226Y-47.8819
G1Z5F20000
(Plotting speed under)
G1 F4000


G1X122.6434Y-73.8277

G1X136.7752Y-135.5846

G1X127.0310Y-173.4654

G1X143.0057Y-237.0652

G1X125.1466Y-266.8311

G1X128.8879Y-318.1975

G1X114.7104Y-351.6450

G1 Z0F20000

(Start Block)


G1X145.3432Y-47.8441
G1Z5F20000
(Plotting speed under)
G1 F4000


G1X123.7522Y-73.8782

G1X137.9677Y-135.7188

G1X128.7102Y-174.0863

G1X144.0473Y-237.0484

G1X126.6604Y-267.2866

G1X130.0429Y-318.2941

G1X115.8019Y-351.6782

G1 Z0F20000

(Start Block)


G1X146.3637Y-47.8063
G1Z5F20000
(Plotting speed under)
G1 F4000


G1X124.8611Y-73.9288

G1X139.1603Y-135.8530

G1X130.3895Y-174.7072

G1X145.0889Y-237.0317

G1X128.1743Y-267.7422

G1X131.1980Y-318.3908

G1X116.8934Y-351.7113

G1 Z0F20000

(Start Block)


G1X147.3842Y-47.7685
G1Z5F20000
(Plotting speed under)
G1 F4000


G1X125.9700Y-73.9793

G1X140.3529Y-135.9873

G1X132.0687Y-175.3281

G1X146.1305Y-237.0150

G1X129.6882Y-268.1977

G1X132.3530Y-318.4875

G1X117.9848Y-351.7445

G1 Z0F20000

(Start Block)


G1X148.4047Y-47.7306
G1Z5F20000
(Plotting speed under)
G1 F4000


G1X127.0788Y-74.0298

G1X141.5454Y-136.1215

G1X133.7479Y-175.9490

G1X147.1721Y-236.9982

G1X131.2021Y-268.6533

G1X133.5080Y-318.5842

G1X119.0763Y-351.7776

G1 Z0F20000

(Start Block)


G1X149.4252Y-47.6928
G1Z5F20000
(Plotting speed under)
G1 F4000


G1X128.1877Y-74.0803

G1X142.7380Y-136.2557

G1X135.4272Y-176.5699

G1X148.2137Y-236.9815

G1X132.7160Y-269.1089

G1X134.6630Y-318.6809

G1X120.1678Y-351.8108

G1 Z0F20000

(Start Block)


G1X150.4457Y-47.6550
G1Z5F20000
(Plotting speed under)
G1 F4000


G1X129.2965Y-74.1308

G1X143.9306Y-136.3900

G1X137.1064Y-177.1908

G1X149.2553Y-236.9648

G1X134.2299Y-269.5644

G1X135.8180Y-318.7776

G1X121.2593Y-351.8439

G1 Z0F20000

(Start Block)


G1X151.4663Y-47.6172
G1Z5F20000
(Plotting speed under)
G1 F4000


G1X130.4054Y-74.1814

G1X145.1231Y-136.5242

G1X138.7856Y-177.8117

G1X150.2969Y-236.9481

G1X135.7438Y-270.0200

G1X136.9731Y-318.8743

G1X122.3508Y-351.8771

G1 Z0F20000

(Start Block)


G1X152.4868Y-47.5794
G1Z5F20000
(Plotting speed under)
G1 F4000


G1X131.5143Y-74.2319

G1X146.3157Y-136.6584

G1X140.4649Y-178.4326

G1X151.3385Y-236.9313

G1X137.2577Y-270.4756

G1X138.1281Y-318.9710

G1X123.4423Y-351.9102

G1 Z0F20000

(Start Block)


G1X153.5073Y-47.5416
G1Z5F20000
(Plotting speed under)
G1 F4000


G1X132.6231Y-74.2824

G1X147.5083Y-136.7926

G1X142.1441Y-179.0535

G1X152.3801Y-236.9146

G1X138.7716Y-270.9311

G1X139.2831Y-319.0677

G1X124.5338Y-351.9434

G1 Z0F20000

(Start Block)


G1X154.5278Y-47.5037
G1Z5F20000
(Plotting speed under)
G1 F4000


G1X133.7320Y-74.3330

G1X148.7008Y-136.9269

G1X143.8233Y-179.6744

G1X153.4217Y-236.8979

G1X140.2855Y-271.3867

G1X140.4381Y-319.1644

G1X125.6252Y-351.9765

G1 Z0F20000

(Start Block)


G1X155.5483Y-47.4659
G1Z5F20000
(Plotting speed under)
G1 F4000


G1X134.8408Y-74.3835

G1X149.8934Y-137.0611

G1X145.5026Y-180.2953

G1X154.4634Y-236.8812

G1X141.7994Y-271.8422

G1X141.5931Y-319.2611

G1X126.7167Y-352.0096

G1 Z0F20000

(Start Block)


G1X156.5689Y-47.4281
G1Z5F20000
(Plotting speed under)
G1 F4000


G1X135.9497Y-74.4340

G1X151.0860Y-137.1953

G1X147.1818Y-180.9162

G1X155.5050Y-236.8644

G1X143.3133Y-272.2978

G1X142.7482Y-319.3578

G1X127.8082Y-352.0428

G1 Z0F20000

(Start Block)


G1X157.5894Y-47.3903
G1Z5F20000
(Plotting speed under)
G1 F4000


G1X137.0586Y-74.4845

G1X152.2785Y-137.3296

G1X148.8610Y-181.5371

G1X156.5466Y-236.8477

G1X144.8272Y-272.7534

G1X143.9032Y-319.4544

G1X128.8996Y-352.0759

G1 Z0F20000

(Start Block)


G1X158.6099Y-47.3525
G1Z5F20000
(Plotting speed under)
G1 F4000


G1X138.1674Y-74.5350

G1X153.4711Y-137.4638

G1X150.5403Y-182.1580

G1X157.5882Y-236.8310

G1X146.3411Y-273.2090

G1X145.0582Y-319.5511

G1X129.9911Y-352.1091

G1 Z0F20000

(Start Block)


G1X159.6304Y-47.3147
G1Z5F20000
(Plotting speed under)
G1 F4000


G1X139.2763Y-74.5856

G1X154.6637Y-137.5980

G1X152.2195Y-182.7789

G1X158.6298Y-236.8142

G1X147.8550Y-273.6645

G1X146.2132Y-319.6478

G1X131.0826Y-352.1422

G1 Z0F20000

(Start Block)


G1X160.6509Y-47.2769
G1Z5F20000
(Plotting speed under)
G1 F4000


G1X140.3851Y-74.6361

G1X155.8562Y-137.7323

G1X153.8987Y-183.3998

G1X159.6714Y-236.7975

G1X149.3689Y-274.1201

G1X147.3683Y-319.7445

G1X132.1741Y-352.1754

G1 Z0F20000

(Start Block)


G1X161.6715Y-47.2391
G1Z5F20000
(Plotting speed under)
G1 F4000


G1X141.4940Y-74.6866

G1X157.0488Y-137.8665

G1X155.5780Y-184.0207

G1X160.7130Y-236.7808

G1X150.8828Y-274.5756

G1X148.5233Y-319.8412

G1X133.2656Y-352.2085

G1 Z0F20000

(Start Block)


G1X162.6920Y-47.2012
G1Z5F20000
(Plotting speed under)
G1 F4000


G1X142.6028Y-74.7372

G1X158.2414Y-138.0007

G1X157.2572Y-184.6416

G1X161.7546Y-236.7641

G1X152.3967Y-275.0312

G1X149.6783Y-319.9379

G1X134.3571Y-352.2416

G1 Z0F20000

(Start Block)


G1X163.7125Y-47.1634
G1Z5F20000
(Plotting speed under)
G1 F4000


G1X143.7117Y-74.7877

G1X159.4339Y-138.1350

G1X158.9364Y-185.2625

G1X162.7962Y-236.7474

G1X153.9106Y-275.4867

G1X150.8334Y-320.0346

G1X135.4485Y-352.2748

G1 Z0F20000

(Start Block)


G1X164.7330Y-47.1256
G1Z5F20000
(Plotting speed under)
G1 F4000


G1X144.8206Y-74.8382

G1X160.6265Y-138.2692

G1X160.6157Y-185.8834

G1X163.8378Y-236.7306

G1X155.4245Y-275.9423

G1X151.9884Y-320.1313

G1X136.5400Y-352.3080

G1 Z0F20000

(Start Block)


G1X165.7535Y-47.0878
G1Z5F20000
(Plotting speed under)
G1 F4000


G1X145.9294Y-74.8887

G1X161.8191Y-138.4034

G1X162.2949Y-186.5043

G1X164.8795Y-236.7139

G1X156.9384Y-276.3979

G1X153.1434Y-320.2279

G1X137.6315Y-352.3411

G1 Z0F20000

(Start Block)


G1X166.7740Y-47.0500
G1Z5F20000
(Plotting speed under)
G1 F4000


G1X147.0383Y-74.9392

G1X163.0116Y-138.5377

G1X163.9741Y-187.1252

G1X165.9210Y-236.6972

G1X158.4522Y-276.8534

G1X154.2984Y-320.3247

G1X138.7230Y-352.3742

G1 Z0F20000

(Start Block)


G1X167.7946Y-47.0121
G1Z5F20000
(Plotting speed under)
G1 F4000


G1X148.1471Y-74.9898

G1X164.2042Y-138.6719

G1X165.6534Y-187.7461

G1X166.9627Y-236.6804

G1X159.9661Y-277.3090

G1X155.4534Y-320.4213

G1X139.8145Y-352.4074

G1 Z0F20000

(Start Block)


G1X168.8151Y-46.9743
G1Z5F20000
(Plotting speed under)
G1 F4000


G1X149.2560Y-75.0403

G1X165.3968Y-138.8061

G1X167.3326Y-188.3670

G1X168.0043Y-236.6637

G1X161.4800Y-277.7645

G1X156.6085Y-320.5180

G1X140.9059Y-352.4405

G1 Z0F20000

(Start Block)


G1X169.8356Y-46.9365
G1Z5F20000
(Plotting speed under)
G1 F4000


G1X150.3649Y-75.0908

G1X166.5893Y-138.9404

G1X169.0119Y-188.9879

G1X169.0459Y-236.6470

G1X162.9939Y-278.2201

G1X157.7635Y-320.6147

G1X141.9974Y-352.4737

G1 Z0F20000

(Start Block)


G1X170.8561Y-46.8987
G1Z5F20000
(Plotting speed under)
G1 F4000


G1X151.4737Y-75.1413

G1X167.7819Y-139.0746

G1X170.6911Y-189.6088

G1X170.0875Y-236.6303

G1X158.9185Y-320.7114

G1X143.0889Y-352.5068

G1 Z0F20000

(Start Block)


G1X171.8767Y-46.8609
G1Z5F20000
(Plotting speed under)
G1 F4000


G1X152.5826Y-75.1919

G1X168.9745Y-139.2088

G1X172.3703Y-190.2297

G1X171.1291Y-236.6136

G1X166.0217Y-279.1312

G1X160.0735Y-320.8081

G1X144.1804Y-352.5400

G1 Z0F20000

(Start Block)


G1X172.8972Y-46.8231
G1Z5F20000
(Plotting speed under)
G1 F4000


G1X153.6914Y-75.2424

G1X170.1670Y-139.3430

G1X174.0496Y-190.8506

G1X172.1707Y-236.5968

G1X167.5356Y-279.5868

G1X161.2285Y-320.9048

G1X145.2718Y-352.5731

G1 Z0F20000

(Start Block)


G1X173.9177Y-46.7852
G1Z5F20000
(Plotting speed under)
G1 F4000


G1X154.8003Y-75.2929

G1X171.3596Y-139.4773

G1X175.7288Y-191.4715

G1X173.2123Y-236.5801

G1X169.0495Y-280.0423

G1X162.3836Y-321.0015

G1X146.3633Y-352.6062

G1 Z0F20000

(Start Block)


G1X174.9382Y-46.7474
G1Z5F20000
(Plotting speed under)
G1 F4000


G1X155.9091Y-75.3435

G1X172.5522Y-139.6115

G1X177.4080Y-192.0924

G1X174.2539Y-236.5634

G1X170.5634Y-280.4979

G1X163.5386Y-321.0982

G1X147.4548Y-352.6394

G1 Z0F20000

(Start Block)


G1X175.9587Y-46.7096
G1Z5F20000
(Plotting speed under)
G1 F4000


G1X157.0180Y-75.3940

G1X173.7447Y-139.7457

G1X179.0873Y-192.7133

G1X175.2955Y-236.5467

G1X172.0773Y-280.9535

G1X164.6936Y-321.1949

G1X148.5463Y-352.6725

G1 Z0F20000

(Start Block)


G1X176.9793Y-46.6718
G1Z5F20000
(Plotting speed under)
G1 F4000


G1X158.1269Y-75.4445

G1X174.9373Y-139.8800

G1X180.7665Y-193.3342

G1X176.3372Y-236.5299

G1X173.5912Y-281.4090

G1X165.8486Y-321.2915

G1X149.6378Y-352.7057

G1 Z0F20000

(Start Block)


G1X177.9998Y-46.6340
G1Z5F20000
(Plotting speed under)
G1 F4000


G1X159.2357Y-75.4950

G1X176.1299Y-140.0142

G1X182.4457Y-193.9551

G1X177.3788Y-236.5132

G1X175.1051Y-281.8646

G1X167.0037Y-321.3882

G1X150.7292Y-352.7388

G1 Z0F20000

(Start Block)


G1X179.0203Y-46.5962
G1Z5F20000
(Plotting speed under)
G1 F4000


G1X160.3446Y-75.5455

G1X177.3224Y-140.1484

G1X184.1250Y-194.5760

G1X178.4204Y-236.4965

G1X176.6190Y-282.3202

G1X168.1587Y-321.4849

G1X151.8207Y-352.7720

G1 Z0F20000

(Start Block)


G1X180.0408Y-46.5584
G1Z5F20000
(Plotting speed under)
G1 F4000


G1X161.4534Y-75.5961

G1X178.5150Y-140.2827

G1X185.8042Y-195.1969

G1X179.4620Y-236.4798

G1X178.1329Y-282.7757

G1X169.3137Y-321.5816

G1X152.9122Y-352.8051

G1 Z0F20000

(Start Block)


G1X181.0613Y-46.5205
G1Z5F20000
(Plotting speed under)
G1 F4000


G1X162.5623Y-75.6466

G1X179.7076Y-140.4169

G1X187.4834Y-195.8178

G1X180.5036Y-236.4630

G1X179.6468Y-283.2313

G1X170.4688Y-321.6783

G1X154.0037Y-352.8383

G1 Z0F20000

(Start Block)


G1X182.0818Y-46.4827
G1Z5F20000
(Plotting speed under)
G1 F4000


G1X163.6712Y-75.6971

G1X180.9001Y-140.5511

G1X189.1627Y-196.4387

G1X181.5452Y-236.4463

G1X181.1607Y-283.6869

G1X171.6238Y-321.7750

G1X155.0952Y-352.8714

G1 Z0F20000

(Start Block)


G1X183.0897Y-46.4322
G1Z5F20000
(Plotting speed under)
G1 F4000


G1X164.6454Y-75.6131

G1X181.8685Y-140.4612

G1X189.9144Y-196.1321

G1X182.7352Y-236.5779

G1X182.0917Y-283.5596

G1X172.4780Y-321.5708

G1X156.5905Y-353.3084

G1 Z0F20000

(Start Block)


G1X184.0975Y-46.3817
G1Z5F20000
(Plotting speed under)
G1 F4000


G1X165.6197Y-75.5290

G1X182.8370Y-140.3713

G1X190.6661Y-195.8255

G1X183.9252Y-236.7096

G1X183.0228Y-283.4323

G1X173.3322Y-321.3667

G1X158.0858Y-353.7454

G1 Z0F20000

(Start Block)


G1X185.1054Y-46.3312
G1Z5F20000
(Plotting speed under)
G1 F4000


G1X166.5940Y-75.4449

G1X183.8054Y-140.2814

G1X191.4179Y-195.5189

G1X185.1151Y-236.8412

G1X183.9539Y-283.3050

G1X174.1864Y-321.1626

G1X159.5811Y-354.1823

G1 Z0F20000

(Start Block)


G1X186.1132Y-46.2808
G1Z5F20000
(Plotting speed under)
G1 F4000


G1X167.5682Y-75.3609

G1X184.7738Y-140.1914

G1X192.1696Y-195.2123

G1X186.3051Y-236.9728

G1X184.8850Y-283.1778

G1X175.0406Y-320.9584

G1X161.0764Y-354.6193

G1 Z0F20000

(Start Block)


G1X187.1210Y-46.2302
G1Z5F20000
(Plotting speed under)
G1 F4000


G1X168.5425Y-75.2768

G1X185.7422Y-140.1015

G1X192.9213Y-194.9057

G1X187.4950Y-237.1045

G1X185.8160Y-283.0505

G1X175.8948Y-320.7543

G1X162.5717Y-355.0563

G1 Z0F20000

(Start Block)


G1X188.1289Y-46.1798
G1Z5F20000
(Plotting speed under)
G1 F4000


G1X169.5168Y-75.1927

G1X186.7106Y-140.0116

G1X193.6731Y-194.5991

G1X188.6850Y-237.2361

G1X186.7471Y-282.9232

G1X176.7490Y-320.5502

G1X164.0670Y-355.4933

G1 Z0F20000

(Start Block)


G1X189.1367Y-46.1293
G1Z5F20000
(Plotting speed under)
G1 F4000


G1X170.4910Y-75.1087

G1X187.6790Y-139.9217

G1X194.4248Y-194.2925

G1X189.8750Y-237.3677

G1X187.6781Y-282.7959

G1X177.6031Y-320.3460

G1X165.5623Y-355.9302

G1 Z0F20000

(Start Block)


G1X190.1446Y-46.0788
G1Z5F20000
(Plotting speed under)
G1 F4000


G1X171.4653Y-75.0246

G1X188.6474Y-139.8317

G1X195.1766Y-193.9859

G1X191.0649Y-237.4994

G1X188.6092Y-282.6687

G1X178.4573Y-320.1419

G1X167.0576Y-356.3672

G1 Z0F20000

(Start Block)


G1X191.1524Y-46.0283
G1Z5F20000
(Plotting speed under)
G1 F4000


G1X172.4396Y-74.9405

G1X189.6158Y-139.7418

G1X195.9283Y-193.6793

G1X192.2549Y-237.6310

G1X189.5403Y-282.5414

G1X179.3115Y-319.9377

G1X168.5530Y-356.8042

G1 Z0F20000

(Start Block)


G1X192.1602Y-45.9778
G1Z5F20000
(Plotting speed under)
G1 F4000


G1X173.4139Y-74.8565

G1X190.5842Y-139.6519

G1X196.6800Y-193.3727

G1X193.4449Y-237.7626

G1X190.4713Y-282.4141

G1X180.1657Y-319.7336

G1X170.0482Y-357.2412

G1 Z0F20000

(Start Block)


G1X193.1681Y-45.9273
G1Z5F20000
(Plotting speed under)
G1 F4000


G1X174.3881Y-74.7724

G1X191.5526Y-139.5619

G1X197.4318Y-193.0661

G1X194.6348Y-237.8943

G1X191.4024Y-282.2869

G1X181.0199Y-319.5294

G1X171.5436Y-357.6782

G1 Z0F20000

(Start Block)


G1X194.1759Y-45.8768
G1Z5F20000
(Plotting speed under)
G1 F4000


G1X175.3624Y-74.6883

G1X192.5210Y-139.4720

G1X198.1835Y-192.7595

G1X195.8248Y-238.0259

G1X192.3335Y-282.1596

G1X181.8741Y-319.3253

G1X173.0389Y-358.1151

G1 Z0F20000

(Start Block)


G1X195.1838Y-45.8263
G1Z5F20000
(Plotting speed under)
G1 F4000


G1X176.3367Y-74.6043

G1X193.4894Y-139.3821

G1X198.9352Y-192.4529

G1X197.0148Y-238.1575

G1X193.2645Y-282.0323

G1X182.7283Y-319.1212

G1X174.5342Y-358.5521

G1 Z0F20000

(Start Block)


G1X196.1916Y-45.7758
G1Z5F20000
(Plotting speed under)
G1 F4000


G1X177.3109Y-74.5202

G1X194.4578Y-139.2922

G1X199.6870Y-192.1463

G1X198.2047Y-238.2892

G1X194.1956Y-281.9050

G1X183.5825Y-318.9170

G1X176.0295Y-358.9891

G1 Z0F20000

(Start Block)


G1X197.1994Y-45.7253
G1Z5F20000
(Plotting speed under)
G1 F4000


G1X178.2852Y-74.4361

G1X195.4263Y-139.2022

G1X200.4387Y-191.8397

G1X199.3947Y-238.4208

G1X195.1266Y-281.7778

G1X184.4367Y-318.7129

G1X177.5248Y-359.4261

G1 Z0F20000

(Start Block)


G1X198.2073Y-45.6748
G1Z5F20000
(Plotting speed under)
G1 F4000


G1X179.2595Y-74.3521

G1X196.3947Y-139.1123

G1X201.1904Y-191.5331

G1X200.5847Y-238.5524

G1X196.0577Y-281.6505

G1X185.2909Y-318.5087

G1X179.0201Y-359.8630

G1 Z0F20000

(Start Block)


G1X199.2151Y-45.6243
G1Z5F20000
(Plotting speed under)
G1 F4000


G1X180.2337Y-74.2680

G1X197.3631Y-139.0224

G1X201.9422Y-191.2265

G1X201.7746Y-238.6841

G1X196.9888Y-281.5232

G1X186.1451Y-318.3046

G1X180.5155Y-360.3000

G1 Z0F20000

(Start Block)


G1X200.2230Y-45.5738
G1Z5F20000
(Plotting speed under)
G1 F4000


G1X181.2080Y-74.1839

G1X198.3315Y-138.9325

G1X202.6939Y-190.9199

G1X202.9646Y-238.8157

G1X197.9198Y-281.3960

G1X186.9993Y-318.1004

G1X182.0108Y-360.7370

G1 Z0F20000

(Start Block)


G1X201.2308Y-45.5233
G1Z5F20000
(Plotting speed under)
G1 F4000


G1X182.1823Y-74.0999

G1X199.2999Y-138.8425

G1X203.4456Y-190.6133

G1X204.1546Y-238.9473

G1X198.8509Y-281.2687

G1X187.8535Y-317.8963

G1X183.5061Y-361.1740

G1 Z0F20000

(Start Block)


G1X202.2386Y-45.4729
G1Z5F20000
(Plotting speed under)
G1 F4000


G1X183.1565Y-74.0158

G1X200.2683Y-138.7526

G1X204.1974Y-190.3067

G1X205.3445Y-239.0790

G1X199.7820Y-281.1414

G1X188.7077Y-317.6922

G1X185.0014Y-361.6109

G1 Z0F20000

(Start Block)


G1X203.2465Y-45.4223
G1Z5F20000
(Plotting speed under)
G1 F4000


G1X184.1308Y-73.9317

G1X201.2367Y-138.6627

G1X204.9491Y-190.0001

G1X206.5345Y-239.2106

G1X200.7130Y-281.0142

G1X189.5619Y-317.4880

G1X186.4967Y-362.0479

G1 Z0F20000

(Start Block)


G1X204.2543Y-45.3719
G1Z5F20000
(Plotting speed under)
G1 F4000


G1X185.1051Y-73.8477

G1X202.2051Y-138.5727

G1X205.7008Y-189.6935

G1X207.7245Y-239.3422

G1X201.6441Y-280.8869

G1X190.4160Y-317.2839

G1X187.9920Y-362.4849

G1 Z0F20000

(Start Block)


G1X205.2621Y-45.3214
G1Z5F20000
(Plotting speed under)
G1 F4000


G1X186.0793Y-73.7636

G1X203.1735Y-138.4828

G1X206.4526Y-189.3869

G1X208.9144Y-239.4738

G1X202.5751Y-280.7596

G1X191.2702Y-317.0797

G1X189.4873Y-362.9219

G1 Z0F20000

(Start Block)


G1X206.2700Y-45.2709
G1Z5F20000
(Plotting speed under)
G1 F4000


G1X187.0536Y-73.6795

G1X204.1419Y-138.3929

G1X207.2043Y-189.0803

G1X210.1044Y-239.6055

G1X203.5062Y-280.6323

G1X192.1244Y-316.8756

G1X190.9827Y-363.3589

G1 Z0F20000

(Start Block)


G1X207.2778Y-45.2204
G1Z5F20000
(Plotting speed under)
G1 F4000


G1X188.0279Y-73.5955

G1X205.1103Y-138.3030

G1X207.9561Y-188.7737

G1X211.2944Y-239.7371

G1X204.4373Y-280.5051

G1X192.9786Y-316.6714

G1X192.4779Y-363.7958

G1 Z0F20000

(Start Block)


G1X208.2857Y-45.1699
G1Z5F20000
(Plotting speed under)
G1 F4000


G1X189.0021Y-73.5114

G1X206.0787Y-138.2130

G1X208.7078Y-188.4671

G1X212.4843Y-239.8688

G1X205.3683Y-280.3778

G1X193.8328Y-316.4673

G1X193.9733Y-364.2328

G1 Z0F20000

(Start Block)


G1X209.2935Y-45.1194
G1Z5F20000
(Plotting speed under)
G1 F4000


G1X189.9764Y-73.4273

G1X207.0471Y-138.1231

G1X209.4595Y-188.1605

G1X213.6743Y-240.0004

G1X206.2994Y-280.2505

G1X194.6870Y-316.2632

G1X195.4686Y-364.6698

G1 Z0F20000

(Start Block)


G1X210.3013Y-45.0689
G1Z5F20000
(Plotting speed under)
G1 F4000


G1X190.9507Y-73.3432

G1X208.0155Y-138.0332

G1X210.2113Y-187.8540

G1X214.8643Y-240.1320

G1X207.2305Y-280.1233

G1X195.5412Y-316.0590

G1X196.9639Y-365.1068

G1 Z0F20000

(Start Block)


G1X211.3092Y-45.0184
G1Z5F20000
(Plotting speed under)
G1 F4000


G1X191.9249Y-73.2592

G1X208.9840Y-137.9433

G1X210.9630Y-187.5474

G1X216.0542Y-240.2637

G1X208.1615Y-279.9960

G1X196.3954Y-315.8549

G1X198.4592Y-365.5437

G1 Z0F20000

(Start Block)


G1X212.3170Y-44.9679
G1Z5F20000
(Plotting speed under)
G1 F4000


G1X192.8992Y-73.1751

G1X209.9524Y-137.8533

G1X211.7147Y-187.2408

G1X217.2442Y-240.3953

G1X209.0926Y-279.8687

G1X197.2496Y-315.6508

G1X199.9545Y-365.9807

G1 Z0F20000

(Start Block)


G1X213.3249Y-44.9174
G1Z5F20000
(Plotting speed under)
G1 F4000


G1X193.8735Y-73.0910

G1X210.9208Y-137.7634

G1X212.4665Y-186.9342

G1X218.4342Y-240.5269

G1X210.0236Y-279.7414

G1X198.1038Y-315.4466

G1X201.4498Y-366.4177

G1 Z0F20000

(Start Block)


G1X214.3327Y-44.8669
G1Z5F20000
(Plotting speed under)
G1 F4000


G1X194.8477Y-73.0070

G1X211.8892Y-137.6735

G1X213.2182Y-186.6276

G1X219.6241Y-240.6585

G1X210.9547Y-279.6142

G1X198.9580Y-315.2425

G1X202.9451Y-366.8547

G1 Z0F20000

(Start Block)


G1X215.3405Y-44.8164
G1Z5F20000
(Plotting speed under)
G1 F4000


G1X195.8220Y-72.9229

G1X212.8576Y-137.5835

G1X213.9700Y-186.3210

G1X220.8141Y-240.7902

G1X211.8858Y-279.4869

G1X199.8122Y-315.0383

G1X204.4404Y-367.2916

G1 Z0F20000

(Start Block)


G1X216.3484Y-44.7659
G1Z5F20000
(Plotting speed under)
G1 F4000


G1X196.7963Y-72.8389

G1X213.8260Y-137.4936

G1X214.7217Y-186.0144

G1X222.0041Y-240.9218

G1X212.8168Y-279.3596

G1X200.6664Y-314.8342

G1X205.9357Y-367.7286

G1 Z0F20000

(Start Block)


G1X217.3562Y-44.7154
G1Z5F20000
(Plotting speed under)
G1 F4000


G1X197.7705Y-72.7548

G1X214.7944Y-137.4037

G1X215.4734Y-185.7078

G1X223.1940Y-241.0534

G1X213.7479Y-279.2324

G1X201.5206Y-314.6300

G1X207.4311Y-368.1656

G1 Z0F20000

(Start Block)


G1X218.3641Y-44.6649
G1Z5F20000
(Plotting speed under)
G1 F4000


G1X198.7448Y-72.6707

G1X215.7628Y-137.3138

G1X216.2252Y-185.4012

G1X224.3840Y-241.1851

G1X214.6790Y-279.1051

G1X202.3747Y-314.4259

G1X208.9264Y-368.6026

G1 Z0F20000

(Start Block)


G1X219.3719Y-44.6144
G1Z5F20000
(Plotting speed under)
G1 F4000


G1X199.7191Y-72.5867

G1X216.7312Y-137.2238

G1X216.9769Y-185.0946

G1X225.5740Y-241.3167

G1X215.6100Y-278.9778

G1X203.2289Y-314.2218

G1X210.4217Y-369.0396

G1 Z0F20000

(Start Block)


G1X220.3798Y-44.5640
G1Z5F20000
(Plotting speed under)
G1 F4000


G1X200.6933Y-72.5026

G1X217.6996Y-137.1339

G1X217.7286Y-184.7880

G1X226.7640Y-241.4483

G1X216.5411Y-278.8506

G1X204.0831Y-314.0176

G1X211.9170Y-369.4766

G1 Z0F20000

(Start Block)


G1X221.3876Y-44.5135
G1Z5F20000
(Plotting speed under)
G1 F4000


G1X201.6676Y-72.4185

G1X218.6680Y-137.0440

G1X218.4804Y-184.4814

G1X227.9539Y-241.5800

G1X217.4722Y-278.7233

G1X204.9373Y-313.8135

G1X213.4123Y-369.9135

G1 Z0F20000

(Start Block)


G1X222.3955Y-44.4630
G1Z5F20000
(Plotting speed under)
G1 F4000


G1X202.6419Y-72.3345

G1X219.6364Y-136.9541

G1X219.2321Y-184.1748

G1X229.1439Y-241.7116

G1X218.4032Y-278.5960

G1X205.7915Y-313.6093

G1X214.9076Y-370.3505

G1 Z0F20000

(Start Block)


G1X223.4033Y-44.4125
G1Z5F20000
(Plotting speed under)
G1 F4000


G1X203.6161Y-72.2504

G1X220.6049Y-136.8641

G1X219.9838Y-183.8682

G1X230.3339Y-241.8432

G1X219.3343Y-278.4687

G1X206.6457Y-313.4052

G1X216.4029Y-370.7875

G1 Z0F20000

(Start Block)


G1X224.4111Y-44.3620
G1Z5F20000
(Plotting speed under)
G1 F4000


G1X204.5904Y-72.1663

G1X221.5733Y-136.7742

G1X220.7356Y-183.5616

G1X231.5238Y-241.9749

G1X220.2653Y-278.3415

G1X207.4999Y-313.2011

G1X217.8982Y-371.2245

G1 Z0F20000

(Start Block)


G1X225.4190Y-44.3115
G1Z5F20000
(Plotting speed under)
G1 F4000


G1X205.5647Y-72.0822

G1X222.5417Y-136.6843

G1X221.4873Y-183.2550

G1X232.7138Y-242.1065

G1X221.1964Y-278.2142

G1X208.3541Y-312.9969

G1X219.3935Y-371.6614

G1 Z0F20000

(Start Block)


G1X226.4268Y-44.2610
G1Z5F20000
(Plotting speed under)
G1 F4000


G1X206.5389Y-71.9982

G1X223.5101Y-136.5943

G1X222.2391Y-182.9484

G1X233.9038Y-242.2381

G1X222.1275Y-278.0869

G1X209.2083Y-312.7928

G1X220.8889Y-372.0984

G1 Z0F20000

(Start Block)


G1X227.4347Y-44.2105
G1Z5F20000
(Plotting speed under)
G1 F4000


G1X207.5132Y-71.9141

G1X224.4785Y-136.5044

G1X222.9908Y-182.6418

G1X235.0937Y-242.3698

G1X223.0586Y-277.9597

G1X210.0625Y-312.5887

G1X222.3842Y-372.5354

G1 Z0F20000

(Start Block)


G1X228.1382Y-43.8557
G1Z5F20000
(Plotting speed under)
G1 F4000


G1X208.7748Y-72.1173

G1X225.6051Y-136.5727

G1X223.9047Y-182.4974

G1X235.7276Y-241.9453

G1X224.1075Y-277.9502

G1X211.2583Y-312.7261

G1X223.6702Y-372.7631

G1 Z0F20000

(Start Block)


G1X228.8418Y-43.5009
G1Z5F20000
(Plotting speed under)
G1 F4000


G1X210.0363Y-72.3205

G1X226.7317Y-136.6409

G1X224.8186Y-182.3529

G1X236.3615Y-241.5209

G1X225.1564Y-277.9408

G1X212.4540Y-312.8635

G1X224.9563Y-372.9908

G1 Z0F20000

(Start Block)


G1X229.5453Y-43.1462
G1Z5F20000
(Plotting speed under)
G1 F4000


G1X211.2978Y-72.5237

G1X227.8583Y-136.7092

G1X225.7325Y-182.2085

G1X236.9954Y-241.0964

G1X226.2053Y-277.9314

G1X213.6498Y-313.0010

G1X226.2423Y-373.2185

G1 Z0F20000

(Start Block)


G1X230.2489Y-42.7914
G1Z5F20000
(Plotting speed under)
G1 F4000


G1X212.5594Y-72.7270

G1X228.9848Y-136.7774

G1X226.6464Y-182.0640

G1X237.6293Y-240.6720

G1X227.2542Y-277.9219

G1X214.8456Y-313.1384

G1X227.5284Y-373.4462

G1 Z0F20000

(Start Block)


G1X230.9525Y-42.4366
G1Z5F20000
(Plotting speed under)
G1 F4000


G1X213.8209Y-72.9302

G1X230.1114Y-136.8457

G1X227.5603Y-181.9196

G1X238.2632Y-240.2476

G1X228.3031Y-277.9125

G1X216.0413Y-313.2758

G1X228.8144Y-373.6740

G1 Z0F20000

(Start Block)


G1X231.6560Y-42.0818
G1Z5F20000
(Plotting speed under)
G1 F4000


G1X215.0825Y-73.1334

G1X231.2380Y-136.9140

G1X228.4742Y-181.7751

G1X238.8971Y-239.8231

G1X229.3520Y-277.9031

G1X217.2371Y-313.4133

G1X230.1005Y-373.9017

G1 Z0F20000

(Start Block)


G1X232.3596Y-41.7271
G1Z5F20000
(Plotting speed under)
G1 F4000


G1X216.3440Y-73.3366

G1X232.3646Y-136.9822

G1X229.3881Y-181.6307

G1X239.5310Y-239.3987

G1X230.4009Y-277.8937

G1X218.4329Y-313.5507

G1X231.3865Y-374.1294

G1 Z0F20000

(Start Block)


G1X233.0631Y-41.3723
G1Z5F20000
(Plotting speed under)
G1 F4000


G1X217.6056Y-73.5398

G1X233.4912Y-137.0505

G1X230.3020Y-181.4863

G1X240.1649Y-238.9742

G1X231.4498Y-277.8842

G1X219.6287Y-313.6881

G1X232.6726Y-374.3571

G1 Z0F20000

(Start Block)


G1X233.7667Y-41.0175
G1Z5F20000
(Plotting speed under)
G1 F4000


G1X218.8671Y-73.7430

G1X234.6178Y-137.1187

G1X231.2158Y-181.3418

G1X240.7987Y-238.5498

G1X232.4987Y-277.8748

G1X220.8244Y-313.8256

G1X233.9586Y-374.5848

G1 Z0F20000

(Start Block)


G1X234.4703Y-40.6627
G1Z5F20000
(Plotting speed under)
G1 F4000


G1X220.1287Y-73.9462

G1X235.7444Y-137.1870

G1X232.1297Y-181.1974

G1X241.4326Y-238.1253

G1X233.5476Y-277.8654

G1X222.0202Y-313.9630

G1X235.2447Y-374.8125

G1 Z0F20000

(Start Block)


G1X235.1738Y-40.3080
G1Z5F20000
(Plotting speed under)
G1 F4000


G1X221.3902Y-74.1494

G1X236.8710Y-137.2552

G1X233.0436Y-181.0530

G1X242.0665Y-237.7009

G1X234.5965Y-277.8559

G1X223.2160Y-314.1004

G1X236.5307Y-375.0403

G1 Z0F20000

(Start Block)


G1X235.8774Y-39.9532
G1Z5F20000
(Plotting speed under)
G1 F4000


G1X222.6518Y-74.3527

G1X237.9975Y-137.3235

G1X233.9575Y-180.9085

G1X242.7004Y-237.2765

G1X235.6454Y-277.8465

G1X224.4117Y-314.2379

G1X237.8168Y-375.2680

G1 Z0F20000

(Start Block)


G1X236.5809Y-39.5984
G1Z5F20000
(Plotting speed under)
G1 F4000


G1X223.9133Y-74.5559

G1X239.1241Y-137.3917

G1X234.8714Y-180.7641

G1X243.3343Y-236.8520

G1X236.6943Y-277.8371

G1X225.6075Y-314.3753

G1X239.1028Y-375.4957

G1 Z0F20000

(Start Block)


G1X237.2845Y-39.2437
G1Z5F20000
(Plotting speed under)
G1 F4000


G1X225.1749Y-74.7591

G1X240.2507Y-137.4600

G1X235.7853Y-180.6197

G1X243.9682Y-236.4276

G1X237.7432Y-277.8277

G1X226.8033Y-314.5127

G1X240.3889Y-375.7234

G1 Z0F20000

(Start Block)


G1X237.9881Y-38.8889
G1Z5F20000
(Plotting speed under)
G1 F4000


G1X226.4364Y-74.9623

G1X241.3773Y-137.5282

G1X236.6992Y-180.4752

G1X244.6021Y-236.0031

G1X238.7921Y-277.8182

G1X227.9990Y-314.6502

G1X241.6749Y-375.9511

G1 Z0F20000

(Start Block)


G1X238.6916Y-38.5341
G1Z5F20000
(Plotting speed under)
G1 F4000


G1X227.6979Y-75.1655

G1X242.5039Y-137.5965

G1X237.6131Y-180.3308

G1X245.2360Y-235.5787

G1X239.8410Y-277.8088

G1X229.1948Y-314.7876

G1X242.9610Y-376.1788

G1 Z0F20000

(Start Block)


G1X239.3952Y-38.1793
G1Z5F20000
(Plotting speed under)
G1 F4000


G1X228.9595Y-75.3687

G1X243.6305Y-137.6648

G1X238.5270Y-180.1863

G1X245.8699Y-235.1543

G1X240.8899Y-277.7994

G1X230.3906Y-314.9250

G1X244.2470Y-376.4065

G1 Z0F20000

(Start Block)


G1X240.0987Y-37.8246
G1Z5F20000
(Plotting speed under)
G1 F4000


G1X230.2210Y-75.5719

G1X244.7571Y-137.7330

G1X239.4409Y-180.0419

G1X246.5038Y-234.7298

G1X241.9388Y-277.7899

G1X231.5863Y-315.0625

G1X245.5331Y-376.6343

G1 Z0F20000

(Start Block)


G1X240.8023Y-37.4698
G1Z5F20000
(Plotting speed under)
G1 F4000


G1X231.4826Y-75.7751

G1X245.8837Y-137.8013

G1X240.3548Y-179.8974

G1X247.1377Y-234.3054

G1X242.9877Y-277.7805

G1X232.7821Y-315.1999

G1X246.8191Y-376.8620

G1 Z0F20000

(Start Block)


G1X241.5059Y-37.1150
G1Z5F20000
(Plotting speed under)
G1 F4000


G1X232.7441Y-75.9783

G1X247.0103Y-137.8695

G1X241.2687Y-179.7530

G1X247.7716Y-233.8809

G1X244.0367Y-277.7711

G1X233.9779Y-315.3373

G1X248.1052Y-377.0897

G1 Z0F20000

(Start Block)


G1X242.2094Y-36.7602
G1Z5F20000
(Plotting speed under)
G1 F4000


G1X234.0057Y-76.1815

G1X248.1368Y-137.9378

G1X242.1826Y-179.6086

G1X248.4054Y-233.4565

G1X245.0856Y-277.7616

G1X235.1736Y-315.4748

G1X249.3912Y-377.3174

G1 Z0F20000

(Start Block)


G1X242.9130Y-36.4055
G1Z5F20000
(Plotting speed under)
G1 F4000


G1X235.2672Y-76.3847

G1X249.2634Y-138.0060

G1X243.0965Y-179.4641

G1X249.0393Y-233.0320

G1X246.1345Y-277.7522

G1X236.3694Y-315.6122

G1X250.6773Y-377.5451

G1 Z0F20000

(Start Block)


G1X243.6165Y-36.0507
G1Z5F20000
(Plotting speed under)
G1 F4000


G1X236.5288Y-76.5880

G1X250.3900Y-138.0743

G1X244.0104Y-179.3197

G1X249.6732Y-232.6076

G1X247.1834Y-277.7428

G1X237.5652Y-315.7496

G1X251.9633Y-377.7728

G1 Z0F20000

(Start Block)


G1X244.3201Y-35.6959
G1Z5F20000
(Plotting speed under)
G1 F4000


G1X237.7903Y-76.7912

G1X251.5166Y-138.1426

G1X244.9243Y-179.1753

G1X250.3071Y-232.1831

G1X248.2323Y-277.7334

G1X238.7609Y-315.8871

G1X253.2494Y-378.0005

G1 Z0F20000

(Start Block)


G1X245.0237Y-35.3412
G1Z5F20000
(Plotting speed under)
G1 F4000


G1X239.0519Y-76.9944

G1X252.6432Y-138.2108

G1X245.8382Y-179.0308

G1X250.9410Y-231.7587

G1X249.2812Y-277.7239

G1X239.9567Y-316.0245

G1X254.5354Y-378.2282

G1 Z0F20000

(Start Block)


G1X245.7272Y-34.9864
G1Z5F20000
(Plotting speed under)
G1 F4000


G1X240.3134Y-77.1976

G1X253.7698Y-138.2791

G1X246.7521Y-178.8864

G1X251.5749Y-231.3342

G1X250.3301Y-277.7145

G1X241.1525Y-316.1619

G1X255.8215Y-378.4560

G1 Z0F20000

(Start Block)


G1X246.4308Y-34.6316
G1Z5F20000
(Plotting speed under)
G1 F4000


G1X241.5749Y-77.4008

G1X254.8964Y-138.3473

G1X247.6660Y-178.7419

G1X252.2088Y-230.9098

G1X251.3790Y-277.7051

G1X242.3483Y-316.2994

G1X257.1075Y-378.6837

G1 Z0F20000

(Start Block)


G1X247.1344Y-34.2768
G1Z5F20000
(Plotting speed under)
G1 F4000


G1X242.8365Y-77.6040

G1X256.0230Y-138.4155

G1X248.5799Y-178.5975

G1X252.8427Y-230.4854

G1X252.4279Y-277.6956

G1X243.5440Y-316.4368

G1X258.3935Y-378.9114

G1 Z0F20000

(Start Block)


G1X247.8379Y-33.9221
G1Z5F20000
(Plotting speed under)
G1 F4000


G1X244.0980Y-77.8072

G1X257.1496Y-138.4838

G1X249.4938Y-178.4531

G1X253.4766Y-230.0609

G1X253.4768Y-277.6862

G1X244.7398Y-316.5742

G1X259.6796Y-379.1391

G1 Z0F20000

(Start Block)


G1X248.5415Y-33.5673
G1Z5F20000
(Plotting speed under)
G1 F4000


G1X245.3596Y-78.0104

G1X258.2762Y-138.5521

G1X250.4076Y-178.3086

G1X254.1105Y-229.6365

G1X254.5257Y-277.6768

G1X245.9356Y-316.7117

G1X260.9656Y-379.3668

G1 Z0F20000

(Start Block)


G1X249.2450Y-33.2125
G1Z5F20000
(Plotting speed under)
G1 F4000


G1X246.6211Y-78.2137

G1X259.4027Y-138.6203

G1X251.3215Y-178.1642

G1X254.7444Y-229.2121

G1X255.5746Y-277.6673

G1X247.1313Y-316.8491

G1X262.2517Y-379.5946

G1 Z0F20000

(Start Block)


G1X249.9486Y-32.8577
G1Z5F20000
(Plotting speed under)
G1 F4000


G1X247.8826Y-78.4169

G1X260.5293Y-138.6886

G1X252.2354Y-178.0198

G1X255.3782Y-228.7876

G1X256.6235Y-277.6579

G1X248.3271Y-316.9865

G1X263.5377Y-379.8223

G1 Z0F20000

(Start Block)


G1X250.6522Y-32.5030
G1Z5F20000
(Plotting speed under)
G1 F4000


G1X249.1442Y-78.6201

G1X261.6559Y-138.7568

G1X253.1493Y-177.8753

G1X256.0121Y-228.3632

G1X257.6724Y-277.6485

G1X249.5229Y-317.1240

G1X264.8238Y-380.0500

G1 Z0F20000

(Start Block)


G1X251.3557Y-32.1482
G1Z5F20000
(Plotting speed under)
G1 F4000


G1X250.4057Y-78.8233

G1X262.7825Y-138.8251

G1X254.0632Y-177.7309

G1X256.6460Y-227.9387

G1X258.7213Y-277.6391

G1X250.7186Y-317.2614

G1X266.1098Y-380.2777

G1 Z0F20000

(Start Block)


G1X252.0593Y-31.7934
G1Z5F20000
(Plotting speed under)
G1 F4000


G1X251.6673Y-79.0265

G1X263.9091Y-138.8933

G1X254.9771Y-177.5864

G1X257.2799Y-227.5143

G1X259.7702Y-277.6296

G1X251.9144Y-317.3988

G1X267.3959Y-380.5054

G1 Z0F20000

(Start Block)


G1X252.7628Y-31.4386
G1Z5F20000
(Plotting speed under)
G1 F4000


G1X252.9288Y-79.2297

G1X265.0357Y-138.9616

G1X255.8910Y-177.4420

G1X257.9138Y-227.0898

G1X260.8191Y-277.6202

G1X253.1102Y-317.5363

G1X268.6819Y-380.7331

G1 Z0F20000

(Start Block)


G1X253.4664Y-31.0839
G1Z5F20000
(Plotting speed under)
G1 F4000


G1X254.1904Y-79.4329

G1X266.1623Y-139.0299

G1X256.8049Y-177.2975

G1X258.5477Y-226.6654

G1X261.8680Y-277.6108

G1X254.3059Y-317.6737

G1X269.9680Y-380.9608

G1 Z0F20000

(Start Block)


G1X254.1699Y-30.7291
G1Z5F20000
(Plotting speed under)
G1 F4000


G1X255.4519Y-79.6361

G1X267.2888Y-139.0981

G1X257.7188Y-177.1531

G1X259.1816Y-226.2409

G1X262.9169Y-277.6014

G1X255.5017Y-317.8112

G1X271.2540Y-381.1885

G1 Z0F20000

(Start Block)


G1X254.8735Y-30.3743
G1Z5F20000
(Plotting speed under)
G1 F4000


G1X256.7135Y-79.8393

G1X268.4154Y-139.1664

G1X258.6327Y-177.0087

G1X259.8155Y-225.8165

G1X263.9658Y-277.5919

G1X256.6975Y-317.9486

G1X272.5401Y-381.4163

G1 Z0F20000

(Start Block)


G1X255.5771Y-30.0195
G1Z5F20000
(Plotting speed under)
G1 F4000


G1X257.9750Y-80.0425

G1X269.5421Y-139.2346

G1X259.5466Y-176.8642

G1X260.4494Y-225.3921

G1X265.0147Y-277.5825

G1X257.8932Y-318.0860

G1X273.8261Y-381.6440

G1 Z0F20000

(Start Block)


G1X256.2806Y-29.6648
G1Z5F20000
(Plotting speed under)
G1 F4000


G1X259.2365Y-80.2457

G1X270.6687Y-139.3029

G1X260.4605Y-176.7198

G1X261.0833Y-224.9676

G1X266.0636Y-277.5730

G1X259.0890Y-318.2235

G1X275.1122Y-381.8717

G1 Z0F20000

(Start Block)


G1X256.9842Y-29.3100
G1Z5F20000
(Plotting speed under)
G1 F4000


G1X260.4981Y-80.4490

G1X271.7952Y-139.3711

G1X261.3744Y-176.5754

G1X261.7172Y-224.5432

G1X267.1126Y-277.5636

G1X260.2848Y-318.3609

G1X276.3983Y-382.0994

G1 Z0F20000

(Start Block)


G1X257.6877Y-28.9552
G1Z5F20000
(Plotting speed under)
G1 F4000


G1X261.7596Y-80.6522

G1X272.9218Y-139.4394

G1X262.2883Y-176.4309

G1X262.3511Y-224.1187

G1X268.1615Y-277.5542

G1X261.4805Y-318.4983

G1X277.6843Y-382.3271

G1 Z0F20000

(Start Block)


G1X258.3913Y-28.6004
G1Z5F20000
(Plotting speed under)
G1 F4000


G1X263.0212Y-80.8554

G1X274.0484Y-139.5076

G1X263.2022Y-176.2865

G1X262.9849Y-223.6943

G1X269.2104Y-277.5448

G1X262.6763Y-318.6358

G1X278.9704Y-382.5548

G1 Z0F20000

(Start Block)


G1X259.0949Y-28.2457
G1Z5F20000
(Plotting speed under)
G1 F4000


G1X264.2827Y-81.0586

G1X275.1750Y-139.5759

G1X264.1161Y-176.1420

G1X263.6188Y-223.2699

G1X270.2593Y-277.5353

G1X263.8721Y-318.7732

G1X280.2564Y-382.7825

G1 Z0F20000


G00 X0.0000 Y0.0000


