$H
G21
G17
G90
G1 Z0F20000
G1 F15000

(Start Layer)

(Start Block)


G1X10.5833Y-47.4927
G1Z5F20000
(Plotting speed under)
G1 F4000


G1X11.3186Y-46.5816

G1X12.2192Y-45.1812

G1X16.0992Y-38.2805

G1X18.0945Y-35.0000

G1X20.1072Y-32.1161

G1X22.0085Y-29.8382

G1X23.1728Y-28.6666

G1X24.3046Y-27.6925

G1X25.4804Y-26.8525

G1X26.6121Y-26.2087

G1X27.7826Y-25.7114

G1X28.8977Y-25.3951

G1X30.0464Y-25.2279

G1X31.2290Y-25.2214

G1X32.7373Y-25.4470

G1X34.6775Y-25.9893

G1X36.8884Y-26.8093

G1X39.3300Y-27.8813

G1X42.0557Y-29.2279

G1X44.9408Y-30.7881

G1X48.0423Y-32.5942

G1X51.2176Y-34.5663

G1X57.5931Y-38.8826

G1X63.4875Y-43.3348

G1X66.1325Y-45.5150

G1X68.5900Y-47.6787

G1X70.7472Y-49.7279

G1X72.6563Y-51.7145

G1X74.4876Y-53.8785

G1X75.8567Y-55.8352

G1X76.7552Y-57.5681

G1X77.0332Y-58.3662

G1X77.1877Y-59.1133

G1X77.2021Y-59.7037

G1X77.1022Y-60.3750

G1X76.5596Y-61.7602

G1X75.5998Y-63.1911

G1X74.1956Y-64.7281

G1X71.8818Y-66.7325

G1X68.8845Y-68.8863

G1X65.2560Y-71.1457

G1X60.9796Y-73.5157

G1X55.8622Y-76.0743

G1X50.3366Y-78.5798

G1X44.8632Y-80.8065

G1X42.7932Y-81.5410

G1X41.7971Y-81.7955

G1X41.7432Y-81.7574

G1X41.8525Y-81.6576

G1X43.9874Y-80.2618

G1X94.4563Y-47.4927

G1 Z0F20000

(Start Block)


G1X10.5833Y-47.4927
G1Z5F20000
(Plotting speed under)
G1 F4000


G1X11.3186Y-46.5816

G1X12.2192Y-45.1812

G1X16.0992Y-38.2805

G1X18.0945Y-35.0000

G1X20.1072Y-32.1161

G1X22.0085Y-29.8382

G1X23.1728Y-28.6666

G1X24.3046Y-27.6925

G1X25.4804Y-26.8525

G1X26.6121Y-26.2087

G1X27.7826Y-25.7114

G1X28.8977Y-25.3951

G1X30.0464Y-25.2279

G1X31.2290Y-25.2214

G1X32.7373Y-25.4470

G1X34.6775Y-25.9893

G1X36.8884Y-26.8093

G1X39.3300Y-27.8813

G1X42.0557Y-29.2279

G1X44.9408Y-30.7881

G1X48.0423Y-32.5942

G1X51.2176Y-34.5663

G1X57.5931Y-38.8826

G1X63.4875Y-43.3348

G1X66.1325Y-45.5150

G1X68.5900Y-47.6787

G1X70.7472Y-49.7279

G1X72.6563Y-51.7145

G1X74.4876Y-53.8785

G1X75.8567Y-55.8352

G1X76.7552Y-57.5681

G1X77.0332Y-58.3662

G1X77.1877Y-59.1133

G1X77.2021Y-59.7037

G1X77.1022Y-60.3750

G1X76.5596Y-61.7602

G1X75.5998Y-63.1911

G1X74.1956Y-64.7281

G1X71.8818Y-66.7325

G1X68.8845Y-68.8863

G1X65.2560Y-71.1457

G1X60.9796Y-73.5157

G1X55.8622Y-76.0743

G1X50.3366Y-78.5798

G1X44.8632Y-80.8065

G1X42.7932Y-81.5410

G1X41.7971Y-81.7955

G1X41.7432Y-81.7574

G1X41.8525Y-81.6576

G1X43.9874Y-80.2618

G1X94.4563Y-47.4927

G1 Z0F20000

(Start Block)


G1X10.5833Y-49.2566
G1Z5F20000
(Plotting speed under)
G1 F4000


G1X11.3386Y-48.3659

G1X12.3134Y-46.9355

G1X16.4736Y-39.9867

G1X18.6154Y-36.6666

G1X20.6973Y-33.8319

G1X22.7237Y-31.5041

G1X23.9116Y-30.3500

G1X25.1437Y-29.3223

G1X26.3334Y-28.4959

G1X27.4723Y-27.8589

G1X28.6440Y-27.3616

G1X29.8484Y-27.0179

G1X30.9892Y-26.8490

G1X32.1576Y-26.8337

G1X33.6345Y-27.0385

G1X35.5019Y-27.5453

G1X37.6219Y-28.3193

G1X39.9583Y-29.3364

G1X42.5675Y-30.6206

G1X45.4271Y-32.1680

G1X48.4057Y-33.9090

G1X51.4589Y-35.8139

G1X57.6102Y-39.9978

G1X63.5244Y-44.4835

G1X66.1921Y-46.6898

G1X68.6808Y-48.8847

G1X70.8761Y-50.9683

G1X72.7654Y-52.9214

G1X74.7233Y-55.2023

G1X76.2001Y-57.2674

G1X77.1833Y-59.0962

G1X77.5020Y-59.9631

G1X77.6762Y-60.7230

G1X77.7119Y-61.2990

G1X77.6348Y-61.9532

G1X77.4405Y-62.6210

G1X77.1349Y-63.3009

G1X76.2135Y-64.6906

G1X74.8444Y-66.1816

G1X72.4721Y-68.1960

G1X69.3727Y-70.3529

G1X65.6070Y-72.6064

G1X61.2987Y-74.8923

G1X56.0070Y-77.4162

G1X50.3092Y-79.8678

G1X44.7756Y-81.9887

G1X42.7126Y-82.6710

G1X41.6293Y-82.9250

G1X41.5538Y-82.8598

G1X41.8422Y-82.6451

G1X47.6942Y-78.8840

G1X94.4563Y-49.2566

G1 Z0F20000

(Start Block)


G1X10.5833Y-51.0205
G1Z5F20000
(Plotting speed under)
G1 F4000


G1X11.3993Y-50.0958

G1X12.4133Y-48.6806

G1X16.8091Y-41.7525

G1X19.1013Y-38.3836

G1X21.3274Y-35.4952

G1X23.4103Y-33.1975

G1X24.6236Y-32.0544

G1X25.8760Y-31.0321

G1X27.0795Y-30.2047

G1X28.3157Y-29.5165

G1X29.4923Y-29.0163

G1X30.6960Y-28.6634

G1X31.9263Y-28.4708

G1X33.0851Y-28.4467

G1X34.5297Y-28.6308

G1X36.2510Y-29.0790

G1X38.2692Y-29.7956

G1X40.5762Y-30.7858

G1X43.0653Y-32.0032

G1X45.7968Y-33.4771

G1X51.5686Y-36.9667

G1X57.5858Y-41.0688

G1X63.4136Y-45.4983

G1X66.1057Y-47.7253

G1X68.5462Y-49.8719

G1X70.7943Y-51.9900

G1X72.7458Y-53.9825

G1X74.8506Y-56.3869

G1X76.4606Y-58.5703

G1X77.5579Y-60.5075

G1X77.9181Y-61.3979

G1X78.1337Y-62.1800

G1X78.2151Y-62.7772

G1X78.1849Y-63.4142

G1X78.0350Y-64.0639

G1X77.7712Y-64.7250

G1X76.8726Y-66.1437

G1X75.5522Y-67.5927

G1X73.1361Y-69.6189

G1X70.0523Y-71.7119

G1X66.2846Y-73.8977

G1X61.8216Y-76.1790

G1X56.3396Y-78.6810

G1X50.4350Y-81.0967

G1X44.7055Y-83.1667

G1X42.5923Y-83.8158

G1X41.4523Y-84.0551

G1X41.3428Y-84.0290

G1X41.3717Y-83.9566

G1X41.9497Y-83.5537

G1X48.8375Y-79.2104

G1X94.4563Y-51.0205

G1 Z0F20000

(Start Block)


G1X10.5833Y-52.7844
G1Z5F20000
(Plotting speed under)
G1 F4000


G1X11.4180Y-51.8793

G1X12.5071Y-50.4347

G1X17.2464Y-43.3636

G1X19.6940Y-39.9564

G1X22.0675Y-37.0326

G1X24.2862Y-34.7058

G1X25.6101Y-33.5231

G1X26.8862Y-32.5369

G1X28.1950Y-31.6888

G1X29.4448Y-31.0385

G1X30.7206Y-30.5402

G1X31.9278Y-30.2271

G1X33.1557Y-30.0707

G1X34.4034Y-30.0832

G1X36.0588Y-30.3613

G1X38.0150Y-30.9439

G1X40.2899Y-31.8342

G1X42.7781Y-32.9884

G1X45.5336Y-34.4301

G1X48.5279Y-36.1515

G1X51.6230Y-38.0740

G1X54.7697Y-40.1630

G1X57.9185Y-42.3839

G1X61.0203Y-44.7021

G1X64.0259Y-47.0830

G1X66.8861Y-49.4920

G1X69.4690Y-51.8173

G1X71.8249Y-54.1051

G1X73.8446Y-56.2515

G1X75.5160Y-58.2363

G1X76.9612Y-60.2379

G1X77.9775Y-62.0211

G1X78.5654Y-63.5745

G1X78.7028Y-64.2811

G1X78.7191Y-64.8879

G1X78.6153Y-65.5194

G1X78.3956Y-66.1613

G1X77.6315Y-67.4714

G1X76.3375Y-68.9422

G1X74.6283Y-70.4302

G1X71.9499Y-72.3268

G1X68.7083Y-74.2651

G1X64.7473Y-76.3348

G1X60.3033Y-78.4070

G1X54.9401Y-80.6589

G1X49.3857Y-82.7565

G1X44.1500Y-84.4940

G1X42.3121Y-85.0019

G1X41.2763Y-85.1859

G1X41.1431Y-85.1543

G1X41.1855Y-85.0591

G1X41.9647Y-84.5253

G1X49.3237Y-79.9746

G1X94.4563Y-52.7844

G1 Z0F20000

(Start Block)


G1X10.5833Y-54.5483
G1Z5F20000
(Plotting speed under)
G1 F4000


G1X11.4774Y-53.6132

G1X12.6007Y-52.1886

G1X17.6213Y-45.0702

G1X20.2183Y-41.6254

G1X22.7344Y-38.6609

G1X25.0851Y-36.2959

G1X26.4329Y-35.1365

G1X27.8139Y-34.1080

G1X29.1370Y-33.2818

G1X30.4856Y-32.6073

G1X31.7657Y-32.1303

G1X33.0649Y-31.8153

G1X34.2872Y-31.6807

G1X35.5236Y-31.7097

G1X37.2140Y-32.0125

G1X39.2774Y-32.6504

G1X41.5853Y-33.5828

G1X44.1871Y-34.8264

G1X47.0579Y-36.3757

G1X50.0653Y-38.1582

G1X53.2609Y-40.2052

G1X56.4957Y-42.4237

G1X59.7156Y-44.7747

G1X62.8666Y-47.2189

G1X65.8948Y-49.7172

G1X68.6600Y-52.1521

G1X71.2100Y-54.5655

G1X73.4266Y-56.8470

G1X75.2921Y-58.9713

G1X76.8444Y-60.9864

G1X78.0433Y-62.8630

G1X78.8278Y-64.5164

G1X79.2092Y-65.9873

G1X79.2319Y-66.5592

G1X79.1537Y-67.1146

G1X78.9560Y-67.7406

G1X78.6472Y-68.3748

G1X77.6626Y-69.7275

G1X76.1905Y-71.1648

G1X74.3275Y-72.6099

G1X71.4873Y-74.4396

G1X68.1166Y-76.2966

G1X64.0562Y-78.2650

G1X59.5535Y-80.2198

G1X54.1796Y-82.3222

G1X48.7947Y-84.2137

G1X43.8306Y-85.7344

G1X42.0826Y-86.1703

G1X41.1227Y-86.3172

G1X40.9418Y-86.2299

G1X41.8082Y-85.6094

G1X49.2971Y-81.0635

G1X94.4563Y-54.5483

G1 Z0F20000

(Start Block)


G1X10.5833Y-56.3122
G1Z5F20000
(Plotting speed under)
G1 F4000


G1X11.4950Y-55.3959

G1X12.6941Y-53.9423

G1X17.9961Y-46.7768

G1X20.7433Y-43.2947

G1X23.4029Y-40.2902

G1X25.8863Y-37.8881

G1X27.3433Y-36.6838

G1X28.7437Y-35.6817

G1X30.0799Y-34.8762

G1X31.4363Y-34.2174

G1X32.8107Y-33.7221

G1X34.1077Y-33.4222

G1X35.4167Y-33.2928

G1X36.6412Y-33.3373

G1X38.3750Y-33.6666

G1X40.4747Y-34.3364

G1X42.8959Y-35.3432

G1X45.5263Y-36.6365

G1X48.4168Y-38.2383

G1X51.4337Y-40.0736

G1X54.6284Y-42.1739

G1X57.8511Y-44.4434

G1X61.1465Y-46.9182

G1X64.2594Y-49.4067

G1X67.2359Y-51.9418

G1X69.9384Y-54.4039

G1X72.4129Y-56.8349

G1X74.5440Y-59.1234

G1X76.3153Y-61.2439

G1X77.7619Y-63.2438

G1X78.8126Y-65.0321

G1X79.4696Y-66.5982

G1X79.7441Y-67.9959

G1X79.5978Y-69.0839

G1X79.3544Y-69.6994

G1X78.9615Y-70.3837

G1X77.8735Y-71.7061

G1X76.3064Y-73.1044

G1X74.2649Y-74.5673

G1X71.3215Y-76.3301

G1X67.7423Y-78.1699

G1X63.6076Y-80.0426

G1X59.0590Y-81.8901

G1X53.6706Y-83.8605

G1X48.3157Y-85.6112

G1X43.5860Y-86.9469

G1X41.9022Y-87.3260

G1X40.9522Y-87.4493

G1X40.7639Y-87.4205

G1X40.7418Y-87.3442

G1X41.6533Y-86.6930

G1X49.2740Y-82.1556

G1X94.4563Y-56.3122

G1 Z0F20000

(Start Block)


G1X10.5833Y-58.0761
G1Z5F20000
(Plotting speed under)
G1 F4000


G1X11.5526Y-57.1335

G1X12.7804Y-55.7042

G1X18.3442Y-48.5172

G1X21.2314Y-45.0076

G1X24.0254Y-41.9687

G1X26.6330Y-39.5304

G1X28.1075Y-38.3466

G1X29.6087Y-37.3004

G1X31.0426Y-36.4619

G1X32.4027Y-35.8217

G1X33.7754Y-35.3387

G1X35.0657Y-35.0434

G1X36.3627Y-34.9115

G1X37.6643Y-34.9556

G1X39.4690Y-35.3042

G1X41.5911Y-35.9939

G1X44.0287Y-37.0259

G1X46.6686Y-38.3478

G1X49.5617Y-39.9820

G1X52.6727Y-41.9153

G1X55.8569Y-44.0579

G1X59.0600Y-46.3680

G1X62.3259Y-48.8818

G1X65.4012Y-51.4045

G1X68.3317Y-53.9688

G1X71.0632Y-56.5332

G1X73.4687Y-58.9784

G1X75.5242Y-61.2721

G1X77.2669Y-63.4598

G1X78.6121Y-65.4415

G1X79.5563Y-67.2016

G1X80.1024Y-68.7297

G1X80.2576Y-69.9747

G1X80.0247Y-71.0468

G1X79.2976Y-72.3209

G1X78.1292Y-73.6109

G1X76.4045Y-75.0304

G1X74.2802Y-76.4447

G1X71.2532Y-78.1408

G1X67.6037Y-79.9023

G1X63.4137Y-81.6865

G1X58.8258Y-83.4376

G1X53.5407Y-85.2522

G1X48.1632Y-86.8971

G1X43.4900Y-88.1205

G1X41.8237Y-88.4636

G1X40.8083Y-88.5822

G1X40.5753Y-88.5515

G1X40.5369Y-88.4673

G1X41.4349Y-87.8173

G1X49.1007Y-83.3383

G1X63.2565Y-75.3923

G1X94.4563Y-58.0761

G1 Z0F20000

(Start Block)


G1X10.5833Y-59.8400
G1Z5F20000
(Plotting speed under)
G1 F4000


G1X11.5692Y-58.9153

G1X12.8733Y-57.4575

G1X18.7907Y-50.1350

G1X21.8358Y-46.5892

G1X24.6956Y-43.5995

G1X27.4373Y-41.1256

G1X28.9333Y-39.9631

G1X30.4514Y-38.9338

G1X31.8965Y-38.1059

G1X33.3539Y-37.4330

G1X34.7283Y-36.9587

G1X36.1076Y-36.6511

G1X37.4889Y-36.5248

G1X38.7775Y-36.5838

G1X40.5644Y-36.9427

G1X42.7087Y-37.6528

G1X45.1623Y-38.7103

G1X47.8111Y-40.0614

G1X50.7063Y-41.7285

G1X53.8118Y-43.6976

G1X56.9829Y-45.8766

G1X60.1657Y-48.2230

G1X63.4030Y-50.7726

G1X66.4434Y-53.3273

G1X69.3320Y-55.9199

G1X72.0149Y-58.5076

G1X74.3669Y-60.9696

G1X76.4262Y-63.3483

G1X78.0943Y-65.5343

G1X79.3608Y-67.5056

G1X80.2229Y-69.2465

G1X80.6844Y-70.7470

G1X80.7589Y-71.8895

G1X80.4364Y-72.9999

G1X79.6242Y-74.2442

G1X78.3825Y-75.4979

G1X76.5898Y-76.8714

G1X74.4091Y-78.2341

G1X71.3271Y-79.8615

G1X67.6329Y-81.5446

G1X63.4081Y-83.2425

G1X58.6585Y-84.9484

G1X53.2304Y-86.6925

G1X47.9771Y-88.1880

G1X43.3803Y-89.2982

G1X41.6892Y-89.6130

G1X40.6683Y-89.7160

G1X40.3881Y-89.6826

G1X40.3321Y-89.5902

G1X41.2146Y-88.9429

G1X48.8171Y-84.5835

G1X63.1525Y-76.7408

G1X94.4563Y-59.8400

G1 Z0F20000

(Start Block)


G1X10.5833Y-61.6038
G1Z5F20000
(Plotting speed under)
G1 F4000


G1X11.6304Y-60.6507

G1X12.9659Y-59.2107

G1X19.1664Y-51.8422

G1X22.2822Y-48.3471

G1X25.2815Y-45.3121

G1X28.1550Y-42.7932

G1X29.7600Y-41.5804

G1X31.2941Y-40.5672

G1X32.8412Y-39.7033

G1X34.3052Y-39.0447

G1X35.7729Y-38.5532

G1X37.1489Y-38.2594

G1X38.5217Y-38.1412

G1X39.7974Y-38.2018

G1X41.5911Y-38.5628

G1X43.7490Y-39.2825

G1X46.2109Y-40.3555

G1X48.8626Y-41.7268

G1X51.7550Y-43.4188

G1X54.8518Y-45.4169

G1X58.0082Y-47.6269

G1X61.1704Y-50.0051

G1X64.3808Y-52.5874

G1X67.3895Y-55.1723

G1X70.3271Y-57.8745

G1X72.9604Y-60.4852

G1X75.2580Y-62.9635

G1X77.2568Y-65.3515

G1X78.8606Y-67.5389

G1X80.0599Y-69.5036

G1X80.8306Y-71.1715

G1X81.2346Y-72.6568

G1X81.2503Y-73.8010

G1X80.8622Y-74.8913

G1X79.9852Y-76.1071

G1X78.6146Y-77.3847

G1X76.7489Y-78.7147

G1X74.5054Y-80.0284

G1X71.2400Y-81.6454

G1X67.4801Y-83.2510

G1X63.2039Y-84.8622

G1X58.4175Y-86.4718

G1X52.9682Y-88.1058

G1X47.7130Y-89.4928

G1X43.2088Y-90.4884

G1X41.5627Y-90.7622

G1X40.5361Y-90.8509

G1X40.2035Y-90.8143

G1X40.1270Y-90.7132

G1X40.6692Y-90.2763

G1X42.2287Y-89.3293

G1X48.5330Y-85.8272

G1X62.9316Y-78.1525

G1X94.4563Y-61.6038

G1 Z0F20000

(Start Block)


G1X10.5833Y-63.3677
G1Z5F20000
(Plotting speed under)
G1 F4000


G1X11.6431Y-62.4346

G1X13.0511Y-60.9716

G1X19.5131Y-53.5817

G1X22.8511Y-49.9732

G1X25.9895Y-46.9099

G1X28.9025Y-44.4365

G1X30.5235Y-43.2425

G1X32.1598Y-42.1869

G1X33.7140Y-41.3376

G1X35.2719Y-40.6510

G1X36.7372Y-40.1705

G1X38.1064Y-39.8806

G1X39.4678Y-39.7593

G1X40.8182Y-39.8198

G1X42.6887Y-40.2025

G1X44.7893Y-40.9123

G1X47.2597Y-42.0010

G1X49.9141Y-43.3928

G1X52.8035Y-45.1101

G1X55.7936Y-47.0704

G1X58.9341Y-49.3057

G1X62.0763Y-51.7115

G1X65.2618Y-54.3234

G1X68.2425Y-56.9369

G1X71.1474Y-59.6671

G1X73.7455Y-62.3026

G1X76.0058Y-64.8014

G1X77.9644Y-67.2054

G1X79.5266Y-69.4031

G1X80.7163Y-71.4366

G1X81.4322Y-73.0957

G1X81.7785Y-74.5648

G1X81.7450Y-75.6517

G1X81.3154Y-76.7183

G1X80.3995Y-77.9025

G1X78.9952Y-79.1414

G1X77.1006Y-80.4260

G1X74.7275Y-81.7448

G1X71.4234Y-83.2935

G1X67.6324Y-84.8250

G1X63.1927Y-86.4018

G1X58.3814Y-87.9206

G1X52.9108Y-89.4545

G1X47.6346Y-90.7479

G1X43.0992Y-91.6663

G1X40.4068Y-91.9870

G1X40.0202Y-91.9461

G1X39.9250Y-91.8261

G1X40.4771Y-91.3827

G1X42.0565Y-90.4361

G1X48.2486Y-87.0694

G1X62.7099Y-79.5628

G1X94.4563Y-63.3677

G1 Z0F20000

(Start Block)


G1X10.5833Y-65.1316
G1Z5F20000
(Plotting speed under)
G1 F4000


G1X11.7050Y-64.1706

G1X13.1433Y-62.7245

G1X19.8879Y-55.2882

G1X23.2944Y-51.7286

G1X26.5740Y-48.6213

G1X29.6193Y-46.1034

G1X31.3508Y-44.8605

G1X33.0027Y-43.8206

G1X34.5675Y-42.9810

G1X36.1316Y-42.2985

G1X37.5985Y-41.8157

G1X39.0561Y-41.5030

G1X40.5001Y-41.3756

G1X41.8377Y-41.4377

G1X43.7161Y-41.8228

G1X45.8298Y-42.5423

G1X48.2228Y-43.6048

G1X50.8746Y-45.0077

G1X53.7570Y-46.7418

G1X56.7358Y-48.7234

G1X59.8603Y-50.9841

G1X62.9823Y-53.4176

G1X66.1428Y-56.0592

G1X69.1852Y-58.7848

G1X72.0510Y-61.5437

G1X74.6059Y-64.2029

G1X76.8195Y-66.7198

G1X78.7269Y-69.1359

G1X80.2353Y-71.3386

G1X81.3673Y-73.3696

G1X82.0279Y-75.0191

G1X82.3122Y-76.4210

G1X82.2364Y-77.5002

G1X81.7661Y-78.5432

G1X80.7562Y-79.7507

G1X79.2997Y-80.9510

G1X77.2663Y-82.2434

G1X74.8391Y-83.5088

G1X71.4832Y-84.9879

G1X67.6516Y-86.4437

G1X63.1797Y-87.9354

G1X58.3442Y-89.3650

G1X52.9819Y-90.7691

G1X47.6663Y-91.9794

G1X43.1478Y-92.8205

G1X40.3183Y-93.1245

G1X39.8385Y-93.0784

G1X39.7193Y-92.9488

G1X40.2585Y-92.5066

G1X41.8348Y-91.5717

G1X47.8754Y-88.3558

G1X62.3685Y-81.0310

G1X94.4563Y-65.1316

G1 Z0F20000

(Start Block)


G1X10.5833Y-66.8955
G1Z5F20000
(Plotting speed under)
G1 F4000


G1X11.7168Y-65.9536

G1X13.2278Y-64.4848

G1X20.3119Y-56.9432

G1X23.8650Y-53.3561

G1X27.2845Y-50.2213

G1X30.3669Y-47.7466

G1X32.1138Y-46.5220

G1X33.8688Y-45.4410

G1X35.5323Y-44.5708

G1X37.0984Y-43.9051

G1X38.6541Y-43.4084

G1X40.1042Y-43.1106

G1X41.5361Y-42.9919

G1X42.8579Y-43.0557

G1X44.7435Y-43.4433

G1X46.8704Y-44.1724

G1X49.2715Y-45.2503

G1X51.9261Y-46.6740

G1X54.7107Y-48.3728

G1X57.6783Y-50.3758

G1X60.7868Y-52.6620

G1X63.8886Y-55.1234

G1X67.0239Y-57.7951

G1X70.0370Y-60.5505

G1X72.8695Y-63.3379

G1X75.3884Y-66.0220

G1X77.5640Y-68.5594

G1X79.4303Y-70.9913

G1X80.8963Y-73.2038

G1X81.9834Y-75.2381

G1X82.6015Y-76.8844

G1X82.8432Y-78.2767

G1X82.7245Y-79.3467

G1X82.2145Y-80.3661

G1X81.1657Y-81.5407

G1X79.6770Y-82.7030

G1X77.6150Y-83.9492

G1X75.1646Y-85.1644

G1X71.7859Y-86.5791

G1X67.8014Y-88.0106

G1X63.3033Y-89.4224

G1X58.4439Y-90.7693

G1X53.0537Y-92.0856

G1X47.6993Y-93.2137

G1X43.1213Y-93.9910

G1X40.2401Y-94.2637

G1X39.6774Y-94.2162

G1X39.5135Y-94.0715

G1X40.0399Y-93.6304

G1X41.5143Y-92.7622

G1X47.4142Y-89.6827

G1X62.1446Y-82.4371

G1X94.4563Y-66.8955

G1 Z0F20000

(Start Block)


G1X10.5833Y-68.6594
G1Z5F20000
(Plotting speed under)
G1 F4000


G1X11.7763Y-67.6930

G1X13.3694Y-66.1882

G1X20.6569Y-58.6813

G1X24.3504Y-55.0669

G1X27.9063Y-51.8992

G1X31.1145Y-49.3899

G1X32.8762Y-48.1829

G1X34.6423Y-47.1138

G1X36.3125Y-46.2485

G1X37.9733Y-45.5462

G1X39.5274Y-45.0498

G1X41.0619Y-44.7318

G1X42.4833Y-44.6099

G1X43.8780Y-44.6737

G1X45.7710Y-45.0638

G1X47.9111Y-45.8026

G1X50.3204Y-46.8962

G1X52.8867Y-48.2880

G1X55.6647Y-50.0032

G1X58.6211Y-52.0275

G1X61.7136Y-54.3394

G1X64.7951Y-56.8290

G1X67.8124Y-59.4474

G1X70.8006Y-62.2313

G1X73.6059Y-65.0471

G1X76.0966Y-67.7577

G1X78.3075Y-70.3995

G1X80.1324Y-72.8473

G1X81.5556Y-75.0694

G1X82.5974Y-77.1068

G1X83.1727Y-78.7493

G1X83.3714Y-80.1316

G1X83.2281Y-81.1374

G1X82.6630Y-82.1835

G1X81.5803Y-83.3232

G1X79.9874Y-84.4963

G1X77.8876Y-85.6933

G1X75.4084Y-86.8554

G1X71.8806Y-88.2476

G1X67.8681Y-89.6012

G1X63.3509Y-90.9294

G1X58.4784Y-92.1899

G1X52.9451Y-93.4421

G1X47.7004Y-94.4568

G1X43.1637Y-95.1560

G1X40.1676Y-95.4047

G1X39.4994Y-95.3491

G1X39.3376Y-95.2764

G1X39.3102Y-95.1836

G1X39.8475Y-94.7372

G1X41.2925Y-93.8972

G1X47.0407Y-90.9603

G1X61.7997Y-83.8983

G1X94.4563Y-68.6594

G1 Z0F20000

(Start Block)


G1X10.5833Y-70.4233
G1Z5F20000
(Plotting speed under)
G1 F4000


G1X11.8364Y-69.4328

G1X13.4541Y-67.9487

G1X21.0828Y-60.3379

G1X24.9232Y-56.6965

G1X28.5276Y-53.5767

G1X31.8623Y-51.0334

G1X33.7318Y-49.7841

G1X35.5084Y-48.7342

G1X37.2777Y-47.8392

G1X38.9401Y-47.1534

G1X40.4917Y-46.6670

G1X42.0198Y-46.3529

G1X43.5187Y-46.2262

G1X44.8978Y-46.2917

G1X46.7987Y-46.6843

G1X48.9520Y-47.4330

G1X51.3693Y-48.5424

G1X53.9381Y-49.9547

G1X56.7130Y-51.6950

G1X59.6601Y-53.7485

G1X62.6408Y-56.0164

G1X65.7018Y-58.5342

G1X68.6944Y-61.1822

G1X71.6530Y-63.9964

G1X74.4246Y-66.8411

G1X76.8788Y-69.5770

G1X79.0498Y-72.2402

G1X80.8331Y-74.7037

G1X82.2132Y-76.9354

G1X83.2093Y-78.9756

G1X83.7414Y-80.6141

G1X83.8970Y-81.9858

G1X83.7124Y-82.9809

G1X83.1071Y-84.0024

G1X81.9871Y-85.1098

G1X80.3620Y-86.2441

G1X78.2348Y-87.3962

G1X75.6219Y-88.5552

G1X72.0578Y-89.8805

G1X68.0159Y-91.1622

G1X63.4738Y-92.4133

G1X58.5781Y-93.5940

G1X53.1479Y-94.7342

G1X47.8492Y-95.6780

G1X43.2282Y-96.3235

G1X40.1547Y-96.5480

G1X39.3467Y-96.4882

G1X39.1457Y-96.4088

G1X39.1037Y-96.3061

G1X39.3387Y-96.0613

G1X39.9574Y-95.6576

G1X42.3386Y-94.3687

G1X51.6650Y-89.8690

G1X64.7447Y-83.8563

G1X94.4563Y-70.4233

G1 Z0F20000

(Start Block)


G1X10.5833Y-72.1872
G1Z5F20000
(Plotting speed under)
G1 F4000


G1X11.8472Y-71.2151

G1X13.5384Y-69.7090

G1X21.4269Y-62.0752

G1X25.4082Y-58.4067

G1X29.1485Y-55.2538

G1X32.6102Y-52.6770

G1X34.4940Y-51.4447

G1X36.3748Y-50.3550

G1X38.1503Y-49.4731

G1X39.9069Y-48.7611

G1X41.5463Y-48.2613

G1X43.0664Y-47.9612

G1X44.5533Y-47.8426

G1X45.9174Y-47.9096

G1X47.7526Y-48.2841

G1X49.9124Y-49.0307

G1X52.3320Y-50.1447

G1X54.8988Y-51.5678

G1X57.6672Y-53.3247

G1X60.6031Y-55.3998

G1X63.5682Y-57.6929

G1X66.6087Y-60.2392

G1X69.5765Y-62.9169

G1X72.5052Y-65.7617

G1X75.2428Y-68.6355

G1X77.6603Y-71.3968

G1X79.7911Y-74.0815

G1X81.5323Y-76.5607

G1X82.8689Y-78.8018

G1X83.8190Y-80.8445

G1X84.2962Y-82.4219

G1X84.4223Y-83.7911

G1X84.2154Y-84.7710

G1X83.5935Y-85.7666

G1X82.3995Y-86.8892

G1X80.7488Y-87.9831

G1X78.6021Y-89.0889

G1X75.9753Y-90.1963

G1X72.4003Y-91.4564

G1X68.3507Y-92.6692

G1X63.8002Y-93.8473

G1X58.7515Y-94.9833

G1X53.3013Y-96.0411

G1X47.9667Y-96.9102

G1X43.3679Y-97.4889

G1X40.1522Y-97.6938

G1X39.1978Y-97.6277

G1X38.9552Y-97.5411

G1X38.8972Y-97.4286

G1X39.1057Y-97.1974

G1X39.7038Y-96.8034

G1X42.0585Y-95.5458

G1X51.3900Y-91.1568

G1X64.5369Y-85.2923

G1X94.4563Y-72.1872

G1 Z0F20000

(Start Block)


G1X10.5833Y-73.9511
G1Z5F20000
(Plotting speed under)
G1 F4000


G1X11.9078Y-72.9553

G1X13.6225Y-71.4688

G1X21.7700Y-63.8116

G1X25.8923Y-60.1162

G1X29.7691Y-56.9305

G1X33.3582Y-54.3208

G1X35.3506Y-53.0473

G1X37.2413Y-51.9762

G1X39.0228Y-51.1069

G1X40.7818Y-50.4016

G1X42.4201Y-49.9018

G1X44.0243Y-49.5822

G1X45.5017Y-49.4605

G1X46.9368Y-49.5275

G1X48.8513Y-49.9246

G1X50.9460Y-50.6580

G1X53.2825Y-51.7403

G1X55.8421Y-53.1697

G1X58.5984Y-54.9377

G1X61.4226Y-56.9574

G1X64.3666Y-59.2631

G1X67.3830Y-61.8264

G1X70.4152Y-64.6101

G1X73.3110Y-67.4794

G1X76.0132Y-70.3772

G1X78.3945Y-73.1601

G1X80.4877Y-75.8636

G1X82.1917Y-78.3575

G1X83.4919Y-80.6085

G1X84.4058Y-82.6562

G1X84.8519Y-84.2332

G1X84.9476Y-85.5971

G1X84.7188Y-86.5613

G1X84.0804Y-87.5317

G1X82.8740Y-88.6205

G1X81.2166Y-89.6763

G1X79.0675Y-90.7386

G1X76.3291Y-91.8386

G1X72.7433Y-93.0351

G1X68.5507Y-94.2157

G1X63.9872Y-95.3186

G1X58.9254Y-96.3754

G1X53.4558Y-97.3522

G1X48.2025Y-98.1319

G1X43.5160Y-98.6607

G1X40.2180Y-98.8428

G1X39.0535Y-98.7680

G1X38.7663Y-98.6736

G1X38.6927Y-98.5401

G1X38.9249Y-98.2932

G1X39.5471Y-97.8918

G1X41.9532Y-96.6360

G1X51.2908Y-92.3652

G1X64.3893Y-86.7010

G1X94.4563Y-73.9511

G1 Z0F20000

(Start Block)


G1X10.5833Y-75.7150
G1Z5F20000
(Plotting speed under)
G1 F4000


G1X11.9689Y-74.6960

G1X13.7670Y-73.1749

G1X22.0266Y-65.6241

G1X26.1013Y-62.0563

G1X29.9163Y-58.9682

G1X33.3415Y-56.4772

G1X35.2534Y-55.2297

G1X37.1599Y-54.1063

G1X38.9574Y-53.1731

G1X40.6406Y-52.4260

G1X42.2976Y-51.8278

G1X43.8322Y-51.4134

G1X45.3316Y-51.1582

G1X46.7054Y-51.0751

G1X47.7914Y-51.1274

G1X48.7849Y-51.2782

G1X51.1081Y-51.9463

G1X53.7319Y-53.0824

G1X56.7131Y-54.7269

G1X59.9258Y-56.8241

G1X63.2170Y-59.2621

G1X66.7063Y-62.1322

G1X70.1271Y-65.2219

G1X73.5702Y-68.6251

G1X76.6761Y-71.9946

G1X79.4488Y-75.3267

G1X81.7453Y-78.4495

G1X83.5209Y-81.2932

G1X84.7424Y-83.8008

G1X85.1356Y-84.9061

G1X85.3873Y-85.9269

G1X85.4898Y-86.8550

G1X85.4431Y-87.6368

G1X85.0962Y-88.5906

G1X84.2960Y-89.5766

G1X83.0903Y-90.5335

G1X81.4382Y-91.5022

G1X79.3370Y-92.4750

G1X76.7958Y-93.4430

G1X73.9603Y-94.3593

G1X70.6291Y-95.2895

G1X66.4129Y-96.3071

G1X61.9178Y-97.2454

G1X57.1471Y-98.1077

G1X52.1663Y-98.8767

G1X47.2875Y-99.4940

G1X43.0403Y-99.8849

G1X40.0208Y-99.9929

G1X39.1119Y-99.9391

G1X38.5939Y-99.8145

G1X38.4920Y-99.6401

G1X38.7459Y-99.3881

G1X40.5496Y-98.3647

G1X44.1293Y-96.6705

G1X49.5646Y-94.2752

G1X63.4319Y-88.4444

G1X94.4563Y-75.7150

G1 Z0F20000

(Start Block)


G1X10.5833Y-77.4789
G1Z5F20000
(Plotting speed under)
G1 F4000


G1X11.9788Y-76.4775

G1X13.8512Y-74.9350

G1X22.3667Y-67.3576

G1X26.5808Y-63.7613

G1X30.5316Y-60.6396

G1X34.0838Y-58.1140

G1X36.1058Y-56.8247

G1X38.0228Y-55.7203

G1X39.8273Y-54.8011

G1X41.6074Y-54.0260

G1X43.2637Y-53.4400

G1X44.7950Y-53.0325

G1X46.2881Y-52.7791

G1X47.7374Y-52.6921

G1X48.8123Y-52.7454

G1X49.8032Y-52.8959

G1X52.1444Y-53.5721

G1X54.7793Y-54.7241

G1X57.6744Y-56.3375

G1X60.8798Y-58.4541

G1X64.1576Y-60.9176

G1X67.5333Y-63.7377

G1X70.9305Y-66.8569

G1X74.2601Y-70.2052

G1X77.4191Y-73.6984

G1X80.1571Y-77.0632

G1X82.4173Y-80.2144

G1X84.1554Y-83.0804

G1X85.3386Y-85.6026

G1X85.7127Y-86.7120

G1X85.9452Y-87.7346

G1X86.0281Y-88.6622

G1X85.9627Y-89.4410

G1X85.8124Y-89.9550

G1X85.5664Y-90.4222

G1X84.7311Y-91.3804

G1X83.4297Y-92.3487

G1X81.7384Y-93.2788

G1X79.6048Y-94.2077

G1X77.0374Y-95.1270

G1X74.0580Y-96.0274

G1X70.7026Y-96.8983

G1X66.4667Y-97.8445

G1X61.8166Y-98.7350

G1X56.9001Y-99.5399

G1X52.0558Y-100.2086

G1X47.1755Y-100.7507

G1X42.9202Y-101.0784

G1X39.8783Y-101.1436

G1X38.9149Y-101.0730

G1X38.3932Y-100.9394

G1X38.2837Y-100.7625

G1X38.5480Y-100.4971

G1X40.3732Y-99.4790

G1X43.9832Y-97.8134

G1X49.3551Y-95.5138

G1X63.2805Y-89.8436

G1X94.4563Y-77.4789

G1 Z0F20000

(Start Block)


G1X10.5833Y-79.2428
G1Z5F20000
(Plotting speed under)
G1 F4000


G1X11.9881Y-78.2582

G1X13.9350Y-76.6947

G1X22.7937Y-69.0155

G1X27.1532Y-65.3906

G1X31.1466Y-62.3107

G1X34.8264Y-59.7513

G1X38.7902Y-57.3861

G1X40.6973Y-56.4292

G1X42.4813Y-55.6630

G1X44.1388Y-55.0806

G1X45.7577Y-54.6516

G1X47.3310Y-54.3901

G1X48.7688Y-54.3090

G1X49.8329Y-54.3633

G1X50.8209Y-54.5134

G1X53.1753Y-55.1960

G1X55.8158Y-56.3606

G1X58.7086Y-57.9923

G1X61.8107Y-60.0665

G1X65.0688Y-62.5485

G1X68.4187Y-65.3917

G1X71.7844Y-68.5377

G1X75.0769Y-71.9148

G1X78.1183Y-75.3468

G1X80.8227Y-78.7400

G1X83.0506Y-81.9172

G1X84.7583Y-84.8055

G1X85.9388Y-87.4131

G1X86.2921Y-88.5240

G1X86.5039Y-89.5462

G1X86.5665Y-90.4711

G1X86.4823Y-91.2454

G1X86.3202Y-91.7504

G1X86.0652Y-92.2067

G1X85.2153Y-93.1390

G1X83.9041Y-94.0763

G1X82.1221Y-95.0115

G1X79.8707Y-95.9368

G1X77.2780Y-96.8082

G1X74.2788Y-97.6564

G1X70.7747Y-98.5018

G1X66.3795Y-99.4044

G1X61.7144Y-100.2177

G1X56.7910Y-100.9437

G1X51.8154Y-101.5514

G1X46.9503Y-102.0149

G1X42.7119Y-102.2752

G1X39.6805Y-102.2924

G1X38.7176Y-102.2065

G1X38.1923Y-102.0642

G1X38.0753Y-101.8849

G1X38.3312Y-101.6201

G1X40.1516Y-100.6162

G1X43.7746Y-98.9849

G1X49.1764Y-96.7400

G1X63.1920Y-91.2185

G1X94.4563Y-79.2428

G1 Z0F20000

(Start Block)


G1X10.5833Y-81.0066
G1Z5F20000
(Plotting speed under)
G1 F4000


G1X12.0494Y-79.9993

G1X14.0817Y-78.4027

G1X23.1333Y-70.7486

G1X27.6326Y-67.0955

G1X31.7615Y-63.9818

G1X35.4716Y-61.4515

G1X37.6188Y-60.1324

G1X39.6534Y-59.0005

G1X41.5673Y-58.0573

G1X43.3551Y-57.2998

G1X45.1050Y-56.6929

G1X46.7205Y-56.2708

G1X48.2876Y-56.0108

G1X49.7172Y-55.9260

G1X50.7735Y-55.9734

G1X51.8393Y-56.1311

G1X54.1320Y-56.7924

G1X56.7778Y-57.9593

G1X59.6701Y-59.6019

G1X62.7654Y-61.6950

G1X66.0103Y-64.2025

G1X69.3404Y-67.0769

G1X72.5909Y-70.1694

G1X75.8554Y-73.5803

G1X78.8650Y-77.0472

G1X81.5345Y-80.4739

G1X83.7256Y-83.6803

G1X85.3954Y-86.5915

G1X86.5361Y-89.2147

G1X86.8701Y-90.3299

G1X87.0623Y-91.3540

G1X87.1051Y-92.2783

G1X87.0021Y-93.0496

G1X86.8286Y-93.5452

G1X86.5655Y-93.9901

G1X85.6530Y-94.9375

G1X84.3183Y-95.8410

G1X82.5199Y-96.7375

G1X80.2588Y-97.6192

G1X77.6622Y-98.4447

G1X74.5380Y-99.2742

G1X71.0284Y-100.0623

G1X66.6312Y-100.8971

G1X61.8231Y-101.6628

G1X56.7592Y-102.3331

G1X51.7862Y-102.8670

G1X46.8053Y-103.2691

G1X42.5733Y-103.4677

G1X39.4758Y-103.4398

G1X38.5171Y-103.3390

G1X37.9904Y-103.1885

G1X37.8703Y-102.9958

G1X38.1330Y-102.7292

G1X39.9757Y-101.7319

G1X43.6297Y-100.1303

G1X49.0699Y-97.9386

G1X63.0409Y-92.6185

G1X94.4563Y-81.0066

G1 Z0F20000

(Start Block)


G1X10.5833Y-82.7705
G1Z5F20000
(Plotting speed under)
G1 F4000


G1X12.1112Y-81.7407

G1X14.1657Y-80.1626

G1X23.4721Y-72.4809

G1X28.1114Y-68.7999

G1X32.3763Y-65.6527

G1X36.2141Y-63.0886

G1X38.3750Y-61.7859

G1X40.4202Y-60.6656

G1X42.3421Y-59.7288

G1X44.2289Y-58.9364

G1X45.9802Y-58.3330

G1X47.6832Y-57.8900

G1X49.2445Y-57.6316

G1X50.7482Y-57.5429

G1X51.7945Y-57.5914

G1X52.8570Y-57.7487

G1X55.1627Y-58.4161

G1X57.8143Y-59.5955

G1X60.6149Y-61.2003

G1X63.6974Y-63.3058

G1X66.9230Y-65.8317

G1X70.2274Y-68.7293

G1X73.4471Y-71.8480

G1X76.6747Y-75.2880

G1X79.6435Y-78.7836

G1X82.2692Y-82.2368

G1X84.4157Y-85.4652

G1X86.0410Y-88.3926

G1X87.1370Y-91.0251

G1X87.4501Y-92.1419

G1X87.6215Y-93.1656

G1X87.6438Y-94.0874

G1X87.5217Y-94.8540

G1X87.3367Y-95.3409

G1X87.0650Y-95.7754

G1X86.1378Y-96.6970

G1X84.7234Y-97.6095

G1X82.9032Y-98.4693

G1X80.6254Y-99.3097

G1X77.9020Y-100.1228

G1X74.7581Y-100.9001

G1X71.0990Y-101.6584

G1X66.5425Y-102.4459

G1X61.7198Y-103.1352

G1X56.6496Y-103.7282

G1X51.5459Y-104.1988

G1X46.5805Y-104.5250

G1X42.2778Y-104.6609

G1X39.2234Y-104.5823

G1X38.2838Y-104.4647

G1X37.7730Y-104.3039

G1X37.6652Y-104.1067

G1X37.9349Y-103.8385

G1X39.8003Y-102.8485

G1X43.4856Y-101.2773

G1X48.9645Y-99.1393

G1X62.8899Y-94.0184

G1X94.4563Y-82.7705

G1 Z0F20000

(Start Block)


G1X10.5833Y-84.5344
G1Z5F20000
(Plotting speed under)
G1 F4000


G1X12.1198Y-83.5208

G1X14.2493Y-81.9222

G1X23.8102Y-74.2126

G1X28.5897Y-70.5038

G1X32.9910Y-67.3235

G1X36.9570Y-64.7261

G1X39.1310Y-63.4392

G1X41.2838Y-62.2805

G1X43.3074Y-61.3139

G1X45.1959Y-60.5375

G1X46.9463Y-59.9454

G1X48.6458Y-59.5092

G1X50.2864Y-59.2428

G1X51.7788Y-59.1599

G1X52.8153Y-59.2093

G1X53.8746Y-59.3662

G1X56.1935Y-60.0398

G1X58.7654Y-61.1879

G1X61.6492Y-62.8546

G1X64.7213Y-64.9837

G1X67.8364Y-67.4599

G1X71.1153Y-70.3807

G1X74.3045Y-73.5258

G1X77.4950Y-76.9949

G1X80.4229Y-80.5193

G1X83.0047Y-83.9993

G1X85.1065Y-87.2498

G1X86.6872Y-90.1935

G1X87.7383Y-92.8355

G1X88.0303Y-93.9539

G1X88.1808Y-94.9772

G1X88.1825Y-95.8964

G1X88.0414Y-96.6584

G1X87.8454Y-97.1361

G1X87.5327Y-97.6014

G1X86.5744Y-98.4939

G1X85.1366Y-99.3723

G1X83.2128Y-100.2294

G1X80.8078Y-101.0576

G1X78.0551Y-101.8198

G1X74.8905Y-102.5426

G1X71.2178Y-103.2411

G1X66.6536Y-103.9582

G1X61.6862Y-104.5932

G1X56.4793Y-105.1239

G1X51.3879Y-105.5185

G1X46.3243Y-105.7774

G1X42.0525Y-105.8496

G1X39.0189Y-105.7267

G1X38.0831Y-105.5957

G1X37.5706Y-105.4278

G1X37.4557Y-105.2291

G1X37.7376Y-104.9473

G1X39.6315Y-103.9631

G1X43.2780Y-102.4512

G1X48.7876Y-100.3690

G1X62.8027Y-95.3962

G1X94.4563Y-84.5344

G1 Z0F20000

(Start Block)


G1X10.5833Y-86.2983
G1Z5F20000
(Plotting speed under)
G1 F4000


G1X12.1784Y-85.2650

G1X14.3240Y-83.6882

G1X24.2050Y-75.8990

G1X29.1186Y-72.1696

G1X33.5496Y-69.0321

G1X37.6361Y-66.4026

G1X39.9179Y-65.0749

G1X42.0766Y-63.9315

G1X44.1038Y-62.9747

G1X46.0875Y-62.1674

G1X47.9261Y-61.5541

G1X49.6186Y-61.1263

G1X51.2499Y-60.8628

G1X52.7318Y-60.7768

G1X53.8370Y-60.8273

G1X54.8931Y-60.9840

G1X57.2297Y-61.6657

G1X59.8127Y-62.8295

G1X62.6112Y-64.4626

G1X65.6769Y-66.6104

G1X68.7794Y-69.1117

G1X71.9489Y-71.9785

G1X75.1155Y-75.1527

G1X78.2780Y-78.6562

G1X81.1739Y-82.2164

G1X83.7203Y-85.7307

G1X85.7847Y-89.0113

G1X87.3267Y-91.9786

G1X87.9028Y-93.3518

G1X88.3373Y-94.6368

G1X88.6095Y-95.7596

G1X88.7401Y-96.7850

G1X88.7215Y-97.7036

G1X88.5611Y-98.4626

G1X88.3543Y-98.9314

G1X88.0333Y-99.3850

G1X87.0100Y-100.2893

G1X85.5494Y-101.1343

G1X83.6100Y-101.9533

G1X81.1959Y-102.7390

G1X78.3233Y-103.4839

G1X75.0219Y-104.1804

G1X71.3362Y-104.8204

G1X66.6237Y-105.4866

G1X61.6525Y-106.0469

G1X56.4476Y-106.5028

G1X51.2302Y-106.8340

G1X46.1800Y-107.0222

G1X41.9136Y-107.0372

G1X38.8682Y-106.8760

G1X37.9177Y-106.7341

G1X37.3681Y-106.5515

G1X37.2461Y-106.3514

G1X37.5192Y-106.0711

G1X39.4040Y-105.1048

G1X43.0536Y-103.6318

G1X48.5790Y-101.6107

G1X62.6520Y-96.7969

G1X94.4563Y-86.2983

G1 Z0F20000

(Start Block)


G1X10.5833Y-88.0622
G1Z5F20000
(Plotting speed under)
G1 F4000


G1X12.2409Y-87.0071

G1X14.4728Y-85.3982

G1X24.6347Y-77.5596

G1X29.5964Y-73.8730

G1X34.1636Y-70.7022

G1X38.3791Y-68.0403

G1X40.6737Y-66.7280

G1X42.9405Y-65.5471

G1X44.9738Y-64.6027

G1X46.9612Y-63.8037

G1X48.8015Y-63.1936

G1X50.5812Y-62.7455

G1X52.2072Y-62.4835

G1X53.7619Y-62.3937

G1X54.8574Y-62.4452

G1X55.9108Y-62.6015

G1X57.0641Y-62.8868

G1X58.2606Y-63.2895

G1X60.8492Y-64.4658

G1X63.6455Y-66.1168

G1X66.6102Y-68.2191

G1X69.6943Y-70.7382

G1X72.8392Y-73.6276

G1X75.9754Y-76.8282

G1X79.1008Y-80.3612

G1X81.9556Y-83.9505

G1X84.4578Y-87.4920

G1X86.4771Y-90.7952

G1X87.9741Y-93.7792

G1X88.5275Y-95.1581

G1X88.9393Y-96.4470

G1X89.2007Y-97.6347

G1X89.3017Y-98.6536

G1X89.2533Y-99.5630

G1X89.0649Y-100.3106

G1X88.8380Y-100.7678

G1X88.4988Y-101.2086

G1X87.4446Y-102.0834

G1X85.8883Y-102.9294

G1X83.9174Y-103.7084

G1X81.3751Y-104.4780

G1X78.4738Y-105.1719

G1X75.1524Y-105.8137

G1X71.3184Y-106.4158

G1X66.5933Y-107.0092

G1X61.4766Y-107.5086

G1X56.1399Y-107.8964

G1X50.9451Y-108.1502

G1X45.8153Y-108.2668

G1X41.6035Y-108.2186

G1X38.6098Y-108.0126

G1X37.6811Y-107.8566

G1X37.1495Y-107.6653

G1X37.0400Y-107.4625

G1X37.3418Y-107.1661

G1X39.2295Y-106.2238

G1X42.9108Y-104.7823

G1X48.4757Y-102.8163

G1X62.6304Y-98.1561

G1X94.4563Y-88.0622

G1 Z0F20000

(Start Block)


G1X10.5833Y-89.8261
G1Z5F20000
(Plotting speed under)
G1 F4000


G1X12.2488Y-88.7865

G1X14.5562Y-87.1575

G1X24.9723Y-79.2907

G1X30.1726Y-75.5061

G1X34.8785Y-72.3064

G1X39.1223Y-69.6783

G1X41.5291Y-68.3271

G1X43.8047Y-67.1631

G1X45.9397Y-66.1898

G1X47.9284Y-65.4060

G1X49.8579Y-64.7805

G1X51.6308Y-64.3471

G1X53.2480Y-64.0950

G1X54.7917Y-64.0107

G1X55.8775Y-64.0631

G1X56.9285Y-64.2191

G1X58.0894Y-64.5068

G1X59.2915Y-64.9133

G1X61.8857Y-66.1021

G1X64.5912Y-67.7130

G1X67.5441Y-69.8270

G1X70.6101Y-72.3637

G1X73.7305Y-75.2757

G1X76.8362Y-78.5028

G1X79.9246Y-82.0654

G1X82.7383Y-85.6841

G1X85.1962Y-89.2529

G1X87.1702Y-92.5788

G1X88.6220Y-95.5795

G1X89.1527Y-96.9644

G1X89.5418Y-98.2573

G1X89.7806Y-99.4468

G1X89.8604Y-100.4652

G1X89.7911Y-101.3719

G1X89.5834Y-102.1146

G1X89.3463Y-102.5626

G1X88.9624Y-103.0304

G1X87.8782Y-103.8760

G1X86.2995Y-104.6884

G1X84.2233Y-105.4602

G1X81.6575Y-106.1845

G1X78.7410Y-106.8311

G1X75.2820Y-107.4428

G1X71.4358Y-107.9867

G1X66.5626Y-108.5261

G1X61.4428Y-108.9523

G1X56.1084Y-109.2672

G1X50.7885Y-109.4560

G1X45.6718Y-109.5048

G1X41.3797Y-109.3992

G1X38.4053Y-109.1541

G1X37.4799Y-108.9864

G1X36.9464Y-108.7887

G1X36.8339Y-108.5735

G1X37.1229Y-108.2902

G1X39.0555Y-107.3436

G1X42.7689Y-105.9345

G1X48.3735Y-104.0242

G1X62.4803Y-99.5582

G1X94.4563Y-89.8261

G1 Z0F20000

(Start Block)


G1X10.5833Y-91.5900
G1Z5F20000
(Plotting speed under)
G1 F4000


G1X12.3080Y-90.5313

G1X14.6304Y-88.9231

G1X25.3681Y-80.9782

G1X30.6031Y-77.2421

G1X35.4359Y-74.0137

G1X39.8008Y-71.3540

G1X44.4990Y-68.8611

G1X46.6397Y-67.8904

G1X48.7265Y-67.0693

G1X50.6568Y-66.4416

G1X52.5163Y-65.9820

G1X54.2117Y-65.7149

G1X55.7456Y-65.6276

G1X56.8985Y-65.6810

G1X57.9463Y-65.8367

G1X60.2409Y-66.5062

G1X62.8365Y-67.6928

G1X65.5372Y-69.3085

G1X68.4787Y-71.4341

G1X71.5267Y-73.9883

G1X74.6228Y-76.9230

G1X77.6148Y-80.0837

G1X80.6724Y-83.6730

G1X83.4533Y-87.3213

G1X85.8772Y-90.9203

G1X87.8180Y-94.2745

G1X89.2383Y-97.3000

G1X89.7537Y-98.6957

G1X90.1281Y-99.9981

G1X90.3527Y-101.1956

G1X90.4198Y-102.2199

G1X90.3386Y-103.1309

G1X90.1203Y-103.8760

G1X89.8817Y-104.3187

G1X89.5002Y-104.7761

G1X88.4248Y-105.5991

G1X86.7855Y-106.4156

G1X84.7108Y-107.1532

G1X82.1513Y-107.8393

G1X79.1261Y-108.4672

G1X75.6683Y-109.0307

G1X71.6892Y-109.5394

G1X66.8146Y-110.0141

G1X61.5512Y-110.3840

G1X56.0770Y-110.6359

G1X50.7594Y-110.7568

G1X45.5283Y-110.7410

G1X41.2405Y-110.5825

G1X38.2007Y-110.2947

G1X37.2786Y-110.1158

G1X36.7432Y-109.9120

G1X36.6232Y-109.6961

G1X36.9039Y-109.4143

G1X38.8279Y-108.4865

G1X42.5448Y-107.1169

G1X48.1657Y-105.2683

G1X62.3301Y-100.9603

G1X94.4563Y-91.5900

G1 Z0F20000

(Start Block)


G1X10.5833Y-93.3539
G1Z5F20000
(Plotting speed under)
G1 F4000


G1X12.3155Y-92.3101

G1X14.7133Y-90.6819

G1X25.7050Y-82.7087

G1X31.1803Y-78.8765

G1X36.0500Y-75.6838

G1X40.5441Y-72.9921

G1X45.3632Y-70.4771

G1X47.6059Y-69.4780

G1X49.6936Y-68.6719

G1X51.6227Y-68.0547

G1X53.4789Y-67.6013

G1X55.1693Y-67.3355

G1X56.7750Y-67.2446

G1X57.9183Y-67.2989

G1X58.9640Y-67.4542

G1X61.2716Y-68.1299

G1X63.8730Y-69.3289

G1X66.5717Y-70.9622

G1X69.5031Y-73.1109

G1X72.5329Y-75.6925

G1X75.6026Y-78.6575

G1X78.5612Y-81.8493

G1X81.5755Y-85.4714

G1X84.3066Y-89.1494

G1X86.6755Y-92.7734

G1X88.5585Y-96.1452

G1X89.9195Y-99.1799

G1X90.4043Y-100.5767

G1X90.7477Y-101.8776

G1X90.9409Y-103.0708

G1X90.9782Y-104.0884

G1X90.8670Y-104.9896

G1X90.6205Y-105.7228

G1X90.3636Y-106.1527

G1X89.9633Y-106.5967

G1X88.8011Y-107.4246

G1X87.1211Y-108.2041

G1X85.0158Y-108.9021

G1X82.4337Y-109.5445

G1X79.2744Y-110.1452

G1X75.7974Y-110.6554

G1X71.8062Y-111.1064

G1X66.7835Y-111.5242

G1X61.5175Y-111.8222

G1X56.0456Y-112.0027

G1X50.6031Y-112.0570

G1X45.3850Y-111.9755

G1X41.0172Y-111.7593

G1X37.9962Y-111.4346

G1X37.0426Y-111.2353

G1X36.5243Y-111.0248

G1X36.4161Y-110.8083

G1X36.7260Y-110.5106

G1X38.7022Y-109.5890

G1X42.4695Y-108.2498

G1X48.0317Y-106.4898

G1X62.2451Y-102.3440

G1X94.4563Y-93.3539

G1 Z0F20000

(Start Block)


G1X10.5833Y-95.1178
G1Z5F20000
(Plotting speed under)
G1 F4000


G1X12.3748Y-94.0551

G1X14.8547Y-92.4000

G1X26.1011Y-84.3965

G1X31.7106Y-80.5439

G1X36.8117Y-77.2627

G1X41.3242Y-74.6103

G1X46.2543Y-72.0812

G1X48.4982Y-71.0974

G1X50.5852Y-70.3015

G1X52.6021Y-69.6642

G1X54.4512Y-69.2187

G1X56.2154Y-68.9466

G1X57.8071Y-68.8616

G1X58.9389Y-68.9168

G1X59.9818Y-69.0718

G1X61.0854Y-69.3431

G1X62.3023Y-69.7535

G1X64.8238Y-70.9189

G1X67.6062Y-72.6161

G1X70.5274Y-74.7882

G1X73.4506Y-77.3159

G1X76.4961Y-80.3036

G1X79.4252Y-83.5213

G1X82.4024Y-87.1733

G1X85.0922Y-90.8811

G1X87.4164Y-94.5329

G1X89.2537Y-97.9279

G1X90.5690Y-100.9798

G1X91.0308Y-102.3827

G1X91.3511Y-103.6877

G1X91.5215Y-104.8828

G1X91.5374Y-105.9000

G1X91.4051Y-106.7986

G1X91.1390Y-107.5269

G1X90.8437Y-107.9842

G1X90.4262Y-108.4143

G1X89.2380Y-109.2121

G1X87.5411Y-109.9575

G1X85.3354Y-110.6436

G1X82.6318Y-111.2642

G1X79.4535Y-111.8134

G1X75.8379Y-112.2861

G1X71.8374Y-112.6778

G1X66.8144Y-113.0256

G1X61.4136Y-113.2590

G1X55.8190Y-113.3693

G1X50.4030Y-113.3530

G1X45.2123Y-113.2071

G1X40.8619Y-112.9396

G1X37.7858Y-112.5726

G1X36.8385Y-112.3630

G1X36.3200Y-112.1475

G1X36.2051Y-111.9308

G1X36.5065Y-111.6351

G1X38.4745Y-110.7329

G1X42.2458Y-109.4339

G1X47.9316Y-107.7031

G1X62.0952Y-103.7469

G1X94.4563Y-95.1178

G1 Z0F20000

(Start Block)


G1X10.5833Y-96.8817
G1Z5F20000
(Plotting speed under)
G1 F4000


G1X12.4380Y-95.7981

G1X14.9376Y-94.1588

G1X26.5335Y-86.0599

G1X32.1880Y-82.2467

G1X37.3233Y-78.9964

G1X41.9656Y-76.3054

G1X47.0199Y-73.7438

G1X49.2718Y-72.7652

G1X51.4589Y-71.9373

G1X53.4780Y-71.3028

G1X55.4138Y-70.8380

G1X57.1731Y-70.5671

G1X58.7588Y-70.4784

G1X59.8852Y-70.5276

G1X60.9986Y-70.6892

G1X62.1073Y-70.9620

G1X63.3276Y-71.3751

G1X65.8497Y-72.5489

G1X68.5368Y-74.1992

G1X71.3532Y-76.3043

G1X74.3423Y-78.9131

G1X77.3589Y-81.9151

G1X80.2548Y-85.1504

G1X83.1925Y-88.8240

G1X85.8406Y-92.5548

G1X88.1223Y-96.2294

G1X89.9610Y-99.7345

G1X91.2247Y-102.7959

G1X91.6612Y-104.2013

G1X91.9566Y-105.5070

G1X92.1027Y-106.7011

G1X92.0964Y-107.7154

G1X91.9428Y-108.6092

G1X91.6575Y-109.3312

G1X91.3519Y-109.7788

G1X90.9269Y-110.1977

G1X89.7287Y-110.9706

G1X87.9513Y-111.7139

G1X85.7314Y-112.3635

G1X83.0199Y-112.9439

G1X79.7194Y-113.4659

G1X76.0952Y-113.8887

G1X71.9538Y-114.2380

G1X66.7830Y-114.5263

G1X61.3800Y-114.6892

G1X55.7879Y-114.7301

G1X50.2477Y-114.6459

G1X44.9611Y-114.4321

G1X40.6391Y-114.1128

G1X37.5813Y-113.7108

G1X36.6368Y-113.4911

G1X36.1011Y-113.2597

G1X36.0018Y-113.0320

G1X36.3305Y-112.7313

G1X38.3575Y-111.8357

G1X42.1908Y-110.5658

G1X47.8326Y-108.9188

G1X62.0773Y-105.1157

G1X94.4563Y-96.8817

G1 Z0F20000

(Start Block)


G1X10.5833Y-98.6455
G1Z5F20000
(Plotting speed under)
G1 F4000


G1X12.4413Y-97.5785

G1X15.0110Y-95.9235

G1X26.8337Y-87.8144

G1X32.7186Y-83.9145

G1X37.9828Y-80.6395

G1X42.7461Y-77.9241

G1X45.4031Y-76.5431

G1X47.9114Y-75.3487

G1X50.2606Y-74.3457

G1X52.4438Y-73.5348

G1X54.4573Y-72.9125

G1X56.3860Y-72.4555

G1X58.1372Y-72.1869

G1X59.7906Y-72.0954

G1X60.9061Y-72.1455

G1X62.0164Y-72.3067

G1X63.1323Y-72.5818

G1X64.3583Y-72.9988

G1X66.8861Y-74.1848

G1X69.5713Y-75.8527

G1X72.3779Y-77.9805

G1X75.3487Y-80.6168

G1X78.3387Y-83.6494

G1X81.2009Y-86.9160

G1X84.0949Y-90.6227

G1X86.6928Y-94.3836

G1X88.9190Y-98.0832

G1X90.6573Y-101.5169

G1X91.8750Y-104.5957

G1X92.2883Y-106.0072

G1X92.5606Y-107.3171

G1X92.6837Y-108.5131

G1X92.6558Y-109.5270

G1X92.4810Y-110.4181

G1X92.1761Y-111.1353

G1X91.8609Y-111.5730

G1X91.4294Y-111.9803

G1X90.1651Y-112.7571

G1X88.3710Y-113.4664

G1X86.0500Y-114.1016

G1X83.3243Y-114.6389

G1X80.0176Y-115.1131

G1X76.2645Y-115.4987

G1X72.1217Y-115.7927

G1X66.9559Y-116.0160

G1X61.4187Y-116.1158

G1X55.6995Y-116.0882

G1X50.0495Y-115.9338

G1X44.6827Y-115.6511

G1X40.3195Y-115.2731

G1X37.3202Y-114.8370

G1X36.3993Y-114.6075

G1X35.8821Y-114.3714

G1X35.7945Y-114.1438

G1X36.1319Y-113.8427

G1X38.1786Y-112.9632

G1X42.0341Y-111.7320

G1X47.7004Y-110.1460

G1X61.9937Y-106.5038

G1X94.4563Y-98.6455

G1 Z0F20000

(Start Block)


G1X10.5833Y-100.4094
G1Z5F20000
(Plotting speed under)
G1 F4000


G1X12.5047Y-99.3218

G1X15.0935Y-97.6818

G1X27.2669Y-89.4786

G1X33.1955Y-85.6168

G1X38.5972Y-82.3099

G1X43.4901Y-79.5632

G1X48.6768Y-77.0108

G1X51.0341Y-76.0128

G1X53.3176Y-75.1704

G1X55.4229Y-74.5263

G1X57.3485Y-74.0748

G1X59.1761Y-73.7989

G1X60.8189Y-73.7123

G1X61.9258Y-73.7633

G1X63.0342Y-73.9243

G1X64.1574Y-74.2016

G1X65.3892Y-74.6226

G1X67.9226Y-75.8208

G1X70.6057Y-77.5066

G1X73.4025Y-79.6570

G1X76.3548Y-82.3210

G1X79.2348Y-85.2931

G1X82.0677Y-88.5858

G1X84.9246Y-92.3227

G1X87.4810Y-96.1138

G1X89.6622Y-99.8417

G1X91.3543Y-103.2989

G1X92.5258Y-106.3953

G1X92.9159Y-107.8130

G1X93.1649Y-109.1271

G1X93.2649Y-110.3251

G1X93.2154Y-111.3387

G1X93.0192Y-112.2271

G1X92.6947Y-112.9394

G1X92.3695Y-113.3681

G1X91.8888Y-113.7966

G1X90.5959Y-114.5449

G1X88.7807Y-115.2217

G1X86.4457Y-115.8205

G1X83.6045Y-116.3360

G1X80.2831Y-116.7636

G1X76.5216Y-117.0997

G1X72.2379Y-117.3484

G1X66.9245Y-117.5097

G1X61.3854Y-117.5404

G1X55.5323Y-117.4411

G1X49.8952Y-117.2199

G1X44.5404Y-116.8764

G1X40.1798Y-116.4510

G1X37.1160Y-115.9732

G1X36.1973Y-115.7347

G1X35.6775Y-115.4941

G1X35.5775Y-115.3740

G1X35.5872Y-115.2553

G1X35.9345Y-114.9537

G1X37.9508Y-114.1088

G1X41.8109Y-112.9185

G1X47.4937Y-111.3940

G1X61.8447Y-107.9089

G1X94.4563Y-100.4094

G1 Z0F20000


G00 X0.0000 Y0.0000


