$H
G21
G17
G90
G1 Z0F20000
G1 F15000

(Start Layer)

(Start Block)


G1X91.8497Y-40.1138
G1Z5F20000
(Plotting speed under)
G1 F4000


G1X83.5888Y-40.1138

G1X84.8333Y-38.7195

G1X85.8754Y-37.1608

G1X86.6941Y-35.4588

G1X87.2447Y-33.7332

G1X87.5581Y-31.9154

G1X87.6002Y-30.2369

G1X87.4464Y-29.7464

G1X87.1730Y-29.3234

G1X86.8001Y-28.9879

G1X86.3477Y-28.7599

G1X85.8358Y-28.6595

G1X84.9880Y-28.6768

G1X83.0351Y-28.9293

G1X81.2751Y-29.4199

G1X79.5328Y-30.1825

G1X78.0104Y-31.1181

G1X76.5591Y-32.3103

G1X75.2885Y-33.6917

G1X74.2707Y-35.1558

G1X73.1283Y-33.5380

G1X71.6911Y-32.0429

G1X70.1217Y-30.8385

G1X68.3818Y-29.8736

G1X67.2663Y-29.4199

G1X66.2023Y-29.0921

G1X63.9717Y-28.7063

G1X62.3926Y-28.7033

G1X61.9140Y-28.8827

G1X61.4358Y-29.2487

G1X61.0181Y-29.9357

G1X60.9184Y-30.8723

G1X61.1094Y-32.8347

G1X61.5746Y-34.7044

G1X62.1636Y-36.1916

G1X62.9196Y-37.5857

G1X63.8301Y-38.8743

G1X64.9527Y-40.1138

G1X56.3734Y-40.1404

G1X55.7922Y-40.3400

G1X55.3140Y-40.7060

G1X54.9734Y-41.2038

G1X54.8049Y-41.7987

G1X54.7930Y-77.1707

G1X54.9324Y-77.8862

G1X55.3851Y-78.5484

G1X55.9762Y-78.9300

G1X56.6917Y-79.0694

G1X91.8497Y-79.0694

G1X92.5652Y-78.9300

G1X93.2274Y-78.4773

G1X93.6090Y-77.8862

G1X93.7485Y-77.1707

G1X93.7454Y-41.9049

G1X93.5681Y-41.2038

G1X93.1563Y-40.6349

G1X92.5652Y-40.2533

G1X91.8497Y-40.1138

G1 Z0F20000

(Start Block)


G1X83.5877Y-32.6957
G1Z5F20000
(Plotting speed under)
G1 F4000


G1X83.1999Y-33.9676

G1X82.6463Y-35.1580

G1X81.9406Y-36.2534

G1X81.0264Y-37.3110

G1X79.9688Y-38.2252

G1X78.8734Y-38.9309

G1X77.6829Y-39.4845

G1X76.4110Y-39.8723

G1X76.7989Y-38.6004

G1X77.3525Y-37.4099

G1X78.0582Y-36.3145

G1X78.9725Y-35.2570

G1X80.0300Y-34.3427

G1X81.1254Y-33.6371

G1X82.3159Y-33.0835

G1X83.5877Y-32.6957

G1 Z0F20000

(Start Block)


G1X72.1304Y-39.8722
G1Z5F20000
(Plotting speed under)
G1 F4000


G1X70.8586Y-39.4844

G1X69.6681Y-38.9308

G1X68.5727Y-38.2251

G1X67.5151Y-37.3109

G1X66.6009Y-36.2533

G1X65.8952Y-35.1579

G1X65.3416Y-33.9675

G1X64.9538Y-32.6956

G1X66.2257Y-33.0834

G1X67.4161Y-33.6371

G1X68.5115Y-34.3427

G1X69.5691Y-35.2569

G1X70.4833Y-36.3145

G1X71.1890Y-37.4099

G1X71.7426Y-38.6003

G1X72.1304Y-39.8722

G1 Z0F20000

(Start Block)


G1X72.3719Y-43.9114
G1Z5F20000
(Plotting speed under)
G1 F4000


G1X72.3719Y-57.6928

G1X58.5905Y-57.6928

G1X58.5905Y-43.9114

G1X72.3719Y-43.9114

G1 Z0F20000

(Start Block)


G1X58.5905Y-61.4904
G1Z5F20000
(Plotting speed under)
G1 F4000


G1X72.3719Y-61.4904

G1X72.3719Y-75.2719

G1X58.5905Y-75.2719

G1X58.5905Y-61.4904

G1 Z0F20000

(Start Block)


G1X76.1695Y-75.2718
G1Z5F20000
(Plotting speed under)
G1 F4000


G1X76.1695Y-61.4904

G1X89.9509Y-61.4904

G1X89.9509Y-75.2719

G1X76.1695Y-75.2718

G1 Z0F20000

(Start Block)


G1X89.9509Y-57.6928
G1Z5F20000
(Plotting speed under)
G1 F4000


G1X76.1695Y-57.6928

G1X76.1695Y-43.9114

G1X89.9509Y-43.9114

G1X89.9509Y-57.6928

G1 Z0F20000


G00 X0.0000 Y0.0000


