$H
G21
G17
G90
G1 Z0F20000
G1 F15000

(Start Layer)

(Start Block)


G1X91.8029Y-27.9886
G1Z5.5F20000
(Plotting speed under)
G1 F8000


G1X92.7355Y-27.7850

G1X92.8746Y-27.7549

G1X93.0124Y-27.7251

G1X93.1488Y-27.6955

G1X93.2839Y-27.6661

G1X93.4177Y-27.6369

G1X93.5500Y-27.6079

G1X93.6811Y-27.5791

G1X93.8108Y-27.5503

G1X93.9391Y-27.5217

G1X94.0661Y-27.4932

G1X94.1917Y-27.4647

G1X94.3159Y-27.4362

G1X94.4388Y-27.4078

G1X94.5603Y-27.3794

G1X94.6805Y-27.3509

G1X94.7993Y-27.3224

G1X94.9167Y-27.2938

G1X95.0327Y-27.2650

G1X95.1473Y-27.2362

G1X95.2606Y-27.2072

G1X95.3725Y-27.1781

G1X95.4829Y-27.1488

G1X95.5920Y-27.1192

G1X95.6997Y-27.0894

G1X95.8061Y-27.0594

G1X95.9110Y-27.0291

G1X96.0145Y-26.9984

G1X96.1166Y-26.9675

G1X96.2173Y-26.9362

G1X96.3166Y-26.9045

G1X96.4145Y-26.8724

G1X96.5110Y-26.8399

G1X96.6061Y-26.8070

G1X96.6997Y-26.7736

G1X96.7919Y-26.7397

G1X96.8828Y-26.7053

G1X96.9721Y-26.6704

G1X97.0601Y-26.6349

G1X97.1466Y-26.5989

G1X97.2317Y-26.5622

G1X97.3154Y-26.5250

G1X97.3976Y-26.4870

G1X97.4784Y-26.4485

G1X97.5578Y-26.4092

G1X97.6357Y-26.3692

G1X97.7121Y-26.3285

G1X97.7872Y-26.2870

G1X97.8607Y-26.2447

G1X97.9328Y-26.2016

G1X98.0035Y-26.1577

G1X98.0727Y-26.1130

G1X98.1404Y-26.0674

G1X98.2067Y-26.0209

G1X98.2715Y-25.9734

G1X98.3349Y-25.9251

G1X98.3967Y-25.8757

G1X98.4571Y-25.8254

G1X98.5160Y-25.7741

G1X98.5735Y-25.7217

G1X98.6295Y-25.6683

G1X98.6839Y-25.6138

G1X98.7369Y-25.5582

G1X98.7885Y-25.5015

G1X98.8385Y-25.4437

G1X98.8870Y-25.3846

G1X98.9340Y-25.3244

G1X98.9796Y-25.2630

G1X99.0236Y-25.2003

G1X99.0661Y-25.1364

G1X99.1072Y-25.0712

G1X99.1467Y-25.0047

G1X99.1984Y-24.9112

G1X99.2461Y-24.8167

G1X99.2898Y-24.7213

G1X99.3296Y-24.6253

G1X99.3654Y-24.5285

G1X99.3974Y-24.4312

G1X99.4254Y-24.3335

G1X99.4496Y-24.2354

G1X99.4700Y-24.1369

G1X99.4866Y-24.0384

G1X99.4994Y-23.9397

G1X99.5084Y-23.8410

G1X99.5137Y-23.7424

G1X99.5154Y-23.6440

G1X99.5134Y-23.5459

G1X99.5077Y-23.4482

G1X99.4984Y-23.3509

G1X99.4855Y-23.2542

G1X99.4691Y-23.1582

G1X99.4491Y-23.0629

G1X99.4256Y-22.9685

G1X99.3986Y-22.8750

G1X99.3681Y-22.7826

G1X99.3342Y-22.6912

G1X99.2969Y-22.6011

G1X99.2563Y-22.5123

G1X99.2122Y-22.4249

G1X99.1648Y-22.3391

G1X99.1142Y-22.2548

G1X99.0602Y-22.1722

G1X99.0030Y-22.0914

G1X98.9426Y-22.0125

G1X98.8789Y-21.9355

G1X98.8121Y-21.8606

G1X98.7422Y-21.7879

G1X98.6691Y-21.7174

G1X98.5929Y-21.6493

G1X98.5136Y-21.5836

G1X98.4313Y-21.5205

G1X98.3460Y-21.4599

G1X98.2577Y-21.4021

G1X98.1664Y-21.3471

G1X98.0739Y-21.2961

G1X97.9797Y-21.2487

G1X97.8840Y-21.2051

G1X97.7870Y-21.1652

G1X97.6888Y-21.1289

G1X97.5895Y-21.0964

G1X97.4892Y-21.0675

G1X97.3880Y-21.0423

G1X97.2862Y-21.0207

G1X97.1838Y-21.0028

G1X97.0809Y-20.9885

G1X96.9778Y-20.9779

G1X96.8744Y-20.9708

G1X96.7710Y-20.9674

G1X96.6677Y-20.9675

G1X96.5646Y-20.9713

G1X96.4618Y-20.9786

G1X96.3595Y-20.9894

G1X96.2578Y-21.0038

G1X96.1569Y-21.0218

G1X96.0567Y-21.0433

G1X95.9576Y-21.0683

G1X95.8596Y-21.0968

G1X95.7629Y-21.1289

G1X95.7422Y-21.0291

G1X95.7179Y-20.9299

G1X95.6900Y-20.8316

G1X95.6585Y-20.7341

G1X95.6236Y-20.6377

G1X95.5852Y-20.5424

G1X95.5435Y-20.4484

G1X95.4984Y-20.3558

G1X95.4500Y-20.2646

G1X95.3985Y-20.1750

G1X95.3438Y-20.0872

G1X95.2860Y-20.0013

G1X95.2252Y-19.9173

G1X95.1614Y-19.8353

G1X95.0947Y-19.7556

G1X95.0251Y-19.6782

G1X94.9527Y-19.6032

G1X94.8775Y-19.5308

G1X94.7996Y-19.4611

G1X94.7191Y-19.3941

G1X94.6361Y-19.3301

G1X94.5504Y-19.2691

G1X94.4623Y-19.2112

G1X94.3718Y-19.1566

G1X94.2786Y-19.1051

G1X94.1843Y-19.0575

G1X94.0893Y-19.0139

G1X93.9934Y-18.9742

G1X93.8969Y-18.9384

G1X93.7998Y-18.9065

G1X93.7022Y-18.8785

G1X93.6042Y-18.8542

G1X93.5060Y-18.8338

G1X93.4075Y-18.8172

G1X93.3089Y-18.8044

G1X93.2104Y-18.7952

G1X93.1119Y-18.7898

G1X93.0135Y-18.7881

G1X92.9155Y-18.7900

G1X92.8178Y-18.7956

G1X92.7205Y-18.8047

G1X92.6239Y-18.8175

G1X92.5278Y-18.8338

G1X92.4325Y-18.8537

G1X92.3381Y-18.8771

G1X92.2446Y-18.9039

G1X92.1521Y-18.9343

G1X92.0607Y-18.9681

G1X91.9705Y-19.0053

G1X91.8816Y-19.0458

G1X91.7942Y-19.0898

G1X91.7082Y-19.1371

G1X91.6238Y-19.1877

G1X91.5411Y-19.2417

G1X91.4602Y-19.2988

G1X91.3811Y-19.3593

G1X91.3040Y-19.4229

G1X91.2290Y-19.4898

G1X91.1561Y-19.5598

G1X91.0855Y-19.6330

G1X91.0172Y-19.7093

G1X90.9514Y-19.7887

G1X90.8881Y-19.8712

G1X90.8274Y-19.9567

G1X90.7694Y-20.0453

G1X90.7142Y-20.1369

G1X90.6764Y-20.2044

G1X90.6405Y-20.2725

G1X90.6064Y-20.3413

G1X90.5742Y-20.4108

G1X90.5437Y-20.4809

G1X90.5151Y-20.5518

G1X90.4883Y-20.6233

G1X90.4632Y-20.6955

G1X90.4398Y-20.7685

G1X90.4182Y-20.8422

G1X90.3983Y-20.9166

G1X90.3800Y-20.9918

G1X90.3634Y-21.0677

G1X90.3484Y-21.1444

G1X90.3350Y-21.2219

G1X90.3233Y-21.3002

G1X90.3130Y-21.3792

G1X90.3044Y-21.4590

G1X90.2973Y-21.5397

G1X90.2916Y-21.6212

G1X90.2875Y-21.7035

G1X90.2848Y-21.7866

G1X90.2836Y-21.8706

G1X90.2837Y-21.9554

G1X90.2853Y-22.0411

G1X90.2883Y-22.1277

G1X90.2926Y-22.2152

G1X90.2983Y-22.3036

G1X90.3053Y-22.3928

G1X90.3136Y-22.4830

G1X90.3231Y-22.5741

G1X90.3340Y-22.6661

G1X90.3460Y-22.7591

G1X90.3593Y-22.8530

G1X90.3737Y-22.9479

G1X90.3894Y-23.0437

G1X90.4062Y-23.1405

G1X90.4241Y-23.2383

G1X90.4431Y-23.3371

G1X90.4632Y-23.4369

G1X90.4844Y-23.5377

G1X90.5066Y-23.6395

G1X90.5299Y-23.7424

G1X90.5541Y-23.8463

G1X90.5794Y-23.9513

G1X90.6056Y-24.0573

G1X90.6327Y-24.1644

G1X90.6608Y-24.2725

G1X90.6898Y-24.3818

G1X90.7196Y-24.4921

G1X90.7504Y-24.6036

G1X90.7819Y-24.7162

G1X90.8143Y-24.8299

G1X90.8474Y-24.9447

G1X90.8814Y-25.0607

G1X90.9161Y-25.1778

G1X90.9515Y-25.2961

G1X90.9876Y-25.4155

G1X91.0245Y-25.5362

G1X91.0620Y-25.6580

G1X91.1001Y-25.7810

G1X91.1389Y-25.9052

G1X91.1783Y-26.0307

G1X91.2183Y-26.1573

G1X91.2588Y-26.2852

G1X91.2999Y-26.4144

G1X91.3415Y-26.5448

G1X91.3837Y-26.6765

G1X91.4263Y-26.8094

G1X91.4693Y-26.9436

G1X91.5128Y-27.0791

G1X91.8029Y-27.9886

G1 Z0F20000

(Start Block)


G1X43.0045Y-13.5300
G1Z5.5F20000
(Plotting speed under)
G1 F8000


G1X43.6494Y-12.8262

G1X43.7457Y-12.7215

G1X43.8412Y-12.6177

G1X43.9356Y-12.5149

G1X44.0291Y-12.4131

G1X44.1216Y-12.3121

G1X44.2131Y-12.2121

G1X44.3035Y-12.1131

G1X44.3930Y-12.0148

G1X44.4814Y-11.9175

G1X44.5687Y-11.8210

G1X44.6549Y-11.7254

G1X44.7401Y-11.6305

G1X44.8241Y-11.5365

G1X44.9071Y-11.4432

G1X44.9888Y-11.3507

G1X45.0695Y-11.2589

G1X45.1489Y-11.1679

G1X45.2272Y-11.0776

G1X45.3043Y-10.9880

G1X45.3802Y-10.8990

G1X45.4548Y-10.8107

G1X45.5282Y-10.7231

G1X45.6003Y-10.6361

G1X45.6712Y-10.5497

G1X45.7408Y-10.4639

G1X45.8090Y-10.3786

G1X45.8760Y-10.2939

G1X45.9416Y-10.2098

G1X46.0059Y-10.1262

G1X46.0688Y-10.0431

G1X46.1303Y-9.9604

G1X46.1904Y-9.8783

G1X46.2492Y-9.7966

G1X46.3065Y-9.7153

G1X46.3623Y-9.6345

G1X46.4167Y-9.5541

G1X46.4696Y-9.4740

G1X46.5211Y-9.3943

G1X46.5710Y-9.3150

G1X46.6195Y-9.2360

G1X46.6664Y-9.1573

G1X46.7117Y-9.0789

G1X46.7555Y-9.0009

G1X46.7977Y-8.9230

G1X46.8384Y-8.8455

G1X46.8774Y-8.7681

G1X46.9148Y-8.6910

G1X46.9506Y-8.6140

G1X46.9847Y-8.5373

G1X47.0171Y-8.4607

G1X47.0479Y-8.3842

G1X47.0770Y-8.3079

G1X47.1043Y-8.2317

G1X47.1300Y-8.1556

G1X47.1539Y-8.0796

G1X47.1760Y-8.0036

G1X47.1964Y-7.9277

G1X47.2149Y-7.8518

G1X47.2317Y-7.7759

G1X47.2467Y-7.7000

G1X47.2598Y-7.6241

G1X47.2711Y-7.5481

G1X47.2805Y-7.4721

G1X47.2881Y-7.3959

G1X47.2937Y-7.3197

G1X47.2974Y-7.2434

G1X47.2993Y-7.1670

G1X47.2992Y-7.0904

G1X47.2971Y-7.0136

G1X47.2931Y-6.9367

G1X47.2870Y-6.8596

G1X47.2754Y-6.7533

G1X47.2599Y-6.6486

G1X47.2407Y-6.5455

G1X47.2178Y-6.4441

G1X47.1914Y-6.3444

G1X47.1614Y-6.2465

G1X47.1280Y-6.1504

G1X47.0913Y-6.0563

G1X47.0512Y-5.9641

G1X47.0079Y-5.8740

G1X46.9615Y-5.7859

G1X46.9121Y-5.7001

G1X46.8596Y-5.6164

G1X46.8043Y-5.5351

G1X46.7461Y-5.4561

G1X46.6851Y-5.3795

G1X46.6215Y-5.3053

G1X46.5552Y-5.2337

G1X46.4865Y-5.1647

G1X46.4152Y-5.0984

G1X46.3416Y-5.0347

G1X46.2657Y-4.9739

G1X46.1875Y-4.9159

G1X46.1072Y-4.8608

G1X46.0248Y-4.8086

G1X45.9404Y-4.7595

G1X45.8540Y-4.7134

G1X45.7658Y-4.6706

G1X45.6758Y-4.6309

G1X45.5841Y-4.5945

G1X45.4908Y-4.5614

G1X45.3960Y-4.5317

G1X45.2996Y-4.5055

G1X45.2018Y-4.4828

G1X45.1028Y-4.4637

G1X45.0024Y-4.4482

G1X44.9009Y-4.4364

G1X44.7983Y-4.4284

G1X44.6946Y-4.4242

G1X44.5900Y-4.4239

G1X44.4845Y-4.4275

G1X44.3782Y-4.4352

G1X44.2732Y-4.4468

G1X44.1689Y-4.4624

G1X44.0656Y-4.4818

G1X43.9633Y-4.5051

G1X43.8621Y-4.5321

G1X43.7622Y-4.5627

G1X43.6636Y-4.5969

G1X43.5664Y-4.6346

G1X43.4708Y-4.6756

G1X43.3767Y-4.7200

G1X43.2845Y-4.7676

G1X43.1940Y-4.8183

G1X43.1055Y-4.8721

G1X43.0190Y-4.9289

G1X42.9346Y-4.9886

G1X42.8525Y-5.0510

G1X42.7727Y-5.1162

G1X42.6954Y-5.1840

G1X42.6206Y-5.2544

G1X42.5484Y-5.3273

G1X42.4789Y-5.4026

G1X42.4123Y-5.4801

G1X42.3487Y-5.5599

G1X42.2881Y-5.6418

G1X42.2137Y-5.5722

G1X42.1367Y-5.5051

G1X42.0572Y-5.4409

G1X41.9753Y-5.3793

G1X41.8912Y-5.3207

G1X41.8049Y-5.2649

G1X41.7166Y-5.2121

G1X41.6264Y-5.1624

G1X41.5344Y-5.1157

G1X41.4407Y-5.0723

G1X41.3454Y-5.0320

G1X41.2486Y-4.9950

G1X41.1505Y-4.9614

G1X41.0511Y-4.9312

G1X40.9507Y-4.9045

G1X40.8492Y-4.8814

G1X40.7468Y-4.8618

G1X40.6436Y-4.8460

G1X40.5398Y-4.8338

G1X40.4354Y-4.8255

G1X40.3306Y-4.8211

G1X40.2255Y-4.8205

G1X40.1202Y-4.8240

G1X40.0147Y-4.8315

G1X39.9088Y-4.8431

G1X39.8044Y-4.8586

G1X39.7015Y-4.8777

G1X39.6003Y-4.9005

G1X39.5008Y-4.9269

G1X39.4031Y-4.9567

G1X39.3072Y-4.9900

G1X39.2131Y-5.0267

G1X39.1211Y-5.0667

G1X39.0310Y-5.1098

G1X38.9430Y-5.1561

G1X38.8572Y-5.2054

G1X38.7736Y-5.2578

G1X38.6922Y-5.3130

G1X38.6132Y-5.3711

G1X38.5366Y-5.4319

G1X38.4624Y-5.4955

G1X38.3907Y-5.5616

G1X38.3216Y-5.6303

G1X38.2552Y-5.7014

G1X38.1915Y-5.7750

G1X38.1305Y-5.8508

G1X38.0724Y-5.9289

G1X38.0172Y-6.0092

G1X37.9649Y-6.0916

G1X37.9157Y-6.1759

G1X37.8695Y-6.2623

G1X37.8265Y-6.3505

G1X37.7867Y-6.4405

G1X37.7502Y-6.5322

G1X37.7170Y-6.6256

G1X37.6872Y-6.7205

G1X37.6609Y-6.8170

G1X37.6381Y-6.9148

G1X37.6189Y-7.0141

G1X37.6034Y-7.1146

G1X37.5915Y-7.2163

G1X37.5835Y-7.3191

G1X37.5793Y-7.4230

G1X37.5790Y-7.5279

G1X37.5826Y-7.6337

G1X37.5903Y-7.7403

G1X37.5983Y-7.8173

G1X37.6082Y-7.8937

G1X37.6200Y-7.9695

G1X37.6336Y-8.0449

G1X37.6492Y-8.1197

G1X37.6666Y-8.1941

G1X37.6859Y-8.2681

G1X37.7071Y-8.3416

G1X37.7300Y-8.4147

G1X37.7548Y-8.4874

G1X37.7814Y-8.5597

G1X37.8098Y-8.6316

G1X37.8400Y-8.7033

G1X37.8719Y-8.7746

G1X37.9056Y-8.8456

G1X37.9411Y-8.9163

G1X37.9783Y-8.9868

G1X38.0172Y-9.0571

G1X38.0579Y-9.1271

G1X38.1002Y-9.1969

G1X38.1443Y-9.2666

G1X38.1900Y-9.3361

G1X38.2374Y-9.4054

G1X38.2864Y-9.4747

G1X38.3371Y-9.5438

G1X38.3894Y-9.6128

G1X38.4433Y-9.6818

G1X38.4989Y-9.7508

G1X38.5560Y-9.8197

G1X38.6148Y-9.8886

G1X38.6751Y-9.9576

G1X38.7370Y-10.0265

G1X38.8004Y-10.0956

G1X38.8653Y-10.1647

G1X38.9318Y-10.2339

G1X38.9998Y-10.3032

G1X39.0693Y-10.3727

G1X39.1403Y-10.4423

G1X39.2128Y-10.5120

G1X39.2868Y-10.5820

G1X39.3622Y-10.6522

G1X39.4390Y-10.7226

G1X39.5173Y-10.7933

G1X39.5970Y-10.8642

G1X39.6781Y-10.9355

G1X39.7606Y-11.0070

G1X39.8445Y-11.0789

G1X39.9298Y-11.1511

G1X40.0164Y-11.2237

G1X40.1044Y-11.2967

G1X40.1937Y-11.3701

G1X40.2844Y-11.4439

G1X40.3763Y-11.5182

G1X40.4696Y-11.5929

G1X40.5642Y-11.6681

G1X40.6600Y-11.7439

G1X40.7571Y-11.8201

G1X40.8555Y-11.8969

G1X40.9551Y-11.9743

G1X41.0560Y-12.0522

G1X41.1580Y-12.1308

G1X41.2613Y-12.2100

G1X41.3658Y-12.2898

G1X41.4715Y-12.3703

G1X41.5783Y-12.4515

G1X41.6863Y-12.5333

G1X41.7955Y-12.6159

G1X41.9058Y-12.6993

G1X42.0172Y-12.7834

G1X42.1297Y-12.8682

G1X42.2434Y-12.9539

G1X43.0045Y-13.5300

G1 Z0F20000

(Start Block)


G1X13.4126Y-64.0237
G1Z5.5F20000
(Plotting speed under)
G1 F8000


G1X14.0575Y-63.3198

G1X14.1538Y-63.2151

G1X14.2492Y-63.1113

G1X14.3437Y-63.0085

G1X14.4371Y-62.9067

G1X14.5296Y-62.8058

G1X14.6211Y-62.7058

G1X14.7116Y-62.6067

G1X14.8010Y-62.5085

G1X14.8894Y-62.4111

G1X14.9767Y-62.3146

G1X15.0630Y-62.2190

G1X15.1481Y-62.1241

G1X15.2322Y-62.0301

G1X15.3151Y-61.9368

G1X15.3969Y-61.8443

G1X15.4775Y-61.7525

G1X15.5570Y-61.6615

G1X15.6353Y-61.5712

G1X15.7124Y-61.4816

G1X15.7882Y-61.3926

G1X15.8629Y-61.3043

G1X15.9363Y-61.2167

G1X16.0084Y-61.1297

G1X16.0793Y-61.0433

G1X16.1488Y-60.9575

G1X16.2171Y-60.8722

G1X16.2841Y-60.7875

G1X16.3497Y-60.7034

G1X16.4139Y-60.6198

G1X16.4769Y-60.5367

G1X16.5384Y-60.4541

G1X16.5985Y-60.3719

G1X16.6572Y-60.2902

G1X16.7145Y-60.2089

G1X16.7704Y-60.1281

G1X16.8248Y-60.0477

G1X16.8777Y-59.9676

G1X16.9292Y-59.8879

G1X16.9791Y-59.8086

G1X17.0275Y-59.7296

G1X17.0744Y-59.6509

G1X17.1198Y-59.5726

G1X17.1636Y-59.4945

G1X17.2058Y-59.4166

G1X17.2464Y-59.3391

G1X17.2855Y-59.2617

G1X17.3229Y-59.1846

G1X17.3586Y-59.1077

G1X17.3927Y-59.0309

G1X17.4252Y-58.9543

G1X17.4560Y-58.8779

G1X17.4850Y-58.8015

G1X17.5124Y-58.7253

G1X17.5380Y-58.6492

G1X17.5619Y-58.5732

G1X17.5841Y-58.4972

G1X17.6044Y-58.4213

G1X17.6230Y-58.3454

G1X17.6398Y-58.2695

G1X17.6547Y-58.1936

G1X17.6679Y-58.1177

G1X17.6792Y-58.0417

G1X17.6886Y-57.9657

G1X17.6961Y-57.8896

G1X17.7018Y-57.8134

G1X17.7055Y-57.7370

G1X17.7073Y-57.6606

G1X17.7072Y-57.5840

G1X17.7052Y-57.5073

G1X17.7011Y-57.4303

G1X17.6951Y-57.3532

G1X17.6834Y-57.2469

G1X17.6680Y-57.1422

G1X17.6488Y-57.0391

G1X17.6259Y-56.9377

G1X17.5995Y-56.8380

G1X17.5695Y-56.7401

G1X17.5361Y-56.6440

G1X17.4993Y-56.5499

G1X17.4593Y-56.4577

G1X17.4160Y-56.3676

G1X17.3696Y-56.2796

G1X17.3201Y-56.1937

G1X17.2677Y-56.1100

G1X17.2123Y-56.0287

G1X17.1541Y-55.9497

G1X17.0932Y-55.8731

G1X17.0295Y-55.7989

G1X16.9633Y-55.7273

G1X16.8945Y-55.6583

G1X16.8233Y-55.5920

G1X16.7497Y-55.5284

G1X16.6737Y-55.4675

G1X16.5956Y-55.4095

G1X16.5152Y-55.3544

G1X16.4328Y-55.3022

G1X16.3484Y-55.2531

G1X16.2621Y-55.2071

G1X16.1739Y-55.1642

G1X16.0839Y-55.1245

G1X15.9922Y-55.0881

G1X15.8989Y-55.0550

G1X15.8040Y-55.0253

G1X15.7077Y-54.9991

G1X15.6099Y-54.9764

G1X15.5108Y-54.9573

G1X15.4105Y-54.9418

G1X15.3090Y-54.9300

G1X15.2063Y-54.9220

G1X15.1027Y-54.9178

G1X14.9981Y-54.9175

G1X14.8926Y-54.9212

G1X14.7863Y-54.9288

G1X14.6812Y-54.9404

G1X14.5770Y-54.9560

G1X14.4737Y-54.9754

G1X14.3714Y-54.9987

G1X14.2702Y-55.0257

G1X14.1703Y-55.0563

G1X14.0716Y-55.0905

G1X13.9745Y-55.1282

G1X13.8788Y-55.1693

G1X13.7848Y-55.2136

G1X13.6925Y-55.2612

G1X13.6021Y-55.3120

G1X13.5135Y-55.3658

G1X13.4270Y-55.4225

G1X13.3427Y-55.4822

G1X13.2606Y-55.5446

G1X13.1808Y-55.6098

G1X13.1034Y-55.6777

G1X13.0286Y-55.7481

G1X12.9564Y-55.8209

G1X12.8870Y-55.8962

G1X12.8204Y-55.9737

G1X12.7567Y-56.0535

G1X12.6961Y-56.1354

G1X12.6217Y-56.0658

G1X12.5447Y-55.9988

G1X12.4653Y-55.9345

G1X12.3834Y-55.8730

G1X12.2993Y-55.8143

G1X12.2130Y-55.7585

G1X12.1247Y-55.7058

G1X12.0345Y-55.6560

G1X11.9424Y-55.6094

G1X11.8487Y-55.5659

G1X11.7534Y-55.5256

G1X11.6567Y-55.4887

G1X11.5585Y-55.4550

G1X11.4592Y-55.4249

G1X11.3587Y-55.3982

G1X11.2572Y-55.3750

G1X11.1549Y-55.3555

G1X11.0517Y-55.3396

G1X10.9479Y-55.3275

G1X10.8435Y-55.3191

G1X10.7387Y-55.3147

G1X10.6336Y-55.3141

G1X10.5282Y-55.3176

G1X10.4228Y-55.3251

G1X10.3168Y-55.3368

G1X10.2124Y-55.3522

G1X10.1096Y-55.3713

G1X10.0084Y-55.3941

G1X9.9089Y-55.4205

G1X9.8111Y-55.4504

G1X9.7152Y-55.4837

G1X9.6212Y-55.5203

G1X9.5291Y-55.5603

G1X9.4391Y-55.6034

G1X9.3511Y-55.6497

G1X9.2653Y-55.6991

G1X9.1817Y-55.7514

G1X9.1003Y-55.8066

G1X9.0213Y-55.8647

G1X8.9446Y-55.9256

G1X8.8704Y-55.9891

G1X8.7988Y-56.0552

G1X8.7297Y-56.1239

G1X8.6633Y-56.1951

G1X8.5996Y-56.2686

G1X8.5386Y-56.3445

G1X8.4805Y-56.4226

G1X8.4253Y-56.5028

G1X8.3730Y-56.5852

G1X8.3237Y-56.6696

G1X8.2776Y-56.7559

G1X8.2346Y-56.8441

G1X8.1948Y-56.9341

G1X8.1583Y-57.0258

G1X8.1251Y-57.1192

G1X8.0953Y-57.2141

G1X8.0690Y-57.3106

G1X8.0462Y-57.4085

G1X8.0270Y-57.5077

G1X8.0114Y-57.6082

G1X7.9996Y-57.7099

G1X7.9916Y-57.8127

G1X7.9873Y-57.9166

G1X7.9870Y-58.0215

G1X7.9907Y-58.1273

G1X7.9984Y-58.2339

G1X8.0063Y-58.3109

G1X8.0162Y-58.3873

G1X8.0280Y-58.4631

G1X8.0417Y-58.5385

G1X8.0573Y-58.6134

G1X8.0747Y-58.6877

G1X8.0940Y-58.7617

G1X8.1151Y-58.8352

G1X8.1381Y-58.9083

G1X8.1629Y-58.9810

G1X8.1895Y-59.0533

G1X8.2179Y-59.1253

G1X8.2480Y-59.1969

G1X8.2800Y-59.2682

G1X8.3137Y-59.3392

G1X8.3492Y-59.4100

G1X8.3864Y-59.4804

G1X8.4253Y-59.5507

G1X8.4659Y-59.6207

G1X8.5083Y-59.6905

G1X8.5523Y-59.7602

G1X8.5980Y-59.8297

G1X8.6454Y-59.8990

G1X8.6945Y-59.9683

G1X8.7451Y-60.0374

G1X8.7975Y-60.1065

G1X8.8514Y-60.1754

G1X8.9070Y-60.2444

G1X8.9641Y-60.3133

G1X9.0228Y-60.3822

G1X9.0831Y-60.4512

G1X9.1450Y-60.5202

G1X9.2084Y-60.5892

G1X9.2734Y-60.6583

G1X9.3399Y-60.7275

G1X9.4079Y-60.7968

G1X9.4774Y-60.8663

G1X9.5484Y-60.9359

G1X9.6209Y-61.0057

G1X9.6948Y-61.0756

G1X9.7702Y-61.1458

G1X9.8471Y-61.2162

G1X9.9253Y-61.2869

G1X10.0051Y-61.3578

G1X10.0862Y-61.4291

G1X10.1687Y-61.5006

G1X10.2526Y-61.5725

G1X10.3378Y-61.6447

G1X10.4245Y-61.7173

G1X10.5125Y-61.7903

G1X10.6018Y-61.8637

G1X10.6924Y-61.9375

G1X10.7844Y-62.0118

G1X10.8777Y-62.0865

G1X10.9722Y-62.1617

G1X11.0681Y-62.2375

G1X11.1652Y-62.3137

G1X11.2636Y-62.3905

G1X11.3632Y-62.4679

G1X11.4640Y-62.5458

G1X11.5661Y-62.6244

G1X11.6694Y-62.7036

G1X11.7739Y-62.7834

G1X11.8795Y-62.8639

G1X11.9864Y-62.9451

G1X12.0944Y-63.0269

G1X12.2035Y-63.1095

G1X12.3138Y-63.1929

G1X12.4253Y-63.2770

G1X12.5378Y-63.3619

G1X12.6514Y-63.4475

G1X13.4126Y-64.0237

G1 Z0F20000

(Start Block)


G1X91.3598Y-71.0634
G1Z5.5F20000
(Plotting speed under)
G1 F8000


G1X92.3139Y-71.0350

G1X92.4562Y-71.0310

G1X92.5971Y-71.0270

G1X92.7366Y-71.0231

G1X92.8748Y-71.0191

G1X93.0116Y-71.0150

G1X93.1471Y-71.0109

G1X93.2812Y-71.0067

G1X93.4140Y-71.0023

G1X93.5454Y-70.9978

G1X93.6755Y-70.9931

G1X93.8042Y-70.9883

G1X93.9315Y-70.9832

G1X94.0575Y-70.9779

G1X94.1822Y-70.9723

G1X94.3056Y-70.9664

G1X94.4276Y-70.9603

G1X94.5482Y-70.9538

G1X94.6675Y-70.9469

G1X94.7855Y-70.9397

G1X94.9022Y-70.9321

G1X95.0175Y-70.9240

G1X95.1315Y-70.9155

G1X95.2442Y-70.9066

G1X95.3555Y-70.8971

G1X95.4656Y-70.8872

G1X95.5743Y-70.8767

G1X95.6816Y-70.8657

G1X95.7877Y-70.8540

G1X95.8925Y-70.8418

G1X95.9959Y-70.8290

G1X96.0980Y-70.8155

G1X96.1988Y-70.8013

G1X96.2984Y-70.7864

G1X96.3965Y-70.7709

G1X96.4934Y-70.7545

G1X96.5890Y-70.7375

G1X96.6833Y-70.7196

G1X96.7763Y-70.7009

G1X96.8680Y-70.6814

G1X96.9584Y-70.6611

G1X97.0475Y-70.6398

G1X97.1353Y-70.6177

G1X97.2218Y-70.5946

G1X97.3071Y-70.5707

G1X97.3910Y-70.5457

G1X97.4736Y-70.5197

G1X97.5550Y-70.4928

G1X97.6351Y-70.4648

G1X97.7139Y-70.4357

G1X97.7914Y-70.4056

G1X97.8677Y-70.3744

G1X97.9427Y-70.3420

G1X98.0164Y-70.3085

G1X98.0888Y-70.2738

G1X98.1600Y-70.2379

G1X98.2299Y-70.2008

G1X98.2985Y-70.1625

G1X98.3659Y-70.1229

G1X98.4320Y-70.0820

G1X98.4968Y-70.0398

G1X98.5604Y-69.9963

G1X98.6227Y-69.9514

G1X98.6838Y-69.9051

G1X98.7436Y-69.8575

G1X98.8022Y-69.8084

G1X98.8595Y-69.7579

G1X98.9156Y-69.7059

G1X98.9704Y-69.6524

G1X99.0240Y-69.5974

G1X99.0763Y-69.5409

G1X99.1274Y-69.4828

G1X99.1955Y-69.4004

G1X99.2598Y-69.3163

G1X99.3203Y-69.2306

G1X99.3771Y-69.1435

G1X99.4301Y-69.0550

G1X99.4794Y-68.9653

G1X99.5250Y-68.8744

G1X99.5668Y-68.7824

G1X99.6050Y-68.6894

G1X99.6394Y-68.5955

G1X99.6702Y-68.5009

G1X99.6972Y-68.4056

G1X99.7206Y-68.3097

G1X99.7404Y-68.2133

G1X99.7564Y-68.1165

G1X99.7689Y-68.0194

G1X99.7776Y-67.9221

G1X99.7828Y-67.8246

G1X99.7843Y-67.7272

G1X99.7822Y-67.6299

G1X99.7765Y-67.5328

G1X99.7672Y-67.4359

G1X99.7543Y-67.3394

G1X99.7378Y-67.2434

G1X99.7177Y-67.1480

G1X99.6941Y-67.0532

G1X99.6669Y-66.9592

G1X99.6361Y-66.8661

G1X99.6018Y-66.7739

G1X99.5640Y-66.6828

G1X99.5227Y-66.5928

G1X99.4778Y-66.5041

G1X99.4294Y-66.4168

G1X99.3775Y-66.3309

G1X99.3222Y-66.2465

G1X99.2633Y-66.1638

G1X99.2010Y-66.0828

G1X99.1352Y-66.0036

G1X99.0659Y-65.9264

G1X98.9932Y-65.8512

G1X98.9170Y-65.7781

G1X98.8374Y-65.7073

G1X98.7558Y-65.6400

G1X98.6720Y-65.5761

G1X98.5860Y-65.5156

G1X98.4980Y-65.4585

G1X98.4081Y-65.4048

G1X98.3165Y-65.3545

G1X98.2232Y-65.3077

G1X98.1285Y-65.2643

G1X98.0324Y-65.2243

G1X97.9350Y-65.1879

G1X97.8365Y-65.1549

G1X97.7371Y-65.1254

G1X97.6368Y-65.0995

G1X97.5358Y-65.0770

G1X97.4343Y-65.0582

G1X97.3322Y-65.0429

G1X97.2299Y-65.0311

G1X97.1273Y-65.0229

G1X97.0247Y-65.0184

G1X96.9221Y-65.0174

G1X96.8198Y-65.0201

G1X96.7177Y-65.0265

G1X96.6162Y-65.0364

G1X96.5152Y-65.0501

G1X96.5132Y-64.9482

G1X96.5076Y-64.8463

G1X96.4983Y-64.7445

G1X96.4853Y-64.6429

G1X96.4687Y-64.5417

G1X96.4485Y-64.4410

G1X96.4248Y-64.3409

G1X96.3976Y-64.2415

G1X96.3668Y-64.1430

G1X96.3327Y-64.0455

G1X96.2951Y-63.9491

G1X96.2541Y-63.8540

G1X96.2098Y-63.7602

G1X96.1622Y-63.6680

G1X96.1113Y-63.5773

G1X96.0571Y-63.4884

G1X95.9997Y-63.4014

G1X95.9392Y-63.3164

G1X95.8755Y-63.2335

G1X95.8087Y-63.1529

G1X95.7388Y-63.0746

G1X95.6659Y-62.9989

G1X95.5900Y-62.9258

G1X95.5111Y-62.8555

G1X95.4289Y-62.7876

G1X95.3450Y-62.7235

G1X95.2596Y-62.6631

G1X95.1727Y-62.6065

G1X95.0844Y-62.5535

G1X94.9949Y-62.5043

G1X94.9041Y-62.4587

G1X94.8123Y-62.4169

G1X94.7195Y-62.3788

G1X94.6258Y-62.3443

G1X94.5312Y-62.3135

G1X94.4360Y-62.2864

G1X94.3402Y-62.2629

G1X94.2439Y-62.2431

G1X94.1471Y-62.2269

G1X94.0501Y-62.2144

G1X93.9528Y-62.2055

G1X93.8555Y-62.2003

G1X93.7581Y-62.1986

G1X93.6607Y-62.2006

G1X93.5636Y-62.2062

G1X93.4667Y-62.2154

G1X93.3702Y-62.2282

G1X93.2742Y-62.2445

G1X93.1787Y-62.2645

G1X93.0839Y-62.2880

G1X92.9898Y-62.3151

G1X92.8966Y-62.3458

G1X92.8043Y-62.3800

G1X92.7131Y-62.4178

G1X92.6230Y-62.4591

G1X92.5342Y-62.5039

G1X92.4467Y-62.5523

G1X92.3606Y-62.6042

G1X92.2761Y-62.6596

G1X92.1932Y-62.7186

G1X92.1121Y-62.7810

G1X92.0327Y-62.8469

G1X91.9553Y-62.9163

G1X91.8799Y-62.9892

G1X91.8066Y-63.0656

G1X91.7355Y-63.1454

G1X91.6859Y-63.2048

G1X91.6381Y-63.2651

G1X91.5919Y-63.3265

G1X91.5474Y-63.3888

G1X91.5046Y-63.4522

G1X91.4634Y-63.5166

G1X91.4239Y-63.5819

G1X91.3859Y-63.6483

G1X91.3495Y-63.7157

G1X91.3147Y-63.7842

G1X91.2814Y-63.8537

G1X91.2496Y-63.9242

G1X91.2193Y-63.9958

G1X91.1904Y-64.0684

G1X91.1630Y-64.1421

G1X91.1370Y-64.2168

G1X91.1124Y-64.2926

G1X91.0892Y-64.3695

G1X91.0674Y-64.4475

G1X91.0468Y-64.5265

G1X91.0276Y-64.6067

G1X91.0096Y-64.6879

G1X90.9930Y-64.7702

G1X90.9775Y-64.8536

G1X90.9633Y-64.9382

G1X90.9503Y-65.0238

G1X90.9384Y-65.1106

G1X90.9277Y-65.1985

G1X90.9182Y-65.2875

G1X90.9097Y-65.3777

G1X90.9023Y-65.4689

G1X90.8960Y-65.5614

G1X90.8908Y-65.6550

G1X90.8865Y-65.7497

G1X90.8832Y-65.8456

G1X90.8810Y-65.9427

G1X90.8796Y-66.0410

G1X90.8792Y-66.1404

G1X90.8797Y-66.2410

G1X90.8811Y-66.3428

G1X90.8834Y-66.4458

G1X90.8865Y-66.5500

G1X90.8904Y-66.6554

G1X90.8951Y-66.7620

G1X90.9006Y-66.8698

G1X90.9068Y-66.9788

G1X90.9138Y-67.0891

G1X90.9215Y-67.2006

G1X90.9298Y-67.3133

G1X90.9389Y-67.4272

G1X90.9485Y-67.5424

G1X90.9588Y-67.6589

G1X90.9697Y-67.7766

G1X90.9811Y-67.8956

G1X90.9931Y-68.0158

G1X91.0057Y-68.1373

G1X91.0187Y-68.2601

G1X91.0322Y-68.3842

G1X91.0462Y-68.5095

G1X91.0607Y-68.6362

G1X91.0755Y-68.7641

G1X91.0907Y-68.8933

G1X91.1064Y-69.0239

G1X91.1223Y-69.1558

G1X91.1386Y-69.2890

G1X91.1552Y-69.4235

G1X91.1721Y-69.5593

G1X91.1893Y-69.6965

G1X91.2067Y-69.8350

G1X91.2243Y-69.9748

G1X91.2421Y-70.1160

G1X91.3598Y-71.0634

G1 Z0F20000

(Start Block)


G1X82.6796Y-130.0438
G1Z5.5F20000
(Plotting speed under)
G1 F8000


G1X83.1415Y-129.2083

G1X83.2106Y-129.0839

G1X83.2790Y-128.9607

G1X83.3468Y-128.8386

G1X83.4137Y-128.7177

G1X83.4800Y-128.5979

G1X83.5455Y-128.4792

G1X83.6102Y-128.3617

G1X83.6741Y-128.2453

G1X83.7372Y-128.1299

G1X83.7995Y-128.0156

G1X83.8609Y-127.9024

G1X83.9214Y-127.7902

G1X83.9811Y-127.6791

G1X84.0398Y-127.5690

G1X84.0977Y-127.4599

G1X84.1545Y-127.3518

G1X84.2104Y-127.2447

G1X84.2654Y-127.1385

G1X84.3193Y-127.0333

G1X84.3722Y-126.9291

G1X84.4240Y-126.8257

G1X84.4748Y-126.7233

G1X84.5246Y-126.6218

G1X84.5732Y-126.5212

G1X84.6207Y-126.4215

G1X84.6671Y-126.3226

G1X84.7123Y-126.2246

G1X84.7564Y-126.1274

G1X84.7993Y-126.0310

G1X84.8409Y-125.9355

G1X84.8814Y-125.8408

G1X84.9205Y-125.7468

G1X84.9585Y-125.6536

G1X84.9951Y-125.5612

G1X85.0305Y-125.4695

G1X85.0645Y-125.3786

G1X85.0972Y-125.2883

G1X85.1285Y-125.1988

G1X85.1585Y-125.1100

G1X85.1870Y-125.0218

G1X85.2142Y-124.9344

G1X85.2399Y-124.8475

G1X85.2641Y-124.7613

G1X85.2869Y-124.6758

G1X85.3082Y-124.5908

G1X85.3280Y-124.5065

G1X85.3463Y-124.4228

G1X85.3631Y-124.3396

G1X85.3782Y-124.2570

G1X85.3918Y-124.1749

G1X85.4038Y-124.0934

G1X85.4142Y-124.0124

G1X85.4229Y-123.9319

G1X85.4300Y-123.8519

G1X85.4354Y-123.7724

G1X85.4391Y-123.6933

G1X85.4411Y-123.6147

G1X85.4413Y-123.5366

G1X85.4399Y-123.4589

G1X85.4366Y-123.3816

G1X85.4316Y-123.3047

G1X85.4247Y-123.2282

G1X85.4161Y-123.1521

G1X85.4055Y-123.0763

G1X85.3932Y-123.0009

G1X85.3789Y-122.9258

G1X85.3628Y-122.8511

G1X85.3447Y-122.7767

G1X85.3247Y-122.7026

G1X85.3027Y-122.6287

G1X85.2788Y-122.5552

G1X85.2426Y-122.4546

G1X85.2030Y-122.3564

G1X85.1601Y-122.2607

G1X85.1141Y-122.1674

G1X85.0650Y-122.0767

G1X85.0129Y-121.9886

G1X84.9579Y-121.9030

G1X84.9001Y-121.8201

G1X84.8396Y-121.7399

G1X84.7764Y-121.6624

G1X84.7106Y-121.5877

G1X84.6424Y-121.5159

G1X84.5718Y-121.4469

G1X84.4989Y-121.3807

G1X84.4238Y-121.3176

G1X84.3466Y-121.2574

G1X84.2674Y-121.2003

G1X84.1862Y-121.1462

G1X84.1031Y-121.0952

G1X84.0183Y-121.0474

G1X83.9318Y-121.0028

G1X83.8438Y-120.9615

G1X83.7542Y-120.9234

G1X83.6632Y-120.8887

G1X83.5708Y-120.8573

G1X83.4773Y-120.8293

G1X83.3825Y-120.8048

G1X83.2867Y-120.7838

G1X83.1899Y-120.7663

G1X83.0923Y-120.7524

G1X82.9938Y-120.7422

G1X82.8946Y-120.7356

G1X82.7948Y-120.7327

G1X82.6944Y-120.7335

G1X82.5936Y-120.7381

G1X82.4925Y-120.7466

G1X82.3910Y-120.7590

G1X82.2894Y-120.7752

G1X82.1876Y-120.7955

G1X82.0859Y-120.8197

G1X81.9842Y-120.8480

G1X81.8826Y-120.8804

G1X81.7832Y-120.9163

G1X81.6855Y-120.9558

G1X81.5896Y-120.9990

G1X81.4957Y-121.0456

G1X81.4036Y-121.0955

G1X81.3137Y-121.1488

G1X81.2258Y-121.2051

G1X81.1402Y-121.2645

G1X81.0568Y-121.3269

G1X80.9758Y-121.3920

G1X80.8973Y-121.4599

G1X80.8213Y-121.5305

G1X80.7478Y-121.6035

G1X80.6770Y-121.6790

G1X80.6090Y-121.7568

G1X80.5438Y-121.8367

G1X80.4816Y-121.9188

G1X80.4223Y-122.0029

G1X80.3660Y-122.0889

G1X80.3130Y-122.1766

G1X80.2631Y-122.2661

G1X80.2165Y-122.3571

G1X80.1734Y-122.4496

G1X80.1336Y-122.5434

G1X80.0450Y-122.4931

G1X79.9544Y-122.4460

G1X79.8621Y-122.4022

G1X79.7681Y-122.3616

G1X79.6726Y-122.3243

G1X79.5756Y-122.2903

G1X79.4774Y-122.2597

G1X79.3780Y-122.2325

G1X79.2776Y-122.2087

G1X79.1763Y-122.1884

G1X79.0742Y-122.1716

G1X78.9715Y-122.1584

G1X78.8682Y-122.1487

G1X78.7646Y-122.1427

G1X78.6607Y-122.1402

G1X78.5566Y-122.1415

G1X78.4525Y-122.1465

G1X78.3485Y-122.1553

G1X78.2447Y-122.1678

G1X78.1413Y-122.1842

G1X78.0383Y-122.2045

G1X77.9360Y-122.2286

G1X77.8344Y-122.2567

G1X77.7337Y-122.2887

G1X77.6334Y-122.3248

G1X77.5355Y-122.3643

G1X77.4401Y-122.4070

G1X77.3470Y-122.4529

G1X77.2565Y-122.5019

G1X77.1685Y-122.5538

G1X77.0830Y-122.6087

G1X77.0002Y-122.6664

G1X76.9201Y-122.7268

G1X76.8427Y-122.7899

G1X76.7680Y-122.8555

G1X76.6961Y-122.9236

G1X76.6271Y-122.9941

G1X76.5610Y-123.0668

G1X76.4977Y-123.1418

G1X76.4375Y-123.2189

G1X76.3803Y-123.2981

G1X76.3261Y-123.3792

G1X76.2751Y-123.4622

G1X76.2272Y-123.5469

G1X76.1825Y-123.6333

G1X76.1410Y-123.7214

G1X76.1028Y-123.8109

G1X76.0680Y-123.9019

G1X76.0365Y-123.9942

G1X76.0084Y-124.0878

G1X75.9838Y-124.1825

G1X75.9626Y-124.2784

G1X75.9451Y-124.3752

G1X75.9311Y-124.4729

G1X75.9207Y-124.5715

G1X75.9140Y-124.6707

G1X75.9110Y-124.7707

G1X75.9118Y-124.8712

G1X75.9164Y-124.9721

G1X75.9249Y-125.0735

G1X75.9372Y-125.1751

G1X75.9535Y-125.2770

G1X75.9737Y-125.3790

G1X75.9980Y-125.4810

G1X76.0264Y-125.5830

G1X76.0589Y-125.6848

G1X76.0846Y-125.7578

G1X76.1122Y-125.8297

G1X76.1414Y-125.9007

G1X76.1724Y-125.9707

G1X76.2051Y-126.0399

G1X76.2395Y-126.1081

G1X76.2756Y-126.1755

G1X76.3133Y-126.2420

G1X76.3528Y-126.3076

G1X76.3939Y-126.3725

G1X76.4367Y-126.4366

G1X76.4812Y-126.4999

G1X76.5273Y-126.5624

G1X76.5751Y-126.6242

G1X76.6246Y-126.6854

G1X76.6756Y-126.7458

G1X76.7283Y-126.8056

G1X76.7826Y-126.8648

G1X76.8385Y-126.9233

G1X76.8961Y-126.9813

G1X76.9552Y-127.0387

G1X77.0160Y-127.0955

G1X77.0783Y-127.1518

G1X77.1422Y-127.2076

G1X77.2077Y-127.2629

G1X77.2747Y-127.3178

G1X77.3433Y-127.3722

G1X77.4135Y-127.4262

G1X77.4852Y-127.4798

G1X77.5585Y-127.5331

G1X77.6333Y-127.5859

G1X77.7096Y-127.6385

G1X77.7874Y-127.6907

G1X77.8668Y-127.7427

G1X77.9476Y-127.7943

G1X78.0300Y-127.8458

G1X78.1139Y-127.8970

G1X78.1992Y-127.9480

G1X78.2860Y-127.9989

G1X78.3743Y-128.0496

G1X78.4641Y-128.1001

G1X78.5553Y-128.1505

G1X78.6479Y-128.2009

G1X78.7421Y-128.2512

G1X78.8376Y-128.3014

G1X78.9346Y-128.3516

G1X79.0330Y-128.4018

G1X79.1328Y-128.4520

G1X79.2341Y-128.5023

G1X79.3367Y-128.5526

G1X79.4408Y-128.6030

G1X79.5462Y-128.6535

G1X79.6530Y-128.7041

G1X79.7612Y-128.7549

G1X79.8708Y-128.8059

G1X79.9817Y-128.8570

G1X80.0940Y-128.9084

G1X80.2076Y-128.9600

G1X80.3226Y-129.0118

G1X80.4389Y-129.0640

G1X80.5566Y-129.1164

G1X80.6755Y-129.1692

G1X80.7958Y-129.2223

G1X80.9174Y-129.2757

G1X81.0403Y-129.3296

G1X81.1645Y-129.3839

G1X81.2900Y-129.4386

G1X81.4167Y-129.4937

G1X81.5448Y-129.5493

G1X81.6741Y-129.6055

G1X81.8046Y-129.6621

G1X82.6796Y-130.0438

G1 Z0F20000

(Start Block)


G1X43.3709Y-138.7850
G1Z5.5F20000
(Plotting speed under)
G1 F8000


G1X44.1943Y-138.3020

G1X44.3172Y-138.2303

G1X44.4389Y-138.1591

G1X44.5594Y-138.0887

G1X44.6787Y-138.0188

G1X44.7968Y-137.9496

G1X44.9136Y-137.8809

G1X45.0292Y-137.8129

G1X45.1436Y-137.7453

G1X45.2567Y-137.6783

G1X45.3686Y-137.6117

G1X45.4791Y-137.5457

G1X45.5884Y-137.4801

G1X45.6964Y-137.4149

G1X45.8031Y-137.3502

G1X45.9085Y-137.2858

G1X46.0126Y-137.2218

G1X46.1153Y-137.1582

G1X46.2167Y-137.0949

G1X46.3167Y-137.0319

G1X46.4154Y-136.9692

G1X46.5127Y-136.9068

G1X46.6086Y-136.8447

G1X46.7032Y-136.7827

G1X46.7963Y-136.7210

G1X46.8881Y-136.6594

G1X46.9784Y-136.5980

G1X47.0673Y-136.5368

G1X47.1547Y-136.4757

G1X47.2408Y-136.4147

G1X47.3253Y-136.3537

G1X47.4084Y-136.2929

G1X47.4901Y-136.2320

G1X47.5702Y-136.1712

G1X47.6489Y-136.1104

G1X47.7261Y-136.0496

G1X47.8017Y-135.9887

G1X47.8759Y-135.9278

G1X47.9485Y-135.8668

G1X48.0195Y-135.8056

G1X48.0891Y-135.7444

G1X48.1570Y-135.6830

G1X48.2234Y-135.6214

G1X48.2883Y-135.5597

G1X48.3515Y-135.4977

G1X48.4132Y-135.4355

G1X48.4732Y-135.3731

G1X48.5317Y-135.3104

G1X48.5885Y-135.2473

G1X48.6437Y-135.1840

G1X48.6972Y-135.1204

G1X48.7491Y-135.0564

G1X48.7993Y-134.9920

G1X48.8479Y-134.9272

G1X48.8948Y-134.8620

G1X48.9400Y-134.7963

G1X48.9835Y-134.7302

G1X49.0253Y-134.6637

G1X49.0654Y-134.5966

G1X49.1038Y-134.5290

G1X49.1404Y-134.4608

G1X49.1753Y-134.3921

G1X49.2084Y-134.3229

G1X49.2398Y-134.2530

G1X49.2694Y-134.1824

G1X49.2972Y-134.1113

G1X49.3232Y-134.0394

G1X49.3474Y-133.9669

G1X49.3699Y-133.8937

G1X49.3905Y-133.8197

G1X49.4092Y-133.7450

G1X49.4262Y-133.6695

G1X49.4463Y-133.5645

G1X49.4623Y-133.4599

G1X49.4743Y-133.3557

G1X49.4823Y-133.2520

G1X49.4863Y-133.1490

G1X49.4865Y-133.0466

G1X49.4828Y-132.9449

G1X49.4754Y-132.8441

G1X49.4642Y-132.7443

G1X49.4494Y-132.6454

G1X49.4309Y-132.5476

G1X49.4089Y-132.4510

G1X49.3834Y-132.3556

G1X49.3544Y-132.2616

G1X49.3220Y-132.1689

G1X49.2863Y-132.0778

G1X49.2473Y-131.9882

G1X49.2051Y-131.9003

G1X49.1596Y-131.8141

G1X49.1110Y-131.7298

G1X49.0594Y-131.6473

G1X49.0047Y-131.5668

G1X48.9471Y-131.4883

G1X48.8865Y-131.4120

G1X48.8231Y-131.3380

G1X48.7569Y-131.2662

G1X48.6879Y-131.1968

G1X48.6162Y-131.1298

G1X48.5419Y-131.0654

G1X48.4650Y-131.0037

G1X48.3855Y-130.9446

G1X48.3036Y-130.8883

G1X48.2192Y-130.8349

G1X48.1325Y-130.7845

G1X48.0434Y-130.7370

G1X47.9520Y-130.6927

G1X47.8585Y-130.6516

G1X47.7627Y-130.6137

G1X47.6649Y-130.5792

G1X47.5650Y-130.5482

G1X47.4631Y-130.5206

G1X47.3593Y-130.4967

G1X47.2555Y-130.4769

G1X47.1512Y-130.4611

G1X47.0468Y-130.4493

G1X46.9422Y-130.4414

G1X46.8375Y-130.4375

G1X46.7330Y-130.4374

G1X46.6287Y-130.4410

G1X46.5247Y-130.4484

G1X46.4212Y-130.4595

G1X46.3183Y-130.4743

G1X46.2161Y-130.4926

G1X46.1147Y-130.5145

G1X46.0143Y-130.5399

G1X45.9149Y-130.5687

G1X45.8168Y-130.6009

G1X45.7199Y-130.6364

G1X45.6245Y-130.6753

G1X45.5306Y-130.7174

G1X45.4384Y-130.7626

G1X45.3480Y-130.8110

G1X45.2595Y-130.8625

G1X45.1730Y-130.9171

G1X45.0887Y-130.9746

G1X45.0066Y-131.0351

G1X44.9560Y-130.9466

G1X44.9022Y-130.8599

G1X44.8451Y-130.7751

G1X44.7850Y-130.6922

G1X44.7218Y-130.6114

G1X44.6558Y-130.5327

G1X44.5869Y-130.4563

G1X44.5153Y-130.3822

G1X44.4411Y-130.3105

G1X44.3643Y-130.2414

G1X44.2851Y-130.1749

G1X44.2034Y-130.1111

G1X44.1196Y-130.0501

G1X44.0335Y-129.9920

G1X43.9453Y-129.9370

G1X43.8551Y-129.8850

G1X43.7630Y-129.8362

G1X43.6691Y-129.7907

G1X43.5735Y-129.7485

G1X43.4762Y-129.7099

G1X43.3773Y-129.6748

G1X43.2770Y-129.6433

G1X43.1753Y-129.6157

G1X43.0723Y-129.5918

G1X42.9676Y-129.5718

G1X42.8633Y-129.5558

G1X42.7594Y-129.5438

G1X42.6559Y-129.5358

G1X42.5531Y-129.5318

G1X42.4509Y-129.5316

G1X42.3494Y-129.5352

G1X42.2488Y-129.5426

G1X42.1490Y-129.5537

G1X42.0502Y-129.5684

G1X41.9526Y-129.5868

G1X41.8560Y-129.6087

G1X41.7607Y-129.6341

G1X41.6667Y-129.6630

G1X41.5740Y-129.6952

G1X41.4829Y-129.7308

G1X41.3933Y-129.7697

G1X41.3054Y-129.8119

G1X41.2191Y-129.8572

G1X41.1347Y-129.9056

G1X41.0522Y-129.9572

G1X40.9716Y-130.0118

G1X40.8931Y-130.0693

G1X40.8167Y-130.1298

G1X40.7425Y-130.1931

G1X40.6706Y-130.2593

G1X40.6011Y-130.3282

G1X40.5341Y-130.3999

G1X40.4696Y-130.4742

G1X40.4077Y-130.5511

G1X40.3485Y-130.6306

G1X40.2921Y-130.7126

G1X40.2386Y-130.7970

G1X40.1880Y-130.8838

G1X40.1405Y-130.9730

G1X40.0960Y-131.0645

G1X40.0548Y-131.1582

G1X40.0168Y-131.2541

G1X39.9822Y-131.3522

G1X39.9511Y-131.4524

G1X39.9235Y-131.5545

G1X39.8994Y-131.6587

G1X39.8844Y-131.7346

G1X39.8714Y-131.8105

G1X39.8604Y-131.8865

G1X39.8513Y-131.9625

G1X39.8441Y-132.0387

G1X39.8389Y-132.1149

G1X39.8356Y-132.1912

G1X39.8342Y-132.2677

G1X39.8346Y-132.3443

G1X39.8369Y-132.4211

G1X39.8411Y-132.4980

G1X39.8470Y-132.5752

G1X39.8548Y-132.6525

G1X39.8643Y-132.7301

G1X39.8757Y-132.8078

G1X39.8888Y-132.8859

G1X39.9036Y-132.9642

G1X39.9201Y-133.0428

G1X39.9384Y-133.1217

G1X39.9583Y-133.2009

G1X39.9799Y-133.2804

G1X40.0031Y-133.3603

G1X40.0280Y-133.4405

G1X40.0545Y-133.5211

G1X40.0826Y-133.6021

G1X40.1123Y-133.6834

G1X40.1436Y-133.7652

G1X40.1764Y-133.8475

G1X40.2108Y-133.9302

G1X40.2466Y-134.0133

G1X40.2840Y-134.0970

G1X40.3228Y-134.1811

G1X40.3631Y-134.2657

G1X40.4049Y-134.3509

G1X40.4481Y-134.4366

G1X40.4927Y-134.5228

G1X40.5387Y-134.6097

G1X40.5860Y-134.6971

G1X40.6348Y-134.7851

G1X40.6849Y-134.8737

G1X40.7363Y-134.9630

G1X40.7890Y-135.0529

G1X40.8431Y-135.1435

G1X40.8984Y-135.2347

G1X40.9549Y-135.3266

G1X41.0127Y-135.4193

G1X41.0718Y-135.5127

G1X41.1320Y-135.6068

G1X41.1935Y-135.7017

G1X41.2561Y-135.7973

G1X41.3199Y-135.8937

G1X41.3848Y-135.9909

G1X41.4509Y-136.0890

G1X41.5180Y-136.1878

G1X41.5863Y-136.2876

G1X41.6556Y-136.3881

G1X41.7260Y-136.4896

G1X41.7974Y-136.5919

G1X41.8699Y-136.6952

G1X41.9433Y-136.7993

G1X42.0178Y-136.9044

G1X42.0932Y-137.0105

G1X42.1695Y-137.1175

G1X42.2469Y-137.2255

G1X42.3251Y-137.3346

G1X42.4042Y-137.4446

G1X42.4843Y-137.5556

G1X42.5652Y-137.6677

G1X42.6469Y-137.7809

G1X42.7295Y-137.8951

G1X42.8129Y-138.0104

G1X43.3709Y-138.7850

G1 Z0F20000

(Start Block)


G1X10.7893Y-104.3514
G1Z5.5F20000
(Plotting speed under)
G1 F8000


G1X11.2878Y-103.5373

G1X11.3623Y-103.4160

G1X11.4361Y-103.2959

G1X11.5092Y-103.1770

G1X11.5815Y-103.0591

G1X11.6530Y-102.9424

G1X11.7236Y-102.8268

G1X11.7935Y-102.7122

G1X11.8625Y-102.5987

G1X11.9307Y-102.4863

G1X11.9979Y-102.3749

G1X12.0643Y-102.2645

G1X12.1297Y-102.1551

G1X12.1943Y-102.0467

G1X12.2578Y-101.9393

G1X12.3204Y-101.8329

G1X12.3820Y-101.7274

G1X12.4426Y-101.6229

G1X12.5022Y-101.5192

G1X12.5607Y-101.4165

G1X12.6182Y-101.3147

G1X12.6746Y-101.2138

G1X12.7299Y-101.1137

G1X12.7840Y-101.0145

G1X12.8371Y-100.9162

G1X12.8890Y-100.8186

G1X12.9397Y-100.7219

G1X12.9892Y-100.6260

G1X13.0375Y-100.5309

G1X13.0846Y-100.4365

G1X13.1305Y-100.3429

G1X13.1751Y-100.2500

G1X13.2184Y-100.1579

G1X13.2604Y-100.0665

G1X13.3011Y-99.9758

G1X13.3405Y-99.8858

G1X13.3785Y-99.7964

G1X13.4151Y-99.7077

G1X13.4504Y-99.6197

G1X13.4843Y-99.5323

G1X13.5167Y-99.4455

G1X13.5477Y-99.3593

G1X13.5772Y-99.2737

G1X13.6053Y-99.1886

G1X13.6318Y-99.1042

G1X13.6569Y-99.0203

G1X13.6804Y-98.9369

G1X13.7024Y-98.8540

G1X13.7228Y-98.7717

G1X13.7416Y-98.6898

G1X13.7588Y-98.6084

G1X13.7744Y-98.5275

G1X13.7883Y-98.4470

G1X13.8006Y-98.3670

G1X13.8112Y-98.2874

G1X13.8202Y-98.2082

G1X13.8274Y-98.1294

G1X13.8328Y-98.0510

G1X13.8366Y-97.9729

G1X13.8385Y-97.8952

G1X13.8387Y-97.8179

G1X13.8371Y-97.7408

G1X13.8336Y-97.6641

G1X13.8283Y-97.5877

G1X13.8212Y-97.5115

G1X13.8122Y-97.4356

G1X13.8012Y-97.3600

G1X13.7884Y-97.2846

G1X13.7737Y-97.2095

G1X13.7570Y-97.1345

G1X13.7383Y-97.0598

G1X13.7176Y-96.9852

G1X13.6859Y-96.8832

G1X13.6507Y-96.7834

G1X13.6121Y-96.6858

G1X13.5703Y-96.5906

G1X13.5253Y-96.4978

G1X13.4771Y-96.4074

G1X13.4260Y-96.3195

G1X13.3719Y-96.2342

G1X13.3150Y-96.1514

G1X13.2553Y-96.0712

G1X13.1929Y-95.9936

G1X13.1279Y-95.9188

G1X13.0605Y-95.8467

G1X12.9906Y-95.7775

G1X12.9183Y-95.7110

G1X12.8439Y-95.6475

G1X12.7672Y-95.5869

G1X12.6885Y-95.5293

G1X12.6078Y-95.4747

G1X12.5252Y-95.4232

G1X12.4408Y-95.3748

G1X12.3546Y-95.3296

G1X12.2668Y-95.2876

G1X12.1774Y-95.2488

G1X12.0866Y-95.2134

G1X11.9943Y-95.1813

G1X11.9008Y-95.1526

G1X11.8060Y-95.1274

G1X11.7101Y-95.1057

G1X11.6131Y-95.0875

G1X11.5152Y-95.0728

G1X11.4164Y-95.0618

G1X11.3168Y-95.0545

G1X11.2165Y-95.0509

G1X11.1156Y-95.0511

G1X11.0141Y-95.0551

G1X10.9122Y-95.0629

G1X10.8100Y-95.0747

G1X10.7074Y-95.0904

G1X10.6047Y-95.1101

G1X10.5019Y-95.1338

G1X10.3990Y-95.1617

G1X10.2981Y-95.1931

G1X10.1987Y-95.2283

G1X10.1010Y-95.2672

G1X10.0051Y-95.3096

G1X9.9109Y-95.3554

G1X9.8187Y-95.4046

G1X9.7285Y-95.4570

G1X9.6403Y-95.5126

G1X9.5542Y-95.5712

G1X9.4704Y-95.6327

G1X9.3889Y-95.6971

G1X9.3099Y-95.7641

G1X9.2333Y-95.8339

G1X9.1592Y-95.9061

G1X9.0878Y-95.9808

G1X9.0192Y-96.0578

G1X8.9533Y-96.1371

G1X8.8903Y-96.2184

G1X8.8304Y-96.3018

G1X8.7735Y-96.3871

G1X8.7197Y-96.4743

G1X8.6691Y-96.5631

G1X8.6219Y-96.6536

G1X8.5781Y-96.7456

G1X8.4917Y-96.6915

G1X8.4033Y-96.6404

G1X8.3130Y-96.5925

G1X8.2209Y-96.5478

G1X8.1271Y-96.5063

G1X8.0318Y-96.4680

G1X7.9350Y-96.4331

G1X7.8370Y-96.4015

G1X7.7377Y-96.3733

G1X7.6374Y-96.3486

G1X7.5362Y-96.3273

G1X7.4341Y-96.3095

G1X7.3314Y-96.2953

G1X7.2281Y-96.2846

G1X7.1244Y-96.2776

G1X7.0203Y-96.2743

G1X6.9161Y-96.2747

G1X6.8118Y-96.2788

G1X6.7076Y-96.2868

G1X6.6036Y-96.2985

G1X6.4998Y-96.3142

G1X6.3965Y-96.3338

G1X6.2938Y-96.3573

G1X6.1917Y-96.3849

G1X6.0900Y-96.4165

G1X5.9904Y-96.4516

G1X5.8932Y-96.4900

G1X5.7982Y-96.5318

G1X5.7055Y-96.5767

G1X5.6153Y-96.6247

G1X5.5275Y-96.6757

G1X5.4423Y-96.7297

G1X5.3595Y-96.7865

G1X5.2794Y-96.8461

G1X5.2019Y-96.9083

G1X5.1271Y-96.9732

G1X5.0550Y-97.0405

G1X4.9857Y-97.1103

G1X4.9192Y-97.1824

G1X4.8556Y-97.2568

G1X4.7950Y-97.3333

G1X4.7373Y-97.4119

G1X4.6826Y-97.4926

G1X4.6310Y-97.5751

G1X4.5825Y-97.6595

G1X4.5372Y-97.7456

G1X4.4951Y-97.8333

G1X4.4562Y-97.9227

G1X4.4206Y-98.0135

G1X4.3884Y-98.1058

G1X4.3596Y-98.1993

G1X4.3343Y-98.2941

G1X4.3124Y-98.3901

G1X4.2941Y-98.4871

G1X4.2794Y-98.5851

G1X4.2683Y-98.6840

G1X4.2609Y-98.7837

G1X4.2573Y-98.8841

G1X4.2574Y-98.9852

G1X4.2613Y-99.0868

G1X4.2692Y-99.1889

G1X4.2809Y-99.2914

G1X4.2966Y-99.3942

G1X4.3164Y-99.4972

G1X4.3402Y-99.6003

G1X4.3681Y-99.7035

G1X4.3907Y-99.7775

G1X4.4150Y-99.8506

G1X4.4411Y-99.9228

G1X4.4689Y-99.9941

G1X4.4985Y-100.0647

G1X4.5298Y-100.1343

G1X4.5629Y-100.2032

G1X4.5977Y-100.2713

G1X4.6342Y-100.3387

G1X4.6724Y-100.4053

G1X4.7124Y-100.4712

G1X4.7540Y-100.5364

G1X4.7973Y-100.6010

G1X4.8423Y-100.6648

G1X4.8890Y-100.7281

G1X4.9373Y-100.7908

G1X4.9873Y-100.8528

G1X5.0389Y-100.9143

G1X5.0922Y-100.9753

G1X5.1471Y-101.0358

G1X5.2037Y-101.0957

G1X5.2618Y-101.1552

G1X5.3216Y-101.2142

G1X5.3830Y-101.2728

G1X5.4459Y-101.3309

G1X5.5105Y-101.3887

G1X5.5766Y-101.4461

G1X5.6443Y-101.5032

G1X5.7136Y-101.5599

G1X5.7844Y-101.6163

G1X5.8568Y-101.6725

G1X5.9307Y-101.7283

G1X6.0062Y-101.7840

G1X6.0831Y-101.8394

G1X6.1616Y-101.8946

G1X6.2416Y-101.9496

G1X6.3231Y-102.0045

G1X6.4061Y-102.0593

G1X6.4906Y-102.1139

G1X6.5766Y-102.1685

G1X6.6640Y-102.2229

G1X6.7529Y-102.2774

G1X6.8432Y-102.3318

G1X6.9350Y-102.3862

G1X7.0283Y-102.4406

G1X7.1229Y-102.4950

G1X7.2190Y-102.5495

G1X7.3165Y-102.6041

G1X7.4154Y-102.6588

G1X7.5158Y-102.7136

G1X7.6175Y-102.7686

G1X7.7206Y-102.8237

G1X7.8250Y-102.8790

G1X7.9309Y-102.9346

G1X8.0381Y-102.9903

G1X8.1466Y-103.0463

G1X8.2565Y-103.1026

G1X8.3678Y-103.1592

G1X8.4803Y-103.2161

G1X8.5942Y-103.2733

G1X8.7094Y-103.3309

G1X8.8259Y-103.3889

G1X8.9438Y-103.4473

G1X9.0629Y-103.5061

G1X9.1833Y-103.5653

G1X9.3049Y-103.6250

G1X9.4278Y-103.6852

G1X9.5520Y-103.7460

G1X9.6775Y-103.8072

G1X9.8042Y-103.8690

G1X9.9321Y-103.9314

G1X10.7893Y-104.3514

G1 Z0F20000


G00 X0.0000 Y0.0000


