$H
G21
G17
G90
G1 Z0F20000
G1 F15000

(Start Layer)

(Start Block)


G1X19.1655Y-107.3719
G1Z6F20000
(Plotting speed under)
G1 F4000


G1X20.4906Y-106.2811

G1X22.6530Y-104.2416

G1X24.0560Y-103.2326

G1X24.8956Y-102.8104

G1X25.8448Y-102.4847

G1X26.8267Y-102.2922

G1X27.9602Y-102.2175

G1X29.0513Y-102.2649

G1X30.2958Y-102.4324

G1X32.9596Y-103.1002

G1X35.5176Y-104.0283

G1X40.7535Y-106.2491

G1X43.0845Y-107.0049

G1X44.3195Y-107.2459

G1X45.5755Y-107.3463

G1X46.7767Y-107.2910

G1X47.9017Y-107.0943

G1X49.0435Y-106.7402

G1X50.0574Y-106.2792

G1X51.0422Y-105.6763

G1X51.9838Y-104.9154

G1X53.7652Y-102.9358

G1X56.4014Y-99.3878

G1X57.5482Y-98.2790

G1X58.3259Y-97.8236

G1X59.2179Y-97.5143

G1X60.2923Y-97.3360

G1X61.5626Y-97.2948

G1X63.8629Y-97.5054

G1X66.4414Y-98.0480

G1X68.9822Y-98.8599

G1X71.3926Y-99.8957

G1X73.5624Y-101.0730

G1X75.6015Y-102.4157

G1X77.4375Y-103.8283

G1X80.6105Y-106.5197

G1X81.7128Y-107.3241

G1X82.6510Y-107.8271

G1X85.4633Y-108.9049

G1 Z0F20000

(Start Block)


G1X19.1725Y-106.1879
G1Z6F20000
(Plotting speed under)
G1 F4000


G1X20.5682Y-105.0217

G1X22.7208Y-102.9453

G1X24.0473Y-101.9757

G1X24.8657Y-101.5546

G1X25.8094Y-101.2238

G1X26.7881Y-101.0293

G1X27.9212Y-100.9562

G1X29.1172Y-101.0184

G1X30.3697Y-101.2049

G1X33.1592Y-101.9581

G1X35.7525Y-102.9653

G1X41.0294Y-105.3547

G1X43.2721Y-106.1282

G1X44.4976Y-106.3841

G1X45.7488Y-106.4929

G1X46.9175Y-106.4428

G1X48.0486Y-106.2459

G1X49.0966Y-105.9246

G1X50.2045Y-105.4244

G1X51.2071Y-104.8048

G1X52.1491Y-104.0363

G1X53.0807Y-103.0779

G1X54.0579Y-101.9192

G1X56.8388Y-98.0827

G1X57.8816Y-97.0481

G1X58.5938Y-96.6059

G1X59.5083Y-96.2651

G1X60.5989Y-96.0699

G1X61.7829Y-96.0156

G1X63.9799Y-96.1752

G1X66.4616Y-96.6337

G1X68.9284Y-97.3361

G1X71.3908Y-98.2837

G1X73.4932Y-99.3016

G1X75.5893Y-100.5204

G1X77.4570Y-101.7759

G1X80.7487Y-104.1868

G1X81.9592Y-104.9597

G1X82.9136Y-105.4195

G1X85.8218Y-106.4828

G1 Z0F20000

(Start Block)


G1X19.1524Y-105.1483
G1Z6F20000
(Plotting speed under)
G1 F4000


G1X20.5599Y-103.9904

G1X22.7344Y-101.9032

G1X24.1431Y-100.8859

G1X24.9967Y-100.4633

G1X25.9480Y-100.1501

G1X26.9344Y-99.9745

G1X28.0423Y-99.9225

G1X29.2611Y-100.0064

G1X30.5179Y-100.2164

G1X33.2661Y-101.0100

G1X35.8709Y-102.0791

G1X41.0860Y-104.5717

G1X43.3101Y-105.3770

G1X44.5230Y-105.6416

G1X45.7682Y-105.7561

G1X46.9215Y-105.7098

G1X48.0607Y-105.5148

G1X49.2028Y-105.1620

G1X50.3327Y-104.6441

G1X51.4305Y-103.9503

G1X52.3851Y-103.1506

G1X54.2248Y-101.1334

G1X57.1500Y-96.9800

G1X57.7127Y-96.3112

G1X58.2672Y-95.8016

G1X58.9828Y-95.3444

G1X59.8047Y-95.0240

G1X60.7874Y-94.8237

G1X61.9708Y-94.7426

G1X64.0952Y-94.8541

G1X66.4774Y-95.2356

G1X68.8667Y-95.8384

G1X71.2893Y-96.6682

G1X73.3967Y-97.5756

G1X75.4743Y-98.6443

G1X77.3228Y-99.7334

G1X80.8535Y-101.9894

G1X82.0645Y-102.6697

G1X82.9702Y-103.0684

G1X86.0046Y-104.1338

G1 Z0F20000

(Start Block)


G1X19.1411Y-104.0591
G1Z6F20000
(Plotting speed under)
G1 F4000


G1X20.5535Y-102.9223

G1X22.7456Y-100.8493

G1X24.1659Y-99.8413

G1X25.0257Y-99.4252

G1X25.9832Y-99.1202

G1X26.9747Y-98.9537

G1X28.0869Y-98.9131

G1X29.3087Y-99.0108

G1X30.5663Y-99.2361

G1X33.3080Y-100.0674

G1X35.9846Y-101.2194

G1X41.0366Y-103.7509

G1X43.2258Y-104.5882

G1X44.5343Y-104.8880

G1X45.7741Y-105.0046

G1X47.0147Y-104.9495

G1X48.1654Y-104.7415

G1X49.3934Y-104.3464

G1X50.6418Y-103.7434

G1X51.7206Y-103.0284

G1X52.7710Y-102.1156

G1X54.6648Y-100.0153

G1X57.5591Y-95.8232

G1X58.1120Y-95.1452

G1X58.7125Y-94.5817

G1X59.4207Y-94.1276

G1X60.1609Y-93.8309

G1X61.1235Y-93.6192

G1X62.2168Y-93.5258

G1X64.1747Y-93.5869

G1X66.4689Y-93.8963

G1X68.8716Y-94.4325

G1X71.2656Y-95.1681

G1X73.2845Y-95.9455

G1X75.3620Y-96.8949

G1X82.0205Y-100.4787

G1X86.0467Y-101.8729

G1 Z0F20000

(Start Block)


G1X19.1747Y-102.7362
G1Z6F20000
(Plotting speed under)
G1 F4000


G1X20.5486Y-101.6424

G1X22.7317Y-99.5887

G1X24.0719Y-98.6437

G1X25.0044Y-98.1985

G1X25.9629Y-97.9060

G1X26.9572Y-97.7517

G1X28.0733Y-97.7241

G1X29.2998Y-97.8356

G1X30.5623Y-98.0753

G1X31.9542Y-98.4607

G1X33.4057Y-98.9773

G1X36.0792Y-100.1765

G1X41.1009Y-102.8008

G1X43.2796Y-103.6739

G1X44.4663Y-103.9686

G1X45.6941Y-104.1126

G1X46.9273Y-104.0855

G1X48.1830Y-103.8795

G1X49.5028Y-103.4644

G1X50.7685Y-102.8581

G1X51.9300Y-102.0887

G1X53.0782Y-101.0946

G1X54.9909Y-99.0083

G1X55.9978Y-97.6660

G1X58.0088Y-94.7204

G1X58.5701Y-94.0445

G1X59.1385Y-93.5114

G1X59.8456Y-93.0465

G1X60.6282Y-92.7229

G1X61.5842Y-92.5040

G1X62.5999Y-92.4038

G1X64.4588Y-92.4309

G1X66.5944Y-92.6757

G1X68.9512Y-93.1426

G1X71.2464Y-93.7748

G1X73.2329Y-94.4588

G1X75.2959Y-95.2982

G1X81.8295Y-98.3844

G1X85.9764Y-99.6808

G1 Z0F20000

(Start Block)


G1X19.2350Y-101.2186
G1Z6F20000
(Plotting speed under)
G1 F4000


G1X20.5675Y-100.1609

G1X22.6919Y-98.1607

G1X24.0125Y-97.2463

G1X24.9385Y-96.8194

G1X25.8948Y-96.5428

G1X27.0031Y-96.3945

G1X28.1110Y-96.3929

G1X29.3477Y-96.5283

G1X30.7284Y-96.8171

G1X32.1331Y-97.2346

G1X33.5680Y-97.7711

G1X36.2523Y-99.0211

G1X41.2820Y-101.7448

G1X43.4745Y-102.6553

G1X44.6544Y-102.9584

G1X45.8778Y-103.1087

G1X47.0759Y-103.0887

G1X48.3328Y-102.8899

G1X49.6302Y-102.4911

G1X50.9055Y-101.8933

G1X52.0584Y-101.1455

G1X53.3058Y-100.1015

G1X55.3215Y-97.9824

G1X58.4340Y-93.7760

G1X59.0194Y-93.0962

G1X59.6453Y-92.5237

G1X60.3685Y-92.0532

G1X61.2082Y-91.7049

G1X62.1693Y-91.4804

G1X63.2234Y-91.3702

G1X64.9921Y-91.3810

G1X66.9112Y-91.5723

G1X68.9472Y-91.9255

G1X71.1382Y-92.4541

G1X75.0073Y-93.7280

G1X81.6892Y-96.4623

G1X85.8174Y-97.5785

G1 Z0F20000

(Start Block)


G1X19.2973Y-99.5427
G1Z6F20000
(Plotting speed under)
G1 F4000


G1X20.5755Y-98.5301

G1X22.6193Y-96.6030

G1X24.0127Y-95.6758

G1X24.9322Y-95.2881

G1X25.8887Y-95.0449

G1X27.0029Y-94.9278

G1X28.2056Y-94.9580

G1X29.4583Y-95.1252

G1X30.8570Y-95.4443

G1X32.2657Y-95.8840

G1X33.7991Y-96.4797

G1X36.5059Y-97.7812

G1X41.5785Y-100.6050

G1X43.5983Y-101.4815

G1X44.7700Y-101.8124

G1X45.9835Y-101.9912

G1X47.1551Y-102.0002

G1X48.4030Y-101.8333

G1X49.6808Y-101.4727

G1X50.9559Y-100.9111

G1X52.1053Y-100.2049

G1X53.4520Y-99.1427

G1X55.4611Y-97.1728

G1X58.9021Y-92.9068

G1X59.6066Y-92.1569

G1X60.2510Y-91.6126

G1X61.0306Y-91.1331

G1X61.8970Y-90.7845

G1X62.8722Y-90.5553

G1X63.9695Y-90.4345

G1X65.5455Y-90.4251

G1X67.2581Y-90.5620

G1X69.1591Y-90.8456

G1X71.0781Y-91.2479

G1X74.7976Y-92.3098

G1X81.3368Y-94.6113

G1X85.5960Y-95.5808

G1 Z0F20000

(Start Block)


G1X19.3363Y-97.7438
G1Z6F20000
(Plotting speed under)
G1 F4000


G1X20.5359Y-96.8027

G1X22.4237Y-95.0193

G1X23.8672Y-94.0759

G1X24.7761Y-93.7128

G1X25.8368Y-93.4714

G1X26.9577Y-93.3836

G1X28.2583Y-93.4461

G1X29.5291Y-93.6405

G1X30.9905Y-93.9956

G1X32.4491Y-94.4692

G1X34.0056Y-95.0900

G1X36.8400Y-96.4821

G1X41.8962Y-99.3550

G1X43.8579Y-100.2367

G1X45.0266Y-100.5883

G1X46.2349Y-100.7875

G1X47.3666Y-100.8162

G1X48.5003Y-100.6925

G1X49.7526Y-100.3779

G1X51.0198Y-99.8619

G1X52.1581Y-99.2067

G1X53.5154Y-98.2149

G1X54.7739Y-97.1379

G1X55.9735Y-95.9646

G1X59.5788Y-91.9472

G1X60.9535Y-90.7894

G1X61.7816Y-90.3198

G1X62.6838Y-89.9727

G1X63.6796Y-89.7386

G1X64.9313Y-89.5984

G1X66.3155Y-89.5797

G1X67.8132Y-89.6724

G1X71.1406Y-90.1731

G1X74.5015Y-90.9833

G1X81.0955Y-92.9323

G1X85.3391Y-93.6961

G1 Z0F20000

(Start Block)


G1X19.3305Y-95.8579
G1Z6F20000
(Plotting speed under)
G1 F4000


G1X20.4708Y-94.9813

G1X22.3489Y-93.2431

G1X23.0058Y-92.7863

G1X23.7750Y-92.3803

G1X24.7821Y-92.0311

G1X25.8510Y-91.8408

G1X27.0361Y-91.7939

G1X28.3767Y-91.8983

G1X29.7808Y-92.1472

G1X31.2154Y-92.5224

G1X32.7999Y-93.0593

G1X34.3820Y-93.7101

G1X37.1620Y-95.0964

G1X42.2294Y-98.0092

G1X44.0358Y-98.8584

G1X45.9601Y-99.4199

G1X46.9630Y-99.5417

G1X47.9050Y-99.5451

G1X49.1475Y-99.3854

G1X50.3223Y-99.0615

G1X51.4892Y-98.5645

G1X52.5645Y-97.9392

G1X54.0677Y-96.8861

G1X55.5414Y-95.6802

G1X59.6149Y-91.7321

G1X60.8743Y-90.6542

G1X61.7216Y-90.0817

G1X62.5058Y-89.6710

G1X63.3355Y-89.3489

G1X64.3381Y-89.0867

G1X65.6573Y-88.9013

G1X67.0728Y-88.8465

G1X68.7337Y-88.9166

G1X70.5300Y-89.1122

G1X74.0591Y-89.7557

G1X80.9308Y-91.3931

G1X85.0718Y-91.9272

G1 Z0F20000

(Start Block)


G1X19.2654Y-93.9206
G1Z6F20000
(Plotting speed under)
G1 F4000


G1X20.3307Y-93.1354

G1X22.1461Y-91.5080

G1X22.8792Y-91.0329

G1X23.6397Y-90.6722

G1X24.6444Y-90.3669

G1X25.8286Y-90.1997

G1X27.0978Y-90.1912

G1X28.4628Y-90.3291

G1X29.9209Y-90.6088

G1X31.5119Y-91.0433

G1X33.1270Y-91.6056

G1X34.7373Y-92.2768

G1X37.6566Y-93.7435

G1X42.6623Y-96.6316

G1X44.5450Y-97.5241

G1X45.6105Y-97.8884

G1X46.5889Y-98.1113

G1X47.4842Y-98.2141

G1X48.4603Y-98.2143

G1X49.4914Y-98.0870

G1X50.6147Y-97.7979

G1X51.6724Y-97.3755

G1X52.7364Y-96.8035

G1X54.1429Y-95.9190

G1X55.6424Y-94.8409

G1X60.0160Y-91.2143

G1X61.4653Y-90.1401

G1X63.2712Y-89.1523

G1X65.1283Y-88.5582

G1X66.3415Y-88.3519

G1X67.6389Y-88.2482

G1X70.7646Y-88.3396

G1X74.0053Y-88.7577

G1X80.7745Y-89.9684

G1X84.8164Y-90.2730

G1 Z0F20000

(Start Block)


G1X19.1349Y-91.9667
G1Z6F20000
(Plotting speed under)
G1 F4000


G1X20.1571Y-91.2605

G1X21.9035Y-89.7758

G1X22.7142Y-89.2952

G1X23.5678Y-88.9452

G1X24.6853Y-88.6771

G1X25.8917Y-88.5668

G1X27.2380Y-88.6035

G1X28.6322Y-88.7757

G1X30.1627Y-89.0903

G1X31.7854Y-89.5458

G1X35.0707Y-90.8041

G1X38.0428Y-92.2853

G1X43.2844Y-95.2874

G1X45.0639Y-96.1274

G1X47.0093Y-96.7084

G1X48.0161Y-96.8363

G1X48.9239Y-96.8438

G1X49.9488Y-96.7285

G1X50.9013Y-96.5016

G1X51.7673Y-96.1911

G1X52.8174Y-95.6930

G1X55.6473Y-94.0532

G1X60.3958Y-90.7782

G1X62.0701Y-89.7315

G1X64.0111Y-88.7875

G1X66.0384Y-88.1530

G1X68.4392Y-87.7894

G1X71.3077Y-87.7325

G1X74.2396Y-87.9358

G1X80.8873Y-88.6776

G1X84.5913Y-88.7293

G1 Z0F20000

(Start Block)


G1X18.9417Y-90.0283
G1Z6F20000
(Plotting speed under)
G1 F4000


G1X19.9068Y-89.4247

G1X21.7188Y-88.0169

G1X22.5239Y-87.5962

G1X23.3777Y-87.2910

G1X24.4992Y-87.0602

G1X25.8265Y-86.9697

G1X27.2598Y-87.0326

G1X28.8849Y-87.2554

G1X30.4902Y-87.6028

G1X32.1439Y-88.0755

G1X33.8185Y-88.6630

G1X35.5665Y-89.3866

G1X38.6054Y-90.8903

G1X43.9080Y-93.8911

G1X45.6932Y-94.7244

G1X46.6673Y-95.0644

G1X47.6546Y-95.3038

G1X48.5518Y-95.4211

G1X49.4742Y-95.4372

G1X51.1390Y-95.1907

G1X52.9035Y-94.5510

G1X55.7668Y-93.1776

G1X60.7380Y-90.4208

G1X62.7466Y-89.3951

G1X64.9229Y-88.4931

G1X67.0379Y-87.8715

G1X69.3462Y-87.4613

G1X71.9983Y-87.2596

G1X74.7581Y-87.2544

G1X81.1648Y-87.4705

G1X84.4103Y-87.2905

G1 Z0F20000

(Start Block)


G1X18.6961Y-88.1334
G1Z6F20000
(Plotting speed under)
G1 F4000


G1X19.6448Y-87.6124

G1X21.5534Y-86.3003

G1X22.4179Y-85.9191

G1X23.3810Y-85.6422

G1X24.6326Y-85.4568

G1X26.0260Y-85.4184

G1X27.4917Y-85.5181

G1X29.1767Y-85.7700

G1X30.9141Y-86.1576

G1X32.5962Y-86.6431

G1X36.0824Y-87.9682

G1X38.6586Y-89.2043

G1X44.2401Y-92.3045

G1X46.3212Y-93.2860

G1X48.2985Y-93.8723

G1X49.1988Y-93.9919

G1X50.1213Y-94.0097

G1X51.5874Y-93.8101

G1X53.4789Y-93.2159

G1X56.2587Y-92.1558

G1X63.5912Y-89.1078

G1X66.0008Y-88.2811

G1X68.3044Y-87.6562

G1X70.5324Y-87.2098

G1X73.0233Y-86.8707

G1X75.6801Y-86.6465

G1X81.8438Y-86.2982

G1X84.2827Y-85.9504

G1 Z0F20000

(Start Block)


G1X18.4150Y-86.3048
G1Z6F20000
(Plotting speed under)
G1 F4000


G1X19.3607Y-85.8653

G1X21.3755Y-84.6715

G1X22.2491Y-84.3438

G1X23.3010Y-84.0899

G1X24.6764Y-83.9318

G1X26.1402Y-83.9215

G1X27.8445Y-84.0615

G1X29.5742Y-84.3359

G1X31.3377Y-84.7332

G1X33.0424Y-85.2204

G1X34.8724Y-85.8514

G1X36.6797Y-86.5809

G1X39.3554Y-87.8446

G1X44.9465Y-90.8927

G1X47.0538Y-91.8694

G1X48.9363Y-92.4287

G1X49.8387Y-92.5562

G1X50.7602Y-92.5819

G1X52.0289Y-92.4351

G1X55.3204Y-91.6301

G1X66.2499Y-88.4286

G1X70.9994Y-87.1880

G1X76.0182Y-86.1515

G1X82.5210Y-85.1233

G1X84.2135Y-84.7025

G1 Z0F20000

(Start Block)


G1X18.1190Y-84.5595
G1Z6F20000
(Plotting speed under)
G1 F4000


G1X19.0744Y-84.1982

G1X21.2234Y-83.1283

G1X22.3394Y-82.7885

G1X23.4588Y-82.5826

G1X24.9758Y-82.4664

G1X26.5919Y-82.4969

G1X28.3302Y-82.6661

G1X30.1892Y-82.9758

G1X33.7017Y-83.8774

G1X37.3630Y-85.2292

G1X40.0657Y-86.4825

G1X45.6462Y-89.4673

G1X47.7798Y-90.4471

G1X49.6768Y-91.0115

G1X51.3881Y-91.1705

G1X54.3847Y-90.8356

G1X58.7201Y-90.2065

G1X62.0235Y-89.6180

G1X65.2884Y-88.9190

G1X70.0336Y-87.6875

G1X78.5135Y-85.1408

G1X82.6965Y-84.0738

G1X84.2030Y-83.5408

G1 Z0F20000

(Start Block)


G1X17.8308Y-82.9091
G1Z6F20000
(Plotting speed under)
G1 F4000


G1X18.8810Y-82.5932

G1X21.2267Y-81.6407

G1X22.3478Y-81.3593

G1X23.4595Y-81.1843

G1X24.9804Y-81.0794

G1X26.5559Y-81.1003

G1X28.2808Y-81.2440

G1X30.0968Y-81.5107

G1X31.9826Y-81.9001

G1X33.8656Y-82.3972

G1X35.8112Y-83.0222

G1X37.7516Y-83.7573

G1X41.1341Y-85.2943

G1X47.1341Y-88.4372

G1X49.4599Y-89.3733

G1X50.6330Y-89.6610

G1X51.6582Y-89.7819

G1X56.8713Y-89.7709

G1X60.2425Y-89.6812

G1X63.2520Y-89.4271

G1X66.0708Y-88.9915

G1X68.8744Y-88.3471

G1X71.0421Y-87.7018

G1X73.3456Y-86.8834

G1X79.8647Y-84.1677

G1X83.0041Y-83.0544

G1X84.2481Y-82.4598

G1 Z0F20000

(Start Block)


G1X17.5725Y-81.3604
G1Z6F20000
(Plotting speed under)
G1 F4000


G1X18.6733Y-81.1120

G1X21.4106Y-80.2267

G1X22.6993Y-79.9694

G1X24.0484Y-79.8108

G1X25.7202Y-79.7463

G1X27.3993Y-79.8030

G1X29.2249Y-79.9808

G1X31.0527Y-80.2659

G1X34.8068Y-81.1617

G1X38.6168Y-82.4873

G1X42.0198Y-84.0160

G1X48.0287Y-87.1314

G1X49.3043Y-87.6907

G1X50.4657Y-88.0941

G1X51.8070Y-88.3905

G1X58.3822Y-89.2477

G1X60.4248Y-89.4393

G1X62.2628Y-89.5038

G1X64.5507Y-89.4116

G1X66.8988Y-89.1021

G1X69.1686Y-88.5915

G1X71.5308Y-87.8400

G1X73.3416Y-87.1152

G1X75.1899Y-86.2510

G1X80.4826Y-83.3967

G1X83.1541Y-82.1719

G1X84.3424Y-81.4537

G1 Z0F20000

(Start Block)


G1X17.3643Y-79.9170
G1Z6F20000
(Plotting speed under)
G1 F4000


G1X18.6026Y-79.7143

G1X22.1287Y-78.8316

G1X25.0404Y-78.5028

G1X26.8230Y-78.4832

G1X28.7209Y-78.5896

G1X30.6898Y-78.8221

G1X32.7665Y-79.1913

G1X36.3432Y-80.1142

G1X39.9698Y-81.4218

G1X43.2744Y-82.9310

G1X48.9213Y-85.8665

G1X50.9806Y-86.7221

G1X53.9760Y-87.4780

G1X59.6339Y-89.0754

G1X61.7137Y-89.4367

G1X63.7497Y-89.5709

G1X65.9911Y-89.4580

G1X68.1990Y-89.0912

G1X70.4591Y-88.4662

G1X72.7195Y-87.5960

G1X74.4673Y-86.7571

G1X76.3163Y-85.7169

G1X80.9857Y-82.6784

G1X83.3303Y-81.3608

G1X84.4767Y-80.5161

G1 Z0F20000

(Start Block)


G1X17.2227Y-78.5806
G1Z6F20000
(Plotting speed under)
G1 F4000


G1X18.6098Y-78.4285

G1X23.1325Y-77.5283

G1X26.3292Y-77.2619

G1X28.3606Y-77.2893

G1X30.4207Y-77.4551

G1X32.6027Y-77.7688

G1X34.7275Y-78.2044

G1X38.0909Y-79.1544

G1X41.4290Y-80.4188

G1X44.3553Y-81.7843

G1X50.4105Y-84.9485

G1X54.1669Y-86.3831

G1X59.1508Y-88.6392

G1X60.4632Y-89.0952

G1X61.7044Y-89.4094

G1X62.9933Y-89.6082

G1X64.2287Y-89.6815

G1X66.4454Y-89.5552

G1X68.6989Y-89.1299

G1X71.0890Y-88.3856

G1X73.3944Y-87.3905

G1X75.2479Y-86.3899

G1X77.1838Y-85.1518

G1X81.3864Y-82.0221

G1X83.4324Y-80.6769

G1X84.6400Y-79.6397

G1 Z0F20000

(Start Block)


G1X17.1597Y-77.3524
G1Z6F20000
(Plotting speed under)
G1 F4000


G1X19.0180Y-77.2132

G1X24.5339Y-76.2793

G1X27.7882Y-76.0726

G1X29.9449Y-76.1391

G1X32.1753Y-76.3622

G1X34.4490Y-76.7400

G1X36.6965Y-77.2585

G1X38.6676Y-77.8330

G1X40.6509Y-78.5264

G1X42.6136Y-79.3284

G1X44.6173Y-80.2638

G1X50.6076Y-83.4924

G1X53.8929Y-85.0701

G1X58.3832Y-87.9385

G1X60.0189Y-88.8187

G1X61.0497Y-89.2223

G1X62.0314Y-89.4911

G1X63.0707Y-89.6625

G1X64.1778Y-89.7339

G1X66.4282Y-89.5933

G1X68.8923Y-89.0887

G1X71.3997Y-88.2510

G1X73.8890Y-87.1013

G1X75.9252Y-85.9107

G1X77.9081Y-84.5230

G1X81.8044Y-81.3386

G1X83.5332Y-80.0608

G1X84.8203Y-78.8149

G1 Z0F20000

(Start Block)


G1X17.1818Y-76.2344
G1Z6F20000
(Plotting speed under)
G1 F4000


G1X18.5604Y-76.2200

G1X19.8535Y-76.0975

G1X26.1017Y-75.0813

G1X29.1666Y-74.9158

G1X31.3433Y-75.0006

G1X33.7002Y-75.2638

G1X36.1137Y-75.7060

G1X38.4663Y-76.3023

G1X41.5535Y-77.3388

G1X44.5949Y-78.6521

G1X47.1117Y-79.9523

G1X52.8712Y-83.2146

G1X54.6999Y-84.4587

G1X58.4043Y-87.6606

G1X60.0515Y-88.7798

G1X60.8692Y-89.1504

G1X61.7471Y-89.4215

G1X62.6606Y-89.5882

G1X63.7447Y-89.6666

G1X66.1507Y-89.5083

G1X68.8597Y-88.9314

G1X71.5676Y-87.9983

G1X74.1718Y-86.7586

G1X76.4054Y-85.3986

G1X78.5600Y-83.8009

G1X82.1107Y-80.7114

G1X83.6818Y-79.4394

G1X85.0054Y-78.0301

G1 Z0F20000

(Start Block)


G1X17.2898Y-75.2299
G1Z6F20000
(Plotting speed under)
G1 F4000


G1X18.9389Y-75.2672

G1X20.3744Y-75.1736

G1X26.8795Y-74.0147

G1X28.6566Y-73.8327

G1X30.4486Y-73.7766

G1X32.7620Y-73.8811

G1X35.1489Y-74.1769

G1X37.5954Y-74.6646

G1X39.9763Y-75.3171

G1X42.3846Y-76.1615

G1X44.6702Y-77.1424

G1X46.9692Y-78.3091

G1X49.4756Y-79.7689

G1X52.6878Y-81.7669

G1X54.1513Y-82.8804

G1X55.7187Y-84.4169

G1X58.2889Y-87.3839

G1X59.4209Y-88.3883

G1X60.2162Y-88.8533

G1X61.0042Y-89.1506

G1X61.8903Y-89.3435

G1X62.9772Y-89.4397

G1X64.2623Y-89.4172

G1X65.6362Y-89.2761

G1X68.5260Y-88.6765

G1X71.4805Y-87.6810

G1X74.3010Y-86.3465

G1X76.6570Y-84.8997

G1X79.0295Y-83.0937

G1X83.7518Y-78.8900

G1X85.1841Y-77.2704

G1 Z0F20000

(Start Block)


G1X17.4782Y-74.3441
G1Z6F20000
(Plotting speed under)
G1 F4000


G1X19.5357Y-74.4487

G1X21.1896Y-74.3519

G1X22.9441Y-74.0561

G1X27.8897Y-72.9505

G1X29.7393Y-72.7235

G1X31.5143Y-72.6512

G1X33.7661Y-72.7451

G1X36.2145Y-73.0539

G1X38.6410Y-73.5558

G1X41.1289Y-74.2701

G1X43.9585Y-75.3405

G1X46.6273Y-76.6195

G1X49.2292Y-78.1269

G1X52.4339Y-80.2614

G1X53.7657Y-81.3462

G1X55.0816Y-82.7481

G1X56.1770Y-84.2063

G1X57.9835Y-86.9829

G1X58.8166Y-87.9412

G1X59.4670Y-88.4130

G1X60.2061Y-88.7373

G1X61.1366Y-88.9505

G1X62.1537Y-89.0391

G1X63.5107Y-89.0184

G1X65.0946Y-88.8619

G1X66.6735Y-88.5962

G1X68.3381Y-88.2091

G1X71.4303Y-87.1927

G1X74.4137Y-85.8023

G1X76.8919Y-84.2829

G1X79.3111Y-82.4251

G1X83.8583Y-78.2763

G1X84.6184Y-77.4566

G1X85.3468Y-76.5179

G1 Z0F20000

(Start Block)


G1X17.7350Y-73.5830
G1Z6F20000
(Plotting speed under)
G1 F4000


G1X20.1686Y-73.7724

G1X21.9540Y-73.6623

G1X23.7972Y-73.2917

G1X28.8004Y-71.9289

G1X30.5222Y-71.6603

G1X32.3702Y-71.5463

G1X34.6888Y-71.6262

G1X37.1088Y-71.9337

G1X39.6202Y-72.4711

G1X42.0268Y-73.1921

G1X44.6735Y-74.2313

G1X47.2624Y-75.5197

G1X49.7853Y-77.0557

G1X52.5203Y-79.0170

G1X53.9340Y-80.3339

G1X55.2380Y-81.9878

G1X56.2178Y-83.6303

G1X57.6582Y-86.6138

G1X58.2176Y-87.4228

G1X58.7586Y-87.8792

G1X59.4364Y-88.1911

G1X60.2586Y-88.3760

G1X61.3281Y-88.4626

G1X62.7695Y-88.4383

G1X64.4742Y-88.2827

G1X66.2148Y-88.0134

G1X68.0589Y-87.6119

G1X69.6833Y-87.1553

G1X71.3115Y-86.5927

G1X72.8567Y-85.9524

G1X74.3846Y-85.2064

G1X77.0205Y-83.6179

G1X79.5274Y-81.6992

G1X83.8665Y-77.6992

G1X84.7317Y-76.7485

G1X85.4861Y-75.7518

G1 Z0F20000

(Start Block)


G1X18.0418Y-72.9524
G1Z6F20000
(Plotting speed under)
G1 F4000


G1X20.6740Y-73.2334

G1X22.6405Y-73.1030

G1X24.5760Y-72.6362

G1X27.9948Y-71.4389

G1X29.5406Y-70.9776

G1X31.2300Y-70.6393

G1X33.0304Y-70.4759

G1X35.2173Y-70.5104

G1X37.6335Y-70.7910

G1X40.1584Y-71.3220

G1X42.5703Y-72.0500

G1X45.2324Y-73.1189

G1X47.7586Y-74.4206

G1X50.1829Y-75.9667

G1X52.6164Y-77.8354

G1X54.0673Y-79.3513

G1X55.3056Y-81.1842

G1X56.0917Y-82.8047

G1X57.1908Y-85.9967

G1X57.6299Y-86.8208

G1X58.0592Y-87.2175

G1X58.6684Y-87.4928

G1X59.4232Y-87.6465

G1X60.4468Y-87.7192

G1X62.1563Y-87.6883

G1X63.9932Y-87.5335

G1X65.8809Y-87.2660

G1X67.6715Y-86.9085

G1X69.4461Y-86.4453

G1X71.0707Y-85.9165

G1X72.6919Y-85.2776

G1X74.2798Y-84.5325

G1X77.0298Y-82.9195

G1X79.6439Y-80.9445

G1X83.9177Y-76.9933

G1X84.8156Y-75.9926

G1X85.5975Y-74.9483

G1 Z0F20000

(Start Block)


G1X18.3741Y-72.4574
G1Z6F20000
(Plotting speed under)
G1 F4000


G1X21.2203Y-72.8327

G1X22.2367Y-72.8106

G1X23.3280Y-72.6556

G1X25.3592Y-72.0606

G1X28.9066Y-70.5675

G1X30.3061Y-70.0660

G1X31.9701Y-69.6562

G1X33.7311Y-69.4466

G1X35.9027Y-69.4508

G1X38.2147Y-69.7072

G1X40.5589Y-70.1926

G1X42.9666Y-70.9180

G1X45.5852Y-71.9826

G1X48.1246Y-73.3251

G1X50.5096Y-74.9133

G1X52.6935Y-76.6998

G1X53.4446Y-77.4825

G1X54.1891Y-78.4265

G1X54.8303Y-79.4233

G1X55.3586Y-80.4367

G1X56.0692Y-82.3180

G1X56.7345Y-85.3199

G1X57.0598Y-86.1064

G1X57.3435Y-86.3909

G1X57.8468Y-86.6288

G1X58.5057Y-86.7619

G1X59.5636Y-86.8337

G1X61.3575Y-86.8121

G1X63.4360Y-86.6686

G1X65.4998Y-86.4133

G1X67.3785Y-86.0726

G1X69.1385Y-85.6483

G1X70.8269Y-85.1334

G1X72.5131Y-84.5020

G1X74.1103Y-83.7832

G1X75.6056Y-82.9911

G1X76.9686Y-82.1575

G1X78.3338Y-81.2051

G1X79.7177Y-80.1107

G1X83.9450Y-76.2016

G1X84.8397Y-75.2010

G1X85.6787Y-74.0814

G1 Z0F20000

(Start Block)


G1X18.7024Y-72.0987
G1Z6F20000
(Plotting speed under)
G1 F4000


G1X21.6390Y-72.5574

G1X22.7860Y-72.5224

G1X23.8819Y-72.3347

G1X24.9305Y-72.0290

G1X26.0305Y-71.5976

G1X29.6162Y-69.8256

G1X30.9869Y-69.2371

G1X32.5322Y-68.7650

G1X34.1570Y-68.4957

G1X36.1265Y-68.4286

G1X38.3554Y-68.6177

G1X40.6387Y-69.0493

G1X43.0188Y-69.7357

G1X45.7134Y-70.8156

G1X48.2616Y-72.1730

G1X50.6477Y-73.8039

G1X52.7634Y-75.6258

G1X53.5616Y-76.5282

G1X54.2654Y-77.5134

G1X54.8422Y-78.5156

G1X55.3620Y-79.6701

G1X55.9461Y-81.6514

G1X56.3119Y-84.6211

G1X56.4761Y-85.1722

G1X56.7283Y-85.4694

G1X57.1781Y-85.6754

G1X58.9343Y-85.8428

G1X61.0299Y-85.8130

G1X63.2442Y-85.6760

G1X65.2239Y-85.4555

G1X67.1639Y-85.1333

G1X68.9800Y-84.7209

G1X70.7722Y-84.1960

G1X72.3998Y-83.6051

G1X74.0075Y-82.9022

G1X75.4758Y-82.1446

G1X76.9636Y-81.2515

G1X78.3976Y-80.2583

G1X79.7676Y-79.1786

G1X83.8820Y-75.3706

G1X84.8046Y-74.3475

G1X85.7285Y-73.1226

G1 Z0F20000

(Start Block)


G1X18.9935Y-71.8713
G1Z6F20000
(Plotting speed under)
G1 F4000


G1X20.9789Y-72.2777

G1X22.0145Y-72.3994

G1X23.1627Y-72.3525

G1X24.3810Y-72.1086

G1X25.4468Y-71.7524

G1X26.6683Y-71.2076

G1X30.3335Y-69.1421

G1X31.6908Y-68.4680

G1X33.2119Y-67.9219

G1X34.7466Y-67.6083

G1X36.6119Y-67.4953

G1X38.6362Y-67.6284

G1X40.8243Y-68.0107

G1X42.9440Y-68.5926

G1X45.6224Y-69.6290

G1X48.1699Y-70.9655

G1X50.4877Y-72.5460

G1X52.6165Y-74.4011

G1X53.4271Y-75.3274

G1X54.1857Y-76.4218

G1X54.7908Y-77.5425

G1X55.2733Y-78.7284

G1X55.7687Y-80.7468

G1X55.8893Y-81.9701

G1X55.9305Y-83.7996

G1X56.0820Y-84.3067

G1X56.3438Y-84.5349

G1X56.7681Y-84.6694

G1X58.7132Y-84.7769

G1X63.1707Y-84.6119

G1X65.1553Y-84.4046

G1X67.0582Y-84.1032

G1X68.8699Y-83.7076

G1X70.6328Y-83.2075

G1X72.3071Y-82.6144

G1X73.9588Y-81.9031

G1X75.4652Y-81.1321

G1X76.9879Y-80.2199

G1X78.4075Y-79.2359

G1X79.7754Y-78.1558

G1X81.1970Y-76.8969

G1X83.8843Y-74.3193

G1X84.8144Y-73.2789

G1X85.7454Y-72.0432

G1 Z0F20000

(Start Block)


G1X19.2133Y-71.7630
G1Z6F20000
(Plotting speed under)
G1 F4000


G1X21.2603Y-72.2182

G1X22.2990Y-72.3378

G1X23.5640Y-72.2539

G1X24.8015Y-71.9581

G1X26.0168Y-71.4947

G1X27.2557Y-70.8769

G1X31.0851Y-68.4984

G1X32.4124Y-67.7657

G1X33.8161Y-67.1882

G1X35.1869Y-66.8389

G1X36.8904Y-66.6606

G1X38.6354Y-66.7086

G1X40.5666Y-66.9759

G1X42.6619Y-67.4845

G1X45.2446Y-68.4128

G1X47.7658Y-69.6681

G1X50.0171Y-71.1420

G1X52.1282Y-72.9209

G1X53.0297Y-73.8727

G1X53.8255Y-74.9443

G1X54.4900Y-76.1012

G1X55.0420Y-77.4032

G1X55.3807Y-78.5602

G1X55.5864Y-79.7087

G1X55.6688Y-80.9224

G1X55.6252Y-82.7958

G1X55.7508Y-83.2652

G1X56.1224Y-83.5136

G1X56.6701Y-83.6112

G1X59.5545Y-83.6540

G1X63.8794Y-83.4370

G1X65.7598Y-83.2113

G1X67.5923Y-82.8911

G1X69.3091Y-82.4876

G1X71.0106Y-81.9763

G1X72.6909Y-81.3500

G1X74.2490Y-80.6490

G1X75.7024Y-79.8781

G1X77.1414Y-78.9905

G1X78.4823Y-78.0399

G1X79.8582Y-76.9306

G1X83.8823Y-73.0890

G1X84.8032Y-72.0433

G1X85.7241Y-70.8123

G1 Z0F20000

(Start Block)


G1X19.3293Y-71.7528
G1Z6F20000
(Plotting speed under)
G1 F4000


G1X21.3256Y-72.2198

G1X22.3509Y-72.3419

G1X23.6088Y-72.2528

G1X24.9936Y-71.9025

G1X26.3510Y-71.3513

G1X27.7492Y-70.6089

G1X31.8292Y-67.9159

G1X33.0736Y-67.1770

G1X34.3402Y-66.5918

G1X35.6796Y-66.1817

G1X37.2440Y-65.9499

G1X38.8378Y-65.9356

G1X40.5652Y-66.1205

G1X42.3560Y-66.4977

G1X43.8199Y-66.9357

G1X45.2875Y-67.4914

G1X46.7691Y-68.1775

G1X48.1193Y-68.9233

G1X49.4886Y-69.8133

G1X50.7098Y-70.7408

G1X51.9214Y-71.8120

G1X52.8854Y-72.8224

G1X53.5601Y-73.7111

G1X54.1886Y-74.7503

G1X54.6817Y-75.8022

G1X55.0591Y-76.8859

G1X55.4280Y-78.7609

G1X55.4875Y-79.9411

G1X55.4316Y-81.7335

G1X55.5154Y-82.0845

G1X55.6426Y-82.2434

G1X56.0616Y-82.4187

G1X56.7956Y-82.4972

G1X60.8958Y-82.4770

G1X64.8810Y-82.1740

G1X68.3204Y-81.5629

G1X70.0224Y-81.1071

G1X71.6991Y-80.5426

G1X73.2866Y-79.8900

G1X74.7427Y-79.1784

G1X77.4359Y-77.5307

G1X78.7487Y-76.5477

G1X80.0280Y-75.4630

G1X83.8698Y-71.6469

G1X84.7615Y-70.6084

G1X85.6520Y-69.3998

G1 Z0F20000

(Start Block)


G1X19.3163Y-71.7884
G1Z6F20000
(Plotting speed under)
G1 F4000


G1X21.1293Y-72.2312

G1X22.0395Y-72.3694

G1X23.1347Y-72.3431

G1X24.3518Y-72.1097

G1X25.8804Y-71.5768

G1X27.5740Y-70.7380

G1X29.2721Y-69.6915

G1X33.2024Y-66.9920

G1X34.3909Y-66.3248

G1X35.5135Y-65.8428

G1X36.9996Y-65.4388

G1X38.6224Y-65.2675

G1X40.3197Y-65.3308

G1X42.1900Y-65.6327

G1X43.6304Y-66.0109

G1X45.1563Y-66.5442

G1X46.5984Y-67.1771

G1X47.9401Y-67.8874

G1X49.2976Y-68.7409

G1X50.5072Y-69.6346

G1X51.6813Y-70.6475

G1X52.6783Y-71.6579

G1X53.3651Y-72.5244

G1X53.9614Y-73.4578

G1X54.4971Y-74.5250

G1X54.8999Y-75.5931

G1X55.1937Y-76.7124

G1X55.3623Y-77.8112

G1X55.4219Y-80.5911

G1X55.5348Y-80.9319

G1X55.6823Y-81.0869

G1X56.1390Y-81.2594

G1X57.1928Y-81.3490

G1X61.8435Y-81.2660

G1X65.5636Y-80.8915

G1X68.9826Y-80.1829

G1X70.5852Y-79.7018

G1X72.1370Y-79.1308

G1X73.6143Y-78.4801

G1X75.0476Y-77.7368

G1X77.6032Y-76.0942

G1X80.0479Y-74.0698

G1X83.9168Y-70.1047

G1X85.5746Y-67.9947

G1 Z0F20000

(Start Block)


G1X19.1701Y-71.8044
G1Z6F20000
(Plotting speed under)
G1 F4000


G1X21.0406Y-72.2767

G1X22.0515Y-72.4080

G1X23.2267Y-72.3372

G1X24.5860Y-72.0304

G1X26.2726Y-71.3961

G1X28.1003Y-70.4568

G1X29.9185Y-69.3156

G1X34.0244Y-66.4613

G1X35.1544Y-65.8070

G1X36.2024Y-65.3242

G1X37.6951Y-64.8644

G1X39.1942Y-64.6537

G1X40.8213Y-64.6634

G1X42.5163Y-64.8912

G1X43.9111Y-65.2242

G1X45.2517Y-65.6608

G1X46.6877Y-66.2562

G1X47.9970Y-66.9210

G1X49.2831Y-67.7003

G1X50.5208Y-68.5871

G1X51.6839Y-69.5681

G1X52.6757Y-70.5557

G1X53.3615Y-71.4035

G1X53.9603Y-72.3162

G1X54.4596Y-73.2636

G1X54.8877Y-74.3099

G1X55.2120Y-75.4008

G1X55.4205Y-76.4770

G1X55.6218Y-79.2504

G1X55.7287Y-79.5992

G1X55.9606Y-79.8657

G1X56.5690Y-80.0771

G1X57.7475Y-80.1672

G1X60.0725Y-80.1539

G1X62.4313Y-80.0353

G1X66.0207Y-79.6051

G1X69.2891Y-78.8656

G1X72.3414Y-77.7961

G1X75.1116Y-76.4327

G1X77.5637Y-74.8384

G1X79.8907Y-72.9119

G1X83.9020Y-68.8138

G1X85.5547Y-66.7855

G1 Z0F20000

(Start Block)


G1X18.9046Y-71.7582
G1Z6F20000
(Plotting speed under)
G1 F4000


G1X20.8243Y-72.2607

G1X21.8221Y-72.3831

G1X23.2006Y-72.2777

G1X24.7704Y-71.8911

G1X26.7166Y-71.1261

G1X28.7286Y-70.0707

G1X30.6319Y-68.8712

G1X34.8274Y-65.9609

G1X36.9552Y-64.8092

G1X38.3585Y-64.3235

G1X39.8453Y-64.0536

G1X41.3930Y-64.0074

G1X42.9640Y-64.1674

G1X44.2607Y-64.4373

G1X45.5605Y-64.8242

G1X46.8878Y-65.3384

G1X48.2105Y-65.9755

G1X49.4710Y-66.7097

G1X50.6045Y-67.4915

G1X51.6816Y-68.3611

G1X52.6810Y-69.3133

G1X53.3784Y-70.1339

G1X53.9949Y-71.0187

G1X54.9622Y-72.9127

G1X55.5911Y-74.9865

G1X56.0277Y-77.8991

G1X56.1768Y-78.2725

G1X56.4474Y-78.5680

G1X57.0948Y-78.8169

G1X58.3928Y-78.9362

G1X60.6113Y-78.9161

G1X62.9378Y-78.7685

G1X66.3489Y-78.3055

G1X69.4596Y-77.5620

G1X72.4068Y-76.5063

G1X75.1921Y-75.1221

G1X77.5376Y-73.5977

G1X79.7531Y-71.7932

G1X83.9025Y-67.6717

G1X85.5882Y-65.7452

G1 Z0F20000

(Start Block)


G1X18.5459Y-71.6153
G1Z6F20000
(Plotting speed under)
G1 F4000


G1X20.5056Y-72.1495

G1X21.6047Y-72.2690

G1X23.1855Y-72.1160

G1X24.9573Y-71.6542

G1X27.0965Y-70.8045

G1X29.2508Y-69.6863

G1X31.3892Y-68.3580

G1X35.6760Y-65.4229

G1X37.8655Y-64.2230

G1X39.1867Y-63.7379

G1X40.5653Y-63.4409

G1X42.0257Y-63.3410

G1X43.5613Y-63.4442

G1X44.7434Y-63.6525

G1X46.0355Y-63.9993

G1X48.4321Y-64.9675

G1X49.6381Y-65.6255

G1X50.7604Y-66.3567

G1X51.8347Y-67.1829

G1X52.7640Y-68.0298

G1X54.0533Y-69.5892

G1X55.0579Y-71.3188

G1X55.8372Y-73.3506

G1X56.5914Y-76.4292

G1X56.8531Y-76.9224

G1X57.1508Y-77.2028

G1X57.9316Y-77.5033

G1X59.1082Y-77.6301

G1X61.0865Y-77.6198

G1X63.3571Y-77.4575

G1X66.5592Y-76.9881

G1X69.5552Y-76.2519

G1X72.4171Y-75.2225

G1X75.1195Y-73.8962

G1X77.3624Y-72.4791

G1X79.5373Y-70.7823

G1X83.9159Y-66.6558

G1X85.6625Y-64.8505

G1 Z0F20000

(Start Block)


G1X18.1278Y-71.3516
G1Z6F20000
(Plotting speed under)
G1 F4000


G1X20.1177Y-71.9197

G1X21.2999Y-72.0395

G1X23.1054Y-71.8497

G1X25.1928Y-71.2962

G1X27.5440Y-70.3672

G1X29.9633Y-69.1284

G1X32.2366Y-67.7390

G1X36.6650Y-64.7654

G1X38.8378Y-63.5766

G1X40.1792Y-63.0695

G1X41.4578Y-62.7689

G1X42.9102Y-62.6345

G1X44.3241Y-62.6947

G1X46.5715Y-63.1343

G1X47.7381Y-63.5188

G1X48.9171Y-64.0171

G1X51.0736Y-65.2439

G1X52.9233Y-66.7178

G1X54.1850Y-68.1332

G1X55.2778Y-69.8023

G1X56.1610Y-71.6832

G1X57.2411Y-74.7621

G1X57.5338Y-75.2730

G1X57.9516Y-75.6899

G1X58.7791Y-76.0536

G1X59.9612Y-76.2212

G1X61.6853Y-76.2316

G1X63.8286Y-76.0722

G1X66.8886Y-75.5971

G1X69.7838Y-74.8642

G1X72.5230Y-73.8737

G1X75.1045Y-72.6269

G1X77.2771Y-71.3001

G1X79.3109Y-69.7965

G1X85.7607Y-64.0804

G1 Z0F20000

(Start Block)


G1X17.6876Y-70.9534
G1Z6F20000
(Plotting speed under)
G1 F4000


G1X19.7970Y-71.5794

G1X21.1091Y-71.6808

G1X23.1761Y-71.4348

G1X25.4970Y-70.8141

G1X28.0496Y-69.8232

G1X30.7484Y-68.4693

G1X33.1811Y-67.0094

G1X37.8096Y-63.9638

G1X39.8771Y-62.8437

G1X41.2364Y-62.3187

G1X42.5231Y-62.0021

G1X43.8616Y-61.8564

G1X45.1441Y-61.8805

G1X47.2492Y-62.2360

G1X49.2796Y-62.9320

G1X51.2908Y-63.9860

G1X53.0802Y-65.3162

G1X54.3194Y-66.5794

G1X55.4542Y-68.0787

G1X56.4612Y-69.8044

G1X57.9806Y-73.0068

G1X58.4235Y-73.6409

G1X58.9540Y-74.1075

G1X59.8389Y-74.4959

G1X60.9549Y-74.6838

G1X62.4884Y-74.7187

G1X64.4449Y-74.5785

G1X67.1485Y-74.1536

G1X69.9283Y-73.4530

G1X72.5511Y-72.5239

G1X75.0130Y-71.3800

G1X77.0009Y-70.2375

G1X78.8933Y-68.9513

G1X85.8646Y-63.4146

G1 Z0F20000

(Start Block)


G1X17.2622Y-70.4157
G1Z6F20000
(Plotting speed under)
G1 F4000


G1X19.3595Y-71.0773

G1X20.8826Y-71.1931

G1X22.0583Y-71.1010

G1X23.3048Y-70.8958

G1X26.0095Y-70.1735

G1X28.7476Y-69.1237

G1X31.6222Y-67.7063

G1X34.1169Y-66.2367

G1X38.9372Y-63.1105

G1X40.9904Y-61.9993

G1X42.2565Y-61.4955

G1X43.5467Y-61.1534

G1X44.7692Y-60.9918

G1X46.0237Y-60.9831

G1X47.8930Y-61.2457

G1X49.8149Y-61.8453

G1X51.6339Y-62.7375

G1X53.2283Y-63.8411

G1X54.4433Y-64.9465

G1X55.6126Y-66.2689

G1X56.7848Y-67.9063

G1X58.7709Y-71.1409

G1X59.3728Y-71.8580

G1X59.9965Y-72.3549

G1X60.9158Y-72.7703

G1X62.0858Y-73.0007

G1X63.5447Y-73.0570

G1X65.3330Y-72.9366

G1X67.7402Y-72.5551

G1X70.1836Y-71.9459

G1X72.5776Y-71.1295

G1X74.9067Y-70.1085

G1X76.6952Y-69.1595

G1X78.5625Y-68.0082

G1X82.9895Y-64.8234

G1X85.9563Y-62.8328

G1 Z0F20000

(Start Block)


G1X16.8846Y-69.7408
G1Z6F20000
(Plotting speed under)
G1 F4000


G1X19.0002Y-70.4512

G1X19.8099Y-70.5633

G1X20.7507Y-70.5809

G1X22.0061Y-70.4844

G1X23.4528Y-70.2546

G1X26.6437Y-69.4193

G1X29.5793Y-68.3083

G1X32.5977Y-66.8391

G1X35.2300Y-65.3027

G1X40.1446Y-62.1285

G1X42.1838Y-61.0208

G1X43.3502Y-60.5456

G1X44.5334Y-60.2085

G1X45.6388Y-60.0311

G1X46.8659Y-59.9867

G1X48.5084Y-60.1664

G1X50.2219Y-60.6357

G1X51.8592Y-61.3638

G1X53.4430Y-62.3670

G1X54.6211Y-63.3202

G1X55.8104Y-64.4739

G1X57.1311Y-65.9968

G1X59.5857Y-69.1677

G1X60.3539Y-69.9341

G1X61.0968Y-70.4634

G1X62.1296Y-70.9143

G1X63.3491Y-71.1676

G1X64.7453Y-71.2397

G1X66.4257Y-71.1387

G1X68.4729Y-70.8239

G1X70.6387Y-70.3034

G1X72.7967Y-69.6041

G1X74.8842Y-68.7533

G1X78.0572Y-67.1221

G1X83.1458Y-63.9189

G1X86.0211Y-62.3141

G1 Z0F20000

(Start Block)


G1X16.5821Y-68.9347
G1Z6F20000
(Plotting speed under)
G1 F4000


G1X18.8185Y-69.7262

G1X19.7881Y-69.8465

G1X20.8735Y-69.8519

G1X22.3666Y-69.7223

G1X24.1195Y-69.4299

G1X25.8390Y-69.0256

G1X27.6863Y-68.4741

G1X30.7465Y-67.3007

G1X33.8846Y-65.7572

G1X36.6237Y-64.1384

G1X41.3421Y-61.0554

G1X43.0972Y-60.0648

G1X44.9488Y-59.3100

G1X46.6993Y-58.9445

G1X48.1770Y-58.9073

G1X49.7296Y-59.1248

G1X51.2094Y-59.5727

G1X52.7403Y-60.2954

G1X54.3266Y-61.3065

G1X55.9705Y-62.6203

G1X57.4304Y-64.0063

G1X60.1304Y-66.8344

G1X61.4424Y-67.9526

G1X62.2931Y-68.4713

G1X63.2104Y-68.8563

G1X64.2196Y-69.1129

G1X65.2723Y-69.2426

G1X67.1156Y-69.2358

G1X69.1721Y-68.9843

G1X71.4006Y-68.4934

G1X73.7225Y-67.7722

G1X75.4620Y-67.0991

G1X77.2804Y-66.2794

G1X83.1981Y-63.1162

G1X86.0478Y-61.8370

G1 Z0F20000

(Start Block)


G1X16.3749Y-68.0049
G1Z6F20000
(Plotting speed under)
G1 F4000


G1X18.6085Y-68.8674

G1X19.6236Y-69.0133

G1X20.9541Y-69.0328

G1X22.6789Y-68.8904

G1X24.5505Y-68.5903

G1X26.5029Y-68.1452

G1X28.5440Y-67.5455

G1X31.8489Y-66.2807

G1X35.0268Y-64.7064

G1X37.8548Y-63.0109

G1X42.7181Y-59.7577

G1X44.3679Y-58.8129

G1X46.0907Y-58.1020

G1X47.8411Y-57.7444

G1X49.1589Y-57.7253

G1X50.5074Y-57.9204

G1X51.7882Y-58.3043

G1X53.1328Y-58.9032

G1X54.6424Y-59.7555

G1X56.2549Y-60.8551

G1X60.8504Y-64.6552

G1X62.4034Y-65.7664

G1X63.3314Y-66.2728

G1X64.3177Y-66.6712

G1X65.3453Y-66.9478

G1X66.4892Y-67.1179

G1X68.0381Y-67.1679

G1X69.8329Y-67.0300

G1X71.7471Y-66.7040

G1X73.8326Y-66.1756

G1X76.9006Y-65.1193

G1X83.2483Y-62.3320

G1X86.0297Y-61.3798

G1 Z0F20000

(Start Block)


G1X16.2757Y-66.9578
G1Z6F20000
(Plotting speed under)
G1 F4000


G1X17.9889Y-67.7435

G1X18.6036Y-67.9362

G1X19.7530Y-68.1075

G1X21.1010Y-68.1362

G1X22.9385Y-68.0050

G1X25.0193Y-67.6947

G1X27.1995Y-67.2165

G1X29.3339Y-66.6032

G1X32.7879Y-65.2944

G1X36.1960Y-63.5890

G1X38.6498Y-62.0952

G1X43.6148Y-58.6449

G1X45.5238Y-57.4913

G1X47.2032Y-56.7906

G1X48.8439Y-56.4714

G1X49.9161Y-56.4617

G1X51.0569Y-56.6182

G1X52.1639Y-56.9299

G1X53.6034Y-57.4999

G1X55.1213Y-58.2461

G1X56.6788Y-59.1443

G1X61.6657Y-62.4962

G1X63.3938Y-63.5199

G1X64.4480Y-64.0199

G1X65.5241Y-64.4171

G1X66.6384Y-64.7094

G1X67.6948Y-64.8846

G1X69.1394Y-64.9861

G1X70.6673Y-64.9491

G1X72.3630Y-64.7669

G1X74.1701Y-64.4382

G1X77.6469Y-63.4999

G1X83.7040Y-61.4300

G1X85.9655Y-60.9218

G1 Z0F20000

(Start Block)


G1X16.2893Y-65.7977
G1Z6F20000
(Plotting speed under)
G1 F4000


G1X17.9288Y-66.6437

G1X18.6986Y-66.9210

G1X19.8620Y-67.1209

G1X21.3983Y-67.1757

G1X23.4504Y-67.0456

G1X25.7243Y-66.7194

G1X27.9801Y-66.2355

G1X30.2524Y-65.5892

G1X33.3594Y-64.4304

G1X36.2808Y-63.0217

G1X38.0301Y-62.0170

G1X39.7571Y-60.9037

G1X44.5941Y-57.3665

G1X46.1224Y-56.3595

G1X47.8651Y-55.5309

G1X48.7163Y-55.2886

G1X49.5989Y-55.1562

G1X50.5551Y-55.1463

G1X51.5944Y-55.2868

G1X54.2432Y-56.1060

G1X57.2466Y-57.4476

G1X62.5538Y-60.3180

G1X64.5752Y-61.3001

G1X66.8466Y-62.1341

G1X69.0791Y-62.6217

G1X70.4054Y-62.7633

G1X71.8905Y-62.8078

G1X74.9681Y-62.5864

G1X78.1717Y-62.0227

G1X83.7207Y-60.6976

G1X85.8581Y-60.4432

G1 Z0F20000

(Start Block)


G1X16.4134Y-64.5260
G1Z6F20000
(Plotting speed under)
G1 F4000


G1X18.0920Y-65.5054

G1X18.8692Y-65.8248

G1X20.0557Y-66.0725

G1X21.6377Y-66.1677

G1X23.7963Y-66.0689

G1X26.1549Y-65.7651

G1X28.5716Y-65.2757

G1X30.9998Y-64.6026

G1X34.3203Y-63.3623

G1X37.4153Y-61.8287

G1X39.1769Y-60.7731

G1X40.9054Y-59.6015

G1X45.5702Y-55.9780

G1X46.9688Y-54.9992

G1X47.8936Y-54.4820

G1X48.7150Y-54.1379

G1X49.5633Y-53.9063

G1X50.3377Y-53.8048

G1X51.2854Y-53.8179

G1X52.3355Y-53.9811

G1X55.3529Y-54.7792

G1X58.4555Y-55.9262

G1X66.0818Y-59.1488

G1X68.4607Y-59.9195

G1X70.7446Y-60.4347

G1X73.4193Y-60.7486

G1X76.2200Y-60.7829

G1X79.2763Y-60.5542

G1X83.7230Y-59.9522

G1X85.7150Y-59.9265

G1 Z0F20000

(Start Block)


G1X16.6378Y-63.1416
G1Z6F20000
(Plotting speed under)
G1 F4000


G1X17.4149Y-63.5934

G1X18.3612Y-64.2847

G1X19.0921Y-64.6443

G1X20.3832Y-64.9813

G1X21.9337Y-65.1197

G1X24.1768Y-65.0609

G1X26.6098Y-64.7824

G1X29.1315Y-64.3001

G1X31.6732Y-63.6139

G1X33.4302Y-63.0133

G1X35.1230Y-62.3276

G1X38.3164Y-60.7127

G1X40.0839Y-59.6163

G1X41.8249Y-58.3823

G1X46.5043Y-54.5177

G1X47.7926Y-53.5702

G1X49.3380Y-52.7781

G1X50.1794Y-52.5434

G1X50.9546Y-52.4506

G1X52.1160Y-52.5023

G1X53.7876Y-52.7287

G1X57.4141Y-53.5424

G1X60.9140Y-54.6199

G1X69.0912Y-57.4719

G1X71.3835Y-58.1396

G1X73.5874Y-58.6517

G1X75.9175Y-59.0332

G1X78.1714Y-59.2413

G1X80.5860Y-59.2970

G1X83.7484Y-59.1825

G1X85.5467Y-59.3568

G1 Z0F20000

(Start Block)


G1X16.9460Y-61.6421
G1Z6F20000
(Plotting speed under)
G1 F4000


G1X17.7403Y-62.1541

G1X18.8179Y-63.0506

G1X19.5133Y-63.4458

G1X20.6713Y-63.8286

G1X22.1733Y-64.0345

G1X24.3781Y-64.0413

G1X26.9849Y-63.7917

G1X29.6028Y-63.3240

G1X32.2698Y-62.6253

G1X34.0450Y-62.0254

G1X35.8652Y-61.2862

G1X37.6566Y-60.4225

G1X39.2955Y-59.5009

G1X41.0179Y-58.3817

G1X42.7613Y-57.0784

G1X47.2547Y-53.1226

G1X48.4283Y-52.2071

G1X49.8477Y-51.4393

G1X50.5744Y-51.2208

G1X51.3428Y-51.1160

G1X53.2234Y-51.1431

G1X55.3796Y-51.3239

G1X57.5813Y-51.6437

G1X59.8089Y-52.0866

G1X62.2526Y-52.6926

G1X64.8833Y-53.4640

G1X73.6697Y-56.4827

G1X76.8476Y-57.4330

G1X79.8070Y-58.0487

G1X81.3695Y-58.2348

G1X83.7521Y-58.3825

G1X85.3662Y-58.7218

G1 Z0F20000

(Start Block)


G1X17.3154Y-60.0257
G1Z6F20000
(Plotting speed under)
G1 F4000


G1X18.1170Y-60.5903

G1X19.3452Y-61.7551

G1X20.0002Y-62.1985

G1X21.0724Y-62.6489

G1X22.3675Y-62.9088

G1X24.4830Y-62.9998

G1X27.0365Y-62.8227

G1X29.7204Y-62.4016

G1X32.2608Y-61.7922

G1X34.4931Y-61.0731

G1X36.6409Y-60.1988

G1X38.6538Y-59.1942

G1X40.5761Y-58.0425

G1X42.0343Y-57.0270

G1X43.5453Y-55.8326

G1X48.0721Y-51.6099

G1X48.9032Y-50.9302

G1X49.6662Y-50.4305

G1X50.4553Y-50.0661

G1X51.1857Y-49.8705

G1X53.9893Y-49.6599

G1X56.5622Y-49.6789

G1X59.2402Y-49.9035

G1X61.8865Y-50.3225

G1X64.6812Y-50.9680

G1X67.1522Y-51.7043

G1X69.6887Y-52.6095

G1X76.8620Y-55.6558

G1X79.0009Y-56.4756

G1X81.1382Y-57.0873

G1X83.7579Y-57.5410

G1X85.1875Y-58.0119

G1 Z0F20000

(Start Block)


G1X17.7185Y-58.2933
G1Z6F20000
(Plotting speed under)
G1 F4000


G1X18.5395Y-58.9153

G1X19.7550Y-60.2417

G1X20.5361Y-60.9100

G1X21.5183Y-61.4404

G1X22.6523Y-61.7585

G1X24.5955Y-61.9327

G1X27.0103Y-61.8358

G1X29.6192Y-61.4930

G1X32.2646Y-60.9215

G1X34.6656Y-60.1945

G1X36.8563Y-59.3353

G1X38.9616Y-58.3067

G1X40.9910Y-57.0956

G1X42.5704Y-55.9802

G1X44.0208Y-54.8045

G1X45.6613Y-53.2908

G1X48.7093Y-50.2223

G1X49.6158Y-49.4736

G1X50.3733Y-49.0055

G1X51.2753Y-48.6620

G1X53.5185Y-48.2488

G1X55.5884Y-47.9883

G1X57.6141Y-47.8764

G1X60.1516Y-47.9507

G1X62.6889Y-48.2587

G1X65.2914Y-48.8069

G1X67.9240Y-49.5932

G1X70.1531Y-50.4377

G1X72.4178Y-51.4572

G1X78.4221Y-54.6641

G1X80.0134Y-55.4414

G1X81.5689Y-56.0390

G1X83.6724Y-56.6127

G1X85.0248Y-57.2199

G1 Z0F20000

(Start Block)


G1X18.1252Y-56.4515
G1Z6F20000
(Plotting speed under)
G1 F4000


G1X19.0628Y-57.2174

G1X20.4546Y-58.9224

G1X21.2714Y-59.7320

G1X22.0916Y-60.2603

G1X23.1659Y-60.6354

G1X24.9240Y-60.8536

G1X27.3158Y-60.8015

G1X30.0265Y-60.4743

G1X32.6751Y-59.9218

G1X35.0518Y-59.2181

G1X37.3359Y-58.3311

G1X39.5435Y-57.2451

G1X41.5635Y-56.0189

G1X43.1178Y-54.8972

G1X44.5862Y-53.6733

G1X46.1454Y-52.1849

G1X49.2616Y-48.9094

G1X50.0490Y-48.2385

G1X50.7994Y-47.7642

G1X51.3909Y-47.5148

G1X53.1203Y-46.9988

G1X55.6674Y-46.3566

G1X57.6774Y-46.0460

G1X59.6925Y-45.9386

G1X62.1073Y-46.0657

G1X64.6188Y-46.4650

G1X67.2353Y-47.1484

G1X69.7950Y-48.0753

G1X71.9163Y-49.0398

G1X74.0529Y-50.1920

G1X80.5830Y-54.3294

G1X81.7914Y-54.9192

G1X83.6145Y-55.6063

G1X84.8913Y-56.3404

G1 Z0F20000

(Start Block)


G1X18.5052Y-54.5136
G1Z6F20000
(Plotting speed under)
G1 F4000


G1X19.6358Y-55.5066

G1X21.3085Y-57.7904

G1X21.9916Y-58.5658

G1X22.7512Y-59.1364

G1X23.6711Y-59.5165

G1X25.3576Y-59.7772

G1X27.7256Y-59.7526

G1X30.4441Y-59.4432

G1X33.1415Y-58.8937

G1X35.5589Y-58.1833

G1X37.8965Y-57.2720

G1X40.0544Y-56.2012

G1X42.1122Y-54.9356

G1X43.6891Y-53.7734

G1X45.1568Y-52.5167

G1X46.7040Y-50.9906

G1X49.6599Y-47.7664

G1X50.4012Y-47.1061

G1X51.1455Y-46.6151

G1X54.5049Y-45.2027

G1X56.5061Y-44.5331

G1X58.5260Y-44.1305

G1X60.7437Y-44.0052

G1X63.2950Y-44.2007

G1X65.8912Y-44.7087

G1X68.4960Y-45.5038

G1X71.0904Y-46.5819

G1X72.8790Y-47.5007

G1X74.6827Y-48.5799

G1X76.6545Y-49.9335

G1X80.7620Y-53.0073

G1X81.8289Y-53.6602

G1X83.5904Y-54.5165

G1X84.7986Y-55.3688

G1 Z0F20000

(Start Block)


G1X18.8312Y-52.5017
G1Z6F20000
(Plotting speed under)
G1 F4000


G1X19.6370Y-53.1518

G1X20.2559Y-53.8423

G1X22.1230Y-56.6969

G1X22.6781Y-57.4258

G1X23.2920Y-57.9774

G1X24.0308Y-58.3633

G1X24.7977Y-58.5771

G1X25.6589Y-58.6949

G1X27.9339Y-58.7109

G1X30.7619Y-58.4180

G1X33.5257Y-57.8737

G1X35.9649Y-57.1683

G1X38.2854Y-56.2725

G1X40.4875Y-55.1838

G1X42.5854Y-53.8872

G1X44.1877Y-52.6922

G1X45.7308Y-51.3434

G1X47.2627Y-49.7905

G1X50.0667Y-46.6577

G1X50.7689Y-46.0192

G1X51.4181Y-45.5716

G1X55.1120Y-43.5491

G1X56.9010Y-42.7754

G1X57.9027Y-42.4816

G1X58.9685Y-42.2771

G1X61.3308Y-42.1508

G1X63.9471Y-42.4025

G1X66.6889Y-43.0068

G1X69.4011Y-43.9197

G1X72.0288Y-45.1172

G1X73.9740Y-46.2224

G1X75.8495Y-47.4814

G1X77.6225Y-48.8484

G1X81.0881Y-51.7480

G1X81.9862Y-52.3843

G1X83.6040Y-53.3381

G1X84.7553Y-54.3011

G1 Z0F20000

(Start Block)


G1X19.0825Y-50.4463
G1Z6F20000
(Plotting speed under)
G1 F4000


G1X20.0575Y-51.2463

G1X20.8202Y-52.1449

G1X21.5668Y-53.2806

G1X22.8898Y-55.6806

G1X23.3801Y-56.4068

G1X23.9274Y-56.9410

G1X24.4741Y-57.2589

G1X25.0991Y-57.4694

G1X25.9300Y-57.6134

G1X28.2233Y-57.6601

G1X30.9770Y-57.3988

G1X33.8226Y-56.8634

G1X36.3245Y-56.1563

G1X38.6876Y-55.2538

G1X40.9461Y-54.1392

G1X43.0036Y-52.8653

G1X44.6899Y-51.5997

G1X46.3839Y-50.0878

G1X47.8207Y-48.5959

G1X50.1170Y-45.9787

G1X50.9575Y-45.1516

G1X55.9657Y-41.6751

G1X57.2243Y-41.0491

G1X58.6067Y-40.6274

G1X60.0957Y-40.4226

G1X61.6989Y-40.4066

G1X64.3696Y-40.7056

G1X67.2190Y-41.3762

G1X70.0327Y-42.3746

G1X72.7232Y-43.6696

G1X74.7498Y-44.8961

G1X76.7108Y-46.3158

G1X78.3956Y-47.7245

G1X81.3360Y-50.3889

G1X83.5689Y-51.9959

G1X84.7673Y-53.1330

G1 Z0F20000

(Start Block)


G1X19.2480Y-48.3850
G1Z6F20000
(Plotting speed under)
G1 F4000


G1X20.2911Y-49.2229

G1X21.2274Y-50.3157

G1X22.2978Y-52.0410

G1X23.8319Y-55.1812

G1X24.2620Y-55.7304

G1X24.8783Y-56.1737

G1X25.4654Y-56.3951

G1X26.2895Y-56.5500

G1X28.3810Y-56.6111

G1X31.1952Y-56.3699

G1X34.0269Y-55.8632

G1X36.6962Y-55.1292

G1X39.2245Y-54.1654

G1X41.6001Y-52.9749

G1X43.7575Y-51.6020

G1X45.3571Y-50.3666

G1X46.9584Y-48.9095

G1X51.1575Y-44.3588

G1X53.0949Y-42.8531

G1X55.6921Y-40.5340

G1X56.7088Y-39.8002

G1X57.8068Y-39.2593

G1X58.9497Y-38.9363

G1X60.2910Y-38.7730

G1X61.8996Y-38.7758

G1X64.7969Y-39.1350

G1X67.7532Y-39.8679

G1X70.6051Y-40.9189

G1X73.3453Y-42.2882

G1X75.4267Y-43.6043

G1X77.4751Y-45.1690

G1X81.7580Y-49.1277

G1X83.7455Y-50.6946

G1X84.8362Y-51.8593

G1 Z0F20000

(Start Block)


G1X19.3282Y-46.3610
G1Z6F20000
(Plotting speed under)
G1 F4000


G1X20.6905Y-47.4699

G1X21.8964Y-48.9836

G1X22.9779Y-50.9208

G1X24.2872Y-54.0849

G1X24.7299Y-54.7234

G1X25.2070Y-55.0954

G1X25.7917Y-55.3352

G1X26.5127Y-55.4808

G1X28.5300Y-55.5584

G1X31.3062Y-55.3458

G1X34.1355Y-54.8731

G1X36.9780Y-54.1213

G1X39.6728Y-53.1072

G1X42.1744Y-51.8474

G1X44.4329Y-50.3863

G1X45.8606Y-49.2710

G1X47.2554Y-48.0143

G1X51.0396Y-43.9537

G1X53.1782Y-42.1066

G1X55.9938Y-39.0840

G1X57.1828Y-38.1140

G1X58.1649Y-37.6389

G1X59.2127Y-37.3664

G1X60.5426Y-37.2326

G1X62.0656Y-37.2550

G1X65.0573Y-37.6400

G1X68.1388Y-38.4120

G1X71.0172Y-39.4829

G1X73.7703Y-40.8720

G1X76.0071Y-42.3143

G1X78.1022Y-43.9636

G1X82.0606Y-47.7024

G1X83.7399Y-49.0989

G1X84.9594Y-50.4740

G1 Z0F20000

(Start Block)


G1X19.3362Y-44.4201
G1Z6F20000
(Plotting speed under)
G1 F4000


G1X20.2036Y-45.0409

G1X20.9155Y-45.6874

G1X21.6502Y-46.5279

G1X22.3504Y-47.5144

G1X22.9472Y-48.5414

G1X23.4580Y-49.6236

G1X24.7134Y-53.1353

G1X25.0445Y-53.6637

G1X25.4837Y-54.0398

G1X26.0723Y-54.2887

G1X26.7055Y-54.4184

G1X28.6667Y-54.5027

G1X31.4173Y-54.3126

G1X34.2478Y-53.8701

G1X36.8600Y-53.2256

G1X39.2690Y-52.3968

G1X41.5509Y-51.3667

G1X43.7405Y-50.1111

G1X45.9927Y-48.4882

G1X48.1928Y-46.5146

G1X51.2122Y-43.3379

G1X53.5612Y-41.1862

G1X54.4954Y-40.0903

G1X56.2597Y-37.7679

G1X57.1969Y-36.8300

G1X58.0762Y-36.2998

G1X59.2203Y-35.9516

G1X60.6639Y-35.8026

G1X62.3163Y-35.8380

G1X65.3136Y-36.2315

G1X68.4414Y-37.0081

G1X71.3939Y-38.0999

G1X74.1423Y-39.4820

G1X76.4328Y-40.9573

G1X78.5743Y-42.6474

G1X82.2225Y-46.0777

G1X83.7983Y-47.4290

G1X85.1297Y-48.9699

G1 Z0F20000

(Start Block)


G1X19.2957Y-42.6087
G1Z6F20000
(Plotting speed under)
G1 F4000


G1X20.2628Y-43.2828

G1X21.1788Y-44.1170

G1X22.0073Y-45.0877

G1X22.7779Y-46.2155

G1X23.3978Y-47.3541

G1X23.9122Y-48.5543

G1X25.0057Y-52.1461

G1X25.2887Y-52.6396

G1X25.6063Y-52.9439

G1X26.0213Y-53.1625

G1X26.6258Y-53.3245

G1X28.5648Y-53.4463

G1X31.4194Y-53.2813

G1X34.2609Y-52.8748

G1X37.0479Y-52.2238

G1X39.6245Y-51.3607

G1X42.1244Y-50.2372

G1X44.4145Y-48.9113

G1X46.0232Y-47.7785

G1X47.5770Y-46.5052

G1X51.3626Y-42.7957

G1X53.2822Y-41.0766

G1X54.6925Y-39.3973

G1X56.7837Y-36.2606

G1X57.6549Y-35.3543

G1X58.5174Y-34.8656

G1X59.5456Y-34.5858

G1X60.8968Y-34.4629

G1X62.6003Y-34.5071

G1X65.7320Y-34.9251

G1X68.8073Y-35.6859

G1X71.7169Y-36.7468

G1X74.4667Y-38.1065

G1X76.7916Y-39.5787

G1X79.0429Y-41.3283

G1X83.9146Y-45.6984

G1X85.3340Y-47.3395

G1 Z0F20000

(Start Block)


G1X19.2381Y-40.9724
G1Z6F20000
(Plotting speed under)
G1 F4000


G1X20.4013Y-41.7773

G1X21.3455Y-42.6456

G1X22.2669Y-43.7374

G1X23.1042Y-45.0028

G1X23.6890Y-46.1285

G1X24.1761Y-47.3334

G1X24.5534Y-48.5721

G1X25.0768Y-50.8310

G1X25.3898Y-51.5624

G1X25.6735Y-51.8713

G1X26.0560Y-52.0918

G1X26.5904Y-52.2473

G1X27.3994Y-52.3494

G1X29.4013Y-52.3676

G1X31.7477Y-52.2083

G1X33.9682Y-51.9173

G1X36.2140Y-51.4717

G1X38.2246Y-50.9254

G1X40.1813Y-50.2411

G1X42.1271Y-49.3913

G1X43.9150Y-48.4402

G1X45.7731Y-47.2542

G1X47.5785Y-45.8857

G1X53.4073Y-40.6373

G1X54.2425Y-39.7099

G1X54.9876Y-38.7255

G1X57.1067Y-35.1948

G1X57.8703Y-34.2395

G1X58.3726Y-33.8517

G1X58.8560Y-33.6055

G1X60.2163Y-33.2751

G1X61.6001Y-33.2008

G1X63.2171Y-33.2727

G1X64.9693Y-33.4767

G1X66.8273Y-33.8134

G1X68.5578Y-34.2365

G1X70.2626Y-34.7623

G1X71.9328Y-35.3909

G1X73.5230Y-36.1039

G1X76.2283Y-37.6072

G1X78.8561Y-39.4643

G1X83.9574Y-43.8018

G1X84.7683Y-44.6219

G1X85.5540Y-45.5759

G1 Z0F20000

(Start Block)


G1X19.1964Y-39.5569
G1Z6F20000
(Plotting speed under)
G1 F4000


G1X20.3809Y-40.3614

G1X21.4249Y-41.3109

G1X22.3981Y-42.4664

G1X23.2713Y-43.8063

G1X23.8829Y-45.0295

G1X24.3676Y-46.3126

G1X24.7388Y-47.7010

G1X25.1559Y-49.8690

G1X25.4677Y-50.6078

G1X25.7515Y-50.8844

G1X26.1417Y-51.0774

G1X27.4856Y-51.2906

G1X29.5436Y-51.2971

G1X32.1087Y-51.1249

G1X34.4058Y-50.8256

G1X36.7146Y-50.3679

G1X38.8688Y-49.7768

G1X40.8443Y-49.0761

G1X42.7960Y-48.2145

G1X44.5796Y-47.2614

G1X46.2556Y-46.2044

G1X47.9615Y-44.9571

G1X53.4347Y-40.3544

G1X54.4869Y-39.2277

G1X55.4451Y-37.9515

G1X56.3097Y-36.5422

G1X57.5997Y-34.1263

G1X58.2228Y-33.2336

G1X58.6859Y-32.8004

G1X59.2291Y-32.4746

G1X59.8759Y-32.2443

G1X60.5889Y-32.1054

G1X61.8768Y-32.0190

G1X63.4577Y-32.0711

G1X65.2318Y-32.2601

G1X67.0151Y-32.5634

G1X68.7792Y-32.9715

G1X70.4769Y-33.4699

G1X72.0924Y-34.0481

G1X73.6856Y-34.7255

G1X76.4976Y-36.2112

G1X79.2077Y-38.0304

G1X83.9505Y-41.7913

G1X84.9071Y-42.6974

G1X85.7653Y-43.6736

G1 Z0F20000

(Start Block)


G1X19.1906Y-38.3764
G1Z6F20000
(Plotting speed under)
G1 F4000


G1X20.4606Y-39.2424

G1X21.4940Y-40.1926

G1X22.4637Y-41.3541

G1X23.3351Y-42.7117

G1X23.9754Y-44.0382

G1X24.4374Y-45.3473

G1X24.7579Y-46.6742

G1X25.1112Y-48.8999

G1X25.3613Y-49.5627

G1X25.6571Y-49.8592

G1X26.0347Y-50.0359

G1X27.3930Y-50.2287

G1X29.7348Y-50.2258

G1X32.4235Y-50.0503

G1X34.7944Y-49.7508

G1X37.0563Y-49.3152

G1X39.1577Y-48.7591

G1X41.2467Y-48.0422

G1X43.2059Y-47.2025

G1X45.1773Y-46.1758

G1X46.7601Y-45.2084

G1X48.3706Y-44.0909

G1X52.8331Y-40.6921

G1X53.7722Y-39.8849

G1X54.9736Y-38.5992

G1X56.0665Y-37.1161

G1X56.9344Y-35.6533

G1X58.2928Y-32.9779

G1X58.8338Y-32.1600

G1X59.2824Y-31.7069

G1X59.8106Y-31.3652

G1X60.4415Y-31.1226

G1X61.1668Y-30.9702

G1X62.3493Y-30.8771

G1X63.8623Y-30.9097

G1X65.5347Y-31.0679

G1X67.2231Y-31.3299

G1X70.5707Y-32.1370

G1X73.8005Y-33.3057

G1X76.6188Y-34.6823

G1X79.4154Y-36.4063

G1X83.9535Y-39.6750

G1X84.9585Y-40.5471

G1X85.9468Y-41.5701

G1 Z0F20000

(Start Block)


G1X19.2169Y-37.3906
G1Z6F20000
(Plotting speed under)
G1 F4000


G1X20.4725Y-38.2464

G1X21.4999Y-39.1883

G1X22.4882Y-40.3781

G1X23.3591Y-41.7627

G1X23.9733Y-43.0801

G1X24.4104Y-44.3902

G1X24.7020Y-45.7314

G1X24.9822Y-47.9665

G1X25.2291Y-48.6144

G1X25.5242Y-48.8690

G1X25.9617Y-49.0298

G1X27.4337Y-49.1726

G1X30.0654Y-49.1491

G1X32.8651Y-48.9727

G1X35.3285Y-48.6708

G1X37.6448Y-48.2334

G1X39.9283Y-47.6330

G1X42.0254Y-46.9148

G1X44.0746Y-46.0418

G1X46.1122Y-44.9927

G1X48.3428Y-43.6347

G1X52.5332Y-40.7974

G1X54.3090Y-39.3430

G1X55.6464Y-37.8822

G1X56.8068Y-36.2603

G1X57.7286Y-34.6382

G1X59.0451Y-31.8916

G1X59.5708Y-31.0483

G1X60.0086Y-30.5826

G1X60.4335Y-30.2829

G1X61.0364Y-30.0176

G1X61.7581Y-29.8423

G1X62.8191Y-29.7338

G1X64.2290Y-29.7356

G1X67.5318Y-30.0904

G1X70.7718Y-30.7992

G1X73.9660Y-31.8519

G1X76.8351Y-33.1266

G1X79.8663Y-34.8223

G1X83.9228Y-37.4272

G1X85.0214Y-38.2949

G1X86.0446Y-39.2474

G1 Z0F20000


G00 X0.0000 Y0.0000


