$H
G21
G17
G90
G1 Z0F20000
G1 F15000
(Start Layer)
(Start Block)

G1X19.1663Y-107.2584
G1Z6F20000
(Plotting speed under)
G1 F8000

G1X22.2932Y-107.1066
G1X24.9568Y-107.0830
G1X27.1572Y-107.1666
G1X30.7474Y-107.4382
G1X32.1371Y-107.4532
G1X33.7585Y-107.2540
G1X36.4387Y-106.5879
G1X37.4644Y-106.5011
G1X38.7218Y-106.7032
G1X41.2035Y-107.5774
G1X42.2127Y-107.6876
G1X43.4866Y-107.4449
G1X46.1668Y-106.4283
G1X47.5400Y-106.2505
G1X48.6485Y-106.3399
G1X51.6265Y-106.8787
G1X53.2147Y-106.9886
G1X55.0015Y-106.8515
G1X57.7810Y-106.2926
G1X58.7736Y-106.2711
G1X59.6670Y-106.5011
G1X61.4538Y-107.4670
G1X62.2480Y-107.6871
G1X63.0421Y-107.5219
G1X64.3326Y-106.7273
G1X65.0274Y-106.5019
G1X65.7223Y-106.6522
G1X66.9135Y-107.3378
G1X67.4098Y-107.4538
G1X67.9062Y-107.3899
G1X69.0974Y-106.8086
G1X69.5937Y-106.7105
G1X69.9907Y-106.7403
G1X71.1820Y-107.1957
G1X71.7445Y-107.2797
G1X73.8291Y-106.8597
G1X76.0295Y-107.1539
G1X78.2299Y-106.9636
G1X81.0094Y-107.0723
G1X85.8734Y-107.0239
G1 Z0F20000
(Start Block)

G1X19.1663Y-106.3015
G1Z6F20000
(Plotting speed under)
G1 F8000

G1X25.0726Y-106.1233
G1X31.7897Y-106.2953
G1X33.1629Y-106.1411
G1X35.9423Y-105.4845
G1X37.1170Y-105.3530
G1X38.4240Y-105.5413
G1X40.9057Y-106.4203
G1X41.9811Y-106.5391
G1X43.0895Y-106.3224
G1X45.6705Y-105.2891
G1X46.9609Y-105.1037
G1X48.2514Y-105.2694
G1X51.6265Y-106.1409
G1X53.7938Y-106.3285
G1X54.8361Y-106.2811
G1X55.8949Y-106.1307
G1X58.9722Y-105.2212
G1X60.0476Y-105.1121
G1X60.9575Y-105.3560
G1X62.7443Y-106.3893
G1X63.4392Y-106.5399
G1X64.0348Y-106.3992
G1X65.4245Y-105.5410
G1X66.0201Y-105.3629
G1X66.5164Y-105.4274
G1X67.7200Y-106.1218
G1X68.4025Y-106.3144
G1X68.8988Y-106.2159
G1X70.0900Y-105.6502
G1X70.5863Y-105.5549
G1X71.0827Y-105.6490
G1X72.0753Y-106.0341
G1X72.6709Y-106.1390
G1X74.7556Y-105.7091
G1X76.9560Y-106.0086
G1X79.1564Y-105.8183
G1X81.9359Y-105.9253
G1X85.8734Y-105.8744
G1 Z0F20000
(Start Block)

G1X19.1663Y-105.1211
G1Z6F20000
(Plotting speed under)
G1 F8000

G1X31.3264Y-105.1420
G1X32.8651Y-104.9767
G1X35.7438Y-104.3293
G1X37.0012Y-104.2076
G1X38.2255Y-104.3940
G1X40.7071Y-105.2793
G1X41.7494Y-105.3917
G1X42.8910Y-105.1504
G1X45.2734Y-104.1424
G1X46.3819Y-103.9577
G1X47.0602Y-104.0051
G1X47.7550Y-104.1609
G1X50.1375Y-104.9978
G1X51.2294Y-105.2899
G1X52.5198Y-105.4864
G1X53.9096Y-105.5632
G1X55.7626Y-105.5187
G1X57.1854Y-105.3175
G1X58.2773Y-104.9948
G1X60.3619Y-104.1215
G1X61.2057Y-103.9591
G1X61.6524Y-103.9973
G1X62.1487Y-104.1595
G1X63.8362Y-105.1952
G1X64.5311Y-105.3915
G1X65.1143Y-105.2765
G1X66.4172Y-104.4359
G1X67.1120Y-104.2072
G1X67.7076Y-104.3492
G1X68.8988Y-105.0437
G1X69.3952Y-105.1640
G1X69.8915Y-105.0819
G1X70.9834Y-104.5388
G1X71.4798Y-104.4170
G1X72.0753Y-104.4932
G1X73.1673Y-104.9223
G1X73.5975Y-104.9867
G1X74.1600Y-104.9294
G1X75.1526Y-104.6389
G1X75.6821Y-104.5667
G1X77.8825Y-104.8590
G1X80.3145Y-104.6692
G1X82.9781Y-104.7782
G1X85.8734Y-104.7351
G1 Z0F20000
(Start Block)

G1X19.1663Y-103.7382
G1Z6F20000
(Plotting speed under)
G1 F8000

G1X20.9034Y-103.9266
G1X22.6406Y-104.0107
G1X30.6316Y-103.9989
G1X32.4680Y-103.8363
G1X35.6445Y-103.1685
G1X36.8854Y-103.0621
G1X38.1262Y-103.2591
G1X40.5086Y-104.1239
G1X41.5013Y-104.2481
G1X42.0969Y-104.1748
G1X42.6924Y-103.9947
G1X44.9756Y-102.9886
G1X46.0344Y-102.8113
G1X47.2587Y-103.0190
G1X49.5419Y-103.9589
G1X50.4352Y-104.2471
G1X51.4279Y-104.4377
G1X52.6357Y-104.5190
G1X57.1523Y-104.5201
G1X58.4758Y-104.4104
G1X59.5678Y-104.1104
G1X61.7516Y-103.0221
G1X62.5954Y-102.8140
G1X63.0421Y-102.8557
G1X63.4392Y-102.9982
G1X64.9406Y-103.9919
G1X65.7223Y-104.2492
G1X66.4172Y-104.0597
G1X67.6332Y-103.2337
G1X68.2040Y-103.0696
G1X68.7003Y-103.1544
G1X69.8046Y-103.8238
G1X70.4871Y-104.0210
G1X70.8842Y-103.9527
G1X71.9761Y-103.4109
G1X72.5717Y-103.2650
G1X72.9688Y-103.3118
G1X74.0607Y-103.7330
G1X74.6563Y-103.8433
G1X76.7409Y-103.4182
G1X78.9248Y-103.7145
G1X81.3568Y-103.5240
G1X83.9046Y-103.6280
G1X85.8734Y-103.6117
G1 Z0F20000
(Start Block)

G1X19.1663Y-102.2776
G1Z6F20000
(Plotting speed under)
G1 F8000

G1X21.4825Y-102.6426
G1X23.3355Y-102.8089
G1X29.5893Y-102.8604
G1X32.1371Y-102.6953
G1X35.6445Y-102.0054
G1X36.8854Y-101.9183
G1X38.1262Y-102.1345
G1X40.5086Y-103.0026
G1X41.4020Y-103.1012
G1X42.4939Y-102.8653
G1X44.7770Y-101.8252
G1X45.8028Y-101.6652
G1X46.3653Y-101.7296
G1X46.9609Y-101.9054
G1X49.7404Y-103.1334
G1X50.5511Y-103.3168
G1X51.3617Y-103.3763
G1X55.5309Y-103.0421
G1X56.8049Y-103.0961
G1X59.1211Y-103.3610
G1X60.1634Y-103.3372
G1X61.1560Y-103.0615
G1X63.2406Y-101.8713
G1X64.0348Y-101.6670
G1X64.7296Y-101.8306
G1X66.2434Y-102.8768
G1X66.9135Y-103.0977
G1X67.5091Y-102.9571
G1X68.7996Y-102.0914
G1X69.2959Y-101.9211
G1X69.8915Y-102.0330
G1X71.0827Y-102.7563
G1X71.5790Y-102.8677
G1X72.0753Y-102.7815
G1X73.1673Y-102.2229
G1X73.5975Y-102.1262
G1X74.1600Y-102.1880
G1X75.2519Y-102.6203
G1X75.6821Y-102.6921
G1X76.2446Y-102.6437
G1X77.7667Y-102.2754
G1X79.9671Y-102.5639
G1X82.5149Y-102.3766
G1X85.8734Y-102.4862
G1 Z0F20000
(Start Block)

G1X19.1663Y-100.8792
G1Z6F20000
(Plotting speed under)
G1 F8000

G1X23.7987Y-101.5830
G1X25.7675Y-101.6892
G1X28.4312Y-101.7108
G1X31.9055Y-101.5556
G1X35.6445Y-100.8586
G1X36.8854Y-100.7715
G1X37.9277Y-100.9307
G1X40.3101Y-101.8092
G1X41.2862Y-101.9561
G1X41.7991Y-101.9013
G1X42.3947Y-101.7265
G1X44.6778Y-100.6567
G1X45.6705Y-100.5214
G1X46.7624Y-100.7971
G1X49.1448Y-101.9723
G1X49.8396Y-102.1646
G1X50.5511Y-102.2300
G1X51.7257Y-102.0932
G1X54.6044Y-101.4042
G1X56.3416Y-101.2554
G1X57.8802Y-101.3928
G1X60.7590Y-102.1371
G1X61.8509Y-102.2147
G1X62.7443Y-101.9641
G1X64.6304Y-100.7559
G1X65.0274Y-100.5820
G1X65.4245Y-100.5216
G1X66.0201Y-100.6600
G1X67.5463Y-101.7513
G1X68.2040Y-101.9483
G1X68.6755Y-101.8422
G1X69.8915Y-100.9882
G1X70.5863Y-100.7674
G1X71.0827Y-100.9135
G1X71.9761Y-101.4791
G1X72.6709Y-101.7293
G1X73.1673Y-101.6348
G1X74.1600Y-101.1345
G1X74.7556Y-100.9700
G1X75.2519Y-101.0464
G1X76.1453Y-101.4020
G1X76.8402Y-101.5524
G1X78.9248Y-101.1243
G1X81.1252Y-101.4194
G1X83.6730Y-101.2318
G1X85.8734Y-101.3134
G1 Z0F20000
(Start Block)

G1X19.1663Y-99.6237
G1Z6F20000
(Plotting speed under)
G1 F8000

G1X20.4567Y-99.7447
G1X24.4936Y-100.3972
G1X28.3154Y-100.5483
G1X32.0213Y-100.3982
G1X35.7438Y-99.7137
G1X37.0012Y-99.6252
G1X38.0269Y-99.7859
G1X40.3101Y-100.6474
G1X41.2862Y-100.8098
G1X41.7991Y-100.7571
G1X42.3947Y-100.5779
G1X44.5785Y-99.5144
G1X45.5712Y-99.3771
G1X46.5639Y-99.6472
G1X48.8470Y-100.8569
G1X49.4426Y-101.0281
G1X49.9720Y-101.0826
G1X50.5345Y-101.0420
G1X51.2294Y-100.8764
G1X53.4132Y-100.0471
G1X54.5052Y-99.7200
G1X55.5971Y-99.5217
G1X56.6890Y-99.4402
G1X58.0788Y-99.4875
G1X59.3692Y-99.7085
G1X60.3619Y-100.0253
G1X62.3472Y-100.8805
G1X63.2903Y-101.0813
G1X63.8362Y-101.0183
G1X64.3326Y-100.8256
G1X66.0201Y-99.6282
G1X66.7150Y-99.3801
G1X67.3726Y-99.5229
G1X68.8492Y-100.6235
G1X69.3952Y-100.8022
G1X69.9783Y-100.6591
G1X71.1075Y-99.8251
G1X71.6783Y-99.6332
G1X72.1746Y-99.7204
G1X73.2790Y-100.4208
G1X73.8622Y-100.5761
G1X74.3585Y-100.4750
G1X75.4504Y-99.9166
G1X75.9468Y-99.8293
G1X76.3438Y-99.8801
G1X77.4358Y-100.3129
G1X77.9983Y-100.4004
G1X80.0829Y-99.9810
G1X82.3991Y-100.2752
G1X84.5995Y-100.0989
G1X85.8734Y-100.0981
G1 Z0F20000
(Start Block)

G1X19.1663Y-98.5134
G1Z6F20000
(Plotting speed under)
G1 F8000

G1X20.8538Y-98.5334
G1X23.9311Y-99.0833
G1X25.4201Y-99.2727
G1X28.8944Y-99.3964
G1X32.3687Y-99.2429
G1X36.0416Y-98.5570
G1X37.2328Y-98.4797
G1X38.2255Y-98.6439
G1X40.5086Y-99.5232
G1X41.4020Y-99.6634
G1X42.3947Y-99.4602
G1X44.5785Y-98.3659
G1X45.4554Y-98.2271
G1X45.9683Y-98.3126
G1X46.4646Y-98.4988
G1X48.6485Y-99.7274
G1X49.6411Y-99.9360
G1X50.7331Y-99.7280
G1X53.0162Y-98.6440
G1X54.0088Y-98.2826
G1X55.2001Y-98.0431
G1X56.5732Y-97.9499
G1X59.3527Y-97.9691
G1X60.8582Y-98.1694
G1X62.0494Y-98.5942
G1X64.1340Y-99.7441
G1X64.9282Y-99.9367
G1X65.3252Y-99.8912
G1X65.8092Y-99.7031
G1X67.4594Y-98.4480
G1X68.1047Y-98.2323
G1X68.6755Y-98.3686
G1X69.8915Y-99.3388
G1X70.5863Y-99.6592
G1X70.8842Y-99.6279
G1X71.2812Y-99.4594
G1X72.4104Y-98.6207
G1X72.8695Y-98.4833
G1X73.4527Y-98.6203
G1X74.4578Y-99.2753
G1X74.9541Y-99.4276
G1X75.4504Y-99.3548
G1X76.5424Y-98.7963
G1X77.0387Y-98.6820
G1X77.5350Y-98.7481
G1X78.6270Y-99.1734
G1X79.0406Y-99.2536
G1X79.6196Y-99.2077
G1X80.7116Y-98.9048
G1X81.2410Y-98.8342
G1X83.6730Y-99.1282
G1X85.8734Y-98.9567
G1 Z0F20000
(Start Block)

G1X19.1663Y-97.4988
G1Z6F20000
(Plotting speed under)
G1 F8000

G1X20.0928Y-97.3476
G1X21.0193Y-97.3434
G1X25.6517Y-98.1192
G1X27.3889Y-98.2333
G1X29.8209Y-98.2580
G1X32.8320Y-98.1033
G1X36.3394Y-97.4175
G1X37.4644Y-97.3306
G1X38.5233Y-97.5029
G1X40.6079Y-98.3404
G1X41.6336Y-98.5146
G1X42.1961Y-98.4331
G1X42.6924Y-98.2514
G1X44.6778Y-97.2099
G1X45.4719Y-97.0795
G1X45.9683Y-97.1614
G1X46.4646Y-97.3552
G1X48.4499Y-98.5497
G1X48.9462Y-98.7269
G1X49.3929Y-98.7875
G1X49.9389Y-98.7371
G1X50.5345Y-98.5393
G1X52.4206Y-97.4794
G1X53.3140Y-97.0757
G1X54.1081Y-96.8643
G1X54.9519Y-96.7832
G1X58.3104Y-96.9619
G1X61.4373Y-96.7831
G1X62.5458Y-96.8578
G1X63.6377Y-97.2363
G1X65.5486Y-98.4936
G1X66.0201Y-98.7066
G1X66.4172Y-98.7882
G1X66.8142Y-98.7431
G1X67.1989Y-98.5899
G1X68.7623Y-97.3292
G1X69.1098Y-97.1388
G1X69.3952Y-97.0859
G1X69.9783Y-97.2306
G1X71.2040Y-98.2527
G1X71.8768Y-98.5139
G1X72.3732Y-98.3667
G1X73.3658Y-97.6129
G1X74.0607Y-97.3278
G1X74.5570Y-97.4600
G1X75.4504Y-98.0418
G1X76.1453Y-98.2908
G1X76.7409Y-98.1406
G1X77.7336Y-97.6356
G1X78.2299Y-97.5292
G1X78.7262Y-97.6218
G1X79.7189Y-98.0066
G1X80.3145Y-98.1132
G1X82.3991Y-97.6875
G1X84.5995Y-97.9655
G1X85.8734Y-97.9365
G1 Z0F20000
(Start Block)

G1X19.1663Y-96.5183
G1Z6F20000
(Plotting speed under)
G1 F8000

G1X20.2582Y-96.2394
G1X21.3667Y-96.1918
G1X22.3428Y-96.3230
G1X24.8245Y-96.8511
G1X26.1149Y-97.0228
G1X27.9679Y-97.1194
G1X30.9790Y-97.1236
G1X33.5599Y-96.9573
G1X36.8357Y-96.2658
G1X37.9277Y-96.1855
G1X38.8211Y-96.3351
G1X41.0049Y-97.2255
G1X41.8652Y-97.3690
G1X42.3947Y-97.2967
G1X42.8910Y-97.1204
G1X44.7770Y-96.0836
G1X45.5712Y-95.9318
G1X46.4646Y-96.1677
G1X48.5492Y-97.4554
G1X49.3929Y-97.6417
G1X49.8396Y-97.5879
G1X50.3360Y-97.4086
G1X52.5198Y-96.0742
G1X53.1155Y-95.8180
G1X53.7111Y-95.6734
G1X54.8030Y-95.6714
G1X57.6817Y-96.3004
G1X59.2369Y-96.4367
G1X60.6597Y-96.3045
G1X62.9428Y-95.7500
G1X63.8693Y-95.6355
G1X64.5311Y-95.7135
G1X65.1143Y-95.9314
G1X65.8092Y-96.3729
G1X67.0252Y-97.3249
G1X67.8069Y-97.6382
G1X68.2040Y-97.5993
G1X68.5886Y-97.4371
G1X69.9907Y-96.2291
G1X70.3878Y-95.9956
G1X70.6856Y-95.9347
G1X71.2812Y-96.1226
G1X72.4972Y-97.1655
G1X73.0680Y-97.3577
G1X73.5395Y-97.2401
G1X74.7556Y-96.3197
G1X75.2519Y-96.1907
G1X75.6490Y-96.2745
G1X76.7533Y-96.9908
G1X77.2372Y-97.1297
G1X77.7336Y-97.0653
G1X78.8255Y-96.4995
G1X79.3218Y-96.3930
G1X79.8182Y-96.4472
G1X80.9101Y-96.8728
G1X81.3568Y-96.9545
G1X81.9028Y-96.9304
G1X83.0940Y-96.6137
G1X83.6896Y-96.5394
G1X85.8734Y-96.8171
G1 Z0F20000
(Start Block)

G1X19.1663Y-95.5242
G1Z6F20000
(Plotting speed under)
G1 F8000

G1X20.3575Y-95.1321
G1X21.3667Y-95.0352
G1X22.2435Y-95.1286
G1X24.7252Y-95.7040
G1X26.2308Y-95.9174
G1X27.9679Y-95.9926
G1X32.2529Y-95.9858
G1X34.3541Y-95.8216
G1X37.2328Y-95.1507
G1X38.3909Y-95.0377
G1X39.3174Y-95.2003
G1X41.3027Y-96.0566
G1X42.1961Y-96.2228
G1X42.9903Y-96.0609
G1X44.8763Y-94.9974
G1X45.3727Y-94.8259
G1X45.7697Y-94.7870
G1X46.2660Y-94.8691
G1X46.6631Y-95.0392
G1X48.6485Y-96.3198
G1X49.0455Y-96.4559
G1X49.5088Y-96.4921
G1X49.9389Y-96.4133
G1X50.5221Y-96.1495
G1X52.6191Y-94.7647
G1X53.2147Y-94.5535
G1X53.7938Y-94.4887
G1X54.8030Y-94.6543
G1X56.9868Y-95.5049
G1X57.9795Y-95.8119
G1X59.0053Y-95.9991
G1X59.9318Y-96.0528
G1X60.8582Y-95.9974
G1X61.8509Y-95.8087
G1X62.8436Y-95.4803
G1X64.8289Y-94.6372
G1X65.4245Y-94.5025
G1X65.9208Y-94.5060
G1X66.7646Y-94.8192
G1X68.4149Y-96.1679
G1X68.8988Y-96.4281
G1X69.1966Y-96.4950
G1X69.4944Y-96.4614
G1X69.8915Y-96.2901
G1X71.2040Y-95.0931
G1X71.8768Y-94.7884
G1X72.1746Y-94.8295
G1X72.4724Y-94.9835
G1X73.6264Y-95.9755
G1X74.1600Y-96.2161
G1X74.7556Y-96.0552
G1X75.7979Y-95.2413
G1X76.2446Y-95.0494
G1X76.8402Y-95.1544
G1X77.9321Y-95.8569
G1X78.3292Y-95.9873
G1X78.9248Y-95.8966
G1X79.9174Y-95.3851
G1X80.4138Y-95.2434
G1X81.0094Y-95.3133
G1X82.1013Y-95.7278
G1X82.6307Y-95.8159
G1X83.1932Y-95.7650
G1X84.5995Y-95.4186
G1X85.1785Y-95.3938
G1X85.8734Y-95.4752
G1 Z0F20000
(Start Block)

G1X19.1663Y-94.4907
G1Z6F20000
(Plotting speed under)
G1 F8000

G1X20.4567Y-94.0003
G1X21.4825Y-93.8898
G1X22.4420Y-94.0212
G1X24.8245Y-94.6292
G1X26.1149Y-94.8048
G1X33.6427Y-94.8407
G1X35.2475Y-94.6840
G1X37.9277Y-93.9945
G1X38.9700Y-93.8919
G1X40.0123Y-94.1108
G1X41.8983Y-94.9616
G1X42.6759Y-95.0748
G1X43.5735Y-94.8258
G1X45.3727Y-93.7714
G1X46.0675Y-93.6408
G1X46.4646Y-93.7032
G1X46.9609Y-93.9172
G1X48.8470Y-95.1912
G1X49.6411Y-95.3462
G1X50.0382Y-95.2660
G1X50.5221Y-95.0449
G1X52.5198Y-93.6277
G1X53.1155Y-93.3985
G1X53.6780Y-93.3444
G1X54.7037Y-93.5985
G1X56.7883Y-94.6793
G1X57.8802Y-95.1085
G1X59.1707Y-95.3841
G1X60.7424Y-95.4746
G1X62.2480Y-95.3657
G1X63.4392Y-95.0807
G1X64.4318Y-94.6507
G1X66.3179Y-93.5693
G1X67.1120Y-93.3451
G1X67.6084Y-93.3940
G1X68.0675Y-93.5913
G1X68.5790Y-93.9636
G1X69.7371Y-95.0335
G1X70.0900Y-95.2406
G1X70.4871Y-95.3491
G1X70.7849Y-95.3056
G1X71.1820Y-95.0967
G1X72.5165Y-93.8500
G1X73.0680Y-93.6504
G1X73.5395Y-93.7715
G1X74.6784Y-94.7840
G1X75.3512Y-95.0734
G1X75.7482Y-94.9715
G1X76.8402Y-94.1339
G1X77.4358Y-93.8932
G1X77.8328Y-93.9629
G1X78.9248Y-94.6527
G1X79.5204Y-94.8471
G1X79.9174Y-94.7896
G1X81.0094Y-94.2446
G1X81.6050Y-94.0935
G1X82.0020Y-94.1322
G1X83.0940Y-94.5339
G1X83.7888Y-94.6726
G1X84.4837Y-94.5911
G1X85.8734Y-94.2639
G1 Z0F20000
(Start Block)

G1X19.1663Y-93.4085
G1Z6F20000
(Plotting speed under)
G1 F8000

G1X20.3575Y-92.8935
G1X21.3667Y-92.7413
G1X22.2435Y-92.8554
G1X24.6259Y-93.5220
G1X25.7675Y-93.6784
G1X30.5158Y-93.5832
G1X34.8008Y-93.6986
G1X36.2401Y-93.5349
G1X38.5233Y-92.8756
G1X39.5490Y-92.7434
G1X40.4093Y-92.8970
G1X42.2954Y-93.7726
G1X43.1392Y-93.9266
G1X43.8837Y-93.7392
G1X45.4843Y-92.7516
G1X45.9683Y-92.5533
G1X46.3653Y-92.4931
G1X46.7624Y-92.5464
G1X47.2215Y-92.7354
G1X49.0455Y-94.0197
G1X49.4426Y-94.1636
G1X49.8396Y-94.2012
G1X50.2367Y-94.1178
G1X50.6958Y-93.8977
G1X52.6191Y-92.4620
G1X53.1155Y-92.2567
G1X53.5621Y-92.1966
G1X54.1081Y-92.2726
G1X54.6913Y-92.5098
G1X56.5153Y-93.6422
G1X57.4832Y-94.1095
G1X58.4758Y-94.3838
G1X59.7001Y-94.5077
G1X62.9428Y-94.5100
G1X64.5311Y-94.3051
G1X65.8092Y-93.7636
G1X67.7200Y-92.4607
G1X68.5017Y-92.1986
G1X68.8988Y-92.2347
G1X69.3703Y-92.4379
G1X71.0206Y-93.9357
G1X71.2812Y-94.0973
G1X71.6783Y-94.1955
G1X71.9761Y-94.1574
G1X72.2367Y-94.0244
G1X73.5395Y-92.7990
G1X73.8870Y-92.5655
G1X74.1600Y-92.4970
G1X74.7556Y-92.6933
G1X75.8847Y-93.7123
G1X76.3438Y-93.9118
G1X76.9270Y-93.7894
G1X78.0562Y-92.9012
G1X78.5277Y-92.7558
G1X79.0116Y-92.8452
G1X80.0539Y-93.5266
G1X80.5130Y-93.6867
G1X81.1086Y-93.6174
G1X82.2006Y-93.0608
G1X82.6307Y-92.9565
G1X83.1932Y-92.9990
G1X84.7153Y-93.5041
G1X85.2778Y-93.5111
G1X85.8734Y-93.3860
G1 Z0F20000
(Start Block)

G1X19.1663Y-92.2760
G1Z6F20000
(Plotting speed under)
G1 F8000

G1X20.3575Y-91.7286
G1X21.2509Y-91.5952
G1X22.1443Y-91.7357
G1X24.2289Y-92.3887
G1X25.3043Y-92.5440
G1X26.3466Y-92.5434
G1X29.1260Y-92.3136
G1X30.7474Y-92.2601
G1X35.9589Y-92.5539
G1X37.2328Y-92.3883
G1X39.3174Y-91.7241
G1X40.2439Y-91.5969
G1X41.0049Y-91.7293
G1X42.7917Y-92.5979
G1X43.2881Y-92.7528
G1X43.6851Y-92.7801
G1X44.4793Y-92.5543
G1X46.1668Y-91.4929
G1X46.8616Y-91.3471
G1X47.2587Y-91.4248
G1X47.7426Y-91.6599
G1X49.4426Y-92.9022
G1X50.1375Y-93.0518
G1X50.5345Y-92.9717
G1X51.0309Y-92.7040
G1X52.8176Y-91.3047
G1X53.2147Y-91.1251
G1X53.7111Y-91.0504
G1X54.1081Y-91.1027
G1X54.6044Y-91.2976
G1X56.7883Y-92.7656
G1X57.3839Y-93.0603
G1X58.0788Y-93.2752
G1X59.2369Y-93.3775
G1X62.2480Y-93.2320
G1X65.0274Y-93.3774
G1X65.9208Y-93.2751
G1X66.7150Y-92.9900
G1X67.3726Y-92.5910
G1X69.0229Y-91.3153
G1X69.7922Y-91.0489
G1X70.1893Y-91.1091
G1X70.5863Y-91.3038
G1X71.9761Y-92.6444
G1X72.4104Y-92.9509
G1X72.7702Y-93.0531
G1X73.0680Y-93.0041
G1X73.4430Y-92.8094
G1X74.6784Y-91.5842
G1X75.2519Y-91.3545
G1X75.7110Y-91.4849
G1X76.8402Y-92.4970
G1X77.4358Y-92.7780
G1X77.9321Y-92.6478
G1X78.9248Y-91.8717
G1X79.6196Y-91.5947
G1X80.0167Y-91.6973
G1X81.0094Y-92.3322
G1X81.6050Y-92.5508
G1X82.1013Y-92.4796
G1X83.0940Y-91.9855
G1X83.7888Y-91.7974
G1X84.3844Y-91.8936
G1X85.8734Y-92.3687
G1 Z0F20000
(Start Block)

G1X19.1663Y-91.0936
G1Z6F20000
(Plotting speed under)
G1 F8000

G1X20.2582Y-90.5684
G1X21.0193Y-90.4503
G1X21.9457Y-90.6162
G1X23.8318Y-91.2667
G1X24.7252Y-91.4020
G1X25.7675Y-91.3766
G1X29.0102Y-90.9669
G1X30.9790Y-90.8865
G1X32.9478Y-90.9657
G1X36.0747Y-91.3640
G1X37.1170Y-91.4082
G1X38.1262Y-91.2665
G1X40.0123Y-90.6125
G1X40.9388Y-90.4502
G1X41.6998Y-90.5776
G1X43.3873Y-91.4372
G1X43.8837Y-91.6008
G1X44.2807Y-91.6350
G1X45.0500Y-91.4108
G1X46.6631Y-90.3591
G1X47.3580Y-90.2042
G1X47.7550Y-90.2802
G1X48.1521Y-90.4851
G1X49.7404Y-91.6991
G1X50.1375Y-91.8639
G1X50.5345Y-91.9075
G1X51.3038Y-91.6178
G1X53.1279Y-90.1382
G1X53.6118Y-89.9435
G1X54.0088Y-89.9035
G1X54.4059Y-89.9825
G1X54.8650Y-90.1889
G1X57.1233Y-91.8070
G1X58.1946Y-92.1856
G1X59.2369Y-92.2086
G1X61.5531Y-91.8291
G1X62.8270Y-91.7457
G1X63.8362Y-91.8149
G1X65.8381Y-92.1654
G1X66.6488Y-92.2306
G1X67.3106Y-92.1510
G1X67.9806Y-91.8964
G1X68.6562Y-91.4501
G1X70.1521Y-90.1984
G1X70.4995Y-90.0019
G1X70.8842Y-89.9101
G1X71.2812Y-89.9515
G1X71.6286Y-90.1273
G1X72.0456Y-90.4591
G1X73.2114Y-91.6524
G1X73.5644Y-91.8459
G1X73.8622Y-91.9043
G1X74.1476Y-91.8529
G1X74.4081Y-91.6980
G1X75.6241Y-90.5113
G1X75.9716Y-90.2715
G1X76.2446Y-90.2034
G1X76.8402Y-90.4151
G1X77.9693Y-91.4440
G1X78.4284Y-91.6243
G1X79.0116Y-91.4688
G1X80.0539Y-90.6358
G1X80.5130Y-90.4633
G1X81.0962Y-90.5761
G1X82.1013Y-91.2349
G1X82.5976Y-91.3994
G1X83.1932Y-91.3119
G1X84.1859Y-90.8060
G1X84.5995Y-90.6757
G1X85.1785Y-90.6834
G1X85.8734Y-90.9141
G1 Z0F20000
(Start Block)

G1X19.1663Y-89.8614
G1Z6F20000
(Plotting speed under)
G1 F8000

G1X20.0597Y-89.4178
G1X20.7876Y-89.3037
G1X21.4494Y-89.4177
G1X23.2362Y-90.0991
G1X24.1461Y-90.2588
G1X25.1223Y-90.2119
G1X28.4312Y-89.6606
G1X31.2106Y-89.5511
G1X34.1059Y-89.6737
G1X37.1335Y-90.1887
G1X38.1593Y-90.2631
G1X39.1189Y-90.1214
G1X41.0049Y-89.4219
G1X41.7494Y-89.3040
G1X42.4939Y-89.4459
G1X44.0822Y-90.2950
G1X44.8763Y-90.4911
G1X45.5712Y-90.3184
G1X47.0602Y-89.3127
G1X47.4573Y-89.1223
G1X47.8543Y-89.0561
G1X48.5244Y-89.2365
G1X50.1747Y-90.5201
G1X50.5345Y-90.6936
G1X50.9316Y-90.7611
G1X51.3286Y-90.6881
G1X51.8250Y-90.4126
G1X53.5125Y-88.9950
G1X53.9096Y-88.8123
G1X54.3066Y-88.7586
G1X54.7037Y-88.8206
G1X55.1008Y-89.0013
G1X57.2102Y-90.6043
G1X57.7810Y-90.8940
G1X58.2773Y-91.0385
G1X58.8895Y-91.0847
G1X59.4685Y-91.0206
G1X61.9502Y-90.3873
G1X63.4061Y-90.2318
G1X64.7296Y-90.3564
G1X67.0128Y-90.9651
G1X67.9062Y-91.0841
G1X68.5017Y-91.0145
G1X69.1966Y-90.7208
G1X69.8915Y-90.2026
G1X71.1075Y-89.1110
G1X71.8768Y-88.7611
G1X72.2739Y-88.8045
G1X72.6709Y-89.0000
G1X74.0607Y-90.3962
G1X74.4578Y-90.6685
G1X74.7556Y-90.7616
G1X75.0534Y-90.7164
G1X75.4504Y-90.4983
G1X76.6086Y-89.3215
G1X77.1380Y-89.0721
G1X77.6219Y-89.1634
G1X78.8476Y-90.2684
G1X79.4211Y-90.4802
G1X79.8802Y-90.3496
G1X80.9225Y-89.5186
G1X81.4064Y-89.3254
G1X81.9028Y-89.3785
G1X83.0071Y-90.0837
G1X83.5903Y-90.2565
G1X84.0866Y-90.1753
G1X85.2778Y-89.6030
G1X85.8734Y-89.5047
G1 Z0F20000
(Start Block)

G1X19.1663Y-88.5833
G1Z6F20000
(Plotting speed under)
G1 F8000

G1X19.9604Y-88.2177
G1X20.6553Y-88.1705
G1X21.3501Y-88.3674
G1X22.7399Y-88.9577
G1X23.7987Y-89.1172
G1X24.7252Y-89.0013
G1X26.7105Y-88.5436
G1X27.8521Y-88.4026
G1X34.2217Y-88.3662
G1X35.8431Y-88.4976
G1X38.3247Y-89.0368
G1X39.2016Y-89.1188
G1X40.1115Y-88.9787
G1X41.8983Y-88.2650
G1X42.6759Y-88.1587
G1X43.4866Y-88.3811
G1X44.8763Y-89.1741
G1X45.5712Y-89.3446
G1X46.2660Y-89.1675
G1X47.6558Y-88.1907
G1X48.0529Y-87.9913
G1X48.4499Y-87.9082
G1X48.8470Y-87.9711
G1X49.2192Y-88.1442
G1X50.8695Y-89.4520
G1X51.5272Y-89.6106
G1X51.9118Y-89.5228
G1X52.2593Y-89.3210
G1X53.9096Y-87.8939
G1X54.4059Y-87.6583
G1X54.8030Y-87.6118
G1X55.2001Y-87.6962
G1X55.6467Y-87.9240
G1X57.7313Y-89.5619
G1X58.6744Y-89.9101
G1X59.6670Y-89.8742
G1X62.4465Y-89.0059
G1X63.2406Y-88.8546
G1X64.1009Y-88.7980
G1X65.6230Y-88.9829
G1X68.1047Y-89.8002
G1X68.9650Y-89.9392
G1X69.5937Y-89.8498
G1X70.1521Y-89.5988
G1X70.7408Y-89.1660
G1X71.9761Y-88.0230
G1X72.4724Y-87.7071
G1X72.7702Y-87.6221
G1X73.1673Y-87.6501
G1X73.5395Y-87.8252
G1X75.0162Y-89.2957
G1X75.3636Y-89.5390
G1X75.6490Y-89.6072
G1X76.2225Y-89.4352
G1X77.4578Y-88.1866
G1X78.0314Y-87.9176
G1X78.4905Y-88.0291
G1X79.6196Y-89.0482
G1X80.2152Y-89.3378
G1X80.7116Y-89.2083
G1X81.7042Y-88.4296
G1X82.2998Y-88.1638
G1X82.7962Y-88.2577
G1X83.7888Y-88.8878
G1X84.3844Y-89.1097
G1X84.9800Y-89.0140
G1X85.8734Y-88.5705
G1 Z0F20000
(Start Block)

G1X19.1663Y-87.2749
G1Z6F20000
(Plotting speed under)
G1 F8000

G1X19.7619Y-87.0413
G1X20.3575Y-87.0389
G1X20.8538Y-87.1859
G1X22.2435Y-87.8180
G1X23.1038Y-87.9705
G1X23.9311Y-87.8674
G1X25.9164Y-87.3395
G1X26.9256Y-87.2213
G1X31.5581Y-87.3799
G1X36.1905Y-87.2167
G1X37.3321Y-87.3371
G1X39.3174Y-87.8519
G1X40.2439Y-87.9708
G1X41.0049Y-87.8624
G1X42.6924Y-87.1522
G1X43.4866Y-87.0094
G1X44.2807Y-87.2177
G1X45.7697Y-88.0728
G1X46.3653Y-88.1960
G1X47.0478Y-87.9987
G1X48.3506Y-87.0468
G1X48.7477Y-86.8429
G1X49.1448Y-86.7613
G1X49.5419Y-86.8339
G1X49.9141Y-87.0193
G1X51.5272Y-88.3209
G1X52.1228Y-88.4648
G1X52.5198Y-88.3737
G1X52.8673Y-88.1692
G1X54.5176Y-86.7191
G1X54.9022Y-86.5340
G1X55.2993Y-86.4621
G1X55.6964Y-86.5340
G1X56.0810Y-86.7102
G1X58.0788Y-88.3282
G1X58.6744Y-88.6401
G1X59.1707Y-88.7684
G1X59.6670Y-88.7869
G1X60.3619Y-88.6607
G1X62.3472Y-87.9326
G1X63.3399Y-87.6477
G1X64.7958Y-87.4912
G1X65.6065Y-87.5498
G1X66.4172Y-87.7123
G1X68.9981Y-88.6475
G1X69.8915Y-88.7922
G1X70.4871Y-88.6965
G1X71.0206Y-88.4425
G1X73.0184Y-86.7178
G1X73.3658Y-86.5311
G1X73.7629Y-86.4686
G1X74.0607Y-86.5251
G1X74.4081Y-86.7268
G1X75.8365Y-88.1735
G1X76.1453Y-88.3840
G1X76.4431Y-88.4577
G1X76.9946Y-88.2991
G1X78.1604Y-87.1124
G1X78.5277Y-86.8630
G1X78.8255Y-86.7640
G1X79.0985Y-86.8014
G1X79.3591Y-86.9459
G1X80.3145Y-87.8302
G1X80.7116Y-88.1003
G1X81.0094Y-88.1963
G1X81.5057Y-88.0507
G1X82.4984Y-87.2796
G1X83.0940Y-87.0123
G1X83.7888Y-87.2116
G1X84.4837Y-87.6871
G1X84.9800Y-87.9225
G1X85.3771Y-87.9653
G1X85.8734Y-87.8339
G1 Z0F20000
(Start Block)

G1X19.1663Y-85.9707
G1Z6F20000
(Plotting speed under)
G1 F8000

G1X19.6626Y-85.8671
G1X20.0597Y-85.9076
G1X21.7472Y-86.6824
G1X22.4420Y-86.8219
G1X23.0377Y-86.7704
G1X24.8245Y-86.2276
G1X25.8833Y-86.0701
G1X26.9256Y-86.1051
G1X29.8209Y-86.4261
G1X31.7897Y-86.4926
G1X33.8743Y-86.4168
G1X37.5802Y-86.0646
G1X38.6225Y-86.1707
G1X40.5086Y-86.7188
G1X41.2862Y-86.8261
G1X42.0969Y-86.6934
G1X43.6851Y-85.9871
G1X44.3800Y-85.8661
G1X44.9756Y-85.9951
G1X46.4646Y-86.8698
G1X47.1595Y-87.0470
G1X47.8295Y-86.8520
G1X49.3433Y-85.7651
G1X49.9389Y-85.6181
G1X50.5221Y-85.8007
G1X51.9987Y-87.0339
G1X52.3461Y-87.2366
G1X52.7184Y-87.3195
G1X53.1155Y-87.2572
G1X53.4753Y-87.0717
G1X55.2125Y-85.5481
G1X55.5971Y-85.3738
G1X55.9942Y-85.3167
G1X56.3912Y-85.4050
G1X56.8627Y-85.6531
G1X58.7736Y-87.2238
G1X59.2700Y-87.4806
G1X59.7663Y-87.6181
G1X60.2626Y-87.6423
G1X60.8582Y-87.5450
G1X63.6377Y-86.5669
G1X64.5642Y-86.3792
G1X65.3749Y-86.3231
G1X66.1855Y-86.3710
G1X67.0128Y-86.5268
G1X69.6930Y-87.4958
G1X70.5863Y-87.6458
G1X71.1820Y-87.5545
G1X71.6783Y-87.3266
G1X72.2077Y-86.9437
G1X73.7133Y-85.5774
G1X74.0607Y-85.3877
G1X74.4578Y-85.3218
G1X74.7556Y-85.3762
G1X75.1030Y-85.5765
G1X76.5314Y-87.0258
G1X77.0387Y-87.2983
G1X77.3365Y-87.3003
G1X77.6895Y-87.1514
G1X78.8553Y-85.9618
G1X79.2226Y-85.7141
G1X79.5204Y-85.6173
G1X79.7933Y-85.6568
G1X80.0539Y-85.8037
G1X81.0094Y-86.6901
G1X81.6050Y-87.0346
G1X81.9028Y-87.0286
G1X82.2006Y-86.9001
G1X83.1932Y-86.1288
G1X83.7888Y-85.8654
G1X84.3844Y-86.0187
G1X85.2778Y-86.5936
G1X85.8734Y-86.8195
G1 Z0F20000
(Start Block)

G1X19.1663Y-84.7251
G1Z6F20000
(Plotting speed under)
G1 F8000

G1X19.8611Y-84.8305
G1X21.1516Y-85.5060
G1X21.9457Y-85.6794
G1X22.6406Y-85.5671
G1X24.2289Y-85.0241
G1X25.0726Y-84.9185
G1X25.8172Y-84.9669
G1X28.7786Y-85.4181
G1X31.9055Y-85.4986
G1X35.1482Y-85.4196
G1X38.2751Y-84.9613
G1X39.2016Y-84.9238
G1X40.0123Y-85.0469
G1X41.6005Y-85.5620
G1X42.3285Y-85.6767
G1X42.9903Y-85.5858
G1X44.6778Y-84.8202
G1X45.3396Y-84.7213
G1X46.0675Y-84.9432
G1X47.4573Y-85.7898
G1X47.9536Y-85.8983
G1X48.5244Y-85.7749
G1X50.0382Y-84.6773
G1X50.3360Y-84.5278
G1X50.7331Y-84.4740
G1X51.3907Y-84.7128
G1X52.9541Y-86.0136
G1X53.5125Y-86.1721
G1X53.9096Y-86.0987
G1X54.2570Y-85.9015
G1X55.9073Y-84.4339
G1X56.2920Y-84.2440
G1X56.6890Y-84.1690
G1X57.0861Y-84.2401
G1X57.5576Y-84.4707
G1X59.6670Y-86.1507
G1X60.2626Y-86.4088
G1X60.8582Y-86.4987
G1X61.8509Y-86.3536
G1X64.5311Y-85.4744
G1X66.0697Y-85.2945
G1X66.8804Y-85.3466
G1X67.8069Y-85.5284
G1X70.4871Y-86.4266
G1X71.0496Y-86.4990
G1X71.4798Y-86.4652
G1X72.3235Y-86.1233
G1X74.1476Y-84.5342
G1X74.5818Y-84.2629
G1X74.9541Y-84.1759
G1X75.2519Y-84.2076
G1X75.6241Y-84.3805
G1X77.1007Y-85.8588
G1X77.6343Y-86.1585
G1X77.9321Y-86.1494
G1X78.3071Y-85.9871
G1X79.5424Y-84.7302
G1X80.1160Y-84.4770
G1X80.5751Y-84.6036
G1X81.7042Y-85.6311
G1X82.2998Y-85.8999
G1X82.7962Y-85.7542
G1X83.7888Y-84.9735
G1X84.3844Y-84.7225
G1X84.8808Y-84.8235
G1X85.8734Y-85.4486
G1 Z0F20000
(Start Block)

G1X19.1663Y-83.5973
G1Z6F20000
(Plotting speed under)
G1 F8000

G1X20.6553Y-84.3582
G1X21.3501Y-84.5321
G1X22.0450Y-84.4176
G1X23.4347Y-83.8860
G1X24.2620Y-83.7713
G1X24.9238Y-83.8317
G1X27.0083Y-84.2619
G1X28.4312Y-84.3550
G1X32.0213Y-84.2679
G1X36.4221Y-84.3431
G1X37.6299Y-84.2221
G1X39.7145Y-83.8112
G1X40.4755Y-83.7765
G1X41.2035Y-83.8941
G1X42.6924Y-84.4147
G1X43.3873Y-84.5326
G1X44.1814Y-84.3882
G1X45.4719Y-83.7441
G1X46.2660Y-83.5701
G1X47.0478Y-83.8142
G1X48.2638Y-84.6025
G1X48.9462Y-84.7544
G1X49.3433Y-84.6504
G1X49.7404Y-84.4258
G1X50.9564Y-83.4862
G1X51.6265Y-83.3292
G1X51.9118Y-83.3928
G1X52.2593Y-83.5919
G1X53.7359Y-84.8428
G1X54.1081Y-84.9964
G1X54.4059Y-85.0251
G1X54.7782Y-84.9347
G1X55.2125Y-84.6593
G1X56.6890Y-83.3251
G1X57.1854Y-83.0772
G1X57.5824Y-83.0252
G1X57.9795Y-83.1078
G1X58.4262Y-83.3351
G1X59.9896Y-84.6122
G1X60.5977Y-85.0129
G1X61.2553Y-85.2740
G1X61.9005Y-85.3522
G1X62.8436Y-85.2227
G1X65.3252Y-84.5380
G1X66.6488Y-84.3992
G1X68.2040Y-84.5604
G1X70.8842Y-85.3022
G1X71.8603Y-85.3140
G1X72.7578Y-84.9470
G1X74.6012Y-83.3643
G1X75.3512Y-83.0277
G1X75.7482Y-83.0757
G1X76.1453Y-83.2786
G1X77.4655Y-84.6332
G1X77.9321Y-84.9515
G1X78.2299Y-85.0314
G1X78.5277Y-84.9688
G1X78.9248Y-84.7276
G1X80.0057Y-83.6127
G1X80.5130Y-83.3428
G1X81.0866Y-83.4610
G1X82.2447Y-84.5252
G1X82.7962Y-84.7425
G1X83.2677Y-84.6363
G1X84.3100Y-83.8101
G1X84.6822Y-83.6276
G1X85.2778Y-83.6213
G1X85.8734Y-83.9576
G1 Z0F20000
(Start Block)

G1X19.1663Y-82.6198
G1Z6F20000
(Plotting speed under)
G1 F8000

G1X20.1589Y-83.2091
G1X20.7545Y-83.3798
G1X21.3501Y-83.3067
G1X22.6406Y-82.7686
G1X23.3355Y-82.6282
G1X24.0303Y-82.6794
G1X25.7179Y-83.0966
G1X26.6940Y-83.2047
G1X30.4000Y-82.9486
G1X32.2529Y-82.8992
G1X34.3375Y-82.9557
G1X37.8119Y-83.2087
G1X38.9203Y-83.1276
G1X40.7071Y-82.7228
G1X41.5178Y-82.6256
G1X42.2954Y-82.7193
G1X43.8837Y-83.2906
G1X44.5289Y-83.3826
G1X45.1741Y-83.2592
G1X46.7624Y-82.4910
G1X47.2587Y-82.4297
G1X47.8543Y-82.5869
G1X49.2440Y-83.4654
G1X49.8396Y-83.6092
G1X50.5221Y-83.3743
G1X51.8250Y-82.3621
G1X52.2221Y-82.2037
G1X52.5198Y-82.1767
G1X52.8176Y-82.2556
G1X53.2919Y-82.5348
G1X54.6044Y-83.6783
G1X55.0015Y-83.8488
G1X55.2993Y-83.8837
G1X55.6964Y-83.7751
G1X56.0714Y-83.5559
G1X57.7313Y-82.1083
G1X58.0788Y-81.9419
G1X58.4758Y-81.8796
G1X58.8729Y-81.9366
G1X59.2700Y-82.1154
G1X61.3794Y-83.6991
G1X61.9502Y-83.9887
G1X62.5458Y-84.1592
G1X63.6377Y-84.1717
G1X66.0201Y-83.7130
G1X67.3436Y-83.6048
G1X68.5017Y-83.6878
G1X70.5863Y-84.1097
G1X71.5128Y-84.2050
G1X72.1746Y-84.1234
G1X72.8447Y-83.8572
G1X73.4430Y-83.4558
G1X74.8424Y-82.2525
G1X75.2767Y-81.9861
G1X75.6490Y-81.8870
G1X76.0460Y-81.9203
G1X76.4059Y-82.0945
G1X77.9983Y-83.6401
G1X78.5277Y-83.8696
G1X78.8255Y-83.8486
G1X79.0985Y-83.7229
G1X80.2450Y-82.5752
G1X80.9101Y-82.1838
G1X81.2079Y-82.2059
G1X81.5057Y-82.3569
G1X82.6597Y-83.3798
G1X83.1932Y-83.6080
G1X83.7888Y-83.4118
G1X84.4837Y-82.8405
G1X85.0917Y-82.4679
G1X85.4764Y-82.4392
G1X85.8734Y-82.5575
G1 Z0F20000
(Start Block)

G1X19.1663Y-81.7612
G1Z6F20000
(Plotting speed under)
G1 F8000

G1X19.7743Y-82.1214
G1X20.3575Y-82.2328
G1X20.8538Y-82.1353
G1X22.0450Y-81.6076
G1X22.7399Y-81.4778
G1X23.4347Y-81.5694
G1X24.8245Y-81.9659
G1X25.5359Y-82.0574
G1X26.3466Y-82.0309
G1X29.2418Y-81.6868
G1X32.7162Y-81.6322
G1X35.8431Y-81.6927
G1X39.5490Y-82.0604
G1X40.4093Y-81.9762
G1X41.9976Y-81.5736
G1X42.7917Y-81.4778
G1X43.4866Y-81.5746
G1X44.8763Y-82.1072
G1X45.5712Y-82.2397
G1X46.2660Y-82.1055
G1X47.5565Y-81.4281
G1X48.2514Y-81.2777
G1X48.6485Y-81.3587
G1X49.0455Y-81.5457
G1X50.2367Y-82.3346
G1X50.8323Y-82.4563
G1X51.3907Y-82.2790
G1X52.8176Y-81.2014
G1X53.4132Y-81.0320
G1X53.9964Y-81.2141
G1X55.3986Y-82.4115
G1X55.7957Y-82.6484
G1X56.1927Y-82.7346
G1X56.5898Y-82.6651
G1X56.9496Y-82.4797
G1X58.6868Y-80.9984
G1X59.1707Y-80.7823
G1X59.5678Y-80.7298
G1X60.3371Y-80.9519
G1X62.5458Y-82.5024
G1X63.1414Y-82.7935
G1X63.7370Y-82.9723
G1X64.9116Y-83.0538
G1X68.0385Y-82.8273
G1X71.1654Y-83.0605
G1X72.0753Y-82.9634
G1X72.8447Y-82.6795
G1X73.5395Y-82.2396
G1X75.0162Y-81.0586
G1X75.7482Y-80.7457
G1X76.1453Y-80.7560
G1X76.6416Y-80.9912
G1X78.1527Y-82.4482
G1X78.5277Y-82.6645
G1X78.8255Y-82.7368
G1X79.0985Y-82.6911
G1X79.4459Y-82.4911
G1X80.6619Y-81.3026
G1X81.1086Y-81.0542
G1X81.4064Y-81.0514
G1X81.7814Y-81.1938
G1X82.9395Y-82.2482
G1X83.4910Y-82.4509
G1X83.9625Y-82.3390
G1X85.1785Y-81.4150
G1X85.5756Y-81.2937
G1X85.8734Y-81.2981
G1 Z0F20000
(Start Block)

G1X19.1663Y-80.9148
G1Z6F20000
(Plotting speed under)
G1 F8000

G1X19.6626Y-81.0778
G1X20.0597Y-81.0645
G1X21.3501Y-80.4945
G1X22.0450Y-80.3324
G1X22.7399Y-80.4277
G1X24.0303Y-80.8327
G1X24.8410Y-80.9153
G1X27.3062Y-80.5576
G1X28.6628Y-80.4856
G1X32.6004Y-80.5752
G1X37.2328Y-80.4940
G1X41.0546Y-80.9122
G1X41.8983Y-80.8028
G1X43.3873Y-80.3953
G1X44.0656Y-80.3331
G1X44.8763Y-80.4970
G1X46.1668Y-81.0169
G1X46.7293Y-81.0896
G1X47.2587Y-80.9874
G1X48.6485Y-80.2710
G1X49.2440Y-80.1346
G1X49.8272Y-80.2662
G1X51.1301Y-81.1265
G1X51.8250Y-81.3179
G1X52.5198Y-81.0583
G1X53.8227Y-80.0442
G1X54.4059Y-79.8849
G1X54.7037Y-79.9291
G1X55.1008Y-80.1374
G1X56.6022Y-81.3894
G1X57.2847Y-81.5901
G1X57.6817Y-81.5043
G1X58.1560Y-81.2372
G1X59.3913Y-80.1523
G1X59.9028Y-79.8049
G1X60.3619Y-79.6250
G1X60.7590Y-79.5853
G1X61.6400Y-79.8413
G1X63.8362Y-81.2477
G1X65.1267Y-81.7431
G1X66.5330Y-81.9064
G1X70.2389Y-81.9114
G1X71.4798Y-81.8125
G1X72.4724Y-81.5250
G1X73.3658Y-81.0363
G1X75.0534Y-79.8373
G1X75.7482Y-79.5942
G1X76.1453Y-79.6115
G1X76.6416Y-79.8321
G1X78.1527Y-81.2379
G1X78.6270Y-81.5248
G1X78.9248Y-81.5920
G1X79.2226Y-81.5339
G1X79.6196Y-81.3119
G1X80.7777Y-80.1680
G1X81.3072Y-79.9048
G1X81.6050Y-79.9052
G1X81.8779Y-80.0123
G1X83.0167Y-81.0295
G1X83.6896Y-81.3149
G1X84.1859Y-81.1583
G1X85.3771Y-80.2802
G1X85.8734Y-80.1294
G1 Z0F20000
(Start Block)

G1X19.1663Y-79.9381
G1Z6F20000
(Plotting speed under)
G1 F8000

G1X19.7619Y-79.8459
G1X20.8538Y-79.3181
G1X21.3667Y-79.1901
G1X21.9457Y-79.2474
G1X23.2362Y-79.6792
G1X23.9145Y-79.7671
G1X26.1149Y-79.4088
G1X27.1572Y-79.3391
G1X30.5158Y-79.5451
G1X32.8320Y-79.5905
G1X38.9700Y-79.3427
G1X42.2127Y-79.7672
G1X42.9903Y-79.7015
G1X44.5785Y-79.2569
G1X45.2237Y-79.1884
G1X45.8690Y-79.2965
G1X47.3580Y-79.8858
G1X47.8543Y-79.9416
G1X48.4499Y-79.8088
G1X49.7404Y-79.1097
G1X50.3360Y-78.9844
G1X51.0309Y-79.2036
G1X52.3213Y-80.0537
G1X52.8176Y-80.1647
G1X53.3884Y-80.0178
G1X54.7037Y-79.0121
G1X55.1008Y-78.7995
G1X55.3986Y-78.7374
G1X56.0810Y-78.9246
G1X57.5824Y-80.1574
G1X57.9795Y-80.3723
G1X58.3766Y-80.4411
G1X58.7736Y-80.3774
G1X59.2079Y-80.1548
G1X61.0568Y-78.7138
G1X61.5531Y-78.5011
G1X62.0494Y-78.4385
G1X62.4465Y-78.4832
G1X63.0421Y-78.6864
G1X65.0274Y-79.7869
G1X66.2186Y-80.2757
G1X67.5091Y-80.5451
G1X69.1966Y-80.6304
G1X70.6856Y-80.5262
G1X71.8768Y-80.2471
G1X72.8695Y-79.8091
G1X74.6687Y-78.7215
G1X75.4504Y-78.4512
G1X75.9468Y-78.4672
G1X76.4927Y-78.6919
G1X76.9946Y-79.0648
G1X78.1527Y-80.1465
G1X78.8255Y-80.4416
G1X79.2226Y-80.3784
G1X79.6196Y-80.1544
G1X80.7777Y-79.0362
G1X81.3072Y-78.7635
G1X81.6050Y-78.7500
G1X81.8779Y-78.8427
G1X83.0940Y-79.8882
G1X83.4910Y-80.1100
G1X83.7888Y-80.1723
G1X84.2852Y-80.0000
G1X85.2778Y-79.2491
G1X85.8734Y-78.9886
G1 Z0F20000
(Start Block)

G1X19.1663Y-78.7363
G1Z6F20000
(Plotting speed under)
G1 F8000

G1X20.3575Y-78.1416
G1X20.7876Y-78.0475
G1X21.3501Y-78.1028
G1X22.5413Y-78.5331
G1X23.2197Y-78.6202
G1X25.2216Y-78.2492
G1X25.8833Y-78.1946
G1X29.5893Y-78.4746
G1X35.0324Y-78.4920
G1X37.1170Y-78.4469
G1X40.3597Y-78.1928
G1X41.2862Y-78.2539
G1X43.6024Y-78.6212
G1X44.2807Y-78.5530
G1X45.6705Y-78.1409
G1X46.3653Y-78.0397
G1X46.9609Y-78.1261
G1X48.2514Y-78.6701
G1X48.9462Y-78.7991
G1X49.6411Y-78.6183
G1X50.9316Y-77.9225
G1X51.4279Y-77.8441
G1X51.9118Y-77.9503
G1X53.2147Y-78.8104
G1X53.9096Y-79.0259
G1X54.3066Y-78.9393
G1X54.6913Y-78.7422
G1X55.9073Y-77.7916
G1X56.5898Y-77.5889
G1X56.9868Y-77.6758
G1X57.3839Y-77.8929
G1X58.7736Y-79.0279
G1X59.1707Y-79.2217
G1X59.5678Y-79.2984
G1X60.3371Y-79.0860
G1X62.1611Y-77.7320
G1X62.7443Y-77.4370
G1X63.2406Y-77.3109
G1X63.8362Y-77.3076
G1X64.4318Y-77.4384
G1X66.6157Y-78.3340
G1X67.6084Y-78.6531
G1X68.6176Y-78.8407
G1X69.5440Y-78.8927
G1X70.4705Y-78.8312
G1X71.4798Y-78.6252
G1X72.3732Y-78.3157
G1X74.3585Y-77.4431
G1X75.2188Y-77.2904
G1X75.6490Y-77.3520
G1X76.1453Y-77.5543
G1X77.9693Y-79.0301
G1X78.3292Y-79.2185
G1X78.7262Y-79.2955
G1X79.0116Y-79.2524
G1X79.3591Y-79.0744
G1X80.7488Y-77.8320
G1X81.2079Y-77.6155
G1X81.6050Y-77.6226
G1X81.8779Y-77.7366
G1X83.0167Y-78.7237
G1X83.6896Y-79.0215
G1X84.1859Y-78.8949
G1X85.2778Y-78.0941
G1X85.8734Y-77.8416
G1 Z0F20000
(Start Block)

G1X19.1663Y-77.3387
G1Z6F20000
(Plotting speed under)
G1 F8000

G1X19.8611Y-76.9756
G1X20.3575Y-76.8994
G1X20.7545Y-76.9544
G1X21.9457Y-77.3999
G1X22.5413Y-77.4734
G1X24.9568Y-77.0476
G1X28.1995Y-77.3402
G1X33.1794Y-77.2511
G1X37.8119Y-77.3455
G1X39.2016Y-77.2966
G1X41.8652Y-77.0460
G1X42.6759Y-77.1037
G1X44.8763Y-77.4758
G1X45.5712Y-77.3966
G1X46.8616Y-76.9910
G1X47.5565Y-76.8921
G1X48.1521Y-76.9934
G1X49.5419Y-77.5751
G1X50.0382Y-77.6478
G1X50.5345Y-77.5676
G1X51.8250Y-76.8676
G1X52.5198Y-76.6901
G1X53.2147Y-76.9041
G1X54.5176Y-77.7646
G1X55.1008Y-77.8712
G1X55.6964Y-77.6636
G1X57.1233Y-76.6151
G1X57.7810Y-76.4470
G1X58.1656Y-76.5216
G1X58.5131Y-76.7064
G1X60.1634Y-77.9543
G1X60.5604Y-78.1066
G1X60.9575Y-78.1515
G1X61.8137Y-77.8790
G1X63.9355Y-76.4760
G1X64.9282Y-76.1710
G1X65.9208Y-76.1825
G1X68.5017Y-76.7349
G1X69.8915Y-76.8616
G1X71.1820Y-76.7611
G1X73.5644Y-76.2239
G1X74.4081Y-76.1448
G1X74.9541Y-76.2144
G1X75.5373Y-76.4239
G1X76.2322Y-76.8585
G1X77.4482Y-77.8162
G1X77.9321Y-78.0685
G1X78.3292Y-78.1498
G1X79.0116Y-77.9607
G1X80.3145Y-76.8341
G1X81.0094Y-76.4560
G1X81.3072Y-76.4601
G1X81.7042Y-76.6028
G1X83.0071Y-77.6837
G1X83.5903Y-77.8713
G1X84.1362Y-77.7057
G1X85.2778Y-76.8746
G1X85.8734Y-76.6899
G1 Z0F20000
(Start Block)

G1X19.1663Y-75.8996
G1Z6F20000
(Plotting speed under)
G1 F8000

G1X19.5633Y-75.7753
G1X19.9604Y-75.7567
G1X21.2509Y-76.2280
G1X21.8465Y-76.3268
G1X24.1461Y-75.9005
G1X27.0414Y-76.1965
G1X33.4110Y-76.0164
G1X39.7807Y-76.1990
G1X43.2550Y-75.8997
G1X44.0656Y-75.9633
G1X45.4719Y-76.2660
G1X46.1502Y-76.3289
G1X46.7624Y-76.2537
G1X48.1521Y-75.8170
G1X48.6981Y-75.7493
G1X49.2440Y-75.8245
G1X50.4352Y-76.3391
G1X51.1301Y-76.5067
G1X51.8250Y-76.3567
G1X53.1155Y-75.6458
G1X53.7111Y-75.5513
G1X54.3066Y-75.7422
G1X55.6964Y-76.6250
G1X56.1927Y-76.7281
G1X56.8627Y-76.5274
G1X58.3766Y-75.4509
G1X58.9722Y-75.2970
G1X59.3692Y-75.3623
G1X59.7291Y-75.5233
G1X61.4662Y-76.7741
G1X61.9502Y-76.9578
G1X62.3472Y-77.0062
G1X63.1414Y-76.8251
G1X65.4245Y-75.5104
G1X66.6157Y-75.1073
G1X67.8069Y-74.9974
G1X70.3547Y-75.0593
G1X72.7868Y-74.9984
G1X73.7629Y-75.0833
G1X74.5570Y-75.3080
G1X75.3512Y-75.7078
G1X76.9394Y-76.7451
G1X77.4358Y-76.9539
G1X77.8328Y-77.0022
G1X78.2299Y-76.9414
G1X78.5773Y-76.7811
G1X80.1408Y-75.5290
G1X80.7116Y-75.3079
G1X81.0094Y-75.3116
G1X81.3072Y-75.4213
G1X82.7465Y-76.5336
G1X83.2925Y-76.7247
G1X83.8757Y-76.5816
G1X85.1785Y-75.6602
G1X85.8734Y-75.5659
G1 Z0F20000
(Start Block)

G1X19.1663Y-74.6019
G1Z6F20000
(Plotting speed under)
G1 F8000

G1X19.5633Y-74.6471
G1X20.5560Y-75.0392
G1X21.2509Y-75.1826
G1X23.4513Y-74.7533
G1X26.2308Y-75.0526
G1X30.5158Y-74.8592
G1X37.5802Y-74.8677
G1X41.5178Y-75.0514
G1X44.7605Y-74.7555
G1X45.5712Y-74.8542
G1X46.8616Y-75.1452
G1X47.4242Y-75.1795
G1X47.9536Y-75.1097
G1X49.2440Y-74.6962
G1X49.8396Y-74.6006
G1X50.4352Y-74.6880
G1X51.7257Y-75.2525
G1X52.3213Y-75.3572
G1X52.9169Y-75.2239
G1X54.3066Y-74.4880
G1X54.8030Y-74.4020
G1X55.4730Y-74.5920
G1X56.6890Y-75.3923
G1X57.3839Y-75.5863
G1X58.1656Y-75.3319
G1X59.5678Y-74.3441
G1X60.2626Y-74.1482
G1X61.0319Y-74.3493
G1X62.9428Y-75.6178
G1X63.4392Y-75.7989
G1X63.9851Y-75.8575
G1X65.0274Y-75.6152
G1X67.0128Y-74.6862
G1X68.1047Y-74.3168
G1X69.4282Y-74.0888
G1X70.9338Y-74.0363
G1X72.1746Y-74.1292
G1X73.2666Y-74.3572
G1X74.2592Y-74.7285
G1X76.0460Y-75.6255
G1X76.6416Y-75.8184
G1X77.0387Y-75.8572
G1X77.5350Y-75.7862
G1X77.9321Y-75.6168
G1X79.5328Y-74.4294
G1X80.2152Y-74.1553
G1X80.6123Y-74.1879
G1X81.0094Y-74.3532
G1X82.3122Y-75.3694
G1X82.8954Y-75.5777
G1X83.1932Y-75.5610
G1X83.4910Y-75.4416
G1X84.9800Y-74.4689
G1X85.3771Y-74.4021
G1X85.8734Y-74.5189
G1 Z0F20000
(Start Block)

G1X19.1663Y-73.5291
G1Z6F20000
(Plotting speed under)
G1 F8000

G1X20.1589Y-73.9385
G1X20.6553Y-74.0349
G1X22.7564Y-73.6078
G1X25.3043Y-73.9050
G1X28.4312Y-73.7150
G1X33.7585Y-73.7815
G1X38.9700Y-73.7128
G1X42.7917Y-73.9054
G1X45.9186Y-73.6078
G1X46.5639Y-73.6625
G1X48.4665Y-74.0337
G1X49.1448Y-73.9636
G1X50.3360Y-73.5630
G1X51.0309Y-73.4526
G1X51.6265Y-73.5600
G1X52.9169Y-74.1169
G1X53.4132Y-74.2088
G1X54.0088Y-74.1080
G1X55.2993Y-73.4079
G1X55.9942Y-73.2512
G1X56.6890Y-73.4630
G1X57.9919Y-74.2900
G1X58.6744Y-74.4367
G1X59.4685Y-74.1640
G1X60.8582Y-73.2213
G1X61.6524Y-73.0014
G1X62.0494Y-73.0503
G1X62.5458Y-73.2348
G1X64.6304Y-74.4751
G1X65.2260Y-74.6586
G1X65.8381Y-74.7133
G1X66.7150Y-74.6017
G1X69.3952Y-73.9045
G1X70.9338Y-73.7611
G1X72.5717Y-73.9288
G1X75.3512Y-74.6663
G1X76.2446Y-74.6899
G1X77.1380Y-74.4023
G1X78.8379Y-73.2705
G1X79.6196Y-73.0036
G1X80.0167Y-73.0464
G1X80.4014Y-73.1944
G1X81.7042Y-74.1580
G1X82.3991Y-74.4354
G1X83.0940Y-74.2729
G1X84.2231Y-73.4901
G1X84.6822Y-73.2926
G1X85.2778Y-73.2955
G1X85.8734Y-73.5821
G1 Z0F20000
(Start Block)

G1X19.1663Y-72.6086
G1Z6F20000
(Plotting speed under)
G1 F8000

G1X19.7619Y-72.8410
G1X20.0928Y-72.8831
G1X20.5560Y-72.8420
G1X21.6479Y-72.5272
G1X22.1774Y-72.4623
G1X24.4936Y-72.7572
G1X27.3889Y-72.5674
G1X33.9901Y-72.6736
G1X40.7071Y-72.5662
G1X44.2973Y-72.7587
G1X47.1925Y-72.4620
G1X49.7404Y-72.8893
G1X50.4352Y-72.7829
G1X51.7257Y-72.3538
G1X52.1724Y-72.3103
G1X52.7184Y-72.3923
G1X53.9096Y-72.9146
G1X54.6044Y-73.0676
G1X55.2993Y-72.9072
G1X56.5898Y-72.2138
G1X57.1854Y-72.1083
G1X57.8802Y-72.3095
G1X59.2700Y-73.1485
G1X59.9648Y-73.2884
G1X60.3619Y-73.2166
G1X60.7590Y-73.0380
G1X62.3472Y-72.0483
G1X63.1745Y-71.8556
G1X64.0348Y-72.0435
G1X66.5164Y-73.2880
G1X67.3106Y-73.4904
G1X68.2701Y-73.5658
G1X71.0496Y-73.4544
G1X73.9449Y-73.5670
G1X74.9541Y-73.4941
G1X75.9468Y-73.2065
G1X78.0314Y-72.0616
G1X78.8255Y-71.8551
G1X79.2226Y-71.8964
G1X79.7065Y-72.0757
G1X81.0094Y-72.9793
G1X81.7042Y-73.2768
G1X82.1013Y-73.2687
G1X82.4860Y-73.1497
G1X83.7020Y-72.3411
G1X84.3844Y-72.1081
G1X84.9800Y-72.2220
G1X85.8734Y-72.7263
G1 Z0F20000
(Start Block)

G1X19.1663Y-71.6746
G1Z6F20000
(Plotting speed under)
G1 F8000

G1X19.8611Y-71.7248
G1X21.1516Y-71.3621
G1X21.5983Y-71.3179
G1X23.9145Y-71.6116
G1X26.4624Y-71.4211
G1X30.1683Y-71.5263
G1X37.2328Y-71.5301
G1X42.3285Y-71.4199
G1X45.5712Y-71.6127
G1X48.3506Y-71.3133
G1X50.8985Y-71.7404
G1X51.4279Y-71.6722
G1X52.7184Y-71.2496
G1X53.3140Y-71.1607
G1X54.0088Y-71.2924
G1X55.2001Y-71.8211
G1X55.7957Y-71.9175
G1X56.3912Y-71.7894
G1X57.8802Y-71.0397
G1X58.3766Y-70.9623
G1X59.0714Y-71.1317
G1X60.6597Y-72.0327
G1X61.2553Y-72.1431
G1X62.0494Y-71.9463
G1X63.9355Y-70.8861
G1X64.4484Y-70.7401
G1X64.9116Y-70.7102
G1X65.8216Y-70.8857
G1X67.8069Y-71.6892
G1X68.8988Y-72.0141
G1X70.1231Y-72.2047
G1X71.6286Y-72.2598
G1X72.9688Y-72.1760
G1X74.0607Y-71.9770
G1X75.0534Y-71.6567
G1X76.8402Y-70.9006
G1X77.4358Y-70.7399
G1X77.8825Y-70.7104
G1X78.3292Y-70.7712
G1X78.8255Y-70.9572
G1X80.2276Y-71.8405
G1X81.0094Y-72.1357
G1X81.4064Y-72.1219
G1X81.8035Y-72.0039
G1X83.0940Y-71.1938
G1X83.7888Y-70.9606
G1X84.4837Y-71.0967
G1X85.8734Y-71.8377
G1 Z0F20000
(Start Block)

G1X19.1663Y-70.5953
G1Z6F20000
(Plotting speed under)
G1 F8000

G1X20.5560Y-70.2279
G1X21.1351Y-70.1697
G1X23.2197Y-70.4647
G1X25.7675Y-70.2738
G1X29.0102Y-70.3819
G1X39.5490Y-70.3835
G1X43.7182Y-70.2735
G1X46.8451Y-70.4660
G1X49.5088Y-70.1681
G1X51.9408Y-70.5946
G1X52.5198Y-70.5360
G1X53.8103Y-70.1069
G1X54.5052Y-70.0147
G1X55.2001Y-70.1700
G1X56.4905Y-70.7118
G1X56.9868Y-70.7689
G1X57.5824Y-70.6461
G1X58.7736Y-70.0288
G1X59.5678Y-69.8127
G1X60.3619Y-69.9857
G1X62.0494Y-70.8917
G1X62.7112Y-70.9971
G1X63.1414Y-70.9385
G1X63.6377Y-70.7592
G1X65.5238Y-69.7936
G1X66.4172Y-69.5798
G1X67.4098Y-69.6046
G1X70.0900Y-70.1405
G1X71.6286Y-70.2622
G1X73.0680Y-70.1537
G1X75.4504Y-69.6588
G1X76.3769Y-69.5623
G1X76.9394Y-69.6069
G1X77.5350Y-69.7664
G1X79.4211Y-70.7683
G1X80.1160Y-70.9855
G1X80.5130Y-70.9866
G1X81.0094Y-70.8531
G1X82.3991Y-70.0377
G1X83.0940Y-69.8155
G1X83.8881Y-69.9695
G1X85.1785Y-70.6571
G1X85.8734Y-70.7710
G1 Z0F20000
(Start Block)

G1X19.1663Y-69.3559
G1Z6F20000
(Plotting speed under)
G1 F8000

G1X19.8611Y-69.1278
G1X20.5560Y-69.0201
G1X22.7564Y-69.3196
G1X25.1885Y-69.1274
G1X28.3154Y-69.2371
G1X41.5178Y-69.2363
G1X45.1079Y-69.1275
G1X48.0032Y-69.3184
G1X50.5511Y-69.0214
G1X51.2294Y-69.0779
G1X52.4206Y-69.3723
G1X53.0989Y-69.4495
G1X53.7111Y-69.3663
G1X55.0015Y-68.9442
G1X55.5309Y-68.8701
G1X56.0934Y-68.9394
G1X57.3839Y-69.4770
G1X58.1780Y-69.6259
G1X58.8729Y-69.4657
G1X60.2626Y-68.7854
G1X60.9575Y-68.6657
G1X61.6524Y-68.8239
G1X63.4392Y-69.7248
G1X64.2333Y-69.8521
G1X65.1267Y-69.6730
G1X67.1120Y-68.8137
G1X68.3032Y-68.5060
G1X69.4282Y-68.4169
G1X73.9449Y-68.4143
G1X75.0534Y-68.4709
G1X75.9468Y-68.6425
G1X76.8402Y-68.9618
G1X78.3292Y-69.6435
G1X79.1564Y-69.8458
G1X80.0167Y-69.7239
G1X81.6050Y-68.8794
G1X82.3991Y-68.6649
G1X83.0940Y-68.7968
G1X84.2852Y-69.4172
G1X84.7815Y-69.5858
G1X85.2778Y-69.6203
G1X85.8734Y-69.4648
G1 Z0F20000
(Start Block)

G1X19.1663Y-68.0434
G1Z6F20000
(Plotting speed under)
G1 F8000

G1X19.9770Y-67.8762
G1X22.1774Y-68.1720
G1X24.4936Y-67.9811
G1X27.3889Y-68.0901
G1X36.4221Y-68.0390
G1X42.6759Y-68.0906
G1X46.2660Y-67.9803
G1X49.0455Y-68.1732
G1X51.7092Y-67.8741
G1X54.1412Y-68.3003
G1X54.7037Y-68.2464
G1X55.9942Y-67.8277
G1X56.6890Y-67.7194
G1X57.3839Y-67.8419
G1X58.6744Y-68.3756
G1X59.3692Y-68.4795
G1X60.1634Y-68.2878
G1X61.5531Y-67.6344
G1X62.2480Y-67.5177
G1X63.0421Y-67.6818
G1X64.9282Y-68.5548
G1X65.8381Y-68.7071
G1X66.8142Y-68.5802
G1X68.8988Y-67.9434
G1X69.8915Y-67.7174
G1X71.0496Y-67.5748
G1X72.2077Y-67.5422
G1X74.2592Y-67.7447
G1X77.1380Y-68.5790
G1X78.1141Y-68.7069
G1X79.0240Y-68.5400
G1X80.7116Y-67.7222
G1X81.4064Y-67.5303
G1X82.2006Y-67.6244
G1X83.6896Y-68.3331
G1X84.2852Y-68.4739
G1X84.9800Y-68.3868
G1X85.8734Y-68.0172
G1 Z0F20000
(Start Block)

G1X19.1663Y-66.7656
G1Z6F20000
(Plotting speed under)
G1 F8000

G1X19.8611Y-66.7436
G1X21.5983Y-67.0234
G1X24.0303Y-66.8336
G1X26.8098Y-66.9440
G1X31.0948Y-66.8924
G1X44.1814Y-66.9435
G1X47.3083Y-66.8339
G1X50.0878Y-67.0255
G1X52.7515Y-66.7293
G1X55.2993Y-67.1561
G1X55.9942Y-67.0457
G1X57.2847Y-66.6300
G1X57.8472Y-66.5765
G1X58.4758Y-66.6869
G1X59.9648Y-67.2606
G1X60.5108Y-67.3316
G1X61.2553Y-67.1944
G1X62.8436Y-66.4985
G1X63.6377Y-66.3713
G1X64.5311Y-66.5444
G1X66.5164Y-67.3550
G1X67.4594Y-67.5400
G1X68.5017Y-67.5350
G1X70.9338Y-67.2355
G1X72.2077Y-67.1754
G1X76.4927Y-67.5596
G1X77.7336Y-67.3730
G1X79.6196Y-66.5884
G1X80.4303Y-66.3826
G1X81.3072Y-66.4781
G1X82.8954Y-67.1867
G1X83.5903Y-67.3315
G1X84.2852Y-67.2287
G1X85.8734Y-66.6265
G1 Z0F20000
(Start Block)

G1X19.1663Y-65.5811
G1Z6F20000
(Plotting speed under)
G1 F8000

G1X21.2509Y-65.8798
G1X23.4513Y-65.6871
G1X26.2308Y-65.7975
G1X30.0525Y-65.7459
G1X45.3396Y-65.7969
G1X48.3506Y-65.6870
G1X51.1301Y-65.8801
G1X53.7938Y-65.5817
G1X56.2258Y-66.0074
G1X56.8876Y-65.9389
G1X58.1780Y-65.5350
G1X58.8729Y-65.4275
G1X59.5678Y-65.5261
G1X60.8582Y-66.0257
G1X61.6689Y-66.1867
G1X62.4465Y-66.0723
G1X64.2333Y-65.3514
G1X65.1432Y-65.2252
G1X65.9208Y-65.3362
G1X68.0054Y-66.0280
G1X69.1966Y-66.2894
G1X70.5863Y-66.3993
G1X73.0184Y-66.4134
G1X74.6398Y-66.3750
G1X75.8475Y-66.2275
G1X76.8402Y-65.9737
G1X78.6270Y-65.3610
G1X79.3880Y-65.2295
G1X80.3145Y-65.3335
G1X82.1013Y-66.0610
G1X82.7465Y-66.1832
G1X83.4910Y-66.0880
G1X85.0793Y-65.4982
G1X85.8734Y-65.4374
G1 Z0F20000
(Start Block)

G1X19.1663Y-64.4831
G1Z6F20000
(Plotting speed under)
G1 F8000

G1X20.6718Y-64.7323
G1X22.9880Y-64.5418
G1X25.6517Y-64.6507
G1X42.0969Y-64.5994
G1X46.1502Y-64.6509
G1X49.2771Y-64.5411
G1X52.0566Y-64.7323
G1X54.7203Y-64.4350
G1X57.2681Y-64.8635
G1X58.0788Y-64.7537
G1X59.3692Y-64.3538
G1X60.0476Y-64.2815
G1X60.8582Y-64.4323
G1X62.2480Y-64.9420
G1X62.9428Y-65.0419
G1X63.7370Y-64.9264
G1X65.5238Y-64.2626
G1X66.5330Y-64.0825
G1X67.6084Y-64.1600
G1X70.5863Y-64.7736
G1X72.5551Y-64.9042
G1X74.4578Y-64.7663
G1X77.3365Y-64.1643
G1X78.2299Y-64.0780
G1X79.2226Y-64.2038
G1X81.0094Y-64.8650
G1X81.9359Y-65.0397
G1X82.6969Y-64.9349
G1X84.4837Y-64.3215
G1X85.1785Y-64.2925
G1X85.8734Y-64.4421
G1 Z0F20000
(Start Block)

G1X19.1663Y-63.4265
G1Z6F20000
(Plotting speed under)
G1 F8000

G1X20.3244Y-63.5845
G1X22.6406Y-63.3939
G1X25.3043Y-63.5041
G1X28.7786Y-63.4529
G1X47.3083Y-63.5037
G1X50.3194Y-63.3944
G1X52.9831Y-63.5864
G1X55.6467Y-63.2894
G1X58.3104Y-63.7151
G1X58.9722Y-63.6356
G1X60.4612Y-63.2030
G1X61.0899Y-63.1354
G1X61.8509Y-63.2484
G1X63.5384Y-63.8148
G1X64.2168Y-63.8947
G1X65.0274Y-63.7945
G1X67.0128Y-63.1583
G1X68.1543Y-62.9560
G1X69.1966Y-62.9413
G1X72.6709Y-63.1502
G1X76.4927Y-62.9316
G1X77.9321Y-63.0788
G1X80.1160Y-63.7653
G1X80.8108Y-63.8869
G1X81.7042Y-63.8173
G1X83.3918Y-63.2526
G1X84.0204Y-63.1409
G1X84.7815Y-63.1979
G1X85.8734Y-63.5170
G1 Z0F20000
(Start Block)

G1X19.1663Y-62.3654
G1Z6F20000
(Plotting speed under)
G1 F8000

G1X20.0928Y-62.4374
G1X22.1774Y-62.2486
G1X24.8410Y-62.3577
G1X28.3154Y-62.3063
G1X48.0032Y-62.3577
G1X51.0143Y-62.2474
G1X53.9096Y-62.4400
G1X56.5732Y-62.1417
G1X59.2369Y-62.5694
G1X59.8656Y-62.5049
G1X61.4538Y-62.0633
G1X62.1322Y-61.9873
G1X63.0421Y-62.1197
G1X64.7296Y-62.6527
G1X65.6065Y-62.7480
G1X66.5164Y-62.6425
G1X68.5017Y-62.1231
G1X69.5937Y-61.9229
G1X70.9338Y-61.8150
G1X73.0184Y-61.7898
G1X74.7556Y-61.8210
G1X76.0295Y-61.9327
G1X78.9248Y-62.6186
G1X79.7355Y-62.7402
G1X80.8108Y-62.6543
G1X82.4984Y-62.1267
G1X83.3256Y-61.9901
G1X84.0866Y-62.0590
G1X85.8734Y-62.5308
G1 Z0F20000
(Start Block)

G1X19.1663Y-61.2738
G1Z6F20000
(Plotting speed under)
G1 F8000

G1X19.8611Y-61.2851
G1X21.9457Y-61.1009
G1X24.6094Y-61.2111
G1X44.9921Y-61.1598
G1X48.6981Y-61.2112
G1X51.8250Y-61.1009
G1X54.6044Y-61.2940
G1X57.3839Y-60.9945
G1X60.1634Y-61.4243
G1X60.8582Y-61.3517
G1X62.3472Y-60.9473
G1X63.1745Y-60.8416
G1X63.9355Y-60.9197
G1X65.7223Y-61.4338
G1X66.7646Y-61.5949
G1X67.9062Y-61.5401
G1X71.0496Y-61.0292
G1X72.9026Y-60.9337
G1X74.8548Y-61.0413
G1X77.8328Y-61.5312
G1X78.8090Y-61.6023
G1X79.8182Y-61.4950
G1X81.7042Y-60.9602
G1X82.6307Y-60.8414
G1X83.3918Y-60.9237
G1X85.0793Y-61.3637
G1X85.8734Y-61.4220
G1 Z0F20000
(Start Block)

G1X19.1663Y-60.1471
G1Z6F20000
(Plotting speed under)
G1 F8000

G1X21.5983Y-59.9554
G1X24.2620Y-60.0644
G1X45.6870Y-60.0133
G1X49.3929Y-60.0647
G1X52.5198Y-59.9544
G1X55.4151Y-60.1466
G1X58.0788Y-59.8483
G1X58.7736Y-59.8923
G1X60.3619Y-60.2170
G1X61.0899Y-60.2761
G1X61.8509Y-60.1892
G1X63.5384Y-59.7605
G1X64.3326Y-59.6943
G1X65.2260Y-59.8037
G1X67.2113Y-60.3083
G1X68.2701Y-60.4425
G1X73.0184Y-60.2266
G1X77.3034Y-60.4558
G1X78.6270Y-60.3434
G1X80.9101Y-59.7860
G1X81.8200Y-59.6942
G1X82.5976Y-59.7722
G1X84.5995Y-60.2448
G1X85.8734Y-60.2072
G1 Z0F20000
(Start Block)

G1X19.1663Y-58.9937
G1Z6F20000
(Plotting speed under)
G1 F8000

G1X21.3667Y-58.8078
G1X24.1461Y-58.9183
G1X27.6205Y-58.8667
G1X50.0878Y-58.9176
G1X53.0989Y-58.8078
G1X55.9942Y-59.0010
G1X58.8895Y-58.7019
G1X61.9005Y-59.1299
G1X62.7443Y-59.0402
G1X64.5311Y-58.6175
G1X65.3749Y-58.5481
G1X66.4172Y-58.6572
G1X68.8988Y-59.1695
G1X70.7022Y-59.3033
G1X76.4927Y-59.2582
G1X77.7336Y-59.1025
G1X80.0167Y-58.6235
G1X80.7777Y-58.5494
G1X81.8035Y-58.6274
G1X84.1362Y-59.1181
G1X84.9469Y-59.1027
G1X85.8734Y-58.9420
G1 Z0F20000
(Start Block)

G1X19.1663Y-57.8256
G1Z6F20000
(Plotting speed under)
G1 F8000

G1X21.1351Y-57.6618
G1X24.0303Y-57.7717
G1X27.6205Y-57.7202
G1X50.3194Y-57.7718
G1X53.5621Y-57.6617
G1X56.5732Y-57.8544
G1X59.5843Y-57.5555
G1X62.7112Y-57.9837
G1X63.6377Y-57.8871
G1X65.5238Y-57.4715
G1X66.4172Y-57.4007
G1X67.4098Y-57.4690
G1X70.5863Y-57.9592
G1X73.2500Y-58.0739
G1X75.7979Y-57.9562
G1X79.7355Y-57.4050
G1X80.8936Y-57.4719
G1X82.8954Y-57.9001
G1X83.6730Y-57.9824
G1X84.5830Y-57.9268
G1X85.8734Y-57.6804
G1 Z0F20000
(Start Block)

G1X19.1663Y-56.6526
G1Z6F20000
(Plotting speed under)
G1 F8000

G1X20.9034Y-56.5155
G1X23.9145Y-56.6250
G1X46.7293Y-56.5737
G1X50.6669Y-56.6250
G1X54.0254Y-56.5151
G1X57.1523Y-56.7070
G1X60.1634Y-56.4083
G1X60.9575Y-56.4680
G1X62.7443Y-56.7935
G1X63.5219Y-56.8370
G1X67.2278Y-56.2625
G1X68.5017Y-56.2952
G1X71.6286Y-56.6181
G1X73.2500Y-56.6726
G1X74.9872Y-56.6075
G1X78.9248Y-56.2541
G1X80.0167Y-56.3297
G1X82.2006Y-56.7551
G1X83.2098Y-56.8379
G1X83.9874Y-56.7799
G1X85.8734Y-56.4532
G1 Z0F20000
(Start Block)

G1X19.1663Y-55.4810
G1Z6F20000
(Plotting speed under)
G1 F8000

G1X20.7876Y-55.3684
G1X23.9145Y-55.4785
G1X27.7363Y-55.4271
G1X51.0143Y-55.4783
G1X54.3728Y-55.3687
G1X57.4997Y-55.5610
G1X60.7424Y-55.2625
G1X61.6524Y-55.3418
G1X63.4392Y-55.6521
G1X64.2168Y-55.6906
G1X65.1267Y-55.6115
G1X67.3106Y-55.2135
G1X68.3859Y-55.1173
G1X73.2500Y-55.2772
G1X77.7667Y-55.1081
G1X79.1233Y-55.1938
G1X81.5057Y-55.6117
G1X82.5149Y-55.6914
G1X83.3918Y-55.6340
G1X85.8734Y-55.2678
G1 Z0F20000
(Start Block)

G1X19.1663Y-54.3134
G1Z6F20000
(Plotting speed under)
G1 F8000

G1X20.6718Y-54.2216
G1X23.7987Y-54.3317
G1X46.6135Y-54.2806
G1X51.0143Y-54.3319
G1X54.4886Y-54.2217
G1X57.8472Y-54.4141
G1X61.0899Y-54.1159
G1X64.7958Y-54.5446
G1X65.7223Y-54.4819
G1X68.0054Y-54.1124
G1X69.3124Y-53.9884
G1X76.1453Y-53.9611
G1X77.9983Y-54.0435
G1X80.8108Y-54.4694
G1X81.9359Y-54.5447
G1X82.8623Y-54.4813
G1X84.9469Y-54.1563
G1X85.8734Y-54.1168
G1 Z0F20000
(Start Block)

G1X19.1663Y-53.1507
G1Z6F20000
(Plotting speed under)
G1 F8000

G1X20.5560Y-53.0752
G1X23.9145Y-53.1854
G1X46.1502Y-53.1341
G1X50.7827Y-53.1855
G1X54.4886Y-53.0752
G1X57.9630Y-53.2683
G1X61.4373Y-52.9688
G1X62.3472Y-53.0267
G1X64.4484Y-53.3495
G1X65.3749Y-53.3982
G1X66.4172Y-53.3324
G1X69.8915Y-52.8931
G1X73.9449Y-52.8191
G1X76.8402Y-52.9080
G1X80.1160Y-53.3278
G1X81.2410Y-53.3983
G1X82.3991Y-53.3236
G1X84.5995Y-53.0009
G1X85.8734Y-52.9878
G1 Z0F20000
(Start Block)

G1X19.1663Y-51.9922
G1Z6F20000
(Plotting speed under)
G1 F8000

G1X20.5560Y-51.9287
G1X24.0303Y-52.0390
G1X45.4554Y-51.9876
G1X50.4352Y-52.0390
G1X54.3728Y-51.9287
G1X58.0788Y-52.1214
G1X61.6689Y-51.8224
G1X62.7112Y-51.8915
G1X64.7958Y-52.1962
G1X65.8381Y-52.2521
G1X70.4705Y-51.8084
G1X73.4816Y-51.7278
G1X76.1453Y-51.8225
G1X79.5038Y-52.1943
G1X80.6619Y-52.2518
G1X81.8035Y-52.1841
G1X84.2521Y-51.8489
G1X85.8734Y-51.8693
G1 Z0F20000
(Start Block)

G1X19.1663Y-50.8373
G1Z6F20000
(Plotting speed under)
G1 F8000

G1X20.5560Y-50.7823
G1X24.1461Y-50.8923
G1X44.2973Y-50.8411
G1X49.8562Y-50.8924
G1X54.1412Y-50.7826
G1X57.9630Y-50.9750
G1X61.7847Y-50.6761
G1X62.9428Y-50.7524
G1X65.1432Y-51.0532
G1X66.3013Y-51.1052
G1X70.8180Y-50.7387
G1X73.2500Y-50.6707
G1X75.4504Y-50.7410
G1X80.0829Y-51.1054
G1X81.2410Y-51.0421
G1X84.0204Y-50.6928
G1X85.8734Y-50.7533
G1 Z0F20000
(Start Block)

G1X19.1663Y-49.6850
G1Z6F20000
(Plotting speed under)
G1 F8000

G1X20.5560Y-49.6358
G1X24.3778Y-49.7458
G1X42.7917Y-49.6945
G1X48.9297Y-49.7460
G1X53.5621Y-49.6358
G1X57.6155Y-49.8285
G1X61.7847Y-49.5297
G1X66.1855Y-49.9548
G1X73.0184Y-49.6147
G1X74.9872Y-49.6680
G1X79.5038Y-49.9590
G1X80.7777Y-49.8927
G1X83.7888Y-49.5403
G1X85.8734Y-49.6350
G1 Z0F20000
(Start Block)

G1X19.1663Y-48.5343
G1Z6F20000
(Plotting speed under)
G1 F8000

G1X20.7876Y-48.4911
G1X24.7252Y-48.5994
G1X40.4755Y-48.5480
G1X47.7716Y-48.5994
G1X52.7515Y-48.4893
G1X57.1523Y-48.6821
G1X61.5531Y-48.3827
G1X66.3013Y-48.8083
G1X72.7868Y-48.5428
G1X78.9248Y-48.8125
G1X80.3145Y-48.7474
G1X83.5572Y-48.3910
G1X85.8734Y-48.5122
G1 Z0F20000
(Start Block)

G1X19.1663Y-47.3846
G1Z6F20000
(Plotting speed under)
G1 F8000

G1X20.7876Y-47.3441
G1X24.9568Y-47.4527
G1X36.1905Y-47.4015
G1X46.2660Y-47.4529
G1X51.7092Y-47.3428
G1X56.4574Y-47.5355
G1X61.2057Y-47.2367
G1X65.1432Y-47.6052
G1X66.6488Y-47.6660
G1X72.5551Y-47.4496
G1X78.8090Y-47.6611
G1X83.5572Y-47.2376
G1X85.8734Y-47.3846
G1 Z0F20000
(Start Block)

G1X19.1663Y-46.2351
G1Z6F20000
(Plotting speed under)
G1 F8000

G1X20.7876Y-46.1972
G1X25.3043Y-46.3061
G1X44.4131Y-46.3063
G1X50.3194Y-46.1964
G1X55.4151Y-46.3890
G1X60.5108Y-46.0898
G1X61.9005Y-46.1566
G1X64.9116Y-46.4670
G1X66.4172Y-46.5195
G1X72.2077Y-46.3354
G1X78.4615Y-46.5128
G1X83.3256Y-46.0913
G1X85.8734Y-46.2524
G1 Z0F20000
(Start Block)

G1X19.1663Y-45.0854
G1Z6F20000
(Plotting speed under)
G1 F8000

G1X20.9034Y-45.0516
G1X25.6517Y-45.1593
G1X42.0969Y-45.1599
G1X48.5823Y-45.0500
G1X54.0254Y-45.2425
G1X59.5843Y-44.9432
G1X61.0899Y-45.0106
G1X64.2168Y-45.3136
G1X65.9539Y-45.3730
G1X71.8603Y-45.2023
G1X78.1141Y-45.3665
G1X83.2098Y-44.9437
G1X85.8734Y-45.1164
G1 Z0F20000
(Start Block)

G1X19.1663Y-43.9349
G1Z6F20000
(Plotting speed under)
G1 F8000

G1X26.1149Y-44.0126
G1X39.6648Y-44.0132
G1X46.6135Y-43.9038
G1X52.2882Y-44.0959
G1X58.3104Y-43.7969
G1X59.9318Y-43.8655
G1X63.4061Y-44.1738
G1X65.1432Y-44.2265
G1X71.2812Y-44.0516
G1X77.8825Y-44.2189
G1X82.9781Y-43.7981
G1X85.8734Y-43.9775
G1 Z0F20000
(Start Block)

G1X19.1663Y-42.7835
G1Z6F20000
(Plotting speed under)
G1 F8000

G1X36.7696Y-42.8667
G1X44.4131Y-42.7574
G1X50.2036Y-42.9492
G1X56.5732Y-42.6507
G1X62.0164Y-43.0235
G1X63.8693Y-43.0799
G1X70.7022Y-42.8824
G1X77.6509Y-43.0732
G1X82.8623Y-42.6514
G1X85.8734Y-42.8365
G1 Z0F20000
(Start Block)

G1X19.1663Y-41.6313
G1Z6F20000
(Plotting speed under)
G1 F8000

G1X33.5269Y-41.7198
G1X42.0969Y-41.6105
G1X47.8874Y-41.8027
G1X54.2570Y-41.5040
G1X60.0476Y-41.8728
G1X62.1322Y-41.9333
G1X70.0073Y-41.6921
G1X77.4192Y-41.9288
G1X82.7465Y-41.5049
G1X85.8734Y-41.6942
G1 Z0F20000
(Start Block)

G1X19.1663Y-40.4787
G1Z6F20000
(Plotting speed under)
G1 F8000

G1X30.4000Y-40.5703
G1X40.0123Y-40.4645
G1X45.5712Y-40.6563
G1X51.7092Y-40.3581
G1X57.3839Y-40.7239
G1X59.5843Y-40.7867
G1X68.3859Y-40.4802
G1X71.3970Y-40.5212
G1X76.7244Y-40.7863
G1X78.4615Y-40.7271
G1X82.3991Y-40.3633
G1X83.7888Y-40.3836
G1X85.8734Y-40.5515
G1 Z0F20000

G00 X0.0000 Y0.0000

