$H
G21
G17
G90
G1 Z0F20000
G1 F15000
(Start Layer)
(Start Block)

G1X52.5437Y-73.9356
G1Z5.5F20000
(Plotting speed under)
G1 F8000

G1X52.6221Y-73.9092
G1X52.2756Y-74.2111
G1X51.9055Y-74.3314
G1X52.1035Y-74.0416
G1X52.7211Y-73.5514
G1X53.3162Y-73.2368
G1X53.6636Y-73.1944
G1X53.6042Y-73.3915
G1X53.3402Y-73.6600
G1X52.0087Y-74.6723
G1X51.1528Y-75.1496
G1X50.8236Y-75.2186
G1X50.7286Y-75.1473
G1X50.8121Y-74.8645
G1X51.2689Y-74.3154
G1X52.6841Y-73.1968
G1X54.0353Y-72.5343
G1X54.5046Y-72.4371
G1X54.7895Y-72.5172
G1X54.7176Y-72.7848
G1X54.2913Y-73.2036
G1X51.3882Y-75.3359
G1X50.1407Y-76.0195
G1X49.6879Y-76.1049
G1X49.5112Y-75.9878
G1X49.6185Y-75.5122
G1X50.2665Y-74.6778
G1X51.2704Y-73.7715
G1X52.5418Y-72.8611
G1X53.5519Y-72.2990
G1X54.5529Y-71.9102
G1X55.4612Y-71.7593
G1X55.9030Y-71.9140
G1X55.8946Y-72.1541
G1X55.7972Y-72.3043
G1X55.3425Y-72.7231
G1X50.4898Y-76.1638
G1X49.0969Y-76.9048
G1X48.5751Y-77.0044
G1X48.2778Y-76.8613
G1X48.2310Y-76.5948
G1X48.3998Y-76.1038
G1X49.2449Y-74.9770
G1X50.6228Y-73.7254
G1X52.3568Y-72.5035
G1X53.7042Y-71.7764
G1X55.0938Y-71.2851
G1X56.3654Y-71.1362
G1X56.7742Y-71.2152
G1X57.0050Y-71.3773
G1X57.0544Y-71.5247
G1X56.9688Y-71.7901
G1X56.5157Y-72.2358
G1X53.2941Y-74.2667
G1X49.3915Y-77.1171
G1X48.5484Y-77.5901
G1X47.8310Y-77.8602
G1X47.2310Y-77.8763
G1X46.9800Y-77.6709
G1X46.9311Y-77.2850
G1X47.1534Y-76.6350
G1X47.6188Y-75.9032
G1X48.2925Y-75.1121
G1X50.0795Y-73.5249
G1X52.3013Y-72.0169
G1X54.1157Y-71.1200
G1X55.8596Y-70.6247
G1X56.6220Y-70.5417
G1X57.3510Y-70.5742
G1X57.8990Y-70.7428
G1X58.1493Y-70.9887
G1X58.1816Y-71.1925
G1X58.1044Y-71.4163
G1X57.6271Y-71.8925
G1X53.3134Y-74.3429
G1X49.6470Y-77.1486
G1X48.3642Y-78.0291
G1X47.4155Y-78.5355
G1X46.6781Y-78.7804
G1X46.0966Y-78.7983
G1X45.7175Y-78.5778
G1X45.6102Y-78.3536
G1X45.5862Y-78.0274
G1X45.7834Y-77.3084
G1X46.3182Y-76.3778
G1X47.0626Y-75.4533
G1X48.0167Y-74.5009
G1X49.1333Y-73.5623
G1X50.4583Y-72.6023
G1X51.9365Y-71.6672
G1X53.0720Y-71.0550
G1X54.1124Y-70.6070
G1X55.1294Y-70.2772
G1X56.2211Y-70.0483
G1X57.2751Y-69.9661
G1X58.2023Y-70.0431
G1X58.8889Y-70.2679
G1X59.2457Y-70.5798
G1X59.3199Y-70.8297
G1X59.2363Y-71.1460
G1X58.7355Y-71.6461
G1X57.8207Y-72.1567
G1X54.8600Y-73.5277
G1X53.2936Y-74.4197
G1X52.0162Y-75.3300
G1X48.7938Y-77.9499
G1X47.2560Y-78.9977
G1X46.2551Y-79.4928
G1X45.4875Y-79.7089
G1X44.7982Y-79.6829
G1X44.3532Y-79.3635
G1X44.2086Y-78.7597
G1X44.4380Y-77.8177
G1X45.0653Y-76.6898
G1X45.9546Y-75.5719
G1X47.1046Y-74.4293
G1X48.4005Y-73.3576
G1X49.9552Y-72.2595
G1X51.7037Y-71.1921
G1X53.0464Y-70.4946
G1X54.2860Y-69.9985
G1X55.4914Y-69.6556
G1X56.7475Y-69.4498
G1X58.0373Y-69.4161
G1X59.1240Y-69.5706
G1X59.9364Y-69.8835
G1X60.1960Y-70.0732
G1X60.4081Y-70.3575
G1X60.4625Y-70.6702
G1X60.3562Y-70.9964
G1X59.8473Y-71.4893
G1X58.7921Y-72.0286
G1X55.1265Y-73.5045
G1X53.1565Y-74.5545
G1X51.7365Y-75.5650
G1X47.9582Y-78.7535
G1X46.2786Y-79.8990
G1X45.1638Y-80.4252
G1X44.2568Y-80.6405
G1X43.5492Y-80.5816
G1X43.2531Y-80.4399
G1X43.0125Y-80.2040
G1X42.8595Y-79.8827
G1X42.8030Y-79.4483
G1X42.8723Y-78.8841
G1X43.0697Y-78.2642
G1X43.7443Y-77.0070
G1X44.8058Y-75.6466
G1X46.1267Y-74.3344
G1X47.7109Y-73.0475
G1X49.5834Y-71.7722
G1X51.7002Y-70.5415
G1X53.1718Y-69.8347
G1X54.6181Y-69.3204
G1X56.0162Y-68.9986
G1X57.4496Y-68.8514
G1X58.7973Y-68.8985
G1X60.0781Y-69.1553
G1X61.0221Y-69.5822
G1X61.3657Y-69.8735
G1X61.5555Y-70.1672
G1X61.6149Y-70.5427
G1X61.5041Y-70.8921
G1X61.2184Y-71.2292
G1X60.6820Y-71.5821
G1X59.6322Y-72.0292
G1X55.3176Y-73.5379
G1X53.8217Y-74.2315
G1X52.5674Y-74.9679
G1X51.2282Y-75.9830
G1X47.3314Y-79.4107
G1X46.2457Y-80.2236
G1X45.2344Y-80.8491
G1X44.0322Y-81.3758
G1X42.9840Y-81.5696
G1X42.5441Y-81.5398
G1X42.1278Y-81.4123
G1X41.6247Y-80.9924
G1X41.4455Y-80.6092
G1X41.3729Y-80.0794
G1X41.4481Y-79.4095
G1X41.6543Y-78.7228
G1X42.3958Y-77.2804
G1X43.6112Y-75.6885
G1X45.1174Y-74.1878
G1X46.9047Y-72.7529
G1X49.0037Y-71.3565
G1X51.3946Y-70.0096
G1X53.1657Y-69.1985
G1X54.7161Y-68.6929
G1X56.3083Y-68.3796
G1X57.9280Y-68.2786
G1X59.5992Y-68.4205
G1X61.0617Y-68.8010
G1X62.1362Y-69.3614
G1X62.4818Y-69.6789
G1X62.7230Y-70.0800
G1X62.7726Y-70.5244
G1X62.6048Y-70.9566
G1X62.2857Y-71.2867
G1X61.7250Y-71.6230
G1X60.4524Y-72.1011
G1X57.2792Y-73.0120
G1X55.4841Y-73.6103
G1X53.8118Y-74.3194
G1X52.4213Y-75.0931
G1X50.8153Y-76.3077
G1X46.5199Y-80.2341
G1X45.3401Y-81.1203
G1X44.1912Y-81.8092
G1X42.8608Y-82.3398
G1X41.7240Y-82.4905
G1X40.8483Y-82.2960
G1X40.4806Y-82.0571
G1X40.1970Y-81.7261
G1X39.9995Y-81.2703
G1X39.9224Y-80.6537
G1X40.0004Y-79.9173
G1X40.2317Y-79.1102
G1X40.5950Y-78.2773
G1X41.1147Y-77.3691
G1X42.4271Y-75.6415
G1X44.0880Y-73.9837
G1X46.0732Y-72.4055
G1X48.3091Y-70.9480
G1X50.9625Y-69.4994
G1X52.8457Y-68.6463
G1X54.5969Y-68.0915
G1X56.4033Y-67.7705
G1X58.2224Y-67.7049
G1X60.2140Y-67.9392
G1X61.9118Y-68.4435
G1X63.1916Y-69.1538
G1X63.6357Y-69.5866
G1X63.8684Y-69.9828
G1X63.9463Y-70.4927
G1X63.7802Y-70.9912
G1X63.3570Y-71.4162
G1X62.7899Y-71.7282
G1X61.4697Y-72.1783
G1X57.6172Y-73.1357
G1X55.6430Y-73.7195
G1X53.8149Y-74.4262
G1X52.2091Y-75.2716
G1X50.5869Y-76.4779
G1X45.8222Y-80.9910
G1X44.5651Y-81.9488
G1X43.2665Y-82.7205
G1X41.8521Y-83.2630
G1X41.1314Y-83.3952
G1X40.5023Y-83.4086
G1X39.8916Y-83.3002
G1X39.4215Y-83.0973
G1X39.0697Y-82.8336
G1X38.7554Y-82.4349
G1X38.5316Y-81.8728
G1X38.4573Y-81.1443
G1X38.5491Y-80.3374
G1X38.8345Y-79.3517
G1X39.2492Y-78.4086
G1X39.8605Y-77.3463
G1X41.3806Y-75.3694
G1X43.2667Y-73.5265
G1X45.4722Y-71.8287
G1X48.0914Y-70.2041
G1X51.1731Y-68.6282
G1X53.0952Y-67.8502
G1X55.0505Y-67.3358
G1X57.0939Y-67.1055
G1X59.0725Y-67.1734
G1X61.1267Y-67.5546
G1X63.0098Y-68.2393
G1X63.7375Y-68.6370
G1X64.3536Y-69.0882
G1X64.7842Y-69.5444
G1X65.0651Y-70.0765
G1X65.1208Y-70.6026
G1X64.9435Y-71.1210
G1X64.5023Y-71.5652
G1X63.8289Y-71.9152
G1X62.4719Y-72.3297
G1X57.9731Y-73.2979
G1X55.8096Y-73.8682
G1X53.7115Y-74.6150
G1X51.9634Y-75.4906
G1X50.9599Y-76.1635
G1X49.9898Y-76.9937
G1X46.5322Y-80.4771
G1X45.0655Y-81.8217
G1X43.5875Y-82.9350
G1X42.2285Y-83.7012
G1X40.6782Y-84.2331
G1X39.9270Y-84.3359
G1X39.2834Y-84.3238
G1X38.6433Y-84.1923
G1X38.1422Y-83.9710
G1X37.6985Y-83.6369
G1X37.3309Y-83.1706
G1X37.0739Y-82.5221
G1X36.9833Y-81.7008
G1X37.0800Y-80.7729
G1X37.3815Y-79.6876
G1X37.8696Y-78.5511
G1X38.4757Y-77.4726
G1X39.2851Y-76.2992
G1X40.1876Y-75.1997
G1X42.2278Y-73.1933
G1X44.6602Y-71.3367
G1X47.4600Y-69.6413
G1X50.7995Y-67.9910
G1X53.1156Y-67.1082
G1X55.1531Y-66.6387
G1X57.3192Y-66.4673
G1X59.4906Y-66.6225
G1X61.8842Y-67.1716
G1X62.9803Y-67.5671
G1X64.0204Y-68.0519
G1X64.8998Y-68.5860
G1X65.5478Y-69.1156
G1X66.0218Y-69.6887
G1X66.2659Y-70.2487
G1X66.2791Y-70.9077
G1X66.0552Y-71.4052
G1X65.5700Y-71.8336
G1X64.9207Y-72.1441
G1X63.3733Y-72.5676
G1X58.4745Y-73.4782
G1X55.9933Y-74.0611
G1X53.5935Y-74.8450
G1X51.6604Y-75.7684
G1X50.6231Y-76.4570
G1X49.5748Y-77.3431
G1X45.9243Y-81.1730
G1X44.3618Y-82.6404
G1X42.8174Y-83.8074
G1X41.3210Y-84.6351
G1X40.4233Y-84.9785
G1X39.6034Y-85.1841
G1X38.7665Y-85.2733
G1X38.0398Y-85.2324
G1X37.3518Y-85.0638
G1X36.7871Y-84.7918
G1X36.3120Y-84.4144
G1X35.9329Y-83.9329
G1X35.6248Y-83.2001
G1X35.5069Y-82.3003
G1X35.5941Y-81.2621
G1X35.9115Y-80.0382
G1X36.4262Y-78.7849
G1X37.0706Y-77.5932
G1X37.8724Y-76.3830
G1X38.8685Y-75.1227
G1X39.8815Y-74.0240
G1X40.9862Y-72.9774
G1X42.2627Y-71.9195
G1X43.5672Y-70.9710
G1X46.5511Y-69.1669
G1X50.1165Y-67.4505
G1X52.7248Y-66.4538
G1X54.9680Y-65.9558
G1X57.3296Y-65.8114
G1X59.6718Y-66.0355
G1X61.0627Y-66.3333
G1X62.5171Y-66.7770
G1X63.7946Y-67.2876
G1X64.9823Y-67.8883
G1X65.9368Y-68.5042
G1X66.7192Y-69.1821
G1X67.2290Y-69.8549
G1X67.4580Y-70.4471
G1X67.4744Y-71.0725
G1X67.2437Y-71.6479
G1X66.7458Y-72.0983
G1X66.0340Y-72.4275
G1X64.3539Y-72.8480
G1X59.1685Y-73.6807
G1X56.0979Y-74.3231
G1X53.4847Y-75.1135
G1X51.3897Y-76.0626
G1X50.2116Y-76.8271
G1X49.2746Y-77.6218
G1X45.3008Y-81.9255
G1X43.7805Y-83.3862
G1X42.1543Y-84.6343
G1X40.4059Y-85.5880
G1X39.4273Y-85.9409
G1X38.5178Y-86.1426
G1X37.7110Y-86.2104
G1X36.8414Y-86.1442
G1X36.1151Y-85.9483
G1X35.4485Y-85.6103
G1X34.8903Y-85.1399
G1X34.5218Y-84.6509
G1X34.1629Y-83.8118
G1X34.0312Y-82.7191
G1X34.1367Y-81.5858
G1X34.4800Y-80.2608
G1X35.0179Y-78.9250
G1X35.7757Y-77.5029
G1X36.7392Y-76.0491
G1X37.8334Y-74.6739
G1X38.9578Y-73.4646
G1X40.2118Y-72.2964
G1X41.5584Y-71.2057
G1X43.0681Y-70.1430
G1X44.6084Y-69.1990
G1X46.3091Y-68.2836
G1X50.2804Y-66.5018
G1X52.8153Y-65.6265
G1X54.0781Y-65.3457
G1X55.2914Y-65.1813
G1X56.5972Y-65.1183
G1X57.8226Y-65.1614
G1X59.1238Y-65.3092
G1X60.4155Y-65.5605
G1X61.8854Y-65.9620
G1X63.3492Y-66.4864
G1X64.7746Y-67.1268
G1X66.1148Y-67.8763
G1X67.1172Y-68.5843
G1X67.8578Y-69.2701
G1X68.3939Y-70.0023
G1X68.6551Y-70.7182
G1X68.6514Y-71.4359
G1X68.3865Y-72.0119
G1X67.8996Y-72.4364
G1X67.1078Y-72.7850
G1X65.5271Y-73.1495
G1X59.6202Y-73.9838
G1X56.3255Y-74.6055
G1X53.4878Y-75.3937
G1X52.1997Y-75.8833
G1X51.0858Y-76.4189
G1X49.8013Y-77.2304
G1X48.7158Y-78.1897
G1X44.8664Y-82.5155
G1X43.1238Y-84.2288
G1X41.2944Y-85.6163
G1X39.4902Y-86.5585
G1X38.5399Y-86.8841
G1X37.5527Y-87.0912
G1X36.6307Y-87.1524
G1X35.7069Y-87.0657
G1X34.8971Y-86.8347
G1X34.1611Y-86.4501
G1X33.5838Y-85.9675
G1X33.0912Y-85.3221
G1X32.7068Y-84.3893
G1X32.5624Y-83.2725
G1X32.6677Y-81.9960
G1X33.0413Y-80.5071
G1X33.6604Y-78.9481
G1X34.4987Y-77.3630
G1X35.5585Y-75.7510
G1X36.7553Y-74.2366
G1X37.9362Y-72.9590
G1X39.2978Y-71.6864
G1X40.7043Y-70.5514
G1X42.2760Y-69.4547
G1X43.9325Y-68.4575
G1X45.6657Y-67.5533
G1X49.8704Y-65.7368
G1X52.7835Y-64.8046
G1X53.9585Y-64.5666
G1X55.1738Y-64.4307
G1X56.4738Y-64.3906
G1X57.8740Y-64.4745
G1X59.2661Y-64.6723
G1X60.7301Y-65.0028
G1X62.4607Y-65.5449
G1X64.0486Y-66.1797
G1X65.6129Y-66.9418
G1X67.0369Y-67.7840
G1X68.1962Y-68.6373
G1X68.9963Y-69.4082
G1X69.5687Y-70.2194
G1X69.8370Y-70.9643
G1X69.8580Y-71.6653
G1X69.5935Y-72.3532
G1X69.0644Y-72.8219
G1X68.3004Y-73.1550
G1X66.6442Y-73.5161
G1X60.1135Y-74.3285
G1X56.5901Y-74.9360
G1X53.1992Y-75.8242
G1X51.9011Y-76.3018
G1X50.6137Y-76.9069
G1X49.4216Y-77.6643
G1X48.2612Y-78.6658
G1X44.4104Y-83.1613
G1X42.5470Y-85.0411
G1X40.6647Y-86.4801
G1X39.6710Y-87.0545
G1X38.7119Y-87.4932
G1X37.6144Y-87.8528
G1X36.6048Y-88.0482
G1X35.5643Y-88.0998
G1X34.5589Y-87.9841
G1X33.6903Y-87.7205
G1X32.8808Y-87.2837
G1X32.2580Y-86.7557
G1X31.6954Y-86.0184
G1X31.2760Y-85.0050
G1X31.1052Y-83.8057
G1X31.2098Y-82.3898
G1X31.5825Y-80.8366
G1X32.1971Y-79.2102
G1X33.0824Y-77.4567
G1X34.1658Y-75.7345
G1X35.4440Y-74.0461
G1X36.7292Y-72.6044
G1X38.0500Y-71.3245
G1X39.5400Y-70.0793
G1X41.1175Y-68.9478
G1X42.8660Y-67.8757
G1X44.6979Y-66.9185
G1X46.5402Y-66.0859
G1X48.9300Y-65.1337
G1X52.3473Y-64.0346
G1X53.5392Y-63.7987
G1X54.8374Y-63.6587
G1X56.2643Y-63.6293
G1X57.6975Y-63.7362
G1X59.0363Y-63.9447
G1X60.6353Y-64.3265
G1X62.6348Y-64.9914
G1X64.4780Y-65.7747
G1X66.3152Y-66.7188
G1X67.9138Y-67.7036
G1X69.1560Y-68.6369
G1X70.1568Y-69.6212
G1X70.7520Y-70.5020
G1X71.0396Y-71.3817
G1X71.0194Y-72.2105
G1X70.7218Y-72.8465
G1X70.1621Y-73.3004
G1X69.3200Y-73.6278
G1X67.4566Y-73.9777
G1X60.8790Y-74.6874
G1X56.7980Y-75.3331
G1X54.9252Y-75.7402
G1X53.1315Y-76.2319
G1X51.6021Y-76.7710
G1X50.3428Y-77.3394
G1X49.0073Y-78.1604
G1X47.9349Y-79.0838
G1X46.7954Y-80.3578
G1X43.7381Y-84.1037
G1X41.9394Y-85.9231
G1X40.0034Y-87.3953
G1X38.9284Y-88.0061
G1X37.9054Y-88.4599
G1X36.7204Y-88.8295
G1X35.6207Y-89.0200
G1X34.5148Y-89.0534
G1X33.4707Y-88.9158
G1X32.4874Y-88.6015
G1X31.6110Y-88.1129
G1X30.9183Y-87.5106
G1X30.3415Y-86.7466
G1X29.8671Y-85.6607
G1X29.6664Y-84.3862
G1X29.7545Y-82.8485
G1X30.1405Y-81.1526
G1X30.8034Y-79.3411
G1X31.6987Y-77.5075
G1X32.8611Y-75.5934
G1X34.1717Y-73.7981
G1X35.4923Y-72.2574
G1X36.9209Y-70.8227
G1X38.4456Y-69.5086
G1X40.1073Y-68.2892
G1X41.7694Y-67.2513
G1X43.6839Y-66.2403
G1X45.7121Y-65.3377
G1X48.0172Y-64.4540
G1X51.6128Y-63.2925
G1X53.0068Y-63.0115
G1X54.4879Y-62.8454
G1X55.9203Y-62.8274
G1X57.5341Y-62.9651
G1X59.0521Y-63.2400
G1X60.6488Y-63.6606
G1X62.7844Y-64.4237
G1X64.9092Y-65.3836
G1X66.9985Y-66.5148
G1X68.8875Y-67.7297
G1X70.3486Y-68.8821
G1X71.3388Y-69.9117
G1X71.9506Y-70.8721
G1X72.2402Y-71.8775
G1X72.2145Y-72.6316
G1X71.9202Y-73.2940
G1X71.3894Y-73.7490
G1X70.4232Y-74.1245
G1X68.4626Y-74.4555
G1X60.8718Y-75.1937
G1X57.0444Y-75.7731
G1X54.9362Y-76.2099
G1X53.0986Y-76.6878
G1X51.4286Y-77.2422
G1X50.0338Y-77.8495
G1X48.5605Y-78.7326
G1X47.4016Y-79.7791
G1X46.5026Y-80.7864
G1X43.3907Y-84.7297
G1X41.4674Y-86.7236
G1X40.3563Y-87.6429
G1X39.2644Y-88.3888
G1X38.1186Y-89.0181
G1X37.0003Y-89.4832
G1X35.7526Y-89.8381
G1X34.4890Y-90.0135
G1X33.3473Y-90.0024
G1X32.2218Y-89.8097
G1X31.1517Y-89.4146
G1X30.2752Y-88.8795
G1X29.5275Y-88.1861
G1X28.8943Y-87.2838
G1X28.4061Y-86.0506
G1X28.2336Y-84.5936
G1X28.3689Y-82.9715
G1X28.8404Y-81.0489
G1X29.6441Y-78.9608
G1X30.6936Y-76.8890
G1X31.9831Y-74.8173
G1X33.5065Y-72.7786
G1X34.9858Y-71.1012
G1X36.5472Y-69.5883
G1X38.1986Y-68.2280
G1X39.9455Y-67.0144
G1X41.7319Y-65.9767
G1X43.6362Y-65.0492
G1X45.7913Y-64.1696
G1X48.5117Y-63.2305
G1X50.3795Y-62.6500
G1X51.9674Y-62.2802
G1X53.4509Y-62.0454
G1X54.8625Y-61.9692
G1X56.4602Y-62.0491
G1X57.9636Y-62.2657
G1X59.7346Y-62.6876
G1X61.3973Y-63.2359
G1X63.4551Y-64.0830
G1X65.7908Y-65.2489
G1X68.0645Y-66.5800
G1X70.1377Y-68.0049
G1X71.5570Y-69.1941
G1X72.5458Y-70.2815
G1X73.1693Y-71.3398
G1X73.4326Y-72.4163
G1X73.3695Y-73.2245
G1X73.0567Y-73.8666
G1X72.4710Y-74.3204
G1X71.6417Y-74.6291
G1X69.7293Y-74.9448
G1X61.4848Y-75.6645
G1X57.4242Y-76.2416
G1X54.9433Y-76.7307
G1X52.8954Y-77.2492
G1X51.1977Y-77.7952
G1X49.6566Y-78.4442
G1X48.2510Y-79.2778
G1X46.9340Y-80.4223
G1X43.0964Y-85.3372
G1X41.9394Y-86.6462
G1X40.9003Y-87.6530
G1X39.7789Y-88.5780
G1X38.5815Y-89.3813
G1X37.4090Y-90.0062
G1X36.2455Y-90.4749
G1X34.9502Y-90.8258
G1X33.6171Y-90.9981
G1X32.2788Y-90.9618
G1X31.0871Y-90.7285
G1X30.0326Y-90.3233
G1X29.0746Y-89.7326
G1X28.2306Y-88.9430
G1X27.5874Y-88.0338
G1X27.0494Y-86.7093
G1X26.8252Y-85.1575
G1X26.9401Y-83.4835
G1X27.3625Y-81.5870
G1X28.1351Y-79.4187
G1X29.1766Y-77.2192
G1X30.5204Y-74.9192
G1X32.0539Y-72.7324
G1X33.5515Y-70.9154
G1X35.1282Y-69.2755
G1X36.7465Y-67.8401
G1X38.5454Y-66.4964
G1X40.4230Y-65.3388
G1X42.3354Y-64.3682
G1X44.4112Y-63.5006
G1X47.0047Y-62.6126
G1X49.1515Y-61.9728
G1X51.5274Y-61.3900
G1X52.8037Y-61.1716
G1X54.1567Y-61.0834
G1X55.8898Y-61.1487
G1X57.4287Y-61.3679
G1X59.2206Y-61.7952
G1X61.0496Y-62.4117
G1X63.5186Y-63.4761
G1X66.2002Y-64.8878
G1X68.9226Y-66.5603
G1X71.2077Y-68.1964
G1X72.7169Y-69.5101
G1X73.7363Y-70.6829
G1X74.3660Y-71.8228
G1X74.5428Y-72.4183
G1X74.6169Y-73.0151
G1X74.5364Y-73.8269
G1X74.2096Y-74.4457
G1X73.5469Y-74.9328
G1X72.6054Y-75.2371
G1X70.3385Y-75.5417
G1X62.4932Y-76.1387
G1X58.0094Y-76.7290
G1X55.3661Y-77.2160
G1X52.9837Y-77.7812
G1X50.9684Y-78.4051
G1X49.4063Y-79.0390
G1X47.8926Y-79.9061
G1X46.7516Y-80.8646
G1X45.5290Y-82.3182
G1X42.4609Y-86.4116
G1X41.5113Y-87.4911
G1X40.3627Y-88.6085
G1X39.2645Y-89.5038
G1X38.0510Y-90.3182
G1X36.7772Y-90.9871
G1X35.5476Y-91.4719
G1X34.1595Y-91.8308
G1X32.7536Y-91.9953
G1X31.3270Y-91.9411
G1X30.0473Y-91.6752
G1X28.8387Y-91.1899
G1X27.8071Y-90.5227
G1X26.9950Y-89.7468
G1X26.2765Y-88.7315
G1X25.6942Y-87.3204
G1X25.4430Y-85.7823
G1X25.5335Y-84.0028
G1X25.9408Y-82.0271
G1X26.6972Y-79.7785
G1X27.7961Y-77.3471
G1X29.1740Y-74.8798
G1X30.7459Y-72.5239
G1X32.2984Y-70.5386
G1X33.9259Y-68.7509
G1X35.6440Y-67.1480
G1X37.3997Y-65.7716
G1X39.3493Y-64.5157
G1X41.2503Y-63.5236
G1X43.3237Y-62.6471
G1X45.8496Y-61.7961
G1X51.0723Y-60.4340
G1X52.4918Y-60.2277
G1X53.9277Y-60.1539
G1X55.5433Y-60.2259
G1X57.2449Y-60.4990
G1X58.9949Y-60.9487
G1X60.9738Y-61.6581
G1X63.7670Y-62.9487
G1X66.5980Y-64.5308
G1X69.7158Y-66.5326
G1X72.2422Y-68.3997
G1X73.8411Y-69.8296
G1X74.9494Y-71.1588
G1X75.5690Y-72.3786
G1X75.7293Y-72.9865
G1X75.7946Y-73.6461
G1X75.6878Y-74.4591
G1X75.3527Y-75.0727
G1X74.8046Y-75.4845
G1X73.8130Y-75.8269
G1X71.7939Y-76.0996
G1X63.4626Y-76.6655
G1X58.2557Y-77.3208
G1X55.5479Y-77.8079
G1X52.9870Y-78.3947
G1X50.7402Y-79.0669
G1X49.0606Y-79.7425
G1X47.4927Y-80.6250
G1X46.2560Y-81.7299
G1X45.3217Y-82.8244
G1X42.0868Y-87.2465
G1X41.0183Y-88.4570
G1X39.9394Y-89.5118
G1X38.6814Y-90.5255
G1X37.5003Y-91.3030
G1X36.2021Y-91.9748
G1X34.8593Y-92.4899
G1X33.3841Y-92.8535
G1X31.8866Y-93.0063
G1X30.3919Y-92.9308
G1X29.0612Y-92.6416
G1X27.8249Y-92.1434
G1X26.7148Y-91.4388
G1X25.7721Y-90.5441
G1X25.0080Y-89.4648
G1X24.3694Y-87.9816
G1X24.0917Y-86.3706
G1X24.1541Y-84.4812
G1X24.5491Y-82.4521
G1X25.3287Y-80.0302
G1X26.4869Y-77.3776
G1X27.8949Y-74.7640
G1X29.5234Y-72.2156
G1X31.1587Y-70.0275
G1X32.8208Y-68.1132
G1X34.5897Y-66.3810
G1X36.4097Y-64.8909
G1X38.2669Y-63.6410
G1X40.2433Y-62.5744
G1X42.2893Y-61.6979
G1X44.7841Y-60.8692
G1X50.1429Y-59.5406
G1X51.9722Y-59.2766
G1X53.5928Y-59.1756
G1X55.2285Y-59.2670
G1X57.0442Y-59.5866
G1X58.7109Y-60.0483
G1X60.6137Y-60.7577
G1X63.5368Y-62.1619
G1X66.6713Y-63.9839
G1X70.3059Y-66.3947
G1X73.2842Y-68.6492
G1X74.9977Y-70.2250
G1X76.0982Y-71.5892
G1X76.7348Y-72.8886
G1X76.9054Y-73.6098
G1X76.9572Y-74.3118
G1X76.8222Y-75.1747
G1X76.4720Y-75.7478
G1X75.7922Y-76.2014
G1X74.9604Y-76.4569
G1X73.0440Y-76.7088
G1X64.4119Y-77.2400
G1X58.8188Y-77.9082
G1X55.6061Y-78.4726
G1X52.9411Y-79.0764
G1X50.7179Y-79.7191
G1X48.7994Y-80.4584
G1X47.2436Y-81.3250
G1X45.8227Y-82.5426
G1X45.1248Y-83.4003
G1X41.9124Y-87.8984
G1X40.6585Y-89.3496
G1X39.5792Y-90.4061
G1X38.2302Y-91.4976
G1X36.9478Y-92.3252
G1X35.5838Y-93.0151
G1X34.1354Y-93.5446
G1X32.5333Y-93.9076
G1X30.8683Y-94.0329
G1X29.3304Y-93.9084
G1X27.9253Y-93.5639
G1X26.5987Y-92.9822
G1X25.4825Y-92.2326
G1X24.4591Y-91.2149
G1X23.7078Y-90.1078
G1X23.3064Y-89.2762
G1X23.0327Y-88.4746
G1X22.7509Y-86.7067
G1X22.8090Y-84.8630
G1X23.2299Y-82.6887
G1X23.9912Y-80.2674
G1X25.1914Y-77.4259
G1X26.6976Y-74.5379
G1X28.3632Y-71.8317
G1X30.0268Y-69.5036
G1X31.7649Y-67.4047
G1X33.5888Y-65.5301
G1X35.4464Y-63.9401
G1X37.3522Y-62.6062
G1X39.3127Y-61.5174
G1X41.3828Y-60.6225
G1X43.8093Y-59.8303
G1X48.9399Y-58.6657
G1X51.5620Y-58.2554
G1X53.1648Y-58.1470
G1X54.8928Y-58.2667
G1X56.7770Y-58.6153
G1X58.4521Y-59.1176
G1X60.4333Y-59.8969
G1X63.4064Y-61.4016
G1X66.8129Y-63.4759
G1X71.2035Y-66.5023
G1X74.4512Y-69.0335
G1X76.2112Y-70.7111
G1X77.3415Y-72.2037
G1X77.7170Y-72.9510
G1X77.9557Y-73.6567
G1X78.0891Y-74.3625
G1X78.1130Y-75.1054
G1X77.9225Y-75.9600
G1X77.5221Y-76.5088
G1X76.8852Y-76.8911
G1X75.9405Y-77.1559
G1X73.6223Y-77.3996
G1X65.2156Y-77.8658
G1X59.5156Y-78.5213
G1X56.1818Y-79.0843
G1X53.1675Y-79.7387
G1X50.7238Y-80.4230
G1X48.7362Y-81.1515
G1X46.9917Y-82.0794
G1X45.7368Y-83.1006
G1X44.4564Y-84.7041
G1X41.6432Y-88.7289
G1X40.3098Y-90.2960
G1X39.0520Y-91.5046
G1X37.7638Y-92.5257
G1X36.3676Y-93.4037
G1X34.9839Y-94.0779
G1X33.4404Y-94.6172
G1X31.7477Y-94.9683
G1X30.1110Y-95.0720
G1X28.4773Y-94.9272
G1X27.0007Y-94.5567
G1X25.5833Y-93.9318
G1X24.3279Y-93.0753
G1X23.3184Y-92.0708
G1X22.4736Y-90.8339
G1X21.8026Y-89.2374
G1X21.5737Y-88.3042
G1X21.4373Y-87.3069
G1X21.4736Y-85.4214
G1X21.8911Y-83.0839
G1X22.6826Y-80.4943
G1X23.8710Y-77.5797
G1X25.4136Y-74.4977
G1X27.1265Y-71.5826
G1X28.9093Y-68.9593
G1X30.6754Y-66.7149
G1X32.5291Y-64.7006
G1X34.4427Y-62.9699
G1X36.3907Y-61.5383
G1X38.4538Y-60.3491
G1X40.5141Y-59.4508
G1X42.8342Y-58.7029
G1X45.7061Y-58.0472
G1X49.9191Y-57.3255
G1X51.4517Y-57.1257
G1X52.6827Y-57.0890
G1X54.4277Y-57.2075
G1X56.2198Y-57.5315
G1X58.1435Y-58.1271
G1X60.1034Y-58.9335
G1X63.0698Y-60.4945
G1X66.8365Y-62.8844
G1X71.9384Y-66.5192
G1X75.6004Y-69.4428
G1X77.3015Y-71.1026
G1X77.9497Y-71.8870
G1X78.4475Y-72.6394
G1X78.8240Y-73.3860
G1X79.0874Y-74.1485
G1X79.2388Y-74.9961
G1X79.2570Y-75.7832
G1X79.0838Y-76.6069
G1X78.7120Y-77.1595
G1X78.1221Y-77.5411
G1X77.2526Y-77.8161
G1X75.1186Y-78.0631
G1X69.6223Y-78.2909
G1X66.1018Y-78.5200
G1X60.0887Y-79.1969
G1X56.6819Y-79.7600
G1X53.3862Y-80.4565
G1X50.6024Y-81.2169
G1X48.5088Y-81.9834
G1X46.7231Y-82.9086
G1X46.0632Y-83.4027
G1X45.4076Y-84.0372
G1X44.4276Y-85.2047
G1X42.2383Y-88.4682
G1X41.1361Y-89.9415
G1X40.0630Y-91.1930
G1X38.7435Y-92.4710
G1X37.3803Y-93.5395
G1X35.9246Y-94.4471
G1X34.3833Y-95.1728
G1X32.8636Y-95.6842
G1X31.0756Y-96.0351
G1X29.3652Y-96.1264
G1X27.6359Y-95.9589
G1X26.0711Y-95.5517
G1X24.5826Y-94.8876
G1X23.3408Y-94.0473
G1X22.2610Y-93.0031
G1X21.3283Y-91.6800
G1X20.9091Y-90.8455
G1X20.5576Y-89.9034
G1X20.2990Y-88.9199
G1X20.1585Y-87.9719
G1X20.1693Y-85.9832
G1X20.5430Y-83.6215
G1X21.3306Y-80.9150
G1X22.5070Y-77.8931
G1X24.0854Y-74.5862
G1X25.9545Y-71.2544
G1X27.8127Y-68.3844
G1X29.6842Y-65.8862
G1X31.5151Y-63.7921
G1X33.4865Y-61.9081
G1X35.4200Y-60.4125
G1X37.4915Y-59.1567
G1X39.7173Y-58.1647
G1X42.0056Y-57.4443
G1X44.5447Y-56.8997
G1X49.3471Y-56.1792
G1X50.8613Y-56.0383
G1X52.8080Y-56.0138
G1X54.5136Y-56.1662
G1X56.1987Y-56.5458
G1X58.2150Y-57.2329
G1X60.0749Y-58.0775
G1X63.2419Y-59.8631
G1X67.4059Y-62.6641
G1X73.4550Y-67.1645
G1X76.9104Y-70.0179
G1X78.5811Y-71.7273
G1X79.6889Y-73.3408
G1X80.0181Y-74.0749
G1X80.2735Y-74.9834
G1X80.3940Y-75.8710
G1X80.3816Y-76.6504
G1X80.1795Y-77.4098
G1X79.7712Y-77.9412
G1X79.1814Y-78.2972
G1X78.2629Y-78.5529
G1X76.4531Y-78.7600
G1X67.3150Y-79.1862
G1X63.8897Y-79.5036
G1X60.7609Y-79.8989
G1X57.0506Y-80.5052
G1X53.6777Y-81.2090
G1X50.7796Y-81.9744
G1X48.3396Y-82.8375
G1X47.3613Y-83.2907
G1X46.4810Y-83.8133
G1X45.6894Y-84.4150
G1X44.9819Y-85.0852
G1X44.3561Y-85.8646
G1X42.2467Y-89.0532
G1X40.9510Y-90.8361
G1X39.7564Y-92.2186
G1X38.5048Y-93.4359
G1X37.0642Y-94.5591
G1X35.5953Y-95.4704
G1X34.0292Y-96.2053
G1X32.3964Y-96.7501
G1X30.5176Y-97.1118
G1X28.7165Y-97.1994
G1X26.9093Y-97.0219
G1X25.2471Y-96.5892
G1X23.6851Y-95.8976
G1X22.3190Y-94.9830
G1X21.1568Y-93.8595
G1X20.1687Y-92.4697
G1X19.3647Y-90.6661
G1X19.0964Y-89.6933
G1X18.9441Y-88.7760
G1X18.8902Y-86.5372
G1X19.2294Y-84.1428
G1X20.1008Y-81.0418
G1X21.2251Y-78.0840
G1X22.8703Y-74.5027
G1X24.7893Y-70.9332
G1X26.6428Y-67.9185
G1X28.6462Y-65.0870
G1X30.5748Y-62.7630
G1X32.5275Y-60.7917
G1X34.5338Y-59.1586
G1X36.5879Y-57.8560
G1X38.8905Y-56.7968
G1X41.1182Y-56.1035
G1X43.4789Y-55.6228
G1X47.2672Y-55.1595
G1X51.0097Y-54.8814
G1X52.8293Y-54.8651
G1X54.5383Y-55.0981
G1X56.4106Y-55.6048
G1X58.0982Y-56.2398
G1X60.0817Y-57.2076
G1X61.5770Y-58.0522
G1X63.5525Y-59.3087
G1X67.2963Y-61.9603
G1X74.4648Y-67.4515
G1X76.7010Y-69.2734
G1X78.1581Y-70.5747
G1X79.7770Y-72.2977
G1X80.3364Y-73.0528
G1X80.7981Y-73.8423
G1X81.1684Y-74.7233
G1X81.4107Y-75.6034
G1X81.5308Y-76.5464
G1X81.5153Y-77.3286
G1X81.3095Y-78.1276
G1X80.8907Y-78.6869
G1X80.3211Y-79.0284
G1X79.3453Y-79.3069
G1X76.9094Y-79.5334
G1X71.1653Y-79.7348
G1X68.0949Y-79.9228
G1X64.8094Y-80.2189
G1X61.3809Y-80.6469
G1X57.3697Y-81.3019
G1X53.6981Y-82.0695
G1X50.6877Y-82.8713
G1X48.2843Y-83.7064
G1X46.3660Y-84.6839
G1X45.5753Y-85.2454
G1X44.9787Y-85.8002
G1X43.6848Y-87.5048
G1X42.3684Y-89.5449
G1X40.8419Y-91.7123
G1X39.5180Y-93.2512
G1X38.2634Y-94.4586
G1X36.7340Y-95.6439
G1X35.2481Y-96.5461
G1X33.5581Y-97.3235
G1X31.9003Y-97.8546
G1X29.8872Y-98.2211
G1X27.9756Y-98.2881
G1X26.0946Y-98.0789
G1X24.3396Y-97.6038
G1X22.6972Y-96.8557
G1X21.2667Y-95.8860
G1X20.0405Y-94.6866
G1X19.0313Y-93.2654
G1X18.5409Y-92.2999
G1X18.1772Y-91.3618
G1X17.9022Y-90.3640
G1X17.7070Y-89.2143
G1X17.6201Y-88.1241
G1X17.6324Y-86.9687
G1X17.9559Y-84.6258
G1X18.7992Y-81.4492
G1X20.0623Y-78.0416
G1X21.7512Y-74.2603
G1X23.8050Y-70.3020
G1X25.7530Y-67.0159
G1X27.7839Y-64.0189
G1X29.8169Y-61.4676
G1X31.8252Y-59.3721
G1X33.9107Y-57.6293
G1X35.9600Y-56.3181
G1X38.1296Y-55.3079
G1X40.5376Y-54.5849
G1X42.4065Y-54.2323
G1X45.0102Y-53.9561
G1X50.6453Y-53.6224
G1X52.2555Y-53.6441
G1X54.1470Y-53.9238
G1X56.0774Y-54.4425
G1X57.8437Y-55.1517
G1X59.9153Y-56.2060
G1X63.1091Y-58.2274
G1X66.7666Y-60.9113
G1X76.0852Y-68.2568
G1X79.3225Y-71.0627
G1X80.9763Y-72.8831
G1X81.5467Y-73.7173
G1X81.9887Y-74.5386
G1X82.3192Y-75.3789
G1X82.5423Y-76.3237
G1X82.6470Y-77.3469
G1X82.6103Y-78.2177
G1X82.4223Y-78.8928
G1X82.0255Y-79.4240
G1X81.4091Y-79.7983
G1X80.4901Y-80.0637
G1X78.4227Y-80.2788
G1X72.4770Y-80.4735
G1X68.7589Y-80.6957
G1X65.4170Y-81.0049
G1X62.0810Y-81.4202
G1X57.9932Y-82.0838
G1X54.1097Y-82.8840
G1X50.6605Y-83.7901
G1X48.3013Y-84.6112
G1X46.2936Y-85.5902
G1X45.5546Y-86.1184
G1X44.8926Y-86.7477
G1X43.8078Y-88.0638
G1X41.6758Y-91.3590
G1X40.7828Y-92.5946
G1X39.3516Y-94.2845
G1X37.9469Y-95.6087
G1X36.4770Y-96.7324
G1X34.8239Y-97.7092
G1X33.1600Y-98.4509
G1X31.4224Y-98.9870
G1X29.3332Y-99.3449
G1X27.2773Y-99.3957
G1X25.3453Y-99.1592
G1X23.4608Y-98.6325
G1X21.7211Y-97.8203
G1X20.2380Y-96.7965
G1X18.9512Y-95.5308
G1X17.9121Y-94.0584
G1X17.4069Y-93.0738
G1X16.9975Y-92.0172
G1X16.6657Y-90.7786
G1X16.4695Y-89.6230
G1X16.3873Y-88.4983
G1X16.4106Y-87.3879
G1X16.7704Y-84.7975
G1X17.5548Y-81.7663
G1X18.9719Y-77.8491
G1X20.7172Y-73.8629
G1X22.7907Y-69.7171
G1X24.8839Y-66.0353
G1X26.8907Y-62.9428
G1X28.9710Y-60.1959
G1X31.0205Y-57.9617
G1X33.1055Y-56.1406
G1X35.2384Y-54.7329
G1X37.4131Y-53.7066
G1X39.8163Y-52.9914
G1X41.6197Y-52.6886
G1X44.0562Y-52.4861
G1X49.8909Y-52.3347
G1X52.2272Y-52.4724
G1X54.1329Y-52.7713
G1X55.6770Y-53.2111
G1X57.5363Y-53.9933
G1X59.6623Y-55.1196
G1X62.6109Y-57.0559
G1X66.0256Y-59.6438
G1X77.0379Y-68.5404
G1X79.1683Y-70.3418
G1X80.5859Y-71.6744
G1X82.1134Y-73.4219
G1X82.6876Y-74.2840
G1X83.1411Y-75.1807
G1X83.4467Y-76.0845
G1X83.6769Y-77.1848
G1X83.7681Y-78.2516
G1X83.7118Y-79.0473
G1X83.5041Y-79.6985
G1X83.0873Y-80.2336
G1X82.4319Y-80.6140
G1X81.5189Y-80.8525
G1X79.8161Y-81.0425
G1X74.3417Y-81.2239
G1X69.9461Y-81.4603
G1X66.2087Y-81.8022
G1X62.7488Y-82.2356
G1X58.5174Y-82.9229
G1X54.5222Y-83.7444
G1X51.0178Y-84.6456
G1X48.2069Y-85.6021
G1X47.1416Y-86.0725
G1X46.1762Y-86.6206
G1X45.2847Y-87.2808
G1X44.5054Y-88.0203
G1X43.8778Y-88.8112
G1X41.6894Y-92.2328
G1X40.4814Y-93.8819
G1X39.2594Y-95.3090
G1X37.6986Y-96.7696
G1X36.2188Y-97.8721
G1X34.4508Y-98.8932
G1X32.7634Y-99.6149
G1X30.9890Y-100.1423
G1X28.8803Y-100.4847
G1X26.7497Y-100.5294
G1X24.7170Y-100.2763
G1X22.7625Y-99.7307
G1X20.9354Y-98.8927
G1X19.3600Y-97.8223
G1X17.9583Y-96.4707
G1X16.8416Y-94.9085
G1X16.3163Y-93.9071
G1X15.8934Y-92.8457
G1X15.5375Y-91.6129
G1X15.3137Y-90.4016
G1X15.2146Y-89.2221
G1X15.2212Y-87.9826
G1X15.5501Y-85.2006
G1X16.2923Y-82.2300
G1X17.6544Y-78.2771
G1X19.5409Y-73.7873
G1X21.5996Y-69.4724
G1X23.8128Y-65.3518
G1X25.8638Y-62.0042
G1X27.8805Y-59.1572
G1X30.0262Y-56.6527
G1X32.0841Y-54.7329
G1X33.1586Y-53.9147
G1X34.3303Y-53.1516
G1X35.3994Y-52.5670
G1X36.5359Y-52.0655
G1X38.9496Y-51.3241
G1X40.9460Y-51.0192
G1X43.2424Y-50.8880
G1X48.4751Y-51.0047
G1X52.6768Y-51.2770
G1X54.0688Y-51.5520
G1X55.6942Y-52.0998
G1X57.6314Y-52.9776
G1X59.2861Y-53.9153
G1X61.8749Y-55.6536
G1X65.1262Y-58.1793
G1X78.9154Y-69.6022
G1X81.7022Y-72.1346
G1X83.3284Y-74.0671
G1X83.8418Y-74.9028
G1X84.2308Y-75.7381
G1X84.5786Y-76.7766
G1X84.7861Y-77.7957
G1X84.8677Y-78.9404
G1X84.7933Y-79.8617
G1X84.5709Y-80.5396
G1X84.1537Y-81.0461
G1X83.5676Y-81.3834
G1X82.5652Y-81.6676
G1X80.0730Y-81.8908
G1X74.1430Y-82.0852
G1X70.9787Y-82.2716
G1X67.2166Y-82.6072
G1X63.4298Y-83.0837
G1X59.0328Y-83.8019
G1X54.7572Y-84.6859
G1X51.4614Y-85.5300
G1X48.3972Y-86.5376
G1X46.2161Y-87.6002
G1X45.3450Y-88.1974
G1X44.6901Y-88.7896
G1X43.9580Y-89.7205
G1X41.8063Y-93.0391
G1X40.3870Y-95.0075
G1X39.0340Y-96.5392
G1X37.6047Y-97.8690
G1X36.0378Y-99.0180
G1X34.3378Y-99.9958
G1X32.5685Y-100.7480
G1X30.7232Y-101.2933
G1X28.4373Y-101.6513
G1X26.2285Y-101.6823
G1X24.0016Y-101.3886
G1X21.9503Y-100.7930
G1X20.0914Y-99.9298
G1X18.3414Y-98.7276
G1X16.9654Y-97.3893
G1X15.7453Y-95.6907
G1X15.1830Y-94.6066
G1X14.7476Y-93.4989
G1X14.4091Y-92.3301
G1X14.1765Y-91.0903
G1X14.0584Y-89.8081
G1X14.0431Y-88.4255
G1X14.1360Y-87.0692
G1X14.3405Y-85.6519
G1X15.1223Y-82.4706
G1X16.4328Y-78.5260
G1X18.4257Y-73.5980
G1X20.6208Y-68.8121
G1X22.8459Y-64.4533
G1X25.0525Y-60.6620
G1X27.0767Y-57.6780
G1X29.1965Y-55.0770
G1X31.3269Y-53.0133
G1X33.4939Y-51.4244
G1X34.5925Y-50.8078
G1X35.7045Y-50.3005
G1X37.0171Y-49.8287
G1X38.1075Y-49.5460
G1X40.3103Y-49.2297
G1X42.3272Y-49.1669
G1X44.9656Y-49.2992
G1X52.0685Y-49.8682
G1X53.8411Y-50.2864
G1X55.7535Y-50.9744
G1X57.3870Y-51.7528
G1X59.2901Y-52.9049
G1X61.4334Y-54.4045
G1X64.3565Y-56.7434
G1X72.7437Y-63.9905
G1X80.5414Y-70.4825
G1X82.9107Y-72.7106
G1X83.7737Y-73.6796
G1X84.4156Y-74.5557
G1X84.9961Y-75.5467
G1X85.4049Y-76.4768
G1X85.6937Y-77.4788
G1X85.8783Y-78.6243
G1X85.9518Y-79.8510
G1X85.8675Y-80.7483
G1X85.6432Y-81.3484
G1X85.2069Y-81.8645
G1X84.5750Y-82.2246
G1X83.6959Y-82.4652
G1X81.6457Y-82.6908
G1X75.3801Y-82.9068
G1X71.3534Y-83.1561
G1X67.7999Y-83.4936
G1X64.0623Y-83.9707
G1X59.5637Y-84.7157
G1X55.2488Y-85.6081
G1X51.3102Y-86.6254
G1X48.6126Y-87.5285
G1X46.3597Y-88.5721
G1X45.5520Y-89.1152
G1X44.8814Y-89.7217
G1X43.5689Y-91.3251
G1X42.2096Y-93.5023
G1X40.4954Y-95.9620
G1X39.0260Y-97.6331
G1X37.6689Y-98.9012
G1X35.9757Y-100.1482
G1X34.3098Y-101.1063
G1X32.4304Y-101.9062
G1X30.4689Y-102.4782
G1X28.1393Y-102.8347
G1X25.8077Y-102.8620
G1X23.5027Y-102.5577
G1X21.2545Y-101.9053
G1X19.2427Y-100.9593
G1X17.4192Y-99.7042
G1X15.9217Y-98.2314
G1X14.7302Y-96.5823
G1X14.1644Y-95.5108
G1X13.6720Y-94.3014
G1X13.3168Y-93.1115
G1X13.0597Y-91.8067
G1X12.9099Y-90.4772
G1X12.8698Y-89.0749
G1X12.9481Y-87.6900
G1X13.1533Y-86.2040
G1X13.9974Y-82.5890
G1X15.1950Y-78.8860
G1X17.2140Y-73.6642
G1X19.7300Y-67.9281
G1X21.8241Y-63.6172
G1X24.1689Y-59.3372
G1X26.2706Y-56.0842
G1X28.2728Y-53.5008
G1X30.4343Y-51.2931
G1X31.4700Y-50.4298
G1X32.5558Y-49.6590
G1X33.6942Y-48.9884
G1X34.9356Y-48.3970
G1X36.0569Y-47.9799
G1X37.3237Y-47.6491
G1X39.5929Y-47.3304
G1X41.8204Y-47.3400
G1X43.7442Y-47.4907
G1X46.8790Y-47.9348
G1X51.1785Y-48.4177
G1X53.5600Y-48.9693
G1X55.3895Y-49.6049
G1X57.1815Y-50.5122
G1X59.3279Y-51.8703
G1X61.0287Y-53.1280
G1X63.5260Y-55.1779
G1X72.8183Y-63.4868
G1X81.6616Y-70.9143
G1X84.0644Y-73.2075
G1X85.5436Y-75.0946
G1X86.0758Y-76.0302
G1X86.4235Y-76.8779
G1X86.7540Y-78.0804
G1X86.9927Y-79.4998
G1X87.0448Y-80.6711
G1X86.9396Y-81.5311
G1X86.6463Y-82.2680
G1X86.1934Y-82.7431
G1X85.5507Y-83.0737
G1X84.4586Y-83.3462
G1X82.6779Y-83.5225
G1X72.5835Y-84.0021
G1X68.4740Y-84.3990
G1X64.6323Y-84.9023
G1X59.9170Y-85.6975
G1X55.4562Y-86.6383
G1X51.5725Y-87.6453
G1X48.4976Y-88.6832
G1X47.2641Y-89.2212
G1X46.2146Y-89.8185
G1X45.3067Y-90.4940
G1X44.5136Y-91.2490
G1X43.8192Y-92.1116
G1X41.6991Y-95.4668
G1X40.8028Y-96.7380
G1X39.1683Y-98.6566
G1X37.6005Y-100.1063
G1X35.8783Y-101.3651
G1X34.1189Y-102.3489
G1X32.1545Y-103.1601
G1X30.2146Y-103.7010
G1X27.8069Y-104.0517
G1X25.3956Y-104.0645
G1X23.0140Y-103.7416
G1X20.6690Y-103.0646
G1X18.5557Y-102.0805
G1X16.6843Y-100.8218
G1X15.0264Y-99.2322
G1X13.7722Y-97.5327
G1X13.1246Y-96.3332
G1X12.5892Y-95.0393
G1X12.2083Y-93.7593
G1X11.9265Y-92.3391
G1X11.7744Y-90.9384
G1X11.7437Y-89.5615
G1X11.8300Y-88.1053
G1X12.0505Y-86.4336
G1X12.8249Y-82.9084
G1X14.1786Y-78.6773
G1X16.1223Y-73.4753
G1X18.8712Y-66.9123
G1X21.2190Y-61.8694
G1X23.2262Y-58.0227
G1X25.4247Y-54.4123
G1X27.5279Y-51.5980
G1X28.5999Y-50.3903
G1X29.6959Y-49.3110
G1X30.7865Y-48.3922
G1X31.8634Y-47.6230
G1X33.0430Y-46.9215
G1X34.1943Y-46.3697
G1X35.4337Y-45.9267
G1X36.6874Y-45.6120
G1X37.9519Y-45.4046
G1X39.0466Y-45.3280
G1X42.0465Y-45.4658
G1X52.5804Y-47.3793
G1X54.0287Y-47.7850
G1X55.4122Y-48.3754
G1X57.1045Y-49.3074
G1X58.9718Y-50.5240
G1X62.6808Y-53.5174
G1X72.4312Y-62.5481
G1X75.9247Y-65.6000
G1X81.9750Y-70.6500
G1X83.9086Y-72.3735
G1X85.0995Y-73.5923
G1X85.9708Y-74.6176
G1X86.6470Y-75.5930
G1X87.1721Y-76.6006
G1X87.5769Y-77.6508
G1X87.8921Y-78.8291
G1X88.0582Y-79.9977
G1X88.1072Y-81.3736
G1X88.0035Y-82.3667
G1X87.7249Y-83.0552
G1X87.2838Y-83.5327
G1X86.5558Y-83.9171
G1X85.6510Y-84.1633
G1X83.2630Y-84.4120
G1X76.6861Y-84.6894
G1X73.2382Y-84.9278
G1X69.3624Y-85.3081
G1X65.2467Y-85.8606
G1X60.5040Y-86.6719
G1X55.8030Y-87.6729
G1X52.2147Y-88.6045
G1X48.8584Y-89.7053
G1X46.5044Y-90.8410
G1X45.6235Y-91.4309
G1X44.8951Y-92.0619
G1X44.1498Y-92.9865
G1X41.7265Y-96.7387
G1X40.5193Y-98.3558
G1X39.1774Y-99.8990
G1X37.5280Y-101.3894
G1X35.8630Y-102.5901
G1X33.9945Y-103.6132
G1X32.0987Y-104.3850
G1X30.0705Y-104.9401
G1X27.4872Y-105.2990
G1X24.9279Y-105.2859
G1X22.4246Y-104.9187
G1X20.0084Y-104.2000
G1X17.8018Y-103.1635
G1X15.8715Y-101.8607
G1X14.9553Y-101.0636
G1X14.1052Y-100.1869
G1X13.4006Y-99.3160
G1X12.7436Y-98.3350
G1X12.0774Y-97.1108
G1X11.5306Y-95.7955
G1X11.1132Y-94.3891
G1X10.8247Y-92.9321
G1X10.6663Y-91.3861
G1X10.6454Y-89.8219
G1X10.7482Y-88.1681
G1X10.9793Y-86.4186
G1X11.3081Y-84.7284
G1X11.7615Y-82.9493
G1X13.3524Y-77.8899
G1X15.7482Y-71.4428
G1X18.1869Y-65.4192
G1X20.6034Y-59.9665
G1X22.7466Y-55.7287
G1X24.6390Y-52.5121
G1X26.8190Y-49.4938
G1X27.8303Y-48.3267
G1X28.9144Y-47.2434
G1X30.0059Y-46.3057
G1X31.2028Y-45.4396
G1X32.2981Y-44.7875
G1X33.5070Y-44.2227
G1X34.7374Y-43.7909
G1X36.0772Y-43.4589
G1X37.1865Y-43.2998
G1X38.4071Y-43.2383
G1X40.0352Y-43.2873
G1X41.2222Y-43.4135
G1X44.6687Y-44.1197
G1X48.6585Y-45.1347
G1X52.0053Y-45.7818
G1X53.5307Y-46.2774
G1X55.2882Y-47.0683
G1X57.0701Y-48.0690
G1X58.6539Y-49.1583
G1X60.8144Y-50.8882
G1X62.4034Y-52.2922
G1X70.4294Y-60.0443
G1X73.6708Y-63.0494
G1X77.0005Y-65.9628
G1X83.7342Y-71.6130
G1X86.2707Y-74.0892
G1X87.0183Y-74.9999
G1X87.7005Y-76.0234
G1X88.2162Y-76.9947
G1X88.6170Y-78.0182
G1X88.9288Y-79.3632
G1X89.1372Y-81.0675
G1X89.1819Y-82.2638
G1X89.0658Y-83.1695
G1X88.7903Y-83.8399
G1X88.3229Y-84.3615
G1X87.6558Y-84.7366
G1X86.6845Y-85.0014
G1X84.6795Y-85.2548
G1X78.0962Y-85.5717
G1X73.5535Y-85.9042
G1X69.7950Y-86.3063
G1X65.9440Y-86.8362
G1X61.2171Y-87.6575
G1X56.5456Y-88.6516
G1X52.2486Y-89.7761
G1X49.3764Y-90.7305
G1X47.8989Y-91.3474
G1X46.8539Y-91.8785
G1X45.9918Y-92.4403
G1X45.3004Y-93.0436
G1X43.7385Y-94.9695
G1X42.2132Y-97.4113
G1X40.5007Y-99.7518
G1X39.1342Y-101.2520
G1X37.5324Y-102.6863
G1X35.8689Y-103.8581
G1X33.9161Y-104.9127
G1X32.0431Y-105.6576
G1X29.9770Y-106.2114
G1X27.3677Y-106.5660
G1X24.6266Y-106.5432
G1X21.9447Y-106.1344
G1X19.4544Y-105.3798
G1X17.0667Y-104.2541
G1X14.9957Y-102.8410
G1X14.0825Y-102.0478
G1X13.2396Y-101.1820
G1X12.4295Y-100.1784
G1X11.7581Y-99.1875
G1X11.0747Y-97.9459
G1X10.4961Y-96.5548
G1X10.0377Y-95.0286
G1X9.7382Y-93.5046
G1X9.5756Y-91.8976
G1X9.5424Y-90.1709
G1X9.6451Y-88.4434
G1X9.8751Y-86.7040
G1X10.7256Y-82.9745
G1X12.2198Y-78.0264
G1X14.9544Y-70.3706
G1X17.8808Y-62.8455
G1X19.9035Y-58.0882
G1X22.1137Y-53.4892
G1X24.0892Y-50.0757
G1X26.0034Y-47.3620
G1X27.0025Y-46.1918
G1X28.0738Y-45.0934
G1X29.1759Y-44.1237
G1X30.2618Y-43.3211
G1X31.4046Y-42.6325
G1X32.5760Y-42.0712
G1X33.8574Y-41.6029
G1X35.1281Y-41.2847
G1X36.9504Y-41.0726
G1X39.0647Y-41.0931
G1X40.9429Y-41.3664
G1X43.4958Y-41.9575
G1X47.0928Y-43.0844
G1X50.9454Y-44.0501
G1X53.3449Y-44.8892
G1X54.7555Y-45.4915
G1X55.9340Y-46.1024
G1X57.1076Y-46.8441
G1X58.4050Y-47.7971
G1X60.2877Y-49.3283
G1X62.0898Y-50.9809
G1X70.0069Y-58.9150
G1X73.8943Y-62.6277
G1X77.8919Y-66.1657
G1X84.2613Y-71.4920
G1X86.0788Y-73.1473
G1X87.1602Y-74.2626
G1X88.0709Y-75.3820
G1X88.7439Y-76.3771
G1X89.2443Y-77.3492
G1X89.5916Y-78.3173
G1X89.9728Y-79.9108
G1X90.2051Y-81.4747
G1X90.2503Y-82.8902
G1X90.0971Y-84.0271
G1X89.7888Y-84.7344
G1X89.2632Y-85.2624
G1X88.5437Y-85.6219
G1X87.5217Y-85.9041
G1X84.5588Y-86.2132
G1X74.8666Y-86.8212
G1X70.4065Y-87.3104
G1X66.4088Y-87.8834
G1X61.4522Y-88.7691
G1X56.7011Y-89.8099
G1X52.5562Y-90.9091
G1X49.2841Y-92.0253
G1X48.0170Y-92.5722
G1X47.0010Y-93.1295
G1X46.0020Y-93.8394
G1X45.1427Y-94.6263
G1X44.1958Y-95.7487
G1X42.8747Y-97.9036
G1X40.8920Y-100.7251
G1X39.3454Y-102.4372
G1X37.7716Y-103.8668
G1X35.9543Y-105.1400
G1X34.0627Y-106.1657
G1X32.0968Y-106.9432
G1X30.0442Y-107.4948
G1X27.3575Y-107.8620
G1X24.6405Y-107.8519
G1X21.9095Y-107.4646
G1X19.2807Y-106.7101
G1X16.7927Y-105.5968
G1X14.5772Y-104.1705
G1X12.7422Y-102.5476
G1X11.1571Y-100.6032
G1X10.0413Y-98.6655
G1X9.1887Y-96.4457
G1X8.6889Y-94.2216
G1X8.4642Y-91.7324
G1X8.5331Y-89.2332
G1X8.8748Y-86.6660
G1X9.6210Y-83.2488
G1X10.5809Y-79.8160
G1X13.1855Y-71.9916
G1X16.5998Y-62.5368
G1X18.9768Y-56.5229
G1X20.8402Y-52.3382
G1X23.0092Y-48.2762
G1X23.9802Y-46.7397
G1X24.9992Y-45.3264
G1X26.1030Y-43.9803
G1X27.2481Y-42.7824
G1X28.4389Y-41.7443
G1X29.6291Y-40.8943
G1X30.6791Y-40.2793
G1X31.8403Y-39.7316
G1X32.9700Y-39.3282
G1X34.1409Y-39.0404
G1X35.4274Y-38.8504
G1X36.8146Y-38.7699
G1X38.0095Y-38.8188
G1X39.4109Y-39.0016
G1X41.2949Y-39.3855
G1X42.5370Y-39.7342
G1X53.2561Y-43.4262
G1X54.9870Y-44.2127
G1X56.9326Y-45.4591
G1X59.2491Y-47.2622
G1X61.3965Y-49.2384
G1X63.5418Y-51.3731
G1X70.0353Y-58.1791
G1X74.2659Y-62.3153
G1X78.0817Y-65.7409
G1X86.0312Y-72.4368
G1X87.1814Y-73.5144
G1X88.4479Y-74.8713
G1X89.2988Y-75.9570
G1X89.9136Y-76.9781
G1X90.4513Y-78.1793
G1X90.8780Y-79.5143
G1X91.1390Y-80.8692
G1X91.2789Y-82.5303
G1X91.2794Y-84.0185
G1X91.1133Y-84.9547
G1X90.7628Y-85.6272
G1X90.2731Y-86.0977
G1X89.5435Y-86.4832
G1X88.5851Y-86.7511
G1X86.2394Y-87.0676
G1X78.8493Y-87.5375
G1X74.8311Y-87.8989
G1X71.0482Y-88.3417
G1X66.8493Y-88.9676
G1X61.9202Y-89.8722
G1X57.0427Y-90.9596
G1X53.3943Y-91.9343
G1X49.8538Y-93.1095
G1X48.5407Y-93.6835
G1X47.2390Y-94.3815
G1X46.2684Y-95.0392
G1X45.4657Y-95.7392
G1X44.7172Y-96.6629
G1X41.4023Y-101.6195
G1X39.6267Y-103.6415
G1X37.9717Y-105.1393
G1X36.0798Y-106.4647
G1X34.2112Y-107.4748
G1X32.1660Y-108.2759
G1X29.9357Y-108.8627
G1X28.5578Y-109.0847
G1X27.1563Y-109.2071
G1X25.6548Y-109.2328
G1X24.2489Y-109.1590
G1X21.4360Y-108.7165
G1X19.9788Y-108.3309
G1X18.6436Y-107.8765
G1X16.1879Y-106.7502
G1X14.9653Y-106.0245
G1X13.7972Y-105.2084
G1X12.7825Y-104.3706
G1X11.8420Y-103.4565
G1X10.9646Y-102.4654
G1X10.1687Y-101.3975
G1X9.0359Y-99.4033
G1X8.1907Y-97.2456
G1X8.0000Y-96.4280
G1 Z0F20000
(Start Block)

G1X8.0000Y-86.0471
G1Z5.5F20000
(Plotting speed under)
G1 F8000

G1X8.4158Y-83.9273
G1X9.2985Y-80.6441
G1X11.5387Y-73.4694
G1X15.6300Y-61.3478
G1X18.1462Y-54.4975
G1X20.1269Y-49.8630
G1X22.0480Y-46.1091
G1X23.1538Y-44.3281
G1X24.2132Y-42.8270
G1X25.2579Y-41.5472
G1X26.3682Y-40.3977
G1X27.5340Y-39.3849
G1X28.7449Y-38.5177
G1X29.9107Y-37.8449
G1X31.1245Y-37.3056
G1X32.4756Y-36.8745
G1X33.8519Y-36.5892
G1X35.1390Y-36.4506
G1X36.4497Y-36.4491
G1X37.8730Y-36.5767
G1X39.4827Y-36.8427
G1X40.8472Y-37.1900
G1X42.4921Y-37.7458
G1X44.8710Y-38.6480
G1X48.7764Y-40.3160
G1X52.7855Y-41.6990
G1X54.9259Y-42.8204
G1X57.2109Y-44.3603
G1X59.1653Y-45.9636
G1X61.8769Y-48.5795
G1X70.0143Y-57.3587
G1X74.4402Y-61.7932
G1X79.2425Y-66.1288
G1X86.5998Y-72.2880
G1X88.3895Y-73.9690
G1X89.4768Y-75.1324
G1X90.2622Y-76.1721
G1X90.9559Y-77.3005
G1X91.4688Y-78.3955
G1X91.8107Y-79.4515
G1X92.1131Y-81.1015
G1X92.3522Y-83.4829
G1X92.3496Y-84.7008
G1X92.1704Y-85.6587
G1X91.8409Y-86.3709
G1X91.2360Y-86.9722
G1X90.4051Y-87.3799
G1X89.1082Y-87.7190
G1X87.1362Y-87.9732
G1X80.7982Y-88.4406
G1X75.7109Y-88.9070
G1X71.6186Y-89.4171
G1X67.7103Y-90.0133
G1X62.7210Y-90.9427
G1X57.9279Y-92.0131
G1X53.5141Y-93.2065
G1X50.5542Y-94.2058
G1X47.8955Y-95.4182
G1X46.9336Y-96.0280
G1X46.1651Y-96.6740
G1X45.4430Y-97.4780
G1X44.2929Y-99.0048
G1X42.5487Y-101.7216
G1X41.1398Y-103.5447
G1X39.6328Y-105.2063
G1X38.0273Y-106.5906
G1X36.1702Y-107.8793
G1X34.3784Y-108.8292
G1X32.1890Y-109.6783
G1X30.0301Y-110.2365
G1X28.6209Y-110.4573
G1X27.0947Y-110.5843
G1X25.5792Y-110.6037
G1X24.0653Y-110.5113
G1X22.5584Y-110.3113
G1X20.9822Y-109.9901
G1X19.5045Y-109.5792
G1X18.0566Y-109.0660
G1X16.6609Y-108.4572
G1X15.3185Y-107.7548
G1X14.0260Y-106.9568
G1X12.8871Y-106.1268
G1X11.7481Y-105.1474
G1X10.7500Y-104.1487
G1X9.8359Y-103.0671
G1X9.0903Y-102.0054
G1X8.1126Y-100.2844
G1X8.0000Y-100.0154
G1 Z0F20000
(Start Block)

G1X8.0000Y-81.7144
G1Z5.5F20000
(Plotting speed under)
G1 F8000

G1X8.2347Y-80.8158
G1X9.9037Y-75.1055
G1X14.0365Y-61.9646
G1X16.9473Y-53.2444
G1X18.6215Y-48.9093
G1X20.0148Y-45.7991
G1X21.8088Y-42.5177
G1X23.5002Y-40.0669
G1X24.8255Y-38.5435
G1X26.2278Y-37.2286
G1X27.6336Y-36.1869
G1X29.1406Y-35.3437
G1X30.8120Y-34.6788
G1X32.5297Y-34.2463
G1X34.2075Y-34.0651
G1X36.1227Y-34.0980
G1X37.6196Y-34.2672
G1X39.0926Y-34.5821
G1X40.7581Y-35.0864
G1X42.8660Y-35.8550
G1X47.1893Y-37.8853
G1X51.8435Y-39.8075
G1X54.5045Y-41.1886
G1X56.4559Y-42.4262
G1 Z0F20000

G00 X0.0000 Y0.0000

