$H
G21
G17
G90
G1 Z0F20000
G1 F15000

(Start Layer)

(Start Block)


G1X10.2258Y-140.0001
G1Z6F20000
(Plotting speed under)
G1 F4000


G1X9.6417Y-139.0870

G1X9.0693Y-137.9976

G1X8.5993Y-136.8768

G1X8.2421Y-135.7442

G1X8.0230Y-134.7126

G1X8.0000Y-134.5004

G1 Z0F20000

(Start Block)


G1X8.0000Y-131.4388
G1Z6F20000
(Plotting speed under)
G1 F4000


G1X8.0394Y-131.0240

G1X8.3646Y-129.5186

G1X8.8257Y-128.1684

G1X9.4569Y-126.8629

G1X10.3028Y-125.5390

G1X11.3203Y-124.2628

G1X12.5536Y-122.9987

G1X13.8237Y-121.9326

G1X15.1800Y-121.0100

G1X16.7496Y-120.1445

G1X18.4318Y-119.3933

G1X20.2709Y-118.7466

G1X21.9206Y-118.3149

G1X23.5964Y-118.0236

G1X25.4405Y-117.8510

G1X27.3001Y-117.8165

G1X29.1179Y-117.9185

G1X30.8691Y-118.1613

G1X32.5820Y-118.5626

G1X34.3545Y-119.1485

G1X36.0246Y-119.8725

G1X37.5312Y-120.7066

G1X38.7655Y-121.5807

G1X39.9449Y-122.6406

G1X40.9738Y-123.8049

G1X41.8180Y-125.0291

G1X42.4518Y-126.2893

G1X42.8533Y-127.5461

G1X43.0810Y-128.9657

G1X43.0943Y-130.3971

G1X42.8905Y-131.7822

G1X42.4510Y-133.1199

G1X41.9343Y-134.1655

G1X41.2232Y-135.2692

G1X40.4453Y-136.2334

G1X39.5680Y-137.1187

G1X38.6656Y-137.8591

G1X37.5537Y-138.6047

G1X36.3218Y-139.2847

G1X35.0021Y-139.8819

G1X34.6754Y-140.0001

G1 Z0F20000

(Start Block)


G1X20.3359Y-140.0001
G1Z6F20000
(Plotting speed under)
G1 F4000


G1X19.0368Y-139.4904

G1X17.6742Y-138.8397

G1X16.4963Y-138.1624

G1X15.4262Y-137.4233

G1X14.3805Y-136.5690

G1X13.4040Y-135.6343

G1X12.5161Y-134.6380

G1X11.7365Y-133.5988

G1X11.0846Y-132.5355

G1X10.5719Y-131.4636

G1X10.1572Y-130.3171

G1X9.8309Y-129.0292

G1X9.6390Y-127.7220

G1X9.5870Y-126.5233

G1X9.6978Y-125.0771

G1X10.0038Y-123.6525

G1X10.4933Y-122.2242

G1X11.1980Y-120.7412

G1X12.0117Y-119.4305

G1X12.9174Y-118.2793

G1X14.0703Y-117.1046

G1X15.3863Y-116.0023

G1X16.8229Y-115.0025

G1X18.3377Y-114.1354

G1X19.8583Y-113.4416

G1X21.4655Y-112.8694

G1X23.3543Y-112.3617

G1X25.2777Y-112.0054

G1X27.0726Y-111.8189

G1X28.8925Y-111.7889

G1X30.7547Y-111.9153

G1X32.6966Y-112.2057

G1X34.4516Y-112.6169

G1X36.1220Y-113.1715

G1X37.7475Y-113.9078

G1X39.2777Y-114.7967

G1X40.6597Y-115.7997

G1X41.8404Y-116.8787

G1X42.7641Y-117.9779

G1X43.6016Y-119.3047

G1X44.2344Y-120.7048

G1X44.6374Y-122.1194

G1X44.7840Y-123.3435

G1X44.7257Y-124.7276

G1X44.4526Y-126.1253

G1X43.9777Y-127.4822

G1X43.4716Y-128.4843

G1X42.8442Y-129.4226

G1X42.0999Y-130.3109

G1X41.1631Y-131.2316

G1X40.1152Y-132.0858

G1X39.0713Y-132.7947

G1X37.9032Y-133.4432

G1X36.6861Y-133.9818

G1X35.2715Y-134.4784

G1X33.8809Y-134.8565

G1X32.3518Y-135.1589

G1X30.9208Y-135.3348

G1X29.5374Y-135.4003

G1X28.0347Y-135.3640

G1X26.5018Y-135.2245

G1X24.9741Y-134.9848

G1X22.2583Y-134.2799

G1X19.7242Y-133.2086

G1X18.4514Y-132.5046

G1X17.2465Y-131.7199

G1X16.1370Y-130.8693

G1X15.1502Y-129.9677

G1X14.3223Y-129.0569

G1X13.5091Y-127.9843

G1X12.7980Y-126.8462

G1X12.2049Y-125.6670

G1X11.7754Y-124.5631

G1X11.4705Y-123.4577

G1X11.2947Y-122.3944

G1X11.2168Y-121.1970

G1X11.2845Y-119.6799

G1X11.5334Y-118.1823

G1X11.9269Y-116.8422

G1X12.4951Y-115.5390

G1X13.2910Y-114.1753

G1X14.3242Y-112.7822

G1X15.4414Y-111.5642

G1X16.7270Y-110.4293

G1X18.1428Y-109.4314

G1X19.7150Y-108.5302

G1X21.4855Y-107.7101

G1X23.2125Y-107.0825

G1X24.9265Y-106.6253

G1X26.7054Y-106.3119

G1X28.5369Y-106.1318

G1X30.4662Y-106.0876

G1X32.3274Y-106.1948

G1X34.1333Y-106.4660

G1X35.9526Y-106.9109

G1X37.8002Y-107.5408

G1X39.4176Y-108.2643

G1X40.7623Y-109.0337

G1X42.0405Y-109.9655

G1X43.2707Y-111.0912

G1X44.3224Y-112.3065

G1X45.1086Y-113.4852

G1X45.7025Y-114.7396

G1X46.1157Y-116.1158

G1X46.3318Y-117.6329

G1X46.3145Y-119.0300

G1X46.0831Y-120.3407

G1X45.6009Y-121.7104

G1X45.0530Y-122.7921

G1X44.3777Y-123.8308

G1X43.6598Y-124.7217

G1X42.8118Y-125.5752

G1X41.8658Y-126.3488

G1X40.7154Y-127.1278

G1X39.4596Y-127.8315

G1X38.2269Y-128.4006

G1X36.9563Y-128.8726

G1X35.6389Y-129.2428

G1X32.7750Y-129.7177

G1X31.2314Y-129.8192

G1X29.6931Y-129.8160

G1X28.2942Y-129.7144

G1X26.9116Y-129.5120

G1X25.4089Y-129.1848

G1X23.9178Y-128.7524

G1X22.4734Y-128.2240

G1X21.1981Y-127.6523

G1X20.0010Y-127.0000

G1X18.8815Y-126.2654

G1X17.8126Y-125.4409

G1X16.8146Y-124.5436

G1X15.9078Y-123.5905

G1X15.1127Y-122.5988

G1X14.4817Y-121.6415

G1X13.9157Y-120.5654

G1X13.4506Y-119.4295

G1X13.0689Y-118.1574

G1X12.8369Y-116.9692

G1X12.7281Y-115.7905

G1X12.7744Y-114.3562

G1X13.0416Y-112.8051

G1X13.5167Y-111.2555

G1X14.1353Y-109.8495

G1X14.9068Y-108.5316

G1X15.8293Y-107.3181

G1X16.9196Y-106.1628

G1X18.2336Y-105.0142

G1X19.6656Y-103.9810

G1X21.1593Y-103.1053

G1X22.7448Y-102.3732

G1X24.4548Y-101.7547

G1X26.3347Y-101.2402

G1X28.2284Y-100.8832

G1X30.0038Y-100.7031

G1X31.8405Y-100.6768

G1X33.7988Y-100.8073

G1X35.7100Y-101.0907

G1X37.4150Y-101.4910

G1X39.0558Y-102.0452

G1X40.6708Y-102.7719

G1X42.2670Y-103.6854

G1X43.6856Y-104.7086

G1X44.8169Y-105.7509

G1X45.8174Y-106.9538

G1X46.6443Y-108.2592

G1X47.3041Y-109.7056

G1X47.6865Y-111.0631

G1X47.8319Y-112.4370

G1X47.7611Y-113.8550

G1X47.4548Y-115.3610

G1X46.9628Y-116.6957

G1X46.4233Y-117.6951

G1X45.7609Y-118.6433

G1X44.9043Y-119.6359

G1X44.0057Y-120.4984

G1X43.0232Y-121.2879

G1X41.9757Y-121.9839

G1X40.9018Y-122.5662

G1X39.6347Y-123.1290

G1X38.2836Y-123.6138

G1X36.8796Y-124.0087

G1X35.4542Y-124.3022

G1X34.1539Y-124.4723

G1X32.6770Y-124.5564

G1X31.1492Y-124.5385

G1X28.1834Y-124.2195

G1X25.5722Y-123.5854

G1X24.2260Y-123.0997

G1X22.9008Y-122.5141

G1X21.6241Y-121.8415

G1X20.4235Y-121.0949

G1X19.4010Y-120.3466

G1X18.4436Y-119.5134

G1X17.5174Y-118.5489

G1X16.6767Y-117.5047

G1X15.9385Y-116.4035

G1X15.3627Y-115.3558

G1X14.9020Y-114.2964

G1X14.5800Y-113.2893

G1X14.3503Y-112.2137

G1X14.2134Y-111.0040

G1X14.2104Y-109.4747

G1X14.3956Y-107.9704

G1X14.7353Y-106.6430

G1X15.2705Y-105.2989

G1X16.0383Y-103.8816

G1X17.0451Y-102.4415

G1X18.1421Y-101.1935

G1X19.3754Y-100.0746

G1X20.8161Y-99.0264

G1X22.4064Y-98.0829

G1X24.0918Y-97.2727

G1X25.8173Y-96.6242

G1X27.5316Y-96.1562

G1X29.4442Y-95.8046

G1X31.3969Y-95.6040

G1X33.3226Y-95.5593

G1X35.2094Y-95.6815

G1X37.1518Y-95.9953

G1X39.0605Y-96.4814

G1X40.8640Y-97.1163

G1X42.4225Y-97.8397

G1X43.7692Y-98.6499

G1X45.1026Y-99.6563

G1X46.3564Y-100.8411

G1X47.3385Y-102.0211

G1X48.1049Y-103.2551

G1X48.7105Y-104.6758

G1X49.0959Y-106.1623

G1X49.2446Y-107.5525

G1X49.1783Y-108.8913

G1X48.8902Y-110.2171

G1X48.3518Y-111.6382

G1X47.8210Y-112.6478

G1X47.1867Y-113.6041

G1X46.4686Y-114.4738

G1X45.6754Y-115.2552

G1X44.6909Y-116.0634

G1X43.5130Y-116.8697

G1X42.3367Y-117.5403

G1X41.1067Y-118.1176

G1X39.8889Y-118.5717

G1X38.5756Y-118.9479

G1X35.6496Y-119.4662

G1X32.7695Y-119.5940

G1X29.9887Y-119.3252

G1X27.0929Y-118.6583

G1X25.6593Y-118.1748

G1X24.4007Y-117.6466

G1X23.1583Y-117.0035

G1X22.0165Y-116.2953

G1X19.9115Y-114.6487

G1X18.9902Y-113.7411

G1X18.1842Y-112.7977

G1X17.5015Y-111.8217

G1X16.9416Y-110.8420

G1X16.4261Y-109.7205

G1X16.0191Y-108.5654

G1X15.7295Y-107.3989

G1X15.5667Y-106.2432

G1X15.5493Y-104.8030

G1X15.7472Y-103.2238

G1X16.1548Y-101.6497

G1X16.7585Y-100.1350

G1X17.4732Y-98.8430

G1X18.3699Y-97.6053

G1X19.5114Y-96.3419

G1X20.8069Y-95.1691

G1X22.2151Y-94.1255

G1X23.6441Y-93.2741

G1X25.2546Y-92.5115

G1X27.0750Y-91.8341

G1X28.9552Y-91.3072

G1X30.7330Y-90.9648

G1X32.5105Y-90.7823

G1X34.4497Y-90.7463

G1X36.3894Y-90.8647

G1X38.2626Y-91.1313

G1X39.9803Y-91.5333

G1X41.6625Y-92.1029

G1X43.3735Y-92.8673

G1X44.9510Y-93.7638

G1X46.3326Y-94.7580

G1X47.4779Y-95.8231

G1X48.4898Y-97.0289

G1X49.3754Y-98.4053

G1X50.0249Y-99.8172

G1X50.3886Y-101.1155

G1X50.5510Y-102.5249

G1X50.4920Y-104.0640

G1X50.1962Y-105.5667

G1X49.6840Y-106.9340

G1X49.1332Y-107.9396

G1X48.4487Y-108.9261

G1X47.6484Y-109.8709

G1X46.7503Y-110.7514

G1X45.8565Y-111.4828

G1X44.8970Y-112.1344

G1X43.7971Y-112.7549

G1X42.5116Y-113.3553

G1X39.8499Y-114.2648

G1X37.2792Y-114.7527

G1X35.7847Y-114.8748

G1X34.2473Y-114.8975

G1X31.2854Y-114.6575

G1X28.6607Y-114.0807

G1X25.9622Y-113.0841

G1X23.5581Y-111.8121

G1X22.5292Y-111.1143

G1X21.5137Y-110.2918

G1X20.5501Y-109.3648

G1X19.6694Y-108.3638

G1X18.8898Y-107.3095

G1X18.2756Y-106.3070

G1X17.7772Y-105.2932

G1X17.4009Y-104.2788

G1X17.1175Y-103.2095

G1X16.9196Y-102.0086

G1X16.8398Y-100.4931

G1X16.9514Y-99.0054

G1X17.2541Y-97.6041

G1X17.7880Y-96.1330

G1X18.5740Y-94.5972

G1X19.4921Y-93.2262

G1X20.5565Y-91.9748

G1X21.7392Y-90.8751

G1X23.1795Y-89.7892

G1X24.7602Y-88.8158

G1X26.4270Y-87.9872

G1X28.0978Y-87.3446

G1X29.9263Y-86.8324

G1X31.9449Y-86.4492

G1X33.9834Y-86.2356

G1X35.8678Y-86.1985

G1X37.8003Y-86.3422

G1X39.8469Y-86.6852

G1X41.8252Y-87.2030

G1X43.5661Y-87.8365

G1X45.1053Y-88.5868

G1X46.6042Y-89.5298

G1X47.9668Y-90.6041

G1X49.1425Y-91.7662

G1X50.0761Y-92.9656

G1X50.8392Y-94.3182

G1X51.3991Y-95.7589

G1X51.7371Y-97.2273

G1X51.8361Y-98.5697

G1X51.7143Y-99.9092

G1X51.3507Y-101.3683

G1X50.7667Y-102.7938

G1X50.2107Y-103.7833

G1X49.6269Y-104.6100

G1X48.8956Y-105.4493

G1X48.0473Y-106.2600

G1X47.0184Y-107.0878

G1X45.9881Y-107.7892

G1X44.9001Y-108.4144

G1X43.6985Y-108.9798

G1X41.1045Y-109.8379

G1X38.1727Y-110.3816

G1X35.5507Y-110.5193

G1X32.7365Y-110.2872

G1X29.9217Y-109.6997

G1X27.4073Y-108.8239

G1X25.0410Y-107.5871

G1X23.8421Y-106.7860

G1X22.8061Y-105.9770

G1X21.8666Y-105.1192

G1X21.0964Y-104.2879

G1X20.4043Y-103.3941

G1X19.7330Y-102.3477

G1X19.1595Y-101.2479

G1X18.7292Y-100.2113

G1X18.3742Y-99.0696

G1X18.1628Y-98.0309

G1X18.0521Y-96.5786

G1X18.1505Y-94.9772

G1X18.4633Y-93.3787

G1X18.9810Y-91.8400

G1X19.6228Y-90.5371

G1X20.5368Y-89.1584

G1X21.6500Y-87.8359

G1X22.9214Y-86.6132

G1X24.3099Y-85.5339

G1X25.7812Y-84.6271

G1X27.4954Y-83.7869

G1X29.3201Y-83.0842

G1X31.1898Y-82.5429

G1X32.9427Y-82.2003

G1X34.8493Y-82.0023

G1X36.8015Y-81.9598

G1X38.8318Y-82.0798

G1X40.7595Y-82.3655

G1X42.5525Y-82.8158

G1X44.3104Y-83.4365

G1X46.0612Y-84.2446

G1X47.6346Y-85.1765

G1X48.9018Y-86.1428

G1X50.1005Y-87.3130

G1X51.1864Y-88.6767

G1X51.9914Y-90.0187

G1X52.5365Y-91.3299

G1X52.8666Y-92.7005

G1X52.9982Y-94.3245

G1X52.8824Y-95.8358

G1X52.5370Y-97.2604

G1X51.9757Y-98.5791

G1X51.4243Y-99.5358

G1X50.7049Y-100.5447

G1X49.8788Y-101.4934

G1X49.0420Y-102.2895

G1X48.1315Y-103.0061

G1X47.0760Y-103.6976

G1X44.7922Y-104.8555

G1X42.3239Y-105.7107

G1X39.7086Y-106.2122

G1X36.8529Y-106.3861

G1X34.0157Y-106.2089

G1X31.3758Y-105.6758

G1X28.6643Y-104.7479

G1X26.2722Y-103.5591

G1X24.3047Y-102.1800

G1X23.3689Y-101.3522

G1X22.4349Y-100.3867

G1X20.9943Y-98.4817

G1X20.4363Y-97.4860

G1X19.9926Y-96.4634

G1X19.6435Y-95.3907

G1X19.3931Y-94.2872

G1X19.2177Y-92.7676

G1X19.2431Y-91.2753

G1X19.4714Y-89.8645

G1X19.9309Y-88.3584

G1X20.6407Y-86.7859

G1X21.4930Y-85.3843

G1X22.4763Y-84.1361

G1X23.7014Y-82.9214

G1X25.1171Y-81.7890

G1X26.6700Y-80.7752

G1X28.3073Y-79.9166

G1X29.9316Y-79.2598

G1X31.8539Y-78.6837

G1X33.8604Y-78.2669

G1X35.8747Y-78.0230

G1X37.8563Y-77.9661

G1X39.7985Y-78.0948

G1X41.8403Y-78.4098

G1X43.7996Y-78.8920

G1X45.5321Y-79.4978

G1X47.1404Y-80.2615

G1X48.7447Y-81.2415

G1X50.1867Y-82.3525

G1X51.4046Y-83.5480

G1X52.3388Y-84.7643

G1X53.1571Y-86.2164

G1X53.7451Y-87.7395

G1X54.0627Y-89.1711

G1X54.1350Y-90.6000

G1X53.9647Y-92.0814

G1X53.5674Y-93.5567

G1X52.9590Y-94.9653

G1X52.4501Y-95.8283

G1X51.7859Y-96.7231

G1X50.9993Y-97.5943

G1X50.1091Y-98.4249

G1X48.0921Y-99.8963

G1X45.9788Y-100.9720

G1X43.4042Y-101.8426

G1X40.6619Y-102.3893

G1X38.0649Y-102.5553

G1X35.3109Y-102.3795

G1X32.5889Y-101.8802

G1X30.1368Y-101.0936

G1X27.7301Y-99.9314

G1X25.5375Y-98.4791

G1X23.8221Y-96.9326

G1X22.3577Y-95.0739

G1X21.2359Y-93.0233

G1X20.8156Y-91.9246

G1X20.5426Y-90.9185

G1X20.3285Y-89.3522

G1X20.3385Y-87.7306

G1X20.5678Y-86.1135

G1X21.0119Y-84.5609

G1X21.6348Y-83.1752

G1X22.5108Y-81.7543

G1X23.5838Y-80.3953

G1X24.8150Y-79.1457

G1X26.1315Y-78.0775

G1X27.6844Y-77.0824

G1X29.4021Y-76.2049

G1X31.3164Y-75.4392

G1X33.0703Y-74.9154

G1X34.9095Y-74.5489

G1X36.8352Y-74.3368

G1X38.8902Y-74.2789

G1X40.8966Y-74.3913

G1X42.7602Y-74.6704

G1X44.6672Y-75.1500

G1X46.6099Y-75.8399

G1X48.3197Y-76.6405

G1X49.7977Y-77.5343

G1X51.1908Y-78.6299

G1X52.4287Y-79.8715

G1X53.4642Y-81.2040

G1X54.2545Y-82.5813

G1X54.7835Y-83.9913

G1X55.0960Y-85.4813

G1X55.1836Y-87.0892

G1X55.0282Y-88.5489

G1X54.6469Y-89.9080

G1X53.9942Y-91.3500

G1X53.4143Y-92.3126

G1X52.7406Y-93.2295

G1X51.9842Y-94.0810

G1X51.2042Y-94.8091

G1X49.2094Y-96.2404

G1X46.8968Y-97.4313

G1X44.5755Y-98.2431

G1X42.0671Y-98.7505

G1X39.3123Y-98.9733

G1X36.6074Y-98.8624

G1X34.0162Y-98.4073

G1X31.3581Y-97.5973

G1X29.0163Y-96.5444

G1X27.0442Y-95.2904

G1X25.0861Y-93.6061

G1X23.5489Y-91.8053

G1X22.9772Y-90.9250

G1X22.4571Y-89.9289

G1X22.0277Y-88.8798

G1X21.6945Y-87.7966

G1X21.3932Y-86.1994

G1X21.3218Y-84.7251

G1X21.4646Y-83.2855

G1X21.8421Y-81.7253

G1X22.4758Y-80.0952

G1X23.2696Y-78.6452

G1X24.1910Y-77.3820

G1X25.3959Y-76.1002

G1X26.7946Y-74.9051

G1X28.3333Y-73.8390

G1X29.8593Y-72.9920

G1X31.5560Y-72.2655

G1X33.4901Y-71.6434

G1X35.4994Y-71.1854

G1X37.5060Y-70.9096

G1X39.4947Y-70.8300

G1X41.5398Y-70.9383

G1X43.5687Y-71.2216

G1X45.5016Y-71.6670

G1X47.1821Y-72.2301

G1X48.8877Y-73.0060

G1X50.5758Y-73.9960

G1X52.0782Y-75.1154

G1X53.3156Y-76.3080

G1X54.3342Y-77.6164

G1X55.1592Y-79.0365

G1X55.7601Y-80.5072

G1X56.1082Y-81.9773

G1X56.1956Y-83.4469

G1X56.0324Y-85.0551

G1X55.6174Y-86.6323

G1X54.9681Y-88.0959

G1X54.4306Y-88.9648

G1X53.7211Y-89.8964

G1X52.0663Y-91.5677

G1X50.2181Y-92.9238

G1X48.1550Y-93.9897

G1X45.6430Y-94.8863

G1X43.0088Y-95.4612

G1X40.4261Y-95.6672

G1X37.7511Y-95.5600

G1X35.1295Y-95.1543

G1X32.7402Y-94.4651

G1X30.2950Y-93.3958

G1X28.0645Y-92.0486

G1X26.3487Y-90.6360

G1X24.8495Y-88.9449

G1X23.5997Y-86.9891

G1X22.7920Y-85.0515

G1X22.4440Y-83.4868

G1X22.3212Y-81.8544

G1X22.4242Y-80.2171

G1X22.7536Y-78.6374

G1X23.3260Y-77.1183

G1X24.1361Y-75.6313

G1X25.1532Y-74.2078

G1X26.3399Y-72.9010

G1X27.6705Y-71.7531

G1X29.2108Y-70.7057

G1X31.0046Y-69.7342

G1X32.8044Y-68.9697

G1X34.6154Y-68.3969

G1X36.4622Y-68.0035

G1X38.4942Y-67.7503

G1X40.5394Y-67.6666

G1X42.6151Y-67.7663

G1X44.6298Y-68.0716

G1X46.6403Y-68.5792

G1X48.6516Y-69.2980

G1X50.3047Y-70.0853

G1X51.7845Y-71.0089

G1X53.1785Y-72.1202

G1X54.4718Y-73.4273

G1X55.4684Y-74.7319

G1X56.2255Y-76.1069

G1X56.7823Y-77.6586

G1X57.0924Y-79.2673

G1X57.1461Y-80.7610

G1X56.9613Y-82.1791

G1X56.5043Y-83.6857

G1X55.8050Y-85.1650

G1X54.6368Y-86.8778

G1X53.1437Y-88.3874

G1X51.1829Y-89.8176

G1X48.9629Y-90.9953

G1X46.7162Y-91.8029

G1X44.2523Y-92.3451

G1X41.5821Y-92.6182

G1X39.0799Y-92.5721

G1X36.4756Y-92.1942

G1X33.9111Y-91.5123

G1X31.6487Y-90.6068

G1X29.5978Y-89.4358

G1X27.6347Y-87.9307

G1X25.9925Y-86.2413

G1X24.7729Y-84.4479

G1X23.8904Y-82.4945

G1X23.4532Y-80.9495

G1X23.2429Y-79.4162

G1X23.2754Y-77.8678

G1X23.5431Y-76.2783

G1X24.0673Y-74.6113

G1X24.7691Y-73.1248

G1X25.6647Y-71.7603

G1X26.8147Y-70.4236

G1X28.1612Y-69.1742

G1X29.6522Y-68.0587

G1X31.1991Y-67.1421

G1X32.9000Y-66.3636

G1X34.8341Y-65.6878

G1X36.9386Y-65.1617

G1X38.9295Y-64.8592

G1X40.9406Y-64.7547

G1X43.0028Y-64.8312

G1X45.1351Y-65.0970

G1X47.0504Y-65.5175

G1X48.8061Y-66.0960

G1X50.6190Y-66.9046

G1X52.3863Y-67.9260

G1X53.8556Y-69.0147

G1X55.0915Y-70.2134

G1X56.1250Y-71.5238

G1X57.0092Y-73.0140

G1X57.6329Y-74.5381

G1X57.9522Y-75.9473

G1X58.0449Y-77.5557

G1X57.8621Y-79.2791

G1X57.4323Y-80.8358

G1X56.7446Y-82.2942

G1X55.4876Y-84.0804

G1X53.8863Y-85.7055

G1X52.1976Y-86.9524

G1X50.1298Y-88.0527

G1X47.7311Y-88.9596

G1X45.3465Y-89.5361

G1X42.8795Y-89.8052

G1X40.1965Y-89.7906

G1X37.6741Y-89.4930

G1X35.3324Y-88.9169

G1X32.9117Y-87.9945

G1X30.6798Y-86.8109

G1X28.9338Y-85.5534

G1X27.2964Y-83.9557

G1X25.9388Y-82.1660

G1X24.9891Y-80.3800

G1X24.4857Y-78.8670

G1X24.1876Y-77.1594

G1X24.1428Y-75.4289

G1X24.3387Y-73.8461

G1X24.7887Y-72.2941

G1X25.4858Y-70.7588

G1X26.4598Y-69.1950

G1X27.5666Y-67.8369

G1X28.8320Y-66.6377

G1X30.4300Y-65.4533

G1X32.2123Y-64.4079

G1X34.0050Y-63.5845

G1X35.7849Y-62.9759

G1X37.7281Y-62.5169

G1X39.8556Y-62.2100

G1X41.8835Y-62.0933

G1X43.9591Y-62.1674

G1X46.0931Y-62.4672

G1X48.2016Y-62.9743

G1X50.1895Y-63.6612

G1X51.8609Y-64.4452

G1X53.4576Y-65.4359

G1X54.9938Y-66.6568

G1X56.2460Y-67.9247

G1X57.2699Y-69.2938

G1X58.0385Y-70.7553

G1X58.6070Y-72.4110

G1X58.8876Y-73.9925

G1X58.9088Y-75.4306

G1X58.6675Y-76.9589

G1X58.1742Y-78.4928

G1X57.4540Y-79.9667

G1X56.3038Y-81.5895

G1X54.7810Y-83.0927

G1X52.9505Y-84.4404

G1X50.9283Y-85.5435

G1X48.7502Y-86.3614

G1X46.2840Y-86.9595

G1X43.8440Y-87.2709

G1X41.4581Y-87.2944

G1X38.9213Y-87.0193

G1X36.4229Y-86.4664

G1X34.2029Y-85.6962

G1X32.1762Y-84.6833

G1X30.1236Y-83.3072

G1X28.4352Y-81.8055

G1X27.1238Y-80.2004

G1X26.0489Y-78.3244

G1X25.4259Y-76.7238

G1X25.0719Y-75.2128

G1X24.9591Y-73.6623

G1X25.0843Y-72.0503

G1X25.4659Y-70.3450

G1X26.0468Y-68.8125

G1X26.8445Y-67.3843

G1X27.9142Y-65.9667

G1X29.1963Y-64.6327

G1X30.6389Y-63.4353

G1X32.1366Y-62.4569

G1X33.9022Y-61.5650

G1X35.9181Y-60.7873

G1X38.0093Y-60.2041

G1X39.9758Y-59.8599

G1X42.0783Y-59.7050

G1X44.3299Y-59.7469

G1X46.4314Y-59.9763

G1X48.3461Y-60.3728

G1X50.2127Y-60.9660

G1X52.1055Y-61.7824

G1X53.9250Y-62.8076

G1X55.3881Y-63.8808

G1X56.6613Y-65.1044

G1X57.8163Y-66.5495

G1X58.7231Y-68.0777

G1X59.2882Y-69.4751

G1X59.6342Y-71.0500

G1X59.7222Y-72.7882

G1X59.5421Y-74.4060

G1X59.1159Y-75.9083

G1X58.3622Y-77.4713

G1X57.1322Y-79.2254

G1X55.6835Y-80.7231

G1X53.9874Y-81.9952

G1X51.9745Y-83.1076

G1X49.7726Y-83.9974

G1X47.5369Y-84.5965

G1X45.0544Y-84.9391

G1X42.4749Y-85.0084

G1X40.0598Y-84.8097

G1X37.7904Y-84.3465

G1X35.3389Y-83.5415

G1X33.1507Y-82.5253

G1X31.3301Y-81.3711

G1X29.6673Y-79.9574

G1X28.2356Y-78.3594

G1X27.1203Y-76.6653

G1X26.4380Y-75.1251

G1X25.9819Y-73.4515

G1X25.7759Y-71.7375

G1X25.8336Y-70.0578

G1X26.1622Y-68.4595

G1X26.7535Y-66.8582

G1X27.5774Y-65.3071

G1X28.6023Y-63.8707

G1X29.7901Y-62.6105

G1X31.3194Y-61.3489

G1X33.0441Y-60.2233

G1X34.7936Y-59.3264

G1X36.5398Y-58.6525

G1X38.5790Y-58.0934

G1X40.7119Y-57.7150

G1X42.8463Y-57.5323

G1X44.9368Y-57.5614

G1X47.1779Y-57.8252

G1X49.3830Y-58.3055

G1X51.3555Y-58.9432

G1X53.0760Y-59.7155

G1X54.7697Y-60.7212

G1X56.3111Y-61.8876

G1X57.6317Y-63.1612

G1X58.6536Y-64.4684

G1X59.5194Y-66.0082

G1X60.1373Y-67.6384

G1X60.4776Y-69.2800

G1X60.5203Y-70.8153

G1X60.2942Y-72.4032

G1X59.8185Y-73.9785

G1X59.1135Y-75.4709

G1X58.0692Y-76.9780

G1X56.6203Y-78.4848

G1X54.9009Y-79.8350

G1X53.1116Y-80.8915

G1X51.0613Y-81.7578

G1X48.7038Y-82.4429

G1X46.3699Y-82.8520

G1X44.0808Y-82.9864

G1X41.6295Y-82.8535

G1X39.1914Y-82.4631

G1X37.0005Y-81.8628

G1X35.0144Y-81.0521

G1X32.9365Y-79.9033

G1X31.0862Y-78.5534

G1X29.6316Y-77.1317

G1X28.4014Y-75.4873

G1X27.5267Y-73.8858

G1X26.9418Y-72.3345

G1X26.6281Y-70.8429

G1X26.5467Y-69.1515

G1X26.7236Y-67.4357

G1X27.1511Y-65.7704

G1X27.7986Y-64.2687

G1X28.7206Y-62.7837

G1X29.9448Y-61.2889

G1X31.2910Y-60.0025

G1X32.7211Y-58.9311

G1X34.4209Y-57.9442

G1X36.4849Y-57.0233

G1X38.5502Y-56.3442

G1X40.4984Y-55.9169

G1X42.6924Y-55.6671

G1X44.9465Y-55.6232

G1X47.1559Y-55.7845

G1X49.1012Y-56.1225

G1X51.0895Y-56.6837

G1X53.1936Y-57.5184

G1X55.0231Y-58.4859

G1X56.5569Y-59.5557

G1X57.9481Y-60.8264

G1X59.2031Y-62.3173

G1X60.1327Y-63.8024

G1X60.7690Y-65.3188

G1X61.1428Y-66.8982

G1X61.2721Y-68.6201

G1X61.1185Y-70.3028

G1X60.6843Y-71.8627

G1X59.9217Y-73.4877

G1X58.8248Y-75.1202

G1X57.4846Y-76.5743

G1X55.8508Y-77.8657

G1X53.9372Y-79.0057

G1X51.9534Y-79.8938

G1X49.8599Y-80.5455

G1X47.4942Y-80.9819

G1X45.0295Y-81.1704

G1X42.7082Y-81.1042

G1X40.4299Y-80.7739

G1X38.0441Y-80.1519

G1X35.8783Y-79.3278

G1X34.0731Y-78.3895

G1X32.3686Y-77.2059

G1X30.7619Y-75.7582

G1X29.4864Y-74.2568

G1X28.5697Y-72.7784

G1X27.8580Y-71.0807

G1X27.4157Y-69.2995

G1X27.2665Y-67.6191

G1X27.3966Y-65.9960

G1X27.8013Y-64.3549

G1X28.5006Y-62.6460

G1X29.3883Y-61.1313

G1X30.4794Y-59.7660

G1X31.9174Y-58.3978

G1X33.5776Y-57.1586

G1X35.2894Y-56.1546

G1X37.0831Y-55.3592

G1X39.0793Y-54.7152

G1X41.2813Y-54.2300

G1X43.3946Y-53.9684

G1X45.5748Y-53.9243

G1X47.8135Y-54.1093

G1X50.0228Y-54.5049

G1X52.0970Y-55.0926

G1X53.9668Y-55.8613

G1X55.7020Y-56.8124

G1X57.3676Y-57.9797

G1X58.7873Y-59.2626

G1X59.9383Y-60.6644

G1X60.8392Y-62.1622

G1X61.5354Y-63.8285

G1X61.9145Y-65.4041

G1X62.0076Y-66.9650

G1X61.8228Y-68.6794

G1X61.3616Y-70.3636

G1X60.6458Y-71.9246

G1X59.6240Y-73.4196

G1X58.3176Y-74.8411

G1X56.7966Y-76.1188

G1X55.0919Y-77.2045

G1X53.1311Y-78.1186

G1X50.9831Y-78.8436

G1X48.7622Y-79.3402

G1X46.6806Y-79.5698

G1X44.4328Y-79.5832

G1X42.0656Y-79.3653

G1X39.9010Y-78.9424

G1X37.8862Y-78.3062

G1X35.7187Y-77.3371

G1X33.8121Y-76.2040

G1X32.2275Y-74.9696

G1X30.8616Y-73.5471

G1X29.7650Y-72.0436

G1X28.9093Y-70.4590

G1X28.3600Y-68.9315

G1X28.0580Y-67.2576

G1X28.0254Y-65.4217

G1X28.2647Y-63.7098

G1X28.7548Y-62.1238

G1X29.5316Y-60.5596

G1X30.6294Y-58.9627

G1X31.8825Y-57.5697

G1X33.3227Y-56.3381

G1X34.9580Y-55.2645

G1X36.9684Y-54.2424

G1X38.9997Y-53.4675

G1X41.0166Y-52.9382

G1X43.2994Y-52.5950

G1X45.6515Y-52.4736

G1X47.8561Y-52.5701

G1X49.9283Y-52.8782

G1X52.0325Y-53.4189

G1X54.1468Y-54.1969

G1X56.0615Y-55.1524

G1X57.6614Y-56.2249

G1X59.1469Y-57.5204

G1X60.4774Y-59.0280

G1X61.4521Y-60.5255

G1X62.1406Y-62.1199

G1X62.5656Y-63.8202

G1X62.7127Y-65.5410

G1X62.5692Y-67.1875

G1X62.1042Y-68.8574

G1X61.3425Y-70.5080

G1X60.3258Y-72.0562

G1X59.0790Y-73.4372

G1X57.5011Y-74.7358

G1X55.6836Y-75.8846

G1X53.8185Y-76.7819

G1X51.9681Y-77.4214

G1X49.8192Y-77.9150

G1X47.4770Y-78.2112

G1X45.2596Y-78.2663

G1X43.1632Y-78.0921

G1X40.8292Y-77.6514

G1X38.6735Y-77.0122

G1X36.7895Y-76.2280

G1X35.0791Y-75.2638

G1X33.4036Y-74.0439

G1X32.0018Y-72.7466

G1X30.8481Y-71.3603

G1X29.9004Y-69.7740

G1X29.2022Y-68.0571

G1X28.7845Y-66.2955

G1X28.6754Y-64.6628

G1X28.8516Y-63.0021

G1X29.3269Y-61.2327

G1X30.0252Y-59.6280

G1X30.9711Y-58.1241

G1X32.1696Y-56.7292

G1X33.6837Y-55.3616

G1X35.3822Y-54.1615

G1X37.0427Y-53.2604

G1X38.9638Y-52.4810

G1X41.0275Y-51.8707

G1X43.1419Y-51.4549

G1X45.3235Y-51.2536

G1X47.6657Y-51.2907

G1X50.0170Y-51.5616

G1X52.2550Y-52.0515

G1X54.2415Y-52.7306

G1X56.1095Y-53.6121

G1X57.9213Y-54.7223

G1X59.4883Y-55.9675

G1X60.8053Y-57.3757

G1X61.8652Y-58.9053

G1X62.6721Y-60.5231

G1X63.1827Y-62.1566

G1X63.3845Y-63.8354

G1X63.2863Y-65.6707

G1X62.9092Y-67.3686

G1X62.2388Y-68.9983

G1X61.3099Y-70.4840

G1X60.1266Y-71.8999

G1X58.7452Y-73.1807

G1X57.2067Y-74.2723

G1X55.3993Y-75.2382

G1X53.3139Y-76.0724

G1X51.2402Y-76.6582

G1X49.1989Y-77.0016

G1X46.9864Y-77.1407

G1X44.7364Y-77.0691

G1X42.5570Y-76.7883

G1X40.6223Y-76.3266

G1X38.5834Y-75.6079

G1X36.5627Y-74.6451

G1X34.8422Y-73.5688

G1X33.3627Y-72.3440

G1X32.0892Y-70.9773

G1X30.9719Y-69.4123

G1X30.1821Y-67.8807

G1X29.6917Y-66.3816

G1X29.4140Y-64.6801

G1X29.4050Y-62.8556

G1X29.6716Y-61.1930

G1X30.2284Y-59.5773

G1X31.1194Y-57.8947

G1X32.2064Y-56.3905

G1X33.4097Y-55.1152

G1X34.8832Y-53.9215

G1X36.7650Y-52.7429

G1X38.7224Y-51.8016

G1X40.7257Y-51.0966

G1X42.8599Y-50.6063

G1X45.3156Y-50.3008

G1X47.6682Y-50.2448

G1X49.8544Y-50.4247

G1X52.1790Y-50.8772

G1X54.4349Y-51.5680

G1X56.4983Y-52.4596

G1X58.3401Y-53.5620

G1X59.9768Y-54.8559

G1X61.3850Y-56.2970

G1X62.5039Y-57.8432

G1X63.3155Y-59.5066

G1X63.8668Y-61.3794

G1X64.0738Y-63.1643

G1X63.9505Y-64.8832

G1X63.5010Y-66.6171

G1X62.7104Y-68.4017

G1X61.7620Y-69.8748

G1X60.5670Y-71.2209

G1X59.0561Y-72.5171

G1X57.2513Y-73.7153

G1X55.5032Y-74.5980

G1X53.6847Y-75.2666

G1X51.5105Y-75.8205

G1X49.3652Y-76.1508

G1X47.2516Y-76.2664

G1X45.1501Y-76.1587

G1X42.9160Y-75.8239

G1X40.7562Y-75.2814

G1X38.9326Y-74.6178

G1X37.1737Y-73.7424

G1X35.4335Y-72.6204

G1X33.9589Y-71.4144

G1X32.7153Y-70.1039

G1X31.7132Y-68.6811

G1X30.8766Y-67.0398

G1X30.3069Y-65.3389

G1X30.0463Y-63.7389

G1X30.0586Y-62.1611

G1X30.3366Y-60.4535

G1X30.8713Y-58.7899

G1X31.6310Y-57.2729

G1X32.6807Y-55.8031

G1X33.9879Y-54.4068

G1X35.4901Y-53.1456

G1X37.0133Y-52.1449

G1X38.7455Y-51.2746

G1X40.7442Y-50.5147

G1X42.7354Y-49.9654

G1X45.0205Y-49.5797

G1X47.3397Y-49.4555

G1X49.9200Y-49.5864

G1X52.3124Y-49.9627

G1X54.4309Y-50.5511

G1X56.5402Y-51.4094

G1X58.5862Y-52.5304

G1X60.2788Y-53.7584

G1X61.6958Y-55.1449

G1X62.9508Y-56.7958

G1X63.8579Y-58.4569

G1X64.4429Y-60.1751

G1X64.7024Y-62.0588

G1X64.6228Y-63.9798

G1X64.2070Y-65.8232

G1X63.4797Y-67.4863

G1X62.5597Y-68.9360

G1X61.3560Y-70.3733

G1X60.0492Y-71.5758

G1X58.5772Y-72.6138

G1X56.8205Y-73.5764

G1X54.8249Y-74.4108

G1X52.8672Y-74.9966

G1X50.8501Y-75.3673

G1X48.6232Y-75.5532

G1X46.4806Y-75.5350

G1X44.4174Y-75.3220

G1X42.5227Y-74.9264

G1X40.4400Y-74.2715

G1X38.4694Y-73.4240

G1X36.7865Y-72.4712

G1X35.2202Y-71.2980

G1X33.8771Y-70.0044

G1X32.7340Y-68.5980

G1X31.8457Y-67.1376

G1X31.2395Y-65.6632

G1X30.8319Y-63.9847

G1X30.6839Y-62.2748

G1X30.8079Y-60.6116

G1X31.2089Y-59.0291

G1X31.8770Y-57.4475

G1X32.8378Y-55.8446

G1X33.9484Y-54.4687

G1X35.1973Y-53.2927

G1X36.8207Y-52.0944

G1X38.7168Y-51.0026

G1X40.6206Y-50.1752

G1X42.5763Y-49.5771

G1X45.0824Y-49.0929

G1X47.6342Y-48.8787

G1X49.9212Y-48.9414

G1X52.3534Y-49.2863

G1X54.8332Y-49.9184

G1X57.0182Y-50.7519

G1X59.0016Y-51.8288

G1X60.9185Y-53.2293

G1X62.4767Y-54.7367

G1X63.6435Y-56.2891

G1X64.5815Y-58.1330

G1X65.1782Y-60.0776

G1X65.3897Y-61.9060

G1X65.2330Y-63.7455

G1X64.6985Y-65.6978

G1X63.8746Y-67.4564

G1X62.8925Y-68.8814

G1X61.6301Y-70.2390

G1X60.1432Y-71.4873

G1X58.5001Y-72.5684

G1X56.8379Y-73.3993

G1X54.8836Y-74.1195

G1X52.8004Y-74.6614

G1X50.6840Y-74.9997

G1X48.6026Y-75.1127

G1X46.4595Y-75.0124

G1X44.3173Y-74.7133

G1X42.2722Y-74.2281

G1X40.4913Y-73.6026

G1X38.7109Y-72.7553

G1X37.0427Y-71.7391

G1X35.5577Y-70.5968

G1X34.3188Y-69.3648

G1X33.1938Y-67.8715

G1X32.3009Y-66.2527

G1X31.7101Y-64.6794

G1X31.4057Y-63.1842

G1X31.3435Y-61.6011

G1X31.5368Y-59.8924

G1X31.9543Y-58.3277

G1X32.6202Y-56.8182

G1X33.5602Y-55.3522

G1X34.7422Y-53.9517

G1X36.1135Y-52.6766

G1X37.5797Y-51.6125

G1X39.1882Y-50.7103

G1X41.0552Y-49.8967

G1X42.9219Y-49.2814

G1X44.9977Y-48.8151

G1X47.1610Y-48.5698

G1X49.5106Y-48.5347

G1X51.8323Y-48.7238

G1X53.8618Y-49.0985

G1X55.8383Y-49.6854

G1X57.8460Y-50.5095

G1X59.6918Y-51.5054

G1X61.2744Y-52.6244

G1X62.6442Y-53.8954

G1X63.8894Y-55.3929

G1X64.8699Y-56.9762

G1X65.4982Y-58.4733

G1X65.8919Y-60.1478

G1X66.0179Y-61.8754

G1X65.8874Y-63.4766

G1X65.4895Y-65.0524

G1X64.7824Y-66.6588

G1X63.7486Y-68.2942

G1X62.5457Y-69.7097

G1X61.1733Y-70.9260

G1X59.5434Y-72.0352

G1X57.6372Y-73.0408

G1X55.7224Y-73.8000

G1X53.7255Y-74.3416

G1X51.6184Y-74.6855

G1X49.3509Y-74.8395

G1X47.2300Y-74.7805

G1X45.2395Y-74.5180

G1X43.1261Y-74.0201

G1X41.0895Y-73.3241

G1X39.2270Y-72.4602

G1X37.5076Y-71.3821

G1X35.9049Y-70.0649

G1X34.5285Y-68.5986

G1X33.4466Y-67.0389

G1X32.6771Y-65.3842

G1X32.1608Y-63.5189

G1X31.9744Y-61.6378

G1X32.1251Y-59.9234

G1X32.5939Y-58.1987

G1X33.3983Y-56.4174

G1X34.4163Y-54.8559

G1X35.6991Y-53.4359

G1X37.3935Y-52.0243

G1X39.3195Y-50.7969

G1X41.2492Y-49.8788

G1X43.4071Y-49.1601

G1X45.6217Y-48.6699

G1X47.7719Y-48.4024

G1X49.7679Y-48.3472

G1X51.8844Y-48.4998

G1X54.2084Y-48.8946

G1X56.3296Y-49.4744

G1X58.1560Y-50.1892

G1X59.9996Y-51.1682

G1X61.7038Y-52.3363

G1X63.1879Y-53.6364

G1X64.3393Y-54.9638

G1X65.2922Y-56.4530

G1X66.0559Y-58.1387

G1X66.5303Y-59.8534

G1X66.6842Y-61.4713

G1X66.5399Y-63.2546

G1X66.0993Y-65.0277

G1X65.4294Y-66.6100

G1X64.5235Y-68.0508

G1X63.3070Y-69.4808

G1X61.7850Y-70.8606

G1X60.1785Y-71.9856

G1X58.3867Y-72.9248

G1X56.4073Y-73.6966

G1X54.3191Y-74.2803

G1X52.2186Y-74.6446

G1X50.0231Y-74.7805

G1X47.7538Y-74.6944

G1X45.5225Y-74.3949

G1X43.5108Y-73.9121

G1X41.5725Y-73.2099

G1X39.6232Y-72.2557

G1X37.7795Y-71.0723

G1X36.3023Y-69.8151

G1X35.0043Y-68.3315

G1X33.8993Y-66.6142

G1X33.1572Y-64.9245

G1X32.7682Y-63.3241

G1X32.6481Y-61.5081

G1X32.8319Y-59.6827

G1X33.2813Y-58.0378

G1X34.0474Y-56.4182

G1X35.1740Y-54.7645

G1X36.5656Y-53.2418

G1X38.0308Y-52.0264

G1X39.8417Y-50.8957

G1X41.8737Y-49.9329

G1X43.9210Y-49.2162

G1X45.9484Y-48.7438

G1X48.2372Y-48.4630

G1X50.5902Y-48.4049

G1X52.8879Y-48.5733

G1X54.9543Y-48.9505

G1X57.0422Y-49.5598

G1X59.0388Y-50.3640

G1X60.8498Y-51.3274

G1X62.4220Y-52.4345

G1X63.8858Y-53.7715

G1X65.1352Y-55.2435

G1X66.1068Y-56.7814

G1X66.7631Y-58.3347

G1X67.1780Y-60.0091

G1X67.3330Y-61.7131

G1X67.2165Y-63.3689

G1X66.8233Y-64.9422

G1X66.1164Y-66.6042

G1X65.1513Y-68.1877

G1X63.9778Y-69.6056

G1X62.5685Y-70.8740

G1X60.9163Y-72.0286

G1X59.0094Y-73.0625

G1X57.1376Y-73.8161

G1X55.0436Y-74.3906

G1X52.8181Y-74.7650

G1X50.5717Y-74.9235

G1X48.4869Y-74.8577

G1X46.2642Y-74.5473

G1X44.0677Y-74.0116

G1X42.0082Y-73.2784

G1X40.2358Y-72.4031

G1X38.5810Y-71.3215

G1X37.0128Y-70.0075

G1X35.7609Y-68.6522

G1X34.7705Y-67.1915

G1X33.9879Y-65.5151

G1X33.4826Y-63.7592

G1X33.2852Y-62.0141

G1X33.4027Y-60.3793

G1X33.8337Y-58.6147

G1X34.5512Y-56.9027

G1X35.4583Y-55.4252

G1X36.6841Y-53.9894

G1X38.2639Y-52.5829

G1X39.9668Y-51.4067

G1X41.7402Y-50.4743

G1X43.8521Y-49.6727

G1X46.0295Y-49.0975

G1X48.2529Y-48.7378

G1X50.3368Y-48.6183

G1X52.5769Y-48.7189

G1X54.9208Y-49.0527

G1X57.0538Y-49.5756

G1X59.0217Y-50.2981

G1X60.8734Y-51.2239

G1X62.6682Y-52.3813

G1X64.2195Y-53.6729

G1X65.4288Y-55.0107

G1X66.4676Y-56.5454

G1X67.3006Y-58.2643

G1X67.7973Y-59.9077

G1X67.9923Y-61.5756

G1X67.9080Y-63.3088

G1X67.5256Y-65.1187

G1X66.9072Y-66.7025

G1X65.9808Y-68.2513

G1X64.7060Y-69.8115

G1X63.2756Y-71.1541

G1X61.7378Y-72.2639

G1X59.9299Y-73.2485

G1X57.8381Y-74.1033

G1X55.7537Y-74.7115

G1X53.7011Y-75.0784

G1X51.3916Y-75.2380

G1X49.0408Y-75.1668

G1X46.8679Y-74.8855

G1X44.8293Y-74.3907

G1X42.7859Y-73.6510

G1X40.8623Y-72.7147

G1X39.1558Y-71.6259

G1X37.6853Y-70.3747

G1X36.3144Y-68.8274

G1X35.2702Y-67.2402

G1X34.5644Y-65.6898

G1X34.1391Y-64.0485

G1X33.9801Y-62.2304

G1X34.1093Y-60.5235

G1X34.5068Y-58.9284

G1X35.2584Y-57.2423

G1X36.3113Y-55.6097

G1X37.5362Y-54.1902

G1X38.9335Y-52.9654

G1X40.5570Y-51.8737

G1X42.4603Y-50.8782

G1X44.3785Y-50.1188

G1X46.3837Y-49.5690

G1X48.6837Y-49.1978

G1X51.0563Y-49.0517

G1X53.2799Y-49.1321

G1X55.3695Y-49.4307

G1X57.4777Y-49.9513

G1X59.5993Y-50.7023

G1X61.4440Y-51.5844

G1X63.0745Y-52.6222

G1X64.6726Y-53.9381

G1X65.9879Y-55.3242

G1X67.0408Y-56.7809

G1X67.8190Y-58.3188

G1X68.3872Y-60.0809

G1X68.6575Y-61.7816

G1X68.6508Y-63.4377

G1X68.3551Y-65.0616

G1X67.7474Y-66.7854

G1X66.8724Y-68.4304

G1X65.7953Y-69.8800

G1X64.4361Y-71.2308

G1X62.7459Y-72.5262

G1X60.8776Y-73.6303

G1X58.9773Y-74.4600

G1X56.8863Y-75.0980

G1X54.5752Y-75.5522

G1X52.3579Y-75.7608

G1X50.2636Y-75.7347

G1X47.9069Y-75.4553

G1X45.6024Y-74.9376

G1X43.5659Y-74.2427

G1X41.6205Y-73.2934

G1X39.8795Y-72.1673

G1X38.3394Y-70.8882

G1X37.1780Y-69.6358

G1X36.1840Y-68.1818

G1X35.3740Y-66.5052

G1X34.8509Y-64.7745

G1X34.6534Y-63.1542

G1X34.7516Y-61.4718

G1X35.1589Y-59.6756

G1X35.8100Y-58.0502

G1X36.6590Y-56.6295

G1X37.8353Y-55.1981

G1X39.3361Y-53.7970

G1X40.9420Y-52.6326

G1X42.6609Y-51.6871

G1X44.6898Y-50.8613

G1X46.8648Y-50.2277

G1X48.9784Y-49.8336

G1X51.0618Y-49.6670

G1X53.3202Y-49.7107

G1X55.5760Y-49.9658

G1X57.7215Y-50.4232

G1X59.6446Y-51.0590

G1X61.6286Y-51.9597

G1X63.4652Y-53.0450

G1X64.9924Y-54.2049

G1X66.2945Y-55.5026

G1X67.4279Y-56.9807

G1X68.3727Y-58.6436

G1X68.9822Y-60.2427

G1X69.3031Y-61.8913

G1X69.3578Y-63.6084

G1X69.1298Y-65.4142

G1X68.6190Y-67.0997

G1X67.7463Y-68.8064

G1X66.5586Y-70.4467

G1X65.2011Y-71.8629

G1X63.6584Y-73.0811

G1X61.7788Y-74.1964

G1X59.7017Y-75.1258

G1X57.5390Y-75.8186

G1X55.4177Y-76.2349

G1X52.9893Y-76.4453

G1X50.5473Y-76.4059

G1X48.4004Y-76.1442

G1X46.3105Y-75.6485

G1X44.1731Y-74.8960

G1X42.1992Y-73.9478

G1X40.5642Y-72.8970

G1X39.0620Y-71.6175

G1X37.7593Y-70.1756

G1X36.7214Y-68.6442

G1X36.0324Y-67.1646

G1X35.5723Y-65.5104

G1X35.3769Y-63.8010

G1X35.4572Y-62.1181

G1X35.8154Y-60.5463

G1X36.4909Y-58.9026

G1X37.4357Y-57.3173

G1X38.6069Y-55.8692

G1X39.9456Y-54.6342

G1X41.5755Y-53.4728

G1X43.3893Y-52.4625

G1X45.3049Y-51.6538

G1X47.2742Y-51.0754

G1X49.4708Y-50.6661

G1X51.7270Y-50.4622

G1X53.8383Y-50.4726

G1X55.9375Y-50.7009

G1X58.1576Y-51.1675

G1X60.1995Y-51.8047

G1X62.0718Y-52.6050

G1X63.7734Y-53.5823

G1X65.4452Y-54.8211

G1X66.8424Y-56.1355

G1X67.9860Y-57.5279

G1X68.8768Y-59.0254

G1X69.5441Y-60.6436

G1X69.9640Y-62.3095

G1X70.1129Y-63.9503

G1X69.9576Y-65.6881

G1X69.4660Y-67.5440

G1X68.7204Y-69.2322

G1X67.7038Y-70.8022

G1X66.3437Y-72.3073

G1X64.7094Y-73.6872

G1X62.8911Y-74.8678

G1X60.9496Y-75.7951

G1X58.7518Y-76.5390

G1X56.4375Y-77.0588

G1X54.2311Y-77.3170

G1X51.9283Y-77.3241

G1X49.4759Y-77.0694

G1X47.1141Y-76.5671

G1X45.0581Y-75.8704

G1X43.0908Y-74.9211

G1X41.3569Y-73.8248

G1X39.8457Y-72.5949

G1X38.6369Y-71.2895

G1X37.6374Y-69.8389

G1X36.8232Y-68.1971

G1X36.3233Y-66.6195

G1X36.1094Y-65.0043

G1X36.1776Y-63.3067

G1X36.5175Y-61.6133

G1X37.1173Y-60.0059

G1X37.9659Y-58.5379

G1X39.1363Y-57.0623

G1X40.5411Y-55.6999

G1X42.1170Y-54.5201

G1X43.8693Y-53.5358

G1X45.8243Y-52.7068

G1X47.8977Y-52.0625

G1X49.8961Y-51.6532

G1X52.0543Y-51.4449

G1X54.3012Y-51.4451

G1X56.5320Y-51.6505

G1X58.5565Y-52.0361

G1X60.5246Y-52.6325

G1X62.5361Y-53.4735

G1X64.3156Y-54.4404

G1X65.8892Y-55.5385

G1X67.2749Y-56.8028

G1X68.5482Y-58.3100

G1X69.5235Y-59.8335

G1X70.2289Y-61.3980

G1X70.6606Y-63.0480

G1X70.8323Y-64.7710

G1X70.7128Y-66.6862

G1X70.3007Y-68.3751

G1X69.5102Y-70.1538

G1X68.3385Y-71.9471

G1X67.0370Y-73.4130

G1X65.4802Y-74.7169

G1X63.6049Y-75.9041

G1X61.4471Y-76.9338

G1X59.3291Y-77.6506

G1X57.0814Y-78.1217

G1X54.6169Y-78.3704

G1X52.1736Y-78.3600

G1X49.9974Y-78.1040

G1X47.6975Y-77.5674

G1X45.4952Y-76.7945

G1X43.5174Y-75.8267

G1X41.9625Y-74.7953

G1X40.4683Y-73.5162

G1X39.1926Y-72.1068

G1X38.2426Y-70.7031

G1X37.5248Y-69.1441

G1X37.0579Y-67.4784

G1X36.8598Y-65.7871

G1X36.9346Y-64.2485

G1X37.2949Y-62.6594

G1X37.9242Y-61.0712

G1X38.7911Y-59.5549

G1X39.9103Y-58.1309

G1X41.3009Y-56.8222

G1X42.9400Y-55.6256

G1X44.7467Y-54.5980

G1X46.5951Y-53.8117

G1X48.5669Y-53.2212

G1X50.6658Y-52.8040

G1X52.8002Y-52.5774

G1X54.8855Y-52.5587

G1X56.9983Y-52.7553

G1X59.2187Y-53.1752

G1X61.2498Y-53.7610

G1X63.1466Y-54.5292

G1X64.8696Y-55.4680

G1X66.5579Y-56.6421

G1X67.9744Y-57.8842

G1X69.1732Y-59.2423

G1X70.1316Y-60.7129

G1X70.9137Y-62.3916

G1X71.4231Y-64.1156

G1X71.6242Y-65.7273

G1X71.5193Y-67.5957

G1X71.0881Y-69.4725

G1X70.3561Y-71.2548

G1X69.3403Y-72.8662

G1X67.8996Y-74.5031

G1X66.1810Y-75.9750

G1X64.3995Y-77.1256

G1X62.3523Y-78.0890

G1X60.0072Y-78.8753

G1X57.6923Y-79.3779

G1X55.4115Y-79.6025

G1X52.9512Y-79.5688

G1X50.5117Y-79.2791

G1X48.2146Y-78.7395

G1X46.0806Y-77.9420

G1X43.9746Y-76.8492

G1X42.3471Y-75.7382

G1X40.9661Y-74.4968

G1X39.7742Y-73.0636

G1X38.8116Y-71.5050

G1X38.1269Y-69.8977

G1X37.7721Y-68.4014

G1X37.6626Y-66.7933

G1X37.8186Y-65.0642

G1X38.2172Y-63.4929

G1X38.8713Y-62.0072

G1X39.8284Y-60.5107

G1X41.1014Y-59.0200

G1X42.4192Y-57.8268

G1X43.9297Y-56.7754

G1X45.6767Y-55.8388

G1X47.6766Y-55.0199

G1X49.6539Y-54.4342

G1X51.6882Y-54.0599

G1X53.9031Y-53.8789

G1X56.1577Y-53.9026

G1X58.2509Y-54.1180

G1X60.2118Y-54.5220

G1X62.1934Y-55.1390

G1X64.1877Y-55.9787

G1X65.9208Y-56.9278

G1X67.4568Y-58.0226

G1X68.8329Y-59.2825

G1X70.0919Y-60.7519

G1X71.0485Y-62.2160

G1X71.7003Y-63.6180

G1X72.1631Y-65.1884

G1X72.4061Y-66.9167

G1X72.3628Y-68.8266

G1X71.9533Y-70.7008

G1X71.1816Y-72.5428

G1X70.0366Y-74.3776

G1X68.7141Y-75.8974

G1X67.0766Y-77.2771

G1X65.0825Y-78.5507

G1X63.0195Y-79.5383

G1X60.8645Y-80.2546

G1X58.4748Y-80.7496

G1X56.0180Y-80.9936

G1X53.6240Y-80.9671

G1X51.1858Y-80.6416

G1X48.7820Y-80.0408

G1X46.5606Y-79.2042

G1X44.6953Y-78.2029

G1X43.1675Y-77.1218

G1X41.7355Y-75.8341

G1X40.6133Y-74.5290

G1X39.7671Y-73.1892

G1X39.0690Y-71.5916

G1X38.6283Y-69.9263

G1X38.4697Y-68.2735

G1X38.5948Y-66.7592

G1X39.0044Y-65.1219

G1X39.6731Y-63.5217

G1X40.5153Y-62.1173

G1X41.6082Y-60.7919

G1X42.9999Y-59.5028

G1X44.6859Y-58.2830

G1X46.4242Y-57.3134

G1X48.2140Y-56.5750

G1X50.1419Y-55.9971

G1X52.2618Y-55.5680

G1X54.2880Y-55.3489

G1X56.2784Y-55.3298

G1X58.4250Y-55.5123

G1X60.6566Y-55.9103

G1X62.6741Y-56.4732

G1X64.5370Y-57.2166

G1X66.2822Y-58.1385

G1X67.9837Y-59.2774

G1X69.4015Y-60.4747

G1X70.5983Y-61.7853

G1X71.6546Y-63.3283

G1X72.4756Y-64.9775

G1X72.9994Y-66.5643

G1X73.2550Y-68.1879

G1X73.2181Y-70.1112

G1X72.8233Y-72.1284

G1X72.1318Y-73.9173

G1X71.0741Y-75.6417

G1X69.6091Y-77.3534

G1X67.8768Y-78.8627

G1X65.9876Y-80.0680

G1X63.8044Y-81.0842

G1X61.4637Y-81.8604

G1X59.1104Y-82.3441

G1X56.5867Y-82.5445

G1X53.9071Y-82.4556

G1X51.5420Y-82.1106

G1X49.2829Y-81.4879

G1X46.9860Y-80.5382

G1X44.9942Y-79.4081

G1X43.5245Y-78.2942

G1X42.2068Y-76.9737

G1X41.0939Y-75.5108

G1X40.2386Y-73.9764

G1X39.6927Y-72.4512

G1X39.4133Y-70.8685

G1X39.3802Y-69.2439

G1X39.5951Y-67.6493

G1X40.0457Y-66.1854

G1X40.8237Y-64.6233

G1X41.8682Y-63.1168

G1X43.1301Y-61.7384

G1X44.4836Y-60.6120

G1X46.0381Y-59.6096

G1X47.8590Y-58.6895

G1X49.6916Y-57.9813

G1X51.6160Y-57.4568

G1X53.7695Y-57.1077

G1X56.0136Y-56.9585

G1X58.1443Y-57.0093

G1X60.1097Y-57.2437

G1X62.1174Y-57.6874

G1X64.0930Y-58.3191

G1X65.9564Y-59.1120

G1X67.6544Y-60.0566

G1X69.1720Y-61.1549

G1X70.6244Y-62.4859

G1X71.8032Y-63.8545

G1X72.6917Y-65.1952

G1X73.3850Y-66.6648

G1X73.8702Y-68.2319

G1X74.1340Y-69.8347

G1X74.1327Y-71.7942

G1X73.7457Y-73.6988

G1X72.9529Y-75.6885

G1X71.8218Y-77.5423

G1X70.4819Y-79.0773

G1X68.7182Y-80.5668

G1X66.7943Y-81.8032

G1X64.6875Y-82.8035

G1X62.3345Y-83.5575

G1X59.8214Y-84.0551

G1X57.4070Y-84.2644

G1X55.0083Y-84.1858

G1X52.4639Y-83.8051

G1X49.9415Y-83.1222

G1X47.8461Y-82.2500

G1X45.7852Y-81.0320

G1X44.2589Y-79.8473

G1X43.0309Y-78.6288

G1X42.0129Y-77.2761

G1X41.2203Y-75.8191

G1X40.6205Y-74.1898

G1X40.3119Y-72.6489

G1X40.2734Y-71.1244

G1X40.4943Y-69.5526

G1X40.9935Y-67.8961

G1X41.6939Y-66.4205

G1X42.6059Y-65.0774

G1X43.7904Y-63.7678

G1X45.2682Y-62.4903

G1X46.8234Y-61.4349

G1X48.4808Y-60.5754

G1X50.4280Y-59.8251

G1X52.4122Y-59.2720

G1X54.4402Y-58.9016

G1X56.3233Y-58.7400

G1X58.3348Y-58.7550

G1X60.5799Y-58.9722

G1X62.6623Y-59.3669

G1X64.5468Y-59.9182

G1X66.3696Y-60.6644

G1X68.2032Y-61.6384

G1X69.7933Y-62.7035

G1X71.1082Y-63.8105

G1X72.2926Y-65.0947

G1X73.3629Y-66.6011

G1X74.2031Y-68.1920

G1X74.7710Y-69.7995

G1X75.0475Y-71.3502

G1X75.0613Y-73.4679

G1X74.7144Y-75.4528

G1X74.0432Y-77.2521

G1X72.9382Y-79.1019

G1X71.4958Y-80.8295

G1X69.8213Y-82.3116

G1X67.7824Y-83.6149

G1X65.4657Y-84.6958

G1X63.1285Y-85.4595

G1X60.6888Y-85.9236

G1X58.0196Y-86.1072

G1X55.3728Y-85.9899

G1X53.0122Y-85.5931

G1X50.6328Y-84.8792

G1X48.3995Y-83.9054

G1X46.4203Y-82.7024

G1X45.0591Y-81.5812

G1X43.7871Y-80.2357

G1X42.7954Y-78.8731

G1X42.0487Y-77.4608

G1X41.5440Y-75.9413

G1X41.2783Y-74.3408

G1X41.2597Y-72.7307

G1X41.4952Y-71.1862

G1X42.0175Y-69.6418

G1X42.8102Y-68.1116

G1X43.8342Y-66.6643

G1X44.9739Y-65.4395

G1X46.3660Y-64.2982

G1X48.0710Y-63.2087

G1X49.8438Y-62.3243

G1X51.6930Y-61.6299

G1X53.5829Y-61.1430

G1X55.6968Y-60.8070

G1X57.8608Y-60.6590

G1X59.8830Y-60.7031

G1X61.8764Y-60.9433

G1X63.8954Y-61.3795

G1X65.8606Y-61.9899

G1X67.6923Y-62.7526

G1X69.3463Y-63.6625

G1X70.9508Y-64.7981

G1X72.3979Y-66.0849

G1X73.5669Y-67.3948

G1X74.4873Y-68.7459

G1X75.2120Y-70.2150

G1X75.7357Y-71.7642

G1X76.0407Y-73.3352

G1X76.0878Y-75.2523

G1X75.7263Y-77.2929

G1X74.9840Y-79.3021

G1X73.9082Y-81.1493

G1X72.4747Y-82.8250

G1X70.6114Y-84.4248

G1X68.5988Y-85.7164

G1X66.4563Y-86.6990

G1X63.9265Y-87.4857

G1X61.2965Y-87.9741

G1X58.8022Y-88.1245

G1X56.2340Y-87.9647

G1X53.7097Y-87.5213

G1X51.3600Y-86.8066

G1X49.0990Y-85.7487

G1X47.0379Y-84.4110

G1X45.6472Y-83.2181

G1X44.5295Y-81.9465

G1X43.5720Y-80.4728

G1X42.8497Y-78.9069

G1X42.4177Y-77.4144

G1X42.2508Y-75.9907

G1X42.3247Y-74.3952

G1X42.6486Y-72.7957

G1X43.2105Y-71.2632

G1X43.9537Y-69.9272

G1X45.0119Y-68.5428

G1X46.2996Y-67.2401

G1X47.6767Y-66.1375

G1X49.1947Y-65.1902

G1X50.8706Y-64.3890

G1X52.7944Y-63.6891

G1X54.7000Y-63.1871

G1X56.6019Y-62.8707

G1X58.5803Y-62.7369

G1X60.7307Y-62.7828

G1X62.8666Y-63.0156

G1X64.8042Y-63.4071

G1X66.6377Y-63.9723

G1X68.4461Y-64.7225

G1X70.2415Y-65.6749

G1X71.7756Y-66.7011

G1X73.0555Y-67.7875

G1X74.2553Y-69.0779

G1X75.3380Y-70.5660

G1X76.1428Y-72.0311

G1X76.7118Y-73.5493

G1X77.0362Y-75.1233

G1X77.1202Y-77.2536

G1X77.0087Y-78.3556

G1X76.8143Y-79.3266

G1X76.5067Y-80.3216

G1X76.0944Y-81.2964

G1X74.9766Y-83.2020

G1X73.5378Y-84.9481

G1X71.8516Y-86.4274

G1X69.7492Y-87.7722

G1X67.4152Y-88.8675

G1X65.1233Y-89.6052

G1X62.5454Y-90.0791

G1X59.7694Y-90.2584

G1X57.1834Y-90.1165

G1X54.5701Y-89.6174

G1X52.0366Y-88.7918

G1X49.8518Y-87.7502

G1X47.9846Y-86.4823

G1X46.6749Y-85.3126

G1X45.5489Y-84.0396

G1X44.6565Y-82.7137

G1X44.0194Y-81.3584

G1X43.5561Y-79.7982

G1X43.3349Y-78.1980

G1X43.3699Y-76.6288

G1X43.6684Y-75.1368

G1X44.2215Y-73.6385

G1X45.0014Y-72.1839

G1X45.9793Y-70.8345

G1X47.1155Y-69.6540

G1X48.5690Y-68.4843

G1X50.3094Y-67.3855

G1X52.0891Y-66.5176

G1X53.8499Y-65.8859

G1X55.7801Y-65.4032

G1X57.8060Y-65.0820

G1X59.8482Y-64.9362

G1X61.7381Y-64.9728

G1X63.7517Y-65.2022

G1X65.8719Y-65.6389

G1X67.8153Y-66.2234

G1X69.6129Y-66.9587

G1X71.2492Y-67.8443

G1X72.8761Y-68.9577

G1X74.3368Y-70.2064

G1X75.5089Y-71.4702

G1X76.4896Y-72.8655

G1X77.2492Y-74.3241

G1X77.8116Y-75.8475

G1X78.1551Y-77.3807

G1X78.2536Y-78.4230

G1X78.2419Y-79.4061

G1X77.9131Y-81.5099

G1X77.2034Y-83.5527

G1X76.6924Y-84.5518

G1X76.1294Y-85.4291

G1X74.5936Y-87.2413

G1X72.7150Y-88.8678

G1X70.7531Y-90.1213

G1X68.4253Y-91.1701

G1X65.7825Y-91.9768

G1X63.2066Y-92.4269

G1X60.6026Y-92.5365

G1X57.8445Y-92.3236

G1X55.3261Y-91.8237

G1X53.0131Y-91.0275

G1X50.7014Y-89.8600

G1X48.6897Y-88.4517

G1X47.4764Y-87.2978

G1X46.3820Y-85.9226

G1X45.5018Y-84.4367

G1X44.8771Y-82.9081

G1X44.5581Y-81.5110

G1X44.4624Y-80.0053

G1X44.6100Y-78.3720

G1X44.9772Y-76.8807

G1X45.5835Y-75.4446

G1X46.4476Y-74.0512

G1X47.5431Y-72.7130

G1X48.8241Y-71.4858

G1X50.1377Y-70.4957

G1X51.7071Y-69.5785

G1X53.4578Y-68.7814

G1X55.3194Y-68.1346

G1X57.2211Y-67.6681

G1X59.1690Y-67.3937

G1X61.2008Y-67.2923

G1X63.3598Y-67.3684

G1X65.2610Y-67.5988

G1X67.1039Y-67.9966

G1X68.9639Y-68.5849

G1X70.7661Y-69.3361

G1X72.4445Y-70.2228

G1X73.9619Y-71.2395

G1X75.3058Y-72.3899

G1X76.5107Y-73.6795

G1X77.5352Y-75.0597

G1X78.3379Y-76.4814

G1X78.8782Y-77.8637

G1X79.2545Y-79.4537

G1X79.3844Y-80.5720

G1X79.4070Y-81.6875

G1X79.3201Y-82.7799

G1X79.1467Y-83.7266

G1X78.8526Y-84.7361

G1X78.4090Y-85.8379

G1X77.9001Y-86.8309

G1X77.2449Y-87.8758

G1X75.8127Y-89.6190

G1X74.0760Y-91.1236

G1X71.8406Y-92.5499

G1X69.5052Y-93.6277

G1X67.0520Y-94.3664

G1X64.3244Y-94.8254

G1X61.5880Y-94.9577

G1X59.1011Y-94.7593

G1X56.3875Y-94.1901

G1X53.8496Y-93.3082

G1X51.7411Y-92.2106

G1X49.7380Y-90.7341

G1X48.5132Y-89.5471

G1X47.5083Y-88.2952

G1X46.7491Y-86.9997

G1X46.1368Y-85.4785

G1X45.7614Y-83.9007

G1X45.6426Y-82.4324

G1X45.7637Y-81.0114

G1X46.1493Y-79.4723

G1X46.7761Y-77.9556

G1X47.5607Y-76.6125

G1X48.5291Y-75.3838

G1X49.7700Y-74.1808

G1X51.3009Y-73.0109

G1X52.8993Y-72.0447

G1X54.5501Y-71.2754

G1X56.3996Y-70.6446

G1X58.3880Y-70.1676

G1X60.3320Y-69.8740

G1X62.1592Y-69.7536

G1X64.0410Y-69.8009

G1X66.0670Y-70.0291

G1X68.1723Y-70.4520

G1X70.0764Y-71.0161

G1X71.8241Y-71.7306

G1X73.4806Y-72.6128

G1X75.0349Y-73.6423

G1X76.4308Y-74.7819

G1X77.6343Y-76.0201

G1X78.6205Y-77.3399

G1X79.4838Y-78.8609

G1X80.1275Y-80.4436

G1X80.5055Y-81.9342

G1X80.6241Y-82.8958

G1X80.6469Y-83.9951

G1X80.5589Y-85.1104

G1X80.3639Y-86.2217

G1X80.0655Y-87.3087

G1X79.6675Y-88.3514

G1X78.6307Y-90.1941

G1X77.0935Y-92.0694

G1X75.2332Y-93.7258

G1X73.1691Y-95.0458

G1X70.7814Y-96.1284

G1X68.2292Y-96.9221

G1X65.6803Y-97.3668

G1X62.8275Y-97.4830

G1X59.9894Y-97.2504

G1X57.4706Y-96.7062

G1X55.0310Y-95.8099

G1X52.7062Y-94.5765

G1X51.6851Y-93.8740

G1X50.8454Y-93.1825

G1X49.6855Y-91.9999

G1X48.6352Y-90.6142

G1X47.8575Y-89.2438

G1X47.3154Y-87.8395

G1X47.0142Y-86.3741

G1X46.9398Y-84.7485

G1X47.1016Y-83.2313

G1X47.4878Y-81.7839

G1X48.1005Y-80.4189

G1X49.0023Y-78.9898

G1X50.1206Y-77.6422

G1X51.3326Y-76.5022

G1X52.7244Y-75.4886

G1X54.3617Y-74.5555

G1X56.1497Y-73.7584

G1X57.9188Y-73.1602

G1X59.7576Y-72.7328

G1X61.7371Y-72.4678

G1X63.8906Y-72.3686

G1X65.9313Y-72.4491

G1X67.7974Y-72.6895

G1X69.6790Y-73.1139

G1X71.5435Y-73.7087

G1X73.3250Y-74.4509

G1X74.9577Y-75.3174

G1X76.3661Y-76.2692

G1X77.7114Y-77.4023

G1X78.9812Y-78.7286

G1X79.9904Y-80.0558

G1X80.7518Y-81.3688

G1X81.3295Y-82.7747

G1X81.7457Y-84.3522

G1X81.9064Y-85.4533

G1X81.9607Y-86.5457

G1X81.9050Y-87.6101

G1X81.7357Y-88.6460

G1X81.4529Y-89.6931

G1X81.0248Y-90.8293

G1X80.4825Y-91.9371

G1X79.8944Y-92.9083

G1X79.2281Y-93.8191

G1X78.4719Y-94.6749

G1X76.6199Y-96.3016

G1X74.4622Y-97.7056

G1X72.0953Y-98.8058

G1X69.4204Y-99.6000

G1X66.5925Y-100.0630

G1X64.0081Y-100.1629

G1X61.2525Y-99.8998

G1X58.5500Y-99.2942

G1X56.0741Y-98.3756

G1X54.9639Y-97.8059

G1X53.8103Y-97.0947

G1X52.7309Y-96.3038

G1X51.8212Y-95.5187

G1X50.6550Y-94.2749

G1X49.7860Y-93.0286

G1X49.0826Y-91.6433

G1X48.5554Y-90.0965

G1X48.2933Y-88.6414

G1X48.2688Y-87.3067

G1X48.4734Y-85.8353

G1X48.9368Y-84.2662

G1X49.5836Y-82.8566

G1X50.3919Y-81.6006

G1X51.4496Y-80.3717

G1X52.7966Y-79.1445

G1X54.2313Y-78.1018

G1X55.7731Y-77.2168

G1X57.4520Y-76.4871

G1X59.2821Y-75.8919

G1X61.2034Y-75.4461

G1X63.0440Y-75.1798

G1X64.8349Y-75.0806

G1X66.7557Y-75.1412

G1X68.8024Y-75.3750

G1X70.7980Y-75.7746

G1X72.5815Y-76.3020

G1X74.2890Y-76.9945

G1X76.0301Y-77.9003

G1X77.5643Y-78.8910

G1X78.9302Y-79.9784

G1X80.0442Y-81.0922

G1X81.0728Y-82.3943

G1X81.9855Y-83.8831

G1X82.6792Y-85.4242

G1X83.1056Y-86.8893

G1X83.2724Y-87.9724

G1X83.3293Y-89.0864

G1X83.2682Y-90.3131

G1X83.1014Y-91.4262

G1X82.8305Y-92.5074

G1X82.4624Y-93.5253

G1X82.0090Y-94.4665

G1X81.3977Y-95.4825

G1X80.6794Y-96.4696

G1X79.8691Y-97.4101

G1X78.9818Y-98.2859

G1X78.0327Y-99.0791

G1X75.9172Y-100.4402

G1X73.4032Y-101.5967

G1X70.7670Y-102.4076

G1X68.1126Y-102.8307

G1X65.1354Y-102.9228

G1X62.3685Y-102.6572

G1X59.7745Y-102.0286

G1X57.1874Y-101.0120

G1X55.0061Y-99.7688

G1X54.1070Y-99.0944

G1X53.1792Y-98.2638

G1X52.0738Y-97.0484

G1X51.1556Y-95.7538

G1X50.4648Y-94.4283

G1X50.0183Y-93.1064

G1X49.7497Y-91.6084

G1X49.7086Y-89.9855

G1X49.9060Y-88.5057

G1X50.3212Y-87.1455

G1X50.9534Y-85.8052

G1X51.8424Y-84.4196

G1X52.9195Y-83.1351

G1X54.0904Y-82.0555

G1X55.5747Y-80.9920

G1X57.2532Y-80.0439

G1X59.0559Y-79.2508

G1X60.8003Y-78.6828

G1X62.7031Y-78.2683

G1X64.7184Y-78.0131

G1X66.7682Y-77.9256

G1X68.6767Y-78.0054

G1X70.5490Y-78.2572

G1X72.4462Y-78.6840

G1X74.3042Y-79.2669

G1X76.0576Y-79.9872

G1X77.6001Y-80.8008

G1X79.1495Y-81.8436

G1X80.5775Y-83.0410

G1X81.7680Y-84.2718

G1X82.7079Y-85.4831

G1X83.4705Y-86.7679

G1X84.0871Y-88.1902

G1X84.5450Y-89.7705

G1X84.7436Y-90.9640

G1X84.8100Y-92.0407

G1X84.7610Y-93.0876

G1X84.5982Y-94.1472

G1X84.2985Y-95.3089

G1X83.8802Y-96.4539

G1X83.3522Y-97.5590

G1X82.7796Y-98.5172

G1X82.0985Y-99.4435

G1X81.3333Y-100.3056

G1X80.3954Y-101.2015

G1X79.3650Y-102.0421

G1X77.2018Y-103.4432

G1X74.8734Y-104.4968

G1X72.1309Y-105.3066

G1X69.3049Y-105.7632

G1X66.6112Y-105.8285

G1X63.7542Y-105.5227

G1X61.0441Y-104.8762

G1X58.7079Y-103.9429

G1X57.5135Y-103.3002

G1X56.3856Y-102.5771

G1X55.3490Y-101.7900

G1X54.4279Y-100.9555

G1X53.3928Y-99.7668

G1X52.4937Y-98.3793

G1X51.8062Y-96.9002

G1X51.3813Y-95.4875

G1X51.1970Y-94.1705

G1X51.2307Y-92.6834

G1X51.4956Y-91.1729

G1X51.9798Y-89.7001

G1X52.6191Y-88.4136

G1X53.5239Y-87.1150

G1X54.7327Y-85.7926

G1X56.0613Y-84.6442

G1X57.4340Y-83.6966

G1X58.8756Y-82.9174

G1X60.6020Y-82.1949

G1X62.4539Y-81.6094

G1X64.2621Y-81.2024

G1X66.0555Y-80.9603

G1X67.9501Y-80.8780

G1X70.0069Y-80.9610

G1X71.9497Y-81.1970

G1X73.8136Y-81.5820

G1X75.5373Y-82.1083

G1X77.2604Y-82.8103

G1X78.9102Y-83.6560

G1X80.4311Y-84.6176

G1X81.7081Y-85.6148

G1X82.8952Y-86.7794

G1X83.9478Y-88.0698

G1X84.8838Y-89.5287

G1X85.5953Y-91.0258

G1X86.0295Y-92.4189

G1X86.2300Y-93.5174

G1X86.3267Y-94.7439

G1X86.2964Y-95.9742

G1X86.1572Y-97.0827

G1X85.9115Y-98.1519

G1X85.5709Y-99.1406

G1X85.0782Y-100.2075

G1X84.4689Y-101.2564

G1X83.7570Y-102.2679

G1X82.9566Y-103.2224

G1X82.0817Y-104.1007

G1X81.2012Y-104.8429

G1X80.1673Y-105.5804

G1X78.9550Y-106.3131

G1X77.6679Y-106.9685

G1X76.3342Y-107.5329

G1X73.7525Y-108.3116

G1X70.9476Y-108.7455

G1X67.9887Y-108.8293

G1X65.3205Y-108.5484

G1X63.9075Y-108.2435

G1X62.5148Y-107.8398

G1X61.1727Y-107.3482

G1X59.9116Y-106.7795

G1X58.8396Y-106.1921

G1X57.8064Y-105.5034

G1X56.8319Y-104.7249

G1X55.9342Y-103.8754

G1X54.8875Y-102.6644

G1X54.0513Y-101.4047

G1X53.4298Y-100.0664

G1X53.0246Y-98.7000

G1X52.8012Y-97.1913

G1X52.8064Y-95.6962

G1X53.0454Y-94.2878

G1X53.5124Y-92.9034

G1X54.2416Y-91.4473

G1X55.1156Y-90.1547

G1X56.1386Y-88.9931

G1X57.3446Y-87.9331

G1X58.8283Y-86.8943

G1X60.4651Y-85.9806

G1X62.1941Y-85.2317

G1X63.9719Y-84.6749

G1X65.8416Y-84.2746

G1X67.7872Y-84.0223

G1X69.7403Y-83.9290

G1X71.5354Y-83.9969

G1X73.4280Y-84.2376

G1X75.4301Y-84.6662

G1X77.2739Y-85.2241

G1X78.9955Y-85.9136

G1X80.5897Y-86.7467

G1X82.1405Y-87.7680

G1X83.5647Y-88.9226

G1X84.7469Y-90.0990

G1X85.6968Y-91.2817

G1X86.5096Y-92.5989

G1X87.1613Y-94.0071

G1X87.6598Y-95.5581

G1X87.8886Y-96.7220

G1X87.9810Y-97.7714

G1X87.9578Y-98.8453

G1X87.8224Y-99.9387

G1X87.5536Y-101.1313

G1X87.1654Y-102.2999

G1X86.7108Y-103.3289

G1X86.1234Y-104.3678

G1X85.4700Y-105.2902

G1X84.6400Y-106.2627

G1X83.7029Y-107.1897

G1X82.6796Y-108.0531

G1X80.5593Y-109.4609

G1X78.1643Y-110.5618

G1X75.3295Y-111.4239

G1X72.5616Y-111.8779

G1X69.7220Y-111.9375

G1X66.7647Y-111.6164

G1X64.1877Y-110.9822

G1X62.9224Y-110.5121

G1X61.6895Y-109.9455

G1X60.4265Y-109.2442

G1X59.3402Y-108.5238

G1X58.3627Y-107.7518

G1X57.5202Y-106.9456

G1X56.5308Y-105.7530

G1X55.6561Y-104.3665

G1X55.0353Y-103.0114

G1X54.6366Y-101.6533

G1X54.4630Y-100.1987

G1X54.5202Y-98.6883

G1X54.8017Y-97.1838

G1X55.2610Y-95.8394

G1X55.9668Y-94.4925

G1X56.8830Y-93.2157

G1X58.0682Y-91.9295

G1X59.3414Y-90.8334

G1X60.6732Y-89.9270

G1X62.1966Y-89.1150

G1X63.9669Y-88.3774

G1X65.7368Y-87.8167

G1X67.5374Y-87.4147

G1X69.3814Y-87.1816

G1X71.2939Y-87.1038

G1X73.3386Y-87.1839

G1X75.2431Y-87.4133

G1X76.9755Y-87.7733

G1X78.7412Y-88.3096

G1X80.4734Y-89.0005

G1X82.1163Y-89.8223

G1X83.6145Y-90.7508

G1X84.8654Y-91.7168

G1X86.0624Y-92.8599

G1X87.1888Y-94.1904

G1X88.1273Y-95.5941

G1X88.8044Y-96.9395

G1X89.2889Y-98.3615

G1X89.5416Y-99.5540

G1X89.6724Y-100.7680

G1X89.6793Y-101.9782

G1X89.5604Y-103.1594

G1X89.3409Y-104.1897

G1X88.9757Y-105.2982

G1X88.4852Y-106.4008

G1X87.8822Y-107.4765

G1X87.1798Y-108.5045

G1X86.3908Y-109.4637

G1X85.5660Y-110.2985

G1X84.6083Y-111.1103

G1X83.4652Y-111.9297

G1X82.2335Y-112.6769

G1X80.9414Y-113.3360

G1X79.7119Y-113.8555

G1X78.4119Y-114.2927

G1X77.0644Y-114.6376

G1X75.5619Y-114.9155

G1X74.0331Y-115.0952

G1X71.1340Y-115.1507

G1X68.4192Y-114.8144

G1X67.0106Y-114.4934

G1X65.5473Y-114.0515

G1X64.2566Y-113.5573

G1X63.0586Y-112.9879

G1X61.9855Y-112.3585

G1X60.8809Y-111.5770

G1X59.8597Y-110.7129

G1X59.0116Y-109.8606

G1X58.0550Y-108.6728

G1X57.3058Y-107.4108

G1X56.7246Y-105.9869

G1X56.3555Y-104.5003

G1X56.2165Y-103.1097

G1X56.2882Y-101.7721

G1X56.5959Y-100.3555

G1X57.1252Y-98.9363

G1X57.8546Y-97.5684

G1X58.7623Y-96.3057

G1X59.7963Y-95.2129

G1X61.0816Y-94.1334

G1X62.6192Y-93.0970

G1X64.1856Y-92.2582

G1X65.7521Y-91.6132

G1X67.5324Y-91.0741

G1X69.4258Y-90.6735

G1X71.2630Y-90.4349

G1X73.0844Y-90.3458

G1X74.8708Y-90.4145

G1X76.7996Y-90.6496

G1X78.8174Y-91.0648

G1X80.6540Y-91.6063

G1X82.2908Y-92.2539

G1X83.8513Y-93.0511

G1X85.4237Y-94.0474

G1X86.8616Y-95.1642

G1X88.0482Y-96.2971

G1X89.0598Y-97.5180

G1X89.9048Y-98.8271

G1X90.6319Y-100.3074

G1X91.1293Y-101.7286

G1X91.3852Y-102.8595

G1X91.5040Y-103.9129

G1X91.5118Y-105.0054

G1X91.3974Y-106.2132

G1X91.1596Y-107.4135

G1X90.8376Y-108.4857

G1X90.3778Y-109.6017

G1X89.8360Y-110.5987

G1X89.1268Y-111.6388

G1X88.2970Y-112.6450

G1X87.3663Y-113.5975

G1X86.3546Y-114.4763

G1X85.2818Y-115.2618

G1X84.2236Y-115.9071

G1X81.6775Y-117.0892

G1X78.9321Y-117.9392

G1X77.5558Y-118.2156

G1X76.1747Y-118.3878

G1X73.1930Y-118.4515

G1X71.6563Y-118.3339

G1X70.1715Y-118.1170

G1X68.8318Y-117.8182

G1X67.5446Y-117.4239

G1X66.2803Y-116.9339

G1X64.9730Y-116.3139

G1X63.7528Y-115.6138

G1X62.7248Y-114.9059

G1X61.8263Y-114.1589

G1X60.9537Y-113.2764

G1X59.9930Y-112.0682

G1X59.1603Y-110.6989

G1X58.5929Y-109.3878

G1X58.2526Y-108.0767

G1X58.1075Y-106.6654

G1X58.1762Y-105.1260

G1X58.4484Y-103.7197

G1X58.9436Y-102.3442

G1X59.6755Y-101.0023

G1X60.6251Y-99.6975

G1X61.7557Y-98.4798

G1X62.9471Y-97.4618

G1X64.3763Y-96.5081

G1X65.9735Y-95.6673

G1X67.6997Y-94.9519

G1X69.4946Y-94.3908

G1X71.2497Y-94.0186

G1X73.2183Y-93.7867

G1X75.2577Y-93.7178

G1X77.1914Y-93.8065

G1X78.9603Y-94.0315

G1X80.7338Y-94.4181

G1X82.5126Y-94.9653

G1X84.2355Y-95.6516

G1X85.8471Y-96.4568

G1X87.2429Y-97.3260

G1X88.5548Y-98.3432

G1X89.7608Y-99.4851

G1X90.8879Y-100.7943

G1X91.7675Y-102.0786

G1X92.4346Y-103.3675

G1X92.9559Y-104.8111

G1X93.2405Y-106.0111

G1X93.4028Y-107.2242

G1X93.4388Y-108.4252

G1X93.3572Y-109.4940

G1X93.1429Y-110.6158

G1X92.7984Y-111.7471

G1X92.3349Y-112.8665

G1X91.7112Y-114.0405

G1X91.0352Y-115.0653

G1X90.2852Y-115.9990

G1X89.4233Y-116.8830

G1X88.4477Y-117.7267

G1X87.2953Y-118.5735

G1X86.0645Y-119.3391

G1X84.8757Y-119.9615

G1X83.5936Y-120.5116

G1X82.2840Y-120.9547

G1X80.8040Y-121.3401

G1X79.2798Y-121.6278

G1X77.7477Y-121.8123

G1X76.3425Y-121.8864

G1X74.9455Y-121.8594

G1X72.0746Y-121.4958

G1X69.3184Y-120.7670

G1X68.0604Y-120.2841

G1X66.8680Y-119.7062

G1X65.7030Y-119.0134

G1X64.6075Y-118.2327

G1X63.5337Y-117.3161

G1X62.6610Y-116.4153

G1X61.7867Y-115.2701

G1X61.0312Y-113.9139

G1X60.4762Y-112.4683

G1X60.1431Y-110.9931

G1X60.0511Y-109.6433

G1X60.1758Y-108.3035

G1X60.5334Y-106.8417

G1X61.1054Y-105.4088

G1X61.8171Y-104.1483

G1X62.7464Y-102.9345

G1X63.9056Y-101.7673

G1X65.2507Y-100.6822

G1X66.6430Y-99.7732

G1X68.1066Y-99.0130

G1X69.7094Y-98.3762

G1X71.5481Y-97.8300

G1X73.3683Y-97.4483

G1X75.2056Y-97.2149

G1X76.9920Y-97.1436

G1X78.7966Y-97.2225

G1X80.7274Y-97.4568

G1X82.6220Y-97.8383

G1X84.4159Y-98.3587

G1X86.0099Y-98.9859

G1X87.5897Y-99.7740

G1X89.1718Y-100.7451

G1X90.5326Y-101.7627

G1X91.7246Y-102.8575

G1X92.7320Y-104.0197

G1X93.6644Y-105.3743

G1X94.4244Y-106.8020

G1X94.9858Y-108.2563

G1X95.2644Y-109.3549

G1X95.4147Y-110.4325

G1X95.4560Y-111.6404

G1X95.3724Y-112.8576

G1X95.1668Y-114.0588

G1X94.8421Y-115.2190

G1X94.4125Y-116.2898

G1X93.8758Y-117.3026

G1X93.1664Y-118.3795

G1X92.3423Y-119.4141

G1X91.4223Y-120.3848

G1X90.4254Y-121.2699

G1X89.4133Y-122.0198

G1X88.2489Y-122.7387

G1X85.6663Y-123.9610

G1X84.3054Y-124.4415

G1X82.9363Y-124.8196

G1X80.1673Y-125.2623

G1X78.6196Y-125.3503

G1X77.0708Y-125.3358

G1X75.5578Y-125.2194

G1X74.2044Y-125.0180

G1X72.8020Y-124.6956

G1X71.4112Y-124.2618

G1X70.0634Y-123.7303

G1X68.7898Y-123.1151

G1X67.7011Y-122.4809

G1X66.6696Y-121.7518

G1X65.7156Y-120.9274

G1X64.8444Y-120.0200

G1X63.8992Y-118.8033

G1X63.1466Y-117.5359

G1X62.6340Y-116.3035

G1X62.2959Y-114.9333

G1X62.1535Y-113.4056

G1X62.2296Y-111.9801

G1X62.5111Y-110.6089

G1X63.0044Y-109.2998

G1X63.7608Y-107.9176

G1X64.6586Y-106.6736

G1X65.7107Y-105.5252

G1X66.9084Y-104.5002

G1X68.3570Y-103.5262

G1X69.9773Y-102.6580

G1X71.7094Y-101.9288

G1X73.3937Y-101.3974

G1X75.2062Y-101.0115

G1X77.1226Y-100.7716

G1X79.0844Y-100.6818

G1X81.0245Y-100.7484

G1X82.8034Y-100.9639

G1X84.6032Y-101.3402

G1X86.3890Y-101.8638

G1X88.1058Y-102.5177

G1X89.6983Y-103.2850

G1X91.1438Y-104.1656

G1X92.5440Y-105.2234

G1X93.8218Y-106.4011

G1X94.9359Y-107.6606

G1X95.7979Y-108.8862

G1X96.4690Y-110.1424

G1X97.0001Y-111.5104

G1 Z0F20000

(Start Block)


G1X97.0001Y-118.6307
G1Z6F20000
(Plotting speed under)
G1 F4000


G1X96.5762Y-119.7376

G1X96.0246Y-120.8396

G1X95.3747Y-121.8752

G1X94.6750Y-122.7785

G1X93.8118Y-123.7028

G1X92.7621Y-124.6482

G1X91.6143Y-125.5222

G1X90.4844Y-126.2524

G1X89.3152Y-126.8878

G1X88.0806Y-127.4346

G1X86.6669Y-127.9347

G1X85.1866Y-128.3425

G1X83.6751Y-128.6506

G1X82.1682Y-128.8516

G1X80.7878Y-128.9362

G1X79.2711Y-128.9137

G1X76.3077Y-128.5581

G1X74.8304Y-128.2261

G1X73.5290Y-127.8331

G1X72.3230Y-127.3624

G1X71.1052Y-126.7677

G1X69.9412Y-126.0798

G1X68.7765Y-125.2547

G1X67.7345Y-124.3637

G1X66.8961Y-123.4866

G1X65.9784Y-122.2438

G1X65.2384Y-120.8847

G1X64.7012Y-119.4654

G1X64.3919Y-118.0415

G1X64.3256Y-116.7061

G1X64.4687Y-115.3177

G1X64.8423Y-113.8276

G1X65.3851Y-112.4870

G1X66.1358Y-111.1990

G1X67.0773Y-110.0053

G1X68.2916Y-108.7951

G1X69.5930Y-107.7526

G1X70.9158Y-106.8964

G1X72.3883Y-106.1474

G1X74.0491Y-105.4928

G1X75.8229Y-104.9615

G1X77.6511Y-104.5729

G1X79.3750Y-104.3542

G1X81.1470Y-104.2829

G1X82.9805Y-104.3511

G1X84.9217Y-104.5699

G1X86.8052Y-104.9349

G1X88.5060Y-105.4202

G1X90.1265Y-106.0424

G1X91.7924Y-106.8485

G1X93.2719Y-107.7247

G1X94.6888Y-108.7477

G1X95.8534Y-109.7912

G1X96.9576Y-111.0237

G1X97.0001Y-111.0828

G1 Z0F20000

(Start Block)


G1X97.0001Y-126.2870
G1Z6F20000
(Plotting speed under)
G1 F4000


G1X96.8128Y-126.5299

G1X95.9066Y-127.5098

G1X94.9495Y-128.3707

G1X93.8676Y-129.1762

G1X92.6758Y-129.9205

G1X91.4028Y-130.5905

G1X89.9812Y-131.2104

G1X88.6309Y-131.6836

G1X87.2956Y-132.0401

G1X85.9099Y-132.3029

G1X84.3762Y-132.4871

G1X82.8277Y-132.5692

G1X81.3013Y-132.5480

G1X79.9290Y-132.4337

G1X78.5259Y-132.2084

G1X77.1153Y-131.8718

G1X75.6361Y-131.4015

G1X74.2278Y-130.8320

G1X73.0112Y-130.2235

G1X71.9391Y-129.5657

G1X70.9427Y-128.8200

G1X70.0166Y-127.9913

G1X69.1141Y-127.0229

G1X68.2323Y-125.8460

G1X67.5465Y-124.6230

G1X67.0493Y-123.2985

G1X66.7434Y-121.8978

G1X66.6368Y-120.4735

G1X66.7374Y-119.0778

G1X67.0408Y-117.7836

G1X67.5834Y-116.4162

G1X68.3323Y-115.0758

G1X69.1943Y-113.8934

G1X70.1920Y-112.8188

G1X71.4064Y-111.7951

G1X72.8959Y-110.7927

G1X74.5367Y-109.9111

G1X76.1715Y-109.2232

G1X77.8696Y-108.6969

G1X79.6157Y-108.3225

G1X81.5448Y-108.0664

G1X83.4972Y-107.9629

G1X85.3084Y-108.0144

G1X87.0947Y-108.2205

G1X89.0073Y-108.6017

G1X90.8858Y-109.1354

G1X92.5759Y-109.7672

G1X94.0661Y-110.4771

G1X95.5717Y-111.3811

G1X96.9894Y-112.4249

G1X97.0001Y-112.4344

G1 Z0F20000

(Start Block)


G1X97.0001Y-132.2998
G1Z6F20000
(Plotting speed under)
G1 F4000


G1X96.3740Y-132.7921

G1X95.2596Y-133.5303

G1X94.1472Y-134.1441

G1X92.8871Y-134.7148

G1X91.4508Y-135.2418

G1X89.9607Y-135.6720

G1X88.4529Y-135.9959

G1X87.0617Y-136.1938

G1X85.6658Y-136.2877

G1X84.1256Y-136.2794

G1X82.5758Y-136.1633

G1X81.0544Y-135.9443

G1X79.5987Y-135.6276

G1X78.2844Y-135.2314

G1X77.0269Y-134.7363

G1X75.7159Y-134.0948

G1X74.4807Y-133.3600

G1X73.3532Y-132.5513

G1X72.4305Y-131.7512

G1X71.6047Y-130.8687

G1X70.7443Y-129.7067

G1X69.9940Y-128.3715

G1X69.4493Y-126.9940

G1X69.1504Y-125.7088

G1X69.0562Y-124.3512

G1X69.1788Y-122.8509

G1X69.5251Y-121.3637

G1X70.0430Y-120.0417

G1X70.7967Y-118.7400

G1X71.7533Y-117.5052

G1X72.8956Y-116.3361

G1X74.1849Y-115.2763

G1X75.4619Y-114.4383

G1X76.9983Y-113.6459

G1X78.6893Y-112.9626

G1X80.4762Y-112.4114

G1X82.1988Y-112.0331

G1X83.9725Y-111.8044

G1X85.8831Y-111.7224

G1X87.8378Y-111.7911

G1X89.6713Y-111.9939

G1X91.4307Y-112.3295

G1X93.0721Y-112.7921

G1X94.8057Y-113.4404

G1X96.4744Y-114.2264

G1X97.0001Y-114.5297

G1 Z0F20000

(Start Block)


G1X97.0001Y-137.7043
G1Z6F20000
(Plotting speed under)
G1 F4000


G1X96.3613Y-138.0520

G1X95.0456Y-138.6433

G1X93.7302Y-139.1171

G1X92.2971Y-139.5064

G1X90.7940Y-139.7987

G1X89.2577Y-139.9907

G1X89.0948Y-140.0001

G1 Z0F20000

(Start Block)


G1X85.5402Y-140.0001
G1Z6F20000
(Plotting speed under)
G1 F4000


G1X84.8410Y-139.9383

G1X83.4215Y-139.7055

G1X82.0137Y-139.3725

G1X80.5536Y-138.9158

G1X79.2688Y-138.4064

G1X78.0806Y-137.8212

G1X76.9330Y-137.1164

G1X75.8513Y-136.3073

G1X74.8599Y-135.4168

G1X73.9829Y-134.4678

G1X73.1449Y-133.3300

G1X72.5298Y-132.2009

G1X72.0522Y-130.9526

G1X71.7388Y-129.6528

G1X71.5997Y-128.3430

G1X71.6347Y-127.1610

G1X71.8480Y-125.9504

G1X72.2726Y-124.6350

G1X72.8823Y-123.3385

G1X73.5979Y-122.1898

G1X74.4423Y-121.1301

G1X75.4338Y-120.1496

G1X76.6572Y-119.1682

G1X78.0230Y-118.2699

G1X79.4904Y-117.4841

G1X81.0085Y-116.8441

G1X82.5560Y-116.3537

G1X84.3122Y-115.9490

G1X86.1349Y-115.6730

G1X87.8676Y-115.5406

G1X89.4646Y-115.5383

G1X91.1514Y-115.6684

G1X92.8681Y-115.9278

G1X94.6683Y-116.3338

G1X96.3043Y-116.8320

G1X97.0001Y-117.1037

G1 Z0F20000

(Start Block)


G1X78.3279Y-140.0001
G1Z6F20000
(Plotting speed under)
G1 F4000


G1X77.7271Y-139.5035

G1X76.6132Y-138.2827

G1X75.6281Y-136.8527

G1X74.9280Y-135.4432

G1X74.4806Y-134.0036

G1X74.2910Y-132.5245

G1X74.3460Y-130.8953

G1X74.6634Y-129.2901

G1X75.1842Y-127.9012

G1X75.9880Y-126.4946

G1X77.0393Y-125.1299

G1X78.2925Y-123.8662

G1X79.6905Y-122.7708

G1X81.3255Y-121.7939

G1X83.1667Y-120.9453

G1X85.1333Y-120.2620

G1X87.1445Y-119.7810

G1 Z0F20000


G00 X0.0000 Y0.0000


