$H
G21
G17
G90
G1 Z0F20000
G1 F15000

(Start Layer)

(Start Block)


G1X52.5436Y-73.8941
G1Z5F20000
(Plotting speed under)
G1 F4000


G1X52.6086Y-73.5702

G1X51.9937Y-74.8703

G1X51.8404Y-75.3662

G1X51.8567Y-75.6348

G1X52.1299Y-75.4638

G1X52.4357Y-75.0390

G1X53.2046Y-73.5172

G1X53.5433Y-72.1989

G1X53.5306Y-71.6796

G1X53.4303Y-71.4794

G1X53.2720Y-71.5009

G1X52.9619Y-71.9382

G1X51.9337Y-74.5085

G1X50.5674Y-76.8213

G1X50.2656Y-77.6892

G1X50.2795Y-77.9747

G1X50.3479Y-78.0478

G1X50.6407Y-77.9975

G1X50.8756Y-77.8493

G1X51.6561Y-77.0997

G1X52.8694Y-75.5449

G1X53.7591Y-74.0844

G1X54.2401Y-72.9767

G1X54.5302Y-71.8688

G1X54.5680Y-70.8154

G1X54.4633Y-70.4120

G1X54.3462Y-70.2512

G1X54.2087Y-70.2134

G1X53.9768Y-70.3609

G1X53.4945Y-71.1289

G1X52.9139Y-72.4670

G1X52.1296Y-74.6506

G1X51.7172Y-75.4744

G1X50.9345Y-76.4623

G1X49.5905Y-77.4579

G1X49.2251Y-77.8417

G1X48.5548Y-79.1444

G1X48.4312Y-79.6306

G1X48.4888Y-79.8817

G1X48.7648Y-79.9261

G1X49.3253Y-79.6874

G1X50.7162Y-78.6477

G1X52.7461Y-76.7369

G1X54.1613Y-75.0116

G1X55.0203Y-73.5293

G1X55.5239Y-72.1495

G1X55.6627Y-71.4422

G1X55.7020Y-70.7245

G1X55.6218Y-70.1493

G1X55.4543Y-69.8217

G1X55.3691Y-69.7743

G1X55.1905Y-69.8413

G1X54.9037Y-70.2543

G1X53.1246Y-73.8969

G1X52.1087Y-76.2280

G1X51.6215Y-76.9952

G1X50.9977Y-77.6124

G1X50.3907Y-77.9501

G1X49.6008Y-78.1225

G1X48.3839Y-78.1189

G1X47.9070Y-78.3314

G1X47.4056Y-79.0076

G1X46.7593Y-80.2208

G1X46.5424Y-80.8001

G1X46.6212Y-81.0787

G1X47.0973Y-81.0646

G1X47.8762Y-80.7572

G1X50.6403Y-79.1007

G1X52.7475Y-77.6006

G1X54.4316Y-76.0240

G1X55.6793Y-74.3810

G1X56.4857Y-72.7398

G1X56.7301Y-71.9340

G1X56.8660Y-71.0891

G1X56.8458Y-70.3350

G1X56.6772Y-69.9350

G1X56.5373Y-69.9752

G1X56.4248Y-70.1761

G1X55.7119Y-72.3878

G1X55.1091Y-73.6913

G1X53.2498Y-76.3929

G1X52.1861Y-78.2343

G1X51.6398Y-78.8997

G1X51.2196Y-79.2405

G1X50.7432Y-79.4798

G1X50.2184Y-79.5937

G1X49.7167Y-79.5812

G1X48.7536Y-79.2963

G1X47.0869Y-78.3092

G1X46.7414Y-78.2310

G1X46.3574Y-78.5913

G1X45.0962Y-80.7272

G1X44.8533Y-81.3106

G1X44.9338Y-81.4997

G1X45.3945Y-81.5310

G1X46.2663Y-81.2992

G1X50.4620Y-79.5486

G1X52.6619Y-78.3975

G1X54.4114Y-77.1550

G1X55.9541Y-75.6424

G1X56.6006Y-74.8088

G1X57.1534Y-73.9274

G1X57.6006Y-73.0092

G1X57.9334Y-72.0130

G1X58.0864Y-71.0792

G1X58.0538Y-70.5475

G1X57.9400Y-70.5163

G1X57.8703Y-70.7627

G1X57.5416Y-72.8814

G1X57.2063Y-74.3367

G1X56.8620Y-75.3260

G1X56.3830Y-76.2758

G1X55.6566Y-77.2243

G1X53.4779Y-79.0885

G1X52.3106Y-80.5093

G1X51.6286Y-81.1440

G1X51.0637Y-81.4334

G1X50.4299Y-81.5306

G1X49.7709Y-81.4157

G1X49.0626Y-81.0929

G1X48.2042Y-80.4976

G1X47.1394Y-79.5474

G1X46.3521Y-78.6675

G1X45.6889Y-77.6203

G1X45.5369Y-77.5831

G1X43.7809Y-80.7079

G1X43.6979Y-81.1646

G1X44.0284Y-81.3189

G1X44.6609Y-81.2745

G1X49.9084Y-80.0272

G1X52.2620Y-79.1925

G1X54.2890Y-78.1195

G1X55.2403Y-77.4638

G1X56.2105Y-76.6535

G1X57.0172Y-75.8441

G1X57.7387Y-74.9576

G1X58.3155Y-74.0920

G1X58.8692Y-73.0023

G1X59.2212Y-71.9576

G1X59.3318Y-71.3140

G1X58.9920Y-75.0288

G1X58.7375Y-76.4227

G1X58.4093Y-77.6458

G1X57.9980Y-78.7431

G1X57.5122Y-79.6703

G1X56.9465Y-80.4169

G1X56.2950Y-80.9712

G1X55.6152Y-81.3215

G1X53.5985Y-82.0404

G1X51.4769Y-83.5983

G1X50.8196Y-83.7200

G1X50.0953Y-83.5751

G1X49.3483Y-83.1498

G1X48.4792Y-82.3934

G1X46.9585Y-80.7510

G1X45.7642Y-79.3148

G1X45.3002Y-78.6047

G1X45.0212Y-78.0130

G1X44.6201Y-76.2977

G1X44.1465Y-77.7543

G1X43.2827Y-79.7171

G1X43.2083Y-80.2509

G1X43.4262Y-80.5021

G1X43.9768Y-80.5855

G1X49.2394Y-80.3208

G1X51.5812Y-79.8486

G1X53.9025Y-78.9815

G1X55.0923Y-78.3534

G1X56.2300Y-77.6206

G1X57.1918Y-76.8597

G1X58.1216Y-75.9799

G1X58.8393Y-75.1473

G1X59.5575Y-74.1391

G1X60.5727Y-72.0860

G1X60.5631Y-74.3565

G1X60.3715Y-76.4989

G1X60.0236Y-78.5301

G1X59.5213Y-80.4340

G1X58.8282Y-82.2562

G1X58.0626Y-83.6697

G1X57.2667Y-84.6466

G1X56.4107Y-85.1969

G1X55.5651Y-85.3134

G1X54.1440Y-85.1103

G1X53.5182Y-85.1304

G1X52.7075Y-85.3429

G1X51.6706Y-85.9207

G1X51.1769Y-86.0249

G1X50.3900Y-85.8815

G1X49.7288Y-85.4509

G1X49.1445Y-84.8870

G1X48.4311Y-84.0164

G1X44.8776Y-79.4087

G1X44.3661Y-78.6233

G1X44.0251Y-77.8416

G1X43.8038Y-76.9003

G1X43.7099Y-75.6881

G1X43.7731Y-74.5151

G1X43.8596Y-74.6568

G1X43.8547Y-75.3663

G1X43.5266Y-77.5088

G1X43.4679Y-78.3834

G1X43.5455Y-78.9741

G1X43.7093Y-79.2295

G1X44.0729Y-79.4411

G1X44.8609Y-79.5665

G1X46.4959Y-80.0878

G1X47.2906Y-80.2585

G1X48.4713Y-80.3714

G1X49.9335Y-80.3302

G1X51.7731Y-80.0407

G1X53.4666Y-79.5615

G1X55.1710Y-78.8735

G1X56.7953Y-77.9716

G1X58.2215Y-76.9517

G1X59.5116Y-75.7478

G1X60.4589Y-74.6224

G1X61.5059Y-73.0318

G1X61.7289Y-72.8673

G1X61.8258Y-73.4695

G1X61.8124Y-74.8623

G1X61.5496Y-77.7715

G1X61.0674Y-80.2965

G1X60.2567Y-82.9937

G1X59.1391Y-85.5891

G1X57.9028Y-87.6842

G1X57.2829Y-88.4870

G1X56.7117Y-89.0657

G1X56.1674Y-89.4232

G1X55.7300Y-89.5260

G1X55.1494Y-89.3756

G1X53.9606Y-88.4912

G1X53.0417Y-88.0481

G1X52.6478Y-88.0255

G1X51.5319Y-88.2851

G1X50.6179Y-88.1548

G1X50.0273Y-87.7806

G1X49.3838Y-87.0267

G1X46.3580Y-82.2646

G1X45.3555Y-80.9181

G1X43.6908Y-78.9415

G1X43.1570Y-78.0481

G1X42.8475Y-77.0927

G1X42.6716Y-75.8483

G1X42.6278Y-73.8254

G1X42.7576Y-72.5735

G1X42.9301Y-72.3655

G1X43.2148Y-72.7206

G1X43.6773Y-74.5244

G1X44.3629Y-76.0695

G1X44.6404Y-77.4713

G1X45.8792Y-79.1697

G1X46.3121Y-79.5698

G1X46.8590Y-79.8782

G1X47.7654Y-80.1400

G1X48.6468Y-80.2581

G1X50.4262Y-80.2652

G1X52.3421Y-80.0060

G1X54.0675Y-79.5797

G1X55.9941Y-78.8519

G1X57.8168Y-77.9018

G1X59.6744Y-76.5820

G1X60.8397Y-75.4894

G1X62.6612Y-73.4399

G1X62.8030Y-73.4403

G1X62.8579Y-73.5381

G1X62.9433Y-73.9692

G1X62.9631Y-74.9856

G1X62.8543Y-76.8767

G1X62.4131Y-79.7079

G1X61.7260Y-82.3791

G1X60.6698Y-85.2002

G1X59.9624Y-86.6990

G1X59.0582Y-88.3390

G1X57.3618Y-90.8811

G1X56.4932Y-91.9713

G1X55.6063Y-92.9221

G1X54.9283Y-93.4461

G1X54.5237Y-93.5403

G1X54.2193Y-93.3219

G1X53.3257Y-91.4990

G1X52.8319Y-90.8476

G1X52.1782Y-90.5398

G1X50.6471Y-90.1824

G1X50.3631Y-90.0289

G1X50.0383Y-89.7053

G1X49.1382Y-88.2764

G1X47.1818Y-84.4731

G1X45.8890Y-82.3571

G1X44.6134Y-80.6547

G1X42.6569Y-78.6504

G1X42.1235Y-77.8918

G1X41.7218Y-76.6558

G1X41.5151Y-74.8189

G1X41.4392Y-71.5546

G1X41.5029Y-70.8750

G1X41.6724Y-70.3375

G1X41.9131Y-70.1602

G1X42.2212Y-70.2800

G1X43.4021Y-71.7211

G1X43.7549Y-71.9269

G1X45.0117Y-72.3941

G1X45.2917Y-72.5806

G1X45.6159Y-72.9598

G1X45.9120Y-73.6107

G1X46.0801Y-74.6319

G1X46.2725Y-76.6417

G1X46.1404Y-77.8646

G1X46.2475Y-78.7866

G1X46.5167Y-79.1585

G1X46.9849Y-79.4970

G1X48.2238Y-79.8876

G1X49.7593Y-80.0441

G1X51.7890Y-79.9740

G1X53.6148Y-79.6787

G1X55.4950Y-79.1797

G1X57.5705Y-78.3424

G1X59.7615Y-77.1063

G1X61.7952Y-75.4773

G1X63.1056Y-74.1311

G1X63.6864Y-73.6671

G1X63.8636Y-73.7281

G1X63.9668Y-73.9486

G1X64.0594Y-74.8208

G1X63.8603Y-77.8646

G1X63.2094Y-81.0641

G1X62.3374Y-83.8223

G1X61.0167Y-86.7846

G1X59.6334Y-89.1959

G1X57.6304Y-92.0180

G1X55.0985Y-94.9240

G1X53.6342Y-96.4056

G1X52.9095Y-96.9536

G1X52.8132Y-96.7298

G1X52.8663Y-95.5148

G1X52.7688Y-94.2580

G1X52.6146Y-93.6542

G1X52.2891Y-92.9741

G1X51.7663Y-92.3541

G1X50.6171Y-91.8964

G1X50.0872Y-91.2596

G1X49.3431Y-89.8804

G1X48.3811Y-87.6784

G1X47.1491Y-85.1366

G1X46.0665Y-83.2555

G1X45.0208Y-81.6953

G1X43.5629Y-79.9275

G1X42.7915Y-79.2040

G1X41.3707Y-78.1382

G1X41.1089Y-77.8490

G1X40.8770Y-77.4142

G1X40.6467Y-76.7243

G1X40.5001Y-75.9115

G1X40.1891Y-72.1191

G1X40.1177Y-69.7580

G1X40.1732Y-68.9698

G1X40.2988Y-68.4491

G1X40.5192Y-68.1790

G1X40.9689Y-68.1111

G1X42.2593Y-68.9678

G1X42.9772Y-69.1927

G1X43.7506Y-69.0712

G1X45.2272Y-68.6638

G1X45.9554Y-68.6261

G1X46.6381Y-68.8560

G1X47.1556Y-69.3310

G1X47.5047Y-69.9696

G1X47.7355Y-70.7584

G1X47.8468Y-71.8830

G1X47.8664Y-73.3757

G1X47.6199Y-74.6680

G1X46.6574Y-77.2869

G1X46.5891Y-78.0609

G1X46.7397Y-78.5033

G1X47.1259Y-78.8690

G1X47.7501Y-79.1791

G1X48.4644Y-79.3817

G1X50.3726Y-79.6195

G1X52.3157Y-79.5686

G1X54.5469Y-79.2625

G1X56.6080Y-78.7043

G1X58.8656Y-77.8064

G1X60.5461Y-76.8629

G1X62.2807Y-75.6404

G1X64.5789Y-73.5842

G1X64.8309Y-73.5383

G1X65.0549Y-73.8385

G1X65.1562Y-74.8893

G1X65.0768Y-76.9486

G1X64.8864Y-78.3463

G1X64.4539Y-80.4010

G1X63.9882Y-82.1382

G1X63.4825Y-83.6231

G1X62.7682Y-85.3020

G1X61.8938Y-87.0511

G1X60.2471Y-89.7666

G1X57.8958Y-92.7911

G1X55.2769Y-95.5458

G1X51.9630Y-98.7390

G1X51.2297Y-99.6098

G1X51.8073Y-98.6145

G1X52.2451Y-97.0215

G1X52.2766Y-95.5334

G1X52.1657Y-94.8070

G1X52.0065Y-94.3578

G1X51.7605Y-94.0398

G1X50.9752Y-93.3676

G1X50.1476Y-92.1455

G1X49.6508Y-91.1933

G1X48.6257Y-88.7154

G1X47.3268Y-85.9823

G1X46.2056Y-84.0094

G1X44.9755Y-82.1427

G1X43.6325Y-80.4208

G1X42.4518Y-79.1816

G1X41.4560Y-78.4393

G1X40.1509Y-77.9214

G1X39.8442Y-77.5876

G1X39.6417Y-77.2075

G1X39.4332Y-76.3831

G1X39.2352Y-74.8501

G1X38.7574Y-69.0761

G1X38.7164Y-67.6791

G1X38.9017Y-66.8377

G1X39.2099Y-66.4589

G1X39.5041Y-66.3703

G1X40.1613Y-66.5301

G1X41.2766Y-67.0256

G1X41.6782Y-67.0848

G1X42.0593Y-67.0192

G1X43.0427Y-66.4854

G1X45.4012Y-64.6635

G1X46.5670Y-64.2034

G1X47.0681Y-64.1701

G1X47.5289Y-64.2922

G1X47.9706Y-64.5411

G1X48.3794Y-64.9113

G1X48.9485Y-65.8490

G1X49.3816Y-67.1854

G1X49.6184Y-68.7531

G1X49.6058Y-70.1905

G1X49.3848Y-71.5070

G1X48.9594Y-73.0034

G1X47.3366Y-76.4827

G1X47.1534Y-77.2467

G1X47.3147Y-77.7792

G1X47.6574Y-78.1394

G1X48.2589Y-78.4595

G1X49.0797Y-78.7162

G1X50.9957Y-78.9702

G1X53.3763Y-78.9467

G1X55.5086Y-78.6338

G1X57.7079Y-78.0667

G1X59.8267Y-77.2236

G1X62.1986Y-75.8934

G1X63.3484Y-75.0335

G1X65.6097Y-73.0493

G1X66.0002Y-73.0103

G1X66.1887Y-73.3049

G1X66.3287Y-74.8335

G1X66.2669Y-76.4870

G1X65.9271Y-78.6735

G1X65.4709Y-80.8012

G1X64.9956Y-82.4591

G1X64.4302Y-83.9569

G1X63.5853Y-85.8072

G1X62.6287Y-87.6058

G1X61.7522Y-89.0498

G1X60.9010Y-90.2555

G1X58.3460Y-93.2960

G1X56.6002Y-95.0425

G1X51.0282Y-100.0432

G1X50.0875Y-101.1558

G1X49.9464Y-101.5153

G1X50.0449Y-101.6116

G1X50.4085Y-101.4262

G1X50.8095Y-101.0260

G1X51.4838Y-100.0084

G1X51.8487Y-99.1859

G1X52.1533Y-98.0032

G1X52.2942Y-96.9388

G1X52.2755Y-96.2414

G1X52.0828Y-95.4416

G1X51.4520Y-94.0784

G1X50.2149Y-92.3321

G1X48.9441Y-89.4592

G1X47.3434Y-86.3187

G1X46.1185Y-84.3205

G1X44.7338Y-82.3452

G1X42.7747Y-79.9868

G1X41.1203Y-78.4040

G1X40.5711Y-78.0399

G1X40.1542Y-77.8862

G1X39.6582Y-77.8823

G1X39.2589Y-77.9970

G1X38.9049Y-77.9558

G1X38.7390Y-77.8711

G1X38.5577Y-77.6067

G1X38.3228Y-76.9099

G1X38.1542Y-75.9229

G1X37.8359Y-71.9939

G1X37.3873Y-68.0347

G1X37.3805Y-66.4895

G1X37.6267Y-65.5517

G1X37.8495Y-65.3065

G1X38.2379Y-65.2123

G1X38.7317Y-65.2393

G1X39.5225Y-65.5393

G1X40.2420Y-65.6816

G1X40.6704Y-65.6270

G1X41.1553Y-65.3728

G1X41.7590Y-64.8596

G1X42.2766Y-64.2728

G1X44.7392Y-60.8892

G1X45.6863Y-59.8761

G1X46.2995Y-59.4288

G1X46.9543Y-59.2262

G1X47.6744Y-59.2452

G1X48.2813Y-59.4937

G1X48.8897Y-59.9927

G1X49.4231Y-60.6200

G1X49.9001Y-61.3739

G1X50.6239Y-63.1934

G1X51.0404Y-65.2292

G1X51.1082Y-67.4366

G1X50.9215Y-69.0495

G1X50.5432Y-70.4321

G1X49.5458Y-72.9533

G1X48.3563Y-75.2112

G1X48.1265Y-75.9474

G1X48.0721Y-76.4314

G1X48.1954Y-76.8484

G1X48.5844Y-77.2593

G1X49.1763Y-77.5815

G1X50.0873Y-77.8621

G1X52.0712Y-78.1377

G1X54.0039Y-78.1304

G1X56.5305Y-77.8118

G1X58.7313Y-77.2540

G1X60.6760Y-76.4924

G1X62.4619Y-75.5907

G1X63.6363Y-74.8053

G1X65.1188Y-73.6315

G1X66.6516Y-72.1697

G1X67.0913Y-71.9702

G1X67.2188Y-72.0231

G1X67.3208Y-72.2111

G1X67.5393Y-73.4345

G1X67.5460Y-74.8825

G1X67.2289Y-77.8709

G1X66.8047Y-80.2192

G1X66.3445Y-81.8319

G1X65.5750Y-83.8871

G1X64.6807Y-85.8787

G1X63.7396Y-87.6669

G1X62.9886Y-88.8835

G1X62.0141Y-90.2360

G1X59.4054Y-93.3012

G1X57.5416Y-95.1188

G1X52.8061Y-99.1256

G1X50.8702Y-100.8898

G1X50.0308Y-101.8045

G1X49.5591Y-102.4739

G1X49.3973Y-102.9622

G1X49.5991Y-103.1142

G1X49.9540Y-103.0197

G1X50.2735Y-102.7854

G1X51.2323Y-101.8161

G1X51.8379Y-100.7326

G1X52.3505Y-99.4472

G1X52.6068Y-98.4115

G1X52.6834Y-97.1725

G1X52.5631Y-95.8031

G1X52.3006Y-94.7694

G1X52.0131Y-94.2485

G1X50.9514Y-92.8815

G1X49.2223Y-89.6316

G1X47.2414Y-86.3086

G1X45.3426Y-83.6755

G1X43.4115Y-81.3638

G1X41.1519Y-79.0256

G1X40.1450Y-78.1374

G1X39.4764Y-77.6785

G1X39.1265Y-77.5536

G1X38.7692Y-77.5966

G1X38.0083Y-78.3032

G1X37.7542Y-78.4450

G1X37.4970Y-78.3417

G1X37.3230Y-78.1558

G1X37.1688Y-77.7766

G1X37.0502Y-77.0891

G1X36.3291Y-68.8824

G1X36.1895Y-66.1716

G1X36.2452Y-65.5821

G1X36.4200Y-65.1031

G1X36.7569Y-64.8018

G1X37.2520Y-64.6484

G1X38.8284Y-65.0024

G1X39.2413Y-64.9934

G1X39.7915Y-64.7164

G1X40.3298Y-64.2247

G1X41.0689Y-63.1850

G1X42.0016Y-61.4559

G1X44.5257Y-55.6815

G1X45.2590Y-54.7560

G1X45.6535Y-54.4289

G1X46.0748Y-54.2110

G1X46.4356Y-54.1324

G1X46.8599Y-54.1565

G1X47.8116Y-54.5051

G1X48.7099Y-55.1428

G1X49.6130Y-56.1467

G1X50.5076Y-57.4980

G1X51.2249Y-58.9322

G1X51.8148Y-60.6082

G1X52.2123Y-62.3109

G1X52.3765Y-63.7468

G1X52.3659Y-65.0452

G1X52.1968Y-66.5972

G1X51.8558Y-68.3845

G1X51.3485Y-70.0947

G1X49.5781Y-74.1164

G1X49.3567Y-74.8057

G1X49.3500Y-75.2158

G1X49.4462Y-75.5760

G1X49.6345Y-75.8848

G1X49.9185Y-76.1516

G1X50.4823Y-76.4716

G1X51.3043Y-76.7505

G1X53.2468Y-77.0467

G1X55.8377Y-77.0025

G1X58.3169Y-76.6180

G1X59.8058Y-76.2027

G1X61.2669Y-75.6799

G1X62.4492Y-75.1599

G1X63.5769Y-74.5301

G1X65.9359Y-72.8284

G1X68.2258Y-70.5138

G1X68.3419Y-70.5337

G1X68.5274Y-70.8325

G1X68.7064Y-71.7478

G1X68.6999Y-75.9359

G1X68.5623Y-77.4047

G1X68.3055Y-78.8184

G1X67.6788Y-81.2396

G1X66.9365Y-83.5193

G1X66.1280Y-85.5219

G1X65.2531Y-87.2277

G1X63.4880Y-89.9032

G1X61.0050Y-93.0006

G1X59.1935Y-94.7954

G1X53.9678Y-99.3049

G1X51.7904Y-101.3642

G1X50.7236Y-102.5369

G1X49.9911Y-103.5051

G1X49.7823Y-103.9804

G1X49.8115Y-104.1778

G1X49.9608Y-104.2514

G1X50.7953Y-103.8243

G1X51.4157Y-103.2238

G1X52.4620Y-101.5770

G1X53.0602Y-100.1382

G1X53.3569Y-98.4628

G1X53.4276Y-96.6668

G1X53.2755Y-95.3267

G1X52.8574Y-94.2664

G1X51.0037Y-91.4276

G1X47.4108Y-86.5381

G1X44.6636Y-83.3756

G1X41.9079Y-80.6022

G1X39.3636Y-78.3095

G1X38.2076Y-77.4919

G1X37.9055Y-77.4151

G1X37.6734Y-77.4961

G1X36.9178Y-79.0137

G1X36.6365Y-79.3041

G1X36.3495Y-79.4595

G1X36.1728Y-79.4132

G1X35.9762Y-79.0537

G1X35.7557Y-77.8726

G1X35.5117Y-71.3310

G1X35.2065Y-67.3506

G1X35.2264Y-66.4856

G1X35.3648Y-65.7531

G1X35.6741Y-65.1766

G1X36.0230Y-64.9081

G1X36.9594Y-64.9327

G1X37.7809Y-65.0777

G1X38.3629Y-64.8584

G1X38.9766Y-64.3337

G1X39.7183Y-63.2065

G1X40.6084Y-61.3239

G1X41.3892Y-58.9750

G1X42.0985Y-56.2649

G1X42.7294Y-52.8044

G1X43.2172Y-51.1436

G1X43.7306Y-50.0840

G1X44.0242Y-49.7992

G1X44.3939Y-49.6140

G1X44.9148Y-49.5128

G1X45.3988Y-49.5341

G1X46.4608Y-49.8783

G1X47.7445Y-50.7335

G1X49.1260Y-52.0117

G1X50.1623Y-53.2690

G1X51.2500Y-54.9859

G1X52.1187Y-56.7459

G1X52.7044Y-58.3847

G1X53.0242Y-59.7590

G1X53.2463Y-61.3063

G1X53.3537Y-62.9543

G1X53.3307Y-64.5471

G1X53.1261Y-66.0382

G1X52.7132Y-67.7698

G1X52.0919Y-69.9769

G1X51.1351Y-72.6486

G1X51.0601Y-73.4231

G1X51.1067Y-73.9009

G1X51.2704Y-74.3094

G1X51.6183Y-74.7095

G1X52.3080Y-75.1220

G1X53.3432Y-75.4497

G1X54.5463Y-75.6335

G1X56.0359Y-75.6978

G1X57.4287Y-75.6313

G1X58.7220Y-75.4514

G1X60.2125Y-75.1274

G1X61.6859Y-74.6923

G1X62.8095Y-74.2619

G1X63.9506Y-73.7068

G1X65.1905Y-72.9778

G1X66.3055Y-72.2058

G1X67.7700Y-70.8021

G1X68.5834Y-69.8584

G1X69.2148Y-68.8350

G1X69.4344Y-68.7064

G1X69.5352Y-68.7674

G1X69.6065Y-69.0409

G1X69.8909Y-71.1803

G1X70.0148Y-72.7839

G1X69.9806Y-74.3096

G1X69.6241Y-77.7989

G1X69.1635Y-80.5429

G1X68.7216Y-82.2832

G1X68.1886Y-83.7918

G1X67.3986Y-85.5747

G1X66.4368Y-87.4160

G1X64.5437Y-90.4921

G1X63.0813Y-92.3799

G1X59.4341Y-96.1192

G1X56.4871Y-98.7705

G1X54.7949Y-100.4584

G1X51.5891Y-104.0519

G1X51.0995Y-104.7381

G1X51.0196Y-104.9091

G1X51.0695Y-104.9831

G1X51.4969Y-104.8437

G1X51.9293Y-104.4705

G1X52.8718Y-103.2281

G1X53.4339Y-102.3002

G1X53.9562Y-100.8755

G1X54.3586Y-98.5826

G1X54.4458Y-96.5789

G1X54.2414Y-95.0890

G1X53.6182Y-93.3171

G1X52.5486Y-91.3490

G1X51.7409Y-90.3967

G1X50.3970Y-89.2049

G1X46.3892Y-85.3633

G1X39.9686Y-79.9145

G1X38.0690Y-78.3552

G1X37.2304Y-77.7619

G1X36.8370Y-77.6075

G1X36.6345Y-77.6985

G1X36.0345Y-79.6937

G1X35.6646Y-80.3924

G1X35.2810Y-80.9013

G1X34.9532Y-81.0609

G1X34.6420Y-81.0323

G1X34.4401Y-80.8153

G1X34.3072Y-80.3349

G1X34.2764Y-79.3556

G1X34.4153Y-75.8962

G1X34.4066Y-69.7588

G1X34.4869Y-67.9374

G1X34.6255Y-66.9259

G1X34.8073Y-66.3848

G1X35.1662Y-66.0079

G1X35.6679Y-65.7904

G1X36.6069Y-65.7658

G1X37.1230Y-65.5264

G1X37.5191Y-65.1963

G1X38.5019Y-63.7010

G1X39.3032Y-61.9297

G1X40.2444Y-58.8638

G1X40.8056Y-56.0896

G1X40.9953Y-53.6740

G1X41.2092Y-47.1093

G1X41.3650Y-46.6180

G1X41.6419Y-46.1852

G1X41.9932Y-45.8719

G1X42.3298Y-45.7104

G1X42.8223Y-45.6243

G1X43.2756Y-45.6510

G1X44.5992Y-46.0624

G1X46.2483Y-46.9440

G1X47.7103Y-48.0462

G1X49.2566Y-49.6075

G1X50.7076Y-51.4123

G1X51.7743Y-53.0684

G1X52.6618Y-54.8793

G1X53.2152Y-56.3188

G1X53.6855Y-57.8750

G1X54.0035Y-59.3139

G1X54.1639Y-60.6654

G1X54.1914Y-62.7630

G1X54.0098Y-65.6068

G1X53.8194Y-66.8194

G1X53.2804Y-69.2570

G1X53.0873Y-71.1565

G1X53.1241Y-71.6938

G1X53.2711Y-72.1751

G1X53.5166Y-72.5759

G1X53.9246Y-72.9777

G1X54.5488Y-73.3504

G1X55.4058Y-73.6566

G1X56.4231Y-73.8510

G1X57.5781Y-73.9427

G1X58.7492Y-73.9250

G1X60.0285Y-73.7951

G1X62.5730Y-73.2574

G1X64.0349Y-72.7428

G1X65.4475Y-72.0909

G1X66.6335Y-71.4063

G1X67.6762Y-70.6220

G1X68.6290Y-69.7135

G1X69.3270Y-68.8829

G1X69.8213Y-67.9619

G1X70.2674Y-66.9379

G1X70.3333Y-66.6103

G1X70.6327Y-68.0316

G1X70.8250Y-69.6079

G1X71.0755Y-74.1485

G1X71.0736Y-76.1274

G1X70.9313Y-77.8829

G1X70.5103Y-80.1048

G1X69.8419Y-82.5780

G1X69.0021Y-85.0187

G1X68.0883Y-87.1705

G1X67.2881Y-88.6702

G1X66.3193Y-90.1776

G1X63.2093Y-94.2336

G1X62.1515Y-95.4207

G1X58.8819Y-98.7607

G1X55.5040Y-102.8341

G1X53.0806Y-105.2002

G1X52.9990Y-105.3663

G1X54.2037Y-103.7196

G1X54.8151Y-102.4310

G1X55.3352Y-99.9544

G1X55.5010Y-97.6910

G1X55.3133Y-95.9681

G1X54.6947Y-93.8362

G1X53.7074Y-91.5987

G1X53.2192Y-90.7684

G1X52.7497Y-90.1721

G1X51.8714Y-89.3599

G1X47.6299Y-86.0628

G1X46.1787Y-85.0918

G1X41.3411Y-82.1550

G1X36.0891Y-78.2761

G1X35.7705Y-78.2650

G1X35.6168Y-78.5047

G1X35.2165Y-80.3627

G1X34.6765Y-81.7195

G1X34.1748Y-82.5739

G1X33.4756Y-83.2574

G1X32.9386Y-83.5415

G1X32.7299Y-83.5270

G1X32.6049Y-83.4207

G1X32.3786Y-82.8656

G1X32.3078Y-81.8318

G1X32.3877Y-80.4727

G1X33.2482Y-74.4711

G1X33.5919Y-70.1796

G1X33.8429Y-68.7906

G1X34.3571Y-67.6217

G1X34.5979Y-67.3973

G1X35.6511Y-66.7816

G1X35.9905Y-66.4799

G1X36.7332Y-65.4515

G1X37.2995Y-64.4931

G1X37.7725Y-63.4623

G1X38.7150Y-60.9265

G1X39.2081Y-59.2975

G1X39.5215Y-57.9067

G1X39.7233Y-56.4292

G1X39.8453Y-54.6784

G1X39.8469Y-50.4803

G1X39.7010Y-48.8472

G1X39.0926Y-45.7335

G1X38.9939Y-44.6901

G1X39.0665Y-43.8417

G1X39.1917Y-43.3350

G1X39.4562Y-42.8910

G1X39.7987Y-42.6522

G1X40.2976Y-42.5256

G1X40.9041Y-42.5179

G1X42.5555Y-42.8527

G1X44.0949Y-43.4954

G1X45.7784Y-44.5386

G1X47.7424Y-46.0484

G1X49.3678Y-47.5751

G1X50.7224Y-49.1902

G1X52.0398Y-51.1528

G1X52.8380Y-52.5865

G1X53.5122Y-54.0236

G1X53.9743Y-55.2620

G1X54.3357Y-56.5709

G1X54.7434Y-58.6907

G1X55.0958Y-61.4150

G1X55.1423Y-62.7463

G1X55.0752Y-65.5505

G1X55.2447Y-68.2767

G1X55.4174Y-68.9565

G1X55.7671Y-69.7222

G1X56.1740Y-70.2771

G1X56.6969Y-70.7381

G1X57.4437Y-71.1487

G1X58.3107Y-71.4335

G1X59.3866Y-71.6325

G1X60.4849Y-71.7095

G1X61.7235Y-71.6730

G1X63.0870Y-71.5157

G1X64.3832Y-71.2493

G1X65.6688Y-70.8704

G1X66.7774Y-70.4339

G1X67.6990Y-69.9569

G1X68.6590Y-69.3276

G1X69.4848Y-68.6565

G1X70.0595Y-68.0463

G1X70.6033Y-67.2166

G1X71.1331Y-66.2017

G1X71.2670Y-65.5018

G1X71.3355Y-65.6963

G1X72.1980Y-71.8893

G1X72.3027Y-73.4786

G1X72.2796Y-74.8136

G1X71.9991Y-77.8051

G1X71.5157Y-80.8196

G1X70.9089Y-83.3904

G1X70.2086Y-85.4303

G1X69.3830Y-87.2511

G1X68.3269Y-89.2242

G1X66.7572Y-91.8896

G1X65.6279Y-93.5234

G1X61.3810Y-98.9562

G1X60.0112Y-100.9918

G1X59.2523Y-101.9291

G1X57.5473Y-103.6082

G1X55.3096Y-105.2810

G1X55.2165Y-105.2591

G1X55.2088Y-105.0803

G1X55.6562Y-104.0808

G1X55.8506Y-103.3935

G1X56.2219Y-101.2211

G1X56.3501Y-99.7212

G1X56.3267Y-98.8228

G1X56.1931Y-97.8392

G1X55.5620Y-95.2500

G1X54.6985Y-92.9072

G1X54.2229Y-91.9671

G1X53.7489Y-91.2436

G1X52.4453Y-89.7850

G1X49.9452Y-87.6192

G1X48.0155Y-86.3255

G1X45.7744Y-85.0626

G1X43.8921Y-84.2281

G1X41.6307Y-83.4921

G1X39.8664Y-82.6716

G1X38.5003Y-81.7679

G1X35.8945Y-79.7173

G1X35.0790Y-79.2869

G1X34.9338Y-79.3322

G1X34.7758Y-79.5568

G1X34.5249Y-80.8053

G1X33.7243Y-83.1548

G1X33.3131Y-83.8982

G1X32.6571Y-84.7517

G1X31.5892Y-85.8208

G1X31.1738Y-86.1119

G1X30.7572Y-86.2872

G1X30.2509Y-86.3835

G1X29.8839Y-86.3320

G1X29.6024Y-86.1216

G1X29.4762Y-85.8346

G1X29.4518Y-85.3335

G1X29.5649Y-84.6497

G1X30.8555Y-80.0191

G1X32.5529Y-71.4559

G1X32.8418Y-70.2998

G1X33.1236Y-69.5824

G1X33.5704Y-68.8061

G1X34.3375Y-67.9318

G1X35.4741Y-66.2932

G1X36.7896Y-63.6237

G1X37.4352Y-62.1507

G1X37.9147Y-60.8156

G1X38.2410Y-59.6000

G1X38.5007Y-58.2044

G1X38.7822Y-56.0944

G1X38.9542Y-53.9723

G1X39.0035Y-52.1010

G1X38.9318Y-50.4258

G1X38.5512Y-48.2727

G1X37.4136Y-44.3072

G1X36.7845Y-41.6116

G1X36.7015Y-40.8285

G1X36.8536Y-40.3779

G1X37.2127Y-40.0700

G1X37.7288Y-39.8807

G1X38.4901Y-39.8034

G1X39.2807Y-39.8642

G1X41.0808Y-40.3491

G1X43.4632Y-41.3687

G1X45.4655Y-42.4766

G1X47.0437Y-43.5956

G1X48.7876Y-45.1881

G1X50.4613Y-47.0352

G1X51.7112Y-48.6509

G1X52.6903Y-50.1382

G1X53.4678Y-51.6316

G1X54.2212Y-53.4549

G1X55.4362Y-57.2361

G1X56.1855Y-61.6892

G1X56.6521Y-63.6357

G1X57.0431Y-64.7859

G1X57.4000Y-65.4800

G1X57.9002Y-66.1583

G1X58.5440Y-66.7934

G1X59.4072Y-67.4801

G1X60.9079Y-68.3259

G1X62.5439Y-68.8041

G1X64.8930Y-69.0317

G1X67.1439Y-68.8949

G1X68.9369Y-68.4596

G1X70.3803Y-67.8074

G1X71.0927Y-67.2722

G1X71.8417Y-66.5392

G1X72.0816Y-66.1914

G1X72.3729Y-65.5006

G1X72.4921Y-65.4635

G1X72.6019Y-66.5651

G1X73.0851Y-69.0918

G1X73.2843Y-70.7109

G1X73.3395Y-72.8160

G1X73.2866Y-75.7944

G1X73.1107Y-78.4797

G1X72.8216Y-80.6423

G1X72.4070Y-82.4376

G1X71.7436Y-84.4570

G1X70.6816Y-87.0472

G1X69.1615Y-90.3035

G1X66.7047Y-94.3195

G1X64.0629Y-99.0324

G1X62.9807Y-100.4135

G1X61.4451Y-101.9417

G1X59.4221Y-103.6664

G1X57.9601Y-104.6766

G1X57.3970Y-104.8331

G1X57.2626Y-104.7836

G1X57.1320Y-104.5541

G1X57.0061Y-103.7738

G1X57.0798Y-102.0900

G1X57.0431Y-101.1202

G1X56.4811Y-97.8932

G1X56.1184Y-96.4377

G1X55.7164Y-95.2306

G1X55.2630Y-94.2233

G1X54.6592Y-93.1637

G1X53.0125Y-90.8838

G1X51.9936Y-89.7164

G1X51.1185Y-88.8552

G1X49.5278Y-87.6965

G1X46.2001Y-85.8045

G1X44.7801Y-85.1679

G1X43.7115Y-84.8454

G1X41.9599Y-84.7798

G1X40.5851Y-84.9357

G1X39.7511Y-84.7009

G1X38.9262Y-84.2712

G1X38.0171Y-83.6747

G1X34.9454Y-81.0135

G1X34.5930Y-80.7994

G1X34.3057Y-80.7725

G1X34.0876Y-80.9668

G1X33.7705Y-81.6578

G1X33.2111Y-83.4839

G1X32.8332Y-84.3428

G1X31.7618Y-85.9465

G1X30.6520Y-87.2836

G1X29.7113Y-88.1105

G1X28.5669Y-88.7267

G1X27.3008Y-89.1019

G1X26.8024Y-89.1107

G1X26.5130Y-89.0018

G1X26.2888Y-88.6541

G1X26.2342Y-88.0180

G1X26.3790Y-87.0441

G1X26.7246Y-85.7052

G1X27.2208Y-84.3037

G1X29.4198Y-78.9182

G1X31.5744Y-71.2862

G1X32.1719Y-69.8996

G1X33.8157Y-67.3701

G1X35.3936Y-64.6302

G1X36.0982Y-63.1627

G1X36.5500Y-61.9097

G1X37.0620Y-60.0481

G1X37.8862Y-56.2245

G1X38.1130Y-54.5393

G1X38.2110Y-53.0006

G1X38.1787Y-51.7101

G1X38.0022Y-50.2636

G1X37.3743Y-47.4358

G1X36.0056Y-42.8654

G1X35.5647Y-41.7742

G1X34.5513Y-39.8265

G1X34.3015Y-39.1942

G1X34.2539Y-38.7651

G1X34.3489Y-38.3272

G1X34.5646Y-37.9907

G1X34.9046Y-37.7530

G1X35.3728Y-37.6115

G1X36.1091Y-37.5648

G1X38.0414Y-37.7971

G1X40.3315Y-38.3494

G1X42.3472Y-39.1059

G1X43.9607Y-39.9816

G1X45.9206Y-41.3208

G1X47.8997Y-42.9057

G1X49.7150Y-44.5910

G1X50.7131Y-45.6645

G1X51.6238Y-46.8277

G1X52.4898Y-48.1356

G1X53.3993Y-49.7302

G1X55.1636Y-53.3812

G1X56.4770Y-57.5675

G1X57.3900Y-59.8328

G1X58.1985Y-61.2518

G1X59.0783Y-62.1187

G1X60.9179Y-63.1593

G1X63.3720Y-64.1815

G1X65.5199Y-65.4399

G1X66.9044Y-66.1520

G1X69.7856Y-67.3333

G1X70.8958Y-67.4686

G1X72.2029Y-67.2344

G1X72.7648Y-66.9374

G1X73.7616Y-66.0554

G1X74.1033Y-67.5852

G1X74.2960Y-69.0156

G1X74.5303Y-74.5404

G1X74.4190Y-77.9110

G1X74.2448Y-79.2316

G1X73.9378Y-80.7177

G1X73.0043Y-83.9520

G1X71.5752Y-87.8914

G1X70.7406Y-89.7094

G1X68.6427Y-93.5860

G1X67.8472Y-95.6450

G1X67.7905Y-96.2411

G1X67.7041Y-96.4323

G1X64.5170Y-99.9813

G1X62.0858Y-102.3747

G1X60.4549Y-103.7050

G1X59.7356Y-104.1417

G1X59.1159Y-104.3758

G1X58.7357Y-104.3937

G1X58.4537Y-104.3028

G1X58.0500Y-103.8348

G1X57.5538Y-102.4555

G1X56.9704Y-99.5271

G1X56.4456Y-97.8741

G1X54.7881Y-94.4369

G1X53.9309Y-92.9833

G1X53.1012Y-91.7982

G1X51.8669Y-90.4827

G1X50.1956Y-89.1761

G1X47.1950Y-87.1918

G1X45.9020Y-86.4816

G1X44.7684Y-85.9755

G1X43.5436Y-85.6843

G1X42.4852Y-85.7953

G1X41.9756Y-86.0371

G1X41.2306Y-86.8925

G1X40.9230Y-87.1281

G1X39.9185Y-87.5708

G1X39.1891Y-87.5471

G1X38.6543Y-87.2653

G1X37.8822Y-86.6108

G1X36.3495Y-85.0732

G1X34.5456Y-83.0968

G1X33.8207Y-82.4992

G1X33.4371Y-82.3811

G1X33.2097Y-82.4790

G1X33.0495Y-82.6643

G1X32.3731Y-84.3950

G1X30.6397Y-87.2546

G1X29.7175Y-88.4422

G1X28.7420Y-89.3086

G1X27.7356Y-89.9551

G1X26.6351Y-90.5249

G1X25.5602Y-90.9664

G1X24.6306Y-91.2276

G1X23.8989Y-91.2765

G1X23.2654Y-91.1614

G1X22.7398Y-90.8906

G1X22.3815Y-90.4619

G1X22.2542Y-89.7589

G1X22.4667Y-88.9881

G1X23.0682Y-87.8407

G1X25.0636Y-84.5793

G1X26.1806Y-82.2541

G1X28.0487Y-77.7778

G1X29.6469Y-73.2684

G1X30.8520Y-70.2381

G1X31.2969Y-69.3718

G1X32.3862Y-67.6200

G1X33.7105Y-65.6591

G1X34.4106Y-64.2914

G1X36.1588Y-59.5984

G1X36.6516Y-57.9453

G1X37.0117Y-56.3534

G1X37.2440Y-54.3570

G1X37.1903Y-52.0707

G1X36.8535Y-49.3031

G1X36.2644Y-46.3002

G1X35.5861Y-43.6952

G1X35.0975Y-42.4235

G1X34.4438Y-41.1932

G1X32.8824Y-38.8073

G1X32.4470Y-37.9651

G1X32.0654Y-36.5916

G1X32.1456Y-36.2348

G1X32.3659Y-36.0292

G1X32.7519Y-35.8782

G1X33.5130Y-35.7425

G1X35.2061Y-35.6871

G1X36.8517Y-35.8550

G1X38.5123Y-36.2488

G1X40.5270Y-37.0258

G1X42.8980Y-38.1526

G1X45.0484Y-39.3547

G1X46.9590Y-40.6202

G1X48.3484Y-41.7496

G1X49.6701Y-43.0904

G1X51.0090Y-44.7132

G1X52.4884Y-46.7783

G1X53.7855Y-48.7454

G1X54.4167Y-49.8519

G1X56.1998Y-53.9747

G1X57.0883Y-55.6646

G1X57.8848Y-56.9648

G1X58.6253Y-57.8239

G1X59.2903Y-58.3154

G1X60.2109Y-58.7064

G1X61.8514Y-59.0955

G1X63.6929Y-59.1599

G1X64.3742Y-59.2595

G1X65.5778Y-59.6928

G1X66.5207Y-60.2448

G1X67.1924Y-60.8400

G1X67.8542Y-61.7132

G1X70.5311Y-66.2976

G1X71.1911Y-66.9997

G1X71.9318Y-67.5354

G1X72.5708Y-67.8104

G1X73.0958Y-67.8381

G1X74.4538Y-67.4341

G1X74.9294Y-67.1419

G1X75.0689Y-67.1792

G1X75.3299Y-67.7651

G1X75.4676Y-68.6671

G1X75.7568Y-72.7813

G1X75.8039Y-74.8762

G1X75.5963Y-77.4942

G1X74.9004Y-80.9746

G1X74.1122Y-83.9393

G1X73.2436Y-86.6526

G1X72.3804Y-88.6461

G1X70.4701Y-92.3558

G1X69.8690Y-93.9314

G1X69.6576Y-94.9974

G1X69.9089Y-94.9495

G1X70.1828Y-94.6821

G1X70.1945Y-94.3580

G1X70.0870Y-94.0438

G1X69.9388Y-93.9437

G1X69.7110Y-94.0309

G1X68.7049Y-95.1527

G1X64.9246Y-100.0490

G1X63.6853Y-101.4246

G1X62.4920Y-102.5313

G1X61.4301Y-103.3567

G1X60.2914Y-104.0373

G1X59.3998Y-104.3771

G1X58.9561Y-104.4005

G1X58.6307Y-104.3077

G1X58.3315Y-104.0938

G1X58.0641Y-103.7243

G1X55.2692Y-96.5951

G1X54.4634Y-95.1592

G1X53.2146Y-93.5312

G1X51.1387Y-91.3849

G1X48.9284Y-89.5011

G1X46.3446Y-87.8067

G1X45.1589Y-87.1964

G1X44.2481Y-86.8466

G1X43.1140Y-86.6657

G1X42.6538Y-86.7363

G1X42.3559Y-86.8859

G1X42.0790Y-87.2345

G1X41.5215Y-88.6248

G1X40.3125Y-90.7667

G1X40.0004Y-91.0874

G1X39.7214Y-91.2310

G1X39.3051Y-91.2957

G1X38.8536Y-91.2397

G1X37.9932Y-90.8501

G1X37.1387Y-90.1008

G1X33.5187Y-84.6428

G1X32.9130Y-83.9754

G1X32.4205Y-83.7751

G1X32.1229Y-83.9824

G1X31.4901Y-84.8564

G1X30.1855Y-87.4327

G1X29.3654Y-88.6435

G1X27.9693Y-89.9219

G1X26.0126Y-91.2797

G1X23.9325Y-92.3526

G1X23.1489Y-92.6095

G1X22.2119Y-92.7695

G1X21.1409Y-92.7990

G1X20.1597Y-92.6788

G1X19.3801Y-92.4191

G1X18.9140Y-92.0298

G1X18.8196Y-91.7426

G1X18.8345Y-91.3975

G1X19.2155Y-90.3743

G1X21.0222Y-87.1893

G1X23.5982Y-83.2059

G1X24.6698Y-81.3375

G1X25.8241Y-79.0147

G1X27.3303Y-75.7062

G1X29.1607Y-71.2236

G1X30.0141Y-69.3526

G1X30.9942Y-67.5058

G1X32.1366Y-65.8663

G1X32.7207Y-64.8165

G1X34.8365Y-60.2928

G1X35.3872Y-58.7468

G1X35.7463Y-57.3242

G1X36.0464Y-54.5971

G1X36.0793Y-51.2531

G1X35.8453Y-47.8629

G1X35.3826Y-45.0481

G1X34.8196Y-43.3195

G1X33.9537Y-41.5323

G1X31.2926Y-37.0978

G1X29.9751Y-35.2796

G1X29.9092Y-35.0465

G1X29.9543Y-34.8320

G1X30.4372Y-34.4153

G1X31.3605Y-34.1037

G1X32.5400Y-33.9800

G1X33.8534Y-34.0496

G1X35.3373Y-34.3096

G1X37.8855Y-34.8996

G1X40.1358Y-35.5658

G1X42.0821Y-36.2989

G1X43.8021Y-37.1384

G1X45.6055Y-38.3414

G1X47.6609Y-40.0993

G1X49.8070Y-42.2760

G1X52.1152Y-44.9271

G1X52.8866Y-45.9410

G1X53.6093Y-47.0843

G1X55.9206Y-51.5323

G1X57.3870Y-53.7285

G1X58.4046Y-54.7845

G1X59.0053Y-55.1548

G1X59.6865Y-55.3908

G1X60.4887Y-55.5091

G1X61.6011Y-55.5356

G1X62.4960Y-55.4254

G1X64.3884Y-54.9421

G1X66.4621Y-54.7002

G1X67.2043Y-54.8927

G1X67.8113Y-55.3889

G1X68.3106Y-56.0251

G1X68.7906Y-56.8108

G1X69.7647Y-58.9446

G1X70.1775Y-60.3414

G1X71.0951Y-64.4154

G1X71.8011Y-66.5608

G1X72.3446Y-67.7076

G1X72.8172Y-68.2720

G1X73.3845Y-68.5806

G1X74.7225Y-68.7999

G1X75.7712Y-68.5240

G1X76.0182Y-68.5226

G1X76.4076Y-68.7764

G1X76.5816Y-69.1570

G1X76.9580Y-72.2774

G1X76.9603Y-74.7907

G1X76.4690Y-78.4159

G1X75.6071Y-82.5915

G1X75.0900Y-84.5069

G1X74.5979Y-85.9317

G1X73.7907Y-87.7702

G1X71.8220Y-91.7426

G1X71.0191Y-93.8318

G1X70.8227Y-94.8386

G1X70.9086Y-94.8984

G1X71.1429Y-94.8413

G1X71.7072Y-94.3693

G1X71.8827Y-94.0475

G1X71.9728Y-93.6004

G1X72.0181Y-92.1284

G1X71.8596Y-91.5436

G1X71.6622Y-91.4167

G1X71.3791Y-91.3924

G1X70.9392Y-91.5205

G1X70.5408Y-91.7602

G1X69.7777Y-92.5363

G1X67.2184Y-97.0295

G1X65.5470Y-99.3810

G1X63.9497Y-101.3331

G1X62.3689Y-102.9607

G1X61.0314Y-104.1251

G1X60.0518Y-104.7625

G1X58.9968Y-105.1526

G1X58.5375Y-105.1676

G1X58.1920Y-105.0699

G1X57.7779Y-104.7889

G1X57.4540Y-104.4032

G1X57.0903Y-103.5866

G1X56.3243Y-101.1120

G1X55.8000Y-99.9138

G1X53.7040Y-96.1656

G1X52.7749Y-94.7686

G1X51.8550Y-93.5997

G1X50.1237Y-91.8959

G1X47.8989Y-90.1634

G1X45.6155Y-88.6848

G1X44.6294Y-88.1772

G1X43.7464Y-87.8373

G1X42.8638Y-87.7259

G1X42.5388Y-87.8454

G1X42.3127Y-88.0802

G1X41.5238Y-90.2545

G1X40.7931Y-92.9533

G1X40.4169Y-93.8502

G1X39.9369Y-94.5051

G1X39.2811Y-95.1426

G1X38.6554Y-95.5518

G1X38.1194Y-95.7311

G1X37.6965Y-95.7231

G1X37.3082Y-95.5409

G1X36.9199Y-95.1578

G1X36.5439Y-94.6171

G1X34.8815Y-91.3514

G1X32.8502Y-86.5926

G1X31.9481Y-85.0763

G1X31.6434Y-84.7402

G1X31.3350Y-84.5928

G1X31.0018Y-84.6636

G1X30.7250Y-84.9622

G1X29.7743Y-87.2325

G1X28.9901Y-88.3670

G1X27.5690Y-89.8528

G1X26.2232Y-91.0988

G1X25.0395Y-92.0345

G1X23.9376Y-92.7266

G1X22.9352Y-93.1550

G1X21.7496Y-93.4679

G1X20.3943Y-93.6656

G1X19.0939Y-93.7241

G1X17.9709Y-93.6545

G1X17.1563Y-93.4714

G1X16.6268Y-93.1844

G1X16.2010Y-92.7041

G1X16.0009Y-92.1870

G1X15.9535Y-91.5902

G1X16.0592Y-90.9306

G1X16.3100Y-90.2656

G1X17.0713Y-89.1379

G1X20.2198Y-85.3549

G1X22.6117Y-81.7616

G1X24.4850Y-78.6110

G1X26.2066Y-75.1053

G1X29.6985Y-67.0670

G1X31.2343Y-64.4013

G1X33.3328Y-60.4597

G1X33.8990Y-59.0437

G1X34.2771Y-57.6344

G1X34.8617Y-54.0926

G1X35.1574Y-50.7704

G1X35.1430Y-47.9629

G1X34.8257Y-45.7615

G1X34.3639Y-44.0981

G1X33.6909Y-42.2795

G1X32.8523Y-40.3972

G1X31.6701Y-38.0419

G1X30.7859Y-36.7559

G1X28.8627Y-34.7987

G1X28.4480Y-34.2388

G1X28.3477Y-33.8561

G1X28.3680Y-33.4770

G1X28.5321Y-33.1779

G1X28.7803Y-32.9948

G1X29.2535Y-32.8340

G1X29.9265Y-32.7471

G1X32.7499Y-32.7544

G1X35.2013Y-32.9239

G1X37.3059Y-33.2673

G1X38.8525Y-33.6899

G1X40.2309Y-34.2428

G1X41.8874Y-35.1135

G1X43.8126Y-36.3114

G1X45.8350Y-37.7369

G1X47.7544Y-39.2372

G1X49.5234Y-40.7701

G1X50.8065Y-42.0503

G1X52.2825Y-44.0232

G1X54.6747Y-48.2539

G1X56.3831Y-50.7601

G1X57.3439Y-51.9431

G1X58.3009Y-52.6369

G1X58.9856Y-52.8629

G1X59.6866Y-52.9310

G1X60.4929Y-52.8753

G1X61.5676Y-52.6788

G1X62.5100Y-52.3049

G1X65.8924Y-50.4953

G1X66.5080Y-50.2756

G1X66.9593Y-50.2883

G1X67.6145Y-50.5269

G1X68.1191Y-50.8131

G1X68.6228Y-51.2332

G1X69.2501Y-52.0334

G1X69.7354Y-52.9721

G1X70.2138Y-54.3174

G1X70.7354Y-56.2120

G1X71.8857Y-61.5054

G1X72.4179Y-66.5233

G1X72.5951Y-67.3747

G1X72.8597Y-68.0842

G1X73.4577Y-68.9841

G1X74.4625Y-69.7590

G1X74.9656Y-69.9325

G1X76.3093Y-69.8821

G1X77.1975Y-70.0591

G1X77.5288Y-70.3358

G1X77.7762Y-71.0296

G1X78.0379Y-72.6519

G1X78.0107Y-74.5837

G1X77.5131Y-78.7387

G1X76.8297Y-82.2313

G1X76.4096Y-83.6974

G1X75.8545Y-85.1827

G1X72.0977Y-93.4059

G1X71.6802Y-94.4546

G1X71.5781Y-95.0192

G1X71.6989Y-95.1898

G1X72.0334Y-95.2186

G1X72.4510Y-95.0488

G1X72.8261Y-94.7114

G1X73.1398Y-93.9784

G1X73.4307Y-92.7104

G1X73.5579Y-91.5715

G1X73.5030Y-90.7285

G1X73.2199Y-90.0702

G1X72.6398Y-89.3652

G1X72.0316Y-88.9623

G1X71.4400Y-88.9001

G1X70.9482Y-89.2474

G1X70.4298Y-89.9832

G1X68.7688Y-93.1129

G1X66.6114Y-97.4754

G1X65.0460Y-100.0209

G1X63.5459Y-102.2135

G1X62.2965Y-103.7768

G1X60.7311Y-105.3346

G1X59.3330Y-106.3936

G1X58.7477Y-106.6956

G1X58.2987Y-106.8262

G1X57.9520Y-106.8358

G1X57.5994Y-106.7197

G1X57.3065Y-106.4689

G1X56.9886Y-106.0017

G1X56.0397Y-104.0879

G1X54.8302Y-100.5174

G1X54.2045Y-99.0006

G1X53.3853Y-97.5963

G1X52.2162Y-96.0454

G1X50.1856Y-93.8335

G1X47.8976Y-91.7463

G1X45.3882Y-89.9063

G1X44.3600Y-89.3062

G1X43.5785Y-88.9747

G1X42.9258Y-88.8610

G1X42.4690Y-89.0011

G1X42.1231Y-89.3836

G1X41.7462Y-90.1209

G1X41.5068Y-91.0268

G1X41.2224Y-93.5511

G1X41.0044Y-94.7459

G1X40.7085Y-95.6187

G1X40.0040Y-96.9331

G1X39.0999Y-98.2701

G1X38.2072Y-99.3242

G1X37.4400Y-99.9682

G1X36.7978Y-100.1968

G1X36.1591Y-100.1234

G1X35.5572Y-99.7531

G1X34.9993Y-99.0993

G1X34.4648Y-98.1136

G1X34.0078Y-96.5693

G1X33.1459Y-91.8259

G1X32.6693Y-89.9864

G1X32.0054Y-88.1263

G1X31.2935Y-86.4931

G1X30.7102Y-85.4867

G1X30.2619Y-85.0769

G1X30.1138Y-85.0799

G1X29.9924Y-85.1906

G1X29.1642Y-86.7883

G1X26.1314Y-90.8383

G1X24.8197Y-92.0941

G1X23.4512Y-92.8924

G1X21.9443Y-93.4883

G1X20.3438Y-93.9453

G1X18.6116Y-94.2691

G1X17.2536Y-94.3595

G1X16.2046Y-94.2249

G1X15.2524Y-93.8932

G1X14.3913Y-93.3489

G1X13.8688Y-92.7513

G1X13.6888Y-92.3197

G1X13.6641Y-91.9155

G1X13.7971Y-91.4315

G1X14.1197Y-90.8280

G1X17.1835Y-86.8144

G1X19.8452Y-83.4870

G1X21.0511Y-81.8390

G1X22.9532Y-78.7489

G1X24.9408Y-75.0470

G1X26.4025Y-71.9231

G1X28.2192Y-67.0888

G1X29.0971Y-64.9883

G1X30.5630Y-61.7499

G1X32.2468Y-58.3842

G1X32.7013Y-57.0407

G1X33.5777Y-53.6606

G1X34.0787Y-50.7385

G1X34.1699Y-48.2575

G1X34.0480Y-46.6623

G1X33.8175Y-45.0024

G1X33.0621Y-41.6430

G1X32.4005Y-39.6705

G1X31.7761Y-38.3922

G1X30.8769Y-37.0810

G1X28.5440Y-34.3406

G1X27.2163Y-32.5032

G1X27.1140Y-32.1556

G1X27.3598Y-31.9360

G1X29.1587Y-31.4674

G1X31.1122Y-31.2348

G1X32.9679Y-31.2615

G1X34.7222Y-31.5376

G1X37.2815Y-32.3330

G1X40.3222Y-33.5320

G1X43.1768Y-34.8743

G1X45.5618Y-36.2144

G1X47.6966Y-37.7408

G1X48.5545Y-38.5490

G1X49.4201Y-39.5135

G1X50.9587Y-41.5897

G1X53.3638Y-45.3906

G1X56.2270Y-49.6119

G1X57.0060Y-50.4638

G1X57.8252Y-50.9280

G1X58.5175Y-51.0737

G1X59.3161Y-51.0460

G1X60.4019Y-50.7984

G1X61.3002Y-50.4563

G1X62.2623Y-49.8549

G1X64.0429Y-48.4906

G1X65.4458Y-47.0874

G1X66.0347Y-46.6830

G1X66.7438Y-46.5553

G1X67.2120Y-46.5613

G1X67.6943Y-46.7238

G1X68.1214Y-47.0413

G1X68.5835Y-47.5780

G1X69.1124Y-48.3999

G1X70.4724Y-50.9639

G1X71.5584Y-53.5129

G1X72.2542Y-55.7126

G1X72.5205Y-57.0739

G1X72.6990Y-58.7595

G1X72.9839Y-65.5377

G1X73.3457Y-67.9491

G1X73.7575Y-69.3906

G1X74.2032Y-70.1830

G1X74.8058Y-70.6363

G1X75.3078Y-70.7889

G1X78.0447Y-71.2829

G1X78.4084Y-71.6600

G1X78.7630Y-72.4200

G1X78.9553Y-73.7055

G1X78.8878Y-76.1093

G1X78.6533Y-78.5525

G1X78.2546Y-80.7584

G1X77.5934Y-82.9803

G1X76.4182Y-85.9464

G1X74.3584Y-90.6062

G1X72.6470Y-93.9051

G1X72.2626Y-94.7889

G1X72.1968Y-95.3661

G1X72.4496Y-95.7513

G1X72.7022Y-95.8464

G1X72.9863Y-95.8368

G1X73.2657Y-95.7201

G1X73.5040Y-95.4940

G1X74.2025Y-94.2221

G1X74.7659Y-92.7033

G1X74.9548Y-91.6310

G1X74.8412Y-90.6856

G1X74.5558Y-89.8763

G1X74.1508Y-89.0650

G1X73.6125Y-88.2382

G1X73.1140Y-87.6581

G1X72.7023Y-87.3281

G1X72.2802Y-87.1571

G1X71.8237Y-87.1120

G1X71.3499Y-87.1854

G1X70.6895Y-87.4735

G1X70.1582Y-87.8790

G1X69.7061Y-88.3984

G1X69.3553Y-89.0173

G1X65.9141Y-98.6644

G1X65.0649Y-100.5782

G1X64.1424Y-102.1773

G1X62.2955Y-104.7724

G1X60.2939Y-107.0843

G1X58.7213Y-108.4412

G1X58.0320Y-108.8436

G1X57.4015Y-109.0556

G1X56.9905Y-109.0808

G1X56.6148Y-108.9934

G1X56.2329Y-108.7475

G1X56.0112Y-108.4360

G1X55.7404Y-107.5854

G1X55.2550Y-104.8663

G1X54.8888Y-103.7118

G1X53.0631Y-99.9499

G1X52.1535Y-98.4034

G1X51.2700Y-97.1068

G1X49.4410Y-94.9475

G1X47.0115Y-92.5812

G1X45.0893Y-91.0249

G1X44.1526Y-90.4235

G1X43.3210Y-90.0207

G1X42.6871Y-89.8603

G1X42.2185Y-89.8850

G1X41.8232Y-90.0759

G1X41.5303Y-90.4377

G1X41.3734Y-91.3261

G1X41.3686Y-94.1830

G1X41.1342Y-95.5039

G1X39.9241Y-98.4319

G1X38.3955Y-101.2827

G1X37.4773Y-102.5910

G1X36.6718Y-103.3799

G1X35.4891Y-104.0885

G1X34.3974Y-104.3800

G1X33.7672Y-104.3532

G1X33.2314Y-104.1395

G1X32.8448Y-103.7474

G1X32.6319Y-103.2222

G1X32.4753Y-101.8769

G1X32.4487Y-97.3287

G1X32.1266Y-95.0318

G1X31.3571Y-91.2985

G1X30.5506Y-88.0873

G1X29.9036Y-86.2168

G1X29.6135Y-85.6702

G1X29.3941Y-85.4510

G1X29.1638Y-85.4025

G1X28.9021Y-85.5032

G1X28.2667Y-86.0750

G1X26.6809Y-89.3224

G1X26.1825Y-90.1072

G1X25.5924Y-90.7948

G1X24.7219Y-91.5067

G1X23.6312Y-92.2449

G1X21.1501Y-93.5840

G1X19.9102Y-94.0973

G1X18.7710Y-94.4482

G1X17.8883Y-94.5927

G1X16.8526Y-94.5974

G1X15.6195Y-94.4104

G1X14.4249Y-94.0258

G1X13.5126Y-93.5225

G1X13.0076Y-92.9801

G1X12.8265Y-92.3580

G1X12.9092Y-91.5351

G1X13.2833Y-90.4878

G1X13.9175Y-89.2474

G1X14.8075Y-88.0060

G1X17.8126Y-84.4413

G1X19.5999Y-81.9082

G1X22.3397Y-77.6700

G1X23.3464Y-75.8891

G1X24.1101Y-74.3465

G1X25.0057Y-72.2223

G1X26.0019Y-69.5020

G1X27.4590Y-65.2717

G1X29.0829Y-60.0558

G1X30.8724Y-55.7478

G1X31.7630Y-52.9810

G1X32.2702Y-51.1164

G1X32.6400Y-49.1611

G1X33.0034Y-45.6162

G1X33.0139Y-43.5703

G1X32.7866Y-41.7555

G1X32.3800Y-40.3348

G1X31.6341Y-38.5807

G1X30.5776Y-36.5862

G1X29.1497Y-34.2216

G1X28.3729Y-33.2687

G1X26.6320Y-31.8409

G1X26.2842Y-31.4280

G1X26.2955Y-31.0988

G1X26.6544Y-30.6910

G1X27.2401Y-30.3703

G1X27.9749Y-30.1573

G1X29.1837Y-30.0326

G1X30.5540Y-30.0993

G1X34.2804Y-30.6335

G1X37.0919Y-31.1792

G1X39.1335Y-31.7077

G1X40.9062Y-32.3028

G1X42.4582Y-32.9834

G1X43.7395Y-33.7294

G1X44.8450Y-34.5556

G1X46.0878Y-35.6653

G1X47.3707Y-36.9816

G1X48.7406Y-38.5438

G1X53.3805Y-44.4080

G1X54.1840Y-45.6834

G1X55.3604Y-47.9578

G1X55.8147Y-48.6795

G1X56.3938Y-49.2670

G1X57.1550Y-49.6802

G1X57.8218Y-49.8118

G1X58.5813Y-49.7651

G1X59.5216Y-49.5191

G1X60.3917Y-49.1677

G1X61.6591Y-48.2739

G1X63.4123Y-46.6394

G1X63.9197Y-46.0378

G1X64.9956Y-44.4781

G1X65.4639Y-44.0147

G1X66.1670Y-43.5741

G1X66.5503Y-43.4619

G1X66.9889Y-43.5664

G1X67.5399Y-43.9799

G1X69.2614Y-45.8847

G1X70.6016Y-47.7887

G1X71.6167Y-49.8048

G1X72.2613Y-51.8466

G1X72.6838Y-53.8044

G1X73.0785Y-56.1660

G1X73.8757Y-62.6951

G1X73.9640Y-64.7262

G1X73.8148Y-68.5764

G1X73.8857Y-69.3136

G1X74.0758Y-69.9679

G1X74.5749Y-70.7023

G1X75.2938Y-71.1714

G1X76.6796Y-71.7576

G1X78.0595Y-71.9073

G1X78.5902Y-72.0868

G1X79.2140Y-72.6599

G1X79.5597Y-73.3084

G1X79.7657Y-74.3822

G1X79.8567Y-76.4029

G1X79.7598Y-77.9766

G1X79.4854Y-79.6367

G1X79.0358Y-81.3387

G1X78.3078Y-83.5798

G1X76.4487Y-88.3877

G1X75.6425Y-90.0391

G1X73.6336Y-93.4660

G1X73.0822Y-94.5811

G1X72.8672Y-95.5978

G1X72.9155Y-96.0577

G1X73.0594Y-96.3881

G1X73.3281Y-96.5951

G1X73.6777Y-96.5219

G1X74.4215Y-95.8533

G1X75.1425Y-94.9877

G1X75.5996Y-94.2754

G1X75.9355Y-93.5249

G1X76.0724Y-92.8842

G1X76.0705Y-92.1933

G1X75.9143Y-91.0893

G1X75.5795Y-89.8050

G1X75.1185Y-88.5832

G1X74.6246Y-87.6459

G1X74.1821Y-87.0760

G1X73.6145Y-86.5987

G1X72.9596Y-86.2208

G1X72.1617Y-85.9153

G1X71.3744Y-85.7499

G1X70.6641Y-85.7299

G1X70.0271Y-85.8662

G1X69.5024Y-86.1135

G1X69.0235Y-86.4969

G1X68.5880Y-87.0383

G1X68.1936Y-87.7593

G1X67.8640Y-88.6036

G1X67.5689Y-90.1053

G1X67.1578Y-94.4457

G1X66.7476Y-96.4496

G1X65.3730Y-100.2102

G1X63.5725Y-104.0866

G1X61.9986Y-106.7655

G1X61.2911Y-107.7049

G1X60.4054Y-108.6932

G1X59.3102Y-109.7243

G1X58.0799Y-110.6864

G1X57.0020Y-111.3537

G1X56.1820Y-111.6758

G1X55.6826Y-111.6153

G1X55.3587Y-111.1474

G1X54.5601Y-108.3996

G1X53.8081Y-104.7933

G1X53.3366Y-103.0751

G1X52.7131Y-101.5502

G1X51.5787Y-99.6064

G1X49.4523Y-96.6857

G1X47.1468Y-94.0946

G1X46.0701Y-93.1043

G1X44.8324Y-92.1258

G1X43.7176Y-91.3813

G1X42.7189Y-90.8583

G1X42.1606Y-90.6657

G1X41.7665Y-90.6179

G1X41.4399Y-90.7194

G1X41.2907Y-90.9391

G1X41.2327Y-91.4308

G1X41.2758Y-93.3532

G1X41.0894Y-94.5252

G1X39.3705Y-100.6036

G1X38.6679Y-102.4147

G1X37.9475Y-103.7636

G1X37.4136Y-104.4700

G1X36.7832Y-105.1307

G1X35.1089Y-106.4708

G1X33.1727Y-107.5643

G1X32.3147Y-107.8903

G1X31.6701Y-108.0279

G1X31.2343Y-108.0098

G1X30.8965Y-107.8168

G1X30.6976Y-107.4555

G1X30.6076Y-106.9437

G1X30.7374Y-102.7512

G1X30.5099Y-94.0377

G1X30.2160Y-90.5711

G1X29.8621Y-88.9739

G1X29.3269Y-87.4150

G1X28.6804Y-86.1213

G1X28.0199Y-85.2945

G1X27.7006Y-85.1348

G1X27.4503Y-85.3225

G1X26.6999Y-87.7572

G1X26.4103Y-88.3545

G1X26.0245Y-88.8983

G1X24.6400Y-90.3878

G1X23.2097Y-91.7514

G1X21.9343Y-92.7969

G1X20.8421Y-93.5190

G1X20.0036Y-93.9146

G1X19.1628Y-94.1583

G1X18.1648Y-94.3099

G1X17.0477Y-94.3463

G1X15.8854Y-94.2529

G1X14.8781Y-94.0502

G1X14.1361Y-93.7804

G1X13.5615Y-93.3862

G1X13.0529Y-92.6973

G1X12.7913Y-91.7487

G1X12.8495Y-90.6743

G1X13.1808Y-89.7155

G1X13.9120Y-88.4884

G1X19.2846Y-80.8415

G1X20.7890Y-78.5166

G1X22.3686Y-75.4484

G1X24.0347Y-71.4141

G1X25.1459Y-68.2829

G1X25.8928Y-65.8532

G1X26.3818Y-63.7643

G1X27.2665Y-59.2393

G1X28.0783Y-56.2062

G1X30.6582Y-47.8509

G1X31.7905Y-45.2335

G1X32.1128Y-44.1773

G1X32.2358Y-42.8245

G1X32.0784Y-40.7135

G1X31.7014Y-38.6060

G1X31.1553Y-36.6959

G1X30.6601Y-35.5252

G1X29.9916Y-34.5130

G1X29.1652Y-33.5526

G1X27.2484Y-31.5907

G1X26.7023Y-30.8809

G1X26.2776Y-30.0010

G1X26.2124Y-29.6686

G1X26.3708Y-29.4352

G1X26.8320Y-29.2856

G1X29.8890Y-29.0558

G1X31.8653Y-28.9939

G1X33.7274Y-29.0612

G1X35.4309Y-29.2692

G1X36.9016Y-29.5996

G1X38.2167Y-30.0559

G1X39.6078Y-30.7416

G1X41.2499Y-31.7397

G1X43.6648Y-33.4572

G1X46.2382Y-35.5310

G1X48.8230Y-37.8395

G1X51.0245Y-40.0371

G1X51.8941Y-41.1342

G1X52.6982Y-42.4569

G1X53.3620Y-43.8605

G1X54.4025Y-46.4421

G1X54.9069Y-47.4052

G1X55.7307Y-48.3115

G1X56.2033Y-48.6380

G1X56.6612Y-48.8391

G1X57.1092Y-48.9346

G1X57.6409Y-48.9376

G1X58.9020Y-48.6553

G1X59.7057Y-48.2871

G1X60.6230Y-47.6308

G1X61.6767Y-46.6786

G1X62.8888Y-45.4171

G1X63.4691Y-44.6122

G1X64.6812Y-42.6131

G1X65.5729Y-41.5738

G1X65.9001Y-41.2971

G1X66.2975Y-41.2448

G1X66.7234Y-41.4266

G1X68.3181Y-42.7022

G1X69.2225Y-43.6523

G1X69.9964Y-44.6471

G1X70.6701Y-45.7112

G1X71.3213Y-47.0012

G1X72.2345Y-49.1215

G1X73.1162Y-51.4724

G1X73.8480Y-53.7453

G1X74.3871Y-55.7910

G1X74.7519Y-57.7240

G1X74.8683Y-59.4486

G1X74.7634Y-61.7888

G1X74.2053Y-67.1045

G1X74.2505Y-68.4071

G1X74.4891Y-69.6089

G1X74.7173Y-70.1842

G1X75.0378Y-70.6934

G1X76.0676Y-71.6830

G1X76.7273Y-71.9539

G1X78.1905Y-72.1283

G1X78.7285Y-72.2701

G1X79.7285Y-72.8342

G1X80.2262Y-73.4004

G1X80.4507Y-73.9459

G1X80.6315Y-74.6946

G1X80.7881Y-76.2867

G1X80.6931Y-77.9422

G1X80.3517Y-79.9170

G1X79.4760Y-83.4169

G1X78.3962Y-86.5215

G1X77.3679Y-88.5963

G1X74.7455Y-93.1269

G1X73.8959Y-95.1130

G1X73.5798Y-96.2588

G1X73.5537Y-96.9946

G1X73.6567Y-97.1767

G1X73.8065Y-97.2224

G1X74.4599Y-97.0614

G1X75.3400Y-96.5840

G1X76.0887Y-95.9375

G1X76.5585Y-95.2313

G1X76.7697Y-94.4854

G1X76.9477Y-92.8320

G1X76.8946Y-90.9416

G1X76.6139Y-89.3779

G1X76.1397Y-88.2651

G1X75.3900Y-87.3217

G1X74.2586Y-86.3607

G1X72.9262Y-85.5372

G1X71.4613Y-84.8927

G1X70.0841Y-84.5198

G1X68.8101Y-84.4135

G1X67.8919Y-84.5984

G1X67.5200Y-84.8100

G1X67.2253Y-85.1140

G1X67.0060Y-85.5720

G1X66.8978Y-86.2094

G1X67.0251Y-90.6883

G1X66.3453Y-96.7924

G1X65.7239Y-100.5362

G1X65.3393Y-102.0681

G1X64.8961Y-103.3984

G1X64.3737Y-104.5703

G1X63.6299Y-105.8709

G1X62.7518Y-107.1579

G1X61.6434Y-108.5781

G1X60.2028Y-110.2192

G1X58.6357Y-111.8280

G1X57.1563Y-113.2067

G1X56.1303Y-113.9670

G1X55.3631Y-114.3222

G1X54.7243Y-114.3886

G1X54.2065Y-114.1790

G1X53.7725Y-113.6343

G1X53.6681Y-113.2044

G1X53.6421Y-112.5741

G1X53.8479Y-108.8842

G1X53.7794Y-107.9320

G1X53.6245Y-107.1198

G1X52.9686Y-105.1062

G1X52.1232Y-103.0494

G1X51.1400Y-101.0652

G1X50.1258Y-99.3528

G1X49.3166Y-98.1971

G1X48.3771Y-97.0562

G1X45.8174Y-94.4479

G1X43.1139Y-92.1824

G1X42.1469Y-91.5636

G1X41.4085Y-91.2644

G1X41.1236Y-91.3177

G1X40.9176Y-91.5613

G1X40.3465Y-93.3602

G1X40.1980Y-94.5020

G1X40.0320Y-98.3545

G1X39.8263Y-100.2791

G1X39.3931Y-102.0809

G1X38.7064Y-103.5027

G1X37.7298Y-104.8189

G1X36.3357Y-106.3217

G1X34.6927Y-107.8265

G1X32.8920Y-109.2526

G1X31.4787Y-110.1999

G1X30.4664Y-110.7008

G1X29.6548Y-110.8212

G1X29.3693Y-110.7477

G1X29.0706Y-110.5524

G1X28.7499Y-110.0961

G1X28.5023Y-109.3318

G1X28.3444Y-108.1907

G1X28.3123Y-106.9807

G1X28.5587Y-105.0923

G1X29.7673Y-98.7056

G1X29.9531Y-96.8086

G1X29.9263Y-95.3210

G1X29.5907Y-93.0672

G1X28.9280Y-90.4464

G1X27.8927Y-87.3821

G1X26.9349Y-85.2074

G1X26.8154Y-85.1086

G1X26.6885Y-85.1968

G1X26.1506Y-86.3795

G1X25.4169Y-87.4311

G1X23.7473Y-90.1598

G1X22.8928Y-91.3352

G1X21.9131Y-92.3069

G1X20.5457Y-93.0497

G1X19.1730Y-93.4913

G1X17.7983Y-93.7426

G1X16.4957Y-93.8026

G1X15.5639Y-93.6460

G1X14.8639Y-93.2542

G1X14.2664Y-92.5907

G1X13.8411Y-91.6816

G1X13.6704Y-90.6948

G1X13.7260Y-89.8907

G1X13.9363Y-89.0125

G1X14.8816Y-86.7081

G1X15.6967Y-85.1868

G1X18.1967Y-81.3367

G1X19.3660Y-79.3015

G1X21.4695Y-74.8334

G1X23.1091Y-70.7779

G1X23.9751Y-68.1186

G1X24.5705Y-65.5347

G1X26.4375Y-52.6240

G1X26.8581Y-50.5094

G1X27.3424Y-48.5726

G1X27.8283Y-47.1327

G1X28.3687Y-46.0217

G1X28.8719Y-45.3850

G1X30.1065Y-44.1452

G1X30.5772Y-43.4749

G1X31.5259Y-41.5081

G1X31.9586Y-40.1596

G1X32.0690Y-39.1071

G1X31.9725Y-38.1658

G1X31.6307Y-37.0285

G1X31.0416Y-35.6602

G1X29.8911Y-33.4709

G1X28.4150Y-30.9914

G1X27.7512Y-30.2864

G1X26.1234Y-28.9464

G1X26.0698Y-28.6669

G1X26.3766Y-28.4026

G1X27.8462Y-27.8242

G1X29.6227Y-27.5205

G1X31.4319Y-27.5383

G1X33.1863Y-27.8562

G1X36.3168Y-28.9322

G1X39.8756Y-30.4342

G1X43.1587Y-32.0649

G1X45.8092Y-33.6376

G1X47.0029Y-34.4775

G1X47.9835Y-35.2824

G1X48.7486Y-36.0587

G1X49.5028Y-37.0053

G1X50.2904Y-38.2163

G1X51.0324Y-39.5876

G1X53.1163Y-44.2890

G1X53.8234Y-45.6575

G1X54.5518Y-46.6573

G1X55.2786Y-47.4725

G1X55.8243Y-47.9288

G1X56.3981Y-48.2144

G1X57.2840Y-48.3068

G1X57.8545Y-48.2472

G1X58.3299Y-48.1005

G1X59.3420Y-47.5284

G1X60.5375Y-46.5673

G1X61.9058Y-45.2493

G1X62.4525Y-44.6145

G1X64.3188Y-41.6714

G1X65.3690Y-40.2034

G1X65.6770Y-39.8845

G1X66.0587Y-39.7657

G1X66.5174Y-39.8804

G1X67.3050Y-40.3140

G1X68.0800Y-40.9022

G1X69.0718Y-41.8777

G1X69.9332Y-42.9553

G1X72.0950Y-46.4508

G1X73.0212Y-48.1828

G1X73.7912Y-49.8396

G1X74.3750Y-51.3526

G1X74.8013Y-52.7827

G1X75.1047Y-54.4146

G1X75.2603Y-56.3737

G1X75.2842Y-58.7712

G1X75.1361Y-64.8215

G1X75.2613Y-69.0161

G1X75.3600Y-69.8351

G1X75.5317Y-70.4625

G1X75.8918Y-71.1002

G1X76.4747Y-71.4995

G1X77.0804Y-71.6714

G1X78.7127Y-71.9327

G1X80.2979Y-72.4603

G1X80.8654Y-72.8178

G1X81.2323Y-73.3552

G1X81.5497Y-74.2321

G1X81.7202Y-75.2228

G1X81.7705Y-76.2849

G1X81.6496Y-78.5627

G1X81.4061Y-80.5212

G1X81.0239Y-82.3329

G1X80.5065Y-83.9928

G1X79.1472Y-87.0478

G1X76.1045Y-93.0179

G1X74.6466Y-95.7178

G1X74.1759Y-96.8160

G1X74.1492Y-97.3263

G1X74.2709Y-97.5130

G1X74.5539Y-97.6864

G1X75.2606Y-97.7678

G1X76.0396Y-97.5428

G1X76.4287Y-97.2660

G1X76.6611Y-96.9838

G1X77.2819Y-95.7385

G1X77.8872Y-93.9686

G1X78.1836Y-92.3989

G1X78.1939Y-91.3487

G1X78.0206Y-90.5387

G1X77.6160Y-89.5997

G1X76.9751Y-88.5793

G1X75.8110Y-87.2101

G1X74.4813Y-86.0242

G1X73.1594Y-85.1432

G1X71.5518Y-84.3633

G1X69.5297Y-83.6599

G1X67.9538Y-83.3758

G1X67.3818Y-83.3938

G1X66.9342Y-83.5132

G1X66.5427Y-83.7310

G1X66.2546Y-84.0449

G1X66.0249Y-84.5473

G1X65.8676Y-85.3224

G1X65.7353Y-88.0032

G1X65.9028Y-89.4705

G1X66.6979Y-94.1025

G1X66.8890Y-96.6363

G1X66.7704Y-98.4933

G1X66.3518Y-100.2995

G1X65.5837Y-102.4477

G1X64.5280Y-104.8069

G1X63.2003Y-107.3516

G1X61.6916Y-109.8975

G1X60.3461Y-111.9075

G1X59.2611Y-113.2953

G1X58.1487Y-114.3902

G1X56.7914Y-115.4214

G1X55.4696Y-116.1923

G1X54.2121Y-116.7353

G1X53.0974Y-117.0090

G1X52.7865Y-116.9903

G1X52.6384Y-116.8796

G1X52.6092Y-116.3441

G1X53.0549Y-114.6476

G1X53.2208Y-113.5698

G1X52.9883Y-110.4342

G1X52.7380Y-108.3387

G1X52.4137Y-106.6469

G1X51.9509Y-105.0465

G1X51.3899Y-103.6885

G1X50.3235Y-101.7870

G1X48.8748Y-99.6324

G1X47.0570Y-97.2391

G1X45.1664Y-95.0086

G1X43.8471Y-93.6431

G1X42.5769Y-92.5659

G1X41.3968Y-91.8229

G1X40.3825Y-91.4870

G1X39.8977Y-91.5083

G1X39.5590Y-91.6676

G1X39.2930Y-91.9881

G1X39.2053Y-92.4066

G1X39.2947Y-93.2824

G1X39.8734Y-95.8052

G1X40.0864Y-97.0967

G1X40.1484Y-98.4287

G1X39.9997Y-99.6332

G1X39.7319Y-100.4809

G1X39.1516Y-101.7447

G1X37.3826Y-104.7575

G1X35.8117Y-107.0266

G1X34.1877Y-109.1128

G1X32.7350Y-110.7364

G1X31.5466Y-111.7864

G1X30.3385Y-112.4641

G1X29.0153Y-112.8382

G1X28.3875Y-112.8873

G1X27.7096Y-112.8318

G1X27.1922Y-112.6900

G1X26.7493Y-112.4632

G1X26.3464Y-112.0941

G1X26.1157Y-111.6903

G1X26.0179Y-111.2241

G1X26.0721Y-110.5875

G1X26.4648Y-109.2273

G1X27.9075Y-105.5621

G1X28.5424Y-103.6550

G1X28.9192Y-101.8688

G1X28.9960Y-100.1865

G1X28.7680Y-96.9048

G1X28.1531Y-92.8117

G1X27.1736Y-88.1531

G1X26.8423Y-87.0035

G1X26.4488Y-86.0358

G1X26.1458Y-85.5375

G1X25.7870Y-85.1864

G1X25.4251Y-85.0669

G1X25.0405Y-85.1828

G1X24.6435Y-85.8860

G1X23.6435Y-89.0572

G1X23.3010Y-89.7781

G1X22.9510Y-90.2856

G1X22.0641Y-91.0925

G1X20.9537Y-91.8396

G1X19.5643Y-92.5533

G1X18.3732Y-92.9764

G1X17.7034Y-93.0889

G1X17.2012Y-93.0380

G1X16.6699Y-92.8017

G1X16.1465Y-92.3406

G1X15.6722Y-91.6553

G1X15.2592Y-90.7152

G1X15.0657Y-89.8951

G1X15.0124Y-89.0730

G1X15.2014Y-87.3891

G1X15.7142Y-85.5676

G1X20.8535Y-73.9154

G1X21.8453Y-71.2220

G1X22.4944Y-68.8742

G1X23.1976Y-65.2152

G1X23.8273Y-60.4635

G1X24.1596Y-56.8906

G1X24.3044Y-50.5995

G1X24.6688Y-47.6179

G1X25.1134Y-45.7878

G1X25.6650Y-44.6220

G1X26.0507Y-44.1224

G1X26.5626Y-43.6328

G1X28.6162Y-42.2215

G1X30.5683Y-41.5967

G1X31.1892Y-41.3022

G1X31.7205Y-40.7455

G1X31.9806Y-39.9526

G1X32.1172Y-38.5856

G1X32.0546Y-36.8612

G1X31.8045Y-35.1999

G1X31.4073Y-33.7854

G1X31.0242Y-32.9815

G1X30.3841Y-32.0860

G1X27.7353Y-29.2789

G1X27.1192Y-28.4975

G1X26.9490Y-28.1198

G1X26.8552Y-27.4081

G1X26.9549Y-27.0410

G1X27.2368Y-26.7741

G1X27.9737Y-26.5957

G1X29.2209Y-26.6470

G1X33.7796Y-27.2675

G1X36.8961Y-27.8618

G1X38.9869Y-28.4149

G1X40.7869Y-29.0457

G1X42.2560Y-29.7248

G1X43.5507Y-30.5271

G1X44.4172Y-31.2339

G1X45.3367Y-32.1404

G1X47.3017Y-34.5501

G1X49.0616Y-37.1468

G1X52.2454Y-42.2899

G1X53.8343Y-44.6087

G1X55.2727Y-47.0999

G1X55.7060Y-47.5886

G1X56.2061Y-47.8534

G1X56.6448Y-47.9300

G1X57.0491Y-47.8921

G1X58.0942Y-47.4822

G1X59.3579Y-46.6264

G1X60.9987Y-45.2302

G1X62.0214Y-44.0786

G1X65.2296Y-39.5403

G1X65.7295Y-39.0419

G1X66.1977Y-38.9195

G1X66.8972Y-39.0960

G1X67.6883Y-39.5331

G1X68.5547Y-40.2231

G1X69.4685Y-41.1622

G1X70.3324Y-42.2458

G1X71.7370Y-44.2021

G1X72.8359Y-45.9308

G1X73.6150Y-47.3489

G1X74.2172Y-48.6436

G1X74.6842Y-49.8804

G1X75.0744Y-51.2336

G1X75.4956Y-53.2000

G1X75.8671Y-55.6051

G1X76.1634Y-58.3197

G1X76.3871Y-61.3655

G1X76.3242Y-63.6204

G1X75.7843Y-68.0669

G1X75.8005Y-68.9984

G1X75.9499Y-69.6410

G1X76.3613Y-70.2895

G1X77.0232Y-70.7125

G1X79.3891Y-71.3627

G1X81.2698Y-71.5853

G1X81.6120Y-71.7225

G1X81.9506Y-72.0023

G1X82.4640Y-72.7961

G1X82.7880Y-73.8646

G1X82.9943Y-75.6787

G1X83.0403Y-77.4885

G1X82.8836Y-79.2935

G1X82.4765Y-81.2125

G1X81.6720Y-83.7812

G1X80.5078Y-86.8794

G1X78.9100Y-90.4555

G1X76.0545Y-95.0745

G1X75.4299Y-96.3439

G1X75.2965Y-97.1953

G1X75.4457Y-97.8502

G1X75.8502Y-98.3003

G1X76.1378Y-98.3772

G1X76.3588Y-98.3377

G1X77.3051Y-97.5166

G1X78.4074Y-96.1197

G1X79.0777Y-94.8768

G1X79.3470Y-93.8361

G1X79.2395Y-92.4563

G1X78.8186Y-90.9627

G1X78.1106Y-89.4361

G1X77.2037Y-88.0885

G1X75.9611Y-86.8283

G1X74.1022Y-85.5011

G1X71.7599Y-84.1932

G1X69.5542Y-83.2576

G1X67.9526Y-82.8872

G1X66.5259Y-82.8896

G1X65.9405Y-83.0192

G1X65.4215Y-83.2379

G1X64.9834Y-83.5512

G1X64.6906Y-83.8887

G1X64.4726Y-84.2992

G1X64.3377Y-84.7859

G1X64.3755Y-85.6044

G1X64.6808Y-86.5622

G1X65.7847Y-89.0941

G1X66.2897Y-90.4854

G1X66.6538Y-92.0122

G1X66.7790Y-93.4093

G1X66.6024Y-96.2386

G1X66.1928Y-99.5534

G1X65.6422Y-102.6750

G1X64.9650Y-105.5447

G1X64.3259Y-107.6302

G1X63.6613Y-109.3266

G1X62.9434Y-110.7222

G1X62.1243Y-111.8966

G1X60.9148Y-113.2500

G1X59.4694Y-114.5669

G1X57.6841Y-115.9417

G1X55.6285Y-117.3180

G1X52.4811Y-119.2332

G1X52.0444Y-119.4057

G1X51.7889Y-119.3157

G1X51.7202Y-118.9349

G1X51.7222Y-117.0266

G1X52.5732Y-112.5467

G1X52.7023Y-111.1760

G1X52.6895Y-110.0186

G1X52.5279Y-108.8709

G1X52.1573Y-107.5625

G1X51.5528Y-105.9325

G1X50.7452Y-104.1138

G1X49.5451Y-101.7946

G1X48.2287Y-99.6006

G1X46.8871Y-97.6927

G1X45.7133Y-96.3429

G1X44.0097Y-94.8082

G1X42.0048Y-93.3424

G1X39.9401Y-92.1383

G1X39.1350Y-91.7870

G1X38.5580Y-91.6380

G1X38.2822Y-91.6779

G1X38.2294Y-91.8643

G1X38.9205Y-93.4464

G1X39.2297Y-94.4482

G1X39.3513Y-95.4761

G1X39.2717Y-96.4600

G1X38.2551Y-100.8749

G1X37.2358Y-104.4794

G1X36.1718Y-107.4150

G1X35.1263Y-109.5212

G1X34.3733Y-110.5751

G1X33.4883Y-111.4299

G1X32.2335Y-112.3129

G1X30.8414Y-113.0491

G1X29.0786Y-113.7393

G1X27.3296Y-114.1928

G1X25.9142Y-114.3370

G1X25.3717Y-114.2807

G1X25.0351Y-114.1450

G1X24.8183Y-113.7622

G1X24.8844Y-113.1709

G1X25.2399Y-112.2239

G1X26.4973Y-109.4953

G1X27.0398Y-108.0254

G1X27.3732Y-106.6164

G1X27.5668Y-104.5786

G1X27.7600Y-99.7256

G1X27.6831Y-95.0423

G1X27.3878Y-91.9277

G1X27.1469Y-90.7527

G1X26.7841Y-89.5075

G1X26.1646Y-87.9148

G1X25.3949Y-86.3857

G1X24.5620Y-85.1021

G1X24.1974Y-84.6831

G1X23.9915Y-84.5693

G1X23.8718Y-84.6645

G1X23.7953Y-84.9119

G1X23.5040Y-87.3157

G1X23.1949Y-88.1294

G1X22.3629Y-89.2126

G1X21.2686Y-90.4042

G1X20.1907Y-91.3906

G1X19.3639Y-91.9635

G1X18.8905Y-92.1451

G1X18.3369Y-92.1253

G1X17.8281Y-91.8799

G1X17.3780Y-91.4628

G1X16.9453Y-90.8307

G1X16.5997Y-90.0217

G1X16.4762Y-89.3788

G1X16.4533Y-88.5272

G1X17.0025Y-83.5552

G1X17.4027Y-81.3306

G1X18.0055Y-79.1347

G1X19.7237Y-74.4140

G1X20.4723Y-71.9872

G1X21.4028Y-67.8109

G1X22.1306Y-63.5757

G1X22.4812Y-60.6880

G1X22.6073Y-58.4914

G1X22.5829Y-56.2397

G1X22.3596Y-51.3198

G1X22.4220Y-47.3681

G1X22.5606Y-45.6592

G1X22.8543Y-44.3447

G1X23.2586Y-43.3499

G1X23.7301Y-42.5551

G1X24.3649Y-41.8247

G1X25.0378Y-41.3126

G1X25.6189Y-41.0197

G1X26.2329Y-40.9009

G1X27.0432Y-40.9267

G1X29.2113Y-41.1824

G1X29.8031Y-41.1604

G1X30.3252Y-41.0266

G1X31.3755Y-40.4398

G1X32.2071Y-39.7537

G1X32.7413Y-39.0351

G1X33.0592Y-38.1519

G1X33.1014Y-37.2698

G1X32.8720Y-36.1583

G1X32.3219Y-34.6089

G1X31.3865Y-32.4983

G1X29.4387Y-28.6177

G1X28.7106Y-27.7410

G1X27.2393Y-26.4310

G1X27.1267Y-26.1606

G1X27.2903Y-25.9858

G1X28.9632Y-25.6040

G1X31.0896Y-25.3910

G1X33.0750Y-25.4145

G1X34.8356Y-25.6436

G1X36.2559Y-26.0070

G1X37.6426Y-26.5639

G1X39.0224Y-27.3589

G1X40.7024Y-28.5446

G1X43.3346Y-30.6978

G1X46.2428Y-33.3675

G1X49.1872Y-36.3385

G1X51.5351Y-38.9780

G1X52.3736Y-40.2195

G1X53.0693Y-41.6793

G1X53.5345Y-43.0806

G1X54.1749Y-45.5737

G1X54.4626Y-46.3422

G1X54.8930Y-46.9617

G1X55.5527Y-47.3510

G1X56.3385Y-47.4026

G1X57.2517Y-47.1115

G1X58.2659Y-46.5236

G1X60.0295Y-45.2502

G1X61.3155Y-43.9199

G1X65.1351Y-39.1813

G1X65.7309Y-38.6585

G1X66.2774Y-38.5095

G1X67.0119Y-38.6515

G1X67.7927Y-39.0469

G1X68.7058Y-39.7382

G1X69.8254Y-40.8488

G1X71.0276Y-42.2940

G1X72.2313Y-43.9433

G1X73.2493Y-45.5518

G1X73.9783Y-46.8954

G1X74.5978Y-48.2617

G1X75.2695Y-50.0560

G1X75.8490Y-51.9011

G1X76.6321Y-55.1451

G1X77.0585Y-58.1496

G1X77.0282Y-60.4303

G1X76.5270Y-65.9226

G1X76.5943Y-67.0643

G1X76.8853Y-68.1016

G1X77.2590Y-68.7602

G1X77.7127Y-69.2420

G1X78.2909Y-69.6441

G1X79.1981Y-70.1204

G1X80.0857Y-70.2722

G1X82.2544Y-70.1403

G1X82.8374Y-70.3649

G1X83.3567Y-70.7463

G1X83.8477Y-71.4542

G1X84.1900Y-72.5261

G1X84.4190Y-74.0479

G1X84.4723Y-75.8232

G1X84.3539Y-77.5118

G1X83.9539Y-80.3310

G1X83.5322Y-82.4401

G1X83.0027Y-84.4069

G1X82.4761Y-85.9145

G1X81.8256Y-87.3614

G1X78.3650Y-93.5944

G1X77.3624Y-95.8074

G1X76.8419Y-97.3216

G1X76.6946Y-98.2407

G1X76.7401Y-98.4602

G1X76.8635Y-98.5716

G1X77.4410Y-98.4761

G1X78.0986Y-98.1708

G1X78.7046Y-97.7776

G1X79.2682Y-97.2867

G1X79.6494Y-96.8190

G1X79.9848Y-95.9986

G1X80.1902Y-94.4552

G1X80.1119Y-92.7035

G1X79.7019Y-91.1003

G1X79.0720Y-89.8857

G1X77.9665Y-88.5290

G1X76.3128Y-86.9399

G1X74.4156Y-85.4356

G1X72.5815Y-84.2552

G1X70.9418Y-83.4986

G1X69.8550Y-83.1811

G1X68.7032Y-82.9557

G1X66.4324Y-82.7932

G1X65.4273Y-82.8621

G1X64.6601Y-83.0130

G1X64.0662Y-83.2503

G1X63.6705Y-83.5969

G1X63.5344Y-84.0053

G1X63.6095Y-84.4826

G1X64.8041Y-87.0862

G1X65.2975Y-88.7113

G1X66.6763Y-97.1534

G1X66.9240Y-99.5681

G1X66.9831Y-101.7468

G1X66.8480Y-103.6339

G1X66.5399Y-105.2094

G1X66.0011Y-106.7141

G1X65.1748Y-108.2879

G1X63.9943Y-110.0587

G1X62.5427Y-111.9006

G1X60.6583Y-114.0071

G1X58.4563Y-116.2355

G1X54.9422Y-119.5262

G1X53.6660Y-120.5258

G1X52.4276Y-121.2209

G1X51.3171Y-121.5471

G1X50.8705Y-121.5588

G1X50.4519Y-121.4575

G1X50.1526Y-121.2435

G1X49.9940Y-120.9526

G1X50.0236Y-120.5681

G1X50.2189Y-120.0622

G1X51.6643Y-117.4408

G1X52.3197Y-115.9959

G1X52.6895Y-114.7098

G1X52.7859Y-113.6428

G1X52.4997Y-110.9192

G1X51.8723Y-108.0653

G1X50.9629Y-105.3360

G1X49.8311Y-102.9282

G1X49.0847Y-101.7111

G1X48.1936Y-100.5468

G1X46.9590Y-99.1880

G1X45.4791Y-97.7508

G1X43.5686Y-96.0711

G1X41.3952Y-94.3177

G1X39.2067Y-92.6885

G1X37.4523Y-91.5203

G1X37.3026Y-91.5854

G1X37.2336Y-91.8627

G1X37.0876Y-94.2994

G1X37.8217Y-100.3103

G1X37.9611Y-103.0639

G1X37.7646Y-105.1957

G1X37.5463Y-106.0591

G1X37.2310Y-106.8417

G1X36.4808Y-108.0225

G1X35.3609Y-109.3035

G1X33.9118Y-110.6454

G1X32.1112Y-112.0649

G1X29.7987Y-113.6371

G1X27.5126Y-114.9563

G1X25.9778Y-115.6210

G1X25.5999Y-115.6775

G1X25.2984Y-115.5905

G1X25.1119Y-115.2354

G1X25.1266Y-114.5480

G1X25.6823Y-111.5818

G1X26.0427Y-108.5149

G1X27.0531Y-102.3521

G1X27.4665Y-98.7570

G1X27.5218Y-97.1643

G1X27.4537Y-95.8545

G1X27.2362Y-94.4904

G1X26.8592Y-93.0116

G1X26.2530Y-91.2397

G1X25.4736Y-89.3848

G1X23.6058Y-85.6394

G1X23.2369Y-85.0666

G1X23.1225Y-85.1353

G1X22.7770Y-86.1312

G1X22.2583Y-86.9642

G1X20.7452Y-89.8306

G1X20.1848Y-90.6863

G1X19.7232Y-91.1381

G1X19.2971Y-91.2872

G1X18.7596Y-91.2448

G1X18.3208Y-91.0471

G1X17.8446Y-90.6434

G1X17.5205Y-90.1905

G1X17.2905Y-89.6518

G1X17.1763Y-88.4212

G1X17.7376Y-83.5508

G1X17.7508Y-80.1271

G1X17.8899Y-78.6355

G1X20.3470Y-67.0756

G1X20.7830Y-64.5736

G1X21.0355Y-62.4896

G1X21.1454Y-60.4785

G1X21.1509Y-58.0627

G1X20.7673Y-45.8858

G1X20.9991Y-43.5106

G1X21.4023Y-41.6066

G1X21.7825Y-40.7567

G1X22.2768Y-40.1718

G1X22.8335Y-39.8475

G1X23.6902Y-39.6979

G1X24.9234Y-39.7568

G1X28.5409Y-40.2469

G1X31.2450Y-41.0146

G1X31.8193Y-41.0995

G1X32.2455Y-41.0748

G1X32.6770Y-40.8934

G1X32.9565Y-40.5863

G1X33.2148Y-39.9911

G1X33.4083Y-39.1802

G1X33.5790Y-37.5626

G1X33.5656Y-35.6197

G1X33.3804Y-33.9113

G1X33.0266Y-32.3904

G1X32.6248Y-31.4899

G1X31.8697Y-30.3885

G1X28.8294Y-27.0515

G1X28.0749Y-26.0507

G1X27.8992Y-25.5724

G1X27.9442Y-25.0674

G1X28.1729Y-24.6112

G1X28.5295Y-24.2924

G1X29.0370Y-24.0683

G1X29.5955Y-23.9655

G1X31.0666Y-24.0569

G1X32.4913Y-24.4313

G1X35.5826Y-25.5909

G1X39.2637Y-27.1723

G1X42.5412Y-28.7883

G1X45.2283Y-30.3441

G1X47.3422Y-31.8548

G1X48.1367Y-32.5605

G1X48.7906Y-33.2740

G1X49.9498Y-35.0110

G1X50.5508Y-36.2226

G1X51.1496Y-37.6968

G1X52.7742Y-42.7345

G1X53.3536Y-44.2148

G1X53.7565Y-44.9320

G1X54.2638Y-45.5503

G1X54.7373Y-45.9771

G1X55.2752Y-46.2828

G1X55.9577Y-46.4035

G1X56.6231Y-46.2801

G1X58.3246Y-45.5180

G1X58.9757Y-45.1031

G1X60.5001Y-43.6984

G1X63.5025Y-40.5528

G1X64.8625Y-38.9731

G1X65.6268Y-38.4009

G1X66.3228Y-38.2840

G1X67.0940Y-38.4769

G1X67.9883Y-38.9760

G1X68.9947Y-39.7936

G1X70.0060Y-40.8189

G1X70.9496Y-41.9493

G1X72.9554Y-44.9321

G1X73.9615Y-46.7096

G1X74.9042Y-48.5923

G1X75.7154Y-50.3944

G1X76.3628Y-52.0762

G1X76.9262Y-53.9277

G1X77.2777Y-55.6035

G1X77.4638Y-57.6698

G1X77.6598Y-63.3612

G1X78.1108Y-65.9390

G1X78.6232Y-67.5498

G1X79.1903Y-68.4016

G1X79.4971Y-68.6464

G1X79.8327Y-68.7724

G1X80.7369Y-68.7834

G1X82.5737Y-68.3974

G1X83.1973Y-68.3446

G1X84.5332Y-68.5335

G1X84.8450Y-68.6943

G1X85.1163Y-68.9698

G1X85.5558Y-69.9873

G1X85.8214Y-71.5165

G1X85.9300Y-73.2737

G1X85.9682Y-76.9096

G1X85.8132Y-78.7882

G1X85.4841Y-80.5417

G1X84.9146Y-82.5096

G1X84.0481Y-84.9589

G1X81.2072Y-91.8789

G1X80.3588Y-93.5437

G1X78.6542Y-96.5523

G1X78.2342Y-97.4978

G1X78.1820Y-98.0219

G1X78.3593Y-98.3330

G1X78.7814Y-98.5285

G1X79.4195Y-98.4937

G1X79.8262Y-98.3161

G1X80.1442Y-98.0214

G1X80.9407Y-96.3123

G1X81.3145Y-94.7332

G1X81.3445Y-93.9390

G1X81.2622Y-93.2532

G1X80.7706Y-91.9424

G1X79.7447Y-90.1797

G1X78.4800Y-88.4874

G1X77.1343Y-87.0521

G1X75.8181Y-85.9613

G1X74.4719Y-85.1612

G1X72.7112Y-84.4401

G1X70.4974Y-83.7792

G1X67.9565Y-83.2476

G1X65.7368Y-83.0112

G1X64.9927Y-83.0285

G1X64.3562Y-83.1383

G1X63.8935Y-83.3205

G1X63.5919Y-83.5891

G1X63.4136Y-84.0336

G1X63.3945Y-84.7464

G1X63.9035Y-87.6251

G1X64.4752Y-89.0315

G1X66.6925Y-93.6114

G1X67.2475Y-95.0627

G1X67.6201Y-96.3466

G1X67.8313Y-97.4384

G1X67.9307Y-98.5449

G1X67.9076Y-99.5495

G1X67.7474Y-100.6634

G1X67.0662Y-103.2021

G1X65.9633Y-106.1154

G1X64.4706Y-109.3467

G1X62.6827Y-112.6839

G1X60.8009Y-115.7484

G1X59.1072Y-118.1002

G1X57.8862Y-119.3890

G1X56.3677Y-120.5479

G1X54.6643Y-121.5027

G1X52.6941Y-122.3020

G1X50.4450Y-122.8992

G1X49.4381Y-123.0407

G1X49.0847Y-122.9925

G1X49.2151Y-122.6897

G1X50.6233Y-121.2027

G1X51.3659Y-120.2323

G1X51.8299Y-119.3747

G1X52.1048Y-118.4419

G1X52.4661Y-114.7829

G1X52.4685Y-111.8676

G1X52.3415Y-110.5656

G1X52.1105Y-109.2605

G1X51.7913Y-108.0785

G1X51.3993Y-107.0291

G1X50.3392Y-105.0689

G1X48.5946Y-102.6390

G1X46.1957Y-99.8183

G1X43.4014Y-96.9016

G1X40.8100Y-94.4588

G1X39.1821Y-93.1546

G1X37.2838Y-92.0224

G1X36.3960Y-91.6606

G1X35.7093Y-91.4892

G1X35.1427Y-91.4674

G1X34.7190Y-91.6034

G1X34.4608Y-91.9051

G1X34.4244Y-92.2421

G1X34.8216Y-93.1928

G1X37.0125Y-96.7766

G1X37.4903Y-97.7654

G1X37.8663Y-98.7839

G1X38.0969Y-99.8171

G1X38.1390Y-100.8504

G1X37.9879Y-101.7480

G1X37.5875Y-102.9356

G1X36.3414Y-105.5102

G1X34.5252Y-108.5049

G1X32.2427Y-111.7516

G1X29.9887Y-114.5204

G1X28.7900Y-115.6840

G1X27.7953Y-116.2321

G1X27.3354Y-116.3299

G1X26.8220Y-116.3061

G1X26.3558Y-116.1404

G1X25.9421Y-115.8458

G1X25.4814Y-115.2750

G1X25.1019Y-114.4247

G1X24.8868Y-113.3961

G1X24.8953Y-112.4843

G1X25.2584Y-110.5509

G1X26.9447Y-104.1302

G1X27.2501Y-102.3738

G1X27.3672Y-100.8129

G1X27.2999Y-99.5261

G1X27.0806Y-98.0720

G1X26.7144Y-96.4579

G1X26.1797Y-94.6115

G1X25.1569Y-91.6906

G1X23.2257Y-86.7959

G1X22.6713Y-85.6063

G1X22.2775Y-85.1047

G1X22.0512Y-85.0103

G1X21.8231Y-85.0553

G1X21.5965Y-85.2039

G1X21.4397Y-85.4481

G1X21.1821Y-86.2259

G1X20.3790Y-89.5234

G1X20.0886Y-90.1421

G1X19.7089Y-90.4853

G1X19.1616Y-90.7194

G1X18.6644Y-90.7780

G1X18.1774Y-90.6975

G1X17.7452Y-90.4640

G1X17.4686Y-90.1577

G1X17.2635Y-89.6826

G1X17.1712Y-88.2879

G1X17.6927Y-82.6044

G1X17.8438Y-76.9427

G1X18.0380Y-73.7637

G1X18.3481Y-71.3366

G1X19.4012Y-65.5244

G1X19.7947Y-60.6952

G1X19.9422Y-56.7079

G1X19.9690Y-53.1865

G1X19.6190Y-47.0783

G1X19.4216Y-42.0138

G1X19.4760Y-40.9553

G1X19.6455Y-40.2187

G1X19.8819Y-39.7445

G1X20.1950Y-39.3914

G1X20.6864Y-39.0551

G1X21.2802Y-38.8093

G1X22.7903Y-38.5543

G1X24.6549Y-38.6406

G1X25.5215Y-38.8129

G1X26.3200Y-39.1493

G1X30.2661Y-41.5331

G1X30.9207Y-41.7691

G1X31.5010Y-41.8189

G1X32.5740Y-41.5141

G1X33.5611Y-40.8418

G1X34.2728Y-39.9022

G1X34.6582Y-38.7779

G1X34.7170Y-37.6092

G1X34.4733Y-36.2820

G1X33.8580Y-34.3305

G1X32.8877Y-31.8340

G1X30.4177Y-26.1008

G1X29.6363Y-24.9838

G1X28.3217Y-23.6614

G1X28.2540Y-23.5118

G1X28.3229Y-23.4085

G1X29.5351Y-23.3341

G1X32.2946Y-23.4824

G1X34.6259Y-23.7579

G1X36.7919Y-24.1612

G1X38.6204Y-24.6479

G1X40.1558Y-25.2024

G1X41.5742Y-25.8922

G1X42.7045Y-26.6396

G1X43.5036Y-27.3278

G1X44.3663Y-28.2151

G1X46.1312Y-30.4224

G1X48.1363Y-33.4171

G1X52.3727Y-40.3349

G1X55.1169Y-44.1921

G1X55.4992Y-44.6141

G1X55.8977Y-44.8669

G1X56.5331Y-44.9878

G1X57.1160Y-44.9253

G1X57.7299Y-44.6640

G1X58.4653Y-44.1830

G1X62.2840Y-40.8166

G1X64.2275Y-38.7332

G1X65.0806Y-38.0858

G1X65.6909Y-37.9207

G1X66.3942Y-37.9981

G1X67.1199Y-38.2801

G1X67.9407Y-38.8005

G1X68.6819Y-39.4254

G1X69.4960Y-40.2593

G1X70.1507Y-41.0421

G1X70.8228Y-42.0266

G1X71.8590Y-43.8243

G1X73.9267Y-47.7639

G1X75.8461Y-51.0955

G1X76.6111Y-52.6661

G1X77.2181Y-54.3547

G1X77.7504Y-56.4461

G1X78.6886Y-61.0786

G1X79.1839Y-65.0678

G1X79.3876Y-65.8481

G1X79.6494Y-66.3884

G1X79.9065Y-66.6734

G1X80.3075Y-66.8849

G1X80.7830Y-66.9685

G1X81.3091Y-66.9532

G1X84.2490Y-66.3489

G1X85.5655Y-65.8283

G1X85.9583Y-65.7790

G1X86.2341Y-65.9046

G1X86.4875Y-66.2147

G1X86.8561Y-67.3119

G1X87.3930Y-71.1988

G1X87.4989Y-73.4568

G1X87.2784Y-76.3123

G1X86.7010Y-80.4490

G1X85.9405Y-84.2276

G1X85.0923Y-87.0578

G1X84.1663Y-89.1887

G1X81.5325Y-94.2609

G1X80.8485Y-95.8795

G1X80.6250Y-96.7361

G1X80.5419Y-97.4140

G1X80.5781Y-97.9909

G1X80.7309Y-98.3370

G1X80.8623Y-98.3679

G1X81.1032Y-98.1694

G1X81.8741Y-97.2051

G1X82.3593Y-96.2336

G1X82.5477Y-95.2678

G1X82.3570Y-94.1221

G1X81.8757Y-92.5920

G1X81.2376Y-91.1981

G1X80.4039Y-89.8999

G1X79.4772Y-88.8567

G1X78.3081Y-87.9134

G1X76.3081Y-86.6955

G1X73.7109Y-85.4015

G1X71.0387Y-84.2957

G1X68.6745Y-83.5447

G1X67.0545Y-83.2721

G1X65.3788Y-83.2699

G1X64.0229Y-83.5487

G1X63.4185Y-83.8161

G1X62.9899Y-84.1128

G1X62.6119Y-84.5397

G1X62.3840Y-85.0558

G1X62.3257Y-85.5866

G1X62.4679Y-86.1458

G1X63.0310Y-87.0771

G1X65.3047Y-89.8560

G1X66.3993Y-91.4852

G1X67.1849Y-93.2342

G1X67.4086Y-94.0704

G1X67.5386Y-94.9522

G1X67.5899Y-96.7214

G1X67.5297Y-98.8342

G1X67.1119Y-103.3268

G1X66.3751Y-107.5964

G1X65.9160Y-109.5023

G1X65.3797Y-111.3069

G1X64.5423Y-113.4807

G1X63.6584Y-115.1423

G1X62.5515Y-116.5626

G1X61.0937Y-117.9470

G1X59.3370Y-119.2727

G1X57.1653Y-120.6310

G1X54.7248Y-121.9397

G1X50.7009Y-123.8898

G1X49.5272Y-124.6130

G1X50.2266Y-123.8729

G1X50.7021Y-122.9939

G1X51.1726Y-121.1093

G1X52.4511Y-116.6866

G1X52.8070Y-115.0394

G1X53.0194Y-113.4752

G1X53.0692Y-112.1455

G1X52.9625Y-110.8530

G1X52.7062Y-109.7441

G1X52.2127Y-108.4410

G1X51.5395Y-107.0731

G1X50.6607Y-105.5777

G1X49.5857Y-103.9803

G1X48.3358Y-102.3183

G1X45.4687Y-99.0162

G1X43.9725Y-97.5230

G1X42.7338Y-96.4303

G1X41.4588Y-95.5255

G1X40.0745Y-94.7126

G1X38.0928Y-93.7485

G1X35.8859Y-92.8779

G1X33.6844Y-92.2110

G1X32.9030Y-92.0540

G1X32.4822Y-92.0516

G1X34.0762Y-93.1262

G1X35.0240Y-94.0120

G1X35.7083Y-95.0730

G1X36.0266Y-96.2437

G1X35.9689Y-98.9816

G1X35.5809Y-102.8404

G1X34.9750Y-106.6779

G1X34.2695Y-109.7976

G1X33.6998Y-111.5879

G1X33.1354Y-112.8198

G1X32.4308Y-113.7680

G1X31.5460Y-114.5496

G1X30.2235Y-115.3173

G1X28.7183Y-115.8312

G1X27.2868Y-116.0217

G1X26.5640Y-115.9860

G1X26.0182Y-115.8686

G1X25.5205Y-115.6363

G1X25.1921Y-115.3085

G1X25.0419Y-114.8799

G1X25.0243Y-114.3186

G1X25.2489Y-113.0399

G1X26.4791Y-108.7732

G1X26.9568Y-106.5017

G1X27.0818Y-104.4962

G1X26.8217Y-102.1241

G1X26.3270Y-99.5065

G1X25.6209Y-96.5534

G1X24.6906Y-93.2021

G1X23.6542Y-89.8800

G1X23.1243Y-88.4141

G1X22.5144Y-87.1000

G1X21.9197Y-86.1255

G1X21.2693Y-85.3717

G1X20.7012Y-85.0229

G1X20.5238Y-85.0221

G1X20.4133Y-85.1646

G1X20.3031Y-85.8046

G1X20.1709Y-88.6515

G1X19.9811Y-89.2928

G1X19.6287Y-89.7642

G1X18.6354Y-90.6282

G1X17.7546Y-91.0401

G1X17.4110Y-91.0635

G1X17.1261Y-90.9562

G1X16.9209Y-90.6953

G1X16.8123Y-90.3387

G1X16.7229Y-88.8108

G1X17.0037Y-83.3035

G1X17.0705Y-71.9673

G1X17.2643Y-70.3014

G1X17.8809Y-66.8596

G1X18.5911Y-61.8633

G1X18.9017Y-59.0992

G1X19.0445Y-56.8176

G1X19.0567Y-53.1319

G1X18.8669Y-47.7103

G1X18.2007Y-41.8547

G1X18.2515Y-40.7604

G1X18.4782Y-39.9034

G1X19.0369Y-38.7825

G1X19.8304Y-37.9229

G1X20.7610Y-37.4427

G1X21.7733Y-37.3226

G1X22.6943Y-37.5140

G1X24.0191Y-38.1012

G1X28.1965Y-40.5529

G1X29.9779Y-41.4431

G1X31.9260Y-42.6534

G1X32.6963Y-43.0097

G1X33.2781Y-43.0265

G1X33.6970Y-42.7157

G1X34.0297Y-42.0073

G1X34.3212Y-40.7572

G1X34.6320Y-38.1167

G1X34.7186Y-35.1817

G1X34.5597Y-32.5483

G1X34.1720Y-30.5197

G1X33.6136Y-29.2777

G1X32.6456Y-27.9633

G1X31.4616Y-26.7152

G1X28.7605Y-24.1868

G1X28.0198Y-23.3012

G1X27.8444Y-22.8686

G1X27.9238Y-22.4682

G1X28.2360Y-22.0826

G1X28.8170Y-21.7270

G1X30.0817Y-21.3886

G1X31.7214Y-21.3569

G1X33.4936Y-21.6763

G1X35.1295Y-22.2696

G1X36.9356Y-23.2411

G1X39.3126Y-24.7766

G1X42.1529Y-26.8097

G1X45.1548Y-29.1274

G1X49.4530Y-32.7758

G1X51.0872Y-34.3525

G1X51.9027Y-35.3089

G1X52.6177Y-36.3977

G1X53.2608Y-37.7063

G1X54.7890Y-42.2533

G1X55.2181Y-42.8976

G1X55.7299Y-43.2568

G1X56.2326Y-43.3772

G1X56.7530Y-43.3303

G1X57.3755Y-43.1041

G1X58.0967Y-42.6785

G1X61.2668Y-40.2497

G1X63.4699Y-37.9462

G1X64.3629Y-37.2945

G1X64.9823Y-37.1306

G1X65.8109Y-37.1906

G1X66.5712Y-37.4397

G1X67.4178Y-37.9261

G1X68.5765Y-38.9631

G1X69.6352Y-40.3791

G1X70.4864Y-42.1077

G1X72.4493Y-47.0834

G1X73.2899Y-48.8572

G1X74.2591Y-50.4610

G1X77.8397Y-55.5735

G1X78.6693Y-56.9575

G1X79.0500Y-57.8111

G1X79.2773Y-58.5751

G1X80.0437Y-62.6502

G1X80.2780Y-63.3207

G1X80.5428Y-63.7751

G1X81.0897Y-64.2600

G1X81.7556Y-64.5398

G1X82.5908Y-64.6652

G1X83.5260Y-64.6369

G1X84.4424Y-64.4972

G1X84.9296Y-64.2771

G1X86.8202Y-62.6429

G1X87.0892Y-62.6102

G1X87.2615Y-62.6780

G1X87.4495Y-63.0994

G1X88.1197Y-67.2548

G1X88.5189Y-72.6887

G1X88.6206Y-75.7715

G1X88.4666Y-78.3194

G1X88.2365Y-79.8235

G1X87.8620Y-81.5492

G1X86.5805Y-86.1339

G1X84.5918Y-92.3113

G1X82.7112Y-96.8833

G1X82.5930Y-97.4727

G1X82.7308Y-97.5290

G1X83.0400Y-97.3847

G1X83.5353Y-96.8286

G1X83.7257Y-96.1910

G1X83.4646Y-94.2101

G1X83.0429Y-93.0251

G1X82.3004Y-91.8602

G1X80.8394Y-90.3809

G1X78.7288Y-88.5615

G1X76.7047Y-87.0399

G1X74.8674Y-85.8705

G1X73.5100Y-85.1738

G1X72.2647Y-84.7075

G1X70.6553Y-84.3398

G1X68.8825Y-84.1178

G1X66.8493Y-84.0400

G1X64.8827Y-84.1557

G1X63.4840Y-84.4271

G1X62.5879Y-84.8547

G1X62.3355Y-85.2718

G1X62.4926Y-85.8106

G1X64.7178Y-88.4032

G1X65.2890Y-89.2825

G1X65.7213Y-90.1674

G1X66.0551Y-91.1716

G1X67.3865Y-96.7846

G1X68.1048Y-100.5117

G1X68.4420Y-103.6926

G1X68.4037Y-106.4573

G1X68.2437Y-107.6680

G1X67.9780Y-108.8197

G1X67.3428Y-110.4436

G1X66.2393Y-112.2726

G1X64.7251Y-114.2042

G1X62.7098Y-116.3561

G1X59.2615Y-119.5294

G1X53.0661Y-124.6770

G1X51.5252Y-125.7761

G1X51.0169Y-126.0127

G1X50.6243Y-126.0843

G1X50.3001Y-125.9651

G1X50.1065Y-125.6340

G1X50.0264Y-124.9079

G1X50.1045Y-124.3545

G1X50.6308Y-123.0575

G1X52.7222Y-118.9346

G1X53.5384Y-116.9636

G1X53.8793Y-115.8614

G1X54.1027Y-114.7751

G1X54.1790Y-113.8248

G1X54.1148Y-112.9130

G1X53.8144Y-111.5839

G1X53.3021Y-110.0955

G1X52.5711Y-108.4670

G1X51.6764Y-106.8193

G1X50.5884Y-105.0989

G1X49.3887Y-103.4391

G1X48.1134Y-101.8819

G1X46.7988Y-100.4693

G1X45.8158Y-99.5389

G1X44.8558Y-98.7796

G1X42.3079Y-97.2038

G1X38.5369Y-95.4143

G1X32.2969Y-92.9453

G1X31.5759Y-92.5126

G1X31.3801Y-92.2995

G1X31.3816Y-92.1588

G1X31.5797Y-92.2000

G1X31.8243Y-92.3945

G1X32.3011Y-93.1544

G1X32.8750Y-95.0220

G1X35.1644Y-101.6230

G1X35.6738Y-103.5423

G1X35.9731Y-105.1565

G1X36.0774Y-106.5377

G1X35.9851Y-107.6655

G1X35.6103Y-108.8059

G1X34.9202Y-110.0003

G1X33.9138Y-111.2696

G1X32.6328Y-112.5605

G1X30.9722Y-113.9391

G1X29.1904Y-115.1432

G1X27.7297Y-115.8761

G1X27.2022Y-116.0250

G1X26.8436Y-116.0111

G1X26.6566Y-115.9017

G1X26.5079Y-115.6677

G1X26.4104Y-114.9771

G1X26.8485Y-110.5894

G1X26.8138Y-108.1900

G1X25.6037Y-100.0740

G1X25.0009Y-96.7880

G1X24.4140Y-94.0981

G1X23.6160Y-91.3751

G1X22.5568Y-89.0815

G1X21.8120Y-87.8550

G1X21.0119Y-86.7404

G1X20.0861Y-85.6487

G1X19.3099Y-84.9177

G1X19.2044Y-84.9403

G1X19.1986Y-85.1462

G1X19.6387Y-87.5759

G1X19.5936Y-88.1845

G1X19.4253Y-88.6220

G1X18.3341Y-90.4566

G1X17.7308Y-91.2577

G1X17.1550Y-91.8637

G1X16.7836Y-92.1110

G1X16.5378Y-92.1367

G1X16.3396Y-91.9382

G1X16.1816Y-91.4577

G1X16.0185Y-89.3027

G1X15.7442Y-70.1625

G1X15.9016Y-68.7301

G1X16.5178Y-66.9256

G1X17.5448Y-62.4231

G1X17.9945Y-59.0035

G1X18.3446Y-55.1671

G1X18.4764Y-52.6244

G1X18.4806Y-50.5802

G1X17.9275Y-43.8829

G1X17.8167Y-39.4778

G1X17.8527Y-38.3105

G1X18.0365Y-37.4449

G1X18.3371Y-36.9323

G1X18.7435Y-36.6435

G1X19.3747Y-36.5239

G1X20.1773Y-36.5860

G1X21.3240Y-36.8493

G1X22.5918Y-37.2715

G1X25.5497Y-38.5946

G1X26.7806Y-39.2876

G1X27.5279Y-39.8966

G1X28.4539Y-40.9604

G1X30.5575Y-43.8061

G1X31.1738Y-44.3673

G1X31.7128Y-44.5713

G1X32.2103Y-44.4543

G1X32.7788Y-44.0932

G1X33.4396Y-43.4607

G1X34.0344Y-42.7025

G1X34.5873Y-41.7988

G1X35.0199Y-40.8846

G1X35.3643Y-39.8961

G1X35.5758Y-38.9717

G1X35.6866Y-37.6580

G1X35.5768Y-36.4894

G1X35.1955Y-35.0585

G1X34.5427Y-33.3266

G1X33.3030Y-30.6081

G1X30.2187Y-24.5588

G1X29.2073Y-22.3548

G1X28.7223Y-21.5647

G1X27.8190Y-20.4214

G1X30.0292Y-20.7908

G1X33.4162Y-21.4977

G1X36.1876Y-22.1748

G1X38.7834Y-22.9148

G1X40.9051Y-23.6248

G1X42.8046Y-24.3790

G1X44.4261Y-25.1637

G1X45.7372Y-25.9657

G1X46.5915Y-26.6438

G1X47.4063Y-27.4522

G1X48.2362Y-28.4456

G1X49.0721Y-29.6227

G1X50.5203Y-32.0578

G1X53.0960Y-36.9866

G1X54.0122Y-38.4513

G1X55.0575Y-39.5736

G1X56.1187Y-40.2647

G1X56.8447Y-40.4453

G1X57.5019Y-40.3855

G1X59.7301Y-39.4368

G1X60.6372Y-38.6579

G1X62.6413Y-36.4103

G1X63.1614Y-35.9857

G1X63.6098Y-35.7507

G1X64.4299Y-35.6171

G1X65.2993Y-35.6632

G1X66.0860Y-35.8823

G1X66.7755Y-36.2420

G1X67.4446Y-36.7775

G1X68.0047Y-37.4060

G1X68.4952Y-38.1360

G1X68.8871Y-38.9274

G1X69.7328Y-41.2753

G1X71.2453Y-46.5500

G1X71.8229Y-48.3109

G1X73.3142Y-51.9360

G1X73.8716Y-52.9326

G1X74.5204Y-53.7806

G1X74.9501Y-54.1795

G1X75.4763Y-54.4836

G1X77.8975Y-55.1594

G1X78.4290Y-55.4042

G1X78.8272Y-55.6973

G1X79.2604Y-56.1836

G1X79.6444Y-56.7710

G1X80.8377Y-59.1599

G1X81.3968Y-60.0641

G1X82.8938Y-61.6913

G1X83.4566Y-62.1531

G1X84.0116Y-62.4755

G1X84.3956Y-62.5937

G1X84.7661Y-62.5969

G1X85.0744Y-62.4780

G1X85.4723Y-62.1860

G1X86.1848Y-61.4026

G1X87.5643Y-59.5319

G1X87.6603Y-59.1905

G1X87.5761Y-59.1339

G1X87.5684Y-59.5229

G1X88.2820Y-64.5124

G1X89.0327Y-68.5694

G1X89.2708Y-70.6964

G1X89.3280Y-74.7241

G1X89.1273Y-79.8432

G1X88.7682Y-83.7755

G1X88.2940Y-86.4970

G1X87.4604Y-89.2722

G1X85.5797Y-94.1561

G1X85.3365Y-95.1039

G1X85.2896Y-95.9135

G1X85.1122Y-95.7699

G1X84.8490Y-94.7644

G1X84.4506Y-94.0115

G1X81.7633Y-90.7747

G1X80.8037Y-89.7784

G1X79.8000Y-88.8984

G1X78.8713Y-88.2328

G1X77.8540Y-87.6610

G1X76.2033Y-86.9977

G1X74.0403Y-86.3340

G1X71.5467Y-85.7217

G1X68.9719Y-85.2270

G1X66.9894Y-84.9626

G1X65.5163Y-84.8911

G1X64.2694Y-85.0403

G1X63.5904Y-85.3452

G1X63.3434Y-85.7642

G1X63.3219Y-86.4893

G1X63.6121Y-87.9937

G1X64.0235Y-89.5179

G1X64.7799Y-91.1056

G1X67.9492Y-96.7778

G1X68.7663Y-98.6259

G1X69.3150Y-100.2986

G1X69.6045Y-101.7675

G1X69.6738Y-103.1226

G1X69.5266Y-104.4263

G1X69.1152Y-106.0404

G1X68.4859Y-107.7723

G1X67.6285Y-109.6816

G1X66.5590Y-111.7346

G1X65.3060Y-113.8843

G1X63.7886Y-116.2532

G1X62.1915Y-118.5456

G1X60.5564Y-120.7106

G1X59.0305Y-122.5497

G1X58.1456Y-123.4402

G1X57.2021Y-124.2204

G1X56.2239Y-124.8927

G1X55.1254Y-125.5159

G1X53.9410Y-126.0542

G1X52.7274Y-126.4706

G1X51.6508Y-126.7136

G1X50.7051Y-126.7876

G1X50.2216Y-126.7269

G1X49.9318Y-126.5982

G1X49.8080Y-126.4232

G1X49.8562Y-126.1227

G1X50.3989Y-125.2905

G1X52.9458Y-122.1935

G1X54.0432Y-120.4890

G1X54.5039Y-119.4835

G1X54.7704Y-118.5751

G1X54.8664Y-117.7767

G1X54.8147Y-116.8297

G1X54.5226Y-114.9728

G1X54.0086Y-112.9070

G1X53.2912Y-110.7237

G1X52.4334Y-108.6141

G1X51.4742Y-106.6556

G1X50.4470Y-104.9044

G1X49.3806Y-103.3981

G1X48.2358Y-102.0971

G1X47.1322Y-101.1289

G1X45.7725Y-100.1536

G1X44.1751Y-99.1832

G1X42.2740Y-98.1797

G1X39.3164Y-96.8154

G1X33.9995Y-94.5927

G1X30.7241Y-93.0662

G1X29.9836Y-92.8179

G1X29.6244Y-92.8547

G1X29.5329Y-93.0636

G1X29.5888Y-93.4446

G1X29.9567Y-94.1020

G1X33.4741Y-97.8009

G1X34.9990Y-99.7782

G1X35.4904Y-100.6543

G1X35.8047Y-101.4361

G1X35.9652Y-102.1169

G1X36.0016Y-102.8344

G1X35.7880Y-104.2508

G1X35.2162Y-106.0817

G1X34.2829Y-108.2609

G1X33.1059Y-110.5276

G1X31.7082Y-112.8347

G1X30.3861Y-114.6558

G1X29.5441Y-115.4375

G1X29.2286Y-115.5593

G1X28.8838Y-115.5447

G1X28.6207Y-115.4083

G1X28.3293Y-115.1079

G1X27.8461Y-114.2151

G1X27.3198Y-112.6924

G1X26.6559Y-110.2572

G1X26.2657Y-107.7813

G1X25.3122Y-99.1736

G1X24.8794Y-96.8227

G1X24.3633Y-95.0075

G1X23.4704Y-92.9564

G1X22.1566Y-90.6709

G1X20.6780Y-88.5147

G1X17.8953Y-84.8493

G1X18.2684Y-85.4308

G1X18.5932Y-86.1663

G1X18.7471Y-86.8563

G1X18.7120Y-87.3913

G1X18.1257Y-89.2726

G1X17.3136Y-91.4106

G1X16.6666Y-92.7730

G1X16.2023Y-93.3827

G1X15.9058Y-93.4003

G1X15.6122Y-93.1117

G1X15.3437Y-92.5464

G1X15.0791Y-91.6231

G1X14.7664Y-89.6945

G1X14.6248Y-87.4657

G1X14.8506Y-78.3286

G1X14.8395Y-75.9231

G1X14.6824Y-73.6962

G1X14.2209Y-69.7439

G1X14.1889Y-68.4778

G1X14.3177Y-67.8994

G1X14.4775Y-67.7195

G1X14.8685Y-67.5567

G1X15.0576Y-67.3630

G1X15.6936Y-65.9486

G1X16.0680Y-64.7106

G1X17.0199Y-60.7828

G1X17.4470Y-58.6192

G1X17.7396Y-56.5720

G1X18.0212Y-53.4143

G1X18.1763Y-50.2973

G1X18.1956Y-47.6188

G1X18.0965Y-45.6115

G1X17.7810Y-43.8177

G1X16.6585Y-39.1373

G1X16.5481Y-37.9416

G1X16.6794Y-37.1498

G1X17.0275Y-36.6299

G1X17.5483Y-36.2653

G1X18.2131Y-36.0287

G1X19.0900Y-35.9067

G1X20.0557Y-35.9272

G1X21.1728Y-36.1048

G1X22.2706Y-36.4317

G1X23.1861Y-36.8418

G1X24.0247Y-37.4326

G1X25.0053Y-38.4361

G1X28.1564Y-42.5310

G1X29.1737Y-43.7002

G1X29.9212Y-44.3083

G1X31.2941Y-44.9408

G1X31.8277Y-45.0743

G1X32.3289Y-45.0990

G1X32.7882Y-44.9912

G1X33.1324Y-44.7830

G1X33.4356Y-44.4526

G1X33.6926Y-43.9862

G1X34.0297Y-42.7055

G1X34.1894Y-40.9935

G1X34.2594Y-38.6837

G1X34.1093Y-33.3890

G1X33.6494Y-28.9665

G1X33.3224Y-27.2267

G1X32.9422Y-25.8750

G1X32.6351Y-25.1739

G1X32.1546Y-24.4500

G1X31.5595Y-23.7986

G1X30.8779Y-23.2144

G1X29.2554Y-22.1637

G1X26.2295Y-20.6651

G1X25.5827Y-20.2505

G1X25.4410Y-20.0640

G1X25.4438Y-19.8869

G1X25.8599Y-19.5581

G1X27.0435Y-19.1761

G1X28.6821Y-18.9208

G1X30.5532Y-18.8269

G1X32.3616Y-18.9016

G1X33.9776Y-19.1123

G1X35.5792Y-19.4809

G1X36.9955Y-19.9797

G1X38.3416Y-20.6533

G1X40.0647Y-21.7424

G1X41.9959Y-23.1546

G1X46.7690Y-27.1340

G1X53.6830Y-33.3163

G1X54.9477Y-34.6662

G1X56.7986Y-37.0377

G1X57.2356Y-37.4269

G1X57.6735Y-37.6590

G1X58.4118Y-37.7584

G1X58.8306Y-37.6396

G1X59.2451Y-37.4141

G1X59.9809Y-36.8133

G1X61.6599Y-35.1205

G1X62.5258Y-34.5185

G1X64.8877Y-33.6362

G1X65.6057Y-33.6160

G1X66.2236Y-33.8477

G1X66.6581Y-34.1981

G1X67.0012Y-34.6099

G1X67.6856Y-35.8646

G1X68.5061Y-38.0051

G1X69.4404Y-41.0203

G1X71.1490Y-47.5430

G1X71.3863Y-49.2504

G1X71.6273Y-53.2127

G1X71.8511Y-54.1357

G1X72.2269Y-54.7933

G1X72.7862Y-55.2039

G1X73.4934Y-55.3782

G1X74.4101Y-55.3739

G1X76.8040Y-55.0405

G1X77.6836Y-55.0115

G1X79.5198Y-55.3502

G1X80.9295Y-55.7901

G1X81.7860Y-56.2126

G1X82.4867Y-56.7283

G1X83.0963Y-57.5041

G1X84.4003Y-59.5973

G1X84.8045Y-59.9962

G1X85.1721Y-60.1206

G1X85.7044Y-59.9412

G1X86.4341Y-59.3065

G1X87.1881Y-58.3497

G1X87.8811Y-57.1971

G1X87.9668Y-56.8133

G1X87.8736Y-56.2797

G1X87.6496Y-55.8218

G1X87.3618Y-55.5240

G1X87.2906Y-55.5344

G1X87.2458Y-55.7260

G1X87.1983Y-56.8287

G1X87.4085Y-59.1841

G1 Z0F20000


G00 X0.0000 Y0.0000


