$H
G21
G17
G90
G1 Z0F20000
G1 F15000

(Start Layer)

(Start Block)


G1X18.5590Y-109.3799
G1Z6F20000
(Plotting speed under)
G1 F4000


G1X19.0942Y-110.9479

G1X19.3860Y-111.3908

G1X19.7718Y-111.7385

G1X20.2293Y-111.9465

G1X20.7607Y-112.0259

G1X21.3813Y-111.9845

G1X22.0992Y-111.8189

G1X23.7657Y-111.1230

G1X25.5638Y-110.0343

G1X27.2942Y-108.7365

G1X30.2018Y-106.2915

G1X31.1897Y-105.5908

G1X32.2029Y-105.1466

G1X32.6046Y-105.0849

G1X33.0979Y-105.1288

G1X33.6716Y-105.3791

G1X34.2202Y-105.8836

G1X34.6170Y-106.4906

G1X34.9684Y-107.3626

G1X35.1987Y-108.3776

G1X35.3026Y-109.4166

G1X35.2928Y-110.5208

G1X35.1657Y-111.6426

G1X34.6514Y-113.6363

G1X34.2732Y-114.5739

G1X33.7633Y-115.5581

G1X32.7177Y-117.0745

G1X30.9322Y-118.8956

G1X30.7761Y-119.0861

G1X30.7776Y-119.2405

G1X31.0919Y-119.3291

G1X31.6621Y-119.3373

G1X33.5533Y-119.1634

G1X35.6758Y-118.7859

G1X37.5334Y-118.3045

G1X39.1761Y-117.7519

G1X40.8742Y-117.0419

G1X42.5025Y-116.2057

G1X43.9045Y-115.3495

G1X45.5662Y-114.1423

G1X47.0801Y-112.8145

G1X48.4768Y-111.3464

G1X49.7392Y-109.7494

G1X50.9407Y-107.8850

G1X51.9050Y-106.0421

G1X52.7376Y-104.0886

G1X53.2361Y-102.3257

G1X53.4855Y-100.7085

G1X53.5485Y-99.0846

G1X53.4150Y-97.4115

G1X53.1143Y-95.8806

G1X52.5327Y-94.1166

G1X51.7052Y-92.4381

G1X50.7577Y-91.0316

G1X49.0838Y-89.0450

G1X49.1236Y-88.8177

G1X49.7156Y-88.7339

G1X50.8283Y-88.8310

G1X52.3281Y-89.0980

G1X53.9414Y-89.5079

G1X55.3995Y-89.9876

G1X58.0922Y-91.1629

G1X60.5283Y-92.6195

G1X62.7792Y-94.3989

G1X64.7522Y-96.4424

G1X66.3886Y-98.6715

G1X67.7068Y-101.0857

G1X68.3020Y-102.4923

G1X68.8513Y-104.1355

G1X69.6570Y-107.4767

G1X69.8256Y-109.5840

G1X69.5970Y-111.6911

G1X69.2953Y-112.8689

G1X68.8760Y-114.0114

G1X68.2918Y-115.1875

G1X67.6565Y-116.1760

G1X67.0035Y-117.0036

G1X66.1297Y-117.8943

G1X65.2621Y-118.5995

G1X63.9688Y-119.4867

G1X64.1027Y-119.5687

G1X64.4402Y-119.5913

G1X66.3486Y-119.5232

G1X68.0263Y-119.3613

G1X69.9012Y-119.0708

G1X72.8860Y-118.3343

G1X75.7350Y-117.2726

G1X78.2958Y-115.9568

G1X80.6873Y-114.3484

G1X82.8901Y-112.4565

G1X84.8868Y-110.3105

G1 Z0F20000

(Start Block)


G1X17.8161Y-109.9251
G1Z6F20000
(Plotting speed under)
G1 F4000


G1X18.1814Y-111.3525

G1X18.4320Y-111.7916

G1X18.8015Y-112.1473

G1X19.2854Y-112.3654

G1X19.7892Y-112.4411

G1X20.5009Y-112.4031

G1X21.2196Y-112.2582

G1X22.9961Y-111.6216

G1X24.9649Y-110.6051

G1X26.7093Y-109.5034

G1X29.9426Y-107.2279

G1X30.9638Y-106.6104

G1X31.9663Y-106.2061

G1X32.8385Y-106.1537

G1X33.3297Y-106.3220

G1X33.8067Y-106.7003

G1X34.1221Y-107.1376

G1X34.4089Y-107.8260

G1X34.5735Y-108.5621

G1X34.6475Y-109.3906

G1X34.4987Y-111.2831

G1X34.0412Y-112.9644

G1X33.2732Y-114.6169

G1X32.0980Y-116.2893

G1X30.5710Y-117.8638

G1X30.4969Y-118.0769

G1X30.5756Y-118.1422

G1X31.5816Y-118.2017

G1X33.3876Y-118.0342

G1X35.3787Y-117.6915

G1X37.3486Y-117.1980

G1X38.9898Y-116.6597

G1X40.7707Y-115.9255

G1X42.3985Y-115.0990

G1X43.7973Y-114.2564

G1X45.4480Y-113.0735

G1X46.9263Y-111.8008

G1X48.2864Y-110.4083

G1X49.5018Y-108.9227

G1X50.5629Y-107.3719

G1X51.5394Y-105.6616

G1X52.5205Y-103.5425

G1X53.0695Y-101.9349

G1X53.4005Y-100.4526

G1X53.5720Y-98.9190

G1X53.5881Y-97.4926

G1X53.4401Y-95.9071

G1X53.0204Y-94.0001

G1X52.4325Y-92.3670

G1X51.7022Y-90.8935

G1X50.3680Y-88.6268

G1X50.3591Y-88.4379

G1X50.4847Y-88.2834

G1X51.0746Y-88.1991

G1X52.1500Y-88.3297

G1X53.4994Y-88.6468

G1X54.8194Y-89.0650

G1X56.3198Y-89.6595

G1X58.8588Y-90.9888

G1X60.1509Y-91.8400

G1X61.3054Y-92.7285

G1X63.3335Y-94.6422

G1X65.0812Y-96.8178

G1X66.5026Y-99.2155

G1X67.5423Y-101.7284

G1X68.2413Y-104.4940

G1X68.5576Y-107.4688

G1X68.6204Y-109.2914

G1X68.5608Y-110.2984

G1X68.3702Y-111.4144

G1X67.9804Y-112.6765

G1X67.4724Y-113.7960

G1X66.8325Y-114.8509

G1X66.0573Y-115.8294

G1X65.2459Y-116.6299

G1X64.3478Y-117.3257

G1X63.2811Y-117.9417

G1X62.2263Y-118.3542

G1X61.2095Y-118.5490

G1X65.3829Y-118.5420

G1X68.2097Y-118.3804

G1X70.9512Y-117.9821

G1X73.4318Y-117.3798

G1X76.0272Y-116.4716

G1X78.5318Y-115.2873

G1X80.9419Y-113.8180

G1X83.1356Y-112.1607

G1 Z0F20000

(Start Block)


G1X16.7514Y-110.5631
G1Z6F20000
(Plotting speed under)
G1 F4000


G1X16.8408Y-111.2715

G1X17.0164Y-111.8734

G1X17.2960Y-112.3145

G1X17.6147Y-112.5663

G1X18.0160Y-112.7245

G1X18.5887Y-112.8003

G1X19.3556Y-112.7572

G1X20.1691Y-112.6072

G1X22.0699Y-112.0074

G1X24.2235Y-111.0438

G1X25.9857Y-110.0853

G1X29.5558Y-107.9045

G1X30.7725Y-107.2520

G1X31.7417Y-106.9025

G1X32.5456Y-106.8402

G1X32.9709Y-106.9484

G1X33.3972Y-107.2259

G1X33.6663Y-107.5490

G1X33.8968Y-108.0290

G1X34.1150Y-109.2528

G1X34.0259Y-110.7024

G1X33.6939Y-112.0722

G1X33.1659Y-113.3705

G1X32.3971Y-114.6844

G1X30.9938Y-116.5018

G1X30.9384Y-116.7114

G1X30.9936Y-116.7975

G1X31.3250Y-116.8965

G1X31.8385Y-116.9135

G1X33.5341Y-116.7666

G1X35.3721Y-116.4493

G1X37.2263Y-115.9869

G1X38.9759Y-115.4118

G1X40.6049Y-114.7415

G1X42.1018Y-113.9993

G1X43.5992Y-113.1191

G1X45.1894Y-112.0019

G1X46.6135Y-110.8133

G1X47.9441Y-109.5006

G1X49.1454Y-108.0948

G1X50.2192Y-106.6070

G1X51.2065Y-104.9651

G1X52.0580Y-103.2413

G1X52.7705Y-101.4862

G1X53.1638Y-100.1196

G1X53.4161Y-98.8045

G1X53.5465Y-97.4638

G1X53.5583Y-96.1136

G1X53.3937Y-94.3707

G1X53.0113Y-92.5937

G1X52.5210Y-91.1077

G1X51.4229Y-88.4223

G1X51.4225Y-88.0892

G1X51.5211Y-87.9383

G1X51.8252Y-87.8142

G1X52.1917Y-87.7961

G1X53.2595Y-87.9593

G1X54.4894Y-88.3156

G1X55.9390Y-88.8835

G1X57.1569Y-89.4748

G1X58.4330Y-90.2042

G1X59.6933Y-91.0575

G1X61.8219Y-92.8532

G1X62.7541Y-93.8232

G1X63.7198Y-94.9844

G1X65.1884Y-97.2079

G1X65.8046Y-98.3975

G1X66.3282Y-99.6267

G1X66.7868Y-100.9705

G1X67.0949Y-102.1671

G1X67.4717Y-104.7773

G1X67.5125Y-106.2667

G1X67.4434Y-107.5586

G1X67.2897Y-108.9111

G1X66.8800Y-111.2378

G1X66.5392Y-112.2979

G1X66.0986Y-113.2153

G1X65.4221Y-114.2416

G1X64.6006Y-115.1662

G1X63.7050Y-115.9265

G1X62.7141Y-116.5549

G1X61.6687Y-117.0218

G1X60.4904Y-117.3298

G1X59.3409Y-117.3924

G1X58.6255Y-117.2168

G1X58.5743Y-117.1494

G1X58.7188Y-117.0394

G1X59.4619Y-116.9919

G1X63.9500Y-117.3376

G1X66.5436Y-117.4012

G1X68.7263Y-117.3046

G1X71.0661Y-117.0250

G1X73.5876Y-116.5013

G1X75.9960Y-115.7677

G1X78.4677Y-114.7587

G1X80.7265Y-113.5973

G1 Z0F20000

(Start Block)


G1X15.4948Y-111.0098
G1Z6F20000
(Plotting speed under)
G1 F4000


G1X15.6828Y-112.0841

G1X15.9252Y-112.4548

G1X16.3048Y-112.7178

G1X16.8470Y-112.8677

G1X17.5238Y-112.9002

G1X19.3665Y-112.6290

G1X21.1679Y-112.1061

G1X23.1062Y-111.3570

G1X25.5257Y-110.2038

G1X30.2535Y-107.6331

G1X31.4149Y-107.1791

G1X32.3432Y-107.0509

G1X32.9637Y-107.2106

G1X33.4705Y-107.6915

G1X33.7656Y-108.4813

G1X33.8474Y-109.5137

G1X33.7201Y-110.6688

G1X33.3876Y-111.9030

G1X32.9661Y-112.9372

G1X32.0035Y-114.8584

G1X32.0326Y-115.1857

G1X32.2186Y-115.3117

G1X32.9754Y-115.3920

G1X34.3935Y-115.2563

G1X36.1299Y-114.9184

G1X37.7153Y-114.4848

G1X40.6207Y-113.3780

G1X42.0835Y-112.6500

G1X43.4023Y-111.8769

G1X44.8309Y-110.9009

G1X46.2486Y-109.7600

G1X47.5837Y-108.4897

G1X48.7452Y-107.1909

G1X49.8476Y-105.7330

G1X50.7793Y-104.2645

G1X51.5971Y-102.7295

G1X52.3738Y-100.9443

G1X52.8151Y-99.6928

G1X53.1275Y-98.4851

G1X53.3427Y-97.2569

G1X53.4586Y-95.9198

G1X53.4450Y-94.2783

G1X53.2467Y-92.5479

G1X52.9720Y-91.2244

G1X52.1266Y-88.0961

G1X52.1484Y-87.7901

G1X52.3189Y-87.5341

G1X52.6088Y-87.4196

G1X52.9979Y-87.4013

G1X53.9146Y-87.5568

G1X55.0478Y-87.9216

G1X56.3719Y-88.5002

G1X57.6962Y-89.2246

G1X59.9325Y-90.7985

G1X61.0695Y-91.8071

G1X62.0152Y-92.7768

G1X63.7030Y-94.9374

G1X64.4425Y-96.1453

G1X65.0515Y-97.3268

G1X65.6039Y-98.6504

G1X66.0210Y-99.9172

G1X66.3320Y-101.1944

G1X66.5411Y-102.4796

G1X66.6541Y-103.8994

G1X66.6354Y-105.4139

G1X66.5108Y-106.6773

G1X66.2530Y-108.0826

G1X65.6725Y-110.0488

G1X64.8909Y-112.0459

G1X64.5403Y-112.7639

G1X64.0923Y-113.4457

G1X63.3446Y-114.2770

G1X62.4572Y-114.9956

G1X61.4775Y-115.5663

G1X60.4317Y-115.9757

G1X59.3057Y-116.2139

G1X58.2294Y-116.2454

G1X57.2206Y-116.0593

G1X56.5496Y-115.7018

G1X56.4312Y-115.4568

G1X56.6135Y-115.2775

G1X57.3984Y-115.1996

G1X64.5538Y-116.1406

G1X67.0263Y-116.2550

G1X69.3873Y-116.1875

G1X71.5281Y-115.9669

G1X73.7198Y-115.5767

G1X75.9263Y-115.0097

G1X78.0762Y-114.2884

G1 Z0F20000

(Start Block)


G1X14.2555Y-111.0979
G1Z6F20000
(Plotting speed under)
G1 F4000


G1X14.3535Y-111.7427

G1X14.5431Y-112.1225

G1X14.8492Y-112.3940

G1X15.3581Y-112.5855

G1X16.0077Y-112.6588

G1X16.9074Y-112.6233

G1X19.0708Y-112.2378

G1X21.1528Y-111.6312

G1X23.2476Y-110.8424

G1X25.7405Y-109.7012

G1X30.4520Y-107.2670

G1X31.5164Y-106.8589

G1X32.4097Y-106.7054

G1X32.9488Y-106.7800

G1X33.3858Y-107.0397

G1X33.7035Y-107.4872

G1X33.9194Y-108.1318

G1X34.0138Y-108.8981

G1X33.9827Y-109.8772

G1X33.4489Y-112.8305

G1X33.5328Y-113.1814

G1X33.8898Y-113.4486

G1X34.5808Y-113.5357

G1X35.5582Y-113.4541

G1X36.7578Y-113.2230

G1X38.1538Y-112.8377

G1X40.7726Y-111.8231

G1X43.2584Y-110.4900

G1X44.6899Y-109.5256

G1X45.9772Y-108.5100

G1X47.1894Y-107.4002

G1X48.3290Y-106.1831

G1X49.3714Y-104.8811

G1X50.3022Y-103.5145

G1X51.1062Y-102.1098

G1X51.8190Y-100.6192

G1X52.4486Y-99.0008

G1X52.8521Y-97.6633

G1X53.1500Y-96.1864

G1X53.3065Y-94.6646

G1X53.3266Y-93.3207

G1X53.2250Y-91.8563

G1X52.5867Y-88.3261

G1X52.5307Y-87.5308

G1X52.5914Y-87.2781

G1X52.7853Y-87.0330

G1X53.0623Y-86.9210

G1X53.4718Y-86.8984

G1X54.4029Y-87.0750

G1X55.4828Y-87.4634

G1X56.6356Y-88.0172

G1X57.8780Y-88.7516

G1X59.1100Y-89.6304

G1X60.1267Y-90.4868

G1X61.1478Y-91.4772

G1X62.0771Y-92.5371

G1X62.8821Y-93.5991

G1X63.5992Y-94.7152

G1X64.2449Y-95.8990

G1X64.7846Y-97.1099

G1X65.5543Y-99.5358

G1X65.8036Y-100.8359

G1X65.9467Y-102.1415

G1X65.9742Y-103.5723

G1X65.8755Y-104.9874

G1X65.6341Y-106.4037

G1X65.2591Y-107.8033

G1X64.7166Y-109.2252

G1X64.2105Y-110.2508

G1X62.7726Y-112.6039

G1X62.3334Y-113.1634

G1X61.5731Y-113.8547

G1X60.6827Y-114.4102

G1X59.6938Y-114.8171

G1X58.6632Y-115.0519

G1X57.5737Y-115.1052

G1X56.6076Y-114.9713

G1X55.8152Y-114.6928

G1X55.1717Y-114.2368

G1X54.9891Y-113.8539

G1X55.1257Y-113.6045

G1X55.4978Y-113.4715

G1X56.1342Y-113.4525

G1X57.4132Y-113.6241

G1X61.3572Y-114.4281

G1X63.5851Y-114.7913

G1X65.9054Y-115.0309

G1X68.2349Y-115.1106

G1X70.0895Y-115.0524

G1X71.9445Y-114.8849

G1X73.7744Y-114.6120

G1X75.6834Y-114.2139

G1 Z0F20000

(Start Block)


G1X13.2608Y-110.7680
G1Z6F20000
(Plotting speed under)
G1 F4000


G1X13.4181Y-111.3140

G1X13.7286Y-111.7034

G1X14.1202Y-111.9140

G1X14.7454Y-112.0489

G1X15.5919Y-112.0744

G1X16.6918Y-111.9820

G1X19.3275Y-111.4628

G1X21.5668Y-110.7925

G1X23.8857Y-109.9057

G1X26.3866Y-108.7470

G1X31.0386Y-106.3240

G1X32.0115Y-105.9328

G1X32.8902Y-105.7414

G1X33.3435Y-105.7605

G1X33.7302Y-105.8972

G1X34.1204Y-106.2233

G1X34.3655Y-106.5810

G1X34.7716Y-107.7344

G1X35.1484Y-110.3572

G1X35.4071Y-110.8351

G1X35.9375Y-111.1529

G1X36.4687Y-111.2333

G1X37.2505Y-111.1937

G1X39.1539Y-110.7505

G1X41.2323Y-109.9380

G1X43.2965Y-108.8354

G1X44.6204Y-107.9627

G1X45.8987Y-106.9752

G1X47.0308Y-105.9574

G1X48.1016Y-104.8447

G1X49.1054Y-103.6333

G1X49.9805Y-102.3980

G1X50.7713Y-101.0860

G1X51.4692Y-99.7020

G1X52.0667Y-98.2495

G1X52.5779Y-96.6740

G1X52.8953Y-95.2789

G1X53.0873Y-93.8756

G1X53.1275Y-91.3053

G1X52.6895Y-87.5887

G1X52.6898Y-86.9286

G1X52.7777Y-86.6114

G1X53.0110Y-86.3477

G1X53.6206Y-86.2208

G1X54.4313Y-86.3565

G1X55.5317Y-86.7507

G1X56.7275Y-87.3483

G1X57.9480Y-88.1139

G1X58.9664Y-88.8736

G1X60.1100Y-89.8742

G1X61.9210Y-91.8860

G1X63.3972Y-94.1324

G1X64.4735Y-96.4853

G1X64.8810Y-97.7506

G1X65.1848Y-99.0362

G1X65.4610Y-101.4894

G1X65.4357Y-103.0316

G1X65.2454Y-104.5693

G1X64.9280Y-105.9712

G1X64.3970Y-107.5035

G1X63.8579Y-108.6542

G1X63.1238Y-109.8960

G1X62.2628Y-111.0532

G1X61.0256Y-112.4944

G1X60.3792Y-113.0434

G1X59.5308Y-113.5092

G1X58.5621Y-113.8246

G1X57.6651Y-113.9532

G1X56.7243Y-113.9287

G1X55.7891Y-113.7237

G1X55.0377Y-113.3750

G1X54.5136Y-112.9140

G1X54.3544Y-112.5307

G1X54.4605Y-112.2465

G1X54.8428Y-112.0581

G1X55.4723Y-112.0115

G1X57.0173Y-112.2206

G1X62.5688Y-113.4050

G1X65.9490Y-113.8445

G1X67.9103Y-113.9524

G1X69.9379Y-113.9437

G1X71.9478Y-113.8137

G1X73.9586Y-113.5662

G1 Z0F20000

(Start Block)


G1X12.7011Y-110.0254
G1Z6F20000
(Plotting speed under)
G1 F4000


G1X13.0096Y-110.5713

G1X13.3896Y-110.8840

G1X13.9637Y-111.0944

G1X14.7709Y-111.1888

G1X15.9091Y-111.1556

G1X17.1888Y-110.9996

G1X20.1550Y-110.3426

G1X22.5760Y-109.5579

G1X24.9941Y-108.5620

G1X27.6528Y-107.2316

G1X32.0428Y-104.7556

G1X33.0444Y-104.3064

G1X33.8449Y-104.1000

G1X34.6073Y-104.1950

G1X35.2937Y-104.6467

G1X35.9388Y-105.5092

G1X37.0923Y-107.6614

G1X37.6091Y-108.1401

G1X38.1996Y-108.3802

G1X39.2866Y-108.4234

G1X40.5753Y-108.1547

G1X42.1973Y-107.5361

G1X43.8528Y-106.6562

G1X45.0636Y-105.8559

G1X46.1319Y-105.0288

G1X47.1543Y-104.1161

G1X48.1822Y-103.0555

G1X49.1101Y-101.9406

G1X49.9410Y-100.7755

G1X50.6755Y-99.5663

G1X51.3185Y-98.3030

G1X51.8769Y-96.9624

G1X52.3269Y-95.5918

G1X52.6572Y-94.2273

G1X52.8614Y-92.8933

G1X52.9661Y-90.4485

G1X52.6706Y-86.9057

G1X52.6932Y-86.0704

G1X52.7980Y-85.7525

G1X52.9852Y-85.5288

G1X53.2620Y-85.3980

G1X53.6581Y-85.3596

G1X54.4863Y-85.5030

G1X55.4654Y-85.8594

G1X56.5603Y-86.4072

G1X57.6909Y-87.1095

G1X58.8233Y-87.9587

G1X59.8219Y-88.8437

G1X60.7408Y-89.7828

G1X61.6438Y-90.8695

G1X63.0525Y-93.0091

G1X63.6680Y-94.2189

G1X64.1385Y-95.3627

G1X64.8232Y-97.7477

G1X65.1295Y-100.2121

G1X65.1262Y-101.5408

G1X64.9966Y-102.9487

G1X64.7607Y-104.1892

G1X64.3983Y-105.4706

G1X63.9368Y-106.6432

G1X63.3395Y-107.8331

G1X62.5567Y-109.0375

G1X61.8216Y-109.9614

G1X59.9034Y-111.9197

G1X59.2167Y-112.3511

G1X58.4376Y-112.6435

G1X57.3837Y-112.8116

G1X56.2765Y-112.7314

G1X55.3048Y-112.3876

G1X54.7181Y-111.9064

G1X54.5830Y-111.5853

G1X54.7428Y-111.2399

G1X55.1545Y-111.0756

G1X55.8964Y-111.0384

G1X57.3891Y-111.2307

G1X62.6983Y-112.2784

G1X65.7373Y-112.6690

G1X69.4376Y-112.8148

G1X73.1555Y-112.5815

G1 Z0F20000

(Start Block)


G1X12.6946Y-108.8833
G1Z6F20000
(Plotting speed under)
G1 F4000


G1X13.2018Y-109.4484

G1X13.6941Y-109.7608

G1X14.3559Y-109.9603

G1X15.3506Y-110.0420

G1X16.6565Y-109.9682

G1X18.1756Y-109.7422

G1X19.7950Y-109.3836

G1X21.4003Y-108.9248

G1X24.0422Y-107.9515

G1X26.5865Y-106.7524

G1X29.1831Y-105.2608

G1X33.6496Y-102.3425

G1X34.3847Y-101.9706

G1X35.0674Y-101.7883

G1X35.8629Y-101.8256

G1X36.6465Y-102.1646

G1X37.4059Y-102.7782

G1X39.0695Y-104.5004

G1X39.7435Y-104.9420

G1X40.3745Y-105.1608

G1X41.2852Y-105.2276

G1X42.3914Y-105.0402

G1X43.5815Y-104.6130

G1X44.8924Y-103.9292

G1X46.8364Y-102.5273

G1X48.5865Y-100.8085

G1X50.1166Y-98.7859

G1X51.3426Y-96.5377

G1X52.1953Y-94.1832

G1X52.5015Y-92.8655

G1X52.6896Y-91.6091

G1X52.7950Y-89.2274

G1X52.5682Y-85.8318

G1X52.6068Y-85.0787

G1X52.7486Y-84.6944

G1X52.9509Y-84.4835

G1X53.2431Y-84.3636

G1X53.6663Y-84.3368

G1X54.4715Y-84.4883

G1X55.3675Y-84.8148

G1X56.4772Y-85.3673

G1X57.6247Y-86.0858

G1X59.5917Y-87.6750

G1X61.3228Y-89.5528

G1X62.7031Y-91.5544

G1X63.8409Y-93.8593

G1X64.5823Y-96.1900

G1X64.9602Y-98.6070

G1X65.0065Y-99.8282

G1X64.9393Y-101.1721

G1X64.7578Y-102.4808

G1X64.4779Y-103.6700

G1X64.1066Y-104.8177

G1X63.6031Y-105.9766

G1X63.0097Y-107.0705

G1X62.3167Y-108.0884

G1X60.0424Y-110.6500

G1X59.5860Y-111.0352

G1X59.0981Y-111.3073

G1X58.2115Y-111.5938

G1X57.2065Y-111.6630

G1X56.3382Y-111.4797

G1X55.7939Y-111.0990

G1X55.7308Y-110.8689

G1X55.9543Y-110.6179

G1X56.3937Y-110.4982

G1X57.0381Y-110.4693

G1X58.5331Y-110.6049

G1X63.6621Y-111.3601

G1X66.4984Y-111.6097

G1X69.8826Y-111.6526

G1X73.3846Y-111.3932

G1 Z0F20000

(Start Block)


G1X13.2716Y-107.3203
G1Z6F20000
(Plotting speed under)
G1 F4000


G1X14.1347Y-108.0484

G1X14.6796Y-108.3526

G1X15.5039Y-108.5747

G1X16.4881Y-108.6333

G1X17.9165Y-108.5214

G1X19.4868Y-108.2418

G1X21.1220Y-107.8215

G1X22.8372Y-107.2553

G1X25.5378Y-106.1019

G1X28.2117Y-104.6223

G1X30.9224Y-102.7476

G1X34.8392Y-99.5487

G1X35.6032Y-99.0927

G1X36.3699Y-98.8359

G1X37.2989Y-98.8265

G1X38.1481Y-99.1031

G1X39.0288Y-99.6265

G1X41.0952Y-101.1719

G1X41.7468Y-101.5160

G1X42.4483Y-101.7401

G1X43.3371Y-101.8156

G1X44.2255Y-101.6929

G1X45.1672Y-101.3846

G1X46.2255Y-100.8493

G1X47.8080Y-99.6964

G1X49.3285Y-98.1320

G1X50.5515Y-96.4079

G1X51.5105Y-94.5192

G1X52.1973Y-92.4419

G1X52.5866Y-90.1087

G1X52.6651Y-88.1085

G1X52.4606Y-84.6940

G1X52.5028Y-83.9439

G1X52.5859Y-83.6661

G1X52.8086Y-83.3678

G1X53.1095Y-83.2218

G1X53.5705Y-83.1822

G1X54.3114Y-83.3088

G1X55.1833Y-83.6078

G1X56.2207Y-84.1004

G1X57.3064Y-84.7475

G1X59.2166Y-86.2038

G1X60.9306Y-87.9373

G1X62.3556Y-89.8353

G1X63.4990Y-91.8844

G1X64.3533Y-94.0822

G1X64.8723Y-96.2974

G1X65.0693Y-98.5610

G1X64.9107Y-100.9364

G1X64.3820Y-103.2076

G1X63.5381Y-105.2562

G1X62.5634Y-106.8855

G1X61.1827Y-108.6731

G1X60.7502Y-109.3908

G1X60.4531Y-109.7033

G1X59.7875Y-110.1567

G1X59.0481Y-110.4389

G1X58.2860Y-110.5209

G1X57.8423Y-110.3753

G1X57.8538Y-110.2655

G1X58.1458Y-110.1361

G1X59.2764Y-110.0589

G1X65.2274Y-110.4657

G1X68.6661Y-110.5111

G1X71.5559Y-110.3428

G1X74.6368Y-109.9557

G1 Z0F20000

(Start Block)


G1X14.3638Y-105.2677
G1Z6F20000
(Plotting speed under)
G1 F4000


G1X16.1432Y-106.6079

G1X16.8734Y-106.8614

G1X17.7905Y-106.9599

G1X19.1283Y-106.8748

G1X20.8108Y-106.5519

G1X22.5145Y-106.0539

G1X24.2508Y-105.3923

G1X27.1148Y-103.9557

G1X29.7849Y-102.1788

G1X31.1192Y-101.1045

G1X32.4071Y-99.9321

G1X35.8549Y-96.3171

G1X36.6935Y-95.7184

G1X37.5058Y-95.4048

G1X38.4368Y-95.3665

G1X39.5523Y-95.7044

G1X40.5560Y-96.2711

G1X42.9131Y-97.8978

G1X43.6169Y-98.2562

G1X44.2445Y-98.4674

G1X45.0194Y-98.5757

G1X45.8523Y-98.5088

G1X46.7153Y-98.2544

G1X47.5916Y-97.8162

G1X48.8174Y-96.8997

G1X49.9834Y-95.6445

G1X50.9912Y-94.1211

G1X51.7363Y-92.5023

G1X52.2541Y-90.7042

G1X52.5567Y-88.4866

G1X52.5936Y-86.6145

G1X52.3891Y-83.5655

G1X52.4235Y-82.7126

G1X52.5633Y-82.3203

G1X52.8200Y-82.0652

G1X53.1221Y-81.9571

G1X53.5512Y-81.9364

G1X54.2672Y-82.0601

G1X55.1352Y-82.3498

G1X57.0241Y-83.3103

G1X58.8827Y-84.6271

G1X60.5471Y-86.1682

G1X62.0388Y-87.9525

G1X63.1906Y-89.7427

G1X64.1547Y-91.7501

G1X64.8228Y-93.7618

G1X65.2214Y-95.7982

G1X65.3507Y-97.7183

G1X65.2407Y-99.6576

G1X64.8843Y-101.5676

G1X64.2489Y-103.4991

G1X63.7139Y-104.6853

G1X62.7348Y-106.5283

G1X62.3459Y-107.7829

G1X61.7107Y-108.6232

G1X60.7971Y-109.3583

G1X66.0635Y-109.3684

G1X69.5064Y-109.2072

G1X73.0295Y-108.7849

G1X76.7707Y-108.0531

G1 Z0F20000

(Start Block)


G1X15.7990Y-102.6353
G1Z6F20000
(Plotting speed under)
G1 F4000


G1X16.4074Y-103.0505

G1X17.9011Y-104.5214

G1X18.5177Y-104.8398

G1X19.3175Y-105.0093

G1X20.5399Y-104.9825

G1X22.0260Y-104.7014

G1X23.7716Y-104.1494

G1X25.4423Y-103.4361

G1X26.8772Y-102.6820

G1X28.3307Y-101.7758

G1X29.7065Y-100.7701

G1X30.9716Y-99.6976

G1X32.2502Y-98.4411

G1X33.4314Y-97.0909

G1X35.8510Y-93.7036

G1X36.4952Y-92.9170

G1X37.3522Y-92.1826

G1X38.1993Y-91.8320

G1X38.7600Y-91.7801

G1X39.2916Y-91.8402

G1X40.4924Y-92.2847

G1X41.7688Y-93.0900

G1X44.2521Y-94.9873

G1X44.9683Y-95.4220

G1X45.6064Y-95.7009

G1X46.3792Y-95.8747

G1X47.0582Y-95.8715

G1X47.7758Y-95.7104

G1X48.5298Y-95.3690

G1X49.6301Y-94.5436

G1X50.5482Y-93.5023

G1X51.3622Y-92.1774

G1X51.9484Y-90.7661

G1X52.3899Y-88.9257

G1X52.6037Y-86.8939

G1X52.6055Y-85.1971

G1X52.3718Y-82.2474

G1X52.3958Y-81.4165

G1X52.4885Y-81.1002

G1X52.7056Y-80.8115

G1X53.0791Y-80.6448

G1X53.4831Y-80.6148

G1X54.8143Y-80.8984

G1X56.5621Y-81.6741

G1X58.3869Y-82.8169

G1X59.9769Y-84.1038

G1X61.4203Y-85.5667

G1X62.6962Y-87.1852

G1X63.7725Y-88.9180

G1X64.6217Y-90.7028

G1X65.2058Y-92.3745

G1X65.5913Y-93.9688

G1X65.8275Y-95.6692

G1X65.8840Y-97.3373

G1X65.8188Y-98.5898

G1X65.6108Y-100.1210

G1X64.7149Y-103.7453

G1X64.7738Y-105.0698

G1X64.6628Y-105.8139

G1X64.3076Y-107.1738

G1X64.3085Y-107.4227

G1X64.4045Y-107.6088

G1X64.6153Y-107.7405

G1X65.0626Y-107.8420

G1X66.3731Y-107.8865

G1X68.5674Y-107.7604

G1X70.8895Y-107.4860

G1X74.9691Y-106.6863

G1X79.4707Y-105.3960

G1 Z0F20000

(Start Block)


G1X17.3125Y-99.3705
G1Z6F20000
(Plotting speed under)
G1 F4000


G1X17.8160Y-99.6829

G1X18.2419Y-100.0963

G1X19.4354Y-101.7822

G1X19.8439Y-102.2414

G1X20.3303Y-102.5911

G1X20.9145Y-102.8077

G1X21.9079Y-102.8840

G1X23.2544Y-102.6752

G1X24.7699Y-102.1907

G1X26.3204Y-101.4892

G1X27.8333Y-100.6200

G1X29.2906Y-99.5982

G1X30.6549Y-98.4512

G1X31.8301Y-97.2825

G1X32.9666Y-95.9478

G1X33.9975Y-94.4997

G1X34.8035Y-93.1489

G1X36.1119Y-90.6378

G1X36.7149Y-89.6977

G1X37.5320Y-88.8702

G1X37.9882Y-88.6241

G1X38.4147Y-88.5059

G1X39.0574Y-88.4920

G1X39.6755Y-88.6225

G1X40.3912Y-88.9088

G1X41.1230Y-89.3197

G1X42.5298Y-90.3623

G1X45.3504Y-92.8635

G1X46.5664Y-93.6460

G1X47.2412Y-93.8745

G1X47.9099Y-93.9309

G1X48.5223Y-93.8308

G1X49.1720Y-93.5649

G1X50.0317Y-92.9489

G1X50.9076Y-91.9579

G1X51.5964Y-90.8016

G1X52.1396Y-89.4274

G1X52.5473Y-87.5769

G1X52.7338Y-85.5190

G1X52.7128Y-83.8831

G1X52.4262Y-80.8937

G1X52.4309Y-80.0695

G1X52.5557Y-79.6554

G1X52.7722Y-79.4099

G1X53.0806Y-79.2749

G1X53.4958Y-79.2340

G1X54.6702Y-79.4415

G1X56.2250Y-80.0414

G1X57.8409Y-80.9189

G1X59.4343Y-82.0250

G1X60.8288Y-83.2179

G1X62.1127Y-84.5495

G1X63.2712Y-86.0092

G1X64.2755Y-87.5636

G1X64.9507Y-88.8461

G1X65.4842Y-90.0705

G1X65.9514Y-91.4142

G1X66.2916Y-92.6856

G1X66.5823Y-94.2587

G1X66.7318Y-95.7717

G1X66.7783Y-100.2493

G1X67.2721Y-101.6957

G1X67.7331Y-104.0725

G1X67.9390Y-104.5279

G1X68.1823Y-104.8108

G1X68.8295Y-105.1379

G1X69.9199Y-105.2677

G1X71.4690Y-105.1671

G1X73.3789Y-104.8388

G1X75.3243Y-104.3531

G1X77.3610Y-103.7116

G1X82.2412Y-101.7936

G1 Z0F20000

(Start Block)


G1X18.5930Y-95.5291
G1Z6F20000
(Plotting speed under)
G1 F4000


G1X19.1515Y-95.8900

G1X19.7005Y-96.4796

G1X20.2176Y-97.2753

G1X21.4263Y-99.5563

G1X21.8566Y-100.0760

G1X22.2887Y-100.3919

G1X23.0709Y-100.6369

G1X24.0747Y-100.6150

G1X25.3270Y-100.3056

G1X26.7212Y-99.7219

G1X28.2264Y-98.8625

G1X29.6591Y-97.8255

G1X31.0341Y-96.5992

G1X32.2200Y-95.3123

G1X33.3846Y-93.7632

G1X34.3326Y-92.1813

G1X34.9611Y-90.8854

G1X36.0945Y-88.0920

G1X36.6855Y-86.9424

G1X37.0868Y-86.4101

G1X37.4839Y-86.0642

G1X37.9510Y-85.8354

G1X38.3904Y-85.7529

G1X39.1017Y-85.8105

G1X39.8648Y-86.0597

G1X40.6630Y-86.4711

G1X41.5580Y-87.0762

G1X43.2326Y-88.5332

G1X46.0692Y-91.4610

G1X47.0963Y-92.2655

G1X47.7468Y-92.5677

G1X48.2924Y-92.6746

G1X48.9292Y-92.6256

G1X49.5201Y-92.4134

G1X50.3783Y-91.8154

G1X51.2056Y-90.8627

G1X51.8770Y-89.6845

G1X52.3732Y-88.3363

G1X52.8008Y-86.2999

G1X52.9626Y-84.1848

G1X52.8981Y-82.3433

G1X52.5378Y-79.3960

G1X52.5315Y-78.5726

G1X52.6669Y-78.1713

G1X52.8907Y-77.9479

G1X53.1703Y-77.8357

G1X53.6576Y-77.7957

G1X54.7077Y-77.9693

G1X56.0041Y-78.4094

G1X57.3736Y-79.0485

G1X58.8748Y-79.9309

G1X60.2832Y-80.9405

G1X61.5505Y-82.0242

G1X62.7722Y-83.2614

G1X63.8091Y-84.5001

G1X65.3387Y-86.7903

G1X66.5427Y-89.2594

G1X67.3774Y-91.6957

G1X68.1702Y-95.0141

G1X68.5153Y-96.0714

G1X69.3135Y-97.3558

G1X70.6728Y-100.0304

G1X71.1337Y-100.6355

G1X71.6036Y-101.0309

G1X72.4892Y-101.4015

G1X73.5404Y-101.5057

G1X74.8585Y-101.3778

G1X76.4141Y-101.0139

G1X78.0129Y-100.4774

G1X79.7660Y-99.7448

G1X84.5127Y-97.3339

G1 Z0F20000

(Start Block)


G1X19.3720Y-91.3213
G1Z6F20000
(Plotting speed under)
G1 F4000


G1X20.2166Y-91.9660

G1X21.0225Y-93.0408

G1X21.6553Y-94.2392

G1X22.8231Y-96.9910

G1X23.1500Y-97.5605

G1X23.5232Y-98.0056

G1X24.0910Y-98.3768

G1X24.8662Y-98.5348

G1X25.7813Y-98.4402

G1X26.7685Y-98.1347

G1X28.2217Y-97.4174

G1X29.7584Y-96.3622

G1X31.1579Y-95.1215

G1X32.4007Y-93.7385

G1X33.5205Y-92.1701

G1X34.4478Y-90.4910

G1X35.0141Y-89.1766

G1X36.1322Y-85.9875

G1X36.6284Y-84.9323

G1X36.9595Y-84.4652

G1X37.3476Y-84.1158

G1X37.8210Y-83.8950

G1X38.3447Y-83.8303

G1X39.0524Y-83.9420

G1X39.9165Y-84.2877

G1X40.8986Y-84.8814

G1X41.8710Y-85.6383

G1X43.6652Y-87.4158

G1X46.4692Y-90.7532

G1X47.4194Y-91.6043

G1X47.9928Y-91.9135

G1X48.5299Y-92.0441

G1X49.0290Y-92.0304

G1X49.5953Y-91.8619

G1X50.5832Y-91.1935

G1X51.4679Y-90.1440

G1X52.2053Y-88.7812

G1X52.7560Y-87.1339

G1X53.1684Y-84.9874

G1X53.2908Y-82.8840

G1X53.1831Y-81.0070

G1X52.6881Y-77.8342

G1X52.6582Y-77.0775

G1X52.7282Y-76.7825

G1X52.9193Y-76.5169

G1X53.2892Y-76.3464

G1X53.7122Y-76.3062

G1X54.6406Y-76.4232

G1X55.8357Y-76.7661

G1X57.1772Y-77.3085

G1X58.4466Y-77.9501

G1X60.8292Y-79.4906

G1X62.0095Y-80.4394

G1X63.1190Y-81.4671

G1X64.8025Y-83.3387

G1X66.2908Y-85.4211

G1X67.4116Y-87.3623

G1X68.8288Y-90.2806

G1X69.4758Y-91.4154

G1X70.6030Y-92.7229

G1X72.7775Y-95.5492

G1X73.4907Y-96.2265

G1X74.1795Y-96.6693

G1X75.1515Y-96.9944

G1X76.1867Y-97.0623

G1X77.3440Y-96.9087

G1X78.6937Y-96.5158

G1X80.0450Y-95.9514

G1X81.5065Y-95.1901

G1X85.8652Y-92.4593

G1 Z0F20000

(Start Block)


G1X19.5299Y-87.0724
G1Z6F20000
(Plotting speed under)
G1 F4000


G1X20.1531Y-87.5148

G1X20.7269Y-88.0955

G1X21.3428Y-88.9027

G1X21.8881Y-89.7919

G1X22.6713Y-91.4183

G1X23.9174Y-94.8038

G1X24.3743Y-95.7382

G1X24.9512Y-96.3875

G1X25.3421Y-96.6038

G1X25.7346Y-96.7087

G1X26.3368Y-96.7236

G1X27.0627Y-96.5855

G1X27.8571Y-96.2984

G1X28.6940Y-95.8767

G1X30.3808Y-94.7072

G1X32.0471Y-93.1024

G1X33.3297Y-91.4607

G1X34.3762Y-89.6854

G1X34.9295Y-88.4795

G1X36.0364Y-85.3909

G1X36.6254Y-84.0779

G1X37.2504Y-83.2935

G1X37.5810Y-83.0787

G1X38.0010Y-82.9427

G1X38.6282Y-82.9378

G1X39.4325Y-83.1664

G1X40.2854Y-83.6083

G1X41.1611Y-84.2270

G1X42.2609Y-85.2092

G1X43.3388Y-86.3827

G1X44.3727Y-87.6982

G1X46.2854Y-90.3763

G1X47.0640Y-91.2607

G1X47.5655Y-91.6579

G1X48.1895Y-91.9311

G1X48.7556Y-91.9795

G1X49.2993Y-91.8662

G1X49.9017Y-91.5776

G1X50.4590Y-91.1684

G1X51.0366Y-90.5970

G1X51.5551Y-89.9287

G1X52.4259Y-88.3594

G1X53.1255Y-86.3693

G1X53.5926Y-83.9624

G1X53.6949Y-81.4630

G1X53.5174Y-79.5061

G1X52.8958Y-76.4047

G1X52.8186Y-75.5664

G1X52.9031Y-75.2235

G1X53.1074Y-74.9893

G1X53.4963Y-74.8457

G1X53.9359Y-74.8201

G1X54.7922Y-74.9267

G1X55.8055Y-75.1855

G1X58.1199Y-76.0928

G1X60.4029Y-77.3490

G1X62.5856Y-78.9085

G1X64.2369Y-80.3674

G1X65.7488Y-81.9584

G1X66.9518Y-83.4246

G1X69.6329Y-86.9677

G1X71.0385Y-88.2740

G1X73.8813Y-91.1894

G1X74.7979Y-91.9133

G1X75.7307Y-92.4123

G1X76.6921Y-92.6717

G1X77.7415Y-92.7010

G1X78.7928Y-92.5159

G1X80.0255Y-92.0808

G1X81.1909Y-91.4929

G1X82.3501Y-90.7660

G1X86.2549Y-87.8251

G1 Z0F20000

(Start Block)


G1X18.9193Y-82.2620
G1Z6F20000
(Plotting speed under)
G1 F4000


G1X19.7701Y-82.8389

G1X20.7145Y-83.7342

G1X21.5647Y-84.7564

G1X22.4117Y-86.0017

G1X23.6319Y-88.3150

G1X25.2603Y-92.4252

G1X25.8608Y-93.5325

G1X26.1546Y-93.8734

G1X26.5727Y-94.1800

G1X26.9563Y-94.3267

G1X27.4704Y-94.3841

G1X27.9994Y-94.3249

G1X28.6190Y-94.1446

G1X29.9494Y-93.4569

G1X31.3425Y-92.3716

G1X32.6184Y-91.0290

G1X33.6654Y-89.5932

G1X34.5174Y-88.0642

G1X35.0128Y-86.9297

G1X36.0602Y-83.9971

G1X36.5560Y-82.9253

G1X37.1575Y-82.1676

G1X37.4874Y-81.9506

G1X37.8916Y-81.8153

G1X38.7467Y-81.8511

G1X39.6598Y-82.1972

G1X40.7563Y-82.8963

G1X41.9188Y-83.9111

G1X43.6161Y-85.8760

G1X46.4320Y-90.1658

G1X46.9804Y-90.8517

G1X47.4667Y-91.2873

G1X48.1738Y-91.6144

G1X48.8286Y-91.6353

G1X49.5527Y-91.4062

G1X50.2871Y-90.9464

G1X51.3716Y-89.8634

G1X52.2951Y-88.4666

G1X53.1552Y-86.5404

G1X53.7654Y-84.4387

G1X54.0907Y-82.2765

G1X54.1278Y-80.0154

G1X53.9407Y-78.1582

G1X53.3584Y-75.2035

G1X53.2936Y-74.4789

G1X53.4496Y-73.9657

G1X53.6970Y-73.7674

G1X54.0127Y-73.6715

G1X54.5695Y-73.6485

G1X55.3826Y-73.7555

G1X57.3135Y-74.3095

G1X59.4919Y-75.2535

G1X61.6413Y-76.4764

G1X63.3012Y-77.6307

G1X64.8898Y-78.9209

G1X69.3185Y-83.1437

G1X74.0945Y-86.7485

G1X75.2192Y-87.4127

G1X76.2860Y-87.8310

G1X77.2815Y-88.0059

G1X78.2604Y-87.9734

G1X79.2705Y-87.7390

G1X80.3874Y-87.2608

G1X81.3908Y-86.6514

G1X82.3290Y-85.9407

G1X85.7725Y-82.7996

G1 Z0F20000

(Start Block)


G1X17.1702Y-77.1886
G1Z6F20000
(Plotting speed under)
G1 F4000


G1X18.2768Y-77.7967

G1X19.4634Y-78.6669

G1X20.6721Y-79.7595

G1X21.8487Y-81.0362

G1X22.9922Y-82.5148

G1X24.1301Y-84.2777

G1X25.0980Y-86.0519

G1X26.5328Y-88.9781

G1X27.1030Y-89.9445

G1X27.5751Y-90.5191

G1X28.0039Y-90.8601

G1X28.5042Y-91.0753

G1X28.9444Y-91.1358

G1X29.8743Y-90.9711

G1X30.9306Y-90.4294

G1X31.9955Y-89.5676

G1X32.9678Y-88.4920

G1X33.8315Y-87.2363

G1X34.5448Y-85.8559

G1X34.9694Y-84.7878

G1X35.8066Y-82.1400

G1X36.2725Y-81.0524

G1X36.5673Y-80.6037

G1X36.9373Y-80.2438

G1X37.3263Y-80.0406

G1X37.7586Y-79.9571

G1X38.7430Y-80.1141

G1X39.8254Y-80.6345

G1X41.0065Y-81.4904

G1X42.2105Y-82.6316

G1X43.1173Y-83.6744

G1X43.9672Y-84.8083

G1X46.6722Y-89.2279

G1X47.1636Y-89.8911

G1X47.5931Y-90.3191

G1X48.2188Y-90.6784

G1X48.8345Y-90.7639

G1X49.5475Y-90.6030

G1X50.3055Y-90.1860

G1X51.4444Y-89.1316

G1X52.4164Y-87.7495

G1X53.3610Y-85.8474

G1X54.0468Y-83.8478

G1X54.4853Y-81.7353

G1X54.6607Y-79.5851

G1X54.6133Y-77.7772

G1X54.2800Y-74.8154

G1X54.2538Y-73.9494

G1X54.4478Y-73.3280

G1X54.6917Y-73.1041

G1X55.0410Y-72.9711

G1X55.9637Y-72.9459

G1X57.2858Y-73.2057

G1X58.8294Y-73.7174

G1X60.5605Y-74.4773

G1X62.1380Y-75.3214

G1X63.7569Y-76.3310

G1X68.6948Y-79.8926

G1X73.0360Y-82.1567

G1X74.2755Y-82.6410

G1X75.4171Y-82.9235

G1X76.4397Y-83.0047

G1X77.4643Y-82.8974

G1X78.4376Y-82.6040

G1X79.4266Y-82.1010

G1X80.1907Y-81.5637

G1X80.9847Y-80.8636

G1X83.3167Y-78.2390

G1X84.0864Y-77.5354

G1 Z0F20000

(Start Block)


G1X14.3739Y-72.6809
G1Z6F20000
(Plotting speed under)
G1 F4000


G1X16.1047Y-73.3983

G1X17.9472Y-74.4438

G1X19.7493Y-75.7275

G1X21.4532Y-77.2038

G1X22.8819Y-78.6735

G1X24.3087Y-80.3936

G1X28.1200Y-85.9241

G1X28.7705Y-86.6143

G1X29.4440Y-87.0661

G1X30.2870Y-87.2558

G1X31.1282Y-87.0845

G1X31.9677Y-86.6058

G1X32.8627Y-85.7672

G1X33.7105Y-84.5984

G1X34.3374Y-83.3642

G1X34.7661Y-82.1788

G1X35.4365Y-79.6211

G1X35.8996Y-78.5369

G1X36.2234Y-78.1232

G1X36.6559Y-77.8287

G1X37.0668Y-77.7143

G1X37.6316Y-77.7201

G1X38.5810Y-77.9899

G1X39.7095Y-78.5839

G1X40.9437Y-79.4867

G1X42.1188Y-80.5716

G1X43.2963Y-81.8923

G1X44.4260Y-83.4105

G1X46.8898Y-87.5159

G1X47.5110Y-88.4302

G1X47.8887Y-88.8537

G1X48.3300Y-89.1962

G1X48.7353Y-89.3743

G1X49.1763Y-89.4403

G1X49.7148Y-89.3652

G1X50.3831Y-89.0763

G1X50.9751Y-88.6618

G1X51.6165Y-88.0525

G1X52.8119Y-86.4060

G1X53.8816Y-84.3293

G1X54.6341Y-82.2313

G1X55.1449Y-79.9679

G1X55.3618Y-78.1468

G1X55.4948Y-74.9232

G1X55.6052Y-73.9846

G1X55.8724Y-73.2977

G1X56.3058Y-72.9038

G1X56.9219Y-72.7222

G1X57.6696Y-72.7176

G1X58.6777Y-72.8834

G1X59.8098Y-73.2035

G1X61.2299Y-73.7391

G1X62.6563Y-74.3919

G1X66.8154Y-76.6758

G1X68.0452Y-77.2734

G1X71.1130Y-78.2327

G1X72.2975Y-78.4568

G1X73.4389Y-78.5391

G1X74.4532Y-78.4690

G1X75.4058Y-78.2512

G1X76.2911Y-77.8903

G1X77.1026Y-77.4004

G1X78.2791Y-76.3603

G1X80.3862Y-73.6465

G1X80.7913Y-73.2352

G1X81.2940Y-72.8783

G1 Z0F20000

(Start Block)


G1X11.0805Y-69.2284
G1Z6F20000
(Plotting speed under)
G1 F4000


G1X13.3021Y-69.8399

G1X15.6016Y-70.7488

G1X17.8975Y-71.9265

G1X20.0798Y-73.3236

G1X22.0363Y-74.8400

G1X23.8173Y-76.4683

G1X28.8798Y-81.9967

G1X29.7875Y-82.6957

G1X30.5648Y-83.0251

G1X31.3594Y-83.0587

G1X32.0498Y-82.8211

G1X32.7240Y-82.3274

G1X33.3575Y-81.5751

G1X33.8210Y-80.7697

G1X34.1944Y-79.8214

G1X34.9527Y-76.6273

G1X35.2042Y-76.0724

G1X35.5541Y-75.6385

G1X36.0858Y-75.3474

G1X36.7437Y-75.2833

G1X37.5553Y-75.4359

G1X38.5536Y-75.8315

G1X39.6026Y-76.4207

G1X40.6868Y-77.1852

G1X41.7084Y-78.0442

G1X42.7666Y-79.0828

G1X43.8434Y-80.3132

G1X44.9418Y-81.7760

G1X47.5250Y-85.9480

G1X48.1461Y-86.8237

G1X48.9443Y-87.5488

G1X49.3542Y-87.7314

G1X49.7989Y-87.7950

G1X50.2499Y-87.7375

G1X50.7371Y-87.5584

G1X51.7172Y-86.8609

G1X52.8278Y-85.5647

G1X53.9305Y-83.8721

G1X54.8005Y-82.1645

G1X55.5219Y-80.3488

G1X57.1045Y-74.7837

G1X57.5377Y-73.9573

G1X58.0966Y-73.4106

G1X58.5959Y-73.1688

G1X59.1425Y-73.0466

G1X60.5991Y-73.0920

G1X62.6728Y-73.5961

G1X66.3648Y-74.9175

G1X67.5127Y-75.2487

G1X69.3182Y-75.4540

G1X71.0333Y-75.3000

G1X71.8279Y-75.0767

G1X72.5434Y-74.7724

G1X73.2459Y-74.3601

G1X73.8758Y-73.8739

G1X74.9836Y-72.6716

G1X76.7132Y-70.1069

G1X77.2809Y-69.6242

G1X77.9709Y-69.3261

G1 Z0F20000

(Start Block)


G1X8.0000Y-66.8555
G1Z6F20000
(Plotting speed under)
G1 F4000


G1X10.6515Y-67.2856

G1X13.4086Y-68.0080

G1X15.9455Y-68.9294

G1X18.4968Y-70.1313

G1X20.7150Y-71.4249

G1X22.9623Y-72.9917

G1X24.6359Y-74.3290

G1X27.7639Y-77.0718

G1X29.0400Y-78.0903

G1X29.9376Y-78.6405

G1X30.7449Y-78.9347

G1X31.3996Y-78.9813

G1X32.0127Y-78.8250

G1X32.5348Y-78.4959

G1X33.0427Y-77.9319

G1X33.3983Y-77.3034

G1X33.6481Y-76.6124

G1X34.1728Y-74.1242

G1X34.4351Y-73.5794

G1X34.7574Y-73.2242

G1X35.2764Y-72.9695

G1X36.0735Y-72.9175

G1X36.9711Y-73.0967

G1X38.0496Y-73.5029

G1X39.3057Y-74.1613

G1X40.5926Y-75.0111

G1X41.7863Y-75.9546

G1X43.0052Y-77.0831

G1X44.2261Y-78.4022

G1X45.3997Y-79.8767

G1X48.8198Y-84.9456

G1X49.2732Y-85.4124

G1X49.6998Y-85.7205

G1X50.1210Y-85.8951

G1X50.5382Y-85.9477

G1X51.2444Y-85.7996

G1X51.9158Y-85.4153

G1X52.9052Y-84.5039

G1X53.8888Y-83.4045

G1X55.6993Y-80.9038

G1X58.5097Y-76.1897

G1X59.1544Y-75.3527

G1X59.8594Y-74.6788

G1X60.9074Y-74.0672

G1X62.2089Y-73.7300

G1X63.6668Y-73.6540

G1X67.4625Y-73.7981

G1X68.3120Y-73.6740

G1X69.1708Y-73.3540

G1X70.1938Y-72.6346

G1X71.1024Y-71.5362

G1X71.7060Y-70.3930

G1X72.5140Y-68.2353

G1X72.9254Y-67.5831

G1X73.2738Y-67.3004

G1X73.6787Y-67.1125

G1X74.8408Y-66.8949

G1 Z0F20000

(Start Block)


G1X8.0000Y-65.4367
G1Z6F20000
(Plotting speed under)
G1 F4000


G1X8.7059Y-65.4958

G1X11.5915Y-65.9755

G1X14.4213Y-66.7023

G1X17.1702Y-67.6743

G1X19.2575Y-68.6017

G1X21.3408Y-69.6983

G1X23.8849Y-71.2644

G1X28.3907Y-74.3200

G1X29.5694Y-74.9404

G1X30.4925Y-75.2329

G1X31.0065Y-75.2793

G1X31.5539Y-75.1970

G1X32.0399Y-74.9630

G1X32.4221Y-74.6152

G1X32.7103Y-74.1860

G1X32.9102Y-73.7085

G1X33.3997Y-71.7559

G1X33.6561Y-71.3203

G1X34.0676Y-70.9615

G1X34.7046Y-70.7514

G1X35.4780Y-70.7465

G1X36.4384Y-70.9336

G1X37.6398Y-71.3500

G1X39.0195Y-72.0096

G1X40.4942Y-72.8998

G1X41.8641Y-73.8963

G1X43.2333Y-75.0691

G1X44.6045Y-76.4446

G1X45.8559Y-77.9022

G1X48.9565Y-82.2453

G1X49.6293Y-83.0818

G1X50.4603Y-83.7838

G1X50.8738Y-83.9627

G1X51.3074Y-84.0282

G1X51.8182Y-83.9554

G1X52.3036Y-83.7451

G1X54.9507Y-81.9981

G1X57.0582Y-80.3213

G1X61.2551Y-76.6988

G1X63.2737Y-75.1658

G1X65.0040Y-74.0873

G1X67.8143Y-72.6960

G1X68.2969Y-72.3582

G1X68.7005Y-71.9233

G1X69.0361Y-71.3958

G1X69.5102Y-70.0448

G1X69.6563Y-68.5109

G1X69.4962Y-66.3087

G1X69.6311Y-65.7489

G1X69.8769Y-65.5401

G1X70.4440Y-65.3700

G1X72.4799Y-65.2549

G1 Z0F20000

(Start Block)


G1X8.0000Y-64.1593
G1Z6F20000
(Plotting speed under)
G1 F4000


G1X10.6014Y-64.4516

G1X13.4276Y-64.9887

G1X16.1437Y-65.7320

G1X18.3113Y-66.4934

G1X20.5606Y-67.4444

G1X22.9799Y-68.6420

G1X27.8910Y-71.3265

G1X29.0561Y-71.8347

G1X30.0613Y-72.1084

G1X30.9880Y-72.1085

G1X31.3809Y-71.9836

G1X31.7223Y-71.7719

G1X32.1739Y-71.1911

G1X32.5608Y-70.1053

G1X32.8110Y-69.6391

G1X33.2507Y-69.1865

G1X33.7261Y-68.9487

G1X34.4633Y-68.8229

G1X35.3193Y-68.8701

G1X36.3759Y-69.0917

G1X37.4964Y-69.4591

G1X38.9982Y-70.1174

G1X40.6098Y-71.0135

G1X42.1348Y-72.0425

G1X43.6609Y-73.2646

G1X45.0701Y-74.5871

G1X46.4568Y-76.0973

G1X50.4424Y-81.2339

G1X51.2688Y-81.9216

G1X51.7370Y-82.1232

G1X52.1240Y-82.1890

G1X56.0505Y-81.7953

G1X57.3728Y-81.5266

G1X58.4986Y-81.1839

G1X59.7268Y-80.6680

G1X60.9782Y-79.9695

G1X62.0961Y-79.1804

G1X63.2422Y-78.1882

G1X64.3774Y-76.9970

G1X65.4622Y-75.6450

G1X67.2825Y-73.0703

G1X68.1963Y-71.9616

G1X68.4845Y-71.4714

G1X68.7076Y-70.8735

G1X68.9080Y-69.4571

G1X68.7387Y-67.8019

G1X68.2472Y-66.2888

G1X67.3036Y-64.5340

G1X67.2391Y-64.2742

G1X67.4666Y-64.0896

G1X67.9556Y-64.0232

G1X71.2125Y-63.9946

G1 Z0F20000

(Start Block)


G1X8.0000Y-62.9849
G1Z6F20000
(Plotting speed under)
G1 F4000


G1X10.4809Y-63.2130

G1X13.2195Y-63.6528

G1X15.8888Y-64.2731

G1X18.0402Y-64.9173

G1X20.1729Y-65.6829

G1X22.6260Y-66.7067

G1X27.4627Y-68.9252

G1X28.6655Y-69.3755

G1X29.6607Y-69.6223

G1X30.6348Y-69.6492

G1X31.3060Y-69.4189

G1X31.6489Y-69.1292

G1X32.2180Y-68.2865

G1X32.6447Y-67.8344

G1X33.1550Y-67.4990

G1X33.7748Y-67.2877

G1X34.6856Y-67.2058

G1X35.6792Y-67.2984

G1X36.8209Y-67.5523

G1X38.0690Y-67.9616

G1X39.7555Y-68.6960

G1X41.5210Y-69.6728

G1X43.1607Y-70.7794

G1X44.8170Y-72.1145

G1X46.0888Y-73.3089

G1X47.3353Y-74.6416

G1X48.5864Y-76.1483

G1X50.7499Y-78.9743

G1X51.8767Y-80.1286

G1X53.4237Y-80.9809

G1X55.3621Y-82.2634

G1X56.2888Y-82.7864

G1X57.3393Y-83.1655

G1X58.3462Y-83.2826

G1X59.7151Y-83.0758

G1X61.2504Y-82.4085

G1X62.7441Y-81.3551

G1X64.1531Y-79.9725

G1X65.2822Y-78.5287

G1X66.3163Y-76.8480

G1X67.1176Y-75.2228

G1X68.6917Y-71.5804

G1X68.9497Y-70.5199

G1X69.0048Y-69.3741

G1X68.8693Y-68.1640

G1X68.5664Y-67.0125

G1X68.1163Y-65.9308

G1X67.5532Y-64.9658

G1X66.7767Y-63.9831

G1X65.9071Y-63.1391

G1X65.7891Y-62.9110

G1X66.5848Y-62.8321

G1X71.1610Y-62.8456

G1 Z0F20000

(Start Block)


G1X8.0000Y-61.8923
G1Z6F20000
(Plotting speed under)
G1 F4000


G1X8.3393Y-61.9066

G1X11.0358Y-62.1677

G1X13.7046Y-62.5835

G1X16.2237Y-63.1316

G1X20.2909Y-64.3438

G1X27.4468Y-67.1596

G1X28.7106Y-67.5803

G1X29.7289Y-67.8082

G1X30.5111Y-67.8570

G1X31.1811Y-67.7355

G1X31.5754Y-67.5338

G1X32.6406Y-66.6836

G1X33.3303Y-66.2503

G1X34.0290Y-65.9858

G1X34.8189Y-65.8586

G1X35.9051Y-65.8838

G1X37.2659Y-66.1276

G1X38.6102Y-66.5304

G1X40.1126Y-67.1358

G1X42.0119Y-68.1169

G1X43.8451Y-69.3016

G1X45.6167Y-70.6945

G1X47.2843Y-72.2677

G1X49.0425Y-74.2514

G1X51.7180Y-77.7806

G1X53.3639Y-79.7157

G1X54.1717Y-81.0265

G1X55.5877Y-83.8054

G1X56.0957Y-84.5788

G1X56.5472Y-85.0460

G1X56.9728Y-85.3222

G1X57.4555Y-85.4897

G1X58.0025Y-85.5446

G1X58.7485Y-85.4572

G1X59.5417Y-85.2167

G1X60.4229Y-84.8137

G1X61.2603Y-84.3184

G1X63.0720Y-82.8965

G1X64.7037Y-81.1566

G1X65.9943Y-79.3618

G1X67.1214Y-77.3229

G1X68.0177Y-75.1871

G1X69.1215Y-71.9323

G1X69.3869Y-70.6104

G1X69.4136Y-69.1844

G1X69.2077Y-67.7293

G1X68.7559Y-66.2498

G1X68.1337Y-64.9586

G1X67.3165Y-63.7651

G1X66.4525Y-62.8428

G1X65.1507Y-61.7704

G1X65.5848Y-61.6912

G1X67.6319Y-61.6857

G1X72.3204Y-61.7953

G1 Z0F20000

(Start Block)


G1X8.0000Y-61.0859
G1Z6F20000
(Plotting speed under)
G1 F4000


G1X9.8640Y-61.1491

G1X12.2964Y-61.4006

G1X14.7965Y-61.8041

G1X17.2712Y-62.3441

G1X21.0211Y-63.4270

G1X28.0924Y-66.0439

G1X29.3366Y-66.4322

G1X30.3096Y-66.6425

G1X31.1975Y-66.6995

G1X31.8718Y-66.5838

G1X32.6782Y-66.2074

G1X33.9619Y-65.3200

G1X34.5918Y-64.9785

G1X35.4150Y-64.7278

G1X36.2589Y-64.6521

G1X37.5899Y-64.7758

G1X39.0637Y-65.1386

G1X40.7121Y-65.7506

G1X42.4080Y-66.5779

G1X43.8416Y-67.4343

G1X45.1804Y-68.3742

G1X46.4866Y-69.4371

G1X47.8096Y-70.6835

G1X48.9200Y-71.8838

G1X50.0495Y-73.2722

G1X52.5463Y-76.8935

G1X53.4378Y-78.5906

G1X54.0568Y-80.5093

G1X54.3988Y-82.3407

G1X54.6918Y-85.6220

G1X54.8825Y-86.5468

G1X55.0860Y-86.9506

G1X55.3811Y-87.2327

G1X55.7822Y-87.3946

G1X56.2165Y-87.4377

G1X56.9492Y-87.3532

G1X57.8637Y-87.0907

G1X59.8894Y-86.1345

G1X61.9473Y-84.7334

G1X63.7995Y-83.0698

G1X65.3546Y-81.2811

G1X66.7579Y-79.2117

G1X67.9045Y-76.9944

G1X68.8679Y-74.5079

G1X69.6082Y-72.1894

G1X69.8894Y-70.6167

G1X69.9016Y-68.8235

G1X69.5883Y-66.9296

G1X68.9463Y-65.1033

G1X68.0571Y-63.5194

G1X67.0388Y-62.2613

G1X65.3581Y-60.8068

G1X65.3271Y-60.6435

G1X66.4861Y-60.5695

G1X69.5583Y-60.6441

G1X74.5636Y-61.0845

G1 Z0F20000

(Start Block)


G1X10.8963Y-61.1075
G1Z6F20000
(Plotting speed under)
G1 F4000


G1X12.4164Y-61.0236

G1X14.3754Y-61.1544

G1X16.5981Y-61.4852

G1X18.9141Y-61.9842

G1X22.4065Y-62.9936

G1X29.4274Y-65.6009

G1X30.6457Y-65.9786

G1X31.6085Y-66.1822

G1X32.6096Y-66.2182

G1X33.2907Y-66.0336

G1X33.9599Y-65.6217

G1X35.2680Y-64.3768

G1X35.8361Y-63.9613

G1X36.6201Y-63.6465

G1X37.5425Y-63.5446

G1X38.9888Y-63.7103

G1X40.7568Y-64.2296

G1X42.5475Y-65.0124

G1X44.3741Y-66.0545

G1X45.7454Y-67.0095

G1X47.0154Y-68.0436

G1X48.2415Y-69.2025

G1X49.3278Y-70.3877

G1X50.3815Y-71.7121

G1X51.3780Y-73.1599

G1X52.4850Y-75.0308

G1X53.0048Y-76.1129

G1X53.4463Y-77.3836

G1X53.7438Y-78.6752

G1X53.9156Y-80.0011

G1X53.9622Y-81.4538

G1X53.8785Y-82.8051

G1X53.6821Y-84.1216

G1X52.9002Y-87.1786

G1X52.7950Y-87.8925

G1X52.8616Y-88.2188

G1X52.9799Y-88.3757

G1X53.2743Y-88.5234

G1X53.6633Y-88.5712

G1X54.4748Y-88.4968

G1X55.5538Y-88.2405

G1X56.7406Y-87.8375

G1X57.9942Y-87.3014

G1X60.2746Y-86.0490

G1X62.4449Y-84.4746

G1X64.3277Y-82.7213

G1X65.9651Y-80.7842

G1X67.3635Y-78.6670

G1X68.6089Y-76.1806

G1X69.7978Y-73.0088

G1X70.2048Y-71.4262

G1X70.3987Y-69.4131

G1X70.2447Y-67.3124

G1X69.7471Y-65.2984

G1X68.8748Y-63.3353

G1X67.8502Y-61.8001

G1X66.1226Y-59.9739

G1X66.0226Y-59.7232

G1X66.3870Y-59.5968

G1X67.5586Y-59.5760

G1X71.0901Y-59.8420

G1X74.1597Y-60.3208

G1X77.5767Y-61.0939

G1 Z0F20000

(Start Block)


G1X14.1843Y-62.1924
G1Z6F20000
(Plotting speed under)
G1 F4000


G1X15.5338Y-61.8048

G1X17.0416Y-61.6761

G1X18.8340Y-61.7904

G1X20.9460Y-62.1637

G1X22.6115Y-62.5914

G1X24.4417Y-63.1710

G1X26.5836Y-63.9688

G1X31.2406Y-65.8797

G1X32.4374Y-66.2759

G1X33.3902Y-66.4720

G1X34.1309Y-66.4046

G1X34.8410Y-66.0267

G1X35.4663Y-65.3579

G1X36.4595Y-63.7844

G1X36.9170Y-63.2100

G1X37.5735Y-62.7470

G1X38.4204Y-62.5372

G1X39.0792Y-62.5345

G1X39.9327Y-62.6539

G1X41.8415Y-63.2379

G1X43.8227Y-64.1816

G1X45.8546Y-65.4823

G1X47.2029Y-66.5529

G1X48.4812Y-67.7531

G1X49.5891Y-68.9746

G1X50.6408Y-70.3359

G1X51.6469Y-71.8855

G1X52.5265Y-73.5279

G1X53.0308Y-74.7584

G1X53.4233Y-76.1411

G1X53.6458Y-77.4509

G1X53.7417Y-78.7890

G1X53.6993Y-80.2332

G1X53.5194Y-81.5898

G1X53.1265Y-83.1955

G1X52.5122Y-84.8117

G1X51.8534Y-86.0884

G1X50.4000Y-88.3896

G1X50.4110Y-88.6911

G1X50.6126Y-88.8054

G1X51.0503Y-88.8504

G1X52.0021Y-88.7727

G1X53.3065Y-88.5312

G1X56.0136Y-87.7339

G1X58.4947Y-86.6620

G1X60.9818Y-85.2102

G1X63.0861Y-83.6094

G1X64.9776Y-81.7770

G1X66.6402Y-79.7252

G1X68.1091Y-77.3763

G1X69.2353Y-75.0287

G1X70.2791Y-72.2101

G1X70.6913Y-70.0922

G1X70.7575Y-67.8971

G1X70.4704Y-65.7244

G1X69.8062Y-63.5593

G1X68.7964Y-61.5762

G1X67.1881Y-59.3397

G1X67.0958Y-59.1335

G1X67.1256Y-58.9516

G1X67.3255Y-58.8391

G1X67.6999Y-58.7830

G1X69.2173Y-58.8329

G1X71.2079Y-59.0884

G1X73.2569Y-59.4951

G1X76.8242Y-60.5278

G1X80.8168Y-62.1271

G1 Z0F20000

(Start Block)


G1X17.0138Y-64.3298
G1Z6F20000
(Plotting speed under)
G1 F4000


G1X18.4843Y-63.4469

G1X19.8492Y-62.9682

G1X21.3430Y-62.8126

G1X23.1592Y-62.9799

G1X24.9308Y-63.3952

G1X26.8258Y-64.0368

G1X28.8161Y-64.8752

G1X33.1291Y-66.9114

G1X34.1483Y-67.2925

G1X34.6468Y-67.3858

G1X35.0937Y-67.3418

G1X35.4971Y-67.1859

G1X35.8597Y-66.9345

G1X36.2596Y-66.5127

G1X36.9136Y-65.4159

G1X37.7353Y-63.3287

G1X38.0978Y-62.6030

G1X38.5782Y-62.0569

G1X39.2431Y-61.7397

G1X39.8616Y-61.6636

G1X40.6138Y-61.7207

G1X42.4193Y-62.2265

G1X44.4565Y-63.2042

G1X46.4412Y-64.5201

G1X47.8249Y-65.6742

G1X49.1142Y-66.9684

G1X50.3077Y-68.4142

G1X51.3360Y-69.9289

G1X52.1289Y-71.3542

G1X52.8298Y-72.9414

G1X53.2848Y-74.5123

G1X53.5441Y-76.1532

G1X53.6065Y-77.7136

G1X53.4824Y-79.3178

G1X53.1933Y-80.8067

G1X52.7023Y-82.3488

G1X51.9144Y-84.0107

G1X50.9690Y-85.4392

G1X49.9570Y-86.5991

G1X48.3137Y-88.0473

G1X48.1576Y-88.2824

G1X48.2910Y-88.3729

G1X48.8209Y-88.4077

G1X51.5870Y-88.1205

G1X54.2746Y-87.5266

G1X57.0192Y-86.5899

G1X59.6060Y-85.3477

G1X61.8490Y-83.9200

G1X63.9867Y-82.1662

G1X65.8306Y-80.2307

G1X67.4944Y-77.9851

G1X68.8278Y-75.6513

G1X70.1270Y-72.6967

G1X70.7455Y-70.4989

G1X71.0115Y-68.3047

G1X70.9498Y-66.1442

G1X70.5647Y-64.0072

G1X70.2001Y-62.8132

G1X69.7338Y-61.6567

G1X68.2709Y-58.8387

G1X68.2421Y-58.4905

G1X68.4061Y-58.3105

G1X68.7511Y-58.2156

G1X69.3753Y-58.1993

G1X71.2677Y-58.4457

G1X73.4783Y-58.9826

G1X75.6197Y-59.7039

G1X77.4954Y-60.4996

G1X79.4560Y-61.5011

G1X81.3229Y-62.6180

G1X83.6115Y-64.1628

G1 Z0F20000

(Start Block)


G1X18.8272Y-67.0517
G1Z6F20000
(Plotting speed under)
G1 F4000


G1X20.8046Y-65.5121

G1X22.0914Y-64.7864

G1X22.7808Y-64.5451

G1X23.5139Y-64.3959

G1X25.0621Y-64.3827

G1X26.6468Y-64.6894

G1X28.4397Y-65.3166

G1X30.5501Y-66.3316

G1X34.4071Y-68.5062

G1X35.1674Y-68.8332

G1X35.7235Y-68.8625

G1X36.1307Y-68.7446

G1X36.6445Y-68.4092

G1X37.1306Y-67.8899

G1X37.5026Y-67.3413

G1X38.2555Y-65.6997

G1X39.2796Y-62.3887

G1X39.6851Y-61.6907

G1X40.1762Y-61.2900

G1X40.6755Y-61.1236

G1X41.2034Y-61.0860

G1X41.8647Y-61.1583

G1X42.6628Y-61.3608

G1X44.4231Y-62.1084

G1X46.2967Y-63.2697

G1X47.8171Y-64.4952

G1X49.1562Y-65.8306

G1X50.4133Y-67.3789

G1X51.4787Y-69.0217

G1X52.3467Y-70.7381

G1X52.8957Y-72.1933

G1X53.2956Y-73.9026

G1X53.4643Y-75.6290

G1X53.4159Y-77.3557

G1X53.1470Y-79.0646

G1X52.6864Y-80.6421

G1X52.0327Y-82.1496

G1X51.0674Y-83.7250

G1X49.8125Y-85.1875

G1X48.5558Y-86.2515

G1X46.6826Y-87.3696

G1X46.6597Y-87.4749

G1X47.2381Y-87.5084

G1X50.2471Y-87.3102

G1X52.9418Y-86.8657

G1X55.7412Y-86.0936

G1X58.4318Y-84.9998

G1X60.8069Y-83.6854

G1X63.0151Y-82.0922

G1X65.0858Y-80.1619

G1X66.7818Y-78.1299

G1X67.6008Y-76.9446

G1X68.4717Y-75.4817

G1X69.7564Y-72.8105

G1X70.5428Y-70.6090

G1X70.9859Y-68.4013

G1X71.1027Y-66.2417

G1X70.9196Y-64.1128

G1X70.3847Y-61.8173

G1X69.1707Y-58.5857

G1X69.1423Y-58.1065

G1X69.3638Y-57.8408

G1X69.8074Y-57.7320

G1X70.5640Y-57.7550

G1X72.7910Y-58.2304

G1X75.1949Y-59.0922

G1X77.5160Y-60.2215

G1X79.5791Y-61.4945

G1X81.5264Y-62.9607

G1X83.3234Y-64.5686

G1X85.4296Y-66.7287

G1 Z0F20000

(Start Block)


G1X19.5106Y-69.5426
G1Z6F20000
(Plotting speed under)
G1 F4000


G1X21.9531Y-67.6896

G1X23.3692Y-66.8232

G1X24.1002Y-66.5147

G1X24.8537Y-66.3080

G1X25.6362Y-66.2097

G1X26.3661Y-66.2165

G1X27.8293Y-66.4779

G1X29.4866Y-67.1017

G1X31.3121Y-68.1005

G1X35.1325Y-70.6110

G1X35.6283Y-70.7877

G1X36.1250Y-70.7533

G1X36.7207Y-70.4786

G1X37.2933Y-70.0021

G1X37.9036Y-69.2737

G1X38.5154Y-68.2951

G1X39.4053Y-66.2778

G1X40.5916Y-62.4370

G1X40.9248Y-61.7683

G1X41.2807Y-61.3495

G1X41.6572Y-61.1060

G1X42.0903Y-60.9753

G1X43.1334Y-61.0138

G1X44.3847Y-61.4141

G1X45.8760Y-62.2024

G1X47.3998Y-63.3031

G1X48.7432Y-64.5425

G1X50.0135Y-66.0098

G1X51.1135Y-67.6150

G1X52.0132Y-69.3057

G1X52.7228Y-71.1222

G1X53.1140Y-72.7918

G1X53.2850Y-74.5015

G1X53.2260Y-76.3319

G1X52.9374Y-78.0395

G1X52.4284Y-79.6950

G1X51.7044Y-81.2621

G1X50.5628Y-82.9739

G1X49.2545Y-84.3546

G1X47.8133Y-85.4313

G1X46.0820Y-86.3135

G1X46.1122Y-86.3862

G1X46.7522Y-86.4036

G1X49.8787Y-86.2229

G1X52.4862Y-85.8284

G1X55.0499Y-85.1775

G1X57.6782Y-84.1933

G1X60.0778Y-82.9591

G1X62.3221Y-81.4414

G1X64.3705Y-79.6548

G1X66.1195Y-77.7066

G1X67.5807Y-75.6326

G1X68.8643Y-73.2710

G1X70.0645Y-70.3412

G1X70.6789Y-67.9979

G1X70.9143Y-65.9334

G1X70.8778Y-63.8566

G1X70.5098Y-61.5100

G1X69.5356Y-58.0685

G1X69.5544Y-57.5096

G1X69.8200Y-57.2300

G1X70.4418Y-57.1230

G1X71.3262Y-57.2160

G1X72.4617Y-57.4882

G1X73.7472Y-57.9207

G1X76.2738Y-59.0809

G1X78.7262Y-60.6180

G1X80.8141Y-62.3073

G1X82.6685Y-64.1873

G1X84.3284Y-66.2593

G1X86.1730Y-69.0176

G1 Z0F20000

(Start Block)


G1X19.3910Y-71.7000
G1Z6F20000
(Plotting speed under)
G1 F4000


G1X22.4994Y-69.7013

G1X24.0040Y-68.8977

G1X25.5660Y-68.3974

G1X27.0322Y-68.3099

G1X28.5571Y-68.6091

G1X30.2307Y-69.3496

G1X31.6031Y-70.2311

G1X34.2790Y-72.3229

G1X34.9821Y-72.7823

G1X35.4593Y-72.8745

G1X36.0589Y-72.7371

G1X36.8052Y-72.2949

G1X37.6550Y-71.5209

G1X38.4299Y-70.5884

G1X39.2171Y-69.4011

G1X40.2961Y-67.2657

G1X41.8259Y-63.0899

G1X42.1243Y-62.4307

G1X42.4915Y-61.8597

G1X43.0336Y-61.3896

G1X43.6083Y-61.1909

G1X44.3009Y-61.1872

G1X45.1158Y-61.3855

G1X46.5488Y-62.0806

G1X47.9927Y-63.1334

G1X49.3395Y-64.4429

G1X50.5870Y-66.0178

G1X51.6367Y-67.7600

G1X52.4497Y-69.6077

G1X52.9253Y-71.2555

G1X53.1818Y-73.0759

G1X53.1788Y-74.9099

G1X52.9210Y-76.7329

G1X52.4134Y-78.4997

G1X51.6593Y-80.1723

G1X50.6540Y-81.7259

G1X49.4498Y-83.0705

G1X48.2093Y-84.0892

G1X46.5878Y-85.0924

G1X46.7751Y-85.1855

G1X47.6303Y-85.1866

G1X50.3041Y-84.9681

G1X52.4981Y-84.6028

G1X54.4608Y-84.1120

G1X56.4060Y-83.4557

G1X58.4065Y-82.5811

G1X60.2867Y-81.5364

G1X61.9835Y-80.3743

G1X63.5654Y-79.0630

G1X65.0124Y-77.6075

G1X66.3126Y-76.0282

G1X67.4994Y-74.2640

G1X68.3795Y-72.6493

G1X69.1464Y-70.9514

G1X69.9962Y-68.6173

G1X70.4547Y-66.8457

G1X70.7229Y-64.9276

G1X70.7607Y-62.9003

G1X70.5972Y-61.0878

G1X70.1169Y-58.3385

G1X70.0649Y-57.6173

G1X70.1170Y-57.3057

G1X70.2874Y-57.0231

G1X70.6375Y-56.8378

G1X71.0485Y-56.7887

G1X71.9659Y-56.8967

G1X73.0614Y-57.2033

G1X74.3279Y-57.7018

G1X75.5318Y-58.2934

G1X76.7089Y-58.9778

G1X77.9650Y-59.8326

G1X80.1034Y-61.6357

G1X81.9154Y-63.6092

G1X83.5200Y-65.8668

G1X84.8624Y-68.3310

G1X86.1466Y-71.3269

G1 Z0F20000

(Start Block)


G1X18.5943Y-73.7416
G1Z6F20000
(Plotting speed under)
G1 F4000


G1X22.5806Y-71.6630

G1X24.0092Y-71.0135

G1X25.5471Y-70.5425

G1X27.0542Y-70.4102

G1X27.8533Y-70.4957

G1X28.6358Y-70.6909

G1X30.1669Y-71.3997

G1X31.5279Y-72.3834

G1X34.0947Y-74.6562

G1X34.6740Y-74.7330

G1X35.4334Y-74.5077

G1X36.4877Y-73.8701

G1X37.5669Y-72.9509

G1X38.6758Y-71.7530

G1X39.7028Y-70.3914

G1X41.1341Y-67.9719

G1X43.1144Y-63.5071

G1X43.9091Y-62.1707

G1X44.3919Y-61.7269

G1X44.8635Y-61.4973

G1X45.5158Y-61.4089

G1X46.1369Y-61.4959

G1X47.3230Y-61.9774

G1X48.6106Y-62.8607

G1X49.8559Y-64.0510

G1X50.9357Y-65.4103

G1X51.9077Y-67.0221

G1X52.6082Y-68.6046

G1X53.0593Y-70.1507

G1X53.3140Y-71.7581

G1X53.3661Y-73.4838

G1X53.2110Y-75.1009

G1X52.8631Y-76.6876

G1X52.2820Y-78.3131

G1X51.5356Y-79.7623

G1X50.6804Y-81.0042

G1X49.5955Y-82.2202

G1X48.2291Y-83.4525

G1X48.1181Y-83.6165

G1X48.1441Y-83.6996

G1X48.9880Y-83.7813

G1X50.8742Y-83.5950

G1X52.7018Y-83.2620

G1X54.6134Y-82.7652

G1X56.4682Y-82.1237

G1X58.2407Y-81.3436

G1X59.8656Y-80.4673

G1X61.4375Y-79.4499

G1X62.9053Y-78.3118

G1X64.2748Y-77.0558

G1X65.5958Y-75.6096

G1X66.7248Y-74.1325

G1X67.7186Y-72.5820

G1X68.5802Y-70.9503

G1X69.2160Y-69.5271

G1X70.0491Y-67.3247

G1X70.5534Y-65.5266

G1X70.8750Y-63.6770

G1X71.0243Y-61.8537

G1X71.0893Y-59.0547

G1X71.1955Y-58.2913

G1X71.3448Y-57.8935

G1X71.6111Y-57.5735

G1X71.9968Y-57.3929

G1X72.3900Y-57.3471

G1X73.2970Y-57.4768

G1X74.2990Y-57.8199

G1X75.5129Y-58.4121

G1X76.7279Y-59.1657

G1X77.8743Y-60.0229

G1X78.9505Y-60.9690

G1X79.9614Y-62.0045

G1X80.9490Y-63.1908

G1X81.7336Y-64.2906

G1X82.4986Y-65.5459

G1X83.6544Y-67.9970

G1X84.4728Y-70.5736

G1X85.1792Y-74.0666

G1 Z0F20000

(Start Block)


G1X17.2928Y-75.3263
G1Z6F20000
(Plotting speed under)
G1 F4000


G1X23.7725Y-72.6857

G1X25.3614Y-72.2643

G1X26.7425Y-72.1415

G1X27.5320Y-72.2054

G1X28.2852Y-72.3740

G1X28.9998Y-72.6428

G1X29.7656Y-73.0616

G1X30.9659Y-74.0210

G1X32.8326Y-76.0216

G1X33.1274Y-76.1004

G1X33.5697Y-76.0874

G1X34.6748Y-75.7169

G1X35.8367Y-75.0591

G1X37.0201Y-74.1929

G1X38.2141Y-73.1329

G1X39.2958Y-71.9996

G1X40.5859Y-70.3947

G1X41.7636Y-68.6317

G1X42.7244Y-66.9326

G1X44.4410Y-63.5186

G1X45.0733Y-62.5144

G1X45.5670Y-61.9776

G1X46.1030Y-61.6291

G1X46.6248Y-61.4783

G1X47.2728Y-61.4856

G1X48.2141Y-61.7783

G1X49.2394Y-62.3907

G1X50.2709Y-63.2850

G1X51.2736Y-64.4518

G1X52.0902Y-65.6935

G1X52.7800Y-67.0841

G1X53.2813Y-68.5514

G1X53.6059Y-70.0776

G1X53.7521Y-71.5286

G1X53.7442Y-72.9881

G1X53.5999Y-74.3478

G1X53.3021Y-75.7730

G1X52.9024Y-77.0282

G1X52.4635Y-78.0764

G1X51.7877Y-79.3536

G1X50.5497Y-81.2661

G1X50.4148Y-81.5828

G1X50.4484Y-81.7964

G1X50.8301Y-81.9496

G1X51.7943Y-81.9191

G1X53.1039Y-81.7009

G1X54.5992Y-81.3268

G1X56.1511Y-80.8190

G1X57.7352Y-80.1710

G1X59.2791Y-79.4013

G1X60.6979Y-78.5612

G1X62.0676Y-77.6120

G1X63.3511Y-76.5720

G1X64.5568Y-75.4413

G1X65.6753Y-74.2222

G1X66.7685Y-72.8331

G1X67.7971Y-71.2935

G1X68.7776Y-69.5386

G1X69.6532Y-67.6891

G1X70.7556Y-64.9019

G1X71.8688Y-60.8162

G1X72.2803Y-59.7352

G1X72.5704Y-59.3021

G1X72.9577Y-58.9777

G1X73.3304Y-58.8311

G1X73.8160Y-58.7866

G1X74.6428Y-58.9395

G1X75.6395Y-59.3629

G1X76.6441Y-59.9794

G1X77.7270Y-60.8321

G1X78.7687Y-61.8450

G1X79.6459Y-62.8710

G1X80.5001Y-64.0651

G1X81.2422Y-65.3211

G1X81.8553Y-66.5963

G1X82.3282Y-67.8214

G1X82.7317Y-69.1773

G1X83.0097Y-70.4932

G1X83.2638Y-72.9616

G1X83.2110Y-76.5160

G1 Z0F20000

(Start Block)


G1X15.7943Y-76.2708
G1Z6F20000
(Plotting speed under)
G1 F4000


G1X17.8965Y-75.6748

G1X23.5690Y-73.6883

G1X25.1093Y-73.3380

G1X26.3874Y-73.2337

G1X27.1700Y-73.2885

G1X27.8991Y-73.4447

G1X28.5718Y-73.6995

G1X29.1848Y-74.0462

G1X30.1688Y-74.9094

G1X30.6760Y-75.5610

G1X31.3255Y-76.6264

G1X31.5899Y-76.7955

G1X32.0305Y-76.8623

G1X32.6257Y-76.7832

G1X34.1997Y-76.2121

G1X35.6889Y-75.4016

G1X37.1837Y-74.3793

G1X38.6553Y-73.1643

G1X39.9714Y-71.8789

G1X41.3731Y-70.2609

G1X42.7390Y-68.3738

G1X43.9123Y-66.4598

G1X45.6490Y-63.2932

G1X46.3552Y-62.2255

G1X46.8356Y-61.7008

G1X47.3259Y-61.3484

G1X47.8437Y-61.1554

G1X48.4444Y-61.1196

G1X49.1269Y-61.2734

G1X49.7914Y-61.5862

G1X50.5022Y-62.0790

G1X51.1475Y-62.6645

G1X51.8333Y-63.4460

G1X52.4355Y-64.3060

G1X52.9616Y-65.2371

G1X53.4314Y-66.2865

G1X53.8963Y-67.6789

G1X54.2187Y-69.1199

G1X54.3969Y-70.5811

G1X54.4301Y-72.1120

G1X54.1558Y-74.6427

G1X53.8637Y-75.9321

G1X53.1808Y-78.2615

G1X53.1077Y-78.9966

G1X53.2987Y-79.3355

G1X53.7432Y-79.4936

G1X54.5511Y-79.4713

G1X55.6201Y-79.2562

G1X57.9872Y-78.4326

G1X60.3759Y-77.2228

G1X62.6292Y-75.7124

G1X64.6790Y-73.9499

G1X66.4419Y-72.0437

G1X68.0999Y-69.7989

G1X69.8835Y-66.8344

G1X71.8870Y-63.0731

G1X72.5375Y-62.0355

G1X72.9864Y-61.5129

G1X73.5365Y-61.1029

G1X74.0527Y-60.9147

G1X74.5690Y-60.8761

G1X75.3695Y-61.0414

G1X76.2355Y-61.4584

G1X77.0975Y-62.0798

G1X77.9812Y-62.9242

G1X78.8195Y-63.9442

G1X79.5537Y-65.0652

G1X80.1726Y-66.2529

G1X80.6729Y-67.4840

G1X81.0386Y-68.6817

G1X81.3005Y-69.9101

G1X81.4561Y-71.1441

G1X81.5070Y-72.4707

G1X81.3222Y-74.7275

G1X80.6064Y-78.1568

G1 Z0F20000

(Start Block)


G1X14.4248Y-76.5488
G1Z6F20000
(Plotting speed under)
G1 F4000


G1X15.6508Y-76.3407

G1X17.1926Y-75.9541

G1X23.5466Y-73.9698

G1X24.8121Y-73.6987

G1X25.9837Y-73.5784

G1X26.7777Y-73.6037

G1X27.5025Y-73.7325

G1X28.2053Y-73.9905

G1X28.7835Y-74.3438

G1X29.2695Y-74.7935

G1X29.6569Y-75.3254

G1X30.2076Y-76.7285

G1X30.6107Y-76.9811

G1X31.2760Y-77.0059

G1X32.0660Y-76.8594

G1X33.1659Y-76.5097

G1X34.3200Y-76.0238

G1X36.1274Y-75.0620

G1X37.8484Y-73.9243

G1X39.4804Y-72.6226

G1X41.0387Y-71.1391

G1X42.5534Y-69.4167

G1X43.9543Y-67.5075

G1X45.1497Y-65.5823

G1X46.9460Y-62.3454

G1X47.6289Y-61.3215

G1X48.0973Y-60.8119

G1X48.5667Y-60.4770

G1X49.0907Y-60.2908

G1X49.5290Y-60.2642

G1X50.0546Y-60.3601

G1X50.6987Y-60.6409

G1X51.2878Y-61.0394

G1X51.9140Y-61.6053

G1X53.0747Y-63.0842

G1X54.0739Y-64.9160

G1X54.8462Y-66.9899

G1X55.3355Y-69.1250

G1X55.5515Y-70.9864

G1X55.6419Y-74.3877

G1X55.7432Y-75.2655

G1X55.8837Y-75.6771

G1X56.1231Y-76.0072

G1X56.4665Y-76.2178

G1X56.8395Y-76.3054

G1X57.4745Y-76.2995

G1X58.2255Y-76.1587

G1X60.0465Y-75.4964

G1X62.0320Y-74.4228

G1X64.0263Y-73.0089

G1X65.4069Y-71.8167

G1X66.7063Y-70.5133

G1X67.9790Y-69.0509

G1X71.1760Y-65.0263

G1X72.0307Y-64.1380

G1X72.7030Y-63.6153

G1X73.4637Y-63.2549

G1X74.2298Y-63.1471

G1X75.0566Y-63.3000

G1X75.8638Y-63.6991

G1X76.5113Y-64.1945

G1X77.0826Y-64.7704

G1X77.6526Y-65.4971

G1X78.1947Y-66.3713

G1X79.0010Y-68.2409

G1X79.4761Y-70.2997

G1X79.5930Y-72.2178

G1X79.3963Y-74.2126

G1X78.9806Y-75.8738

G1X78.0400Y-78.2887

G1X77.9381Y-78.8213

G1 Z0F20000

(Start Block)


G1X13.4436Y-76.2321
G1Z6F20000
(Plotting speed under)
G1 F4000


G1X14.7261Y-76.1113

G1X16.3641Y-75.7769

G1X23.4872Y-73.6366

G1X24.9288Y-73.3103

G1X26.0559Y-73.1807

G1X26.8381Y-73.1968

G1X27.5700Y-73.3321

G1X28.2012Y-73.5926

G1X28.6415Y-73.9045

G1X29.0555Y-74.3860

G1X29.2945Y-74.8671

G1X29.5122Y-76.3003

G1X29.7094Y-76.5414

G1X29.9716Y-76.6528

G1X30.8034Y-76.6822

G1X32.0559Y-76.4413

G1X33.4729Y-75.9877

G1X35.0126Y-75.3413

G1X37.0463Y-74.2608

G1X38.9518Y-72.9959

G1X40.7182Y-71.5678

G1X42.3648Y-69.9605

G1X43.8983Y-68.1525

G1X45.2888Y-66.1654

G1X46.4073Y-64.2525

G1X48.1791Y-60.8102

G1X48.7291Y-59.9348

G1X49.4572Y-59.2085

G1X49.8617Y-59.0162

G1X50.3710Y-58.9515

G1X50.7888Y-59.0185

G1X51.2841Y-59.2154

G1X52.1562Y-59.8285

G1X53.2365Y-60.9270

G1X54.2738Y-62.2955

G1X55.1839Y-63.8080

G1X55.9832Y-65.4705

G1X56.6750Y-67.2614

G1X57.6380Y-70.1687

G1X58.0354Y-71.1031

G1X58.3390Y-71.6047

G1X58.6875Y-71.9949

G1X59.0403Y-72.2468

G1X59.4612Y-72.4198

G1X60.3828Y-72.5024

G1X61.4099Y-72.3169

G1X62.6952Y-71.8401

G1X64.0108Y-71.1522

G1X65.2318Y-70.3653

G1X66.5020Y-69.4120

G1X70.3304Y-66.0888

G1X71.5841Y-65.3204

G1X72.4014Y-65.0697

G1X73.2301Y-65.0520

G1X74.0685Y-65.2954

G1X74.8114Y-65.7499

G1X75.7764Y-66.7452

G1X76.5979Y-68.1447

G1X77.1469Y-69.7579

G1X77.3968Y-71.3961

G1X77.3847Y-72.9654

G1X77.1532Y-74.4476

G1X76.6387Y-76.0783

G1X75.6882Y-78.1051

G1X75.6192Y-78.4345

G1X75.7425Y-78.6506

G1 Z0F20000

(Start Block)


G1X13.0047Y-75.4151
G1Z6F20000
(Plotting speed under)
G1 F4000


G1X14.4634Y-75.3649

G1X16.4198Y-74.9853

G1X18.7741Y-74.3218

G1X24.2234Y-72.5346

G1X25.5880Y-72.2107

G1X26.6116Y-72.0877

G1X27.3723Y-72.1103

G1X27.9711Y-72.2368

G1X28.5607Y-72.5178

G1X28.9602Y-72.8742

G1X29.2472Y-73.3334

G1X29.4054Y-73.8869

G1X29.3408Y-75.5337

G1X29.5316Y-75.8374

G1X29.9181Y-76.0055

G1X30.9520Y-76.0153

G1X32.4745Y-75.7153

G1X34.1789Y-75.1709

G1X36.0493Y-74.3762

G1X38.1820Y-73.2181

G1X40.1052Y-71.9103

G1X42.0024Y-70.3199

G1X43.6737Y-68.5986

G1X45.2024Y-66.6620

G1X46.5738Y-64.5016

G1X47.4809Y-62.7593

G1X48.9759Y-59.3630

G1X49.5288Y-58.3083

G1X49.9028Y-57.8181

G1X50.2223Y-57.5521

G1X50.5196Y-57.4079

G1X50.9139Y-57.3505

G1X51.5972Y-57.5111

G1X52.5034Y-58.0254

G1X53.5072Y-58.7802

G1X54.6088Y-59.7933

G1X56.5552Y-62.0407

G1X59.9120Y-66.7196

G1X60.8918Y-67.6985

G1X61.8124Y-68.2642

G1X62.5309Y-68.4988

G1X63.3034Y-68.5928

G1X64.1476Y-68.5511

G1X65.0058Y-68.3908

G1X66.5907Y-67.8675

G1X69.7306Y-66.3680

G1X70.6771Y-66.0910

G1X71.2767Y-66.0731

G1X71.8315Y-66.1798

G1X72.4589Y-66.4587

G1X72.9729Y-66.8299

G1X73.7046Y-67.6396

G1X74.2857Y-68.6407

G1X74.7137Y-69.8053

G1X74.9569Y-71.0073

G1X75.0253Y-72.5356

G1X74.8476Y-74.0402

G1X74.5114Y-75.2978

G1X73.7790Y-77.1132

G1X73.6932Y-77.4915

G1X73.8484Y-77.7808

G1X74.3825Y-77.9208

G1 Z0F20000

(Start Block)


G1X13.1525Y-74.1602
G1Z6F20000
(Plotting speed under)
G1 F4000


G1X13.8202Y-74.2532

G1X14.6490Y-74.2096

G1X16.9515Y-73.7469

G1X19.6301Y-72.9081

G1X25.2894Y-70.8052

G1X26.5560Y-70.4677

G1X27.6390Y-70.3359

G1X28.3617Y-70.3923

G1X28.9967Y-70.6113

G1X29.4460Y-70.9480

G1X29.7723Y-71.4206

G1X29.9377Y-71.9363

G1X29.9750Y-72.4663

G1X29.6528Y-74.1184

G1X29.6356Y-74.5446

G1X29.8184Y-74.9491

G1X30.1140Y-75.1189

G1X30.5550Y-75.1985

G1X31.2110Y-75.1874

G1X32.9473Y-74.8764

G1X34.9337Y-74.2561

G1X36.9438Y-73.3998

G1X39.1783Y-72.1640

G1X41.2778Y-70.6845

G1X43.1706Y-69.0112

G1X44.8592Y-67.1478

G1X46.3191Y-65.1272

G1X47.5655Y-62.9298

G1X48.4382Y-60.9792

G1X49.6495Y-57.6158

G1X50.1204Y-56.5346

G1X50.6197Y-55.8949

G1X50.9031Y-55.7281

G1X51.3057Y-55.6578

G1X52.3168Y-55.8671

G1X53.6061Y-56.3684

G1X54.9040Y-57.0590

G1X56.2594Y-57.9438

G1X58.7335Y-59.9236

G1X63.1183Y-63.9975

G1X64.1548Y-64.8116

G1X65.0321Y-65.3705

G1X66.1644Y-65.8876

G1X67.2391Y-66.1641

G1X68.1391Y-66.2480

G1X69.4539Y-66.1711

G1X69.9982Y-66.2294

G1X70.6119Y-66.4787

G1X71.1081Y-66.8579

G1X71.7097Y-67.6020

G1X72.1710Y-68.5137

G1X72.5114Y-69.6321

G1X72.6825Y-70.8090

G1X72.7014Y-71.8688

G1X72.5882Y-73.0234

G1X72.3533Y-74.1445

G1X71.8331Y-75.8799

G1X71.8066Y-76.3978

G1X72.0222Y-76.6600

G1X72.4073Y-76.7908

G1X74.0334Y-76.8600

G1 Z0F20000

(Start Block)


G1X13.8299Y-72.4819
G1Z6F20000
(Plotting speed under)
G1 F4000


G1X14.4165Y-72.6647

G1X15.2594Y-72.6620

G1X16.3783Y-72.4817

G1X17.8032Y-72.1066

G1X20.7427Y-71.0320

G1X26.5481Y-68.4633

G1X27.7510Y-68.0882

G1X28.8112Y-67.9527

G1X29.5636Y-68.0575

G1X30.1059Y-68.3228

G1X30.5339Y-68.7602

G1X30.8401Y-69.4406

G1X30.9293Y-70.0848

G1X30.8875Y-70.7625

G1X30.2284Y-73.4666

G1X30.3120Y-73.9236

G1X30.5276Y-74.1326

G1X30.9237Y-74.2579

G1X31.4888Y-74.2845

G1X33.1800Y-74.0405

G1X35.2004Y-73.4614

G1X37.2934Y-72.6146

G1X39.4853Y-71.4501

G1X41.4382Y-70.1336

G1X43.2437Y-68.6214

G1X44.8806Y-66.9245

G1X45.7868Y-65.8060

G1X46.6676Y-64.5509

G1X47.4186Y-63.3064

G1X48.1275Y-61.9292

G1X49.0298Y-59.7227

G1X50.2828Y-55.5135

G1X50.7204Y-54.5357

G1X51.0823Y-54.1646

G1X51.6900Y-53.9632

G1X52.6667Y-53.8155

G1X53.5893Y-53.8070

G1X55.1757Y-54.0565

G1X56.8685Y-54.6357

G1X58.6281Y-55.5391

G1X60.3369Y-56.7013

G1X61.9091Y-58.0323

G1X63.3742Y-59.5207

G1X67.5026Y-64.5737

G1X68.3192Y-65.2613

G1X69.4954Y-65.8667

G1X69.9729Y-66.3339

G1X70.3624Y-66.9742

G1X70.6918Y-67.8718

G1X70.8765Y-68.8179

G1X70.9383Y-69.9417

G1X70.8607Y-71.0312

G1X70.6655Y-72.0921

G1X69.7149Y-74.9941

G1X69.7208Y-75.2517

G1X69.8336Y-75.4415

G1X70.3231Y-75.6442

G1X71.3190Y-75.7253

G1X74.7213Y-75.5363

G1 Z0F20000

(Start Block)


G1X14.8919Y-70.3694
G1Z6F20000
(Plotting speed under)
G1 F4000


G1X15.4056Y-70.6580

G1X16.2254Y-70.7115

G1X17.3578Y-70.5260

G1X18.8398Y-70.0789

G1X20.3567Y-69.4737

G1X21.9494Y-68.7205

G1X27.7710Y-65.5557

G1X29.0119Y-65.1004

G1X30.0207Y-64.9775

G1X30.7654Y-65.1419

G1X31.3872Y-65.5844

G1X31.8320Y-66.2934

G1X32.0508Y-67.1365

G1X32.0704Y-68.0950

G1X31.9018Y-69.0987

G1X30.8760Y-72.4864

G1X30.8569Y-72.8645

G1X31.0162Y-73.1601

G1X31.3205Y-73.3018

G1X31.9611Y-73.3535

G1X33.8471Y-73.0712

G1X36.0148Y-72.4254

G1X38.2792Y-71.4689

G1X40.4416Y-70.2651

G1X42.3885Y-68.8875

G1X44.1782Y-67.3058

G1X45.6880Y-65.6523

G1X46.5576Y-64.5188

G1X47.4184Y-63.2133

G1X48.1173Y-61.9694

G1X48.8070Y-60.5085

G1X49.6216Y-58.2715

G1X50.6413Y-54.1448

G1X51.0748Y-53.0386

G1X52.2798Y-51.8700

G1X53.2846Y-51.1720

G1X54.2382Y-50.8319

G1X55.3533Y-50.7629

G1X56.2122Y-50.8877

G1X57.1330Y-51.1516

G1X59.0428Y-52.0425

G1X60.9265Y-53.3264

G1X62.7669Y-54.9974

G1X64.1582Y-56.6014

G1X65.3879Y-58.3459

G1X66.4452Y-60.1726

G1X68.2121Y-63.7191

G1X69.4235Y-65.4043

G1X69.7165Y-66.1693

G1X69.9020Y-67.1703

G1X69.9374Y-68.2001

G1X69.8257Y-69.3436

G1X69.5820Y-70.4340

G1X69.2123Y-71.5042

G1X67.9189Y-74.0458

G1X67.8896Y-74.2514

G1X67.9849Y-74.4273

G1X68.2929Y-74.5551

G1X68.9180Y-74.6235

G1X71.0279Y-74.5658

G1X73.5744Y-74.3020

G1X76.3403Y-73.8379

G1 Z0F20000

(Start Block)


G1X16.1285Y-67.8372
G1Z6F20000
(Plotting speed under)
G1 F4000


G1X16.3444Y-68.0862

G1X16.6220Y-68.2528

G1X17.3783Y-68.3663

G1X18.5501Y-68.1703

G1X19.9918Y-67.6624

G1X21.5559Y-66.9131

G1X23.1963Y-65.9624

G1X28.7059Y-62.2219

G1X29.9411Y-61.6632

G1X30.9644Y-61.5314

G1X31.4083Y-61.6166

G1X31.7966Y-61.7897

G1X32.2114Y-62.1073

G1X32.5372Y-62.4957

G1X33.0146Y-63.5163

G1X33.2282Y-64.8426

G1X33.1555Y-66.1868

G1X32.9005Y-67.5859

G1X32.3985Y-69.2150

G1X31.3645Y-71.6598

G1X31.3105Y-71.9805

G1X31.4395Y-72.2672

G1X31.8290Y-72.4104

G1X32.5006Y-72.4210

G1X34.7025Y-72.0240

G1X37.1286Y-71.2317

G1X39.3954Y-70.1951

G1X41.6255Y-68.8528

G1X43.7075Y-67.2380

G1X45.5735Y-65.3883

G1X47.2112Y-63.2990

G1X48.4596Y-61.2301

G1X49.4950Y-58.9391

G1X50.2427Y-56.6072

G1X51.1607Y-52.5129

G1X52.6830Y-48.9094

G1X53.1163Y-48.2158

G1X53.6013Y-47.7890

G1X54.2279Y-47.5494

G1X54.9622Y-47.5040

G1X56.4679Y-47.8099

G1X58.1979Y-48.5418

G1X59.9588Y-49.5992

G1X61.7129Y-50.9694

G1X63.2745Y-52.5063

G1X64.6553Y-54.1967

G1X65.9086Y-56.1225

G1X66.9286Y-58.1164

G1X67.5975Y-59.7416

G1X68.6639Y-62.7453

G1X69.2635Y-64.0999

G1X69.4726Y-64.9889

G1X69.5484Y-66.1288

G1X69.3720Y-67.8008

G1X68.8700Y-69.5055

G1X68.0404Y-71.1603

G1X66.7500Y-72.9851

G1X66.6678Y-73.1601

G1X66.6934Y-73.3463

G1X67.2126Y-73.5071

G1X68.3655Y-73.5202

G1X70.2239Y-73.3897

G1X72.0802Y-73.1563

G1X75.3365Y-72.5099

G1X78.6346Y-71.5437

G1 Z0F20000

(Start Block)


G1X17.3085Y-64.9814
G1Z6F20000
(Plotting speed under)
G1 F4000


G1X17.5577Y-65.3295

G1X17.8051Y-65.5218

G1X18.1358Y-65.6515

G1X18.5884Y-65.7024

G1X19.6659Y-65.5182

G1X21.0472Y-64.9614

G1X22.5377Y-64.1162

G1X24.1725Y-62.9677

G1X25.7464Y-61.6804

G1X28.3064Y-59.4052

G1X29.4500Y-58.5203

G1X30.6296Y-57.9340

G1X31.1320Y-57.8409

G1X31.6269Y-57.8665

G1X32.2082Y-58.0679

G1X32.6766Y-58.3910

G1X33.1583Y-58.9170

G1X33.5353Y-59.5321

G1X33.8285Y-60.2241

G1X34.0654Y-61.0853

G1X34.2249Y-62.8491

G1X34.0794Y-64.7466

G1X33.6409Y-66.6385

G1X32.9332Y-68.4350

G1X31.6487Y-70.8024

G1X31.5498Y-71.1795

G1X31.6207Y-71.3570

G1X32.0676Y-71.5115

G1X32.8257Y-71.4947

G1X34.0209Y-71.3117

G1X35.3332Y-70.9989

G1X37.8793Y-70.1320

G1X40.2665Y-68.9903

G1X42.7301Y-67.4125

G1X43.9408Y-66.4545

G1X45.0004Y-65.4867

G1X46.0626Y-64.3750

G1X46.9772Y-63.2680

G1X47.8133Y-62.1045

G1X48.5803Y-60.8585

G1X49.2951Y-59.4900

G1X49.8637Y-58.1703

G1X50.3430Y-56.8355

G1X50.8071Y-55.2012

G1X51.4376Y-52.3177

G1X52.0654Y-49.9335

G1X52.2142Y-48.6762

G1X52.3290Y-46.2992

G1X52.4572Y-45.5616

G1X52.6235Y-45.1934

G1X52.9581Y-44.8738

G1X53.4590Y-44.7095

G1X54.0170Y-44.6919

G1X54.7843Y-44.8009

G1X55.6763Y-45.0405

G1X57.7496Y-45.9015

G1X59.7736Y-47.0824

G1X61.6783Y-48.5262

G1X63.3358Y-50.1080

G1X64.8626Y-51.9337

G1X66.1751Y-53.9278

G1X67.2520Y-56.0480

G1X68.1217Y-58.3173

G1X69.3062Y-62.1393

G1X69.5381Y-63.4393

G1X69.5486Y-64.7681

G1X69.2697Y-66.5394

G1X68.6433Y-68.3425

G1X67.7136Y-70.0055

G1X66.2448Y-71.8712

G1X66.1559Y-72.0625

G1X66.2280Y-72.2295

G1X66.5372Y-72.3195

G1X67.2105Y-72.3491

G1X69.2104Y-72.2186

G1X71.5135Y-71.8872

G1X73.6375Y-71.4289

G1X75.5162Y-70.8929

G1X77.4323Y-70.2126

G1X79.3091Y-69.4097

G1X81.1894Y-68.4700

G1 Z0F20000

(Start Block)


G1X18.2421Y-62.0141
G1Z6F20000
(Plotting speed under)
G1 F4000


G1X18.7597Y-62.6523

G1X19.1311Y-62.8363

G1X19.5587Y-62.9074

G1X20.6014Y-62.7334

G1X21.9496Y-62.1159

G1X23.3866Y-61.1536

G1X24.8997Y-59.8714

G1X26.3170Y-58.4504

G1X28.6577Y-55.8673

G1X29.6058Y-54.9761

G1X30.2256Y-54.5541

G1X30.7212Y-54.3397

G1X31.2914Y-54.2438

G1X31.7933Y-54.3003

G1X32.4492Y-54.5799

G1X33.0857Y-55.0904

G1X33.6761Y-55.8189

G1X34.1569Y-56.6698

G1X34.5697Y-57.7307

G1X34.8129Y-58.7327

G1X34.9816Y-59.9796

G1X35.0226Y-61.2075

G1X34.8040Y-63.4296

G1X34.2247Y-65.5620

G1X33.2750Y-67.6080

G1X31.6420Y-70.0753

G1X31.5642Y-70.3815

G1X31.6294Y-70.4924

G1X32.0984Y-70.6133

G1X33.1088Y-70.5542

G1X34.5166Y-70.3101

G1X35.8457Y-69.9776

G1X38.4668Y-69.0660

G1X40.8670Y-67.8990

G1X42.3422Y-66.9958

G1X43.6821Y-66.0283

G1X44.9549Y-64.9573

G1X46.1208Y-63.8088

G1X47.1928Y-62.5811

G1X48.2164Y-61.1964

G1X49.0701Y-59.8314

G1X49.8517Y-58.3265

G1X50.4706Y-56.8761

G1X51.0514Y-55.1955

G1X52.1604Y-51.1059

G1X52.3817Y-49.9036

G1X52.4694Y-48.6631

G1X52.4307Y-47.3732

G1X52.2430Y-45.8732

G1X51.8230Y-43.6479

G1X51.8321Y-42.9700

G1X51.9694Y-42.6959

G1X52.2033Y-42.5251

G1X52.9921Y-42.4180

G1X53.8420Y-42.5263

G1X54.8766Y-42.7849

G1X57.0890Y-43.6258

G1X59.3486Y-44.8331

G1X61.4376Y-46.2976

G1X63.2592Y-47.9217

G1X64.9177Y-49.7872

G1X66.2916Y-51.7471

G1X67.4564Y-53.8857

G1X68.4123Y-56.2163

G1X69.5831Y-59.9806

G1X69.8260Y-61.3712

G1X69.8529Y-62.8897

G1X69.5970Y-64.7216

G1X69.0157Y-66.5674

G1X68.5705Y-67.5305

G1X67.9986Y-68.5147

G1X66.5099Y-70.5290

G1X66.4283Y-70.7221

G1X66.5114Y-70.9134

G1X66.9458Y-71.0181

G1X67.8561Y-71.0122

G1X70.4492Y-70.6888

G1X72.8924Y-70.1390

G1X75.3265Y-69.3585

G1X77.4696Y-68.4575

G1X79.5559Y-67.3650

G1X81.5416Y-66.1058

G1X83.5008Y-64.6403

G1 Z0F20000

(Start Block)


G1X18.8381Y-59.2591
G1Z6F20000
(Plotting speed under)
G1 F4000


G1X19.4090Y-59.9739

G1X19.7925Y-60.1868

G1X20.2219Y-60.2764

G1X20.6766Y-60.2544

G1X21.2260Y-60.1152

G1X22.4378Y-59.5184

G1X23.8687Y-58.4418

G1X25.2540Y-57.0807

G1X26.5225Y-55.5769

G1X28.7002Y-52.6898

G1X29.4739Y-51.8507

G1X30.0499Y-51.4182

G1X30.5345Y-51.2040

G1X31.0792Y-51.1245

G1X31.6972Y-51.2267

G1X32.4721Y-51.6207

G1X33.2062Y-52.2592

G1X33.9184Y-53.1621

G1X34.5746Y-54.3542

G1X35.0124Y-55.5140

G1X35.3384Y-56.7982

G1X35.5369Y-58.2043

G1X35.5883Y-59.6404

G1X35.5010Y-60.9739

G1X35.3002Y-62.2107

G1X34.9638Y-63.5031

G1X34.5039Y-64.7350

G1X33.4733Y-66.6772

G1X32.6400Y-67.8322

G1X31.4888Y-69.1956

G1X31.3543Y-69.4485

G1X31.3706Y-69.5651

G1X31.8063Y-69.7040

G1X32.8317Y-69.6548

G1X34.3424Y-69.4190

G1X35.9319Y-69.0485

G1X38.7502Y-68.1005

G1X41.2848Y-66.8867

G1X42.8702Y-65.9168

G1X44.2938Y-64.8827

G1X45.6970Y-63.6768

G1X46.9967Y-62.3497

G1X48.1727Y-60.9263

G1X49.2007Y-59.4354

G1X50.0634Y-57.9436

G1X50.8909Y-56.2075

G1X51.5893Y-54.3993

G1X52.5002Y-51.6957

G1X52.7669Y-50.6077

G1X52.9294Y-49.4890

G1X52.9740Y-47.7486

G1X52.7588Y-45.8487

G1X52.3676Y-44.2336

G1X51.3996Y-41.2842

G1X51.4274Y-40.9790

G1X51.5658Y-40.7909

G1X51.8536Y-40.6675

G1X52.3733Y-40.6297

G1X53.2708Y-40.7318

G1X54.3527Y-40.9778

G1X56.6866Y-41.7829

G1X58.9765Y-42.9017

G1X61.2066Y-44.3360

G1X63.1337Y-45.9202

G1X64.8431Y-47.6857

G1X66.3356Y-49.6236

G1X67.6152Y-51.7383

G1X68.6997Y-54.0642

G1X69.8897Y-57.2987

G1X70.2599Y-58.9461

G1X70.3745Y-60.6220

G1X70.2253Y-62.5064

G1X69.8130Y-64.2953

G1X68.9905Y-66.3331

G1X67.5218Y-68.8520

G1X67.4542Y-69.1916

G1X67.6476Y-69.3894

G1X68.2184Y-69.4713

G1X69.2896Y-69.3992

G1X72.0515Y-68.8459

G1X74.5191Y-68.0483

G1X77.0499Y-66.9204

G1X79.3021Y-65.6138

G1X81.3231Y-64.1477

G1X83.2440Y-62.4398

G1X85.1478Y-60.3883

G1 Z0F20000

(Start Block)


G1X19.1120Y-57.1148
G1Z6F20000
(Plotting speed under)
G1 F4000


G1X19.7240Y-57.8647

G1X20.1187Y-58.0908

G1X20.5518Y-58.1887

G1X21.0040Y-58.1701

G1X21.5439Y-58.0300

G1X22.6345Y-57.4739

G1X23.9301Y-56.4549

G1X25.3182Y-54.9936

G1X26.5594Y-53.3696

G1X28.5283Y-50.4408

G1X29.2872Y-49.5411

G1X29.8633Y-49.0987

G1X30.3512Y-48.8985

G1X30.9827Y-48.8521

G1X31.5985Y-49.0051

G1X32.5188Y-49.5429

G1X33.3342Y-50.3166

G1X34.0770Y-51.3021

G1X34.7720Y-52.5726

G1X35.3109Y-54.0187

G1X35.6531Y-55.4266

G1X35.8552Y-56.9643

G1X35.8823Y-58.5351

G1X35.7517Y-59.9759

G1X35.4785Y-61.3659

G1X35.0694Y-62.6898

G1X34.5361Y-63.9480

G1X33.8842Y-65.1212

G1X33.2371Y-66.0520

G1X32.3880Y-67.0584

G1X31.0675Y-68.3617

G1X30.9295Y-68.6614

G1X31.3931Y-68.7844

G1X32.7058Y-68.7088

G1X34.2696Y-68.4776

G1X35.9406Y-68.1145

G1X38.9121Y-67.1603

G1X41.5532Y-65.9377

G1X43.3733Y-64.8438

G1X45.0992Y-63.5761

G1X46.7149Y-62.1309

G1X48.1667Y-60.5547

G1X49.3545Y-59.0074

G1X50.5169Y-57.1802

G1X51.5140Y-55.2806

G1X52.7495Y-52.5634

G1X53.1689Y-51.3151

G1X53.4554Y-50.0211

G1X53.6087Y-48.7066

G1X53.6287Y-47.2844

G1X53.4564Y-45.5488

G1X53.0841Y-43.8818

G1X52.5697Y-42.3744

G1X51.5318Y-39.8952

G1X51.5170Y-39.6172

G1X51.6175Y-39.4194

G1X51.8408Y-39.2968

G1X52.2825Y-39.2397

G1X53.1790Y-39.3142

G1X54.2445Y-39.5293

G1X56.6650Y-40.3023

G1X58.9945Y-41.3658

G1X61.1430Y-42.6552

G1X63.0819Y-44.1272

G1X64.8930Y-45.8441

G1X66.4969Y-47.7413

G1X67.9059Y-49.8268

G1X68.9944Y-51.8125

G1X70.1998Y-54.4053

G1X70.7332Y-56.1418

G1X71.0208Y-58.0240

G1X71.0447Y-59.9220

G1X70.8247Y-61.7516

G1X70.3181Y-63.7165

G1X69.1536Y-66.7299

G1X69.1227Y-67.1373

G1X69.2988Y-67.3931

G1X69.8354Y-67.5240

G1X70.8053Y-67.4537

G1X72.0115Y-67.2025

G1X73.3854Y-66.7921

G1X76.0512Y-65.6838

G1X78.5894Y-64.2211

G1X80.6943Y-62.6434

G1X82.6901Y-60.7471

G1X84.4045Y-58.6925

G1X85.9894Y-56.3136

G1 Z0F20000

(Start Block)


G1X19.2754Y-55.2036
G1Z6F20000
(Plotting speed under)
G1 F4000


G1X19.9063Y-55.9699

G1X20.2479Y-56.1920

G1X20.6434Y-56.3266

G1X21.0989Y-56.3542

G1X21.6197Y-56.2626

G1X22.7099Y-55.7680

G1X23.9220Y-54.8613

G1X25.2477Y-53.5149

G1X26.4926Y-51.9334

G1X28.4401Y-49.1400

G1X29.2464Y-48.2369

G1X29.7989Y-47.8434

G1X30.4299Y-47.6296

G1X31.0618Y-47.6392

G1X31.6445Y-47.8175

G1X32.5830Y-48.3991

G1X33.4517Y-49.2577

G1X34.2745Y-50.4177

G1X34.8887Y-51.6213

G1X35.4068Y-53.0800

G1X35.7560Y-54.6835

G1X35.9071Y-56.2138

G1X35.8822Y-57.8357

G1X35.6933Y-59.2856

G1X35.3552Y-60.6967

G1X34.8275Y-62.1409

G1X34.2159Y-63.3633

G1X33.4978Y-64.4844

G1X32.6093Y-65.5737

G1X31.6572Y-66.4981

G1X30.1861Y-67.7041

G1X30.3049Y-67.8247

G1X30.5626Y-67.8547

G1X32.2035Y-67.7817

G1X34.0869Y-67.5438

G1X35.8270Y-67.2048

G1X38.7422Y-66.3585

G1X40.2733Y-65.7580

G1X41.6769Y-65.0976

G1X43.4624Y-64.0926

G1X45.2103Y-62.8943

G1X46.7656Y-61.6138

G1X48.2239Y-60.1914

G1X49.6453Y-58.5450

G1X51.0462Y-56.6175

G1X52.6324Y-54.1288

G1X53.4021Y-52.5490

G1X53.8985Y-51.1008

G1X54.2369Y-49.6129

G1X54.4201Y-48.0874

G1X54.4412Y-46.5030

G1X54.2482Y-44.6315

G1X53.8473Y-42.8856

G1X53.2610Y-41.2242

G1X52.1777Y-38.7191

G1X52.1676Y-38.4459

G1X52.2761Y-38.2539

G1X52.5099Y-38.1374

G1X52.8763Y-38.0888

G1X53.6749Y-38.1402

G1X54.7634Y-38.3446

G1X57.0784Y-39.0511

G1X59.3584Y-40.0415

G1X61.5025Y-41.2597

G1X63.4941Y-42.6854

G1X65.3512Y-44.3309

G1X67.0098Y-46.1291

G1X68.5552Y-48.1531

G1X69.9388Y-50.2386

G1X70.6857Y-51.6546

G1X71.3331Y-53.3533

G1X71.7885Y-55.2215

G1X72.0133Y-57.1501

G1X72.0016Y-59.1753

G1X71.7790Y-61.0659

G1X71.2213Y-64.1019

G1X71.2923Y-64.6287

G1X71.5835Y-64.9415

G1X72.1238Y-65.0559

G1X72.9236Y-64.9786

G1X73.9751Y-64.7056

G1X75.1473Y-64.2687

G1X76.4268Y-63.6661

G1X77.6661Y-62.9626

G1X79.9147Y-61.3624

G1X81.8538Y-59.5689

G1X83.5422Y-57.5732

G1X84.9876Y-55.3808

G1X86.2421Y-52.9169

G1 Z0F20000

(Start Block)


G1X19.4996Y-52.3671
G1Z6F20000
(Plotting speed under)
G1 F4000


G1X20.2948Y-53.2865

G1X21.0733Y-53.7152

G1X21.5068Y-53.7920

G1X22.0074Y-53.7673

G1X23.0274Y-53.4352

G1X24.0106Y-52.8410

G1X25.1582Y-51.8860

G1X28.7869Y-47.9930

G1X29.4504Y-47.5090

G1X30.1723Y-47.2142

G1X31.0591Y-47.1881

G1X31.9407Y-47.4968

G1X32.8434Y-48.1364

G1X33.6820Y-49.0475

G1X34.2658Y-49.9187

G1X34.7471Y-50.8441

G1X35.1777Y-51.9807

G1X35.4728Y-53.0916

G1X35.6723Y-54.3040

G1X35.7550Y-55.5385

G1X35.7230Y-56.7721

G1X35.5763Y-57.9900

G1X35.2377Y-59.4743

G1X34.7931Y-60.7398

G1X34.1720Y-62.0371

G1X33.4016Y-63.2481

G1X32.5483Y-64.2854

G1X31.6405Y-65.1612

G1X30.8102Y-65.8062

G1X29.2163Y-66.7479

G1X29.1738Y-66.8510

G1X30.6204Y-66.8754

G1X33.8961Y-66.6060

G1X36.8888Y-66.0490

G1X39.8757Y-65.1420

G1X42.6415Y-63.9311

G1X45.2555Y-62.3926

G1X47.6109Y-60.6077

G1X49.8722Y-58.4754

G1X52.2184Y-55.8432

G1X53.4338Y-53.9663

G1X54.3944Y-51.8474

G1X55.0379Y-49.6124

G1X55.3560Y-47.2285

G1X55.3438Y-45.2465

G1X55.0668Y-43.2224

G1X54.3723Y-40.8378

G1X52.9097Y-37.5950

G1X52.8782Y-37.1815

G1X53.0068Y-37.0077

G1X53.2015Y-36.9198

G1X53.8286Y-36.8705

G1X54.6533Y-36.9573

G1X56.9219Y-37.5013

G1X59.3020Y-38.3836

G1X61.6415Y-39.5473

G1X63.6747Y-40.8261

G1X65.5924Y-42.2940

G1X67.4159Y-43.9534

G1X69.3865Y-46.0294

G1X70.4121Y-47.4003

G1X71.2942Y-48.8896

G1X72.0306Y-50.4840

G1X72.6031Y-52.1323

G1X73.0148Y-53.8247

G1X73.2822Y-55.6884

G1X73.3756Y-57.3039

G1X73.4035Y-60.9611

G1X73.6335Y-61.6555

G1X74.0295Y-61.9822

G1X74.5666Y-62.0755

G1X75.3203Y-61.9725

G1X76.1999Y-61.6864

G1X77.1282Y-61.2622

G1X79.1496Y-60.0037

G1X81.0506Y-58.3983

G1X82.6587Y-56.6416

G1X84.0910Y-54.6304

G1X85.2420Y-52.5239

G1X86.2231Y-50.1322

G1 Z0F20000

(Start Block)


G1X19.5124Y-48.9321
G1Z6F20000
(Plotting speed under)
G1 F4000


G1X20.3975Y-49.9212

G1X21.2260Y-50.5385

G1X22.1049Y-50.8548

G1X23.0971Y-50.8617

G1X24.0021Y-50.6173

G1X25.0067Y-50.1400

G1X27.9768Y-48.1432

G1X28.8988Y-47.6184

G1X29.7433Y-47.3148

G1X30.6224Y-47.2323

G1X31.5499Y-47.4313

G1X32.3771Y-47.8726

G1X33.2495Y-48.6398

G1X33.9618Y-49.5606

G1X34.7881Y-51.2025

G1X35.1217Y-52.2610

G1X35.3264Y-53.2845

G1X35.4428Y-54.4304

G1X35.4486Y-55.4756

G1X35.1776Y-57.6363

G1X34.7686Y-59.0897

G1X34.2099Y-60.4175

G1X33.5060Y-61.6510

G1X32.5990Y-62.8513

G1X31.6059Y-63.8497

G1X30.4259Y-64.7380

G1X29.3757Y-65.3140

G1X28.0892Y-65.7926

G1X30.4678Y-65.8004

G1X33.9062Y-65.6056

G1X36.9062Y-65.1433

G1X39.8380Y-64.3757

G1X42.6391Y-63.3053

G1X45.5659Y-61.7873

G1X48.3008Y-59.9644

G1X50.6676Y-58.0929

G1X51.7565Y-57.0089

G1X52.6760Y-55.9084

G1X53.4476Y-54.8256

G1X54.1274Y-53.6919

G1X55.2036Y-51.3486

G1X55.9183Y-48.8758

G1X56.2448Y-46.3690

G1X56.2098Y-44.1582

G1X55.8577Y-41.9393

G1X55.4681Y-40.5592

G1X54.9714Y-39.2692

G1X53.3763Y-36.1162

G1X53.3972Y-35.7118

G1X53.6447Y-35.5575

G1X54.1562Y-35.4981

G1X54.8893Y-35.5447

G1X56.9867Y-35.9512

G1X59.2000Y-36.6323

G1X61.3861Y-37.5292

G1X63.4403Y-38.5810

G1X65.6179Y-39.9248

G1X67.6457Y-41.3792

G1X69.1971Y-42.7846

G1X70.4194Y-44.1622

G1X71.4385Y-45.5533

G1X72.3283Y-47.0193

G1X73.1270Y-48.6395

G1X73.8146Y-50.4271

G1X74.3524Y-52.3147

G1X75.3037Y-57.5384

G1X75.6582Y-58.3250

G1X75.9401Y-58.6091

G1X76.1989Y-58.7453

G1X76.7060Y-58.8273

G1X77.2481Y-58.7594

G1X77.9645Y-58.5243

G1X78.7137Y-58.1565

G1X80.3255Y-57.0463

G1X81.9501Y-55.5046

G1X83.2550Y-53.8941

G1X84.4218Y-52.0421

G1X85.3662Y-50.0717

G1X86.1217Y-47.9390

G1 Z0F20000

(Start Block)


G1X19.1398Y-45.2716
G1Z6F20000
(Plotting speed under)
G1 F4000


G1X20.3446Y-46.4856

G1X21.3237Y-47.2827

G1X22.2958Y-47.8452

G1X23.3060Y-48.1778

G1X24.1703Y-48.2809

G1X25.2108Y-48.2334

G1X28.1884Y-47.6471

G1X29.2208Y-47.5224

G1X30.3167Y-47.5703

G1X31.2276Y-47.8090

G1X32.2208Y-48.3366

G1X33.0958Y-49.1012

G1X33.8396Y-50.0789

G1X34.3976Y-51.1617

G1X34.7245Y-52.1106

G1X34.9416Y-53.1148

G1X35.0395Y-54.2145

G1X35.0128Y-55.3541

G1X34.8654Y-56.5005

G1X34.6080Y-57.5901

G1X34.2467Y-58.6481

G1X33.7591Y-59.7029

G1X33.1687Y-60.6966

G1X32.4784Y-61.6139

G1X31.7709Y-62.3725

G1X30.9271Y-63.1033

G1X30.0052Y-63.7249

G1X29.0544Y-64.2032

G1X28.0756Y-64.5378

G1X27.2868Y-64.6632

G1X32.1934Y-64.6475

G1X35.2784Y-64.4344

G1X38.4162Y-63.9140

G1X41.4301Y-63.0842

G1X43.1510Y-62.4555

G1X44.8512Y-61.7181

G1X48.2675Y-59.9215

G1X50.4624Y-58.3294

G1X51.5927Y-57.2966

G1X52.5842Y-56.2335

G1X53.5458Y-55.0300

G1X54.3459Y-53.8437

G1X55.1003Y-52.5121

G1X55.6974Y-51.2237

G1X56.2224Y-49.7971

G1X56.6008Y-48.4265

G1X56.8777Y-46.9363

G1X57.0171Y-45.4937

G1X57.0305Y-44.0755

G1X56.9482Y-42.9229

G1X56.7339Y-41.5182

G1X56.4277Y-40.2789

G1X56.0018Y-39.0114

G1X55.4284Y-37.7154

G1X53.5584Y-34.5990

G1X53.5067Y-34.3001

G1X53.7043Y-34.0965

G1X54.1439Y-34.0167

G1X54.9040Y-34.0345

G1X57.0177Y-34.3543

G1X59.2958Y-34.9304

G1X61.6287Y-35.7285

G1X63.7147Y-36.6131

G1X65.7143Y-37.6262

G1X67.3203Y-38.6617

G1X68.9820Y-39.9856

G1X70.2989Y-41.2535

G1X71.4519Y-42.5662

G1X72.4906Y-43.9574

G1X73.4556Y-45.4947

G1X74.3622Y-47.2530

G1X75.1008Y-49.0264

G1X76.8343Y-54.4093

G1X77.2931Y-55.1640

G1X77.9097Y-55.5924

G1X78.3369Y-55.6678

G1X78.8775Y-55.6102

G1X80.0045Y-55.1441

G1X81.3089Y-54.2037

G1X82.5627Y-52.9463

G1X83.6898Y-51.4705

G1X84.6258Y-49.8937

G1X85.4219Y-48.1444

G1X86.0476Y-46.2889

G1 Z0F20000

(Start Block)


G1X18.3808Y-41.7311
G1Z6F20000
(Plotting speed under)
G1 F4000


G1X21.5023Y-44.4383

G1X22.5980Y-45.2350

G1X23.7019Y-45.9011

G1X24.6531Y-46.3589

G1X25.7748Y-46.7764

G1X29.8699Y-47.9185

G1X30.7535Y-48.2930

G1X31.5012Y-48.7141

G1X32.3179Y-49.3326

G1X33.0333Y-50.0780

G1X33.5874Y-50.8678

G1X34.0733Y-51.8450

G1X34.3606Y-52.7306

G1X34.5056Y-53.5464

G1X34.5482Y-54.4798

G1X34.4724Y-55.4921

G1X34.2858Y-56.4997

G1X33.9842Y-57.5103

G1X33.5785Y-58.4863

G1X33.0753Y-59.4124

G1X32.4939Y-60.2581

G1X31.8426Y-61.0259

G1X31.0432Y-61.7767

G1X30.2903Y-62.3397

G1X29.4893Y-62.8138

G1X28.5432Y-63.2217

G1X27.7437Y-63.4414

G1X26.9500Y-63.5117

G1X26.8491Y-63.4714

G1X27.7451Y-63.4038

G1X32.9769Y-63.5073

G1X35.8671Y-63.3384

G1X39.2719Y-62.8201

G1X42.5425Y-61.9724

G1X45.8259Y-60.7849

G1X48.3786Y-59.4600

G1X49.7328Y-58.5582

G1X50.9434Y-57.6050

G1X52.1304Y-56.5186

G1X53.1592Y-55.4114

G1X54.1697Y-54.1409

G1X55.0156Y-52.8739

G1X55.8090Y-51.4448

G1X56.4400Y-50.0334

G1X56.9500Y-48.5705

G1X57.3301Y-47.0707

G1X57.5829Y-45.4683

G1X57.6767Y-44.0107

G1X57.6385Y-42.4907

G1X57.4805Y-41.1604

G1X57.1940Y-39.7699

G1X56.7694Y-38.4069

G1X56.2445Y-37.1472

G1X55.5622Y-35.8721

G1X54.8868Y-34.8478

G1X53.5112Y-33.0581

G1X53.4247Y-32.7612

G1X53.6125Y-32.5932

G1X54.0764Y-32.5229

G1X54.9014Y-32.5388

G1X57.2570Y-32.8322

G1X59.6812Y-33.3454

G1X62.2829Y-34.0964

G1X64.1121Y-34.8107

G1X65.7633Y-35.6323

G1X67.4113Y-36.6323

G1X68.8886Y-37.7021

G1X70.3051Y-38.9132

G1X71.5463Y-40.1578

G1X72.6930Y-41.4950

G1X73.7929Y-42.9994

G1X74.8581Y-44.7371

G1X75.6654Y-46.3030

G1X77.9166Y-51.5851

G1X78.4994Y-52.4121

G1X79.1430Y-52.8344

G1X79.9149Y-52.8987

G1X80.8478Y-52.5846

G1X81.9013Y-51.8803

G1X82.9382Y-50.8800

G1X83.8996Y-49.6580

G1X84.7634Y-48.2421

G1X85.4830Y-46.7080

G1X86.0439Y-45.1196

G1 Z0F20000

(Start Block)


G1X17.3892Y-38.5703
G1Z6F20000
(Plotting speed under)
G1 F4000


G1X19.7879Y-40.4964

G1X25.4450Y-45.3203

G1X27.1910Y-46.6315

G1X30.3079Y-48.7867

G1X31.4441Y-49.6823

G1X32.7821Y-51.0802

G1X33.3083Y-51.8600

G1X33.6952Y-52.6322

G1X33.9026Y-53.2176

G1X34.0160Y-53.9330

G1X34.0261Y-54.6823

G1X33.9222Y-55.5894

G1X33.4409Y-57.2554

G1X32.5731Y-58.8995

G1X31.4675Y-60.2494

G1X30.7816Y-60.8672

G1X30.0476Y-61.3924

G1X28.5830Y-62.1048

G1X27.8380Y-62.3063

G1X27.2101Y-62.3696

G1X27.0198Y-62.3370

G1X27.2837Y-62.2533

G1X28.0274Y-62.2298

G1X33.5986Y-62.3648

G1X36.6016Y-62.2071

G1X40.1005Y-61.7105

G1X43.6877Y-60.8424

G1X46.3870Y-59.8205

G1X47.8831Y-59.0712

G1X49.1971Y-58.2838

G1X50.4567Y-57.4072

G1X51.6453Y-56.4386

G1X52.7485Y-55.4006

G1X53.7769Y-54.2733

G1X54.7886Y-52.9712

G1X55.6296Y-51.6848

G1X56.4079Y-50.2431

G1X57.0550Y-48.7491

G1X57.5658Y-47.1925

G1X57.9158Y-45.6955

G1X58.1376Y-44.0570

G1X58.2013Y-42.5032

G1X58.1072Y-40.8858

G1X57.9021Y-39.5574

G1X57.5382Y-38.0979

G1X57.0532Y-36.7608

G1X56.4789Y-35.5466

G1X55.6870Y-34.2421

G1X54.8937Y-33.1971

G1X53.3849Y-31.5214

G1X53.3552Y-31.2704

G1X53.5291Y-31.1809

G1X54.9237Y-31.1408

G1X57.4226Y-31.3897

G1X60.0030Y-31.8374

G1X61.9089Y-32.3356

G1X63.8201Y-33.0163

G1X65.6543Y-33.8494

G1X67.4267Y-34.8407

G1X69.0387Y-35.9254

G1X70.4930Y-37.0836

G1X71.7668Y-38.2662

G1X73.0104Y-39.6040

G1X74.2034Y-41.1059

G1X75.2482Y-42.6487

G1X76.1375Y-44.1706

G1X78.7038Y-49.3787

G1X79.3146Y-50.1947

G1X79.9293Y-50.6282

G1X80.5897Y-50.7558

G1X81.3618Y-50.5932

G1X82.2163Y-50.1286

G1X83.1677Y-49.3215

G1X84.0767Y-48.2661

G1X84.8557Y-47.0947

G1X85.5411Y-45.7747

G1X86.1033Y-44.3633

G1 Z0F20000

(Start Block)


G1X16.4009Y-35.9320
G1Z6F20000
(Plotting speed under)
G1 F4000


G1X17.9903Y-37.0380

G1X19.5615Y-38.2666

G1X21.0689Y-39.5818

G1X22.5655Y-41.0263

G1X24.6079Y-43.2185

G1X28.9340Y-48.2303

G1X32.4987Y-51.9300

G1X33.4092Y-53.1413

G1X33.6295Y-54.1876

G1X33.5101Y-55.5230

G1X33.0748Y-56.8913

G1X32.3506Y-58.2131

G1X31.4209Y-59.3469

G1X30.3469Y-60.2492

G1X29.0807Y-60.9366

G1X28.4621Y-61.1399

G1X27.9050Y-61.2231

G1X28.9253Y-61.1357

G1X34.1585Y-61.2165

G1X37.2419Y-61.0575

G1X40.8931Y-60.5563

G1X42.4425Y-60.2365

G1X44.0658Y-59.7856

G1X45.5138Y-59.2728

G1X47.0332Y-58.6208

G1X48.4749Y-57.8660

G1X49.7921Y-57.0586

G1X51.0936Y-56.1174

G1X52.2633Y-55.1391

G1X53.3391Y-54.0914

G1X54.3437Y-52.9633

G1X55.3696Y-51.6003

G1X56.2746Y-50.1550

G1X57.0108Y-48.7096

G1X57.6158Y-47.2175

G1X58.0980Y-45.6263

G1X58.4255Y-44.0280

G1X58.5898Y-42.5120

G1X58.6165Y-40.9115

G1X58.4978Y-39.4655

G1X58.2573Y-38.0631

G1X57.8328Y-36.5436

G1X57.3407Y-35.2886

G1X56.8006Y-34.2028

G1X56.0513Y-33.0096

G1X55.0971Y-31.8087

G1X53.6145Y-30.3008

G1X53.4955Y-30.0699

G1X53.6313Y-29.9382

G1X55.1545Y-29.8758

G1X58.0299Y-30.1234

G1X60.0657Y-30.4595

G1X61.9519Y-30.9355

G1X63.9953Y-31.6320

G1X65.7932Y-32.4150

G1X67.5080Y-33.3274

G1X69.2890Y-34.4756

G1X70.6538Y-35.5184

G1X72.0184Y-36.7267

G1X73.3587Y-38.1139

G1X74.4633Y-39.4432

G1X75.4760Y-40.8416

G1X76.4969Y-42.4723

G1X79.3391Y-47.9065

G1X79.9560Y-48.6799

G1X80.6035Y-49.1080

G1X81.2217Y-49.2185

G1X81.9111Y-49.0873

G1X82.6620Y-48.7114

G1X83.5051Y-48.0470

G1X84.2996Y-47.1933

G1X84.9907Y-46.2471

G1X85.6079Y-45.1950

G1X86.1876Y-43.9445

G1 Z0F20000

(Start Block)


G1X15.6525Y-33.8586
G1Z6F20000
(Plotting speed under)
G1 F4000


G1X17.4967Y-35.0369

G1X19.1874Y-36.3077

G1X20.7706Y-37.6902

G1X22.2954Y-39.2296

G1X23.7906Y-40.9782

G1X25.2084Y-42.8932

G1X26.4851Y-44.8522

G1X28.6410Y-48.4182

G1X29.7075Y-49.9423

G1X30.9879Y-51.2827

G1X31.8204Y-51.9047

G1X33.0036Y-52.6134

G1X33.2747Y-52.9491

G1X33.5118Y-53.6753

G1X33.5246Y-54.6760

G1X33.3054Y-55.7283

G1X32.8522Y-56.8370

G1X32.2308Y-57.8329

G1X31.4788Y-58.6921

G1X30.5812Y-59.4298

G1X29.4500Y-60.0613

G1X29.5470Y-60.0768

G1X34.7439Y-60.0519

G1X38.1446Y-59.8347

G1X41.7809Y-59.2914

G1X44.5571Y-58.5495

G1X46.1756Y-57.9485

G1X47.5834Y-57.3061

G1X49.0260Y-56.5293

G1X50.3023Y-55.7143

G1X51.5302Y-54.8111

G1X52.7511Y-53.7611

G1X53.8963Y-52.6173

G1X54.8823Y-51.4649

G1X55.8398Y-50.1551

G1X56.6444Y-48.8425

G1X57.3847Y-47.3768

G1X57.9616Y-45.9423

G1X58.4355Y-44.3882

G1X58.7483Y-42.8979

G1X58.9359Y-41.3168

G1X58.9714Y-39.8452

G1X58.8822Y-38.4090

G1X58.6576Y-36.9935

G1X58.3251Y-35.6692

G1X57.8418Y-34.3113

G1X57.1409Y-32.8641

G1X56.3820Y-31.6589

G1X55.5391Y-30.5798

G1X54.2387Y-29.1323

G1X54.2041Y-28.9269

G1X54.4031Y-28.8085

G1X55.7693Y-28.7481

G1X58.2751Y-28.9329

G1X60.2941Y-29.2715

G1X62.4423Y-29.8204

G1X64.3307Y-30.4708

G1X66.3263Y-31.3493

G1X68.1762Y-32.3645

G1X69.8620Y-33.4850

G1X71.2297Y-34.5537

G1X72.6132Y-35.8136

G1X73.7646Y-37.0262

G1X74.9430Y-38.4573

G1X76.0519Y-40.0291

G1X77.0467Y-41.6744

G1X79.6671Y-46.8061

G1X80.2527Y-47.5925

G1X80.9200Y-48.0862

G1X81.5784Y-48.2295

G1X82.1986Y-48.1345

G1X82.8938Y-47.8269

G1X83.5886Y-47.3426

G1X84.3376Y-46.6360

G1X85.0601Y-45.7616

G1X85.6989Y-44.7974

G1X86.2476Y-43.7748

G1 Z0F20000

(Start Block)


G1X15.3197Y-32.3422
G1Z6F20000
(Plotting speed under)
G1 F4000


G1X17.5087Y-33.6997

G1X19.4861Y-35.2224

G1X21.3970Y-37.0256

G1X23.0849Y-38.9725

G1X24.3081Y-40.6603

G1X25.4672Y-42.5493

G1X26.5775Y-44.6925

G1X28.4707Y-48.8176

G1X29.0070Y-49.7467

G1X29.5528Y-50.4526

G1X30.0951Y-50.9437

G1X30.7312Y-51.3190

G1X31.6635Y-51.6075

G1X32.9605Y-51.7514

G1X33.3728Y-51.9684

G1X33.6480Y-52.2726

G1X33.8743Y-52.7490

G1X34.0047Y-53.4035

G1X34.0033Y-54.1644

G1X33.8579Y-55.0185

G1X33.5582Y-55.9200

G1X33.1293Y-56.7811

G1X31.8034Y-58.5588

G1X31.8118Y-58.7512

G1X32.0044Y-58.8193

G1X33.1713Y-58.8728

G1X35.4146Y-58.8189

G1X39.3961Y-58.4681

G1X42.7176Y-57.8620

G1X44.2620Y-57.4345

G1X45.7006Y-56.9316

G1X47.1318Y-56.3301

G1X48.5858Y-55.5961

G1X51.0887Y-53.9987

G1X52.2848Y-53.0509

G1X53.4066Y-52.0277

G1X55.2988Y-49.8999

G1X56.1819Y-48.6647

G1X56.9640Y-47.3716

G1X57.6419Y-46.0294

G1X58.2125Y-44.6295

G1X58.6462Y-43.2749

G1X58.9913Y-41.7764

G1X59.1884Y-40.4379

G1X59.2797Y-39.0069

G1X59.2589Y-37.7421

G1X59.1329Y-36.4225

G1X58.5946Y-33.9913

G1X58.0954Y-32.6161

G1X57.4715Y-31.3144

G1X55.5895Y-28.3758

G1X55.5734Y-28.0786

G1X55.8309Y-27.9081

G1X57.1329Y-27.8194

G1X59.2685Y-27.9916

G1X61.4000Y-28.4146

G1X63.3974Y-28.9990

G1X65.3433Y-29.7489

G1X67.2048Y-30.6510

G1X68.9603Y-31.6903

G1X70.6478Y-32.8941

G1X71.9908Y-34.0249

G1X73.2503Y-35.2510

G1X74.4819Y-36.6453

G1X75.4834Y-37.9601

G1X76.4021Y-39.3407

G1X77.3308Y-40.9555

G1X79.8491Y-46.2116

G1X80.4086Y-47.0023

G1X81.0079Y-47.4773

G1X81.5229Y-47.6382

G1X82.1253Y-47.6148

G1X82.7991Y-47.3880

G1X83.5447Y-46.9434

G1X84.2820Y-46.3278

G1X84.9936Y-45.5672

G1X85.6239Y-44.7389

G1X86.2419Y-43.7498

G1 Z0F20000

(Start Block)


G1X15.4845Y-31.3758
G1Z6F20000
(Plotting speed under)
G1 F4000


G1X17.6232Y-32.7100

G1X19.6746Y-34.3386

G1X21.5507Y-36.2040

G1X23.1965Y-38.2434

G1X24.3822Y-40.0456

G1X25.3844Y-41.8863

G1X26.3959Y-44.1653

G1X27.9905Y-48.4079

G1X28.4588Y-49.3104

G1X28.9617Y-49.9545

G1X29.7082Y-50.4764

G1X30.5784Y-50.7051

G1X31.6176Y-50.6847

G1X33.1037Y-50.3811

G1X33.7793Y-50.4118

G1X34.3163Y-50.6567

G1X34.7273Y-51.0736

G1X35.1537Y-52.0327

G1X35.2924Y-53.2681

G1X35.1904Y-54.3773

G1X34.7155Y-56.3097

G1X34.6857Y-56.7609

G1X34.8682Y-57.0582

G1X35.3261Y-57.2294

G1X36.2924Y-57.3015

G1X37.6896Y-57.2478

G1X41.1461Y-56.7940

G1X44.1404Y-56.0787

G1X46.8558Y-55.0688

G1X49.3956Y-53.7528

G1X51.6855Y-52.1840

G1X53.7546Y-50.3515

G1X55.5706Y-48.2722

G1X57.0322Y-46.0815

G1X58.1953Y-43.7175

G1X58.9970Y-41.3289

G1X59.4721Y-38.8247

G1X59.5885Y-36.3360

G1X59.3384Y-33.8321

G1X58.7741Y-31.5440

G1X57.7032Y-28.7275

G1X57.5318Y-28.0832

G1X57.6400Y-27.6116

G1X58.1003Y-27.3553

G1X59.2837Y-27.2513

G1X60.8380Y-27.3864

G1X62.7105Y-27.8369

G1X64.6600Y-28.5111

G1X66.5252Y-29.3450

G1X68.2967Y-30.3250

G1X69.9852Y-31.4553

G1X71.5196Y-32.6798

G1X72.8013Y-33.8805

G1X73.9054Y-35.0735

G1X74.9875Y-36.4199

G1X75.9886Y-37.8708

G1X77.5757Y-40.7359

G1X79.7599Y-45.8041

G1X80.2896Y-46.6313

G1X80.8703Y-47.1313

G1X81.3868Y-47.3091

G1X81.9500Y-47.3059

G1X82.6129Y-47.1146

G1X83.3632Y-46.7135

G1X84.1125Y-46.1483

G1X84.8542Y-45.4328

G1X86.1536Y-43.7491

G1 Z0F20000

(Start Block)


G1X16.1213Y-30.9826
G1Z6F20000
(Plotting speed under)
G1 F4000


G1X18.0802Y-32.2647

G1X19.9822Y-33.8628

G1X21.7007Y-35.6770

G1X23.1903Y-37.6396

G1X24.2647Y-39.3804

G1X25.1945Y-41.2137

G1X26.0509Y-43.3044

G1X27.4718Y-47.4468

G1X27.8864Y-48.3062

G1X28.3272Y-48.9016

G1X28.6768Y-49.2024

G1X29.0909Y-49.4254

G1X29.6442Y-49.5704

G1X30.1885Y-49.5975

G1X30.9293Y-49.5093

G1X31.6602Y-49.3196

G1X33.5086Y-48.5531

G1X34.2319Y-48.3435

G1X35.0304Y-48.3127

G1X35.8127Y-48.5745

G1X36.5684Y-49.2499

G1X37.1792Y-50.3752

G1X37.4775Y-51.4140

G1X37.8100Y-53.6569

G1X37.9986Y-54.2666

G1X38.3722Y-54.7218

G1X39.0555Y-54.9979

G1X39.7739Y-55.0712

G1X40.7117Y-55.0377

G1X43.0976Y-54.6392

G1X45.6283Y-53.8842

G1X47.9054Y-52.9046

G1X50.0107Y-51.7072

G1X52.0819Y-50.2120

G1X53.9077Y-48.5599

G1X55.4941Y-46.7748

G1X56.6992Y-45.1029

G1X57.7278Y-43.3405

G1X58.5857Y-41.4704

G1X59.2493Y-39.5307

G1X59.7474Y-37.3302

G1X60.0055Y-34.9017

G1X60.0152Y-33.0518

G1X59.7560Y-29.6018

G1X59.7773Y-28.7121

G1X59.8949Y-28.2488

G1X60.1813Y-27.8238

G1X60.5270Y-27.5879

G1X61.0500Y-27.4109

G1X62.3575Y-27.2862

G1X63.1477Y-27.3948

G1X64.7057Y-27.8688

G1X66.3932Y-28.5946

G1X68.1125Y-29.5304

G1X69.6398Y-30.5397

G1X71.0946Y-31.6796

G1X72.4665Y-32.9460

G1X73.4955Y-34.0475

G1X74.4674Y-35.2361

G1X75.3607Y-36.4869

G1X76.2187Y-37.8795

G1X77.6067Y-40.6958

G1X79.4432Y-45.5119

G1X79.9058Y-46.3227

G1X80.4303Y-46.8421

G1X80.9188Y-47.0568

G1X81.4807Y-47.0959

G1X82.1376Y-46.9529

G1X82.9245Y-46.5915

G1X83.7187Y-46.0599

G1X84.5154Y-45.3725

G1X85.3004Y-44.5380

G1X86.0004Y-43.6416

G1 Z0F20000

(Start Block)


G1X17.0948Y-31.2071
G1Z6F20000
(Plotting speed under)
G1 F4000


G1X18.7250Y-32.3491

G1X20.2509Y-33.7115

G1X21.6566Y-35.2579

G1X22.9758Y-37.0413

G1X24.0408Y-38.8119

G1X24.9782Y-40.7299

G1X27.0877Y-46.3789

G1X27.5131Y-47.1475

G1X28.0101Y-47.7047

G1X28.5172Y-48.0151

G1X29.0070Y-48.1569

G1X29.6648Y-48.1889

G1X30.4190Y-48.0755

G1X31.2547Y-47.8175

G1X32.0945Y-47.4498

G1X34.3826Y-46.0774

G1X35.3156Y-45.6398

G1X36.3342Y-45.4186

G1X37.3003Y-45.5273

G1X38.1665Y-45.9517

G1X38.9798Y-46.6946

G1X39.8140Y-47.9118

G1X40.9721Y-50.3470

G1X41.3586Y-50.9890

G1X41.9476Y-51.5689

G1X42.7986Y-51.9077

G1X43.9791Y-51.9490

G1X45.3298Y-51.7085

G1X46.9600Y-51.1712

G1X48.5046Y-50.4576

G1X50.1082Y-49.5251

G1X51.7006Y-48.4025

G1X53.2500Y-47.0956

G1X54.6381Y-45.7053

G1X55.8412Y-44.2858

G1X56.9247Y-42.7813

G1X57.8976Y-41.1774

G1X58.7203Y-39.5499

G1X59.8336Y-36.6863

G1X61.2236Y-31.4545

G1X61.8327Y-29.9404

G1X62.2714Y-29.3451

G1X62.8286Y-28.8810

G1X63.5860Y-28.5130

G1X64.5633Y-28.2447

G1X65.3037Y-28.1558

G1X66.1107Y-28.3364

G1X67.3317Y-28.8487

G1X68.6451Y-29.5888

G1X69.9806Y-30.5131

G1X71.1818Y-31.4988

G1X72.3105Y-32.5759

G1X73.4188Y-33.8042

G1X74.9537Y-35.8788

G1X76.2727Y-38.1765

G1X77.3638Y-40.6738

G1X78.9214Y-45.2307

G1X79.3554Y-46.0427

G1X79.8231Y-46.5357

G1X80.3907Y-46.7938

G1X80.9522Y-46.8288

G1X81.6655Y-46.6769

G1X82.5032Y-46.3058

G1X83.3556Y-45.7626

G1X84.2154Y-45.0617

G1X85.0842Y-44.1921

G1X85.8347Y-43.2910

G1 Z0F20000

(Start Block)


G1X18.1732Y-32.0721
G1Z6F20000
(Plotting speed under)
G1 F4000


G1X19.1669Y-32.7882

G1X20.2530Y-33.7598

G1X21.3114Y-34.9019

G1X22.2871Y-36.1510

G1X23.2978Y-37.6930

G1X24.1922Y-39.3322

G1X24.9672Y-41.0145

G1X26.1998Y-44.0352

G1X26.7448Y-45.1158

G1X27.1190Y-45.6453

G1X27.5009Y-46.0234

G1X28.0223Y-46.3369

G1X28.5183Y-46.4809

G1X29.0759Y-46.5178

G1X29.7337Y-46.4396

G1X31.2691Y-45.9063

G1X32.9767Y-44.8866

G1X35.2536Y-43.0279

G1X36.2114Y-42.3756

G1X37.3526Y-41.8831

G1X38.4363Y-41.7667

G1X38.9976Y-41.8501

G1X39.6435Y-42.0696

G1X40.3010Y-42.4289

G1X40.9596Y-42.9268

G1X42.1362Y-44.1560

G1X44.1097Y-46.7477

G1X44.5915Y-47.2302

G1X45.1550Y-47.6273

G1X45.8831Y-47.9031

G1X46.6903Y-47.9749

G1X47.6029Y-47.8480

G1X48.6334Y-47.5113

G1X50.0351Y-46.7884

G1X51.7263Y-45.6005

G1X53.3928Y-44.1822

G1X55.0132Y-42.5403

G1X57.1735Y-39.8683

G1X60.9469Y-34.0673

G1X61.6744Y-33.1087

G1X62.4086Y-32.3277

G1X63.3464Y-31.5907

G1X64.3442Y-31.0506

G1X67.7324Y-29.9237

G1X68.3100Y-30.0101

G1X69.0500Y-30.3115

G1X69.8563Y-30.7877

G1X70.7221Y-31.4248

G1X72.4413Y-33.0441

G1X73.9995Y-34.9788

G1X75.0683Y-36.6644

G1X75.9618Y-38.4116

G1X76.8487Y-40.6276

G1X78.1911Y-44.7787

G1X78.6214Y-45.6133

G1X79.1007Y-46.1190

G1X79.6549Y-46.3706

G1X80.3816Y-46.4018

G1X81.1743Y-46.2092

G1X82.0396Y-45.8202

G1X83.0472Y-45.1840

G1X83.9604Y-44.4506

G1X84.8617Y-43.5732

G1X85.7318Y-42.5571

G1 Z0F20000

(Start Block)


G1X19.0698Y-33.5166
G1Z6F20000
(Plotting speed under)
G1 F4000


G1X19.9064Y-34.1316

G1X20.6696Y-34.8376

G1X21.4903Y-35.7455

G1X22.3175Y-36.8239

G1X23.3879Y-38.4905

G1X25.4523Y-42.3802

G1X26.2324Y-43.5559

G1X26.6638Y-44.0017

G1X27.0959Y-44.3115

G1X27.5702Y-44.5220

G1X28.0934Y-44.6311

G1X28.8086Y-44.6240

G1X29.7013Y-44.4292

G1X30.6472Y-44.0521

G1X31.6440Y-43.4975

G1X32.5893Y-42.8339

G1X33.5497Y-42.0191

G1X35.9075Y-39.4967

G1X36.8709Y-38.6138

G1X38.0022Y-37.9142

G1X39.1178Y-37.6274

G1X39.7959Y-37.6396

G1X40.5862Y-37.8126

G1X41.3681Y-38.1347

G1X42.1346Y-38.5808

G1X43.6029Y-39.7449

G1X46.1760Y-42.2495

G1X47.2350Y-43.0018

G1X47.8321Y-43.2523

G1X48.4769Y-43.3759

G1X49.0427Y-43.3675

G1X49.6908Y-43.2378

G1X50.7748Y-42.7621

G1X51.7917Y-42.0409

G1X53.7065Y-40.2788

G1X57.9640Y-35.9764

G1X59.1708Y-34.9771

G1X60.2413Y-34.2916

G1X61.2958Y-33.8097

G1X62.4862Y-33.4662

G1X63.8237Y-33.2670

G1X67.4545Y-32.9968

G1X68.3233Y-32.8018

G1X69.5535Y-32.3519

G1X69.9604Y-32.3802

G1X70.4423Y-32.5404

G1X71.5655Y-33.2787

G1X72.7223Y-34.4283

G1X73.8252Y-35.8843

G1X74.6898Y-37.3308

G1X75.4974Y-39.0233

G1X77.4075Y-44.3864

G1X77.8599Y-45.1206

G1X78.4065Y-45.5739

G1X79.0812Y-45.7680

G1X79.8836Y-45.7147

G1X80.7810Y-45.4376

G1X81.7809Y-44.9413

G1X82.8064Y-44.2624

G1X83.8629Y-43.3884

G1X84.8166Y-42.4319

G1X85.7630Y-41.2903

G1 Z0F20000


G00 X0.0000 Y0.0000


