$H
G21
G17
G90
G1 Z0F20000
G1 F15000

(Start Layer)

(Start Block)


G1X32.0477Y-18.4877
G1Z5F20000
(Plotting speed under)
G1 F4000


G1X31.3209Y-19.7128

G1X30.3181Y-20.9041

G1X29.2531Y-21.8208

G1X28.0116Y-22.5572

G1X26.6601Y-23.0925

G1X25.3003Y-23.3909

G1X23.8732Y-23.4401

G1X22.3809Y-23.2341

G1X21.1649Y-22.8270

G1X19.9078Y-22.1065

G1X18.8645Y-21.1933

G1X18.1524Y-20.2176

G1X17.6034Y-18.9984

G1X17.3582Y-17.8449

G1X17.3899Y-16.5388

G1X17.7069Y-15.2372

G1X18.2278Y-14.1765

G1X18.9669Y-13.2013

G1X19.8832Y-12.3413

G1X20.8762Y-11.6944

G1X22.1571Y-11.1371

G1X23.4441Y-10.7968

G1X24.7224Y-10.6665

G1X26.1381Y-10.7358

G1X27.4547Y-10.9811

G1X28.6823Y-11.3959

G1X29.9417Y-12.0404

G1X31.1175Y-12.8625

G1X32.0585Y-13.7434

G1X32.8676Y-14.7636

G1X33.5896Y-15.9917

G1X34.0769Y-17.1816

G1X34.3030Y-18.0454

G1X34.4516Y-19.0553

G1X34.4902Y-20.0798

G1X34.4177Y-21.0812

G1X34.2506Y-21.9558

G1X33.9397Y-22.9345

G1X33.5618Y-23.7916

G1X33.0507Y-24.6843

G1X32.5227Y-25.4068

G1X31.8335Y-26.1433

G1X31.0483Y-26.8100

G1X30.2025Y-27.3839

G1X29.4191Y-27.8021

G1X28.5776Y-28.1342

G1X27.6845Y-28.3785

G1X26.6727Y-28.5430

G1X25.6853Y-28.5906

G1X24.6897Y-28.5071

G1X23.6833Y-28.2858

G1X22.6324Y-27.9063

G1X21.8613Y-27.5074

G1X21.1069Y-26.9694

G1X20.4230Y-26.3210

G1X19.7842Y-25.5161

G1X19.3493Y-24.7485

G1X19.0358Y-23.8920

G1X18.8500Y-22.9792

G1X18.8016Y-22.0609

G1X18.8986Y-21.1871

G1X19.1390Y-20.3167

G1X19.5094Y-19.4620

G1X19.9935Y-18.6681

G1X20.6932Y-17.8556

G1X21.6196Y-17.0788

G1X22.6775Y-16.4351

G1X23.7759Y-15.9875

G1X25.0365Y-15.6868

G1X26.3622Y-15.5591

G1X27.5616Y-15.6130

G1X28.8484Y-15.8591

G1X30.1276Y-16.2833

G1X31.2278Y-16.8149

G1X32.2306Y-17.4861

G1X33.2430Y-18.3788

G1X34.0567Y-19.3088

G1X34.7100Y-20.3055

G1X35.2278Y-21.4088

G1X35.6257Y-22.6773

G1X35.8193Y-23.8497

G1X35.8332Y-25.0622

G1X35.6528Y-26.3962

G1X35.3203Y-27.5727

G1X34.8289Y-28.6578

G1X34.1630Y-29.6929

G1X33.3658Y-30.6316

G1X32.4804Y-31.4225

G1X31.4699Y-32.0834

G1X30.2704Y-32.6490

G1X29.1405Y-33.0040

G1X27.9365Y-33.1891

G1X26.6879Y-33.1974

G1X25.3896Y-33.0160

G1X24.3363Y-32.6893

G1X23.2220Y-32.1367

G1X22.3876Y-31.5591

G1X21.7432Y-30.9666

G1X21.1679Y-30.2512

G1X20.6918Y-29.4517

G1X20.3372Y-28.6106

G1X20.1415Y-27.8596

G1X20.0512Y-26.9733

G1X20.0910Y-26.0576

G1X20.2585Y-25.1600

G1X20.5119Y-24.4177

G1X20.9199Y-23.6214

G1X21.5162Y-22.7727

G1X22.1553Y-22.0823

G1X22.8515Y-21.5097

G1X23.6954Y-20.9874

G1X24.5353Y-20.5917

G1X25.4187Y-20.2843

G1X26.3095Y-20.0832

G1X28.2275Y-19.9808

G1X29.2635Y-20.0831

G1X30.1649Y-20.2684

G1X31.9524Y-20.9525

G1X33.6038Y-21.9909

G1X34.8891Y-23.2414

G1X35.9795Y-24.8467

G1X36.3981Y-25.7443

G1X36.6775Y-26.5983

G1X36.8684Y-27.5035

G1X36.9724Y-28.5313

G1X36.9584Y-29.5436

G1X36.8395Y-30.4213

G1X36.5837Y-31.4007

G1X36.2118Y-32.3581

G1X35.7409Y-33.2564

G1X35.1825Y-34.0652

G1X34.5813Y-34.7433

G1X33.8218Y-35.4330

G1X32.9989Y-36.0313

G1X32.1399Y-36.5164

G1X31.1966Y-36.9002

G1X30.1959Y-37.1777

G1X29.1837Y-37.3414

G1X28.1986Y-37.3837

G1X27.1912Y-37.2932

G1X26.1894Y-37.0778

G1X25.2409Y-36.7528

G1X24.3680Y-36.3185

G1X23.5174Y-35.7214

G1X22.7560Y-35.0073

G1X22.1268Y-34.2201

G1X21.6884Y-33.4489

G1X21.3578Y-32.5889

G1X21.1336Y-31.5864

G1X21.0760Y-30.5956

G1X21.1766Y-29.7065

G1X21.4481Y-28.7057

G1X21.8218Y-27.8435

G1X22.3530Y-26.9999

G1X22.9978Y-26.2605

G1X23.9269Y-25.4615

G1X24.8753Y-24.8649

G1X25.9591Y-24.4021

G1X27.2515Y-24.0617

G1X28.4826Y-23.9150

G1X29.6665Y-23.9465

G1X30.9621Y-24.1623

G1X32.2294Y-24.5505

G1X33.3035Y-25.0501

G1X34.3182Y-25.7067

G1X35.3322Y-26.5692

G1X36.1319Y-27.4609

G1X36.7925Y-28.4622

G1X37.3244Y-29.5804

G1X37.6981Y-30.7484

G1X37.8881Y-31.9147

G1X37.8985Y-33.1260

G1X37.7204Y-34.4381

G1X37.3901Y-35.5753

G1X36.8829Y-36.6558

G1X36.1508Y-37.7626

G1X35.3526Y-38.6645

G1X34.4479Y-39.4226

G1X33.3190Y-40.1144

G1X32.1141Y-40.6370

G1X30.9738Y-40.9427

G1X29.7552Y-41.0821

G1X28.4314Y-41.0476

G1X27.2724Y-40.8432

G1X26.1107Y-40.4356

G1X25.0230Y-39.8574

G1X24.0851Y-39.1504

G1X23.5205Y-38.5680

G1X22.9635Y-37.8245

G1X22.5116Y-37.0239

G1X22.1883Y-36.2039

G1X22.0085Y-35.4248

G1X21.9265Y-34.4997

G1X21.9730Y-33.5689

G1X22.1231Y-32.7750

G1X22.4148Y-31.9375

G1X22.8374Y-31.1122

G1X23.3703Y-30.3345

G1X23.9195Y-29.7146

G1X24.5799Y-29.1406

G1X25.3276Y-28.6330

G1X27.0021Y-27.8550

G1X27.8582Y-27.6236

G1X28.8446Y-27.4762

G1X30.7904Y-27.4890

G1X32.5297Y-27.8723

G1X34.2948Y-28.6561

G1X35.7478Y-29.6916

G1X36.4017Y-30.3394

G1X37.0573Y-31.1413

G1X37.9271Y-32.6150

G1X38.4799Y-34.3277

G1X38.6681Y-36.0318

G1X38.4893Y-37.7118

G1X37.8992Y-39.4793

G1X37.4756Y-40.2876

G1X36.9766Y-41.0155

G1X35.7155Y-42.3334

G1X34.2426Y-43.3548

G1X32.5255Y-44.0491

G1X30.7158Y-44.3846

G1X29.8113Y-44.3994

G1X28.8821Y-44.3084

G1X27.8666Y-44.0938

G1X27.0066Y-43.8081

G1X26.1974Y-43.4245

G1X25.4958Y-42.9801

G1X24.1911Y-41.8110

G1X23.6547Y-41.1121

G1X23.2579Y-40.4120

G1X22.9428Y-39.6555

G1X22.6981Y-38.7732

G1X22.5893Y-37.9935

G1X22.5892Y-37.2145

G1X22.8913Y-35.6153

G1X23.2233Y-34.7634

G1X23.7074Y-33.9256

G1X24.3952Y-33.0704

G1X25.1377Y-32.3677

G1X25.8718Y-31.8296

G1X26.7241Y-31.3646

G1X27.7604Y-30.9608

G1X28.7557Y-30.7023

G1X29.7568Y-30.5638

G1X30.8470Y-30.5572

G1X31.9718Y-30.6869

G1X32.9787Y-30.9174

G1X33.9264Y-31.2501

G1X34.8266Y-31.6965

G1X35.6963Y-32.2554

G1X36.5003Y-32.9034

G1X37.2034Y-33.6170

G1X37.8023Y-34.4041

G1X38.3644Y-35.3706

G1X38.7675Y-36.3016

G1X39.0485Y-37.2450

G1X39.1925Y-38.1272

G1X39.2348Y-39.1521

G1X39.1552Y-40.1798

G1X38.9560Y-41.1667

G1X38.6689Y-42.0109

G1X38.2229Y-42.9344

G1X37.6659Y-43.8094

G1X37.0223Y-44.5987

G1X36.3855Y-45.2101

G1X35.5824Y-45.8175

G1X34.7049Y-46.3399

G1X33.0455Y-47.0049

G1X31.3254Y-47.2946

G1X29.5012Y-47.2426

G1X27.8447Y-46.8197

G1X26.2983Y-46.0613

G1X25.0685Y-45.0732

G1X24.5250Y-44.4559

G1X24.0009Y-43.7006

G1X23.5922Y-42.9131

G1X23.3314Y-42.1751

G1X23.1606Y-41.3810

G1X23.0812Y-40.4610

G1X23.1251Y-39.5547

G1X23.2700Y-38.7950

G1X23.5543Y-37.9496

G1X23.9545Y-37.1244

G1X24.4537Y-36.3563

G1X25.0276Y-35.6883

G1X25.6848Y-35.0992

G1X26.5166Y-34.5145

G1X27.3251Y-34.0743

G1X28.1584Y-33.7379

G1X29.0238Y-33.5030

G1X30.0461Y-33.3421

G1X31.0879Y-33.2933

G1X32.0042Y-33.3511

G1X32.8843Y-33.5073

G1X33.8696Y-33.7929

G1X34.8265Y-34.1838

G1X35.6298Y-34.6146

G1X37.0484Y-35.7112

G1X37.7488Y-36.4574

G1X38.2978Y-37.1827

G1X38.7491Y-37.9386

G1X39.1160Y-38.7647

G1X39.3958Y-39.6462

G1X39.5948Y-40.6530

G1X39.6340Y-42.3345

G1X39.2596Y-44.1286

G1X38.7586Y-45.3436

G1X38.1292Y-46.3558

G1X37.2521Y-47.3732

G1X36.2379Y-48.2464

G1X35.1438Y-48.9178

G1X33.9265Y-49.4259

G1X32.6541Y-49.7582

G1X31.3822Y-49.8900

G1X30.0547Y-49.8159

G1X28.7597Y-49.5516

G1X27.5606Y-49.0991

G1X26.4912Y-48.4733

G1X25.4617Y-47.6292

G1X24.6889Y-46.7316

G1X24.0637Y-45.6543

G1X23.6329Y-44.4869

G1X23.4737Y-43.7061

G1X23.4229Y-42.8109

G1X23.4986Y-41.8866

G1X23.6948Y-40.9766

G1X23.9658Y-40.2145

G1X24.3770Y-39.4261

G1X25.4654Y-38.0373

G1X26.0805Y-37.4771

G1X26.8118Y-36.9601

G1X27.6165Y-36.5259

G1X28.5851Y-36.1360

G1X30.2793Y-35.7532

G1X32.1890Y-35.7491

G1X33.9743Y-36.1047

G1X35.6240Y-36.8250

G1X37.1273Y-37.8735

G1X37.7628Y-38.4872

G1X38.3397Y-39.1922

G1X39.2698Y-40.7935

G1X39.7806Y-42.3939

G1X39.9026Y-43.2926

G1X39.9229Y-44.3120

G1X39.8369Y-45.2135

G1X39.6504Y-46.0719

G1X39.1869Y-47.2940

G1X38.5267Y-48.4524

G1X37.7836Y-49.3923

G1X36.8085Y-50.2782

G1X35.5896Y-51.0788

G1X34.3912Y-51.6234

G1X33.1100Y-51.9674

G1X31.7640Y-52.1235

G1X30.4550Y-52.0834

G1X29.1508Y-51.8220

G1X27.8829Y-51.3544

G1X26.7524Y-50.7221

G1X25.7462Y-49.8880

G1X24.8865Y-48.8826

G1X24.2861Y-47.8792

G1X23.8678Y-46.7319

G1X23.6876Y-45.8114

G1X23.6301Y-44.9889

G1X23.6741Y-44.1958

G1X23.8212Y-43.4243

G1X24.1030Y-42.5541

G1X24.4939Y-41.7179

G1X24.9215Y-41.0337

G1X25.4841Y-40.3511

G1X26.1542Y-39.7181

G1X26.9067Y-39.1530

G1X28.4383Y-38.3605

G1X29.3005Y-38.0882

G1X30.3132Y-37.8847

G1X31.3398Y-37.7948

G1X32.2356Y-37.8189

G1X34.1159Y-38.1880

G1X35.7913Y-38.8841

G1X37.2810Y-39.9359

G1X38.5411Y-41.2919

G1X39.0263Y-42.0324

G1X39.4256Y-42.8397

G1X39.9583Y-44.5858

G1X40.0718Y-45.4640

G1X40.0781Y-46.2597

G1X39.8051Y-47.9964

G1X39.3580Y-49.2491

G1X38.7738Y-50.2843

G1X37.8757Y-51.4070

G1X36.8979Y-52.2992

G1X35.8247Y-52.9951

G1X34.5232Y-53.5739

G1X33.1674Y-53.9445

G1X31.8750Y-54.0777

G1X30.4266Y-53.9982

G1X29.1392Y-53.7299

G1X27.9308Y-53.2583

G1X26.7826Y-52.5786

G1X25.7858Y-51.7518

G1X25.0148Y-50.8366

G1X24.3432Y-49.6720

G1X23.9037Y-48.4408

G1X23.7666Y-47.6744

G1X23.7248Y-46.7700

G1X23.7987Y-45.8563

G1X23.9860Y-44.9735

G1X24.2446Y-44.2465

G1X24.6479Y-43.4532

G1X25.1578Y-42.6932

G1X25.7530Y-41.9977

G1X26.4106Y-41.3996

G1X27.1450Y-40.8855

G1X28.8242Y-40.0799

G1X30.4881Y-39.6854

G1X32.3514Y-39.6446

G1X34.0528Y-39.9454

G1X35.7670Y-40.6496

G1X37.2960Y-41.6789

G1X38.4627Y-42.9182

G1X39.4136Y-44.4790

G1X39.7368Y-45.2979

G1X39.9413Y-46.0788

G1X40.0767Y-46.9975

G1X40.1089Y-47.9260

G1X40.0351Y-48.8301

G1X39.8749Y-49.6067

G1X39.4228Y-50.8679

G1X38.7714Y-52.0505

G1X37.9627Y-53.0661

G1X36.9708Y-53.9555

G1X35.7582Y-54.7457

G1X34.5794Y-55.2657

G1X33.2068Y-55.6208

G1X31.7956Y-55.7666

G1X30.5177Y-55.6966

G1X29.1193Y-55.3853

G1X27.8020Y-54.8642

G1X26.7023Y-54.1921

G1X25.6917Y-53.3012

G1X24.8578Y-52.2755

G1X24.2895Y-51.2379

G1X23.8752Y-49.9724

G1X23.7259Y-49.0680

G1X23.6963Y-48.2810

G1X23.9411Y-46.6997

G1X24.2413Y-45.8221

G1X24.5945Y-45.0889

G1X25.0192Y-44.4273

G1X25.6011Y-43.7297

G1X26.2793Y-43.0861

G1X27.0261Y-42.5227

G1X28.5308Y-41.7539

G1X29.5048Y-41.4469

G1X30.4127Y-41.2633

G1X31.3167Y-41.1770

G1X32.2136Y-41.1949

G1X34.0530Y-41.5227

G1X35.6551Y-42.1519

G1X37.1774Y-43.1774

G1X38.4441Y-44.4831

G1X39.3244Y-45.9568

G1X39.6664Y-46.8248

G1X39.9051Y-47.7113

G1X40.0202Y-48.4913

G1X40.0420Y-49.3937

G1X39.7940Y-51.1224

G1X39.3678Y-52.3455

G1X38.7311Y-53.4725

G1X37.8359Y-54.5894

G1X36.8767Y-55.4531

G1X35.6981Y-56.1944

G1X34.3889Y-56.7583

G1X33.1436Y-57.0832

G1X31.8161Y-57.2088

G1X30.3602Y-57.1269

G1X29.0856Y-56.8536

G1X27.8432Y-56.3582

G1X26.6010Y-55.6135

G1X25.6265Y-54.7755

G1X24.8006Y-53.7464

G1X24.1603Y-52.5913

G1X23.7584Y-51.3880

G1X23.6306Y-50.5905

G1X23.5953Y-49.6666

G1X23.8172Y-48.0754

G1X24.0655Y-47.3410

G1X24.4565Y-46.5239

G1X24.9479Y-45.7478

G1X25.5207Y-45.0453

G1X26.1598Y-44.4420

G1X26.8923Y-43.9013

G1X28.5423Y-43.0539

G1X30.1856Y-42.6284

G1X32.0447Y-42.5376

G1X32.9518Y-42.6324

G1X33.8281Y-42.8275

G1X35.5578Y-43.5121

G1X36.9898Y-44.4469

G1X38.2132Y-45.7048

G1X39.1462Y-47.1767

G1X39.6983Y-48.7813

G1X39.8485Y-49.6932

G1X39.8941Y-50.6062

G1X39.8424Y-51.3918

G1X39.6733Y-52.2731

G1X39.1952Y-53.6330

G1X38.5530Y-54.7911

G1X37.7402Y-55.7901

G1X36.6605Y-56.7447

G1X35.5460Y-57.4572

G1X34.2704Y-57.9959

G1X32.8815Y-58.3387

G1X31.4887Y-58.4648

G1X30.0786Y-58.3492

G1X28.6713Y-58.0027

G1X27.4760Y-57.5031

G1X26.3704Y-56.7981

G1X25.3083Y-55.8394

G1X24.5218Y-54.8368

G1X23.9157Y-53.6513

G1X23.5269Y-52.3614

G1X23.4044Y-51.4681

G1X23.4048Y-50.6777

G1X23.5032Y-49.8659

G1X23.7231Y-48.9608

G1X24.3715Y-47.4929

G1X25.4288Y-46.1260

G1X26.7711Y-45.0076

G1X28.2731Y-44.2517

G1X30.0440Y-43.7719

G1X30.9286Y-43.6812

G1X31.8415Y-43.6915

G1X33.5827Y-43.9668

G1X35.1754Y-44.5588

G1X36.7248Y-45.5528

G1X37.4068Y-46.1575

G1X37.9952Y-46.8144

G1X38.5136Y-47.5614

G1X38.9523Y-48.3784

G1X39.5094Y-50.0020

G1X39.6637Y-51.6829

G1X39.4443Y-53.3985

G1X39.1819Y-54.2454

G1X38.7562Y-55.1595

G1X38.2024Y-56.0389

G1X37.5474Y-56.8439

G1X36.8960Y-57.4703

G1X36.0865Y-58.0723

G1X35.1858Y-58.5912

G1X34.3309Y-58.9699

G1X33.3712Y-59.2729

G1X32.3935Y-59.4513

G1X31.3744Y-59.5214

G1X30.3572Y-59.4831

G1X29.3852Y-59.3364

G1X28.5179Y-59.0962

G1X27.6612Y-58.7565

G1X26.7580Y-58.2807

G1X25.9456Y-57.7215

G1X25.2781Y-57.1208

G1X24.6048Y-56.3360

G1X24.0387Y-55.4742

G1X23.6454Y-54.6681

G1X23.3679Y-53.8187

G1X23.2000Y-52.9079

G1X23.1461Y-51.9781

G1X23.2092Y-51.0693

G1X23.3915Y-50.2134

G1X23.6946Y-49.3643

G1X24.1557Y-48.4542

G1X24.6647Y-47.7022

G1X25.2464Y-47.0452

G1X25.9247Y-46.4478

G1X26.7711Y-45.8612

G1X27.8606Y-45.3026

G1X28.9887Y-44.9334

G1X30.3059Y-44.7107

G1X31.5365Y-44.6754

G1X32.7209Y-44.8162

G1X33.9106Y-45.1381

G1X35.0519Y-45.6179

G1X36.0753Y-46.2334

G1X37.0162Y-47.0261

G1X37.8440Y-47.9597

G1X38.5018Y-48.9729

G1X38.9390Y-49.9705

G1X39.2566Y-51.1514

G1X39.3903Y-52.3523

G1X39.3357Y-53.4244

G1X39.0821Y-54.6132

G1X38.7324Y-55.5774

G1X38.3226Y-56.3849

G1X37.8296Y-57.1127

G1X37.2361Y-57.8015

G1X36.4835Y-58.5011

G1X35.6646Y-59.1017

G1X34.8966Y-59.5344

G1X33.9705Y-59.9222

G1X32.9889Y-60.2124

G1X31.9934Y-60.3935

G1X31.1074Y-60.4542

G1X30.1865Y-60.4139

G1X29.1547Y-60.2568

G1X28.1579Y-59.9903

G1X27.2349Y-59.6206

G1X26.4319Y-59.1746

G1X25.6707Y-58.6341

G1X24.9075Y-57.9502

G1X24.3253Y-57.2840

G1X23.8275Y-56.5352

G1X23.4167Y-55.7121

G1X23.0789Y-54.7528

G1X22.8970Y-53.8871

G1X22.8381Y-52.9943

G1X22.9001Y-52.0686

G1X23.0770Y-51.1517

G1X23.3627Y-50.2833

G1X23.7532Y-49.4892

G1X24.3223Y-48.6415

G1X25.0057Y-47.8614

G1X25.6915Y-47.2505

G1X26.4978Y-46.7049

G1X27.6784Y-46.1304

G1X28.8395Y-45.7573

G1X30.0084Y-45.5640

G1X31.2356Y-45.5446

G1X32.4700Y-45.6898

G1X33.6321Y-45.9945

G1X34.7388Y-46.4752

G1X35.8730Y-47.1768

G1X36.7878Y-47.9477

G1X37.5650Y-48.8544

G1X38.2150Y-49.9016

G1X38.6944Y-51.0161

G1X38.9552Y-52.0564

G1X39.0592Y-53.2605

G1X38.9790Y-54.4743

G1X38.7431Y-55.5284

G1X38.4226Y-56.3689

G1X37.9411Y-57.2800

G1X37.3511Y-58.1273

G1X36.7486Y-58.7999

G1X36.0732Y-59.3899

G1X35.2245Y-59.9759

G1X34.3103Y-60.4660

G1X33.3699Y-60.8367

G1X32.4114Y-61.0809

G1X31.3996Y-61.2199

G1X30.3777Y-61.2510

G1X29.3889Y-61.1715

G1X28.5073Y-60.9934

G1X27.5270Y-60.6769

G1X26.5892Y-60.2534

G1X25.7360Y-59.7411

G1X25.0386Y-59.1910

G1X24.3243Y-58.4669

G1X23.7050Y-57.6619

G1X23.2110Y-56.8137

G1X22.8734Y-55.9835

G1X22.6386Y-55.0806

G1X22.5098Y-54.0486

G1X22.5192Y-53.1374

G1X22.6516Y-52.2701

G1X22.9389Y-51.3045

G1X23.3561Y-50.3739

G1X23.8267Y-49.6055

G1X24.3782Y-48.9261

G1X25.1093Y-48.2287

G1X25.9334Y-47.6143

G1X26.7230Y-47.1577

G1X27.8193Y-46.7141

G1X29.0127Y-46.4217

G1X30.2360Y-46.2908

G1X31.3261Y-46.3262

G1X32.5318Y-46.5395

G1X33.8080Y-46.9553

G1X34.8786Y-47.4879

G1X35.7961Y-48.1343

G1X36.7067Y-48.9888

G1X37.4077Y-49.8610

G1X37.9495Y-50.7968

G1X38.3889Y-51.9302

G1X38.6523Y-53.1146

G1X38.7188Y-54.1838

G1X38.6134Y-55.2752

G1X38.3182Y-56.4626

G1X37.9419Y-57.3940

G1X37.5103Y-58.1533

G1X36.9105Y-58.9560

G1X36.1319Y-59.7662

G1X35.3496Y-60.4012

G1X34.6065Y-60.8668

G1X33.6997Y-61.2988

G1X32.7347Y-61.6353

G1X31.7522Y-61.8625

G1X30.7785Y-61.9682

G1X29.7699Y-61.9565

G1X28.7549Y-61.8345

G1X27.7762Y-61.6080

G1X26.8498Y-61.2720

G1X26.0203Y-60.8501

G1X25.1485Y-60.2741

G1X24.3679Y-59.6125

G1X23.7681Y-58.9574

G1X23.1883Y-58.1193

G1X22.7180Y-57.2017

G1X22.4068Y-56.3462

G1X22.2163Y-55.4842

G1X22.1451Y-54.5698

G1X22.2032Y-53.5312

G1X22.3754Y-52.6202

G1X22.6567Y-51.7748

G1X23.0552Y-50.9664

G1X23.6240Y-50.1065

G1X24.2968Y-49.3282

G1X24.9649Y-48.7336

G1X25.7129Y-48.2195

G1X26.6316Y-47.7332

G1X27.7956Y-47.2981

G1X28.8665Y-47.0686

G1X30.0921Y-46.9829

G1X31.3299Y-47.0610

G1X32.4072Y-47.2764

G1X33.5434Y-47.6836

G1X34.6358Y-48.2553

G1X35.5384Y-48.8928

G1X36.3250Y-49.6408

G1X37.0798Y-50.6114

G1X37.6377Y-51.5862

G1X38.0330Y-52.5951

G1X38.2696Y-53.6906

G1X38.3460Y-54.8326

G1X38.2575Y-55.9537

G1X38.0006Y-57.0060

G1X37.6648Y-57.8576

G1X37.1771Y-58.7647

G1X36.5894Y-59.5892

G1X35.9868Y-60.2364

G1X35.2090Y-60.8934

G1X34.3477Y-61.4666

G1X33.4406Y-61.9301

G1X32.5150Y-62.2647

G1X31.5276Y-62.4946

G1X30.5095Y-62.6192

G1X29.5037Y-62.6328

G1X28.5179Y-62.5262

G1X27.5142Y-62.2924

G1X26.5366Y-61.9461

G1X25.6285Y-61.5029

G1X24.8031Y-60.9580

G1X24.1043Y-60.3595

G1X23.4076Y-59.6066

G1X22.8261Y-58.7958

G1X22.4156Y-58.0213

G1X22.0694Y-57.0721

G1X21.8506Y-56.0773

G1X21.7704Y-55.0866

G1X21.8259Y-54.2170

G1X22.0287Y-53.2333

G1X22.3652Y-52.2716

G1X22.8195Y-51.3804

G1X23.3205Y-50.6663

G1X23.9993Y-49.9227

G1X24.8586Y-49.1952

G1X25.7031Y-48.6517

G1X26.5922Y-48.2365

G1X27.7608Y-47.8682

G1X28.8703Y-47.6700

G1X29.9603Y-47.6212

G1X31.1746Y-47.7424

G1X32.3828Y-48.0302

G1X33.4179Y-48.4262

G1X34.3857Y-48.9666

G1X35.3799Y-49.7247

G1X36.1786Y-50.5285

G1X36.8238Y-51.4014

G1X37.3393Y-52.3817

G1X37.7455Y-53.5328

G1X37.9502Y-54.5995

G1X37.9845Y-55.5987

G1X37.8594Y-56.7339

G1X37.5742Y-57.8398

G1X37.1866Y-58.7617

G1X36.6663Y-59.6291

G1X36.0246Y-60.4480

G1X35.2919Y-61.1811

G1X34.4996Y-61.7916

G1X33.6188Y-62.3043

G1X32.6630Y-62.7237

G1X31.6750Y-63.0320

G1X30.6975Y-63.2122

G1X29.6933Y-63.2728

G1X28.5690Y-63.2126

G1X27.5756Y-63.0459

G1X26.6364Y-62.7703

G1X25.7074Y-62.3653

G1X24.8220Y-61.8509

G1X24.0189Y-61.2510

G1X23.3170Y-60.5681

G1X22.6876Y-59.7558

G1X22.1643Y-58.8619

G1X21.7728Y-57.9312

G1X21.5472Y-57.0712

G1X21.4363Y-56.1523

G1X21.4485Y-55.1109

G1X21.5806Y-54.1993

G1X21.8264Y-53.3500

G1X22.2399Y-52.4295

G1X22.7815Y-51.5529

G1X23.3566Y-50.8382

G1X23.9957Y-50.2240

G1X24.8120Y-49.6203

G1X25.7154Y-49.1067

G1X26.6633Y-48.7083

G1X27.7179Y-48.4261

G1X28.8356Y-48.2831

G1X29.9734Y-48.2769

G1X31.0693Y-48.4109

G1X32.1340Y-48.6968

G1X33.2744Y-49.1729

G1X34.2400Y-49.7334

G1X35.0927Y-50.4039

G1X35.8680Y-51.2209

G1X36.5310Y-52.1393

G1X37.0420Y-53.1086

G1X37.3696Y-54.0578

G1X37.5844Y-55.1791

G1X37.6367Y-56.3142

G1X37.5181Y-57.3957

G1X37.2268Y-58.4603

G1X36.8275Y-59.4050

G1X36.3189Y-60.2824

G1X35.7823Y-60.9811

G1X35.0746Y-61.6968

G1X34.1863Y-62.3988

G1X33.3175Y-62.9291

G1X32.4221Y-63.3318

G1X31.4590Y-63.6320

G1X30.3525Y-63.8436

G1X29.3498Y-63.9194

G1X28.3584Y-63.8739

G1X27.3402Y-63.7026

G1X26.2427Y-63.3832

G1X25.3138Y-62.9876

G1X24.4556Y-62.4818

G1X23.6434Y-61.8498

G1X22.9141Y-61.1260

G1X22.3027Y-60.3440

G1X21.8134Y-59.4868

G1X21.4362Y-58.5400

G1X21.1874Y-57.5544

G1X21.0815Y-56.5790

G1X21.1186Y-55.6756

G1X21.3030Y-54.6538

G1X21.6251Y-53.6648

G1X22.0209Y-52.8486

G1X22.5838Y-52.0184

G1X23.2762Y-51.2416

G1X24.0620Y-50.5564

G1X24.8126Y-50.0529

G1X25.6992Y-49.6110

G1X26.7605Y-49.2357

G1X27.8553Y-48.9954

G1X28.9403Y-48.9077

G1X30.0641Y-48.9696

G1X31.2872Y-49.1956

G1X32.3396Y-49.5383

G1X33.3201Y-50.0203

G1X34.2548Y-50.6433

G1X35.0951Y-51.3721

G1X35.7404Y-52.1023

G1X36.3454Y-53.0281

G1X36.8246Y-54.0459

G1X37.1510Y-55.0986

G1X37.2985Y-56.0740

G1X37.3065Y-57.1045

G1X37.1588Y-58.2412

G1X36.8874Y-59.2224

G1X36.4866Y-60.1291

G1X35.9512Y-61.0077

G1X35.3079Y-61.8221

G1X34.5844Y-62.5331

G1X33.7864Y-63.1298

G1X32.8905Y-63.6462

G1X31.8412Y-64.0971

G1X30.8758Y-64.3783

G1X29.8948Y-64.5347

G1X28.7721Y-64.5810

G1X27.6594Y-64.4965

G1X26.6981Y-64.3051

G1X25.7407Y-63.9845

G1X24.7209Y-63.4986

G1X23.8681Y-62.9590

G1X23.1130Y-62.3344

G1X22.4195Y-61.5753

G1X21.8232Y-60.7238

G1X21.3530Y-59.8232

G1X21.0548Y-58.9866

G1X20.8532Y-57.9801

G1X20.7921Y-56.9416

G1X20.8747Y-55.9260

G1X21.0737Y-55.0688

G1X21.4358Y-54.1275

G1X21.9265Y-53.2268

G1X22.5226Y-52.4123

G1X23.2103Y-51.7122

G1X24.0149Y-51.0829

G1X24.9921Y-50.4992

G1X25.9199Y-50.0968

G1X26.9749Y-49.8041

G1X28.0987Y-49.6420

G1X29.2299Y-49.6178

G1X30.2182Y-49.7222

G1X31.3055Y-49.9849

G1X32.3707Y-50.3873

G1X33.3558Y-50.9083

G1X34.1634Y-51.4879

G1X34.9880Y-52.2685

G1X35.7038Y-53.1531

G1X36.2239Y-54.0070

G1X36.6111Y-54.9132

G1X36.9034Y-55.9905

G1X37.0434Y-57.0934

G1X37.0273Y-58.0690

G1X36.8671Y-59.0497

G1X36.5375Y-60.1244

G1X36.0666Y-61.1369

G1X35.5324Y-61.9560

G1X34.8063Y-62.7888

G1X33.9618Y-63.5372

G1X33.0435Y-64.1610

G1X32.1682Y-64.5977

G1X31.1181Y-64.9688

G1X29.9236Y-65.2312

G1X28.8406Y-65.3260

G1X27.7226Y-65.2703

G1X26.5946Y-65.0709

G1X25.5170Y-64.7413

G1X24.6143Y-64.3311

G1X23.7445Y-63.7884

G1X22.8643Y-63.0699

G1X22.1742Y-62.3404

G1X21.6062Y-61.5402

G1X21.1410Y-60.6363

G1X20.7974Y-59.6763

G1X20.5936Y-58.7080

G1X20.5404Y-57.8200

G1X20.6240Y-56.7933

G1X20.8494Y-55.7799

G1X21.1655Y-54.9241

G1X21.5861Y-54.1417

G1X22.1867Y-53.3086

G1X22.8970Y-52.5489

G1X23.6836Y-51.9028

G1X24.5164Y-51.3934

G1X25.5362Y-50.9344

G1X26.6093Y-50.6037

G1X27.5857Y-50.4336

G1X28.5963Y-50.3878

G1X29.6331Y-50.4585

G1X30.6495Y-50.6418

G1X31.6016Y-50.9344

G1X32.5200Y-51.3514

G1X33.4863Y-51.9408

G1X34.2828Y-52.5691

G1X34.9699Y-53.2698

G1X35.5756Y-54.0840

G1X36.0829Y-54.9806

G1X36.4686Y-55.9179

G1X36.7122Y-56.8634

G1X36.8220Y-57.8585

G1X36.8034Y-58.8770

G1X36.6574Y-59.8721

G1X36.3813Y-60.8112

G1X35.9137Y-61.8267

G1X35.3012Y-62.7876

G1X34.6466Y-63.5681

G1X33.8348Y-64.2960

G1X32.8984Y-64.9319

G1X31.7908Y-65.4908

G1X30.7556Y-65.8466

G1X29.6758Y-66.0597

G1X28.4529Y-66.1448

G1X27.3528Y-66.0848

G1X26.2874Y-65.8813

G1X25.2195Y-65.5251

G1X24.1178Y-64.9907

G1X23.2217Y-64.3909

G1X22.4632Y-63.7047

G1X21.7273Y-62.8287

G1X21.1822Y-61.9667

G1X20.8145Y-61.1604

G1X20.5304Y-60.1796

G1X20.3833Y-59.1526

G1X20.3806Y-58.1342

G1X20.5063Y-57.2666

G1X20.7884Y-56.3082

G1X21.2036Y-55.3775

G1X21.7321Y-54.5217

G1X22.2906Y-53.8473

G1X23.0284Y-53.1595

G1X23.9485Y-52.4985

G1X24.8416Y-52.0168

G1X25.6688Y-51.6981

G1X26.6575Y-51.4434

G1X27.7861Y-51.2897

G1X28.7998Y-51.2739

G1X29.7930Y-51.3852

G1X30.9002Y-51.6504

G1X31.8744Y-52.0073

G1X32.7718Y-52.4607

G1X33.5910Y-53.0196

G1X34.3572Y-53.6914

G1X35.0388Y-54.4451

G1X35.6036Y-55.2491

G1X36.0143Y-56.0387

G1X36.3683Y-56.9956

G1X36.6007Y-57.9905

G1X36.6985Y-58.9780

G1X36.6634Y-59.8607

G1X36.5165Y-60.7628

G1X36.2328Y-61.7480

G1X35.7878Y-62.7579

G1X35.2082Y-63.6652

G1X34.4115Y-64.5897

G1X33.5738Y-65.3338

G1X32.6686Y-65.9398

G1X31.6553Y-66.4293

G1X30.4666Y-66.8243

G1X29.3636Y-67.0385

G1X28.2600Y-67.0980

G1X27.0188Y-66.9974

G1X25.9103Y-66.7640

G1X24.8810Y-66.4003

G1X23.8846Y-65.8764

G1X22.8786Y-65.1545

G1X22.0873Y-64.3964

G1X21.4291Y-63.5301

G1X20.9800Y-62.7303

G1X20.5974Y-61.7917

G1X20.3748Y-60.9391

G1X20.2739Y-60.0541

G1X20.2920Y-59.1308

G1X20.4473Y-58.1110

G1X20.7041Y-57.2422

G1X21.1184Y-56.3520

G1X21.6737Y-55.4935

G1X22.2698Y-54.7801

G1X22.9340Y-54.1547

G1X23.7233Y-53.5893

G1X24.7021Y-53.0635

G1X25.6520Y-52.6911

G1X26.6161Y-52.4398

G1X27.6110Y-52.3136

G1X28.6494Y-52.3022

G1X29.5829Y-52.3893

G1X30.5760Y-52.5932

G1X31.4306Y-52.8803

G1X32.3664Y-53.3170

G1X33.2494Y-53.8565

G1X34.0393Y-54.4771

G1X34.7380Y-55.1965

G1X35.3017Y-55.9394

G1X35.8295Y-56.8322

G1X36.2285Y-57.7571

G1X36.4663Y-58.6112

G1X36.6110Y-59.6173

G1X36.6286Y-60.6407

G1X36.5167Y-61.6346

G1X36.2669Y-62.5894

G1X35.8315Y-63.6312

G1X35.1974Y-64.6964

G1X34.5034Y-65.5456

G1X33.6036Y-66.3551

G1X32.5751Y-67.0493

G1X31.4837Y-67.5846

G1X30.4291Y-67.9220

G1X29.1979Y-68.1409

G1X27.9597Y-68.1957

G1X26.7727Y-68.0757

G1X25.5855Y-67.7746

G1X24.4512Y-67.3168

G1X23.5172Y-66.7806

G1X22.6375Y-66.0794

G1X21.7899Y-65.1680

G1X21.1650Y-64.2545

G1X20.7780Y-63.4546

G1X20.4916Y-62.5784

G1X20.3028Y-61.5651

G1X20.2581Y-60.6604

G1X20.3409Y-59.7799

G1X20.5510Y-58.8853

G1X20.9185Y-57.9144

G1X21.3554Y-57.1032

G1X21.8714Y-56.3948

G1X22.5613Y-55.6692

G1X23.3521Y-55.0193

G1X24.2073Y-54.4773

G1X25.0071Y-54.1030

G1X25.9712Y-53.7839

G1X26.9845Y-53.5703

G1X28.0019Y-53.4735

G1X28.9853Y-53.5023

G1X29.9830Y-53.6505

G1X30.9720Y-53.9083

G1X31.9104Y-54.2659

G1X32.6934Y-54.6741

G1X33.5346Y-55.2491

G1X34.3144Y-55.9257

G1X34.9352Y-56.5972

G1X35.4574Y-57.3119

G1X35.9445Y-58.2029

G1X36.3227Y-59.1662

G1X36.5567Y-60.0580

G1X36.6775Y-60.9405

G1X36.6824Y-61.8381

G1X36.5787Y-62.7550

G1X36.3725Y-63.6574

G1X35.9905Y-64.6914

G1X35.4099Y-65.7194

G1X34.5901Y-66.7610

G1X33.7107Y-67.5927

G1X32.7279Y-68.2688

G1X31.6133Y-68.8181

G1X30.4367Y-69.2142

G1X29.2574Y-69.4303

G1X28.0249Y-69.4713

G1X26.6892Y-69.3299

G1X25.5347Y-69.0338

G1X24.4120Y-68.5479

G1X23.3605Y-67.8989

G1X22.4518Y-67.1326

G1X21.7294Y-66.2812

G1X21.0825Y-65.2106

G1X20.7233Y-64.3622

G1X20.4924Y-63.5090

G1X20.3832Y-62.6132

G1X20.3979Y-61.5893

G1X20.5321Y-60.6861

G1X20.7787Y-59.8434

G1X21.1441Y-59.0322

G1X21.6781Y-58.1635

G1X22.3203Y-57.3718

G1X22.9662Y-56.7620

G1X23.6960Y-56.2288

G1X24.5989Y-55.7174

G1X25.5571Y-55.3147

G1X26.4239Y-55.0666

G1X27.3992Y-54.9109

G1X28.4161Y-54.8620

G1X29.4314Y-54.9216

G1X30.3081Y-55.0695

G1X31.2582Y-55.3478

G1X32.1979Y-55.7420

G1X33.0884Y-56.2345

G1X33.8157Y-56.7467

G1X34.4777Y-57.3393

G1X35.1533Y-58.1045

G1X35.7375Y-58.9460

G1X36.1630Y-59.7390

G1X36.4829Y-60.5639

G1X36.7074Y-61.4549

G1X36.8388Y-62.4806

G1X36.8465Y-63.3987

G1X36.7444Y-64.2821

G1X36.4938Y-65.2642

G1X35.9754Y-66.5094

G1X35.2777Y-67.6306

G1X34.4110Y-68.5942

G1X33.2871Y-69.5001

G1X32.1510Y-70.1544

G1X30.9184Y-70.6140

G1X29.4916Y-70.9077

G1X28.1813Y-70.9750

G1X26.8863Y-70.8281

G1X25.5076Y-70.4487

G1X24.3456Y-69.9227

G1X23.2549Y-69.1730

G1X22.2923Y-68.2401

G1X21.5383Y-67.2025

G1X21.0273Y-66.1093

G1X20.6849Y-64.8260

G1X20.5938Y-63.5514

G1X20.7696Y-62.2622

G1X21.1870Y-60.9963

G1X21.8135Y-59.8703

G1X22.7364Y-58.7861

G1X23.7759Y-57.9208

G1X24.8992Y-57.2762

G1X26.2371Y-56.7871

G1X27.6513Y-56.5095

G1X28.9387Y-56.4704

G1X30.4559Y-56.6710

G1X31.8212Y-57.0732

G1X33.0611Y-57.6790

G1X34.2226Y-58.5017

G1X35.2259Y-59.4779

G1X36.0283Y-60.6004

G1X36.7507Y-62.1747

G1X37.1047Y-63.7141

G1X37.1051Y-65.4547

G1X36.7387Y-67.1530

G1X36.0156Y-68.6753

G1X34.9675Y-70.0562

G1X33.7708Y-71.1001

G1X32.2420Y-71.9652

G1X30.6130Y-72.5092

G1X28.8887Y-72.7019

G1X27.0660Y-72.5479

G1X25.4384Y-72.0359

G1X23.9281Y-71.1886

G1X22.7478Y-70.1331

G1X22.2343Y-69.4836

G1X21.7451Y-68.6931

G1X21.4059Y-67.9640

G1X21.1668Y-67.2148

G1X20.9733Y-65.7863

G1X21.0569Y-64.4473

G1X21.3987Y-63.2078

G1X21.9956Y-62.0107

G1X22.7965Y-60.9349

G1X23.8233Y-60.0079

G1X25.0480Y-59.2444

G1X26.3716Y-58.7026

G1X27.8217Y-58.4019

G1X29.3533Y-58.3383

G1X30.7334Y-58.5064

G1X32.0963Y-58.9103

G1X33.4001Y-59.5211

G1X34.5503Y-60.3078

G1X35.5831Y-61.3170

G1X36.4420Y-62.4798

G1X37.1585Y-64.0046

G1X37.5414Y-65.6911

G1X37.5736Y-67.2703

G1X37.2314Y-68.9367

G1X36.5517Y-70.5117

G1X35.6270Y-71.8002

G1X34.2629Y-73.0536

G1X32.8009Y-73.9190

G1X31.0361Y-74.5062

G1X29.3353Y-74.7184

G1X27.5834Y-74.5590

G1X25.9161Y-74.0632

G1X24.4284Y-73.2201

G1X23.1469Y-72.0606

G1X22.6682Y-71.4491

G1X22.2514Y-70.7485

G1X21.6670Y-69.1935

G1X21.4835Y-67.9083

G1X21.5799Y-66.5910

G1X21.9319Y-65.2863

G1X22.5069Y-64.1306

G1X23.3747Y-63.0156

G1X24.4481Y-62.0560

G1X25.5423Y-61.3919

G1X26.8681Y-60.8640

G1X28.2681Y-60.5489

G1X29.6578Y-60.4800

G1X31.1946Y-60.6527

G1X32.5672Y-61.0289

G1X33.8389Y-61.6222

G1X35.1184Y-62.4916

G1X36.1341Y-63.4547

G1X36.9223Y-64.5148

G1X37.7057Y-66.0872

G1X38.1082Y-67.6215

G1X38.1721Y-69.4498

G1X37.8730Y-71.1172

G1X37.2000Y-72.6881

G1X36.1460Y-74.1880

G1X34.9681Y-75.2686

G1X33.4644Y-76.1833

G1X31.8661Y-76.7641

G1X30.0365Y-77.0122

G1X28.3445Y-76.9066

G1X26.6915Y-76.4291

G1X25.1064Y-75.5795

G1X23.9150Y-74.5149

G1X23.3425Y-73.7885

G1X22.9204Y-73.1014

G1X22.5967Y-72.3963

G1X22.3631Y-71.6329

G1X22.1809Y-70.3132

G1X22.2557Y-69.0093

G1X22.5964Y-67.7830

G1X23.1833Y-66.5911

G1X23.9639Y-65.5453

G1X24.9897Y-64.6218

G1X26.2068Y-63.8559

G1X27.4977Y-63.3298

G1X28.9694Y-63.0184

G1X30.3997Y-62.9419

G1X31.7859Y-63.0926

G1X33.1797Y-63.4771

G1X34.5053Y-64.0643

G1X35.6743Y-64.8319

G1X36.8014Y-65.8832

G1X37.6740Y-67.0068

G1X38.4374Y-68.5292

G1X38.8863Y-70.2274

G1X38.9721Y-71.8165

G1X38.6909Y-73.5262

G1X38.0766Y-75.1291

G1X37.1915Y-76.4714

G1X35.8830Y-77.7850

G1X34.4553Y-78.7079

G1X32.7169Y-79.3717

G1X31.0360Y-79.6485

G1X29.2768Y-79.5591

G1X28.3719Y-79.3742

G1X27.5291Y-79.1008

G1X26.0151Y-78.2854

G1X25.2952Y-77.7258

G1X24.6716Y-77.1079

G1X23.7735Y-75.7797

G1X23.2016Y-74.2539

G1X23.0424Y-72.9958

G1X23.1514Y-71.6792

G1X23.5102Y-70.4098

G1X24.0536Y-69.3601

G1X24.9475Y-68.2178

G1X25.9570Y-67.3244

G1X27.1370Y-66.6251

G1X28.4732Y-66.1044

G1X29.7595Y-65.8229

G1X31.1631Y-65.7534

G1X32.6123Y-65.8983

G1X33.9869Y-66.2525

G1X35.2674Y-66.8193

G1X36.5582Y-67.6431

G1X37.5917Y-68.5624

G1X38.4787Y-69.6745

G1X39.3128Y-71.2016

G1X39.7988Y-72.8238

G1X39.9372Y-74.5778

G1X39.7211Y-76.2711

G1X39.1243Y-77.9008

G1X38.1537Y-79.4601

G1X36.9463Y-80.6787

G1X35.4868Y-81.6601

G1X34.6754Y-82.0433

G1X33.8199Y-82.3310

G1X32.0007Y-82.6391

G1X30.3122Y-82.5784

G1X28.6032Y-82.1278

G1X27.0847Y-81.3560

G1X25.8333Y-80.2716

G1X25.2470Y-79.5461

G1X24.8265Y-78.8665

G1X24.5043Y-78.1407

G1X24.2723Y-77.3496

G1X24.1062Y-76.0139

G1X24.2026Y-74.8309

G1X24.5774Y-73.5703

G1X25.1959Y-72.3773

G1X26.0039Y-71.3744

G1X27.0154Y-70.5048

G1X28.1740Y-69.7984

G1X29.4634Y-69.2997

G1X30.9571Y-68.9952

G1X32.3805Y-68.9310

G1X33.7568Y-69.0971

G1X35.1422Y-69.4775

G1X36.4418Y-70.0461

G1X37.5279Y-70.7418

G1X38.6803Y-71.7555

G1X39.5802Y-72.8346

G1X40.4455Y-74.4196

G1X40.9792Y-76.1829

G1X41.1132Y-77.8515

G1X40.8915Y-79.5597

G1X40.3512Y-81.1531

G1X39.4466Y-82.6408

G1X38.2622Y-83.9299

G1X36.8663Y-84.9177

G1X35.1632Y-85.6604

G1X33.4986Y-86.0053

G1X31.6386Y-85.9812

G1X29.9890Y-85.6052

G1X28.4118Y-84.8241

G1X27.6723Y-84.2833

G1X27.1032Y-83.7487

G1X26.5860Y-83.1141

G1X26.1438Y-82.4061

G1X25.7551Y-81.5593

G1X25.5237Y-80.7949

G1X25.3867Y-79.6099

G1X25.4996Y-78.2734

G1X25.8371Y-77.1148

G1X26.4395Y-75.9868

G1X27.2705Y-74.9401

G1X28.2487Y-74.0873

G1X29.4374Y-73.3862

G1X30.7694Y-72.8658

G1X32.0277Y-72.5962

G1X33.4231Y-72.5214

G1X34.8476Y-72.6486

G1X36.1994Y-72.9819

G1X37.6115Y-73.5859

G1X38.8440Y-74.3442

G1X39.8334Y-75.1796

G1X40.7636Y-76.2558

G1X41.7076Y-77.8214

G1X42.2619Y-79.4194

G1X42.4980Y-81.2551

G1X42.3667Y-82.9354

G1X41.8313Y-84.6785

G1X40.9652Y-86.2539

G1X39.8146Y-87.5545

G1X38.3292Y-88.6729

G1X37.5401Y-89.0883

G1X36.6891Y-89.4170

G1X35.7959Y-89.6590

G1X34.7947Y-89.8199

G1X33.1029Y-89.8059

G1X32.1832Y-89.6399

G1X31.2954Y-89.3763

G1X30.4766Y-89.0272

G1X29.7897Y-88.6254

G1X29.1340Y-88.1261

G1X28.4695Y-87.4799

G1X27.9681Y-86.8556

G1X27.5667Y-86.1951

G1X27.2495Y-85.4590

G1X27.0032Y-84.5745

G1X26.8767Y-83.3794

G1X27.0034Y-82.2069

G1X27.3730Y-81.0202

G1X27.9545Y-79.9212

G1X28.7604Y-78.9415

G1X29.8558Y-78.0150

G1X30.9155Y-77.3877

G1X32.1925Y-76.9043

G1X33.5917Y-76.6090

G1X34.9081Y-76.5294

G1X36.3016Y-76.6670

G1X37.7130Y-77.0146

G1X38.9474Y-77.5082

G1X40.1424Y-78.2154

G1X41.2537Y-79.1101

G1X42.2079Y-80.1339

G1X43.1701Y-81.6560

G1X43.8570Y-83.4685

G1X44.1111Y-85.1380

G1X44.0182Y-86.8882

G1X43.6010Y-88.5391

G1X42.7805Y-90.1626

G1X41.6513Y-91.5877

G1X40.3247Y-92.6727

G1X38.6782Y-93.5352

G1X37.8338Y-93.8223

G1X36.9404Y-94.0114

G1X36.0138Y-94.1020

G1X34.9896Y-94.0892

G1X34.1129Y-93.9776

G1X33.2374Y-93.7505

G1X32.3753Y-93.4066

G1X31.5673Y-92.9676

G1X30.8503Y-92.4545

G1X30.2779Y-91.9129

G1X29.7623Y-91.2778

G1X29.2793Y-90.4934

G1X28.9235Y-89.6746

G1X28.7258Y-88.9195

G1X28.6279Y-87.6906

G1X28.7726Y-86.4577

G1X29.1119Y-85.4328

G1X29.7014Y-84.3676

G1X30.4828Y-83.3961

G1X31.3822Y-82.6193

G1X32.6017Y-81.8910

G1X33.8580Y-81.3902

G1X35.1159Y-81.1138

G1X36.5272Y-81.0216

G1X37.8578Y-81.1165

G1X39.1196Y-81.3912

G1X40.4492Y-81.8908

G1X41.7138Y-82.5747

G1X42.7511Y-83.3437

G1X43.7482Y-84.3470

G1X44.8122Y-85.8368

G1X45.5378Y-87.4681

G1X45.9426Y-89.3733

G1X45.9452Y-91.1639

G1X45.5421Y-92.9729

G1X44.7972Y-94.6351

G1X43.7086Y-96.0830

G1X42.2634Y-97.3497

G1X41.5115Y-97.8160

G1X40.5872Y-98.2450

G1X39.6123Y-98.5685

G1X38.6321Y-98.7765

G1X37.7531Y-98.8573

G1X36.8306Y-98.8282

G1X35.9116Y-98.6943

G1X35.0342Y-98.4654

G1X34.2199Y-98.1431

G1X33.4960Y-97.7367

G1X32.7387Y-97.1731

G1X32.0769Y-96.5287

G1X31.5964Y-95.9116

G1X31.2014Y-95.2134

G1X30.8667Y-94.3525

G1X30.6796Y-93.5585

G1X30.6135Y-92.4818

G1X30.7720Y-91.3748

G1X31.1784Y-90.1844

G1X31.7319Y-89.2231

G1X32.5107Y-88.3117

G1X33.4656Y-87.5023

G1X34.5154Y-86.8750

G1X35.6975Y-86.4110

G1X36.9886Y-86.1039

G1X38.3003Y-85.9862

G1X39.6759Y-86.0768

G1X40.9814Y-86.3388

G1X42.2300Y-86.7620

G1X43.3898Y-87.3520

G1X44.5002Y-88.1153

G1X45.4988Y-89.0086

G1X46.0909Y-89.6809

G1X46.6708Y-90.5048

G1X47.1712Y-91.4013

G1X47.5758Y-92.3388

G1X48.0198Y-94.0679

G1X48.0979Y-95.9130

G1X47.8217Y-97.6943

G1X47.1473Y-99.4083

G1X46.6783Y-100.2150

G1X46.0808Y-101.0317

G1X45.4781Y-101.6816

G1X44.7889Y-102.2754

G1X43.9506Y-102.8557

G1X43.0723Y-103.3330

G1X42.2597Y-103.6641

G1X41.3735Y-103.9076

G1X40.3528Y-104.0653

G1X39.3429Y-104.1033

G1X38.4665Y-104.0319

G1X37.5509Y-103.8323

G1X36.6599Y-103.5166

G1X35.7491Y-103.0541

G1X35.0275Y-102.5448

G1X34.4329Y-101.9768

G1X33.8531Y-101.2459

G1X33.3973Y-100.4591

G1X33.1156Y-99.7325

G1X32.9279Y-98.8335

G1X32.8914Y-97.6867

G1X33.0499Y-96.6794

G1X33.4231Y-95.6667

G1X33.9944Y-94.6797

G1X34.6544Y-93.8715

G1X35.4573Y-93.1685

G1X36.4744Y-92.5178

G1X37.6013Y-92.0060

G1X38.7469Y-91.6836

G1X39.9358Y-91.5212

G1X41.1725Y-91.5025

G1X42.3885Y-91.6376

G1X43.6268Y-91.9530

G1X44.8588Y-92.4360

G1X46.0172Y-93.0635

G1X46.9736Y-93.7587

G1X48.4031Y-95.2061

G1X49.0031Y-96.0214

G1X49.4985Y-96.8709

G1X50.1892Y-98.6777

G1X50.4085Y-99.6785

G1X50.5174Y-100.6693

G1X50.5135Y-101.5645

G1X50.3946Y-102.5830

G1X50.1652Y-103.5885

G1X49.8363Y-104.5447

G1X49.4551Y-105.3488

G1X48.9099Y-106.2149

G1X47.6168Y-107.6811

G1X46.7701Y-108.3654

G1X45.8992Y-108.8936

G1X44.9615Y-109.3224

G1X43.9060Y-109.6637

G1X42.9432Y-109.8448

G1X42.0245Y-109.8958

G1X41.0008Y-109.8300

G1X40.0255Y-109.6449

G1X39.0995Y-109.3285

G1X38.2750Y-108.8995

G1X37.4405Y-108.3026

G1X36.8052Y-107.6907

G1X36.2742Y-106.9769

G1X35.8495Y-106.1530

G1X35.5587Y-105.2776

G1X35.4303Y-104.4988

G1X35.4846Y-103.2329

G1X35.8279Y-101.9547

G1X36.3685Y-100.9135

G1X37.1739Y-99.9189

G1X38.1823Y-99.0460

G1X39.2932Y-98.3968

G1X40.6238Y-97.8962

G1X42.0562Y-97.5978

G1X43.4524Y-97.5415

G1X44.8738Y-97.6917

G1X46.2794Y-98.0347

G1X47.5765Y-98.5637

G1X48.9038Y-99.3460

G1X50.1113Y-100.3079

G1X51.0593Y-101.3320

G1X51.8700Y-102.5133

G1X52.6921Y-104.2554

G1X53.1161Y-106.0102

G1X53.1963Y-107.9564

G1X52.9094Y-109.7230

G1X52.2425Y-111.4484

G1X51.7420Y-112.3285

G1X51.2243Y-113.0467

G1X49.9206Y-114.3390

G1X48.3318Y-115.3795

G1X47.4044Y-115.7746

G1X46.4103Y-116.0567

G1X45.4035Y-116.2200

G1X44.4338Y-116.2606

G1X43.5121Y-116.1725

G1X42.5973Y-115.9630

G1X41.7321Y-115.6498

G1X40.9589Y-115.2506

G1X40.2907Y-114.7678

G1X39.6163Y-114.1088

G1X39.0590Y-113.3703

G1X38.6902Y-112.6800

G1X38.4322Y-111.9140

G1X38.2787Y-110.9890

G1X38.2798Y-110.0559

G1X38.4147Y-109.2791

G1X38.8379Y-108.1509

G1X39.4340Y-107.1653

G1X40.1732Y-106.3345

G1X41.1050Y-105.5983

G1X42.1889Y-104.9791

G1X43.3456Y-104.5375

G1X44.6908Y-104.2594

G1X46.0267Y-104.1689

G1X47.3576Y-104.2587

G1X48.6201Y-104.5279

G1X49.9841Y-105.0048

G1X51.1809Y-105.6009

G1X52.2488Y-106.3270

G1X53.2404Y-107.2029

G1X54.1243Y-108.1928

G1X54.8524Y-109.2551

G1X55.4001Y-110.3446

G1X55.8499Y-111.6086

G1X56.1288Y-112.8924

G1X56.2182Y-114.0839

G1X56.1327Y-115.4172

G1X55.8727Y-116.7198

G1X55.4876Y-117.8401

G1X54.9301Y-118.9232

G1X54.1660Y-120.0146

G1X53.2909Y-120.9593

G1X52.3384Y-121.7164

G1X51.2641Y-122.3440

G1X50.1462Y-122.8122

G1X48.9957Y-123.1045

G1X47.7707Y-123.2126

G1X46.4762Y-123.1276

G1X45.4247Y-122.8798

G1X44.3654Y-122.4198

G1X43.4198Y-121.8018

G1X42.6450Y-121.0540

G1X42.0158Y-120.1119

G1X41.5907Y-119.0701

G1X41.4210Y-118.1092

G1X41.4666Y-116.9859

G1X41.7081Y-115.9652

G1X42.1666Y-114.9746

G1X42.8633Y-114.0212

G1X43.7527Y-113.1619

G1X44.6643Y-112.5425

G1X45.8264Y-112.0009

G1X47.0144Y-111.6368

G1X48.2405Y-111.4408

G1 Z0F20000


G00 X0.0000 Y0.0000


