$H
G21
G17
G90
G1 Z0F20000
G1 F15000

(Start Layer)

(Start Block)


G1X25.0337Y-123.0569
G1Z6F20000
(Plotting speed under)
G1 F4000


G1X25.8004Y-122.9106

G1X26.4581Y-122.6684

G1X27.1122Y-122.2443

G1X27.7050Y-121.7108

G1X28.2874Y-121.0186

G1X28.8019Y-120.2443

G1X29.9049Y-118.0828

G1X30.7539Y-115.9256

G1X31.7520Y-112.9241

G1X35.5209Y-99.7157

G1X36.4336Y-97.1818

G1X37.2520Y-95.5323

G1X38.0098Y-94.5940

G1X38.4478Y-94.3354

G1X38.9087Y-94.2422

G1X39.7840Y-94.5654

G1X41.2150Y-95.5505

G1X41.4992Y-95.6290

G1X41.8681Y-95.5864

G1X42.2259Y-95.3613

G1X42.4973Y-95.0113

G1X43.0731Y-93.7341

G1X43.6322Y-91.6493

G1X44.1813Y-88.7807

G1X46.1766Y-75.1732

G1X46.6239Y-73.2508

G1X46.8159Y-72.8040

G1X46.9998Y-72.6016

G1X47.2355Y-72.7188

G1X47.4507Y-73.1380

G1X48.1490Y-75.7297

G1X48.3809Y-76.1692

G1X48.5022Y-76.0666

G1X48.6545Y-75.4207

G1X48.9890Y-71.1675

G1X49.5132Y-58.3583

G1X49.5999Y-64.8117

G1X49.5965Y-64.9030

G1X49.4319Y-51.8247

G1X49.4070Y-58.1965

G1X49.4734Y-62.0844

G1X49.8525Y-54.9451

G1X49.9710Y-53.7186

G1X50.0953Y-53.2433

G1X50.2616Y-53.6379

G1X50.4470Y-55.0373

G1X51.3728Y-64.7700

G1X51.6221Y-66.4407

G1X51.9213Y-67.6290

G1X52.1724Y-68.0214

G1X52.3441Y-68.0260

G1X52.5225Y-67.8584

G1X52.9305Y-66.9543

G1X53.7540Y-64.4409

G1X54.1287Y-63.5533

G1X54.5734Y-62.9212

G1X54.8478Y-62.8306

G1X55.0358Y-62.8863

G1X55.3134Y-63.1656

G1X55.6186Y-63.7235

G1X56.2798Y-65.6627

G1X56.8864Y-68.0773

G1X58.3571Y-74.7343

G1X59.3434Y-78.5489

G1X60.1613Y-80.8675

G1X60.9383Y-82.2633

G1X61.6295Y-82.9124

G1X62.0005Y-83.0451

G1X62.4746Y-83.0614

G1X63.1959Y-82.7801

G1X65.1910Y-81.3690

G1X66.1400Y-80.8876

G1X66.7271Y-80.8121

G1X67.2264Y-80.8706

G1X67.7044Y-81.0753

G1X68.2848Y-81.5105

G1X68.8771Y-82.1507

G1X69.4939Y-83.0364

G1X70.9129Y-85.7850

G1X72.4098Y-89.4618

G1X75.3132Y-97.1662

G1X76.9363Y-100.9015

G1X78.2849Y-103.3978

G1X79.6545Y-105.3087

G1X80.4299Y-106.0944

G1X81.2182Y-106.7024

G1X81.9977Y-107.1356

G1X82.7672Y-107.3927

G1X84.3420Y-107.5942

G1X87.7664Y-107.3050

G1X89.2681Y-107.3543

G1X90.5812Y-107.6155

G1X92.0121Y-108.2545

G1X93.5320Y-109.3490

G1X95.1454Y-111.0073

G1X96.6765Y-113.0052

G1X97.0001Y-113.5084

G1 Z0F20000


G00 X0.0000 Y0.0000


