$H
G21
G17
G90
G1 Z0F20000
G1 F15000
(Start Layer)
(Start Block)

G1X19.0078Y-107.9849
G1Z6F20000
(Plotting speed under)
G1 F8000

G1X21.2964Y-107.1157
G1X24.3181Y-105.6787
G1X25.5739Y-105.1798
G1X27.3388Y-104.7263
G1X29.1478Y-104.5265
G1X31.2206Y-104.5467
G1X33.5561Y-104.7938
G1X40.8660Y-106.2117
G1X43.2607Y-106.5656
G1X45.6741Y-106.6894
G1X47.8991Y-106.5212
G1X49.7225Y-106.1342
G1X51.4120Y-105.5227
G1X52.4494Y-104.9873
G1X55.7752Y-102.9755
G1X57.5494Y-102.1717
G1X58.5313Y-101.8876
G1X59.6390Y-101.6892
G1X62.0404Y-101.5779
G1X63.8645Y-101.6951
G1X65.8482Y-101.9785
G1X67.7623Y-102.4012
G1X69.6157Y-102.9583
G1X71.5378Y-103.7044
G1X73.3406Y-104.5732
G1X75.0383Y-105.5402
G1X78.0469Y-107.4201
G1X79.3109Y-108.0631
G1X80.5076Y-108.4516
G1X84.8438Y-109.3850
G1 Z0F20000
(Start Block)

G1X19.0577Y-106.7186
G1Z6F20000
(Plotting speed under)
G1 F8000

G1X21.4238Y-105.7900
G1X24.4062Y-104.2870
G1X25.6369Y-103.7735
G1X27.3919Y-103.3044
G1X29.1890Y-103.1014
G1X31.3487Y-103.1322
G1X33.8064Y-103.4208
G1X36.1739Y-103.8684
G1X41.3318Y-105.0296
G1X43.7231Y-105.4246
G1X46.1330Y-105.5692
G1X48.2921Y-105.4052
G1X50.0176Y-105.0290
G1X51.6132Y-104.4372
G1X52.8368Y-103.7791
G1X56.0608Y-101.8035
G1X57.8025Y-100.9970
G1X58.7726Y-100.7053
G1X59.8058Y-100.5062
G1X62.2533Y-100.3621
G1X64.0550Y-100.4558
G1X65.9737Y-100.6975
G1X67.8977Y-101.0790
G1X69.7855Y-101.5938
G1X71.6252Y-102.2387
G1X73.4997Y-103.0487
G1X78.2412Y-105.5956
G1X79.6735Y-106.2565
G1X80.8278Y-106.6085
G1X85.3327Y-107.5704
G1 Z0F20000
(Start Block)

G1X19.0889Y-105.4927
G1Z6F20000
(Plotting speed under)
G1 F8000

G1X21.5355Y-104.5168
G1X24.4910Y-102.9687
G1X25.7198Y-102.4444
G1X27.4581Y-101.9765
G1X29.3641Y-101.7753
G1X31.6019Y-101.8393
G1X34.0789Y-102.1701
G1X36.4628Y-102.6628
G1X41.5776Y-103.9165
G1X43.9440Y-104.3514
G1X46.3463Y-104.5267
G1X48.4730Y-104.3787
G1X50.2069Y-104.0011
G1X51.8152Y-103.3922
G1X53.1394Y-102.6622
G1X56.4286Y-100.6146
G1X58.0655Y-99.8340
G1X59.0206Y-99.5301
G1X60.1531Y-99.3002
G1X62.5572Y-99.1429
G1X64.3408Y-99.2179
G1X66.2873Y-99.4383
G1X68.2014Y-99.7858
G1X70.0250Y-100.2399
G1X71.7760Y-100.7941
G1X73.5757Y-101.4869
G1X78.5107Y-103.8250
G1X79.9509Y-104.4169
G1X81.0480Y-104.7286
G1X85.7090Y-105.7056
G1 Z0F20000
(Start Block)

G1X19.0977Y-104.3232
G1Z6F20000
(Plotting speed under)
G1 F8000

G1X21.5375Y-103.3597
G1X24.4878Y-101.7916
G1X25.7116Y-101.2575
G1X27.4438Y-100.7819
G1X29.3474Y-100.5797
G1X31.5883Y-100.6508
G1X34.1770Y-101.0190
G1X36.6696Y-101.5705
G1X41.7808Y-102.9092
G1X44.1474Y-103.3719
G1X46.4262Y-103.5564
G1X48.6404Y-103.4094
G1X50.3884Y-103.0206
G1X52.0152Y-102.3877
G1X53.5384Y-101.5278
G1X56.8250Y-99.4353
G1X58.4423Y-98.6432
G1X59.3844Y-98.3337
G1X60.3856Y-98.1162
G1X62.8224Y-97.9227
G1X64.6161Y-97.9769
G1X66.4833Y-98.1596
G1X68.3803Y-98.4643
G1X70.2455Y-98.8810
G1X72.0007Y-99.3817
G1X73.8183Y-100.0107
G1X78.7092Y-102.0625
G1X80.1038Y-102.5748
G1X81.1778Y-102.8588
G1X85.9632Y-103.8396
G1 Z0F20000
(Start Block)

G1X19.0809Y-103.2202
G1Z6F20000
(Plotting speed under)
G1 F8000

G1X21.6187Y-102.2433
G1X24.4955Y-100.7229
G1X25.8350Y-100.1482
G1X27.5767Y-99.6930
G1X29.4903Y-99.5139
G1X31.7216Y-99.6113
G1X34.3097Y-100.0117
G1X36.7912Y-100.5945
G1X41.7575Y-101.9621
G1X44.1015Y-102.4475
G1X46.4824Y-102.6535
G1X48.6869Y-102.5073
G1X50.5581Y-102.0825
G1X52.2099Y-101.4208
G1X53.9422Y-100.4263
G1X57.2327Y-98.2743
G1X58.8287Y-97.4641
G1X59.7567Y-97.1463
G1X60.7426Y-96.9211
G1X63.1891Y-96.7074
G1X64.8934Y-96.7425
G1X66.7824Y-96.9029
G1X68.6652Y-97.1752
G1X70.5106Y-97.5486
G1X73.9524Y-98.5267
G1X80.1897Y-100.7904
G1X86.1044Y-102.0240
G1 Z0F20000
(Start Block)

G1X19.0980Y-102.0292
G1Z6F20000
(Plotting speed under)
G1 F8000

G1X21.6198Y-101.0910
G1X24.5918Y-99.5456
G1X25.8395Y-99.0245
G1X27.5861Y-98.5792
G1X29.5047Y-98.4119
G1X31.7397Y-98.5250
G1X34.3274Y-98.9467
G1X36.8022Y-99.5529
G1X41.8453Y-100.9995
G1X44.0579Y-101.4788
G1X46.4243Y-101.7078
G1X48.7318Y-101.5696
G1X50.6196Y-101.1476
G1X52.3620Y-100.4518
G1X54.2529Y-99.3735
G1X57.7532Y-97.0726
G1X59.2438Y-96.3153
G1X60.1667Y-95.9933
G1X61.1455Y-95.7634
G1X63.5020Y-95.5370
G1X65.2332Y-95.5558
G1X67.0412Y-95.6879
G1X70.7245Y-96.2585
G1X74.0931Y-97.1158
G1X80.2145Y-99.0783
G1X86.1606Y-100.2335
G1 Z0F20000
(Start Block)

G1X19.1639Y-100.6992
G1Z6F20000
(Plotting speed under)
G1 F8000

G1X21.6442Y-99.8041
G1X24.5808Y-98.2955
G1X25.8211Y-97.7877
G1X27.6753Y-97.3416
G1X29.6011Y-97.2056
G1X31.8295Y-97.3468
G1X34.4262Y-97.7978
G1X36.9038Y-98.4313
G1X41.9462Y-99.9366
G1X44.1453Y-100.4358
G1X46.5007Y-100.6834
G1X48.7892Y-100.5643
G1X50.7920Y-100.1254
G1X52.5254Y-99.4357
G1X54.4668Y-98.3586
G1X58.0906Y-96.0195
G1X59.6989Y-95.2101
G1X60.6296Y-94.8890
G1X61.6131Y-94.6575
G1X63.8979Y-94.4240
G1X67.1748Y-94.5205
G1X70.7912Y-95.0040
G1X74.0099Y-95.7186
G1X80.2000Y-97.4421
G1X86.1427Y-98.4611
G1 Z0F20000
(Start Block)

G1X19.2562Y-99.2527
G1Z6F20000
(Plotting speed under)
G1 F8000

G1X21.7046Y-98.3961
G1X24.4614Y-96.9947
G1X25.7799Y-96.4623
G1X27.6256Y-96.0387
G1X29.5526Y-95.9186
G1X31.8931Y-96.0861
G1X34.6106Y-96.5859
G1X37.0990Y-97.2491
G1X42.0627Y-98.7860
G1X44.3646Y-99.3320
G1X46.7135Y-99.5919
G1X48.9665Y-99.4848
G1X50.9731Y-99.0551
G1X52.7809Y-98.3421
G1X54.8648Y-97.2199
G1X58.4472Y-95.0029
G1X60.0945Y-94.1960
G1X61.0406Y-93.8694
G1X62.1461Y-93.6078
G1X64.4830Y-93.3654
G1X67.5486Y-93.4318
G1X70.8290Y-93.8099
G1X73.9775Y-94.4124
G1X80.0591Y-95.8637
G1X86.0599Y-96.7252
G1 Z0F20000
(Start Block)

G1X19.3500Y-97.7110
G1Z6F20000
(Plotting speed under)
G1 F8000

G1X21.6303Y-96.9554
G1X24.4456Y-95.5637
G1X25.8197Y-95.0397
G1X27.6585Y-94.6615
G1X29.6756Y-94.5745
G1X32.1406Y-94.7918
G1X34.7776Y-95.3061
G1X37.2857Y-95.9933
G1X42.3031Y-97.5908
G1X44.4942Y-98.1380
G1X46.8331Y-98.4344
G1X49.0567Y-98.3658
G1X51.0565Y-97.9740
G1X52.8552Y-97.3071
G1X54.9788Y-96.2425
G1X58.8576Y-94.0091
G1X60.6341Y-93.1972
G1X62.7404Y-92.6203
G1X65.1392Y-92.3688
G1X67.7845Y-92.3945
G1X70.7453Y-92.6664
G1X73.7984Y-93.1501
G1X80.0230Y-94.3868
G1X85.9257Y-95.0402
G1 Z0F20000
(Start Block)

G1X19.4223Y-96.0963
G1Z6F20000
(Plotting speed under)
G1 F8000

G1X21.6388Y-95.4069
G1X24.3727Y-94.1006
G1X25.7253Y-93.6100
G1X27.6637Y-93.2486
G1X29.7732Y-93.1940
G1X32.2614Y-93.4400
G1X35.0331Y-94.0000
G1X37.5656Y-94.7095
G1X42.6639Y-96.3649
G1X44.8595Y-96.9267
G1X47.0851Y-97.2278
G1X49.2654Y-97.1882
G1X51.1492Y-96.8533
G1X52.9576Y-96.2322
G1X55.0873Y-95.2565
G1X59.3055Y-93.0561
G1X61.2131Y-92.2634
G1X63.4475Y-91.6923
G1X65.9655Y-91.4359
G1X68.3016Y-91.4390
G1X70.8737Y-91.6220
G1X73.6920Y-91.9799
G1X79.9995Y-92.9842
G1X85.7564Y-93.4160
G1 Z0F20000
(Start Block)

G1X19.4549Y-94.4327
G1Z6F20000
(Plotting speed under)
G1 F8000

G1X21.6142Y-93.8183
G1X24.3732Y-92.5706
G1X25.7084Y-92.1328
G1X27.6435Y-91.8193
G1X29.9495Y-91.7997
G1X32.5740Y-92.0945
G1X35.3794Y-92.6839
G1X38.0438Y-93.4456
G1X43.0310Y-95.0863
G1X45.0165Y-95.6177
G1X47.0125Y-95.9455
G1X48.8792Y-96.0079
G1X50.6210Y-95.8253
G1X52.2040Y-95.4339
G1X54.6936Y-94.4807
G1X59.1773Y-92.4168
G1X60.9342Y-91.7013
G1X63.0740Y-91.0645
G1X65.2126Y-90.7024
G1X67.6235Y-90.5529
G1X70.4117Y-90.6153
G1X73.3038Y-90.8592
G1X79.9989Y-91.6515
G1X85.5687Y-91.8579
G1 Z0F20000
(Start Block)

G1X19.4369Y-92.7451
G1Z6F20000
(Plotting speed under)
G1 F8000

G1X21.5660Y-92.2074
G1X24.2438Y-91.0817
G1X25.6677Y-90.6593
G1X27.7145Y-90.3835
G1X30.1085Y-90.4033
G1X32.8711Y-90.7371
G1X35.8202Y-91.3712
G1X38.4071Y-92.1148
G1X43.5435Y-93.8081
G1X45.5097Y-94.3379
G1X47.5125Y-94.6725
G1X49.4133Y-94.7372
G1X50.9441Y-94.5855
G1X52.3046Y-94.2806
G1X54.7886Y-93.4547
G1X61.3600Y-90.9453
G1X63.5895Y-90.3398
G1X65.8799Y-89.9538
G1X68.1759Y-89.7752
G1X70.6602Y-89.7579
G1X73.4411Y-89.8875
G1X80.1302Y-90.3885
G1X82.7538Y-90.4329
G1X85.3787Y-90.3675
G1 Z0F20000
(Start Block)

G1X19.3652Y-91.0582
G1Z6F20000
(Plotting speed under)
G1 F8000

G1X21.4629Y-90.6071
G1X24.1926Y-89.5724
G1X25.7148Y-89.1857
G1X27.8865Y-88.9613
G1X30.3602Y-89.0236
G1X33.2654Y-89.3962
G1X36.2492Y-90.0437
G1X38.9720Y-90.8254
G1X44.1526Y-92.5252
G1X46.1166Y-93.0507
G1X48.1291Y-93.3834
G1X49.9497Y-93.4454
G1X51.2695Y-93.3280
G1X52.6182Y-93.0531
G1X54.9826Y-92.3914
G1X61.8792Y-90.2292
G1X64.1998Y-89.6789
G1X66.5452Y-89.2951
G1X68.6228Y-89.0930
G1X70.9890Y-88.9922
G1X80.6047Y-89.1784
G1X82.8812Y-89.1144
G1X85.2006Y-88.9432
G1 Z0F20000
(Start Block)

G1X19.2441Y-89.3944
G1Z6F20000
(Plotting speed under)
G1 F8000

G1X21.3266Y-89.0302
G1X24.1290Y-88.0984
G1X25.7569Y-87.7495
G1X28.0575Y-87.5696
G1X30.7140Y-87.6711
G1X33.6523Y-88.0602
G1X36.7229Y-88.7218
G1X39.5283Y-89.5181
G1X44.7598Y-91.2166
G1X46.7234Y-91.7401
G1X48.6325Y-92.0641
G1X50.4680Y-92.1427
G1X51.6970Y-92.0466
G1X53.0323Y-91.8093
G1X62.5972Y-89.5415
G1X65.0003Y-89.0662
G1X67.4018Y-88.6965
G1X72.3958Y-88.2550
G1X81.4908Y-87.9668
G1X85.0457Y-87.5817
G1 Z0F20000
(Start Block)

G1X19.0846Y-87.7725
G1Z6F20000
(Plotting speed under)
G1 F8000

G1X21.1675Y-87.4922
G1X24.0657Y-86.6697
G1X25.9122Y-86.3449
G1X28.4681Y-86.2129
G1X31.2860Y-86.3620
G1X34.2589Y-86.7723
G1X37.4549Y-87.4635
G1X40.1847Y-88.2316
G1X45.3627Y-89.8904
G1X47.3269Y-90.4151
G1X49.2453Y-90.7480
G1X51.0815Y-90.8356
G1X52.2218Y-90.7557
G1X54.7579Y-90.3934
G1X64.7514Y-88.7034
G1X69.2096Y-88.0370
G1X74.4137Y-87.4335
G1X81.6027Y-86.8142
G1X84.9224Y-86.2785
G1 Z0F20000
(Start Block)

G1X18.9019Y-86.2066
G1Z6F20000
(Plotting speed under)
G1 F8000

G1X20.9989Y-86.0045
G1X24.1168Y-85.2724
G1X26.1961Y-84.9832
G1X28.9328Y-84.8984
G1X31.8698Y-85.0783
G1X34.9089Y-85.5025
G1X38.0842Y-86.1792
G1X40.9443Y-86.9702
G1X46.2575Y-88.6434
G1X48.1518Y-89.1363
G1X50.0800Y-89.4595
G1X51.8047Y-89.5360
G1X59.0510Y-88.9755
G1X65.3051Y-88.2532
G1X77.3265Y-86.3250
G1X81.6378Y-85.7237
G1X84.8361Y-85.0288
G1 Z0F20000
(Start Block)

G1X18.7135Y-84.7059
G1Z6F20000
(Plotting speed under)
G1 F8000

G1X21.0498Y-84.5470
G1X24.1971Y-83.9366
G1X26.4046Y-83.6841
G1X29.1015Y-83.6155
G1X31.9233Y-83.7656
G1X35.2214Y-84.1852
G1X38.5102Y-84.8485
G1X41.5618Y-85.6642
G1X47.4488Y-87.4807
G1X49.9974Y-88.0619
G1X52.0568Y-88.2596
G1X58.8879Y-88.2715
G1X64.0970Y-88.0265
G1X66.4997Y-87.7680
G1X68.9892Y-87.3943
G1X72.3327Y-86.7365
G1X78.6422Y-85.2722
G1X81.9071Y-84.6393
G1X84.7890Y-83.8281
G1 Z0F20000
(Start Block)

G1X18.5372Y-83.2755
G1Z6F20000
(Plotting speed under)
G1 F8000

G1X21.0178Y-83.1765
G1X24.6293Y-82.6214
G1X27.2005Y-82.4042
G1X30.1085Y-82.3841
G1X33.1839Y-82.5865
G1X36.4298Y-83.0285
G1X39.6320Y-83.6884
G1X42.5916Y-84.4819
G1X48.2420Y-86.2177
G1X50.7042Y-86.7935
G1X51.9607Y-86.9634
G1X58.5807Y-87.5302
G1X62.5986Y-87.6782
G1X64.6677Y-87.6072
G1X66.7947Y-87.4160
G1X68.8320Y-87.1189
G1X70.9623Y-86.6923
G1X73.8411Y-85.9475
G1X79.1914Y-84.3353
G1X82.0902Y-83.6084
G1X84.7804Y-82.6718
G1 Z0F20000
(Start Block)

G1X18.3892Y-81.9170
G1Z6F20000
(Plotting speed under)
G1 F8000

G1X21.0227Y-81.8762
G1X25.3296Y-81.3568
G1X28.3820Y-81.1684
G1X31.5618Y-81.2031
G1X34.9063Y-81.4782
G1X37.9457Y-81.9353
G1X41.0570Y-82.6076
G1X43.8178Y-83.3645
G1X49.0337Y-84.9794
G1X51.2099Y-85.5216
G1X59.6937Y-86.9529
G1X61.8147Y-87.1700
G1X63.8728Y-87.2368
G1X65.8385Y-87.1611
G1X67.8009Y-86.9515
G1X69.7925Y-86.6060
G1X71.8884Y-86.1038
G1X74.6474Y-85.2455
G1X79.5210Y-83.4637
G1X82.1884Y-82.6432
G1X84.8074Y-81.5560
G1 Z0F20000
(Start Block)

G1X18.2830Y-80.6305
G1Z6F20000
(Plotting speed under)
G1 F8000

G1X21.2973Y-80.6346
G1X26.5185Y-80.1238
G1X29.7221Y-79.9756
G1X33.1499Y-80.0563
G1X36.6498Y-80.3942
G1X39.4711Y-80.8570
G1X42.3886Y-81.5165
G1X44.9536Y-82.2371
G1X50.5259Y-83.9809
G1X54.1402Y-84.8285
G1X59.1953Y-86.1982
G1X61.8648Y-86.6626
G1X64.4488Y-86.8035
G1X66.4009Y-86.7172
G1X68.4176Y-86.4694
G1X70.4873Y-86.0572
G1X72.5641Y-85.4881
G1X75.0119Y-84.6283
G1X79.6277Y-82.6872
G1X82.1975Y-81.7542
G1X84.8647Y-80.4763
G1 Z0F20000
(Start Block)

G1X18.2284Y-79.4155
G1Z6F20000
(Plotting speed under)
G1 F8000

G1X21.7443Y-79.4674
G1X27.8684Y-78.9381
G1X31.2074Y-78.8106
G1X34.8660Y-78.9374
G1X38.3966Y-79.3311
G1X41.7168Y-79.9525
G1X45.1224Y-80.8431
G1X50.8206Y-82.6890
G1X53.8573Y-83.5728
G1X58.2063Y-85.1920
G1X59.8929Y-85.7233
G1X62.1388Y-86.1721
G1X64.5708Y-86.3218
G1X66.5626Y-86.2291
G1X68.7285Y-85.9429
G1X70.9234Y-85.4692
G1X73.0332Y-84.8413
G1X75.5633Y-83.8690
G1X79.9259Y-81.8409
G1X82.2060Y-80.9044
G1X84.9457Y-79.4280
G1 Z0F20000
(Start Block)

G1X18.2309Y-78.2720
G1Z6F20000
(Plotting speed under)
G1 F8000

G1X20.5084Y-78.3911
G1X22.4809Y-78.3744
G1X29.2509Y-77.7845
G1X32.5953Y-77.6624
G1X36.2764Y-77.8111
G1X39.8351Y-78.2431
G1X43.8832Y-79.0935
G1X48.0289Y-80.3495
G1X53.6720Y-82.3125
G1X58.3228Y-84.4899
G1X60.0893Y-85.1604
G1X62.1031Y-85.6051
G1X64.3618Y-85.7574
G1X66.5512Y-85.6568
G1X68.8265Y-85.3489
G1X71.1322Y-84.8383
G1X73.3561Y-84.1511
G1X76.1062Y-83.0293
G1X80.1586Y-81.0066
G1X82.2038Y-80.0834
G1X83.5375Y-79.3544
G1X85.0425Y-78.4052
G1 Z0F20000
(Start Block)

G1X18.2914Y-77.2016
G1Z6F20000
(Plotting speed under)
G1 F8000

G1X21.0013Y-77.3738
G1X23.2813Y-77.3694
G1X30.3269Y-76.6710
G1X33.7622Y-76.5239
G1X37.3762Y-76.6724
G1X40.9935Y-77.1325
G1X43.6365Y-77.6734
G1X46.2720Y-78.3908
G1X48.7252Y-79.2086
G1X52.7088Y-80.7022
G1X54.7836Y-81.6827
G1X58.4329Y-83.8159
G1X59.9484Y-84.4824
G1X61.8986Y-84.9461
G1X64.1338Y-85.0909
G1X66.5077Y-84.9765
G1X69.0188Y-84.6303
G1X71.3878Y-84.0956
G1X73.7673Y-83.3381
G1X76.5101Y-82.1722
G1X82.1830Y-79.2775
G1X83.5453Y-78.4850
G1X85.1467Y-77.4006
G1 Z0F20000
(Start Block)

G1X18.4059Y-76.2072
G1Z6F20000
(Plotting speed under)
G1 F8000

G1X21.5463Y-76.4436
G1X23.9033Y-76.4555
G1X25.8745Y-76.2868
G1X31.3075Y-75.5786
G1X34.7088Y-75.3958
G1X38.3852Y-75.5420
G1X41.9756Y-76.0194
G1X44.5302Y-76.5677
G1X47.0757Y-77.2955
G1X49.5325Y-78.1651
G1X52.7100Y-79.4611
G1X54.5098Y-80.4107
G1X58.1152Y-82.9027
G1X59.6695Y-83.7122
G1X61.3964Y-84.1580
G1X63.7575Y-84.3148
G1X66.4147Y-84.1901
G1X69.0708Y-83.8351
G1X71.5488Y-83.2851
G1X73.9455Y-82.5240
G1X76.9033Y-81.2425
G1X82.1089Y-78.4870
G1X83.5378Y-77.6227
G1X85.2499Y-76.4046
G1 Z0F20000
(Start Block)

G1X18.5655Y-75.2928
G1Z6F20000
(Plotting speed under)
G1 F8000

G1X22.2316Y-75.6106
G1X24.5519Y-75.6180
G1X26.6220Y-75.3960
G1X32.0882Y-74.5213
G1X35.4416Y-74.2847
G1X38.9838Y-74.3985
G1X42.5823Y-74.8712
G1X45.0428Y-75.4072
G1X47.5007Y-76.1270
G1X49.8759Y-77.0014
G1X52.6100Y-78.1935
G1X54.5924Y-79.3530
G1X57.9818Y-82.0678
G1X58.6525Y-82.5164
G1X59.3821Y-82.8792
G1X60.1707Y-83.1356
G1X60.9981Y-83.2951
G1X63.3687Y-83.4335
G1X66.1403Y-83.3186
G1X68.9565Y-82.9776
G1X71.5791Y-82.4252
G1X74.0311Y-81.6639
G1X77.0323Y-80.3682
G1X82.0553Y-77.6526
G1X83.5513Y-76.7225
G1X85.3443Y-75.4060
G1 Z0F20000
(Start Block)

G1X18.7564Y-74.4624
G1Z6F20000
(Plotting speed under)
G1 F8000

G1X22.9352Y-74.8748
G1X24.9835Y-74.8675
G1X27.1634Y-74.5890
G1X32.7788Y-73.4969
G1X34.4459Y-73.2973
G1X36.1955Y-73.1945
G1X39.6133Y-73.2861
G1X43.0202Y-73.7292
G1X45.4838Y-74.2714
G1X47.8484Y-74.9812
G1X50.1365Y-75.8550
G1X52.6089Y-76.9976
G1X53.6823Y-77.6181
G1X54.6686Y-78.3180
G1X55.7560Y-79.2357
G1X57.8217Y-81.1834
G1X58.4591Y-81.6513
G1X59.0264Y-81.9498
G1X59.7530Y-82.1925
G1X60.5325Y-82.3371
G1X62.9858Y-82.4601
G1X66.1544Y-82.3394
G1X69.0258Y-82.0123
G1X71.7007Y-81.4667
G1X74.1458Y-80.7183
G1X75.7177Y-80.0947
G1X77.2042Y-79.3977
G1X81.9812Y-76.7777
G1X83.5164Y-75.8111
G1X85.4228Y-74.3908
G1 Z0F20000
(Start Block)

G1X18.9603Y-73.7189
G1Z6F20000
(Plotting speed under)
G1 F8000

G1X23.0185Y-74.1839
G1X24.8366Y-74.2267
G1X27.1628Y-73.9418
G1X32.6791Y-72.6505
G1X35.5545Y-72.2197
G1X37.4260Y-72.1194
G1X39.3261Y-72.1503
G1X41.2598Y-72.3063
G1X43.1940Y-72.5828
G1X45.6495Y-73.1119
G1X48.0184Y-73.8257
G1X50.3144Y-74.7259
G1X52.6337Y-75.8512
G1X53.6801Y-76.4963
G1X54.7364Y-77.3074
G1X55.7867Y-78.2856
G1X57.6181Y-80.2164
G1X58.1939Y-80.6797
G1X58.7126Y-80.9659
G1X59.3905Y-81.1888
G1X60.1828Y-81.3199
G1X62.8927Y-81.4133
G1X66.1731Y-81.2968
G1X69.0953Y-80.9849
G1X71.7090Y-80.4710
G1X74.2298Y-79.7129
G1X75.7461Y-79.1157
G1X77.3646Y-78.3557
G1X81.8921Y-75.8410
G1X83.4602Y-74.8501
G1X85.4789Y-73.3436
G1 Z0F20000
(Start Block)

G1X19.1555Y-73.0615
G1Z6F20000
(Plotting speed under)
G1 F8000

G1X23.3795Y-73.5949
G1X25.2223Y-73.6217
G1X27.6725Y-73.2555
G1X33.2028Y-71.7472
G1X35.9422Y-71.2454
G1X37.6712Y-71.1073
G1X39.5170Y-71.0997
G1X41.4180Y-71.2260
G1X43.3138Y-71.4783
G1X45.7509Y-71.9891
G1X48.1139Y-72.6994
G1X50.3126Y-73.5717
G1X52.5463Y-74.6852
G1X53.5816Y-75.3408
G1X54.6330Y-76.1781
G1X55.7297Y-77.2601
G1X57.4394Y-79.2136
G1X57.9186Y-79.6283
G1X58.4547Y-79.9346
G1X59.1007Y-80.1358
G1X59.9915Y-80.2569
G1X63.1961Y-80.3125
G1X66.5993Y-80.1814
G1X69.3575Y-79.8774
G1X71.9460Y-79.3581
G1X74.3823Y-78.6130
G1X76.6304Y-77.6734
G1X79.0760Y-76.3788
G1X82.7533Y-74.2396
G1X85.5062Y-72.2471
G1 Z0F20000
(Start Block)

G1X19.3181Y-72.4849
G1Z6F20000
(Plotting speed under)
G1 F8000

G1X23.5870Y-73.0632
G1X25.5565Y-73.0691
G1X26.8081Y-72.9003
G1X28.1462Y-72.6074
G1X33.6336Y-70.9142
G1X36.2552Y-70.3393
G1X37.8493Y-70.1621
G1X39.5407Y-70.1085
G1X41.3084Y-70.1834
G1X43.1618Y-70.3924
G1X45.5895Y-70.8628
G1X47.9348Y-71.5403
G1X50.2292Y-72.4400
G1X52.3718Y-73.5185
G1X53.4799Y-74.2228
G1X54.5240Y-75.0701
G1X55.5936Y-76.1549
G1X57.2916Y-78.1770
G1X57.7477Y-78.5758
G1X58.2651Y-78.8629
G1X58.9991Y-79.0623
G1X59.9077Y-79.1540
G1X64.0289Y-79.1718
G1X67.1605Y-79.0190
G1X69.7802Y-78.6965
G1X72.2684Y-78.1616
G1X74.6297Y-77.4036
G1X76.7124Y-76.5058
G1X78.9838Y-75.2833
G1X82.6562Y-73.1129
G1X85.4968Y-71.0833
G1 Z0F20000
(Start Block)

G1X19.4246Y-71.9777
G1Z6F20000
(Plotting speed under)
G1 F8000

G1X23.7406Y-72.5816
G1X24.7827Y-72.6196
G1X25.8087Y-72.5522
G1X27.0951Y-72.3482
G1X28.5745Y-71.9851
G1X34.0627Y-70.1339
G1X36.5919Y-69.4993
G1X38.1747Y-69.2805
G1X39.7323Y-69.1963
G1X41.4692Y-69.2393
G1X43.1807Y-69.4087
G1X45.4795Y-69.8246
G1X47.7918Y-70.4672
G1X49.9700Y-71.2993
G1X52.1107Y-72.3616
G1X53.2805Y-73.0868
G1X54.3261Y-73.9204
G1X55.3789Y-74.9738
G1X57.1804Y-77.1083
G1X57.6340Y-77.4876
G1X58.1548Y-77.7562
G1X58.8995Y-77.9384
G1X59.9280Y-78.0235
G1X64.6686Y-78.0100
G1X67.4919Y-77.8377
G1X70.0301Y-77.4904
G1X72.4367Y-76.9369
G1X74.7021Y-76.1756
G1X76.5824Y-75.3441
G1X78.5548Y-74.2736
G1X82.5449Y-71.8636
G1X85.4399Y-69.8345
G1 Z0F20000
(Start Block)

G1X19.4549Y-71.5042
G1Z6F20000
(Plotting speed under)
G1 F8000

G1X23.8109Y-72.1214
G1X24.8499Y-72.1463
G1X25.9698Y-72.0550
G1X27.3832Y-71.8031
G1X28.9851Y-71.3761
G1X34.5831Y-69.3765
G1X37.0387Y-68.7017
G1X38.5145Y-68.4595
G1X40.0578Y-68.3402
G1X41.6515Y-68.3483
G1X43.2223Y-68.4740
G1X45.4855Y-68.8470
G1X47.7561Y-69.4496
G1X49.9049Y-70.2488
G1X51.9379Y-71.2376
G1X53.1763Y-71.9885
G1X54.2194Y-72.8027
G1X55.2653Y-73.8228
G1X57.0829Y-75.9090
G1X57.5236Y-76.2787
G1X58.0504Y-76.5634
G1X58.8287Y-76.7683
G1X59.9897Y-76.8690
G1X65.1166Y-76.8299
G1X67.8483Y-76.6217
G1X70.2816Y-76.2458
G1X72.5787Y-75.6783
G1X74.7274Y-74.9249
G1X76.4824Y-74.1302
G1X78.3267Y-73.1167
G1X82.5204Y-70.5468
G1X85.3929Y-68.6071
G1 Z0F20000
(Start Block)

G1X19.4041Y-71.0195
G1Z6F20000
(Plotting speed under)
G1 F8000

G1X23.7961Y-71.6493
G1X24.9346Y-71.6613
G1X26.1558Y-71.5409
G1X27.7077Y-71.2390
G1X29.3586Y-70.7778
G1X35.1874Y-68.6275
G1X37.5771Y-67.9241
G1X39.0591Y-67.6483
G1X40.4853Y-67.5067
G1X42.0259Y-67.4818
G1X43.5704Y-67.5786
G1X45.7233Y-67.9023
G1X47.7992Y-68.4198
G1X49.9191Y-69.1697
G1X51.8504Y-70.0728
G1X53.0822Y-70.7897
G1X54.1401Y-71.5773
G1X55.2820Y-72.6416
G1X57.1761Y-74.6952
G1X57.7496Y-75.1352
G1X58.3163Y-75.4039
G1X59.2240Y-75.6104
G1X60.5272Y-75.7048
G1X65.3379Y-75.6386
G1X67.9494Y-75.4138
G1X70.2619Y-75.0396
G1X72.5245Y-74.4719
G1X74.6440Y-73.7259
G1X76.2655Y-72.9983
G1X77.9241Y-72.1092
G1X85.4190Y-67.5051
G1 Z0F20000
(Start Block)

G1X19.2812Y-70.4962
G1Z6F20000
(Plotting speed under)
G1 F8000

G1X23.7053Y-71.1379
G1X24.9285Y-71.1409
G1X26.2730Y-70.9979
G1X27.9728Y-70.6563
G1X29.8887Y-70.1082
G1X35.9783Y-67.8280
G1X38.3040Y-67.1216
G1X39.6908Y-66.8403
G1X41.1162Y-66.6720
G1X42.5801Y-66.6221
G1X44.1046Y-66.6930
G1X46.1155Y-66.9653
G1X48.1824Y-67.4525
G1X50.1089Y-68.1058
G1X52.0129Y-68.9636
G1X53.0887Y-69.5687
G1X54.1640Y-70.3289
G1X55.2618Y-71.2838
G1X57.3691Y-73.3994
G1X57.9594Y-73.8378
G1X58.5894Y-74.1437
G1X59.5310Y-74.3785
G1X60.8543Y-74.4968
G1X62.9739Y-74.5186
G1X65.3264Y-74.4357
G1X67.9035Y-74.2026
G1X70.1608Y-73.8338
G1X72.3769Y-73.2844
G1X74.4552Y-72.5709
G1X75.9422Y-71.9296
G1X77.5246Y-71.1234
G1X85.5050Y-66.5124
G1 Z0F20000
(Start Block)

G1X19.1034Y-69.9123
G1Z6F20000
(Plotting speed under)
G1 F8000

G1X23.5559Y-70.5657
G1X24.9660Y-70.5586
G1X26.5490Y-70.3734
G1X28.4064Y-69.9852
G1X30.4900Y-69.3812
G1X36.7463Y-67.0343
G1X39.1132Y-66.2974
G1X40.5134Y-65.9982
G1X41.8323Y-65.8231
G1X43.3057Y-65.7490
G1X44.7142Y-65.7919
G1X46.5905Y-66.0117
G1X48.5170Y-66.4266
G1X50.4466Y-67.0427
G1X52.2109Y-67.8030
G1X53.2898Y-68.3923
G1X54.2881Y-69.0661
G1X55.4352Y-69.9971
G1X57.7299Y-72.0943
G1X58.3773Y-72.5353
G1X59.0611Y-72.8529
G1X60.0605Y-73.1081
G1X61.4009Y-73.2443
G1X63.2864Y-73.2734
G1X65.4848Y-73.1884
G1X67.8465Y-72.9653
G1X70.0937Y-72.5989
G1X72.2345Y-72.0797
G1X74.2560Y-71.4127
G1X77.0962Y-70.1549
G1X81.0010Y-67.9844
G1X85.6319Y-65.6165
G1 Z0F20000
(Start Block)

G1X18.8929Y-69.2527
G1Z6F20000
(Plotting speed under)
G1 F8000

G1X23.4817Y-69.9249
G1X25.0704Y-69.8998
G1X26.7937Y-69.6890
G1X28.8825Y-69.2508
G1X31.0527Y-68.6279
G1X37.7757Y-66.1314
G1X40.1146Y-65.4056
G1X42.7433Y-64.9301
G1X44.1007Y-64.8441
G1X45.4990Y-64.8664
G1X47.2517Y-65.0466
G1X49.0482Y-65.4043
G1X50.8522Y-65.9478
G1X52.5079Y-66.6291
G1X53.6855Y-67.2609
G1X54.8581Y-68.0396
G1X58.2614Y-70.7774
G1X58.9764Y-71.2083
G1X59.7273Y-71.5259
G1X60.8045Y-71.7901
G1X62.1098Y-71.9298
G1X63.7774Y-71.9637
G1X65.7153Y-71.8871
G1X67.8989Y-71.6769
G1X70.0949Y-71.3210
G1X72.1234Y-70.8439
G1X74.0735Y-70.2333
G1X76.6872Y-69.1625
G1X81.2987Y-66.8071
G1X84.1414Y-65.4773
G1X85.7780Y-64.8066
G1 Z0F20000
(Start Block)

G1X18.6737Y-68.5094
G1Z6F20000
(Plotting speed under)
G1 F8000

G1X23.3940Y-69.2021
G1X25.1603Y-69.1669
G1X27.1348Y-68.9240
G1X29.3876Y-68.4581
G1X31.8109Y-67.7733
G1X34.0616Y-66.9990
G1X38.7920Y-65.2060
G1X41.0963Y-64.4847
G1X43.7394Y-63.9848
G1X45.0966Y-63.8876
G1X46.3565Y-63.8948
G1X47.9925Y-64.0406
G1X49.6675Y-64.3494
G1X51.2486Y-64.7962
G1X52.7004Y-65.3559
G1X53.7975Y-65.9002
G1X55.0102Y-66.6286
G1X58.7900Y-69.3320
G1X60.3467Y-70.0764
G1X61.4581Y-70.3621
G1X62.7738Y-70.5254
G1X64.3028Y-70.5741
G1X66.1308Y-70.5082
G1X68.1781Y-70.3090
G1X70.0893Y-70.0059
G1X71.9438Y-69.5955
G1X73.8115Y-69.0567
G1X76.6178Y-67.9994
G1X80.6875Y-66.0982
G1X82.7680Y-65.2157
G1X85.9217Y-64.0707
G1 Z0F20000
(Start Block)

G1X18.4687Y-67.6800
G1Z6F20000
(Plotting speed under)
G1 F8000

G1X22.2546Y-68.2967
G1X23.4263Y-68.4030
G1X25.4677Y-68.3454
G1X27.7358Y-68.0570
G1X30.1989Y-67.5448
G1X32.7692Y-66.8206
G1X35.1510Y-66.0043
G1X39.9922Y-64.1777
G1X42.1705Y-63.4918
G1X44.7115Y-62.9859
G1X47.1889Y-62.8640
G1X48.6092Y-62.9632
G1X50.0621Y-63.1930
G1X51.5315Y-63.5639
G1X52.8863Y-64.0431
G1X55.2480Y-65.2209
G1X59.3704Y-67.8127
G1X61.1721Y-68.5898
G1X62.2483Y-68.8567
G1X63.5657Y-69.0317
G1X65.0839Y-69.0916
G1X66.7512Y-69.0371
G1X70.1876Y-68.6219
G1X73.6544Y-67.8119
G1X76.4582Y-66.8639
G1X82.3904Y-64.4821
G1X84.3796Y-63.8248
G1X86.0433Y-63.3949
G1 Z0F20000
(Start Block)

G1X18.2976Y-66.7659
G1Z6F20000
(Plotting speed under)
G1 F8000

G1X22.2142Y-67.4211
G1X23.4851Y-67.5284
G1X25.7960Y-67.4593
G1X28.4126Y-67.1287
G1X31.1271Y-66.5660
G1X33.8377Y-65.8026
G1X36.3431Y-64.9415
G1X41.1876Y-63.1017
G1X43.3413Y-62.4131
G1X45.7742Y-61.9107
G1X48.0502Y-61.7733
G1X49.3118Y-61.8428
G1X50.6543Y-62.0335
G1X51.9117Y-62.3266
G1X53.1677Y-62.7381
G1X55.5723Y-63.8129
G1X59.9551Y-66.2057
G1X62.0160Y-67.0055
G1X63.2358Y-67.2861
G1X64.5643Y-67.4550
G1X66.0030Y-67.5150
G1X67.5757Y-67.4697
G1X70.5286Y-67.1398
G1X73.5520Y-66.5116
G1X76.2655Y-65.7167
G1X82.2855Y-63.6430
G1X84.2699Y-63.1141
G1X86.1271Y-62.7630
G1 Z0F20000
(Start Block)

G1X18.1757Y-65.7707
G1Z6F20000
(Plotting speed under)
G1 F8000

G1X22.1992Y-66.4710
G1X23.6949Y-66.5908
G1X26.3720Y-66.5010
G1X29.4235Y-66.1060
G1X32.1782Y-65.5273
G1X35.0225Y-64.7189
G1X37.5456Y-63.8403
G1X42.3793Y-61.9669
G1X44.2792Y-61.3320
G1X46.2626Y-60.8579
G1X48.0561Y-60.6463
G1X50.4085Y-60.7124
G1X52.5996Y-61.1453
G1X55.2890Y-62.0984
G1X59.9500Y-64.2693
G1X61.7934Y-65.0055
G1X64.0640Y-65.5921
G1X66.4127Y-65.8368
G1X69.4065Y-65.7596
G1X72.7239Y-65.3054
G1X75.8160Y-64.6025
G1X82.2650Y-62.7807
G1X84.2750Y-62.3795
G1X86.1621Y-62.1569
G1 Z0F20000
(Start Block)

G1X18.1129Y-64.6980
G1Z6F20000
(Plotting speed under)
G1 F8000

G1X22.1844Y-65.4481
G1X23.8402Y-65.5938
G1X26.8687Y-65.5092
G1X30.2494Y-65.0866
G1X33.2482Y-64.4586
G1X36.2248Y-63.5995
G1X38.8599Y-62.6558
G1X43.6644Y-60.7280
G1X45.5355Y-60.0862
G1X47.4006Y-59.6360
G1X49.1947Y-59.4368
G1X51.1864Y-59.5109
G1X53.1740Y-59.8995
G1X55.7735Y-60.7085
G1X60.5930Y-62.5915
G1X62.5561Y-63.2625
G1X64.8333Y-63.8086
G1X67.2126Y-64.0866
G1X69.8855Y-64.0979
G1X72.8308Y-63.8262
G1X75.8712Y-63.3079
G1X82.3313Y-61.9016
G1X84.2488Y-61.6496
G1X86.1434Y-61.5577
G1 Z0F20000
(Start Block)

G1X18.1136Y-63.5506
G1Z6F20000
(Plotting speed under)
G1 F8000

G1X19.9194Y-63.8496
G1X22.3497Y-64.3865
G1X24.1456Y-64.5545
G1X27.5043Y-64.4765
G1X31.0942Y-64.0421
G1X34.2300Y-63.3892
G1X37.3425Y-62.4752
G1X40.0919Y-61.4539
G1X44.9412Y-59.4156
G1X46.6668Y-58.8049
G1X48.4108Y-58.3773
G1X50.0909Y-58.1974
G1X51.8535Y-58.2748
G1X53.9470Y-58.6617
G1X56.4466Y-59.3258
G1X61.4098Y-60.9139
G1X63.5793Y-61.5301
G1X65.9515Y-62.0278
G1X68.2622Y-62.3033
G1X70.6556Y-62.3833
G1X73.2395Y-62.2736
G1X76.3624Y-61.9333
G1X82.3836Y-61.0259
G1X84.2254Y-60.9097
G1X86.0716Y-60.9469
G1 Z0F20000
(Start Block)

G1X18.1770Y-62.3295
G1Z6F20000
(Plotting speed under)
G1 F8000

G1X19.9788Y-62.6430
G1X22.5778Y-63.2760
G1X24.6055Y-63.4838
G1X28.1631Y-63.4205
G1X31.9567Y-62.9774
G1X35.1830Y-62.3050
G1X38.3762Y-61.3452
G1X40.8470Y-60.3984
G1X45.6360Y-58.2685
G1X47.5651Y-57.5333
G1X49.2954Y-57.0966
G1X50.8624Y-56.9380
G1X52.5154Y-57.0285
G1X55.0158Y-57.4229
G1X57.6136Y-57.9940
G1X64.8775Y-59.8038
G1X67.2103Y-60.2405
G1X69.5526Y-60.5383
G1X71.8169Y-60.6873
G1X74.1079Y-60.7110
G1X77.2332Y-60.5755
G1X82.5233Y-60.1407
G1X84.2565Y-60.1566
G1X85.9530Y-60.3079
G1 Z0F20000
(Start Block)

G1X18.2967Y-61.0345
G1Z6F20000
(Plotting speed under)
G1 F8000

G1X20.2145Y-61.3945
G1X22.8658Y-62.1223
G1X24.9971Y-62.3807
G1X26.7278Y-62.4234
G1X28.7288Y-62.3552
G1X32.7275Y-61.9129
G1X35.6636Y-61.3182
G1X38.5095Y-60.4945
G1X41.6140Y-59.2993
G1X46.4209Y-57.0346
G1X47.9172Y-56.4062
G1X49.7325Y-55.8718
G1X51.3987Y-55.6768
G1X53.8835Y-55.8197
G1X56.8857Y-56.2153
G1X67.4800Y-58.2948
G1X71.8771Y-58.9602
G1X74.2502Y-59.1816
G1X76.6467Y-59.2999
G1X82.7966Y-59.2613
G1X84.2625Y-59.3862
G1X85.7979Y-59.6268
G1 Z0F20000
(Start Block)

G1X18.4616Y-59.6645
G1Z6F20000
(Plotting speed under)
G1 F8000

G1X20.3882Y-60.0512
G1X23.2071Y-60.9294
G1X25.3214Y-61.2480
G1X27.1517Y-61.3271
G1X29.0906Y-61.2881
G1X31.1787Y-61.1353
G1X33.2956Y-60.8671
G1X36.3560Y-60.2591
G1X39.2410Y-59.4144
G1X42.4953Y-58.1117
G1X47.1989Y-55.7590
G1X48.6885Y-55.1016
G1X50.3805Y-54.5941
G1X52.0490Y-54.4184
G1X55.6213Y-54.5401
G1X59.6319Y-54.9512
G1X63.9567Y-55.6372
G1X71.8758Y-57.1897
G1X74.9118Y-57.7131
G1X78.3922Y-58.1266
G1X82.7174Y-58.3547
G1X84.1423Y-58.5675
G1X85.6199Y-58.8931
G1 Z0F20000
(Start Block)

G1X18.6563Y-58.2195
G1Z6F20000
(Plotting speed under)
G1 F8000

G1X20.7138Y-58.6700
G1X23.6956Y-59.7290
G1X25.7775Y-60.1057
G1X27.5462Y-60.2179
G1X29.4676Y-60.2078
G1X31.5512Y-60.0812
G1X33.5493Y-59.8542
G1X35.4537Y-59.5350
G1X37.2690Y-59.1272
G1X38.9899Y-58.6376
G1X40.6821Y-58.0498
G1X43.2321Y-56.9539
G1X48.1508Y-54.3600
G1X50.0735Y-53.5603
G1X51.7918Y-53.2107
G1X55.4434Y-53.0870
G1X57.7976Y-53.1348
G1X60.1443Y-53.2843
G1X64.8148Y-53.8780
G1X68.8477Y-54.6792
G1X76.9814Y-56.6315
G1X79.3016Y-57.0344
G1X82.6425Y-57.4065
G1X85.4341Y-58.0998
G1 Z0F20000
(Start Block)

G1X18.8626Y-56.7017
G1Z6F20000
(Plotting speed under)
G1 F8000

G1X20.0158Y-56.9272
G1X21.0994Y-57.2389
G1X24.3108Y-58.5363
G1X26.2135Y-58.9478
G1X27.8485Y-59.0952
G1X29.6492Y-59.1221
G1X31.7041Y-59.0326
G1X33.8131Y-58.8235
G1X35.7570Y-58.5208
G1X37.6922Y-58.1019
G1X39.5413Y-57.5786
G1X41.2601Y-56.9730
G1X44.2937Y-55.6014
G1X49.0863Y-52.9438
G1X50.8251Y-52.2518
G1X51.8925Y-52.0287
G1X54.6547Y-51.7444
G1X56.8982Y-51.6048
G1X58.9655Y-51.5730
G1X61.1063Y-51.6466
G1X63.2858Y-51.8349
G1X65.5071Y-52.1437
G1X67.7455Y-52.5718
G1X71.2195Y-53.4523
G1X78.0137Y-55.5263
G1X79.7513Y-55.9301
G1X82.5791Y-56.4119
G1X85.2559Y-57.2431
G1 Z0F20000
(Start Block)

G1X19.0605Y-55.1178
G1Z6F20000
(Plotting speed under)
G1 F8000

G1X20.2319Y-55.3571
G1X21.2396Y-55.6611
G1X24.5477Y-57.1917
G1X25.6241Y-57.5515
G1X26.6612Y-57.7829
G1X28.2679Y-57.9713
G1X30.1302Y-58.0242
G1X32.1794Y-57.9507
G1X34.3014Y-57.7530
G1X36.2715Y-57.4544
G1X38.1259Y-57.0594
G1X40.0023Y-56.5324
G1X41.7493Y-55.9132
G1X44.8247Y-54.4907
G1X49.6296Y-51.7189
G1X51.2689Y-51.0547
G1X53.9379Y-50.5547
G1X56.5117Y-50.1894
G1X58.7130Y-50.0101
G1X60.8908Y-49.9767
G1X62.9423Y-50.0764
G1X65.0712Y-50.3102
G1X67.2549Y-50.6852
G1X69.3465Y-51.1712
G1X72.6918Y-52.1952
G1X78.5936Y-54.3763
G1X79.9832Y-54.7824
G1X82.5336Y-55.3672
G1X85.0997Y-56.3213
G1 Z0F20000
(Start Block)

G1X19.2311Y-53.4795
G1Z6F20000
(Plotting speed under)
G1 F8000

G1X20.5300Y-53.7599
G1X21.6554Y-54.1353
G1X25.1794Y-55.9768
G1X26.2172Y-56.3781
G1X27.2141Y-56.6382
G1X28.6478Y-56.8435
G1X30.4936Y-56.9248
G1X32.6567Y-56.8639
G1X34.7971Y-56.6741
G1X36.7969Y-56.3763
G1X38.7810Y-55.9504
G1X40.5789Y-55.4361
G1X42.3496Y-54.7952
G1X45.3594Y-53.3656
G1X49.9852Y-50.6044
G1X51.6185Y-49.9141
G1X55.2461Y-49.0564
G1X57.4109Y-48.6586
G1X59.6631Y-48.4277
G1X62.0513Y-48.3949
G1X64.1459Y-48.5298
G1X66.3467Y-48.8246
G1X68.4448Y-49.2487
G1X70.5422Y-49.8141
G1X73.6476Y-50.9081
G1X79.0606Y-53.2143
G1X82.5111Y-54.2690
G1X84.9783Y-55.3344
G1 Z0F20000
(Start Block)

G1X19.3589Y-51.8044
G1Z6F20000
(Plotting speed under)
G1 F8000

G1X20.7927Y-52.1280
G1X22.0459Y-52.5835
G1X22.9127Y-53.0259
G1X25.7960Y-54.7736
G1X26.7708Y-55.2078
G1X27.7512Y-55.5028
G1X29.1374Y-55.7297
G1X30.9666Y-55.8256
G1X33.0218Y-55.7796
G1X35.1896Y-55.6006
G1X37.2293Y-55.3064
G1X39.1303Y-54.9071
G1X40.9645Y-54.3903
G1X42.7733Y-53.7369
G1X45.4344Y-52.4850
G1X50.1988Y-49.5936
G1X51.8776Y-48.8385
G1X55.7835Y-47.6666
G1X57.8467Y-47.1871
G1X60.2392Y-46.8941
G1X62.7931Y-46.8672
G1X64.9383Y-47.0323
G1X67.1748Y-47.3691
G1X69.3415Y-47.8556
G1X71.4131Y-48.4744
G1X74.4048Y-49.6391
G1X79.5267Y-52.0558
G1X82.7076Y-53.1957
G1X84.9019Y-54.2825
G1 Z0F20000
(Start Block)

G1X19.4342Y-50.1156
G1Z6F20000
(Plotting speed under)
G1 F8000

G1X21.0105Y-50.4830
G1X22.4027Y-51.0259
G1X23.4779Y-51.6357
G1X26.4304Y-53.6186
G1X27.3008Y-54.0548
G1X28.2170Y-54.3686
G1X29.4978Y-54.6101
G1X31.2076Y-54.7239
G1X33.3858Y-54.6918
G1X35.5861Y-54.5204
G1X37.5644Y-54.2458
G1X39.4856Y-53.8533
G1X41.2791Y-53.3579
G1X43.0207Y-52.7413
G1X44.6044Y-52.0519
G1X46.1576Y-51.2488
G1X50.1603Y-48.7676
G1X51.2256Y-48.1826
G1X56.3763Y-46.2535
G1X58.0553Y-45.7879
G1X59.6470Y-45.5164
G1X61.4635Y-45.3859
G1X63.3432Y-45.4082
G1X65.5447Y-45.5987
G1X67.8312Y-45.9695
G1X69.9721Y-46.4808
G1X72.1511Y-47.1760
G1X75.0798Y-48.4023
G1X79.7850Y-50.7921
G1X82.5465Y-51.8992
G1X84.8775Y-53.1652
G1 Z0F20000
(Start Block)

G1X19.4555Y-48.4400
G1Z6F20000
(Plotting speed under)
G1 F8000

G1X21.2292Y-48.8663
G1X22.7374Y-49.4938
G1X24.1104Y-50.3472
G1X26.9641Y-52.4602
G1X27.7984Y-52.9257
G1X28.5641Y-53.2223
G1X29.8412Y-53.4975
G1X31.4425Y-53.6220
G1X33.5253Y-53.6099
G1X35.7653Y-53.4571
G1X37.9042Y-53.1769
G1X39.9115Y-52.7751
G1X41.7941Y-52.2552
G1X43.6516Y-51.5868
G1X45.1525Y-50.9212
G1X46.6005Y-50.1669
G1X51.3965Y-47.2550
G1X56.0413Y-45.2149
G1X57.4074Y-44.6902
G1X58.8125Y-44.3086
G1X60.3269Y-44.0744
G1X61.9356Y-43.9813
G1X63.8262Y-44.0199
G1X66.0871Y-44.2322
G1X68.4350Y-44.6325
G1X70.6235Y-45.1809
G1X72.7810Y-45.9033
G1X75.1675Y-46.9268
G1X79.8336Y-49.3915
G1X82.4124Y-50.5234
G1X84.9091Y-51.9807
G1 Z0F20000
(Start Block)

G1X19.4300Y-46.8066
G1Z6F20000
(Plotting speed under)
G1 F8000

G1X21.3414Y-47.2699
G1X23.0841Y-48.0334
G1X24.7157Y-49.1262
G1X27.4557Y-51.3417
G1X28.2555Y-51.8252
G1X28.9937Y-52.1286
G1X30.1618Y-52.3936
G1X31.7720Y-52.5248
G1X33.8819Y-52.5158
G1X36.0560Y-52.3762
G1X38.2487Y-52.1012
G1X40.4103Y-51.6737
G1X42.4153Y-51.1131
G1X44.2871Y-50.4254
G1X47.0405Y-49.0915
G1X51.5358Y-46.3886
G1X53.6268Y-45.4315
G1X56.5924Y-43.8822
G1X57.9917Y-43.2976
G1X59.2439Y-42.9495
G1X60.7314Y-42.7253
G1X62.3403Y-42.6442
G1X64.2573Y-42.6946
G1X66.5716Y-42.9211
G1X68.9102Y-43.3276
G1X71.1322Y-43.8939
G1X73.2422Y-44.6128
G1X75.7222Y-45.7002
G1X80.0630Y-48.0368
G1X82.3925Y-49.1180
G1X84.9965Y-50.7252
G1 Z0F20000
(Start Block)

G1X19.3737Y-45.2446
G1Z6F20000
(Plotting speed under)
G1 F8000

G1X21.4228Y-45.7428
G1X22.4333Y-46.1414
G1X23.3122Y-46.5945
G1X25.0673Y-47.8147
G1X27.8968Y-50.2690
G1X28.5673Y-50.7037
G1X29.2751Y-51.0190
G1X30.3537Y-51.2830
G1X31.8765Y-51.4216
G1X34.0138Y-51.4260
G1X36.2248Y-51.3004
G1X38.5978Y-51.0190
G1X40.8156Y-50.5896
G1X42.9424Y-49.9970
G1X44.9248Y-49.2608
G1X47.4756Y-48.0262
G1X51.2080Y-45.8160
G1X53.8246Y-44.5239
G1X57.0588Y-42.6276
G1X58.5931Y-41.9478
G1X59.8214Y-41.6203
G1X61.1895Y-41.4330
G1X62.8087Y-41.3663
G1X64.6457Y-41.4225
G1X67.0137Y-41.6559
G1X69.3101Y-42.0535
G1X71.5747Y-42.6286
G1X73.7217Y-43.3621
G1X76.2362Y-44.4707
G1X80.2877Y-46.6394
G1X82.2781Y-47.5824
G1X83.5360Y-48.3150
G1X85.1354Y-49.3929
G1 Z0F20000
(Start Block)

G1X19.3090Y-43.7822
G1Z6F20000
(Plotting speed under)
G1 F8000

G1X20.4492Y-44.0080
G1X21.5955Y-44.3502
G1X22.6256Y-44.7730
G1X23.6184Y-45.3100
G1X25.4663Y-46.6621
G1X28.1874Y-49.1735
G1X28.8311Y-49.6145
G1X29.4126Y-49.8920
G1X30.5175Y-50.1818
G1X31.9268Y-50.3173
G1X34.0327Y-50.3344
G1X36.4192Y-50.2161
G1X38.9517Y-49.9305
G1X41.2253Y-49.4997
G1X43.3710Y-48.9101
G1X45.4645Y-48.1381
G1X47.6120Y-47.1295
G1X51.4191Y-44.9816
G1X53.5865Y-43.9205
G1X57.5576Y-41.4150
G1X59.1380Y-40.6816
G1X60.2437Y-40.3869
G1X61.5975Y-40.2036
G1X63.2057Y-40.1410
G1X65.1084Y-40.2018
G1X67.5210Y-40.4417
G1X69.8606Y-40.8491
G1X72.0472Y-41.4036
G1X74.2154Y-42.1388
G1X76.6567Y-43.1996
G1X82.2989Y-46.0454
G1X83.6600Y-46.8436
G1X85.3167Y-47.9764
G1 Z0F20000
(Start Block)

G1X19.2609Y-42.4468
G1Z6F20000
(Plotting speed under)
G1 F8000

G1X20.5143Y-42.6969
G1X21.6729Y-43.0495
G1X22.7160Y-43.4838
G1X23.7100Y-44.0268
G1X25.5934Y-45.4218
G1X28.4150Y-48.1293
G1X29.0371Y-48.5597
G1X29.6043Y-48.8260
G1X30.6946Y-49.0976
G1X32.1388Y-49.2217
G1X34.3703Y-49.2308
G1X36.6894Y-49.1199
G1X39.2024Y-48.8519
G1X41.6397Y-48.4043
G1X43.9019Y-47.7886
G1X46.0972Y-46.9808
G1X48.0489Y-46.0822
G1X51.4054Y-44.2909
G1X53.7514Y-43.1544
G1X55.1246Y-42.3153
G1X58.0104Y-40.3097
G1X58.8210Y-39.8536
G1X59.6504Y-39.5021
G1X60.7429Y-39.2051
G1X62.0894Y-39.0229
G1X63.7366Y-38.9621
G1X65.5369Y-39.0193
G1X67.9817Y-39.2562
G1X70.2491Y-39.6402
G1X72.4392Y-40.1780
G1X74.6146Y-40.8916
G1X76.9758Y-41.8748
G1X82.2666Y-44.4190
G1X83.7126Y-45.2435
G1X85.5260Y-46.4675
G1 Z0F20000
(Start Block)

G1X19.2484Y-41.2554
G1Z6F20000
(Plotting speed under)
G1 F8000

G1X21.3489Y-41.7484
G1X23.2746Y-42.5774
G1X24.3935Y-43.2783
G1X25.4443Y-44.0928
G1X28.1453Y-46.7605
G1X28.9147Y-47.3807
G1X29.4504Y-47.6694
G1X30.0399Y-47.8720
G1X31.7683Y-48.1041
G1X35.3740Y-48.1059
G1X38.8868Y-47.8461
G1X41.9301Y-47.3441
G1X44.8169Y-46.5591
G1X47.7428Y-45.4170
G1X53.7970Y-42.5220
G1X55.2745Y-41.6287
G1X58.3376Y-39.3946
G1X59.5905Y-38.6487
G1X61.1095Y-38.1142
G1X63.0179Y-37.8534
G1X65.5769Y-37.8423
G1X68.4721Y-38.0903
G1X71.2655Y-38.5690
G1X73.8635Y-39.2486
G1X76.8831Y-40.3423
G1X82.0919Y-42.6503
G1X83.7258Y-43.5242
G1X85.7502Y-44.8421
G1 Z0F20000
(Start Block)

G1X19.2693Y-40.1847
G1Z6F20000
(Plotting speed under)
G1 F8000

G1X20.5216Y-40.4371
G1X21.7825Y-40.8248
G1X22.9222Y-41.3132
G1X23.9159Y-41.8739
G1X25.6710Y-43.2020
G1X28.1782Y-45.7420
G1X29.0889Y-46.4395
G1X30.2234Y-46.8457
G1X31.7974Y-47.0110
G1X35.7868Y-47.0021
G1X39.4856Y-46.7377
G1X42.5625Y-46.2382
G1X45.5572Y-45.4376
G1X48.2816Y-44.4211
G1X54.0182Y-41.8848
G1X55.7334Y-40.8377
G1X59.1582Y-38.2310
G1X60.4659Y-37.4472
G1X61.9175Y-36.9513
G1X63.6113Y-36.7143
G1X66.1524Y-36.6856
G1X68.9208Y-36.8990
G1X71.6016Y-37.3169
G1X74.2812Y-37.9583
G1X77.2030Y-38.9212
G1X82.0279Y-40.8464
G1X83.8770Y-41.7762
G1X85.9630Y-43.0741
G1 Z0F20000
(Start Block)

G1X19.3133Y-39.2148
G1Z6F20000
(Plotting speed under)
G1 F8000

G1X20.5577Y-39.4711
G1X21.8049Y-39.8553
G1X22.9285Y-40.3326
G1X24.0011Y-40.9360
G1X25.6342Y-42.1719
G1X28.1722Y-44.7463
G1X29.0821Y-45.4153
G1X30.1648Y-45.7682
G1X31.9110Y-45.9134
G1X36.4923Y-45.8854
G1X40.1511Y-45.6310
G1X43.4497Y-45.1018
G1X46.6346Y-44.2545
G1X49.0164Y-43.4103
G1X53.8411Y-41.4886
G1X55.0550Y-40.8280
G1X56.3615Y-39.9750
G1X59.8146Y-37.2181
G1X60.8657Y-36.5079
G1X62.3280Y-35.8910
G1X64.1551Y-35.5735
G1X66.4878Y-35.5086
G1X69.3222Y-35.6819
G1X72.0807Y-36.0624
G1X74.8356Y-36.6589
G1X77.6500Y-37.4897
G1X81.9740Y-39.0128
G1X83.9670Y-39.9414
G1X86.1132Y-41.1951
G1 Z0F20000
(Start Block)

G1X19.3671Y-38.3283
G1Z6F20000
(Plotting speed under)
G1 F8000

G1X20.5992Y-38.5884
G1X21.8272Y-38.9663
G1X22.9288Y-39.4271
G1X23.9782Y-40.0036
G1X25.6019Y-41.2135
G1X28.0635Y-43.6850
G1X28.9479Y-44.3313
G1X30.0957Y-44.6818
G1X32.0181Y-44.7993
G1X37.4614Y-44.7551
G1X41.1827Y-44.4884
G1X44.7066Y-43.9064
G1X48.2322Y-42.9572
G1X52.5161Y-41.5298
G1X54.4943Y-40.6610
G1X55.8171Y-39.9052
G1X57.1431Y-38.9978
G1X60.5570Y-36.1377
G1X61.5928Y-35.3929
G1X62.2451Y-35.0433
G1X63.0251Y-34.7459
G1X64.8135Y-34.4082
G1X67.1004Y-34.3229
G1X69.8836Y-34.4614
G1X72.6985Y-34.8038
G1X75.4246Y-35.3294
G1X78.2251Y-36.0561
G1X81.9166Y-37.1923
G1X84.0288Y-38.0950
G1X86.1624Y-39.2478
G1 Z0F20000

G00 X0.0000 Y0.0000

