$H
G21
G17
G90
G1 Z0F20000
G1 F15000
(Start Layer)
(Start Block)

G1X19.1663Y-107.1899
G1Z6F20000
(Plotting speed under)
G1 F8000

G1X28.3154Y-107.1291
G1X31.7897Y-107.3958
G1X34.3375Y-107.0944
G1X36.1905Y-107.4280
G1X36.6372Y-107.3901
G1X38.0269Y-107.0529
G1X38.6225Y-107.1615
G1X39.3174Y-107.4130
G1X39.7807Y-107.4678
G1X41.5013Y-107.0078
G1X42.0969Y-107.1443
G1X42.7917Y-107.4373
G1X43.3873Y-107.5176
G1X43.7844Y-107.4332
G1X44.7770Y-107.0344
G1X45.3396Y-106.9622
G1X45.7697Y-107.0213
G1X47.0602Y-107.4739
G1X47.7716Y-107.5770
G1X50.2367Y-107.2098
G1X51.3617Y-107.1423
G1X52.5198Y-107.2186
G1X54.7037Y-107.5732
G1X55.2993Y-107.4658
G1X56.2920Y-107.0359
G1X56.6890Y-106.9554
G1X58.0788Y-107.5237
G1X59.3692Y-107.0218
G1X59.5554Y-107.0472
G1X60.0765Y-107.3930
G1X60.2626Y-107.4308
G1X61.5531Y-107.0832
G1X62.2480Y-107.4322
G1X63.0421Y-107.1425
G1X64.2168Y-107.3170
G1X65.0274Y-107.1536
G1X65.7223Y-107.3606
G1X66.4172Y-107.1613
G1X67.1120Y-107.3125
G1X68.0385Y-107.2256
G1X69.1966Y-107.2933
G1X69.8915Y-107.2078
G1X70.7022Y-107.2822
G1X85.8734Y-107.2617
G1 Z0F20000
(Start Block)

G1X19.1663Y-106.1012
G1Z6F20000
(Plotting speed under)
G1 F8000

G1X25.4201Y-106.0477
G1X30.5158Y-106.2490
G1X33.5269Y-105.9453
G1X35.7273Y-106.2878
G1X37.6961Y-105.9097
G1X39.4167Y-106.3267
G1X40.0123Y-106.2310
G1X40.8064Y-105.9307
G1X41.3027Y-105.8639
G1X42.6924Y-106.3347
G1X42.9903Y-106.3701
G1X43.4866Y-106.3062
G1X44.4793Y-105.9082
G1X44.9756Y-105.8107
G1X45.5712Y-105.9044
G1X46.8616Y-106.3730
G1X47.4242Y-106.4269
G1X47.9536Y-106.3708
G1X49.8396Y-105.9283
G1X51.4775Y-105.8088
G1X53.2147Y-105.9164
G1X55.3986Y-106.4263
G1X55.9942Y-106.3287
G1X56.6890Y-105.9859
G1X57.2847Y-105.8120
G1X57.5824Y-105.8760
G1X58.6744Y-106.3695
G1X58.9473Y-106.3061
G1X59.4685Y-105.9813
G1X59.8656Y-105.9228
G1X60.2626Y-105.9990
G1X60.8582Y-106.3307
G1X61.5531Y-105.9947
G1X61.9502Y-106.0034
G1X62.9428Y-106.2491
G1X63.6377Y-105.9443
G1X64.3326Y-106.2331
G1X65.1267Y-106.0356
G1X66.3013Y-106.1481
G1X67.1120Y-106.0392
G1X67.8069Y-106.1828
G1X68.5017Y-106.0395
G1X69.1966Y-106.1485
G1X70.3547Y-106.0835
G1X71.2812Y-106.1399
G1X72.0919Y-106.0819
G1X85.8734Y-106.1057
G1 Z0F20000
(Start Block)

G1X19.1663Y-105.0389
G1Z6F20000
(Plotting speed under)
G1 F8000

G1X28.1995Y-105.0939
G1X32.6004Y-104.7988
G1X35.1482Y-105.1417
G1X35.8431Y-105.0666
G1X37.2328Y-104.7575
G1X39.2181Y-105.1812
G1X40.9057Y-104.7211
G1X41.4020Y-104.7868
G1X42.1961Y-105.1091
G1X42.7917Y-105.2318
G1X43.2881Y-105.1209
G1X44.1814Y-104.7511
G1X44.7770Y-104.6680
G1X45.1741Y-104.7437
G1X46.2660Y-105.1775
G1X46.9609Y-105.2832
G1X47.6558Y-105.1614
G1X49.1448Y-104.7163
G1X50.5511Y-104.6078
G1X54.0088Y-104.6398
G1X54.7037Y-104.7723
G1X55.8949Y-105.2123
G1X56.3912Y-105.2738
G1X56.7883Y-105.2051
G1X57.6817Y-104.7569
G1X58.0788Y-104.6644
G1X59.3692Y-105.2184
G1X59.6422Y-105.1457
G1X60.0765Y-104.8359
G1X60.3619Y-104.7775
G1X60.8582Y-104.8615
G1X61.5531Y-105.1794
G1X62.1611Y-104.8206
G1X62.3472Y-104.7946
G1X62.9428Y-104.9929
G1X63.4061Y-105.0497
G1X64.3326Y-104.8215
G1X65.0274Y-105.1035
G1X65.7223Y-104.8453
G1X66.5164Y-105.0297
G1X67.3436Y-104.9296
G1X68.5017Y-105.0089
G1X69.1966Y-104.8983
G1X69.8915Y-105.0155
G1X70.7022Y-104.9254
G1X71.8603Y-104.9830
G1X85.8734Y-104.9548
G1 Z0F20000
(Start Block)

G1X19.1663Y-103.6715
G1Z6F20000
(Plotting speed under)
G1 F8000

G1X26.9256Y-103.7519
G1X31.3264Y-103.6540
G1X34.4533Y-103.9949
G1X35.1482Y-103.9423
G1X36.3394Y-103.6624
G1X36.8854Y-103.6159
G1X38.8211Y-104.0317
G1X39.3174Y-103.9640
G1X40.2108Y-103.6452
G1X40.7071Y-103.5662
G1X41.2035Y-103.6816
G1X41.9976Y-104.0057
G1X42.4443Y-104.0737
G1X42.8910Y-104.0186
G1X43.9829Y-103.5685
G1X44.3800Y-103.5219
G1X44.8763Y-103.6144
G1X45.8690Y-104.0307
G1X46.3653Y-104.1344
G1X47.0602Y-104.0335
G1X48.3506Y-103.5651
G1X49.1613Y-103.4608
G1X52.2882Y-103.7696
G1X55.2993Y-103.4660
G1X55.8949Y-103.5842
G1X56.9868Y-104.0578
G1X57.3839Y-104.1373
G1X57.7810Y-104.0226
G1X58.7736Y-103.5250
G1X59.0714Y-103.5817
G1X60.1634Y-104.0837
G1X60.7714Y-103.7274
G1X61.1560Y-103.6457
G1X61.5531Y-103.6900
G1X62.2480Y-104.0355
G1X62.9428Y-103.6513
G1X63.6377Y-103.8505
G1X64.1009Y-103.8968
G1X65.0274Y-103.6827
G1X65.7223Y-103.9555
G1X66.4172Y-103.6928
G1X67.1120Y-103.8943
G1X67.8069Y-103.7775
G1X69.1966Y-103.8521
G1X69.8915Y-103.7568
G1X70.5863Y-103.8693
G1X71.2812Y-103.7757
G1X72.4393Y-103.8340
G1X85.8734Y-103.8102
G1 Z0F20000
(Start Block)

G1X19.1663Y-102.8485
G1Z6F20000
(Plotting speed under)
G1 F8000

G1X27.9679Y-102.5283
G1X30.5158Y-102.5847
G1X33.7585Y-102.8484
G1X36.4221Y-102.4645
G1X38.5233Y-102.8901
G1X39.0196Y-102.8033
G1X39.9130Y-102.4859
G1X40.3597Y-102.4294
G1X40.8064Y-102.4857
G1X41.7991Y-102.8767
G1X42.1961Y-102.9360
G1X42.7917Y-102.7952
G1X43.4866Y-102.4770
G1X44.0822Y-102.3744
G1X44.4793Y-102.4580
G1X45.4719Y-102.8966
G1X46.0675Y-102.9826
G1X46.4646Y-102.9174
G1X47.6558Y-102.4303
G1X48.3506Y-102.3150
G1X49.0455Y-102.4090
G1X50.9316Y-102.8949
G1X52.5198Y-103.0085
G1X54.4059Y-102.8905
G1X56.5898Y-102.3144
G1X57.0861Y-102.4037
G1X57.9795Y-102.8660
G1X58.4758Y-102.9657
G1X58.8605Y-102.8873
G1X59.4685Y-102.4845
G1X59.8656Y-102.4182
G1X60.2502Y-102.5029
G1X60.6845Y-102.8396
G1X60.9575Y-102.9152
G1X62.1487Y-102.4587
G1X62.3348Y-102.4903
G1X62.9428Y-102.8840
G1X63.6377Y-102.5634
G1X65.0274Y-102.7868
G1X65.7223Y-102.5133
G1X66.4172Y-102.8091
G1X67.1120Y-102.5615
G1X67.9227Y-102.7259
G1X68.9650Y-102.6346
G1X69.8915Y-102.7218
G1X70.5863Y-102.6027
G1X71.2812Y-102.7214
G1X72.0919Y-102.6355
G1X73.2500Y-102.6926
G1X74.0607Y-102.6397
G1X85.8734Y-102.6652
G1 Z0F20000
(Start Block)

G1X19.1663Y-101.3313
G1Z6F20000
(Plotting speed under)
G1 F8000

G1X24.2620Y-101.6935
G1X29.0102Y-101.6109
G1X32.4846Y-101.7020
G1X33.6427Y-101.6427
G1X35.9589Y-101.3193
G1X38.1593Y-101.7395
G1X38.6225Y-101.6890
G1X39.7145Y-101.3257
G1X40.1115Y-101.2753
G1X40.7071Y-101.3989
G1X41.4020Y-101.6945
G1X41.9976Y-101.7853
G1X42.2954Y-101.7282
G1X43.2881Y-101.2966
G1X43.6851Y-101.2316
G1X44.1814Y-101.3170
G1X45.0749Y-101.7275
G1X45.5712Y-101.8442
G1X46.1668Y-101.7142
G1X47.2587Y-101.2429
G1X47.7550Y-101.1693
G1X48.4499Y-101.3129
G1X49.7404Y-101.7912
G1X50.6669Y-101.9013
G1X53.0989Y-101.7341
G1X55.8784Y-101.8867
G1X56.4905Y-101.7467
G1X57.3839Y-101.3436
G1X57.9795Y-101.1696
G1X58.3766Y-101.2508
G1X59.2700Y-101.7602
G1X59.5678Y-101.8306
G1X60.1634Y-101.6090
G1X60.8582Y-101.2231
G1X61.5531Y-101.5945
G1X62.0494Y-101.7282
G1X62.3348Y-101.6809
G1X62.9428Y-101.2759
G1X63.6377Y-101.6369
G1X64.0348Y-101.6276
G1X65.0274Y-101.3699
G1X65.7223Y-101.6997
G1X66.4172Y-101.3672
G1X67.1120Y-101.6192
G1X67.8069Y-101.4815
G1X69.1966Y-101.5740
G1X69.8915Y-101.4445
G1X70.5863Y-101.5994
G1X71.2812Y-101.4555
G1X72.0919Y-101.5580
G1X73.2500Y-101.4924
G1X74.0607Y-101.5556
G1X74.8714Y-101.4986
G1X85.8734Y-101.5186
G1 Z0F20000
(Start Block)

G1X19.1663Y-100.5257
G1Z6F20000
(Plotting speed under)
G1 F8000

G1X23.1038Y-100.1710
G1X27.5047Y-100.5149
G1X31.3264Y-100.5388
G1X32.8320Y-100.4596
G1X35.3798Y-100.1724
G1X36.0416Y-100.2248
G1X37.2328Y-100.5158
G1X37.9277Y-100.5978
G1X39.9130Y-100.1285
G1X40.3101Y-100.2014
G1X41.3027Y-100.5923
G1X41.6998Y-100.6329
G1X42.0969Y-100.5723
G1X42.9903Y-100.1778
G1X43.4866Y-100.0771
G1X43.8837Y-100.1767
G1X44.7770Y-100.6038
G1X45.2734Y-100.6850
G1X45.6705Y-100.6225
G1X46.7624Y-100.1011
G1X47.1595Y-100.0288
G1X47.7550Y-100.1292
G1X48.9462Y-100.6590
G1X49.5419Y-100.7506
G1X50.1375Y-100.6823
G1X52.0235Y-100.1731
G1X53.5621Y-100.0384
G1X55.2993Y-100.1615
G1X57.0861Y-100.6947
G1X57.4832Y-100.7490
G1X58.0788Y-100.6454
G1X58.7736Y-100.2523
G1X59.3692Y-100.0251
G1X59.6670Y-100.0847
G1X60.5604Y-100.6137
G1X60.8582Y-100.6953
G1X61.5531Y-100.2734
G1X62.0494Y-100.1345
G1X62.3348Y-100.1892
G1X62.9428Y-100.6321
G1X63.6377Y-100.3005
G1X64.0348Y-100.2309
G1X64.4318Y-100.2856
G1X65.0274Y-100.5852
G1X65.7223Y-100.1790
G1X66.5164Y-100.4949
G1X67.4594Y-100.3197
G1X68.5017Y-100.4622
G1X69.1966Y-100.2633
G1X69.8915Y-100.4831
G1X70.5863Y-100.2837
G1X71.2812Y-100.4312
G1X72.2077Y-100.3474
G1X73.3658Y-100.4163
G1X74.0607Y-100.3284
G1X74.8714Y-100.4010
G1X85.8734Y-100.3702
G1 Z0F20000
(Start Block)

G1X19.1663Y-99.1671
G1Z6F20000
(Plotting speed under)
G1 F8000

G1X21.0193Y-99.4119
G1X21.9457Y-99.4511
G1X25.5359Y-99.0296
G1X30.6316Y-99.2728
G1X35.0324Y-99.0261
G1X37.6961Y-99.4483
G1X38.2255Y-99.3701
G1X39.2181Y-99.0443
G1X39.7807Y-98.9894
G1X41.5013Y-99.4955
G1X42.0969Y-99.3552
G1X42.7917Y-99.0200
G1X43.2881Y-98.9421
G1X43.6851Y-99.0272
G1X44.6778Y-99.5043
G1X44.9756Y-99.5477
G1X45.5712Y-99.3841
G1X46.2660Y-99.0050
G1X46.8616Y-98.8812
G1X47.2587Y-98.9739
G1X48.3506Y-99.5131
G1X48.9462Y-99.6017
G1X49.4426Y-99.4930
G1X50.8323Y-98.9346
G1X51.7092Y-98.8183
G1X54.2570Y-99.0304
G1X56.5732Y-98.8222
G1X57.1523Y-98.8391
G1X57.7810Y-99.0170
G1X58.7736Y-99.5090
G1X59.2700Y-99.5962
G1X59.5554Y-99.5398
G1X60.7590Y-98.8816
G1X61.0319Y-98.9447
G1X61.7516Y-99.4052
G1X62.1487Y-99.5180
G1X62.4217Y-99.4102
G1X62.8560Y-99.0240
G1X63.0421Y-98.9790
G1X64.2333Y-99.4599
G1X64.4194Y-99.4311
G1X65.0274Y-98.9876
G1X65.7223Y-99.3525
G1X67.0128Y-99.1127
G1X67.8069Y-99.3864
G1X68.5017Y-99.0651
G1X69.1966Y-99.3620
G1X69.8915Y-99.1358
G1X70.5863Y-99.2694
G1X71.9761Y-99.1852
G1X72.6709Y-99.2917
G1X73.3658Y-99.1598
G1X74.0607Y-99.2765
G1X75.1030Y-99.2027
G1X76.1453Y-99.2614
G1X76.9560Y-99.2046
G1X85.8734Y-99.2222
G1 Z0F20000
(Start Block)

G1X19.1663Y-97.9968
G1Z6F20000
(Plotting speed under)
G1 F8000

G1X20.3244Y-97.8486
G1X21.1351Y-97.8456
G1X23.3355Y-98.2410
G1X24.1461Y-98.3054
G1X27.5047Y-97.8878
G1X31.3264Y-97.9757
G1X34.4533Y-97.8781
G1X35.3467Y-97.9373
G1X37.4644Y-98.3019
G1X38.0269Y-98.2452
G1X39.1189Y-97.8984
G1X39.5490Y-97.8414
G1X40.0123Y-97.8913
G1X41.0049Y-98.2760
G1X41.4020Y-98.3529
G1X41.8983Y-98.2335
G1X42.6924Y-97.8598
G1X43.0895Y-97.8005
G1X43.4866Y-97.8598
G1X44.1814Y-98.2295
G1X44.7770Y-98.4007
G1X45.1741Y-98.3083
G1X46.1668Y-97.7865
G1X46.4646Y-97.7411
G1X46.9609Y-97.8381
G1X47.7550Y-98.2825
G1X48.3506Y-98.4610
G1X48.9462Y-98.3105
G1X50.0382Y-97.7748
G1X50.6338Y-97.6720
G1X51.2294Y-97.7711
G1X53.1155Y-98.3736
G1X54.9519Y-98.5026
G1X56.7883Y-98.3636
G1X58.8729Y-97.6805
G1X59.4685Y-97.7756
G1X60.1634Y-98.2119
G1X60.7590Y-98.4574
G1X61.0319Y-98.3969
G1X62.1487Y-97.7398
G1X62.4217Y-97.8176
G1X62.9428Y-98.2361
G1X63.3399Y-98.3218
G1X63.7246Y-98.2363
G1X64.3326Y-97.7847
G1X65.0274Y-98.2219
G1X65.5238Y-98.2002
G1X66.4172Y-97.8799
G1X67.1120Y-98.3055
G1X67.8069Y-97.9051
G1X68.6010Y-98.1798
G1X69.7757Y-98.0269
G1X70.5863Y-98.1713
G1X71.2812Y-97.9702
G1X71.9761Y-98.1900
G1X72.6709Y-97.9908
G1X73.3658Y-98.1367
G1X74.5240Y-98.0511
G1X75.4504Y-98.1285
G1X76.1453Y-98.0364
G1X77.1876Y-98.1043
G1X85.8734Y-98.0813
G1 Z0F20000
(Start Block)

G1X19.1663Y-97.1699
G1Z6F20000
(Plotting speed under)
G1 F8000

G1X20.4402Y-97.1588
G1X22.1443Y-96.7617
G1X22.8722Y-96.6879
G1X23.4347Y-96.7357
G1X25.5359Y-97.1549
G1X26.3135Y-97.1206
G1X28.4312Y-96.7872
G1X29.7051Y-96.7309
G1X34.6850Y-96.7512
G1X37.4644Y-97.1557
G1X38.0269Y-97.0957
G1X39.1189Y-96.7519
G1X39.5490Y-96.6950
G1X40.0123Y-96.7443
G1X41.0049Y-97.1313
G1X41.4020Y-97.2064
G1X41.8983Y-97.0766
G1X42.6924Y-96.6986
G1X42.9903Y-96.6533
G1X43.4866Y-96.7399
G1X44.2807Y-97.1625
G1X44.7770Y-97.2429
G1X46.2660Y-96.5832
G1X46.7624Y-96.7239
G1X47.5689Y-97.2013
G1X48.0529Y-97.2974
G1X48.4499Y-97.2226
G1X49.4426Y-96.6532
G1X49.9389Y-96.5298
G1X50.5345Y-96.6521
G1X51.8250Y-97.2718
G1X52.5198Y-97.3756
G1X54.6044Y-97.0181
G1X55.6467Y-96.9380
G1X56.5732Y-97.0060
G1X58.0788Y-97.3206
G1X58.7736Y-97.3681
G1X59.3692Y-97.2018
G1X60.1634Y-96.7363
G1X60.7590Y-96.5254
G1X61.0568Y-96.5933
G1X61.9874Y-97.2188
G1X62.2480Y-97.3137
G1X63.5384Y-96.6011
G1X63.7246Y-96.6336
G1X64.2457Y-97.1118
G1X64.4318Y-97.1736
G1X65.0274Y-97.0251
G1X65.5238Y-96.7065
G1X65.7223Y-96.6603
G1X66.4172Y-97.1864
G1X67.1120Y-96.8189
G1X67.4098Y-96.8181
G1X68.5017Y-97.0703
G1X69.1966Y-96.7518
G1X69.8915Y-97.1162
G1X70.5863Y-96.7828
G1X71.2812Y-97.0386
G1X71.9761Y-96.8824
G1X73.2500Y-96.9782
G1X74.0607Y-96.8638
G1X74.7556Y-97.0128
G1X75.4504Y-96.8707
G1X76.2611Y-96.9661
G1X77.5350Y-96.8934
G1X78.3457Y-96.9662
G1X79.6196Y-96.9072
G1X85.8734Y-96.9430
G1 Z0F20000
(Start Block)

G1X19.1663Y-95.5029
G1Z6F20000
(Plotting speed under)
G1 F8000

G1X19.8611Y-95.6204
G1X21.1516Y-95.9936
G1X21.7141Y-96.0573
G1X22.2435Y-96.0064
G1X23.5340Y-95.6309
G1X24.1461Y-95.5411
G1X24.8245Y-95.6114
G1X26.1149Y-95.9475
G1X26.8098Y-96.0125
G1X29.4735Y-95.6421
G1X31.0948Y-95.5845
G1X34.8008Y-95.6120
G1X37.1335Y-95.9828
G1X37.6961Y-96.0078
G1X38.2255Y-95.9280
G1X39.2181Y-95.6098
G1X39.7807Y-95.5482
G1X40.2108Y-95.6273
G1X41.2035Y-96.0239
G1X41.5013Y-96.0549
G1X42.0969Y-95.8849
G1X42.6924Y-95.5698
G1X43.0895Y-95.5118
G1X43.4866Y-95.5824
G1X44.1814Y-95.9827
G1X44.6778Y-96.0938
G1X44.9632Y-96.0480
G1X45.8690Y-95.5334
G1X46.2660Y-95.4385
G1X46.5639Y-95.5368
G1X47.4573Y-96.0776
G1X47.7550Y-96.1583
G1X48.3506Y-95.9955
G1X49.1448Y-95.4908
G1X49.6411Y-95.3864
G1X50.0382Y-95.5031
G1X51.0433Y-96.0974
G1X51.6265Y-96.2220
G1X52.1228Y-96.1373
G1X53.8103Y-95.4448
G1X54.8361Y-95.3152
G1X58.4758Y-95.3757
G1X59.1707Y-95.5856
G1X60.1634Y-96.0831
G1X60.7590Y-96.2280
G1X61.1560Y-96.1053
G1X62.0742Y-95.4683
G1X62.3472Y-95.3951
G1X62.9428Y-95.6387
G1X63.6377Y-96.1585
G1X63.8114Y-96.1242
G1X64.9282Y-95.4712
G1X65.1818Y-95.5649
G1X65.7223Y-96.0670
G1X65.9208Y-96.0373
G1X66.4172Y-95.7496
G1X67.0128Y-95.5980
G1X67.1989Y-95.6438
G1X67.8069Y-96.0509
G1X68.5017Y-95.5537
G1X69.1966Y-95.9326
G1X70.1231Y-95.7251
G1X71.2812Y-95.8862
G1X71.9761Y-95.6569
G1X72.6709Y-95.9262
G1X73.3658Y-95.6621
G1X74.0607Y-95.8827
G1X74.8714Y-95.7335
G1X76.0295Y-95.8304
G1X76.8402Y-95.7248
G1X77.5350Y-95.8394
G1X78.6932Y-95.7558
G1X79.6196Y-95.8218
G1X81.0094Y-95.7604
G1X85.8734Y-95.7793
G1 Z0F20000
(Start Block)

G1X19.1663Y-94.7428
G1Z6F20000
(Plotting speed under)
G1 F8000

G1X20.1589Y-94.4195
G1X20.6553Y-94.3462
G1X21.2509Y-94.4162
G1X22.4420Y-94.8410
G1X22.8722Y-94.9061
G1X23.4347Y-94.8500
G1X24.5267Y-94.4753
G1X25.0726Y-94.3986
G1X25.5193Y-94.4324
G1X26.7105Y-94.7684
G1X27.3889Y-94.8628
G1X30.4000Y-94.4653
G1X34.2217Y-94.4379
G1X35.6115Y-94.5041
G1X37.9277Y-94.8654
G1X40.0123Y-94.3946
G1X40.5086Y-94.5181
G1X41.3027Y-94.8567
G1X41.6005Y-94.8971
G1X42.0969Y-94.8175
G1X42.7917Y-94.4499
G1X43.2881Y-94.3640
G1X43.5735Y-94.4177
G1X44.3800Y-94.8630
G1X44.7770Y-94.9546
G1X45.0500Y-94.8844
G1X45.9683Y-94.3538
G1X46.2660Y-94.2920
G1X47.6558Y-95.0168
G1X48.1521Y-94.8699
G1X48.9587Y-94.3296
G1X49.3433Y-94.2537
G1X49.7404Y-94.3372
G1X50.5345Y-94.8706
G1X51.1301Y-95.0825
G1X51.6265Y-94.9446
G1X52.8176Y-94.2861
G1X53.4132Y-94.1682
G1X54.0088Y-94.2577
G1X55.7957Y-94.8065
G1X57.0365Y-94.9304
G1X58.2773Y-94.8172
G1X60.0641Y-94.2388
G1X60.6597Y-94.1748
G1X61.0568Y-94.2810
G1X62.0742Y-94.9569
G1X62.4465Y-95.0549
G1X62.9428Y-94.9144
G1X63.5605Y-94.3610
G1X63.8362Y-94.2880
G1X64.3326Y-94.4260
G1X65.0274Y-95.0094
G1X65.2011Y-94.9691
G1X65.7223Y-94.5856
G1X66.3179Y-94.3668
G1X66.4944Y-94.4167
G1X67.1120Y-94.9619
G1X67.2857Y-94.8973
G1X67.7200Y-94.4997
G1X67.9062Y-94.4503
G1X69.0974Y-94.8027
G1X69.2835Y-94.7713
G1X69.8915Y-94.4176
G1X70.5863Y-94.8660
G1X71.2812Y-94.4554
G1X71.9761Y-94.7678
G1X72.6709Y-94.5787
G1X73.9449Y-94.6939
G1X74.7556Y-94.5544
G1X75.4504Y-94.7439
G1X76.1453Y-94.5474
G1X76.9560Y-94.7010
G1X78.1141Y-94.5973
G1X78.9248Y-94.6970
G1X79.8513Y-94.6086
G1X81.1252Y-94.6760
G1X82.3991Y-94.6143
G1X85.8734Y-94.6400
G1 Z0F20000
(Start Block)

G1X19.1663Y-93.7356
G1Z6F20000
(Plotting speed under)
G1 F8000

G1X19.6626Y-93.8152
G1X20.0597Y-93.7809
G1X21.2509Y-93.3132
G1X21.8465Y-93.1993
G1X22.2435Y-93.2665
G1X23.2362Y-93.6771
G1X23.6829Y-93.7551
G1X24.1296Y-93.7166
G1X25.2216Y-93.3125
G1X25.6517Y-93.2522
G1X26.2142Y-93.3200
G1X27.4054Y-93.6766
G1X27.8521Y-93.7162
G1X30.5158Y-93.3146
G1X35.0324Y-93.2912
G1X36.2401Y-93.3537
G1X37.8284Y-93.6742
G1X38.3909Y-93.7162
G1X38.9203Y-93.6356
G1X39.9130Y-93.2978
G1X40.3101Y-93.2590
G1X40.7071Y-93.3111
G1X41.4020Y-93.6243
G1X41.9976Y-93.7609
G1X43.4866Y-93.1980
G1X44.8763Y-93.8186
G1X45.1741Y-93.7300
G1X46.2660Y-93.1444
G1X46.6631Y-93.2764
G1X47.4821Y-93.8071
G1X47.7550Y-93.8665
G1X48.3506Y-93.6062
G1X48.9587Y-93.1554
G1X49.2440Y-93.1059
G1X49.7404Y-93.2609
G1X50.4352Y-93.7914
G1X50.9316Y-93.9164
G1X51.3038Y-93.8196
G1X52.3461Y-93.1203
G1X52.7184Y-93.0292
G1X53.3140Y-93.1511
G1X54.6044Y-93.8393
G1X55.5309Y-94.0024
G1X57.7313Y-93.8165
G1X59.8159Y-93.9957
G1X60.3619Y-93.9752
G1X60.9575Y-93.8039
G1X62.0742Y-93.1275
G1X62.4465Y-93.0414
G1X62.9428Y-93.1600
G1X63.5605Y-93.6973
G1X64.1340Y-93.8967
G1X64.4098Y-93.8195
G1X64.9502Y-93.2654
G1X65.3252Y-93.1694
G1X65.7995Y-93.3291
G1X66.1855Y-93.7393
G1X66.4172Y-93.8731
G1X66.5909Y-93.8060
G1X67.0252Y-93.3875
G1X67.4098Y-93.2835
G1X67.8069Y-93.3510
G1X68.3280Y-93.7452
G1X68.5017Y-93.7936
G1X69.1966Y-93.2077
G1X69.3703Y-93.2663
G1X69.8046Y-93.6405
G1X69.9907Y-93.6750
G1X70.4871Y-93.4746
G1X70.9338Y-93.4129
G1X71.2812Y-93.4316
G1X71.9761Y-93.6311
G1X72.6709Y-93.3210
G1X73.3658Y-93.6737
G1X74.0607Y-93.3351
G1X74.7556Y-93.6147
G1X75.5497Y-93.4249
G1X76.7244Y-93.5454
G1X77.5350Y-93.4131
G1X78.2299Y-93.5744
G1X79.0406Y-93.4501
G1X80.3145Y-93.5485
G1X81.2410Y-93.4587
G1X82.5149Y-93.5282
G1X85.8734Y-93.5077
G1 Z0F20000
(Start Block)

G1X19.1663Y-92.0605
G1Z6F20000
(Plotting speed under)
G1 F8000

G1X20.3575Y-92.5988
G1X20.6553Y-92.6614
G1X21.2509Y-92.5692
G1X21.9457Y-92.2128
G1X22.5413Y-92.0542
G1X22.9384Y-92.1319
G1X23.9311Y-92.5750
G1X24.2289Y-92.6107
G1X24.7252Y-92.5262
G1X25.4201Y-92.2233
G1X26.0157Y-92.1035
G1X26.4128Y-92.1568
G1X27.5047Y-92.5141
G1X28.0837Y-92.5688
G1X29.8871Y-92.2154
G1X30.8632Y-92.1460
G1X33.5269Y-92.2514
G1X36.5379Y-92.1511
G1X38.9700Y-92.5664
G1X39.4167Y-92.5107
G1X40.7071Y-92.1018
G1X41.1042Y-92.1672
G1X41.9976Y-92.5622
G1X42.2954Y-92.6003
G1X42.7917Y-92.4967
G1X43.3997Y-92.1359
G1X43.7844Y-92.0838
G1X44.1814Y-92.1730
G1X44.7895Y-92.5801
G1X45.0749Y-92.6374
G1X45.5712Y-92.5260
G1X46.1792Y-92.0827
G1X46.4646Y-92.0295
G1X46.9609Y-92.1728
G1X47.5689Y-92.6441
G1X47.8543Y-92.6968
G1X48.3506Y-92.5359
G1X48.9587Y-92.0392
G1X49.2440Y-91.9706
G1X49.7404Y-92.1071
G1X50.4352Y-92.6712
G1X50.8323Y-92.7561
G1X51.2170Y-92.6590
G1X51.8250Y-92.1605
G1X52.2221Y-91.9422
G1X52.5198Y-91.8756
G1X52.9169Y-92.0132
G1X53.9096Y-92.6767
G1X54.6044Y-92.8540
G1X55.2001Y-92.7108
G1X56.7883Y-92.0668
G1X58.3104Y-91.8724
G1X59.2369Y-91.8932
G1X60.0641Y-92.0138
G1X62.2480Y-92.8512
G1X62.8436Y-92.7070
G1X63.6377Y-92.0943
G1X64.2333Y-91.8926
G1X64.4870Y-91.9983
G1X65.0274Y-92.5083
G1X65.6230Y-92.7481
G1X65.7995Y-92.6879
G1X66.2627Y-92.1569
G1X66.5164Y-92.0231
G1X67.1120Y-92.2236
G1X67.6332Y-92.6643
G1X67.8069Y-92.7134
G1X68.5017Y-92.0558
G1X68.7003Y-92.0923
G1X69.1966Y-92.4138
G1X69.6930Y-92.5103
G1X69.9783Y-92.4562
G1X70.4126Y-92.1395
G1X70.5863Y-92.0944
G1X71.2812Y-92.6200
G1X71.9761Y-92.1205
G1X72.6709Y-92.5001
G1X73.3658Y-92.2795
G1X74.6563Y-92.4232
G1X75.4504Y-92.2315
G1X76.1453Y-92.4833
G1X76.8402Y-92.2228
G1X77.5350Y-92.4338
G1X78.6932Y-92.3002
G1X79.6196Y-92.4236
G1X80.4303Y-92.2885
G1X81.7042Y-92.3999
G1X82.6307Y-92.3115
G1X84.2521Y-92.3814
G1X85.8734Y-92.3232
G1 Z0F20000
(Start Block)

G1X19.1663Y-91.0037
G1Z6F20000
(Plotting speed under)
G1 F8000

G1X19.6626Y-90.8601
G1X19.9604Y-90.8772
G1X21.0523Y-91.4407
G1X21.3501Y-91.5146
G1X21.8465Y-91.4113
G1X22.5537Y-91.0126
G1X22.9384Y-90.9294
G1X23.3355Y-90.9710
G1X24.0303Y-91.3380
G1X24.6259Y-91.4623
G1X26.1149Y-90.9539
G1X26.5120Y-91.0177
G1X27.5047Y-91.3698
G1X27.9679Y-91.4192
G1X28.3981Y-91.3756
G1X29.5893Y-91.0607
G1X30.2841Y-90.9985
G1X33.8743Y-91.2668
G1X37.5802Y-91.0053
G1X39.6648Y-91.4172
G1X40.1115Y-91.3556
G1X41.0049Y-91.0170
G1X41.4020Y-90.9559
G1X42.7917Y-91.4736
G1X44.1814Y-90.9039
G1X45.2734Y-91.4510
G1X45.5712Y-91.5202
G1X46.2660Y-91.0969
G1X46.8616Y-90.8679
G1X47.1346Y-90.9602
G1X47.6558Y-91.3821
G1X48.1521Y-91.5443
G1X48.4279Y-91.4885
G1X49.0455Y-90.9609
G1X49.5419Y-90.8356
G1X49.8176Y-90.9123
G1X50.4352Y-91.4630
G1X50.9316Y-91.6069
G1X51.2073Y-91.5391
G1X51.8250Y-90.9982
G1X52.4206Y-90.7378
G1X52.7804Y-90.8552
G1X53.7359Y-91.5796
G1X54.1081Y-91.6952
G1X54.6913Y-91.5690
G1X55.9942Y-90.7893
G1X56.6890Y-90.6603
G1X59.2369Y-90.9826
G1X60.1634Y-90.9126
G1X61.4538Y-90.6761
G1X62.0494Y-90.6835
G1X62.6450Y-90.9068
G1X63.5508Y-91.5375
G1X64.0348Y-91.6865
G1X64.4098Y-91.6083
G1X65.0274Y-91.0552
G1X65.6230Y-90.7429
G1X65.8767Y-90.8421
G1X66.4172Y-91.3994
G1X66.9135Y-91.5581
G1X67.1815Y-91.4742
G1X67.8069Y-90.8148
G1X67.9806Y-90.8578
G1X68.5017Y-91.2858
G1X68.9981Y-91.4487
G1X69.2738Y-91.3888
G1X69.7371Y-90.9154
G1X69.8915Y-90.8555
G1X70.5863Y-91.4880
G1X70.7601Y-91.4428
G1X71.2812Y-91.0615
G1X72.5717Y-91.3342
G1X73.3658Y-91.0060
G1X74.0607Y-91.4184
G1X74.7556Y-91.0000
G1X75.4504Y-91.3601
G1X76.2446Y-91.1032
G1X77.3034Y-91.2539
G1X78.2299Y-91.1080
G1X78.9248Y-91.3106
G1X79.7189Y-91.1214
G1X80.8936Y-91.2594
G1X81.7042Y-91.1352
G1X82.9781Y-91.2522
G1X84.2521Y-91.1604
G1X85.8734Y-91.2370
G1 Z0F20000
(Start Block)

G1X19.1663Y-90.3149
G1Z6F20000
(Plotting speed under)
G1 F8000

G1X19.8611Y-89.8660
G1X20.3575Y-89.7208
G1X20.6429Y-89.7579
G1X21.2509Y-90.1435
G1X21.8465Y-90.3710
G1X22.1443Y-90.3051
G1X23.0377Y-89.8184
G1X23.3355Y-89.7622
G1X24.3281Y-90.2270
G1X24.7252Y-90.3247
G1X26.1149Y-89.8070
G1X27.4054Y-90.2369
G1X27.7363Y-90.2723
G1X29.7051Y-89.8518
G1X32.0213Y-90.1849
G1X34.1059Y-90.2373
G1X36.1905Y-90.1885
G1X38.6225Y-89.8550
G1X40.0123Y-90.2211
G1X40.4755Y-90.2691
G1X40.8064Y-90.2219
G1X41.9976Y-89.8116
G1X43.3873Y-90.3193
G1X43.6851Y-90.2421
G1X44.1814Y-89.9384
G1X44.7770Y-89.7836
G1X45.0500Y-89.8811
G1X45.5712Y-90.2602
G1X45.9683Y-90.3245
G1X46.3529Y-90.2231
G1X46.7872Y-89.8453
G1X47.0602Y-89.7399
G1X47.6558Y-89.9327
G1X48.3506Y-90.4275
G1X48.6485Y-90.3372
G1X49.4798Y-89.7410
G1X49.7404Y-89.6452
G1X50.0010Y-89.7637
G1X50.8695Y-90.4222
G1X51.1301Y-90.4893
G1X52.1724Y-89.7164
G1X52.5198Y-89.5830
G1X52.7804Y-89.6861
G1X53.7359Y-90.4546
G1X54.0088Y-90.5504
G1X54.5052Y-90.4184
G1X55.4978Y-89.7058
G1X56.0934Y-89.5132
G1X56.7883Y-89.6774
G1X58.3766Y-90.3659
G1X59.8159Y-90.5504
G1X60.7424Y-90.5181
G1X61.5531Y-90.3713
G1X63.2406Y-89.6137
G1X63.6377Y-89.5156
G1X64.2333Y-89.6883
G1X64.9502Y-90.2995
G1X65.5238Y-90.5367
G1X65.7995Y-90.4700
G1X66.3399Y-89.9072
G1X66.9135Y-89.6385
G1X67.1815Y-89.7083
G1X67.6679Y-90.3073
G1X67.9062Y-90.4235
G1X68.2040Y-90.3269
G1X69.0229Y-89.7138
G1X69.1966Y-89.6735
G1X69.8915Y-90.3892
G1X70.0652Y-90.3520
G1X70.5863Y-89.9546
G1X70.9834Y-89.8851
G1X71.3681Y-89.9588
G1X71.8024Y-90.2803
G1X71.9761Y-90.3226
G1X72.6709Y-89.7581
G1X73.3658Y-90.3053
G1X74.0607Y-89.8905
G1X74.8714Y-90.1317
G1X76.1453Y-89.9593
G1X76.8402Y-90.1976
G1X77.5350Y-89.8967
G1X78.2299Y-90.1935
G1X79.0240Y-89.9674
G1X80.1987Y-90.1222
G1X81.0094Y-89.9612
G1X81.8200Y-90.1174
G1X83.0940Y-89.9876
G1X84.3679Y-90.1063
G1X85.8734Y-90.0101
G1 Z0F20000
(Start Block)

G1X19.1663Y-89.2734
G1Z6F20000
(Plotting speed under)
G1 F8000

G1X19.6626Y-89.1558
G1X20.3823Y-88.6643
G1X20.6553Y-88.5768
G1X21.2509Y-88.7732
G1X21.7720Y-89.1490
G1X22.0450Y-89.2204
G1X23.3355Y-88.6114
G1X24.7252Y-89.1769
G1X26.0157Y-88.6697
G1X27.5047Y-89.1321
G1X28.7951Y-88.7418
G1X29.1260Y-88.7102
G1X30.8797Y-89.0484
G1X31.5581Y-89.0892
G1X34.3375Y-88.9432
G1X37.4644Y-89.0834
G1X39.2181Y-88.7364
G1X39.6648Y-88.7163
G1X41.3027Y-89.1286
G1X42.4939Y-88.7027
G1X42.7917Y-88.6686
G1X43.4866Y-89.0038
G1X44.0822Y-89.1601
G1X44.3552Y-89.0727
G1X44.8763Y-88.7221
G1X45.2734Y-88.6660
G1X45.6581Y-88.7636
G1X46.0923Y-89.1198
G1X46.3653Y-89.2063
G1X46.7624Y-89.0674
G1X47.6558Y-88.5571
G1X48.3506Y-89.0239
G1X48.9462Y-89.2521
G1X49.1999Y-89.1459
G1X49.7404Y-88.6324
G1X50.2367Y-88.5885
G1X50.5125Y-88.7068
G1X50.9757Y-89.1950
G1X51.2294Y-89.3098
G1X51.8250Y-89.0897
G1X52.3654Y-88.5603
G1X52.6191Y-88.4583
G1X53.2147Y-88.7098
G1X53.8324Y-89.2961
G1X54.2074Y-89.3824
G1X54.6817Y-89.2178
G1X55.4978Y-88.5370
G1X55.9942Y-88.3674
G1X56.4905Y-88.5279
G1X57.8802Y-89.3406
G1X58.7736Y-89.4850
G1X60.6266Y-89.3519
G1X62.9428Y-89.4632
G1X63.6377Y-89.2377
G1X64.7669Y-88.4785
G1X65.1267Y-88.3790
G1X65.6230Y-88.5498
G1X66.3399Y-89.2354
G1X66.7150Y-89.3550
G1X67.1815Y-89.2023
G1X67.6679Y-88.6090
G1X67.9062Y-88.4956
G1X68.5017Y-88.7717
G1X68.9650Y-89.2365
G1X69.1966Y-89.3441
G1X69.8915Y-88.6367
G1X70.2886Y-88.6910
G1X71.1075Y-89.1902
G1X71.2812Y-89.2162
G1X71.9761Y-88.5572
G1X72.1305Y-88.6253
G1X72.6709Y-89.1627
G1X72.8695Y-89.1188
G1X73.3658Y-88.8063
G1X73.8622Y-88.8273
G1X74.7556Y-89.0567
G1X75.4504Y-88.7014
G1X76.1453Y-89.1297
G1X76.8402Y-88.7108
G1X77.5350Y-89.0522
G1X78.2299Y-88.8394
G1X79.6196Y-88.9928
G1X80.3145Y-88.7883
G1X81.0094Y-89.0091
G1X82.1675Y-88.8459
G1X83.0940Y-88.9886
G1X84.3679Y-88.8473
G1X85.8734Y-88.9591
G1 Z0F20000
(Start Block)

G1X19.1663Y-87.9143
G1Z6F20000
(Plotting speed under)
G1 F8000

G1X19.5633Y-88.0891
G1X19.8611Y-88.1015
G1X20.5560Y-87.5686
G1X21.0523Y-87.4694
G1X21.3377Y-87.5512
G1X21.8589Y-87.9976
G1X22.1443Y-88.0437
G1X22.6406Y-87.8669
G1X23.3355Y-87.4646
G1X24.0303Y-87.8156
G1X24.6259Y-88.0107
G1X24.8989Y-87.9389
G1X25.4201Y-87.6094
G1X25.8172Y-87.5544
G1X26.2142Y-87.6263
G1X26.7105Y-87.9066
G1X27.0083Y-87.9634
G1X27.5047Y-87.9009
G1X28.1003Y-87.6438
G1X28.5470Y-87.5738
G1X28.9937Y-87.6140
G1X30.2841Y-87.9407
G1X32.6004Y-87.6446
G1X34.8008Y-87.5993
G1X36.6538Y-87.6494
G1X38.7384Y-87.9407
G1X39.3174Y-87.8877
G1X40.7071Y-87.5610
G1X42.0969Y-87.9865
G1X43.4866Y-87.5154
G1X44.1814Y-87.8455
G1X44.7770Y-88.0082
G1X45.0500Y-87.9143
G1X45.4843Y-87.5825
G1X45.7697Y-87.5213
G1X46.2660Y-87.6288
G1X46.9609Y-88.0818
G1X48.2514Y-87.4408
G1X48.5051Y-87.5368
G1X48.9683Y-87.9941
G1X49.2440Y-88.0694
G1X49.7404Y-87.9363
G1X50.4352Y-87.3613
G1X50.6958Y-87.4445
G1X51.5644Y-88.1119
G1X51.8250Y-88.1945
G1X52.5198Y-87.6010
G1X53.1155Y-87.3154
G1X53.3691Y-87.4141
G1X53.9096Y-87.9643
G1X54.5052Y-88.2517
G1X54.7782Y-88.1623
G1X55.7336Y-87.3472
G1X56.0934Y-87.2233
G1X56.6890Y-87.4575
G1X57.6817Y-88.1678
G1X58.3104Y-88.3377
G1X58.8729Y-88.2639
G1X60.3619Y-87.8118
G1X61.3215Y-87.7010
G1X62.2480Y-87.7899
G1X63.9355Y-88.2942
G1X64.4318Y-88.3277
G1X65.0274Y-88.1160
G1X66.0201Y-87.3528
G1X66.4172Y-87.2220
G1X66.6777Y-87.3382
G1X67.5753Y-88.1546
G1X67.8069Y-88.2662
G1X68.0675Y-88.1480
G1X68.8492Y-87.4531
G1X69.1098Y-87.3124
G1X69.3356Y-87.4052
G1X69.7525Y-87.9590
G1X69.9907Y-88.0925
G1X70.5863Y-87.8745
G1X71.1075Y-87.4316
G1X71.2812Y-87.3887
G1X71.9761Y-88.1177
G1X72.1498Y-88.0595
G1X72.6709Y-87.5931
G1X72.9688Y-87.5948
G1X74.0607Y-87.9609
G1X74.7556Y-87.4906
G1X75.4504Y-88.0341
G1X76.1453Y-87.5390
G1X76.8402Y-87.9064
G1X77.7667Y-87.6939
G1X78.9248Y-87.8680
G1X79.6196Y-87.6152
G1X80.3145Y-87.9044
G1X81.1086Y-87.6696
G1X82.2998Y-87.8443
G1X83.0940Y-87.6692
G1X84.3679Y-87.8306
G1X85.1785Y-87.7139
G1X85.8734Y-87.7158
G1 Z0F20000
(Start Block)

G1X19.1663Y-86.5345
G1Z6F20000
(Plotting speed under)
G1 F8000

G1X19.6874Y-86.9428
G1X19.8611Y-86.9959
G1X20.5560Y-86.5219
G1X21.1516Y-86.3134
G1X21.4053Y-86.4157
G1X21.8685Y-86.8531
G1X22.0450Y-86.8977
G1X23.3355Y-86.3256
G1X23.9435Y-86.7355
G1X24.2289Y-86.8157
G1X24.7252Y-86.7610
G1X25.4201Y-86.3730
G1X26.8098Y-86.8315
G1X27.5047Y-86.5389
G1X28.1003Y-86.4258
G1X29.5893Y-86.7966
G1X30.9790Y-86.5023
G1X31.6739Y-86.4538
G1X34.8008Y-86.6641
G1X38.1593Y-86.4573
G1X40.1115Y-86.7934
G1X41.6005Y-86.4321
G1X42.0969Y-86.5002
G1X42.8910Y-86.8161
G1X43.4866Y-86.6987
G1X44.1814Y-86.3712
G1X45.4719Y-86.8691
G1X45.7449Y-86.7844
G1X46.1792Y-86.4430
G1X46.4646Y-86.3823
G1X46.9609Y-86.4948
G1X47.6558Y-86.9392
G1X48.3506Y-86.4914
G1X48.8470Y-86.3312
G1X49.1227Y-86.3944
G1X49.5860Y-86.8691
G1X49.8396Y-86.9609
G1X50.4352Y-86.6506
G1X50.9564Y-86.2523
G1X51.1301Y-86.2137
G1X51.8250Y-86.8253
G1X52.3213Y-86.9864
G1X52.5971Y-86.9009
G1X53.1375Y-86.2935
G1X53.4132Y-86.2029
G1X53.9096Y-86.3590
G1X54.5272Y-87.0027
G1X54.8030Y-87.0829
G1X55.3765Y-86.8555
G1X55.9942Y-86.2364
G1X56.4905Y-86.1025
G1X56.8627Y-86.2262
G1X57.9050Y-87.0447
G1X58.4758Y-87.1833
G1X58.9722Y-87.0899
G1X60.6597Y-86.3750
G1X61.9005Y-86.1996
G1X62.7112Y-86.2398
G1X63.3399Y-86.3653
G1X64.9282Y-87.0581
G1X65.5238Y-87.1901
G1X65.9829Y-87.0560
G1X66.9576Y-86.2474
G1X67.3106Y-86.1159
G1X67.8069Y-86.2500
G1X68.4323Y-86.9415
G1X68.7003Y-87.0417
G1X69.1966Y-86.9085
G1X69.8915Y-86.1667
G1X70.0652Y-86.2051
G1X70.5863Y-86.6494
G1X71.1820Y-86.9805
G1X71.4202Y-86.8657
G1X71.7676Y-86.3794
G1X71.9761Y-86.2185
G1X72.1305Y-86.2715
G1X72.6709Y-86.8000
G1X73.1673Y-86.7595
G1X74.0607Y-86.3604
G1X74.7556Y-86.9321
G1X75.4504Y-86.3295
G1X76.1453Y-86.8161
G1X76.8402Y-86.5211
G1X78.1306Y-86.7167
G1X78.9248Y-86.4584
G1X79.6196Y-86.7934
G1X80.3145Y-86.4611
G1X81.1086Y-86.7078
G1X82.2998Y-86.5238
G1X83.0940Y-86.7249
G1X84.1362Y-86.5474
G1X85.1785Y-86.6914
G1X85.8734Y-86.6335
G1 Z0F20000
(Start Block)

G1X19.1663Y-85.2587
G1Z6F20000
(Plotting speed under)
G1 F8000

G1X19.8611Y-85.8430
G1X20.0348Y-85.7970
G1X20.5560Y-85.3923
G1X21.1516Y-85.1870
G1X21.3281Y-85.2374
G1X21.9457Y-85.7747
G1X22.1443Y-85.7337
G1X22.6406Y-85.4133
G1X23.2362Y-85.2397
G1X23.4223Y-85.2868
G1X24.0303Y-85.7313
G1X24.7252Y-85.4130
G1X25.3208Y-85.2712
G1X26.2142Y-85.6774
G1X27.5047Y-85.2677
G1X28.7951Y-85.6434
G1X30.3834Y-85.3063
G1X31.9055Y-85.5588
G1X32.7162Y-85.6124
G1X35.0324Y-85.5482
G1X37.5802Y-85.6057
G1X39.7807Y-85.3130
G1X41.3027Y-85.6493
G1X42.7917Y-85.2711
G1X43.4866Y-85.5596
G1X44.0822Y-85.6613
G1X44.9756Y-85.2569
G1X45.5712Y-85.4119
G1X46.2660Y-85.7383
G1X46.8741Y-85.3441
G1X47.2587Y-85.2540
G1X47.6558Y-85.3140
G1X48.3506Y-85.7912
G1X49.0455Y-85.3434
G1X49.5419Y-85.1963
G1X49.8176Y-85.2653
G1X50.4352Y-85.8271
G1X50.6958Y-85.7514
G1X51.7257Y-85.0898
G1X51.9794Y-85.1903
G1X52.4426Y-85.7206
G1X52.8176Y-85.8239
G1X53.2147Y-85.7021
G1X53.7552Y-85.1200
G1X54.0088Y-85.0190
G1X54.6044Y-85.3638
G1X55.1449Y-85.8927
G1X55.3862Y-85.9672
G1X55.9942Y-85.5897
G1X56.6118Y-85.0104
G1X56.8876Y-84.9473
G1X57.4611Y-85.1703
G1X58.0016Y-85.6702
G1X58.3766Y-85.9080
G1X58.8729Y-86.0466
G1X59.4685Y-85.8800
G1X60.9575Y-85.1564
G1X61.6689Y-84.9914
G1X62.4796Y-84.9291
G1X63.4061Y-84.9573
G1X64.2333Y-85.1062
G1X66.0201Y-85.9545
G1X66.4172Y-86.0455
G1X67.0128Y-85.8331
G1X67.7297Y-85.1802
G1X68.3032Y-84.9571
G1X68.5790Y-85.0393
G1X69.1966Y-85.7019
G1X69.6930Y-85.9158
G1X69.9610Y-85.8375
G1X70.4474Y-85.2038
G1X70.6856Y-85.0765
G1X71.2812Y-85.3466
G1X71.7445Y-85.7947
G1X71.9761Y-85.8904
G1X72.1845Y-85.7219
G1X72.5320Y-85.2298
G1X72.7578Y-85.1271
G1X73.3658Y-85.5277
G1X73.8622Y-85.6795
G1X74.1476Y-85.6220
G1X74.5818Y-85.2109
G1X74.7556Y-85.1483
G1X75.4504Y-85.7905
G1X76.1453Y-85.2272
G1X76.9394Y-85.6019
G1X78.1306Y-85.3711
G1X78.9248Y-85.6302
G1X79.6196Y-85.2763
G1X80.3145Y-85.6482
G1X81.0094Y-85.3478
G1X82.1675Y-85.5446
G1X83.0940Y-85.3479
G1X83.7888Y-85.5580
G1X85.1785Y-85.3786
G1X85.8734Y-85.5107
G1 Z0F20000
(Start Block)

G1X19.1663Y-84.0821
G1Z6F20000
(Plotting speed under)
G1 F8000

G1X19.8611Y-84.6999
G1X20.0348Y-84.6375
G1X20.5560Y-84.1758
G1X20.9531Y-84.0977
G1X21.3377Y-84.1925
G1X21.7720Y-84.5796
G1X21.9457Y-84.6425
G1X22.5537Y-84.1407
G1X22.7399Y-84.0910
G1X23.9311Y-84.5438
G1X24.1172Y-84.5127
G1X24.7252Y-84.0845
G1X25.4201Y-84.3873
G1X25.9164Y-84.4861
G1X26.2142Y-84.4411
G1X26.8098Y-84.1269
G1X28.1995Y-84.4950
G1X28.8944Y-84.2559
G1X29.4900Y-84.1702
G1X31.0948Y-84.4662
G1X32.8320Y-84.2398
G1X33.9901Y-84.1954
G1X37.1170Y-84.2096
G1X39.4332Y-84.4629
G1X41.1704Y-84.1736
G1X42.0969Y-84.4345
G1X42.5601Y-84.4795
G1X43.5859Y-84.1492
G1X44.1814Y-84.2547
G1X44.8763Y-84.5472
G1X45.5712Y-84.2286
G1X46.0675Y-84.1299
G1X46.3529Y-84.1868
G1X46.9609Y-84.5829
G1X47.9536Y-84.1412
G1X48.2514Y-84.0824
G1X48.4375Y-84.1364
G1X49.0455Y-84.6271
G1X49.2192Y-84.5945
G1X50.0382Y-84.1126
G1X50.3360Y-84.0308
G1X50.5897Y-84.1466
G1X51.0529Y-84.6372
G1X51.2170Y-84.6700
G1X52.4330Y-83.9417
G1X52.6743Y-84.0425
G1X53.1375Y-84.5808
G1X53.4132Y-84.6758
G1X53.9096Y-84.5382
G1X54.4500Y-83.9587
G1X54.6913Y-83.8663
G1X54.9519Y-83.9847
G1X55.9942Y-84.8260
G1X56.2548Y-84.7453
G1X57.2295Y-83.8902
G1X57.4832Y-83.7939
G1X58.0788Y-84.0130
G1X58.9722Y-84.7380
G1X59.4685Y-84.8990
G1X60.1634Y-84.7076
G1X61.6524Y-83.9911
G1X62.3638Y-83.8357
G1X63.1745Y-83.7792
G1X64.1009Y-83.8108
G1X64.9282Y-83.9633
G1X66.7150Y-84.8113
G1X67.1120Y-84.8990
G1X67.6084Y-84.7398
G1X68.4245Y-84.0291
G1X68.9981Y-83.8115
G1X69.3356Y-83.9482
G1X69.8915Y-84.5614
G1X70.3878Y-84.7671
G1X70.6559Y-84.6853
G1X71.1422Y-84.0494
G1X71.3805Y-83.9253
G1X71.7776Y-84.0870
G1X72.4972Y-84.6920
G1X72.6709Y-84.7388
G1X73.3658Y-83.9744
G1X73.5395Y-84.0051
G1X74.0607Y-84.4013
G1X74.5570Y-84.5219
G1X74.8424Y-84.4567
G1X75.2767Y-84.0681
G1X75.4504Y-84.0118
G1X76.1453Y-84.6460
G1X76.8402Y-84.0688
G1X77.0139Y-84.1127
G1X77.4482Y-84.4364
G1X77.6343Y-84.4702
G1X78.2299Y-84.2970
G1X78.8090Y-84.2345
G1X79.6196Y-84.4769
G1X80.3145Y-84.1314
G1X81.0094Y-84.5018
G1X81.7042Y-84.2041
G1X82.9781Y-84.4082
G1X83.7888Y-84.1974
G1X84.5995Y-84.4059
G1X85.8734Y-84.2275
G1 Z0F20000
(Start Block)

G1X19.1663Y-82.9932
G1Z6F20000
(Plotting speed under)
G1 F8000

G1X19.7067Y-83.4970
G1X19.8611Y-83.5498
G1X20.5560Y-82.9025
G1X20.7545Y-82.9209
G1X21.2509Y-83.1959
G1X21.8465Y-83.3929
G1X22.0326Y-83.3458
G1X22.6406Y-82.8809
G1X23.2486Y-83.3639
G1X23.4347Y-83.3998
G1X24.0303Y-83.1333
G1X24.6259Y-83.0216
G1X25.4201Y-83.3991
G1X26.2142Y-83.0232
G1X27.5047Y-83.3530
G1X28.1995Y-83.0886
G1X28.5470Y-83.0444
G1X28.8944Y-83.0613
G1X29.8209Y-83.3056
G1X31.5581Y-83.0524
G1X33.7585Y-83.2531
G1X35.3798Y-83.2825
G1X37.1170Y-83.2441
G1X39.2016Y-83.0496
G1X40.8229Y-83.3095
G1X41.4020Y-83.2565
G1X42.2954Y-83.0335
G1X42.7917Y-83.0970
G1X43.4866Y-83.3486
G1X44.8763Y-82.9831
G1X45.4719Y-83.2958
G1X45.7697Y-83.3444
G1X46.2660Y-83.2538
G1X46.9609Y-82.9300
G1X47.5689Y-83.3127
G1X47.8543Y-83.3677
G1X48.3506Y-83.2645
G1X49.0455Y-82.8852
G1X49.6535Y-83.3680
G1X49.8396Y-83.4211
G1X50.4352Y-83.2419
G1X50.9564Y-82.8758
G1X51.1301Y-82.8417
G1X51.7478Y-83.4194
G1X51.9242Y-83.4761
G1X52.5198Y-83.2688
G1X53.0410Y-82.8231
G1X53.2147Y-82.7710
G1X53.3691Y-82.8467
G1X53.8324Y-83.3532
G1X54.3066Y-83.5248
G1X54.6739Y-83.4240
G1X55.1603Y-82.8519
G1X55.3986Y-82.7423
G1X55.9942Y-83.0167
G1X56.5346Y-83.5731
G1X56.7883Y-83.6679
G1X57.3839Y-83.3496
G1X58.0016Y-82.7510
G1X58.3766Y-82.6621
G1X58.8509Y-82.8209
G1X59.8656Y-83.6140
G1X60.3619Y-83.7509
G1X60.9575Y-83.6255
G1X62.5458Y-82.9402
G1X63.8693Y-82.7479
G1X64.6304Y-82.7803
G1X65.3252Y-82.9087
G1X67.0128Y-83.6348
G1X67.6084Y-83.7487
G1X68.0675Y-83.5983
G1X69.0422Y-82.7864
G1X69.3952Y-82.6715
G1X69.8915Y-82.8362
G1X70.4474Y-83.4696
G1X70.7849Y-83.6113
G1X71.2812Y-83.4322
G1X71.7676Y-82.8541
G1X71.9761Y-82.7136
G1X72.2077Y-82.8160
G1X72.6709Y-83.2663
G1X73.2666Y-83.5074
G1X73.4353Y-83.4465
G1X73.8523Y-82.9114
G1X74.0607Y-82.7669
G1X74.2151Y-82.8374
G1X74.6784Y-83.3812
G1X74.8548Y-83.4335
G1X76.0460Y-82.9731
G1X76.2322Y-83.0172
G1X76.6664Y-83.4055
G1X76.8402Y-83.4673
G1X77.5350Y-82.8784
G1X78.2299Y-83.4144
G1X78.8379Y-83.0598
G1X79.0240Y-83.0299
G1X79.6196Y-83.2103
G1X80.0829Y-83.2560
G1X81.0094Y-83.0313
G1X81.7042Y-83.3529
G1X82.3991Y-83.0252
G1X83.2098Y-83.2535
G1X83.7888Y-83.2218
G1X84.4837Y-83.0576
G1X85.1785Y-83.2619
G1X85.8734Y-83.2066
G1 Z0F20000
(Start Block)

G1X19.1663Y-82.0080
G1Z6F20000
(Plotting speed under)
G1 F8000

G1X19.6626Y-82.2920
G1X19.8611Y-82.3107
G1X20.5560Y-81.6775
G1X21.2509Y-82.2845
G1X21.4494Y-82.2498
G1X21.9457Y-81.9547
G1X22.3428Y-81.8954
G1X22.7399Y-81.9582
G1X23.3355Y-82.2548
G1X24.0303Y-81.7815
G1X24.6384Y-82.1681
G1X24.8245Y-82.2017
G1X26.0157Y-81.8921
G1X26.8098Y-82.2114
G1X27.5047Y-81.9453
G1X27.8521Y-81.9120
G1X28.2988Y-81.9639
G1X28.8944Y-82.1684
G1X30.2841Y-81.9035
G1X32.0213Y-82.1362
G1X35.4956Y-81.9524
G1X39.2016Y-82.1361
G1X40.8229Y-81.9086
G1X42.1961Y-82.1590
G1X42.7917Y-82.0859
G1X43.4866Y-81.8710
G1X44.7770Y-82.1983
G1X45.6705Y-81.8671
G1X46.2660Y-81.9884
G1X46.9609Y-82.2438
G1X47.5689Y-81.8666
G1X47.7550Y-81.8323
G1X48.9462Y-82.2702
G1X49.1324Y-82.2355
G1X49.7404Y-81.7616
G1X51.0309Y-82.2790
G1X51.2073Y-82.2267
G1X51.8250Y-81.6872
G1X51.9987Y-81.7373
G1X52.5198Y-82.1495
G1X53.0162Y-82.3177
G1X53.2919Y-82.2474
G1X53.9096Y-81.6392
G1X54.1702Y-81.7233
G1X55.2125Y-82.4436
G1X55.4537Y-82.3463
G1X55.9942Y-81.7549
G1X56.3912Y-81.6283
G1X56.7663Y-81.7332
G1X57.3839Y-82.3924
G1X57.7810Y-82.4840
G1X58.1560Y-82.3604
G1X58.8729Y-81.6839
G1X59.3692Y-81.4988
G1X59.7291Y-81.6060
G1X60.8582Y-82.4272
G1X61.3546Y-82.5870
G1X61.9502Y-82.5560
G1X63.7370Y-82.0298
G1X64.6800Y-81.9421
G1X65.7223Y-82.0689
G1X67.0128Y-82.4866
G1X67.7076Y-82.6078
G1X68.3032Y-82.4302
G1X69.1966Y-81.7418
G1X69.7922Y-81.4937
G1X70.0459Y-81.5800
G1X71.0206Y-82.4462
G1X71.2812Y-82.5318
G1X71.9761Y-81.8910
G1X72.5717Y-81.6255
G1X72.8099Y-81.7569
G1X73.3658Y-82.4229
G1X73.5395Y-82.3940
G1X74.3585Y-81.8247
G1X74.6563Y-81.7376
G1X74.8328Y-81.7939
G1X75.2960Y-82.3350
G1X75.4504Y-82.4086
G1X76.1453Y-81.7373
G1X76.9394Y-82.1648
G1X77.5350Y-82.0840
G1X78.2299Y-81.8487
G1X78.9248Y-82.2737
G1X79.6196Y-81.7812
G1X80.3145Y-82.2295
G1X81.1086Y-81.9102
G1X82.2998Y-82.1276
G1X83.0940Y-81.8784
G1X83.7888Y-82.1629
G1X84.9469Y-81.9435
G1X85.8734Y-82.1375
G1 Z0F20000
(Start Block)

G1X19.1663Y-81.1078
G1Z6F20000
(Plotting speed under)
G1 F8000

G1X19.4641Y-81.0799
G1X20.4567Y-80.6666
G1X20.6429Y-80.7082
G1X21.0771Y-81.1159
G1X21.2509Y-81.1832
G1X21.9457Y-80.5877
G1X22.6406Y-81.1014
G1X23.4347Y-80.7711
G1X24.7252Y-81.0225
G1X25.4201Y-80.6879
G1X26.1149Y-81.0492
G1X27.1572Y-80.7847
G1X27.6039Y-80.8199
G1X28.1995Y-81.0265
G1X28.8944Y-80.8357
G1X29.4735Y-80.7761
G1X30.6316Y-80.9818
G1X32.3687Y-80.7886
G1X35.7273Y-80.9341
G1X39.0858Y-80.7892
G1X40.8229Y-80.9875
G1X42.3285Y-80.7717
G1X43.4866Y-81.0197
G1X44.7770Y-80.7287
G1X45.4719Y-80.9859
G1X45.7697Y-81.0198
G1X46.2660Y-80.9330
G1X46.9609Y-80.6859
G1X47.5565Y-81.0194
G1X47.7550Y-81.0566
G1X48.9462Y-80.6659
G1X49.1324Y-80.6986
G1X49.7404Y-81.1345
G1X50.4352Y-80.7996
G1X51.0309Y-80.6834
G1X51.2170Y-80.7444
G1X51.6513Y-81.1387
G1X51.8250Y-81.2068
G1X51.9987Y-81.1356
G1X52.4330Y-80.7326
G1X52.8176Y-80.6459
G1X53.2147Y-80.7402
G1X53.7359Y-81.1989
G1X53.9096Y-81.2619
G1X54.0640Y-81.1939
G1X54.5272Y-80.7150
G1X55.0015Y-80.5742
G1X55.3765Y-80.6892
G1X55.8398Y-81.2109
G1X56.0810Y-81.3038
G1X56.3416Y-81.1830
G1X57.2102Y-80.4679
G1X57.3839Y-80.4094
G1X57.6445Y-80.5284
G1X58.5131Y-81.2792
G1X58.7736Y-81.3894
G1X59.1211Y-81.2556
G1X60.0862Y-80.4652
G1X60.4612Y-80.3597
G1X60.9451Y-80.4491
G1X62.2480Y-81.2627
G1X63.1745Y-81.4607
G1X65.1432Y-81.3089
G1X66.9962Y-81.4528
G1X67.6911Y-81.4235
G1X68.3032Y-81.1954
G1X69.1966Y-80.5856
G1X69.7922Y-80.3420
G1X70.1521Y-80.4586
G1X71.2812Y-81.3733
G1X71.6286Y-81.2539
G1X72.4393Y-80.5203
G1X72.6709Y-80.4092
G1X72.8254Y-80.4776
G1X73.3658Y-81.0397
G1X73.8622Y-81.2063
G1X74.1302Y-81.1262
G1X74.5471Y-80.6098
G1X74.7556Y-80.4735
G1X74.9100Y-80.5420
G1X75.3732Y-81.0716
G1X75.5497Y-81.1304
G1X76.6416Y-80.6663
G1X76.8402Y-80.6454
G1X77.5350Y-81.1969
G1X78.2299Y-80.5974
G1X78.9248Y-81.0734
G1X79.8513Y-80.7931
G1X80.3145Y-80.8319
G1X81.0094Y-81.0264
G1X81.7042Y-80.6922
G1X82.3991Y-81.0599
G1X83.1932Y-80.7740
G1X84.3844Y-80.9946
G1X85.1785Y-80.7603
G1X85.8734Y-80.9071
G1 Z0F20000
(Start Block)

G1X19.1663Y-80.1167
G1Z6F20000
(Plotting speed under)
G1 F8000

G1X19.3207Y-80.0384
G1X19.8611Y-79.4412
G1X20.0348Y-79.4891
G1X20.5560Y-79.8910
G1X21.8465Y-79.6259
G1X22.6406Y-79.9193
G1X23.3355Y-79.5117
G1X24.0303Y-79.9611
G1X24.7252Y-79.5534
G1X25.4201Y-79.8368
G1X26.7105Y-79.6268
G1X27.5047Y-79.8798
G1X28.4312Y-79.6433
G1X29.5893Y-79.8459
G1X30.9790Y-79.6416
G1X32.7162Y-79.8154
G1X35.8431Y-79.7022
G1X39.2016Y-79.8153
G1X40.9388Y-79.6477
G1X42.4443Y-79.8314
G1X43.5859Y-79.6245
G1X44.8763Y-79.8795
G1X45.4719Y-79.6785
G1X45.9186Y-79.6223
G1X46.2660Y-79.6516
G1X46.9609Y-79.9183
G1X47.5565Y-79.6504
G1X47.8543Y-79.6038
G1X48.3506Y-79.6719
G1X49.0455Y-79.9493
G1X49.7404Y-79.5259
G1X51.0309Y-79.9337
G1X51.2170Y-79.8836
G1X51.8250Y-79.4394
G1X52.4330Y-79.8763
G1X52.7184Y-79.9483
G1X53.2147Y-79.8491
G1X53.7359Y-79.4411
G1X53.9096Y-79.3919
G1X54.5272Y-79.9503
G1X54.8030Y-80.0225
G1X55.2993Y-79.8739
G1X55.8398Y-79.3821
G1X55.9942Y-79.3258
G1X56.2258Y-79.4388
G1X56.6890Y-79.8749
G1X57.2847Y-80.1346
G1X57.5383Y-80.0214
G1X58.0788Y-79.4536
G1X58.5751Y-79.3144
G1X58.8509Y-79.3980
G1X59.4685Y-79.9963
G1X60.0641Y-80.2281
G1X60.4239Y-80.0985
G1X61.4662Y-79.3182
G1X61.9502Y-79.2048
G1X62.4465Y-79.2843
G1X64.2333Y-80.0540
G1X65.6065Y-80.2308
G1X66.5164Y-80.2051
G1X67.3106Y-80.0747
G1X67.9062Y-79.8717
G1X68.9981Y-79.3192
G1X69.4944Y-79.2078
G1X69.9783Y-79.3074
G1X71.0206Y-80.1345
G1X71.2812Y-80.2395
G1X71.6286Y-80.1013
G1X72.4393Y-79.3780
G1X72.6709Y-79.2641
G1X72.8447Y-79.3271
G1X73.6636Y-80.0066
G1X73.9615Y-80.1203
G1X74.1997Y-80.0066
G1X74.7556Y-79.3687
G1X74.9293Y-79.4013
G1X75.4504Y-79.8025
G1X76.0460Y-79.9770
G1X76.2225Y-79.9214
G1X76.6858Y-79.4524
G1X76.8402Y-79.3939
G1X77.5350Y-80.0331
G1X77.7087Y-79.9816
G1X78.1430Y-79.6118
G1X78.3292Y-79.5677
G1X79.5204Y-79.8719
G1X80.3145Y-79.5284
G1X81.0094Y-79.9607
G1X81.7042Y-79.5564
G1X82.4984Y-79.8317
G1X83.6896Y-79.6127
G1X84.4837Y-79.8791
G1X85.1785Y-79.6734
G1X85.8734Y-79.6732
G1 Z0F20000
(Start Block)

G1X19.1663Y-78.7566
G1Z6F20000
(Plotting speed under)
G1 F8000

G1X19.8611Y-78.3144
G1X20.5560Y-78.9005
G1X21.2509Y-78.2924
G1X21.9457Y-78.8444
G1X22.6406Y-78.3941
G1X23.3355Y-78.7161
G1X24.1461Y-78.5299
G1X25.4201Y-78.6852
G1X26.1149Y-78.4478
G1X26.8098Y-78.7326
G1X27.6205Y-78.4995
G1X28.8944Y-78.6900
G1X29.8209Y-78.5097
G1X31.0948Y-78.6666
G1X33.0636Y-78.5220
G1X36.0747Y-78.6122
G1X39.3174Y-78.5239
G1X41.1704Y-78.6654
G1X42.6759Y-78.5028
G1X43.8340Y-78.6783
G1X44.8763Y-78.4690
G1X46.1668Y-78.7134
G1X46.9609Y-78.4413
G1X48.2514Y-78.7217
G1X49.0455Y-78.3871
G1X49.8396Y-78.7371
G1X50.4352Y-78.6309
G1X51.1301Y-78.3740
G1X51.8250Y-78.8462
G1X52.5198Y-78.4824
G1X53.1155Y-78.4134
G1X53.9096Y-78.9128
G1X54.5176Y-78.4163
G1X54.8030Y-78.3391
G1X55.2993Y-78.4606
G1X55.8204Y-78.9074
G1X55.9942Y-78.9694
G1X56.6890Y-78.4112
G1X57.1854Y-78.2508
G1X57.4611Y-78.3272
G1X58.0016Y-78.8986
G1X58.2773Y-78.9789
G1X58.7736Y-78.8213
G1X59.3913Y-78.2346
G1X59.6670Y-78.1511
G1X60.2406Y-78.3248
G1X61.0568Y-78.9777
G1X61.5531Y-79.0875
G1X61.9502Y-78.9351
G1X63.0421Y-78.2591
G1X63.8693Y-78.0494
G1X66.3013Y-78.3127
G1X68.4025Y-78.0582
G1X68.9981Y-78.0774
G1X69.5937Y-78.3062
G1X70.4995Y-78.9321
G1X70.9834Y-79.0748
G1X71.3584Y-78.9925
G1X71.9761Y-78.4372
G1X72.5717Y-78.1322
G1X72.8254Y-78.2341
G1X73.3658Y-78.7939
G1X73.8622Y-78.9442
G1X74.1302Y-78.8574
G1X74.7556Y-78.2015
G1X74.9293Y-78.2450
G1X75.4504Y-78.6745
G1X75.9468Y-78.8413
G1X76.2225Y-78.7815
G1X76.6858Y-78.3032
G1X76.8402Y-78.2412
G1X77.5350Y-78.8625
G1X77.7087Y-78.8293
G1X78.1430Y-78.5218
G1X78.4284Y-78.4600
G1X78.9248Y-78.5185
G1X79.6196Y-78.7820
G1X80.3145Y-78.3494
G1X81.0094Y-78.8051
G1X81.7042Y-78.4577
G1X82.9947Y-78.6917
G1X83.7888Y-78.4348
G1X84.5830Y-78.7167
G1X85.8734Y-78.4917
G1 Z0F20000
(Start Block)

G1X19.1663Y-77.1634
G1Z6F20000
(Plotting speed under)
G1 F8000

G1X19.3400Y-77.2145
G1X19.8611Y-77.6128
G1X20.5560Y-77.3715
G1X21.8299Y-77.5094
G1X22.6406Y-77.3358
G1X23.3355Y-77.5825
G1X24.0303Y-77.2819
G1X24.7252Y-77.6139
G1X25.4201Y-77.2808
G1X26.1149Y-77.5720
G1X26.8098Y-77.3773
G1X28.1995Y-77.5297
G1X28.8944Y-77.3519
G1X30.1683Y-77.5150
G1X31.4423Y-77.3813
G1X33.1794Y-77.4991
G1X36.1905Y-77.4292
G1X39.2016Y-77.4994
G1X41.2862Y-77.3765
G1X42.7917Y-77.5226
G1X44.0656Y-77.3558
G1X45.1079Y-77.5287
G1X46.2660Y-77.3173
G1X47.1925Y-77.5402
G1X48.3506Y-77.2880
G1X49.0455Y-77.5951
G1X50.1375Y-77.3189
G1X50.4352Y-77.3126
G1X51.1301Y-77.6679
G1X51.7381Y-77.2960
G1X51.9242Y-77.2615
G1X53.2147Y-77.6602
G1X53.9096Y-77.1549
G1X54.6044Y-77.5666
G1X55.1008Y-77.6646
G1X55.3862Y-77.5833
G1X55.9942Y-77.0933
G1X56.1679Y-77.1493
G1X56.6890Y-77.5729
G1X57.2847Y-77.7564
G1X57.5383Y-77.6337
G1X58.0016Y-77.1464
G1X58.2773Y-77.0836
G1X58.7736Y-77.2697
G1X59.3141Y-77.7687
G1X59.5678Y-77.8653
G1X60.1634Y-77.6279
G1X60.7810Y-77.0962
G1X61.1560Y-76.9951
G1X61.6400Y-77.1065
G1X62.7443Y-77.8470
G1X63.2406Y-77.9452
G1X63.7370Y-77.8656
G1X65.4245Y-77.2426
G1X66.6488Y-77.0850
G1X68.1047Y-77.2334
G1X69.6930Y-77.8468
G1X70.1893Y-77.9400
G1X70.6732Y-77.8535
G1X71.9761Y-76.9830
G1X72.4724Y-77.1505
G1X73.3658Y-77.8667
G1X73.6264Y-77.7963
G1X74.6687Y-77.0518
G1X74.8328Y-77.0795
G1X75.2960Y-77.5983
G1X75.5497Y-77.7279
G1X76.1453Y-77.5193
G1X76.7533Y-77.1402
G1X76.9946Y-77.2309
G1X77.5350Y-77.7581
G1X77.7087Y-77.6982
G1X78.1430Y-77.3058
G1X78.3292Y-77.2577
G1X79.5204Y-77.6054
G1X79.7065Y-77.5725
G1X80.3145Y-77.2132
G1X81.0094Y-77.6639
G1X81.7042Y-77.3004
G1X82.9947Y-77.5420
G1X83.7888Y-77.2890
G1X84.5830Y-77.5706
G1X85.8734Y-77.3452
G1 Z0F20000
(Start Block)

G1X19.1663Y-76.0823
G1Z6F20000
(Plotting speed under)
G1 F8000

G1X19.8611Y-76.5581
G1X20.5560Y-76.0235
G1X21.2509Y-76.5619
G1X21.9457Y-76.0492
G1X22.6406Y-76.5208
G1X23.3355Y-76.0995
G1X24.0303Y-76.4619
G1X24.7252Y-76.1700
G1X25.4201Y-76.3754
G1X26.5782Y-76.2497
G1X27.5047Y-76.3832
G1X28.1995Y-76.2021
G1X29.1260Y-76.3532
G1X30.2841Y-76.2291
G1X31.6739Y-76.3526
G1X33.2952Y-76.2541
G1X36.4221Y-76.3029
G1X39.3174Y-76.2513
G1X41.4020Y-76.3525
G1X42.7917Y-76.2302
G1X44.1814Y-76.3773
G1X45.4554Y-76.2157
G1X46.3653Y-76.3936
G1X47.5565Y-76.1895
G1X48.3506Y-76.4330
G1X49.0455Y-76.2368
G1X49.5088Y-76.2001
G1X50.4352Y-76.4733
G1X51.1301Y-76.1254
G1X52.1228Y-76.4132
G1X52.5198Y-76.4265
G1X53.2147Y-76.0501
G1X53.8227Y-76.4656
G1X54.0088Y-76.5042
G1X55.2001Y-76.0387
G1X55.3862Y-76.0772
G1X55.9073Y-76.5541
G1X56.0934Y-76.5873
G1X57.2847Y-75.9762
G1X57.5383Y-76.0637
G1X58.0016Y-76.5251
G1X58.2773Y-76.6078
G1X58.7736Y-76.4933
G1X59.3141Y-76.0048
G1X59.5678Y-75.9087
G1X59.9648Y-76.0333
G1X60.7714Y-76.6477
G1X61.0568Y-76.7160
G1X61.6400Y-76.5334
G1X62.4465Y-75.9568
G1X62.9428Y-75.8234
G1X63.4392Y-75.9514
G1X65.0274Y-76.6749
G1X65.7223Y-76.7857
G1X66.5330Y-76.8037
G1X68.3859Y-76.8004
G1X69.0974Y-76.7256
G1X69.7922Y-76.4921
G1X70.8842Y-75.9180
G1X71.2812Y-75.8231
G1X71.7776Y-75.9949
G1X72.5841Y-76.6239
G1X72.8695Y-76.6953
G1X73.3658Y-76.5555
G1X73.9063Y-76.0232
G1X74.1600Y-75.9250
G1X74.4578Y-76.0272
G1X75.2767Y-76.6238
G1X75.4504Y-76.6698
G1X76.0681Y-76.1030
G1X76.2446Y-76.0441
G1X76.6416Y-76.1404
G1X77.3365Y-76.5355
G1X77.5350Y-76.5746
G1X78.2299Y-76.0058
G1X78.4036Y-76.0622
G1X78.8379Y-76.4276
G1X79.0240Y-76.4715
G1X80.2152Y-76.1462
G1X81.0094Y-76.5089
G1X81.7042Y-76.1022
G1X82.4984Y-76.4099
G1X83.6896Y-76.1745
G1X84.4837Y-76.4396
G1X85.1785Y-76.2348
G1X85.8734Y-76.2326
G1 Z0F20000
(Start Block)

G1X19.1663Y-75.4402
G1Z6F20000
(Plotting speed under)
G1 F8000

G1X19.8611Y-74.9210
G1X20.5560Y-75.3269
G1X21.2509Y-75.0149
G1X21.9457Y-75.2518
G1X22.6406Y-75.0773
G1X23.3355Y-75.1950
G1X24.3778Y-75.1264
G1X25.4201Y-75.1994
G1X26.1149Y-75.0700
G1X26.8098Y-75.2495
G1X27.5047Y-75.0560
G1X28.3154Y-75.2085
G1X29.5893Y-75.0892
G1X30.5158Y-75.1980
G1X31.7897Y-75.1073
G1X33.7585Y-75.1856
G1X39.3174Y-75.1858
G1X41.4020Y-75.1055
G1X42.9075Y-75.2004
G1X44.2973Y-75.0882
G1X45.5712Y-75.2304
G1X46.7293Y-75.0836
G1X47.6558Y-75.2601
G1X48.5823Y-75.0694
G1X49.7404Y-75.2832
G1X50.4352Y-75.0034
G1X51.1301Y-75.2099
G1X51.5934Y-75.2542
G1X51.9242Y-75.2031
G1X52.5198Y-74.9552
G1X53.2147Y-75.3443
G1X54.2074Y-75.0157
G1X54.6044Y-74.9990
G1X55.2993Y-75.4224
G1X55.9073Y-75.0168
G1X56.2920Y-74.9464
G1X56.6890Y-75.0313
G1X57.3839Y-75.4739
G1X58.0788Y-74.9975
G1X58.5751Y-74.8613
G1X58.8509Y-74.9278
G1X59.3913Y-75.4209
G1X59.6670Y-75.4867
G1X60.1634Y-75.3419
G1X60.7714Y-74.8414
G1X61.0568Y-74.7680
G1X61.5531Y-74.8899
G1X62.2480Y-75.4069
G1X62.8436Y-75.5840
G1X63.2406Y-75.4921
G1X64.4318Y-74.8566
G1X65.2590Y-74.6777
G1X67.5753Y-74.8519
G1X69.8915Y-74.6862
G1X70.5863Y-74.8689
G1X71.6783Y-75.4952
G1X71.9761Y-75.5856
G1X72.5717Y-75.4005
G1X73.1921Y-74.8980
G1X73.4651Y-74.7840
G1X74.0607Y-74.9447
G1X74.7556Y-75.5116
G1X74.9541Y-75.4749
G1X76.0460Y-74.8352
G1X76.2997Y-74.9272
G1X76.8402Y-75.4326
G1X77.0387Y-75.4015
G1X77.5350Y-75.1083
G1X78.1306Y-74.9546
G1X78.3168Y-75.0016
G1X78.9248Y-75.4187
G1X79.6196Y-74.9378
G1X80.3145Y-75.2244
G1X80.6619Y-75.2564
G1X81.0094Y-75.2225
G1X81.7042Y-74.9812
G1X82.3991Y-75.3312
G1X83.1932Y-75.0354
G1X84.3844Y-75.2659
G1X85.1785Y-75.0301
G1X85.8734Y-75.1669
G1 Z0F20000
(Start Block)

G1X19.1663Y-74.0455
G1Z6F20000
(Plotting speed under)
G1 F8000

G1X19.8611Y-73.9134
G1X20.5560Y-74.1176
G1X21.2509Y-73.8806
G1X21.9457Y-74.1277
G1X22.6406Y-73.8811
G1X23.3355Y-74.1245
G1X24.0303Y-73.8830
G1X24.7252Y-74.1245
G1X25.4201Y-73.8845
G1X26.1149Y-74.1135
G1X26.8098Y-73.9163
G1X27.6205Y-74.0538
G1X28.8944Y-73.9516
G1X29.5893Y-74.0575
G1X30.9790Y-73.9615
G1X32.3687Y-74.0379
G1X39.3174Y-73.9762
G1X41.6336Y-74.0375
G1X43.2550Y-73.9625
G1X44.5289Y-74.0502
G1X45.5712Y-73.9412
G1X46.8451Y-74.0786
G1X47.7716Y-73.9272
G1X48.9462Y-74.0984
G1X49.7404Y-73.8834
G1X50.4352Y-74.0635
G1X51.0143Y-74.0724
G1X51.8250Y-73.8518
G1X52.5198Y-74.1689
G1X53.2147Y-73.9335
G1X53.6780Y-73.8864
G1X54.0088Y-73.9449
G1X54.6044Y-74.2220
G1X55.2125Y-73.8316
G1X55.3986Y-73.8010
G1X56.5898Y-74.2364
G1X56.7759Y-74.1979
G1X57.2971Y-73.7685
G1X57.4832Y-73.7359
G1X58.5751Y-74.2805
G1X58.7736Y-74.3110
G1X59.4685Y-73.8075
G1X59.9648Y-73.7071
G1X60.2502Y-73.7870
G1X60.8582Y-74.2760
G1X61.2553Y-74.3448
G1X61.6400Y-74.2465
G1X62.3472Y-73.7424
G1X62.8436Y-73.6009
G1X63.2406Y-73.6962
G1X64.3326Y-74.2945
G1X64.9282Y-74.4366
G1X67.8069Y-74.0601
G1X68.6010Y-74.1118
G1X70.4871Y-74.4468
G1X71.1820Y-74.3133
G1X72.2739Y-73.7015
G1X72.6709Y-73.5932
G1X72.9688Y-73.6884
G1X74.0607Y-74.3767
G1X74.3585Y-74.2891
G1X75.1899Y-73.7367
G1X75.4504Y-73.6586
G1X76.0584Y-74.1369
G1X76.3438Y-74.2262
G1X76.8402Y-74.1532
G1X77.5350Y-73.7089
G1X78.1430Y-74.1692
G1X78.3292Y-74.2120
G1X79.5204Y-73.8302
G1X79.7065Y-73.8632
G1X80.3145Y-74.2272
G1X81.0094Y-73.8373
G1X82.1675Y-74.1031
G1X82.4984Y-74.0674
G1X83.0940Y-73.8487
G1X83.7888Y-74.1276
G1X85.0793Y-73.9045
G1X85.8734Y-74.1058
G1 Z0F20000
(Start Block)

G1X19.1663Y-72.5812
G1Z6F20000
(Plotting speed under)
G1 F8000

G1X19.8611Y-73.1221
G1X20.5560Y-72.6110
G1X21.2509Y-73.0815
G1X21.9457Y-72.6541
G1X22.6406Y-73.0390
G1X23.3355Y-72.6953
G1X24.0303Y-72.9982
G1X24.7252Y-72.7380
G1X25.4201Y-72.9498
G1X26.1149Y-72.7968
G1X27.1572Y-72.8878
G1X28.1995Y-72.8038
G1X28.8944Y-72.9125
G1X30.0525Y-72.8240
G1X31.0948Y-72.8915
G1X32.6004Y-72.8303
G1X41.6336Y-72.8308
G1X43.3708Y-72.8912
G1X44.7605Y-72.8154
G1X45.8028Y-72.9012
G1X46.9609Y-72.7898
G1X48.1190Y-72.9151
G1X49.0455Y-72.7625
G1X49.9720Y-72.9257
G1X51.1301Y-72.7438
G1X51.8250Y-72.9919
G1X52.5198Y-72.7890
G1X52.8673Y-72.7670
G1X53.2147Y-72.7988
G1X53.9096Y-73.0265
G1X54.6044Y-72.6749
G1X55.4978Y-72.9638
G1X55.9942Y-72.9929
G1X56.6890Y-72.6092
G1X57.3839Y-72.9920
G1X57.7810Y-73.0502
G1X58.1656Y-72.9658
G1X58.7736Y-72.5643
G1X60.0641Y-73.1637
G1X60.3371Y-73.0890
G1X60.8582Y-72.6975
G1X61.4538Y-72.5300
G1X61.7268Y-72.6159
G1X62.4465Y-73.0886
G1X62.9428Y-73.2361
G1X63.3399Y-73.1169
G1X64.3326Y-72.5836
G1X65.0274Y-72.4467
G1X67.0128Y-72.8683
G1X68.0385Y-72.9627
G1X68.9981Y-72.8931
G1X70.5863Y-72.5107
G1X71.2812Y-72.4560
G1X71.9761Y-72.6954
G1X72.6709Y-73.1145
G1X73.1673Y-73.2201
G1X73.4527Y-73.1583
G1X74.2592Y-72.6312
G1X74.6563Y-72.5286
G1X74.9293Y-72.6331
G1X75.3636Y-73.0106
G1X75.7482Y-73.1076
G1X76.1453Y-73.0364
G1X76.8402Y-72.5619
G1X77.5350Y-72.9641
G1X77.9321Y-73.0298
G1X78.3168Y-72.9611
G1X78.9248Y-72.6132
G1X79.6196Y-73.0380
G1X80.9101Y-72.7311
G1X81.7042Y-73.0356
G1X82.3991Y-72.7223
G1X83.5903Y-72.9542
G1X83.8881Y-72.9328
G1X84.4837Y-72.7312
G1X85.1785Y-72.9028
G1X85.8734Y-72.9274
G1 Z0F20000
(Start Block)

G1X19.1663Y-71.9387
G1Z6F20000
(Plotting speed under)
G1 F8000

G1X19.8611Y-71.5244
G1X20.5560Y-71.8643
G1X21.2509Y-71.5811
G1X21.9457Y-71.8202
G1X22.6406Y-71.6188
G1X23.3355Y-71.7836
G1X24.0303Y-71.6579
G1X24.7252Y-71.7396
G1X25.9991Y-71.6833
G1X26.8098Y-71.7602
G1X27.5047Y-71.6478
G1X28.1995Y-71.7645
G1X29.2418Y-71.6814
G1X30.2841Y-71.7463
G1X31.5581Y-71.6850
G1X43.3708Y-71.6838
G1X44.7605Y-71.7454
G1X46.0344Y-71.6718
G1X47.0767Y-71.7588
G1X48.3506Y-71.6476
G1X49.1613Y-71.7761
G1X50.3194Y-71.6338
G1X51.1301Y-71.8186
G1X52.0566Y-71.6352
G1X53.2147Y-71.8367
G1X53.9096Y-71.5562
G1X54.6044Y-71.7882
G1X54.9519Y-71.8172
G1X55.2993Y-71.7836
G1X55.9942Y-71.5139
G1X56.5898Y-71.8542
G1X56.7883Y-71.8913
G1X58.0788Y-71.4827
G1X58.6868Y-71.8821
G1X58.9722Y-71.9312
G1X59.4685Y-71.8052
G1X60.1634Y-71.4145
G1X61.5531Y-72.0325
G1X62.7443Y-71.4155
G1X63.0421Y-71.3610
G1X63.6377Y-71.5560
G1X64.3326Y-71.9359
G1X65.0274Y-72.0910
G1X67.1120Y-71.6226
G1X68.2701Y-71.5176
G1X69.3952Y-71.6053
G1X71.0827Y-72.0418
G1X71.6783Y-72.0783
G1X72.0753Y-71.9919
G1X73.3658Y-71.3665
G1X73.8622Y-71.4884
G1X74.5818Y-71.9464
G1X74.8548Y-72.0168
G1X76.1453Y-71.4132
G1X76.8402Y-71.8229
G1X77.2372Y-71.9040
G1X77.6219Y-71.8405
G1X78.2299Y-71.4630
G1X78.8255Y-71.7945
G1X79.1233Y-71.8533
G1X79.6196Y-71.7789
G1X80.3145Y-71.5271
G1X81.0094Y-71.8799
G1X81.7042Y-71.6534
G1X82.0517Y-71.6175
G1X82.3991Y-71.6366
G1X83.0940Y-71.8500
G1X83.7888Y-71.6126
G1X85.1785Y-71.8120
G1X85.8734Y-71.6438
G1 Z0F20000
(Start Block)

G1X19.1663Y-70.5391
G1Z6F20000
(Plotting speed under)
G1 F8000

G1X20.5560Y-70.5972
G1X21.2509Y-70.5203
G1X21.9457Y-70.6129
G1X22.6406Y-70.5112
G1X23.3355Y-70.6211
G1X24.0303Y-70.5008
G1X24.7252Y-70.6339
G1X25.4201Y-70.4882
G1X26.1149Y-70.6405
G1X26.8098Y-70.4965
G1X27.6205Y-70.6085
G1X28.7786Y-70.5366
G1X29.5893Y-70.5997
G1X30.7474Y-70.5419
G1X44.7605Y-70.5370
G1X46.1502Y-70.5970
G1X47.1925Y-70.5286
G1X48.3506Y-70.6199
G1X49.3929Y-70.5194
G1X50.4352Y-70.6435
G1X51.2294Y-70.4911
G1X52.4206Y-70.6500
G1X53.2147Y-70.4384
G1X54.0088Y-70.6570
G1X55.2993Y-70.4229
G1X55.9942Y-70.7338
G1X57.1854Y-70.4193
G1X57.4832Y-70.4683
G1X58.0788Y-70.7858
G1X58.7736Y-70.4857
G1X59.3692Y-70.3604
G1X60.2626Y-70.8049
G1X60.8582Y-70.6570
G1X61.3546Y-70.3489
G1X61.6524Y-70.2742
G1X62.2480Y-70.4894
G1X62.8436Y-70.8315
G1X63.1414Y-70.8764
G1X63.6377Y-70.7667
G1X64.5311Y-70.3280
G1X65.1267Y-70.2112
G1X67.2113Y-70.6883
G1X68.3859Y-70.7962
G1X69.6930Y-70.7075
G1X71.8768Y-70.2112
G1X72.3732Y-70.3074
G1X73.2666Y-70.7577
G1X73.7629Y-70.8666
G1X74.1476Y-70.8012
G1X74.7556Y-70.4151
G1X75.2519Y-70.2995
G1X75.5373Y-70.3549
G1X76.0584Y-70.7319
G1X76.3438Y-70.7859
G1X76.8402Y-70.6733
G1X77.5350Y-70.3161
G1X78.1306Y-70.6424
G1X78.4284Y-70.7105
G1X78.9248Y-70.6593
G1X79.6196Y-70.3660
G1X80.4138Y-70.7112
G1X81.6050Y-70.4394
G1X82.3991Y-70.7060
G1X83.3256Y-70.4844
G1X83.7888Y-70.5037
G1X84.4837Y-70.6738
G1X85.1785Y-70.5205
G1X85.8734Y-70.5002
G1 Z0F20000
(Start Block)

G1X19.1663Y-69.2586
G1Z6F20000
(Plotting speed under)
G1 F8000

G1X19.8611Y-69.5879
G1X20.5560Y-69.2486
G1X21.2509Y-69.5778
G1X21.9457Y-69.2684
G1X22.6406Y-69.5539
G1X23.3355Y-69.2938
G1X24.0303Y-69.5272
G1X24.7252Y-69.3236
G1X25.4201Y-69.4910
G1X26.1149Y-69.3699
G1X27.0414Y-69.4400
G1X28.1995Y-69.3805
G1X28.8944Y-69.4524
G1X30.1683Y-69.3968
G1X47.3083Y-69.4453
G1X48.3506Y-69.3727
G1X49.6246Y-69.4594
G1X50.4352Y-69.3505
G1X51.4775Y-69.4667
G1X52.5198Y-69.3260
G1X53.2147Y-69.5091
G1X54.6044Y-69.3353
G1X55.2993Y-69.5612
G1X55.8949Y-69.3385
G1X56.1927Y-69.3072
G1X57.3839Y-69.5886
G1X58.1780Y-69.2513
G1X59.4685Y-69.6366
G1X60.1634Y-69.2833
G1X60.5604Y-69.2158
G1X60.9451Y-69.2784
G1X61.4662Y-69.6093
G1X61.7516Y-69.6614
G1X62.2480Y-69.5672
G1X62.9428Y-69.1862
G1X63.3399Y-69.1410
G1X63.7370Y-69.2133
G1X64.7296Y-69.6631
G1X65.1432Y-69.7403
G1X65.8216Y-69.6582
G1X67.4098Y-69.2594
G1X68.7334Y-69.1670
G1X69.9907Y-69.2600
G1X71.6783Y-69.6851
G1X72.1746Y-69.7351
G1X72.6709Y-69.6582
G1X73.6636Y-69.2063
G1X74.0607Y-69.1203
G1X75.4504Y-69.6896
G1X76.7409Y-69.1880
G1X76.9270Y-69.2156
G1X77.6343Y-69.5929
G1X78.2299Y-69.4862
G1X78.9248Y-69.2206
G1X79.7189Y-69.5597
G1X80.9101Y-69.2787
G1X81.7042Y-69.5505
G1X82.9781Y-69.3262
G1X83.7888Y-69.5256
G1X85.0627Y-69.3401
G1X85.8734Y-69.4846
G1 Z0F20000
(Start Block)

G1X19.1663Y-68.4947
G1Z6F20000
(Plotting speed under)
G1 F8000

G1X19.8611Y-68.0690
G1X20.5560Y-68.4466
G1X21.2509Y-68.1216
G1X21.9457Y-68.3946
G1X22.6406Y-68.1722
G1X23.3355Y-68.3445
G1X24.0303Y-68.2232
G1X24.8410Y-68.2942
G1X26.1149Y-68.2407
G1X26.8098Y-68.3164
G1X27.5047Y-68.2256
G1X28.3154Y-68.2991
G1X47.0767Y-68.2476
G1X48.3506Y-68.3065
G1X49.6246Y-68.2348
G1X50.4352Y-68.3245
G1X51.5934Y-68.2241
G1X52.5198Y-68.3516
G1X53.3305Y-68.2068
G1X54.5052Y-68.3683
G1X55.2993Y-68.1544
G1X56.5732Y-68.3689
G1X57.3839Y-68.1088
G1X58.0788Y-68.3588
G1X58.5420Y-68.3978
G1X58.8729Y-68.3383
G1X59.4685Y-68.0704
G1X60.7590Y-68.4770
G1X60.9575Y-68.4449
G1X61.5531Y-68.1210
G1X61.9502Y-68.0552
G1X62.2480Y-68.0826
G1X62.9428Y-68.4366
G1X63.4392Y-68.5273
G1X63.8362Y-68.4581
G1X64.8289Y-68.0393
G1X65.2590Y-67.9763
G1X65.8216Y-68.0362
G1X67.4098Y-68.4266
G1X68.7334Y-68.5285
G1X70.2886Y-68.4341
G1X71.8768Y-68.0435
G1X72.4393Y-67.9758
G1X72.8695Y-68.0349
G1X74.1600Y-68.5257
G1X74.7556Y-68.4281
G1X75.3512Y-68.1005
G1X75.6490Y-68.0527
G1X76.1453Y-68.1478
G1X76.8402Y-68.4871
G1X78.1306Y-68.0879
G1X79.0240Y-68.4248
G1X80.2152Y-68.1285
G1X81.0094Y-68.3978
G1X82.2998Y-68.1695
G1X83.0940Y-68.3743
G1X84.3679Y-68.1897
G1X85.1785Y-68.3345
G1X85.8734Y-68.3049
G1 Z0F20000
(Start Block)

G1X19.1663Y-66.9675
G1Z6F20000
(Plotting speed under)
G1 F8000

G1X19.8611Y-67.2311
G1X20.5560Y-67.0606
G1X21.2509Y-67.1530
G1X22.5248Y-67.0995
G1X23.3355Y-67.1671
G1X24.0303Y-67.0669
G1X24.7252Y-67.1904
G1X25.4201Y-67.0584
G1X26.1149Y-67.1789
G1X26.9256Y-67.0917
G1X28.0837Y-67.1480
G1X48.3506Y-67.0976
G1X49.3929Y-67.1512
G1X50.4352Y-67.0798
G1X51.5934Y-67.1640
G1X52.5198Y-67.0567
G1X53.4463Y-67.1761
G1X54.6044Y-67.0342
G1X55.3986Y-67.2157
G1X56.5898Y-67.0210
G1X57.3839Y-67.2610
G1X58.6744Y-66.9948
G1X59.5678Y-67.2919
G1X60.8582Y-66.9272
G1X61.5531Y-67.2212
G1X62.1487Y-67.3289
G1X62.9428Y-67.0058
G1X63.5384Y-66.8852
G1X64.8289Y-67.3240
G1X65.2590Y-67.3920
G1X65.8216Y-67.3428
G1X67.4098Y-66.9641
G1X68.7334Y-66.8632
G1X70.4705Y-66.9359
G1X72.6709Y-67.3956
G1X73.2666Y-67.3099
G1X74.0607Y-66.9860
G1X74.5570Y-66.8869
G1X74.8548Y-66.9188
G1X75.4504Y-67.1929
G1X76.0460Y-67.3378
G1X76.8402Y-67.0174
G1X77.2372Y-66.9624
G1X77.6343Y-67.0188
G1X78.2299Y-67.2945
G1X79.5204Y-66.9836
G1X80.4138Y-67.2527
G1X81.6050Y-67.0169
G1X82.4984Y-67.2242
G1X83.6896Y-67.0394
G1X84.7153Y-67.1912
G1X85.8734Y-67.0590
G1 Z0F20000
(Start Block)

G1X19.1663Y-65.9861
G1Z6F20000
(Plotting speed under)
G1 F8000

G1X19.8611Y-66.0246
G1X20.5560Y-65.8954
G1X21.2509Y-66.0799
G1X21.9457Y-65.8687
G1X22.6406Y-66.0841
G1X23.3355Y-65.8831
G1X24.0303Y-66.0531
G1X24.7252Y-65.9291
G1X27.5047Y-66.0136
G1X28.3154Y-65.9575
G1X49.1613Y-65.9536
G1X50.4352Y-66.0128
G1X51.3617Y-65.9455
G1X52.5198Y-66.0332
G1X53.3305Y-65.9291
G1X54.6044Y-66.0529
G1X55.3986Y-65.8981
G1X56.5898Y-66.0702
G1X57.3839Y-65.8603
G1X58.6744Y-66.0987
G1X59.5678Y-65.8324
G1X60.8582Y-66.1577
G1X61.5531Y-65.9035
G1X62.1487Y-65.7897
G1X62.9428Y-66.0775
G1X63.5384Y-66.1953
G1X64.8289Y-65.7926
G1X65.2590Y-65.7336
G1X65.8216Y-65.7890
G1X67.5091Y-66.1678
G1X69.1966Y-66.2416
G1X70.8842Y-66.1653
G1X73.0184Y-65.7359
G1X73.4651Y-65.7733
G1X74.7556Y-66.1970
G1X75.2519Y-66.1174
G1X76.1453Y-65.7864
G1X76.5424Y-65.8408
G1X77.5350Y-66.1599
G1X78.7262Y-65.8460
G1X79.7189Y-66.1091
G1X80.9101Y-65.8661
G1X81.8035Y-66.0729
G1X83.0940Y-65.8873
G1X84.0204Y-66.0408
G1X85.1785Y-65.9140
G1X85.8734Y-65.9616
G1 Z0F20000
(Start Block)

G1X19.1663Y-64.9617
G1Z6F20000
(Plotting speed under)
G1 F8000

G1X19.8611Y-64.6811
G1X20.5560Y-64.9750
G1X21.2509Y-64.7111
G1X21.9457Y-64.9182
G1X22.7564Y-64.7815
G1X23.7987Y-64.8572
G1X24.7252Y-64.7862
G1X25.4201Y-64.8845
G1X26.1149Y-64.7881
G1X27.0414Y-64.8530
G1X50.0878Y-64.8099
G1X51.1301Y-64.8658
G1X52.4040Y-64.7930
G1X53.2147Y-64.8828
G1X54.4886Y-64.7765
G1X55.2993Y-64.9085
G1X56.5732Y-64.7613
G1X57.3839Y-64.9391
G1X58.6578Y-64.7326
G1X59.5678Y-64.9643
G1X60.8582Y-64.6744
G1X61.5531Y-64.9148
G1X62.1487Y-64.9936
G1X62.9428Y-64.7213
G1X63.5384Y-64.6404
G1X65.1432Y-65.0552
G1X67.2278Y-64.6497
G1X68.6176Y-64.5827
G1X71.1654Y-64.6204
G1X73.3658Y-65.0535
G1X73.9615Y-64.9866
G1X74.7556Y-64.7115
G1X75.2519Y-64.6392
G1X76.6416Y-64.9969
G1X77.8825Y-64.7008
G1X78.3292Y-64.7541
G1X78.9248Y-64.9664
G1X80.2152Y-64.7163
G1X81.1252Y-64.9204
G1X82.3991Y-64.7370
G1X83.4414Y-64.8928
G1X84.5995Y-64.7690
G1X85.8734Y-64.8854
G1 Z0F20000
(Start Block)

G1X19.1663Y-63.5248
G1Z6F20000
(Plotting speed under)
G1 F8000

G1X19.8611Y-63.7993
G1X20.5560Y-63.6286
G1X21.8299Y-63.7310
G1X22.6406Y-63.6136
G1X23.3355Y-63.7630
G1X24.0303Y-63.6194
G1X24.8410Y-63.7233
G1X25.9991Y-63.6571
G1X26.8098Y-63.7201
G1X27.6205Y-63.6628
G1X51.0143Y-63.6619
G1X51.9408Y-63.7160
G1X53.2147Y-63.6422
G1X54.0254Y-63.7285
G1X55.2993Y-63.6196
G1X56.1100Y-63.7467
G1X57.3839Y-63.5927
G1X58.3104Y-63.7671
G1X59.4685Y-63.5585
G1X60.7590Y-63.8111
G1X61.5531Y-63.5701
G1X61.9005Y-63.5463
G1X63.2903Y-63.8507
G1X65.0274Y-63.4828
G1X66.7150Y-63.8335
G1X67.5753Y-63.9077
G1X71.7445Y-63.8896
G1X73.9615Y-63.4825
G1X75.5497Y-63.8577
G1X76.1453Y-63.7743
G1X76.9394Y-63.5356
G1X78.2299Y-63.8259
G1X79.5204Y-63.5672
G1X80.5461Y-63.7703
G1X81.7042Y-63.5909
G1X82.9781Y-63.7563
G1X84.0204Y-63.6282
G1X85.1785Y-63.7343
G1X85.8734Y-63.7109
G1 Z0F20000
(Start Block)

G1X19.1663Y-62.5838
G1Z6F20000
(Plotting speed under)
G1 F8000

G1X19.8611Y-62.5736
G1X20.5560Y-62.4498
G1X21.2509Y-62.6443
G1X21.9457Y-62.4469
G1X22.7564Y-62.5935
G1X23.9145Y-62.5042
G1X24.7252Y-62.5889
G1X25.4201Y-62.4949
G1X26.4624Y-62.5600
G1X51.5934Y-62.5154
G1X52.5198Y-62.5698
G1X53.9096Y-62.4948
G1X54.8361Y-62.5799
G1X55.9942Y-62.4706
G1X57.0365Y-62.5966
G1X58.0788Y-62.4446
G1X59.3527Y-62.6337
G1X60.2792Y-62.4309
G1X60.8582Y-62.4907
G1X61.5531Y-62.6781
G1X62.9428Y-62.3781
G1X64.6800Y-62.7126
G1X66.7646Y-62.3426
G1X69.5440Y-62.4686
G1X72.0919Y-62.3366
G1X72.7702Y-62.3803
G1X73.9615Y-62.6589
G1X74.5240Y-62.7148
G1X76.1453Y-62.3759
G1X77.5350Y-62.6820
G1X78.8255Y-62.4187
G1X79.9671Y-62.6252
G1X81.0094Y-62.4516
G1X82.3991Y-62.6180
G1X83.5572Y-62.4806
G1X84.7153Y-62.5856
G1X85.8734Y-62.5079
G1 Z0F20000
(Start Block)

G1X19.1663Y-61.4990
G1Z6F20000
(Plotting speed under)
G1 F8000

G1X19.8611Y-61.2657
G1X20.5560Y-61.4834
G1X21.4825Y-61.3490
G1X22.6406Y-61.4583
G1X23.3355Y-61.3242
G1X24.1461Y-61.4319
G1X25.4201Y-61.3567
G1X26.1149Y-61.4267
G1X27.2731Y-61.3720
G1X52.0566Y-61.3694
G1X53.2147Y-61.4267
G1X54.4886Y-61.3503
G1X55.4151Y-61.4372
G1X56.6890Y-61.3242
G1X57.8472Y-61.4539
G1X58.7736Y-61.3026
G1X60.1634Y-61.4985
G1X61.4373Y-61.2804
G1X62.7112Y-61.5214
G1X64.3326Y-61.2331
G1X65.7223Y-61.5280
G1X66.3013Y-61.5721
G1X69.4282Y-61.3018
G1X70.7022Y-61.3369
G1X73.0184Y-61.5719
G1X75.1030Y-61.2376
G1X76.7409Y-61.5319
G1X78.1306Y-61.2709
G1X79.3880Y-61.4859
G1X80.4303Y-61.3133
G1X81.7042Y-61.4697
G1X83.0940Y-61.3245
G1X84.3679Y-61.4445
G1X85.8734Y-61.3475
G1 Z0F20000
(Start Block)

G1X19.1663Y-60.1401
G1Z6F20000
(Plotting speed under)
G1 F8000

G1X20.4402Y-60.3091
G1X21.2509Y-60.1539
G1X21.9457Y-60.3163
G1X23.1038Y-60.2059
G1X24.0303Y-60.2999
G1X24.8410Y-60.2082
G1X26.1149Y-60.2769
G1X26.9256Y-60.2213
G1X52.5198Y-60.2181
G1X53.7938Y-60.2794
G1X54.9519Y-60.2098
G1X55.9942Y-60.2986
G1X57.2681Y-60.1813
G1X58.4262Y-60.3086
G1X59.5678Y-60.1558
G1X60.8582Y-60.3550
G1X62.2480Y-60.1212
G1X63.6377Y-60.3889
G1X65.6065Y-60.0859
G1X67.8069Y-60.3797
G1X69.5440Y-60.4267
G1X71.6286Y-60.3806
G1X73.9449Y-60.0829
G1X75.7979Y-60.3798
G1X77.4358Y-60.1237
G1X78.8090Y-60.3482
G1X80.0829Y-60.1638
G1X81.2410Y-60.3143
G1X82.5149Y-60.1812
G1X83.7888Y-60.2994
G1X85.8734Y-60.2228
G1 Z0F20000
(Start Block)

G1X19.1663Y-59.0381
G1Z6F20000
(Plotting speed under)
G1 F8000

G1X19.8611Y-59.2063
G1X20.6553Y-59.0215
G1X21.8299Y-59.1601
G1X22.6406Y-59.0318
G1X23.6829Y-59.1348
G1X24.7252Y-59.0534
G1X25.7675Y-59.1247
G1X26.8098Y-59.0718
G1X52.8673Y-59.0754
G1X54.0254Y-59.1297
G1X55.2993Y-59.0540
G1X56.5732Y-59.1519
G1X57.8472Y-59.0439
G1X58.8895Y-59.1717
G1X60.1634Y-59.0046
G1X61.5531Y-59.2085
G1X62.9428Y-58.9727
G1X64.6800Y-59.2372
G1X66.4172Y-58.9811
G1X67.2278Y-58.9358
G1X69.7757Y-59.0333
G1X72.6709Y-58.9425
G1X74.8714Y-59.2401
G1X76.7244Y-58.9773
G1X78.1306Y-59.2059
G1X79.5038Y-59.0079
G1X80.8936Y-59.1736
G1X82.1675Y-59.0389
G1X83.4414Y-59.1475
G1X84.9469Y-59.0567
G1X85.8734Y-59.1035
G1 Z0F20000
(Start Block)

G1X19.1663Y-58.0463
G1Z6F20000
(Plotting speed under)
G1 F8000

G1X20.4567Y-57.8741
G1X21.2509Y-58.0278
G1X22.5248Y-57.9005
G1X23.3355Y-58.0060
G1X24.6094Y-57.9148
G1X25.5359Y-57.9846
G1X26.8098Y-57.9248
G1X53.0989Y-57.9257
G1X54.4886Y-57.9846
G1X55.6467Y-57.9143
G1X56.8049Y-58.0024
G1X58.0788Y-57.8854
G1X59.4685Y-58.0323
G1X60.7424Y-57.8607
G1X62.2480Y-58.0600
G1X63.7535Y-57.8273
G1X65.8381Y-58.0959
G1X68.1543Y-57.8612
G1X69.7757Y-57.8127
G1X71.3970Y-57.8587
G1X73.8291Y-58.0949
G1X75.9137Y-57.8304
G1X77.5350Y-58.0622
G1X78.9248Y-57.8586
G1X80.3145Y-58.0318
G1X81.7042Y-57.8848
G1X83.0940Y-58.0076
G1X84.5995Y-57.9079
G1X85.8734Y-57.9750
G1 Z0F20000
(Start Block)

G1X19.1663Y-56.8815
G1Z6F20000
(Plotting speed under)
G1 F8000

G1X19.8611Y-56.7144
G1X21.1351Y-56.8716
G1X22.0616Y-56.7435
G1X23.3355Y-56.8573
G1X24.2620Y-56.7691
G1X25.4201Y-56.8407
G1X26.8098Y-56.7787
G1X53.0989Y-56.7791
G1X54.4886Y-56.8400
G1X55.8784Y-56.7637
G1X57.1523Y-56.8548
G1X58.4262Y-56.7472
G1X59.7001Y-56.8770
G1X61.0899Y-56.7201
G1X62.7112Y-56.9095
G1X64.4484Y-56.6804
G1X67.1120Y-56.9494
G1X69.7757Y-56.8622
G1X72.6709Y-56.9474
G1X75.1030Y-56.6829
G1X76.8402Y-56.9138
G1X78.4615Y-56.7182
G1X79.9671Y-56.8779
G1X81.3568Y-56.7455
G1X82.8623Y-56.8571
G1X84.4837Y-56.7607
G1X85.8734Y-56.8369
G1 Z0F20000
(Start Block)

G1X19.1663Y-55.6195
G1Z6F20000
(Plotting speed under)
G1 F8000

G1X19.8611Y-55.5939
G1X20.6718Y-55.7346
G1X21.9457Y-55.5948
G1X22.9880Y-55.7033
G1X24.1461Y-55.6160
G1X25.4201Y-55.6949
G1X26.8098Y-55.6321
G1X52.8673Y-55.6341
G1X54.3728Y-55.6919
G1X55.7626Y-55.6175
G1X57.1523Y-55.7104
G1X58.6578Y-55.5966
G1X60.0476Y-55.7357
G1X61.5531Y-55.5657
G1X63.0586Y-55.7664
G1X65.1432Y-55.5330
G1X67.8069Y-55.7754
G1X70.2389Y-55.8021
G1X71.8603Y-55.7632
G1X74.2923Y-55.5347
G1X76.2611Y-55.7653
G1X78.1141Y-55.5673
G1X79.6196Y-55.7398
G1X81.0094Y-55.5926
G1X82.5149Y-55.7125
G1X84.2521Y-55.6162
G1X85.8734Y-55.6933
G1 Z0F20000
(Start Block)

G1X19.1663Y-54.4179
G1Z6F20000
(Plotting speed under)
G1 F8000

G1X20.4402Y-54.5853
G1X21.4825Y-54.4574
G1X22.7564Y-54.5657
G1X24.0303Y-54.4673
G1X25.4201Y-54.5481
G1X26.8098Y-54.4853
G1X52.4040Y-54.4856
G1X53.9096Y-54.5481
G1X55.4151Y-54.4698
G1X57.0365Y-54.5633
G1X58.5420Y-54.4498
G1X60.0476Y-54.5913
G1X61.5531Y-54.4188
G1X63.5219Y-54.6203
G1X65.8381Y-54.3861
G1X69.4282Y-54.5833
G1X73.3658Y-54.3866
G1X75.7979Y-54.6191
G1X77.5350Y-54.4195
G1X79.1564Y-54.5860
G1X80.8936Y-54.4474
G1X82.3991Y-54.5685
G1X84.0204Y-54.4692
G1X85.8734Y-54.5475
G1 Z0F20000
(Start Block)

G1X19.1663Y-53.3043
G1Z6F20000
(Plotting speed under)
G1 F8000

G1X19.9770Y-53.4400
G1X21.2509Y-53.2994
G1X22.6406Y-53.4219
G1X24.0303Y-53.3215
G1X25.4201Y-53.4014
G1X26.8098Y-53.3388
G1X51.7092Y-53.3396
G1X53.3305Y-53.4009
G1X55.0677Y-53.3230
G1X56.6890Y-53.4218
G1X58.1946Y-53.3005
G1X59.9318Y-53.4427
G1X61.6689Y-53.2724
G1X63.6377Y-53.4760
G1X66.0697Y-53.2444
G1X69.4282Y-53.3364
G1X72.5551Y-53.2394
G1X75.2188Y-53.4741
G1X77.3034Y-53.2750
G1X78.9248Y-53.4463
G1X80.5461Y-53.3025
G1X82.2833Y-53.4206
G1X83.9046Y-53.3221
G1X85.8734Y-53.4005
G1 Z0F20000
(Start Block)

G1X19.1663Y-52.2258
G1Z6F20000
(Plotting speed under)
G1 F8000

G1X19.8611Y-52.2982
G1X21.1351Y-52.1559
G1X22.5248Y-52.2715
G1X23.9145Y-52.1766
G1X25.4201Y-52.2549
G1X26.9256Y-52.1924
G1X50.4352Y-52.1922
G1X52.4040Y-52.2551
G1X54.2570Y-52.1763
G1X55.9942Y-52.2755
G1X57.8472Y-52.1551
G1X59.4685Y-52.2995
G1X61.4373Y-52.1257
G1X63.6377Y-52.3293
G1X66.4172Y-52.0975
G1X71.7445Y-52.0932
G1X74.7556Y-52.3291
G1X76.8402Y-52.1256
G1X78.6932Y-52.2968
G1X80.4303Y-52.1526
G1X82.0517Y-52.2716
G1X83.9046Y-52.1750
G1X85.8734Y-52.2523
G1 Z0F20000
(Start Block)

G1X19.1663Y-51.1333
G1Z6F20000
(Plotting speed under)
G1 F8000

G1X20.7876Y-51.0120
G1X22.1774Y-51.1232
G1X23.7987Y-51.0311
G1X25.4201Y-51.1084
G1X27.0414Y-51.0464
G1X48.9297Y-51.0457
G1X51.0143Y-51.1086
G1X53.0989Y-51.0280
G1X55.0677Y-51.1275
G1X56.9207Y-51.0074
G1X58.8895Y-51.1526
G1X60.9741Y-50.9788
G1X63.4061Y-51.1813
G1X67.1120Y-50.9467
G1X71.5128Y-50.9563
G1X74.4081Y-51.1815
G1X76.6086Y-50.9804
G1X78.4615Y-51.1503
G1X80.3145Y-51.0052
G1X81.9359Y-51.1249
G1X83.9046Y-51.0288
G1X85.8734Y-51.1017
G1 Z0F20000
(Start Block)

G1X19.1663Y-50.0071
G1Z6F20000
(Plotting speed under)
G1 F8000

G1X20.5560Y-49.8591
G1X22.0616Y-49.9813
G1X23.5671Y-49.8841
G1X25.3043Y-49.9614
G1X27.1572Y-49.8999
G1X46.9609Y-49.8992
G1X49.2771Y-49.9615
G1X51.4775Y-49.8822
G1X53.6780Y-49.9813
G1X55.8784Y-49.8600
G1X57.9630Y-50.0067
G1X60.1634Y-49.8318
G1X62.8270Y-50.0356
G1X66.7646Y-49.8002
G1X71.1654Y-49.8147
G1X74.0607Y-50.0364
G1X76.3769Y-49.8338
G1X78.2299Y-50.0056
G1X80.1987Y-49.8598
G1X81.9359Y-49.9796
G1X84.0204Y-49.8822
G1X85.8734Y-49.9479
G1 Z0F20000
(Start Block)

G1X19.1663Y-48.8480
G1Z6F20000
(Plotting speed under)
G1 F8000

G1X20.4402Y-48.7159
G1X21.9457Y-48.8355
G1X23.4513Y-48.7355
G1X25.3043Y-48.8150
G1X27.2731Y-48.7532
G1X44.8763Y-48.7526
G1X47.1925Y-48.8150
G1X49.5088Y-48.7352
G1X51.8250Y-48.8358
G1X54.0254Y-48.7128
G1X56.5732Y-48.8597
G1X59.0053Y-48.6859
G1X61.7847Y-48.8895
G1X65.9539Y-48.6536
G1X70.8180Y-48.6659
G1X73.8291Y-48.8893
G1X76.1453Y-48.6854
G1X78.2299Y-48.8606
G1X80.0829Y-48.7143
G1X81.9359Y-48.8335
G1X84.1362Y-48.7358
G1X85.8734Y-48.7908
G1 Z0F20000
(Start Block)

G1X19.1663Y-47.6662
G1Z6F20000
(Plotting speed under)
G1 F8000

G1X19.9770Y-47.5696
G1X21.7141Y-47.6855
G1X23.3355Y-47.5881
G1X25.1885Y-47.6681
G1X27.2731Y-47.6067
G1X42.5601Y-47.6062
G1X44.9921Y-47.6689
G1X47.3083Y-47.5889
G1X49.6246Y-47.6888
G1X51.9408Y-47.5659
G1X54.4886Y-47.7137
G1X57.2681Y-47.5391
G1X60.2792Y-47.7433
G1X64.5642Y-47.5070
G1X70.5863Y-47.5138
G1X73.5975Y-47.7419
G1X76.0295Y-47.5392
G1X78.1141Y-47.7131
G1X79.9671Y-47.5684
G1X81.9359Y-47.6870
G1X84.2521Y-47.5894
G1X85.8734Y-47.6314
G1 Z0F20000
(Start Block)

G1X19.1663Y-46.4752
G1Z6F20000
(Plotting speed under)
G1 F8000

G1X19.9770Y-46.4228
G1X21.3667Y-46.5422
G1X23.1038Y-46.4434
G1X24.9568Y-46.5217
G1X27.3889Y-46.4597
G1X40.2439Y-46.4597
G1X42.7917Y-46.5226
G1X44.9921Y-46.4421
G1X47.1925Y-46.5417
G1X49.5088Y-46.4201
G1X51.9408Y-46.5673
G1X54.7203Y-46.3922
G1X57.9630Y-46.5967
G1X62.2480Y-46.3607
G1X66.4172Y-46.4478
G1X70.5863Y-46.3647
G1X73.4816Y-46.5958
G1X75.9137Y-46.3937
G1X77.9983Y-46.5656
G1X79.8513Y-46.4224
G1X82.0517Y-46.5415
G1X84.2521Y-46.4452
G1X85.8734Y-46.4718
G1 Z0F20000
(Start Block)

G1X19.1663Y-45.2904
G1Z6F20000
(Plotting speed under)
G1 F8000

G1X21.1351Y-45.3943
G1X22.7564Y-45.2956
G1X24.8410Y-45.3761
G1X27.2731Y-45.3134
G1X38.0435Y-45.3131
G1X40.7071Y-45.3761
G1X42.9075Y-45.2956
G1X44.9921Y-45.3956
G1X47.0767Y-45.2732
G1X49.2771Y-45.4199
G1X51.8250Y-45.2457
G1X54.8361Y-45.4501
G1X59.0053Y-45.2144
G1X65.2590Y-45.4084
G1X70.5863Y-45.2150
G1X73.4816Y-45.4498
G1X75.6821Y-45.2487
G1X77.8825Y-45.4188
G1X79.8513Y-45.2744
G1X82.0517Y-45.3951
G1X85.8734Y-45.3139
G1 Z0F20000
(Start Block)

G1X19.1663Y-44.1263
G1Z6F20000
(Plotting speed under)
G1 F8000

G1X20.6718Y-44.2481
G1X22.5248Y-44.1495
G1X24.6094Y-44.2290
G1X27.2731Y-44.1666
G1X38.9700Y-44.2289
G1X41.1704Y-44.1498
G1X43.0233Y-44.2479
G1X44.9921Y-44.1269
G1X46.9609Y-44.2744
G1X49.0455Y-44.0990
G1X51.5934Y-44.3027
G1X54.9519Y-44.0677
G1X59.2369Y-44.2969
G1X62.2480Y-44.3376
G1X66.8804Y-44.3149
G1X70.5863Y-44.0676
G1X73.3658Y-44.3036
G1X75.5663Y-44.1013
G1X77.6509Y-44.2723
G1X79.7355Y-44.1276
G1X82.0517Y-44.2488
G1X85.8734Y-44.1590
G1 Z0F20000
(Start Block)

G1X19.1663Y-42.9896
G1Z6F20000
(Plotting speed under)
G1 F8000

G1X20.4402Y-43.1014
G1X22.0616Y-43.0025
G1X24.1461Y-43.0830
G1X27.0414Y-43.0199
G1X37.4644Y-43.0821
G1X39.4332Y-43.0030
G1X41.4020Y-43.1032
G1X43.1392Y-42.9829
G1X44.8763Y-43.1280
G1X46.8451Y-42.9552
G1X48.8139Y-43.1551
G1X51.2459Y-42.9210
G1X54.8361Y-43.1910
G1X61.2057Y-43.0146
G1X67.4594Y-43.1882
G1X70.7022Y-42.9222
G1X73.3658Y-43.1573
G1X75.4504Y-42.9538
G1X77.5350Y-43.1270
G1X79.6196Y-42.9807
G1X82.0517Y-43.1026
G1X85.8734Y-43.0073
G1 Z0F20000
(Start Block)

G1X19.1663Y-41.8745
G1Z6F20000
(Plotting speed under)
G1 F8000

G1X20.0928Y-41.9540
G1X21.7141Y-41.8574
G1X23.6829Y-41.9355
G1X33.0636Y-41.8734
G1X36.0747Y-41.9359
G1X38.1593Y-41.8571
G1X40.0123Y-41.9564
G1X41.5178Y-41.8359
G1X43.2550Y-41.9770
G1X44.8763Y-41.8060
G1X46.6135Y-42.0057
G1X48.4665Y-41.7759
G1X51.0143Y-42.0430
G1X54.2570Y-41.7466
G1X58.7736Y-41.7975
G1X63.1745Y-41.7386
G1X64.7958Y-41.7886
G1X67.9227Y-42.0440
G1X70.8180Y-41.7768
G1X73.2500Y-42.0100
G1X75.3346Y-41.8074
G1X77.5350Y-41.9812
G1X79.5038Y-41.8341
G1X81.9359Y-41.9563
G1X85.8734Y-41.8581
G1 Z0F20000
(Start Block)

G1X19.1663Y-40.7657
G1Z6F20000
(Plotting speed under)
G1 F8000

G1X19.8611Y-40.8094
G1X21.3667Y-40.7092
G1X23.3355Y-40.7900
G1X26.3466Y-40.7268
G1X35.1482Y-40.7899
G1X37.1170Y-40.7092
G1X38.7384Y-40.8083
G1X40.3597Y-40.6925
G1X41.8652Y-40.8287
G1X43.3708Y-40.6632
G1X44.8763Y-40.8638
G1X46.3819Y-40.6320
G1X48.3506Y-40.8978
G1X50.6669Y-40.5926
G1X53.9096Y-40.9212
G1X59.7001Y-40.9362
G1X61.6689Y-40.8809
G1X65.1432Y-40.5927
G1X68.5017Y-40.8979
G1X70.9338Y-40.6305
G1X73.2500Y-40.8629
G1X75.2188Y-40.6618
G1X77.3034Y-40.8329
G1X79.2722Y-40.6891
G1X81.8200Y-40.8103
G1X85.8734Y-40.7106
G1 Z0F20000

G00 X0.0000 Y0.0000

