$H
G21
G17
G90
G1 Z0F20000
G1 F15000
(Start Layer)
(Start Block)

G1X19.0173Y-107.4137
G1Z6F20000
(Plotting speed under)
G1 F8000

G1X19.3317Y-108.2132
G1X19.6534Y-108.6616
G1X20.1630Y-108.9106
G1X21.0100Y-109.0176
G1X23.1628Y-108.9939
G1X25.2906Y-108.7954
G1X27.2511Y-108.4317
G1X29.0483Y-107.9097
G1X30.3936Y-107.3829
G1X31.8094Y-106.6924
G1X34.5741Y-105.0512
G1X35.3529Y-104.5133
G1X36.7692Y-103.2061
G1X38.6684Y-100.7808
G1X39.4058Y-100.0957
G1X40.3099Y-99.7200
G1X41.5071Y-99.5948
G1X42.8316Y-99.6636
G1X44.3400Y-99.8995
G1X45.7676Y-100.2580
G1X47.2600Y-100.7819
G1X48.6367Y-101.4159
G1X49.9442Y-102.1678
G1X53.7067Y-104.8359
G1X54.7906Y-105.2622
G1X55.9088Y-105.4097
G1X56.8670Y-105.3559
G1X57.9115Y-105.1514
G1X58.9715Y-104.8123
G1X60.0944Y-104.3216
G1X62.0490Y-103.1532
G1X65.0216Y-100.8946
G1X66.0707Y-100.3392
G1X66.8090Y-100.1180
G1X67.5633Y-100.0102
G1X68.4748Y-99.9978
G1X69.4569Y-100.0942
G1X70.7284Y-100.3640
G1X71.9535Y-100.7815
G1X73.1712Y-101.3507
G1X74.3403Y-102.0549
G1X75.3332Y-102.7948
G1X76.2479Y-103.6118
G1X79.0057Y-106.6271
G1X79.5129Y-107.0163
G1X80.1105Y-107.3168
G1X81.3077Y-107.5560
G1X82.8945Y-107.4695
G1X84.6102Y-107.0770
G1X86.4457Y-106.3697
G1 Z0F20000
(Start Block)

G1X19.3965Y-105.7870
G1Z6F20000
(Plotting speed under)
G1 F8000

G1X19.8480Y-106.8066
G1X20.1452Y-107.2537
G1X20.6420Y-107.5897
G1X21.3370Y-107.7445
G1X23.0668Y-107.7790
G1X25.0969Y-107.6153
G1X26.9785Y-107.2963
G1X28.7265Y-106.8303
G1X30.0631Y-106.3464
G1X31.4451Y-105.7193
G1X34.6615Y-103.8535
G1X35.5996Y-103.1890
G1X36.4649Y-102.4378
G1X38.6297Y-100.0691
G1X39.2514Y-99.4976
G1X40.2596Y-98.9664
G1X41.4922Y-98.7597
G1X42.5701Y-98.7746
G1X43.8048Y-98.9225
G1X45.0644Y-99.1864
G1X46.4147Y-99.5894
G1X47.8611Y-100.1643
G1X49.2599Y-100.8717
G1X52.7144Y-103.1244
G1X53.6196Y-103.6107
G1X54.2761Y-103.8307
G1X54.9475Y-103.9435
G1X56.3495Y-103.8862
G1X58.1153Y-103.3898
G1X59.9197Y-102.4763
G1X61.2547Y-101.5353
G1X63.6461Y-99.4228
G1X64.5702Y-98.7846
G1X65.6184Y-98.4058
G1X67.0847Y-98.2597
G1X68.9229Y-98.3767
G1X70.6242Y-98.7043
G1X72.3335Y-99.2661
G1X73.9200Y-100.0202
G1X75.0559Y-100.7220
G1X76.2057Y-101.5988
G1X77.3792Y-102.6926
G1X79.5791Y-105.0590
G1X80.2624Y-105.5847
G1X80.8888Y-105.8888
G1X82.0330Y-106.1153
G1X83.3151Y-106.0642
G1X84.9097Y-105.7266
G1X86.4809Y-105.1547
G1 Z0F20000
(Start Block)

G1X19.7322Y-104.0888
G1Z6F20000
(Plotting speed under)
G1 F8000

G1X20.3084Y-105.2281
G1X20.6927Y-105.8158
G1X21.1558Y-106.1924
G1X21.7785Y-106.4025
G1X23.0487Y-106.5003
G1X24.7092Y-106.4126
G1X26.4982Y-106.1578
G1X28.0848Y-105.7908
G1X30.3690Y-104.9957
G1X32.6294Y-103.8628
G1X34.6791Y-102.6147
G1X35.6944Y-101.8945
G1X36.6995Y-101.0365
G1X38.4985Y-99.2969
G1X39.3386Y-98.6382
G1X40.3406Y-98.1697
G1X41.6534Y-97.9513
G1X42.6571Y-97.9618
G1X43.7933Y-98.0918
G1X46.1362Y-98.6635
G1X47.4522Y-99.1506
G1X48.7431Y-99.7453
G1X52.2011Y-101.7495
G1X53.1551Y-102.2167
G1X54.3077Y-102.5076
G1X55.6048Y-102.4657
G1X56.4232Y-102.2841
G1X57.3439Y-101.9591
G1X59.0933Y-101.0100
G1X60.3568Y-100.0404
G1X62.5787Y-97.8636
G1X63.3649Y-97.2830
G1X64.5015Y-96.8958
G1X66.2651Y-96.7720
G1X68.3673Y-96.8788
G1X70.3845Y-97.1942
G1X72.2819Y-97.7414
G1X73.9936Y-98.4798
G1X75.2886Y-99.2259
G1X76.5644Y-100.1523
G1X77.8453Y-101.3085
G1X80.1368Y-103.7022
G1X80.8116Y-104.2155
G1X81.5285Y-104.5573
G1X82.5435Y-104.7599
G1X83.7591Y-104.7270
G1X85.0888Y-104.4694
G1X86.4831Y-104.0037
G1 Z0F20000
(Start Block)

G1X19.9902Y-102.3692
G1Z6F20000
(Plotting speed under)
G1 F8000

G1X21.1608Y-104.2727
G1X21.6526Y-104.7299
G1X22.1575Y-104.9693
G1X23.0742Y-105.1348
G1X24.3562Y-105.1393
G1X25.9022Y-104.9806
G1X27.4981Y-104.6723
G1X28.8897Y-104.2818
G1X30.1351Y-103.8272
G1X32.6112Y-102.6024
G1X35.2907Y-100.8967
G1X38.2935Y-98.4452
G1X39.3718Y-97.7414
G1X40.4661Y-97.3298
G1X41.7590Y-97.1576
G1X43.6571Y-97.2801
G1X45.8421Y-97.7807
G1X48.2401Y-98.6930
G1X52.5783Y-100.8320
G1X53.6474Y-101.1053
G1X54.8407Y-101.0876
G1X55.6505Y-100.9122
G1X56.4571Y-100.6264
G1X57.3393Y-100.1949
G1X58.1710Y-99.6732
G1X59.6167Y-98.4770
G1X61.6186Y-96.3615
G1X62.3080Y-95.8787
G1X62.8849Y-95.6649
G1X63.5345Y-95.5468
G1X65.7334Y-95.4676
G1X68.3778Y-95.5882
G1X70.3177Y-95.8610
G1X72.3113Y-96.3822
G1X74.1395Y-97.1257
G1X75.4906Y-97.8732
G1X76.8341Y-98.8204
G1X78.1794Y-100.0069
G1X80.5340Y-102.4361
G1X81.2204Y-102.9566
G1X81.9455Y-103.3031
G1X82.8581Y-103.4984
G1X83.9155Y-103.5003
G1X85.1967Y-103.2900
G1X86.4571Y-102.9082
G1 Z0F20000
(Start Block)

G1X20.1615Y-100.6825
G1Z6F20000
(Plotting speed under)
G1 F8000

G1X21.6587Y-102.8259
G1X22.0925Y-103.2288
G1X22.6113Y-103.5174
G1X23.4015Y-103.7180
G1X24.3456Y-103.7744
G1X25.5648Y-103.7008
G1X26.9581Y-103.4847
G1X29.4842Y-102.7777
G1X31.8683Y-101.7067
G1X34.5685Y-100.0355
G1X37.7555Y-97.6945
G1X38.9502Y-96.9820
G1X40.1936Y-96.5411
G1X41.5774Y-96.3656
G1X43.3354Y-96.4652
G1X45.2853Y-96.8653
G1X47.5469Y-97.6284
G1X51.8906Y-99.4956
G1X53.0858Y-99.7691
G1X54.1623Y-99.7549
G1X54.8654Y-99.6067
G1X55.6634Y-99.3243
G1X57.2580Y-98.4201
G1X58.6472Y-97.2342
G1X60.5050Y-95.1642
G1X61.3062Y-94.5989
G1X61.8681Y-94.4188
G1X62.7190Y-94.3075
G1X65.8113Y-94.2726
G1X68.4416Y-94.3861
G1X70.5013Y-94.6657
G1X72.4076Y-95.1531
G1X74.2777Y-95.8950
G1X75.7415Y-96.6991
G1X77.1263Y-97.6803
G1X78.4079Y-98.8170
G1X80.7761Y-101.2618
G1X81.4639Y-101.7867
G1X82.0954Y-102.1022
G1X82.9939Y-102.3231
G1X84.0169Y-102.3506
G1X85.1644Y-102.1942
G1X86.4067Y-101.8569
G1 Z0F20000
(Start Block)

G1X20.2575Y-99.0786
G1Z6F20000
(Plotting speed under)
G1 F8000

G1X21.8990Y-101.1992
G1X22.3695Y-101.6615
G1X22.7899Y-101.9495
G1X23.3599Y-102.1890
G1X24.1061Y-102.3348
G1X25.0232Y-102.3671
G1X26.1131Y-102.2818
G1X27.3585Y-102.0680
G1X28.6121Y-101.7434
G1X29.8873Y-101.3000
G1X31.0506Y-100.7907
G1X33.2189Y-99.5589
G1X37.5411Y-96.5975
G1X38.6023Y-96.0671
G1X39.6995Y-95.7229
G1X40.6561Y-95.5757
G1X41.6788Y-95.5436
G1X42.8389Y-95.6294
G1X44.0420Y-95.8281
G1X46.5168Y-96.5159
G1X51.1967Y-98.2656
G1X52.2829Y-98.4909
G1X53.3742Y-98.5068
G1X54.0739Y-98.3794
G1X54.8678Y-98.1076
G1X55.6373Y-97.7260
G1X56.4488Y-97.1981
G1X57.7194Y-96.0854
G1X59.6290Y-93.8969
G1X60.4225Y-93.3817
G1X61.0947Y-93.2101
G1X61.9643Y-93.1315
G1X66.2916Y-93.1317
G1X68.8149Y-93.2680
G1X70.7610Y-93.5576
G1X72.7494Y-94.0979
G1X74.5111Y-94.8288
G1X75.9656Y-95.6518
G1X77.2612Y-96.5894
G1X78.6113Y-97.8094
G1X80.8938Y-100.1925
G1X81.5511Y-100.6948
G1X82.1772Y-101.0106
G1X82.9645Y-101.2187
G1X83.9687Y-101.2719
G1X85.1010Y-101.1435
G1X86.3358Y-100.8367
G1 Z0F20000
(Start Block)

G1X20.3009Y-97.5976
G1Z6F20000
(Plotting speed under)
G1 F8000

G1X22.1444Y-99.7440
G1X23.0772Y-100.5005
G1X23.6677Y-100.7602
G1X24.4221Y-100.9239
G1X25.2994Y-100.9679
G1X26.3033Y-100.8979
G1X27.4217Y-100.7116
G1X28.6275Y-100.4028
G1X30.9132Y-99.5144
G1X32.8987Y-98.3966
G1X36.7256Y-95.7642
G1X37.8062Y-95.2255
G1X38.9252Y-94.8687
G1X39.8884Y-94.7111
G1X40.9070Y-94.6662
G1X43.1558Y-94.8934
G1X45.5116Y-95.4770
G1X50.3033Y-97.0919
G1X51.5887Y-97.3295
G1X52.6806Y-97.3340
G1X53.4794Y-97.1869
G1X54.1725Y-96.9444
G1X54.9400Y-96.5561
G1X55.6603Y-96.0784
G1X56.9163Y-94.9554
G1X58.7478Y-92.7798
G1X59.5369Y-92.2495
G1X60.2468Y-92.0680
G1X61.2649Y-91.9844
G1X66.0030Y-92.0062
G1X68.6765Y-92.1570
G1X70.6772Y-92.4533
G1X72.6329Y-92.9843
G1X74.4568Y-93.7428
G1X75.8821Y-94.5536
G1X77.1715Y-95.4888
G1X78.4656Y-96.6600
G1X80.8174Y-99.1494
G1X81.4858Y-99.6658
G1X82.1214Y-99.9850
G1X82.9866Y-100.2008
G1X83.9829Y-100.2396
G1X85.1111Y-100.1073
G1X86.2499Y-99.8329
G1 Z0F20000
(Start Block)

G1X20.3152Y-96.2683
G1Z6F20000
(Plotting speed under)
G1 F8000

G1X22.3549Y-98.4318
G1X23.3699Y-99.1703
G1X23.9943Y-99.4173
G1X24.7582Y-99.5653
G1X25.5352Y-99.5993
G1X26.5319Y-99.5274
G1X28.7127Y-99.0505
G1X30.8562Y-98.2068
G1X32.7778Y-97.1139
G1X36.1594Y-94.7316
G1X37.1691Y-94.2342
G1X38.2008Y-93.9113
G1X39.0627Y-93.7680
G1X40.0643Y-93.7170
G1X42.2413Y-93.9202
G1X44.6302Y-94.4873
G1X49.5084Y-96.0403
G1X50.8895Y-96.2668
G1X52.0819Y-96.2480
G1X52.8826Y-96.0915
G1X53.5780Y-95.8414
G1X54.9798Y-95.0055
G1X56.2391Y-93.8479
G1X57.9564Y-91.7240
G1X58.3316Y-91.3889
G1X58.7446Y-91.1537
G1X59.4972Y-90.9499
G1X60.5740Y-90.8582
G1X64.9650Y-90.8911
G1X68.0729Y-91.0909
G1X70.1703Y-91.3536
G1X72.1430Y-91.8509
G1X74.0339Y-92.6021
G1X75.5506Y-93.4440
G1X76.9701Y-94.4728
G1X78.2680Y-95.6599
G1X80.6196Y-98.1837
G1X81.2707Y-98.6848
G1X81.8773Y-98.9882
G1X82.7515Y-99.2072
G1X83.7591Y-99.2493
G1X84.9026Y-99.1234
G1X86.1568Y-98.8303
G1 Z0F20000
(Start Block)

G1X20.3160Y-95.1092
G1Z6F20000
(Plotting speed under)
G1 F8000

G1X22.1732Y-96.9561
G1X23.0756Y-97.6653
G1X24.1220Y-98.1241
G1X25.4554Y-98.2940
G1X26.5749Y-98.2265
G1X27.7103Y-98.0267
G1X28.9466Y-97.6834
G1X30.1447Y-97.2296
G1X31.3316Y-96.6572
G1X32.4639Y-95.9891
G1X35.1526Y-94.0096
G1X35.9415Y-93.5089
G1X37.0324Y-93.0294
G1X38.3114Y-92.7529
G1X39.8336Y-92.7155
G1X41.6145Y-92.9401
G1X43.7746Y-93.4745
G1X48.7094Y-95.0487
G1X50.1822Y-95.2831
G1X51.4755Y-95.2515
G1X52.2809Y-95.0901
G1X52.9833Y-94.8433
G1X53.6684Y-94.4887
G1X54.4056Y-93.9829
G1X55.6547Y-92.8033
G1X57.3931Y-90.5887
G1X58.1522Y-90.0487
G1X58.8287Y-89.8577
G1X59.8476Y-89.7565
G1X63.3911Y-89.7790
G1X66.2364Y-89.9785
G1X69.6532Y-90.4004
G1X70.9754Y-90.6617
G1X72.2606Y-91.0492
G1X74.2964Y-91.9493
G1X76.2251Y-93.1997
G1X77.7847Y-94.5780
G1X80.1175Y-97.1157
G1X81.1569Y-97.8765
G1X82.0266Y-98.1795
G1X83.2021Y-98.2868
G1X84.5811Y-98.1580
G1X86.0672Y-97.8129
G1 Z0F20000
(Start Block)

G1X20.3035Y-94.1304
G1Z6F20000
(Plotting speed under)
G1 F8000

G1X21.9838Y-95.7143
G1X22.9749Y-96.4597
G1X24.0387Y-96.9098
G1X25.3837Y-97.0800
G1X26.5365Y-97.0101
G1X27.6818Y-96.8057
G1X28.9221Y-96.4564
G1X30.1105Y-96.0006
G1X31.2855Y-95.4274
G1X32.4057Y-94.7584
G1X35.6789Y-92.3687
G1X36.6994Y-91.9229
G1X37.8808Y-91.6833
G1X39.2808Y-91.6683
G1X40.9606Y-91.9028
G1X43.0086Y-92.4376
G1X48.0013Y-94.1019
G1X49.4633Y-94.3488
G1X50.8560Y-94.3257
G1X51.6678Y-94.1711
G1X52.4818Y-93.8935
G1X53.1555Y-93.5518
G1X53.9004Y-93.0359
G1X55.2062Y-91.7737
G1X56.8768Y-89.5736
G1X57.5352Y-89.0439
G1X58.1297Y-88.8246
G1X58.9587Y-88.6985
G1X61.8438Y-88.6798
G1X64.6013Y-88.8873
G1X67.3035Y-89.2817
G1X70.9861Y-89.9951
G1X72.9249Y-90.6549
G1X74.4700Y-91.4542
G1X75.9085Y-92.4509
G1X77.3797Y-93.7803
G1X79.7062Y-96.2989
G1X80.3037Y-96.7555
G1X81.0030Y-97.0912
G1X81.9449Y-97.2963
G1X83.1340Y-97.3152
G1X84.5680Y-97.1253
G1X85.9948Y-96.7651
G1 Z0F20000
(Start Block)

G1X20.2596Y-93.3330
G1Z6F20000
(Plotting speed under)
G1 F8000

G1X22.1289Y-94.9826
G1X23.2933Y-95.6505
G1X23.9638Y-95.8536
G1X24.7910Y-95.9674
G1X26.6296Y-95.8707
G1X28.8297Y-95.3333
G1X30.9109Y-94.4531
G1X32.5041Y-93.5096
G1X35.0307Y-91.5820
G1X35.9745Y-91.0382
G1X37.0230Y-90.7109
G1X38.2220Y-90.6027
G1X39.7623Y-90.7367
G1X41.4753Y-91.1223
G1X43.0808Y-91.6376
G1X46.3221Y-92.8450
G1X47.7190Y-93.2535
G1X49.1890Y-93.4676
G1X50.5235Y-93.4077
G1X51.3454Y-93.2326
G1X52.1726Y-92.9347
G1X52.8969Y-92.5534
G1X53.5722Y-92.0676
G1X54.7257Y-90.9506
G1X56.4536Y-88.6513
G1X57.1247Y-88.0503
G1X57.7248Y-87.7957
G1X58.4591Y-87.6592
G1X60.7500Y-87.6140
G1X63.3195Y-87.8208
G1X65.8676Y-88.2455
G1X71.5234Y-89.7099
G1X72.7993Y-90.1657
G1X74.1090Y-90.8492
G1X75.3918Y-91.7402
G1X76.6821Y-92.8905
G1X78.9693Y-95.3311
G1X79.6866Y-95.8605
G1X80.3791Y-96.1637
G1X81.4902Y-96.3618
G1X82.8601Y-96.3348
G1X84.3428Y-96.1056
G1X85.9553Y-95.6703
G1 Z0F20000
(Start Block)

G1X20.1485Y-92.7064
G1Z6F20000
(Plotting speed under)
G1 F8000

G1X21.7745Y-94.0875
G1X22.4590Y-94.5049
G1X23.0833Y-94.7611
G1X23.7672Y-94.9259
G1X24.6158Y-95.0060
G1X26.6204Y-94.8467
G1X28.8533Y-94.2675
G1X30.9788Y-93.3479
G1X32.5761Y-92.3893
G1X34.9549Y-90.5738
G1X35.7941Y-90.0737
G1X36.8487Y-89.7258
G1X37.9693Y-89.6185
G1X39.4189Y-89.7435
G1X41.1214Y-90.1404
G1X42.7123Y-90.6770
G1X45.9050Y-91.9292
G1X47.3281Y-92.3620
G1X48.7863Y-92.5792
G1X50.1743Y-92.5155
G1X51.0057Y-92.3376
G1X51.8085Y-92.0553
G1X52.5392Y-91.6877
G1X53.2409Y-91.2082
G1X54.4117Y-90.0954
G1X56.2101Y-87.7343
G1X56.9275Y-87.0684
G1X57.4096Y-86.8356
G1X58.0341Y-86.6791
G1X59.9908Y-86.5895
G1X62.7169Y-86.8354
G1X65.4219Y-87.3898
G1X67.3468Y-87.9784
G1X70.5728Y-89.2024
G1X72.8542Y-89.9685
G1X73.8299Y-90.4843
G1X74.8291Y-91.1715
G1X76.0190Y-92.2082
G1X78.2209Y-94.4601
G1X78.9250Y-94.9413
G1X79.6109Y-95.2177
G1X80.8028Y-95.4044
G1X82.3767Y-95.3490
G1X84.1903Y-95.0352
G1X85.9654Y-94.5107
G1 Z0F20000
(Start Block)

G1X19.9215Y-92.2225
G1Z6F20000
(Plotting speed under)
G1 F8000

G1X21.4283Y-93.4330
G1X22.0973Y-93.7815
G1X22.7232Y-93.9876
G1X23.5228Y-94.1231
G1X24.4590Y-94.1573
G1X26.6853Y-93.9031
G1X28.5661Y-93.4081
G1X30.3113Y-92.7202
G1X32.4554Y-91.5303
G1X35.5327Y-89.3225
G1X36.5974Y-88.8997
G1X37.8255Y-88.7374
G1X39.1941Y-88.8363
G1X40.8741Y-89.2212
G1X42.4401Y-89.7563
G1X45.6233Y-91.0333
G1X47.0398Y-91.4702
G1X48.6006Y-91.6922
G1X50.0151Y-91.6062
G1X50.8583Y-91.4152
G1X51.6895Y-91.1150
G1X52.4365Y-90.7346
G1X53.1564Y-90.2424
G1X54.3403Y-89.1185
G1X56.1539Y-86.8251
G1X56.8929Y-86.1464
G1X57.4011Y-85.8909
G1X58.0005Y-85.7280
G1X59.5940Y-85.6243
G1X60.9098Y-85.7037
G1X62.3802Y-85.9025
G1X65.1688Y-86.5822
G1X67.1752Y-87.3308
G1X70.9375Y-89.1516
G1X72.8237Y-89.8528
G1X73.7413Y-90.3485
G1X74.6623Y-91.0092
G1X77.4441Y-93.5891
G1X78.0533Y-93.9704
G1X78.7291Y-94.2303
G1X80.2339Y-94.4249
G1X82.0732Y-94.3063
G1X84.0995Y-93.9023
G1X86.0398Y-93.2647
G1 Z0F20000
(Start Block)

G1X19.5426Y-91.8074
G1Z6F20000
(Plotting speed under)
G1 F8000

G1X20.8316Y-92.7900
G1X21.4719Y-93.0843
G1X22.1934Y-93.2753
G1X23.1127Y-93.3762
G1X24.1791Y-93.3711
G1X26.6417Y-93.0490
G1X28.5820Y-92.5364
G1X30.3542Y-91.8524
G1X32.4984Y-90.7069
G1X35.6859Y-88.5633
G1X36.6914Y-88.1795
G1X37.8168Y-88.0104
G1X39.1875Y-88.0801
G1X40.8330Y-88.4358
G1X42.3602Y-88.9437
G1X45.4581Y-90.1526
G1X46.9656Y-90.5908
G1X48.5257Y-90.7776
G1X49.9523Y-90.6682
G1X51.5566Y-90.1994
G1X52.3202Y-89.8267
G1X53.0528Y-89.3514
G1X54.2277Y-88.3009
G1X56.2427Y-85.9577
G1X57.0411Y-85.2710
G1X58.0373Y-84.8690
G1X59.4104Y-84.7329
G1X61.1136Y-84.8457
G1X62.9374Y-85.1761
G1X64.7083Y-85.6871
G1X66.3812Y-86.3531
G1X68.0592Y-87.2080
G1X70.9609Y-88.9340
G1X73.3534Y-89.9743
G1X74.4728Y-90.7613
G1X76.5317Y-92.5314
G1X77.2258Y-92.9450
G1X77.8987Y-93.1900
G1X78.6530Y-93.3311
G1X79.6177Y-93.3833
G1X81.7502Y-93.2070
G1X84.0162Y-92.7006
G1X86.1937Y-91.8954
G1 Z0F20000
(Start Block)

G1X19.1906Y-91.1572
G1Z6F20000
(Plotting speed under)
G1 F8000

G1X19.8844Y-91.7174
G1X20.4922Y-92.0777
G1X21.0482Y-92.2915
G1X21.8150Y-92.4538
G1X22.8309Y-92.5290
G1X24.0025Y-92.5049
G1X26.6787Y-92.1671
G1X28.5364Y-91.7165
G1X30.3737Y-91.0742
G1X32.4257Y-90.0946
G1X35.8082Y-88.0922
G1X36.9955Y-87.6806
G1X38.1436Y-87.5225
G1X39.3709Y-87.5635
G1X40.7722Y-87.8055
G1X45.1884Y-89.1711
G1X46.7059Y-89.5332
G1X48.2782Y-89.6759
G1X49.7442Y-89.5512
G1X51.3754Y-89.0881
G1X52.8853Y-88.2776
G1X54.1480Y-87.2042
G1X56.2424Y-85.0033
G1X57.0177Y-84.4119
G1X58.0008Y-84.0207
G1X59.3512Y-83.8738
G1X60.7484Y-83.9599
G1X62.4149Y-84.2605
G1X64.0343Y-84.7337
G1X65.5647Y-85.3513
G1X67.6470Y-86.4853
G1X70.8937Y-88.6928
G1X73.0827Y-89.6157
G1X75.8653Y-91.5039
G1X76.5026Y-91.8233
G1X77.1972Y-92.0485
G1X78.0656Y-92.1903
G1X79.1705Y-92.2260
G1X80.4246Y-92.1404
G1X81.7155Y-91.9447
G1X84.2009Y-91.2770
G1X86.4616Y-90.2877
G1 Z0F20000
(Start Block)

G1X18.9828Y-90.2541
G1Z6F20000
(Plotting speed under)
G1 F8000

G1X19.6407Y-90.7826
G1X20.2163Y-91.1217
G1X21.4725Y-91.4789
G1X22.5493Y-91.5637
G1X23.7845Y-91.5526
G1X26.4853Y-91.2865
G1X28.4186Y-90.9014
G1X30.2855Y-90.3536
G1X32.3098Y-89.5433
G1X35.9538Y-87.7546
G1X37.1655Y-87.3813
G1X38.4907Y-87.1946
G1X39.5333Y-87.1908
G1X40.7957Y-87.3161
G1X44.9238Y-88.1506
G1X46.3661Y-88.3628
G1X47.9524Y-88.4194
G1X49.3899Y-88.2688
G1X51.1503Y-87.7745
G1X52.6308Y-87.0165
G1X53.7270Y-86.1576
G1X55.7742Y-84.2168
G1X56.7077Y-83.5487
G1X57.7425Y-83.1515
G1X58.9809Y-83.0049
G1X60.2377Y-83.0668
G1X61.7250Y-83.3212
G1X63.1784Y-83.7308
G1X64.5587Y-84.2684
G1X65.8316Y-84.9043
G1X66.9752Y-85.6020
G1X70.0261Y-87.9345
G1X70.7822Y-88.4239
G1X72.7936Y-89.1453
G1X75.4565Y-90.4887
G1X76.5937Y-90.8315
G1X77.7097Y-90.9683
G1X78.9393Y-90.9645
G1X80.2982Y-90.8280
G1X81.7721Y-90.5480
G1X83.1250Y-90.1688
G1X84.3927Y-89.6976
G1X85.6463Y-89.1051
G1X86.7516Y-88.4606
G1 Z0F20000
(Start Block)

G1X18.9420Y-89.1519
G1Z6F20000
(Plotting speed under)
G1 F8000

G1X20.0408Y-89.9761
G1X21.0704Y-90.3569
G1X22.7235Y-90.5246
G1X25.1826Y-90.4522
G1X27.7593Y-90.1398
G1X30.1182Y-89.6202
G1X32.1735Y-88.9622
G1X35.8710Y-87.5012
G1X38.0149Y-86.9799
G1X39.2381Y-86.8550
G1X40.5658Y-86.8377
G1X46.1522Y-87.1603
G1X47.4093Y-87.1066
G1X48.6447Y-86.9487
G1X50.5361Y-86.4536
G1X52.1143Y-85.7294
G1X53.1225Y-85.0441
G1X55.2702Y-83.2054
G1X56.1805Y-82.6225
G1X57.2603Y-82.2330
G1X58.4066Y-82.0928
G1X59.6626Y-82.1445
G1X60.9181Y-82.3466
G1X62.2591Y-82.7021
G1X63.5569Y-83.1820
G1X64.9413Y-83.8528
G1X66.3344Y-84.7155
G1X67.5756Y-85.6594
G1X69.5870Y-87.3844
G1X70.4008Y-87.9206
G1X71.0744Y-88.1801
G1X72.4955Y-88.5047
G1X74.8144Y-89.2903
G1X76.0485Y-89.5620
G1X77.3341Y-89.6673
G1X78.8085Y-89.6119
G1X80.2665Y-89.4104
G1X81.8027Y-89.0512
G1X83.1832Y-88.5925
G1X84.5053Y-88.0146
G1X85.7822Y-87.3043
G1X86.9616Y-86.4858
G1 Z0F20000
(Start Block)

G1X19.0546Y-87.8804
G1Z6F20000
(Plotting speed under)
G1 F8000

G1X19.8849Y-88.5718
G1X20.5189Y-88.9616
G1X21.2247Y-89.2187
G1X22.1165Y-89.3718
G1X23.5685Y-89.4403
G1X25.4690Y-89.3894
G1X27.3045Y-89.2356
G1X29.1080Y-88.9770
G1X31.4536Y-88.4611
G1X35.6378Y-87.1788
G1X37.9178Y-86.6493
G1X40.2298Y-86.3460
G1X45.8229Y-85.9536
G1X47.3741Y-85.7241
G1X48.8342Y-85.3913
G1X50.3884Y-84.8703
G1X51.7841Y-84.2018
G1X52.7968Y-83.5436
G1X54.4333Y-82.2356
G1X55.3436Y-81.6745
G1X56.3267Y-81.3006
G1X57.5186Y-81.1170
G1X58.9060Y-81.1530
G1X60.4817Y-81.4190
G1X61.9925Y-81.8630
G1X63.5560Y-82.5198
G1X64.6928Y-83.1377
G1X65.8432Y-83.9013
G1X66.9591Y-84.7870
G1X69.0598Y-86.6726
G1X70.0763Y-87.3033
G1X70.7723Y-87.5050
G1X72.0469Y-87.6589
G1X75.2427Y-88.2232
G1X76.7746Y-88.3065
G1X78.3960Y-88.2138
G1X80.0611Y-87.9426
G1X81.6500Y-87.5173
G1X83.1695Y-86.9414
G1X84.5741Y-86.2348
G1X85.8705Y-85.3970
G1X87.0318Y-84.4530
G1 Z0F20000
(Start Block)

G1X19.2830Y-86.4524
G1Z6F20000
(Plotting speed under)
G1 F8000

G1X20.3346Y-87.3438
G1X20.9663Y-87.7560
G1X21.6505Y-88.0375
G1X22.5465Y-88.2209
G1X24.1808Y-88.3173
G1X26.3368Y-88.2710
G1X28.4227Y-88.1058
G1X30.4413Y-87.8231
G1X37.2135Y-86.2801
G1X44.4751Y-84.9887
G1X47.5432Y-84.2477
G1X49.4034Y-83.6027
G1X50.9771Y-82.8788
G1X52.0700Y-82.2401
G1X53.7127Y-81.0370
G1X54.5332Y-80.5638
G1X55.5166Y-80.2146
G1X56.6589Y-80.0494
G1X58.0803Y-80.0880
G1X59.5713Y-80.3338
G1X61.0967Y-80.7687
G1X62.6395Y-81.3983
G1X64.0393Y-82.1537
G1X65.3271Y-83.0295
G1X68.8726Y-86.0837
G1X69.6966Y-86.4965
G1X70.5332Y-86.6655
G1X74.6133Y-86.8948
G1X76.1741Y-86.9064
G1X78.1139Y-86.7387
G1X79.9688Y-86.3729
G1X81.9701Y-85.7277
G1X83.7909Y-84.8672
G1X85.4703Y-83.7688
G1X86.9548Y-82.4551
G1 Z0F20000
(Start Block)

G1X19.5752Y-84.8754
G1Z6F20000
(Plotting speed under)
G1 F8000

G1X20.9063Y-86.0038
G1X21.6396Y-86.5138
G1X22.4190Y-86.8566
G1X23.3021Y-87.0530
G1X24.8848Y-87.1683
G1X27.1532Y-87.1403
G1X29.4645Y-86.9756
G1X31.5948Y-86.6924
G1X40.1046Y-84.9654
G1X42.8014Y-84.3134
G1X45.1332Y-83.6429
G1X47.3832Y-82.8488
G1X49.5014Y-81.9147
G1X51.1584Y-81.0139
G1X53.1447Y-79.6908
G1X53.8975Y-79.2966
G1X54.9896Y-78.9863
G1X56.2550Y-78.8946
G1X57.7051Y-79.0155
G1X59.2399Y-79.3364
G1X60.7434Y-79.8236
G1X62.2708Y-80.5017
G1X63.3693Y-81.1173
G1X64.4763Y-81.8613
G1X65.6315Y-82.7811
G1X67.8294Y-84.7447
G1X68.4414Y-85.1673
G1X69.0559Y-85.4566
G1X69.7435Y-85.6285
G1X70.3969Y-85.6745
G1X75.2136Y-85.5012
G1X76.9336Y-85.3366
G1X78.6197Y-85.0424
G1X80.1661Y-84.6344
G1X81.7321Y-84.0627
G1X83.1946Y-83.3544
G1X84.5013Y-82.5432
G1X85.6955Y-81.6108
G1X86.7680Y-80.5682
G1 Z0F20000
(Start Block)

G1X19.8724Y-83.1631
G1Z6F20000
(Plotting speed under)
G1 F8000

G1X22.4184Y-85.1870
G1X23.1942Y-85.5804
G1X24.1859Y-85.8483
G1X25.8893Y-85.9995
G1X28.2001Y-85.9812
G1X30.5812Y-85.8142
G1X32.9974Y-85.4940
G1X35.8505Y-85.0054
G1X38.6150Y-84.4209
G1X41.0840Y-83.7808
G1X43.3689Y-83.0605
G1X45.7429Y-82.1486
G1X47.9202Y-81.1357
G1X49.8176Y-80.0988
G1X53.1520Y-78.0770
G1X54.2421Y-77.7747
G1X55.5269Y-77.7086
G1X56.8057Y-77.8301
G1X58.1370Y-78.1004
G1X59.5913Y-78.5445
G1X60.9370Y-79.0954
G1X62.3316Y-79.8222
G1X63.6533Y-80.6758
G1X64.8535Y-81.6021
G1X66.9028Y-83.3821
G1X67.7660Y-83.9930
G1X68.9324Y-84.4561
G1X69.5677Y-84.5482
G1X70.3817Y-84.5446
G1X76.4050Y-83.8095
G1X78.3924Y-83.3917
G1X80.1942Y-82.8487
G1X81.9697Y-82.1168
G1X83.6422Y-81.1977
G1X85.1584Y-80.1089
G1X86.5345Y-78.8403
G1 Z0F20000
(Start Block)

G1X20.1197Y-81.3442
G1Z6F20000
(Plotting speed under)
G1 F8000

G1X23.4699Y-83.8976
G1X24.2657Y-84.3173
G1X25.1408Y-84.5905
G1X26.6806Y-84.7854
G1X28.7840Y-84.8067
G1X31.0299Y-84.6737
G1X33.5739Y-84.3715
G1X36.0131Y-83.9769
G1X38.3365Y-83.4845
G1X40.5255Y-82.8932
G1X42.5552Y-82.2135
G1X44.7036Y-81.3336
G1X46.7109Y-80.3441
G1X52.5499Y-76.8664
G1X53.5090Y-76.5822
G1X54.7930Y-76.5167
G1X55.9861Y-76.6366
G1X57.3274Y-76.9144
G1X58.7076Y-77.3372
G1X60.0615Y-77.8856
G1X61.4641Y-78.6040
G1X62.7763Y-79.4279
G1X64.0777Y-80.3974
G1X66.2369Y-82.1775
G1X67.1247Y-82.7678
G1X67.7492Y-83.0590
G1X68.4241Y-83.2548
G1X69.8309Y-83.3488
G1X70.7875Y-83.2329
G1X75.9731Y-82.2200
G1X78.1185Y-81.6780
G1X79.9471Y-81.0814
G1X81.7536Y-80.3247
G1X83.3418Y-79.4816
G1X84.8479Y-78.4864
G1X86.3217Y-77.2917
G1 Z0F20000
(Start Block)

G1X20.2761Y-79.4641
G1Z6F20000
(Plotting speed under)
G1 F8000

G1X21.7879Y-80.4165
G1X24.5887Y-82.5325
G1X25.3095Y-82.9396
G1X26.0703Y-83.2333
G1X27.3693Y-83.4883
G1X28.9452Y-83.5734
G1X30.8934Y-83.5118
G1X33.1838Y-83.2869
G1X35.6504Y-82.9290
G1X37.8874Y-82.4780
G1X40.0172Y-81.9116
G1X41.9997Y-81.2426
G1X43.9858Y-80.4142
G1X45.9015Y-79.4481
G1X47.6135Y-78.4435
G1X50.7059Y-76.4589
G1X51.9117Y-75.7990
G1X52.9327Y-75.4391
G1X54.2947Y-75.3678
G1X55.3772Y-75.4891
G1X56.6245Y-75.7565
G1X57.9152Y-76.1556
G1X59.1790Y-76.6630
G1X60.5920Y-77.3731
G1X61.9069Y-78.1786
G1X65.4027Y-80.8328
G1X66.3921Y-81.4637
G1X67.1424Y-81.7951
G1X67.8329Y-81.9830
G1X69.3419Y-82.0796
G1X70.7859Y-81.8713
G1X73.8056Y-81.0654
G1X77.0122Y-80.1533
G1X79.5577Y-79.3059
G1X81.3708Y-78.5841
G1X83.0680Y-77.7851
G1X84.6128Y-76.9302
G1X86.1841Y-75.9240
G1 Z0F20000
(Start Block)

G1X20.3247Y-77.5820
G1Z6F20000
(Plotting speed under)
G1 F8000

G1X22.2176Y-78.5840
G1X25.7775Y-81.0981
G1X27.1925Y-81.8129
G1X28.2811Y-82.0942
G1X29.5202Y-82.2243
G1X30.9727Y-82.2259
G1X32.6504Y-82.0988
G1X35.0212Y-81.8047
G1X37.2801Y-81.3946
G1X39.3925Y-80.8712
G1X41.4794Y-80.1972
G1X43.4829Y-79.3806
G1X45.3584Y-78.4480
G1X47.0745Y-77.4493
G1X50.1041Y-75.5098
G1X51.3389Y-74.8348
G1X52.6394Y-74.3577
G1X53.9601Y-74.2946
G1X55.0110Y-74.4274
G1X56.0533Y-74.6621
G1X58.3022Y-75.4560
G1X59.6299Y-76.1037
G1X60.9626Y-76.8921
G1X64.4606Y-79.4413
G1X65.5391Y-80.1123
G1X66.3070Y-80.4508
G1X67.0428Y-80.6583
G1X67.7741Y-80.7639
G1X68.6714Y-80.7802
G1X69.9957Y-80.6191
G1X71.3210Y-80.2601
G1X81.8225Y-76.5338
G1X84.1936Y-75.6041
G1X86.1539Y-74.7320
G1 Z0F20000
(Start Block)

G1X20.2766Y-75.7616
G1Z6F20000
(Plotting speed under)
G1 F8000

G1X21.7126Y-76.3255
G1X23.1682Y-77.0662
G1X26.9503Y-79.5415
G1X28.0823Y-80.1548
G1X28.8683Y-80.4472
G1X29.7237Y-80.6451
G1X31.7185Y-80.7625
G1X34.2109Y-80.5504
G1X36.7435Y-80.1619
G1X39.0807Y-79.6316
G1X41.3066Y-78.9464
G1X43.2157Y-78.1987
G1X45.0977Y-77.3026
G1X50.7539Y-74.0345
G1X51.8272Y-73.5852
G1X52.7451Y-73.3458
G1X53.7019Y-73.3205
G1X54.8042Y-73.4689
G1X56.0574Y-73.7892
G1X57.3520Y-74.2583
G1X58.6777Y-74.8758
G1X60.0204Y-75.6416
G1X63.5853Y-78.1534
G1X64.6003Y-78.7692
G1X66.0236Y-79.3124
G1X67.5207Y-79.4918
G1X68.9540Y-79.3830
G1X70.4396Y-79.0374
G1X71.4888Y-78.6528
G1X75.8067Y-76.7516
G1X78.1623Y-75.8652
G1X80.6032Y-75.1323
G1X86.2363Y-73.7120
G1 Z0F20000
(Start Block)

G1X20.1697Y-74.0627
G1Z6F20000
(Plotting speed under)
G1 F8000

G1X21.9610Y-74.5930
G1X23.7988Y-75.3691
G1X25.4058Y-76.2272
G1X28.3292Y-77.9982
G1X29.4671Y-78.5546
G1X30.8954Y-78.9752
G1X32.5687Y-79.1031
G1X34.7188Y-78.9436
G1X37.0256Y-78.6163
G1X39.1904Y-78.1568
G1X41.2643Y-77.5639
G1X43.0915Y-76.9064
G1X44.9313Y-76.1101
G1X50.5634Y-73.2075
G1X51.8254Y-72.7320
G1X52.8380Y-72.4957
G1X53.7254Y-72.4865
G1X54.6553Y-72.6223
G1X55.6764Y-72.8882
G1X56.8202Y-73.3036
G1X58.0239Y-73.8625
G1X59.2688Y-74.5652
G1X62.6878Y-76.9215
G1X63.7181Y-77.5319
G1X65.1597Y-78.0689
G1X66.6647Y-78.2455
G1X68.5181Y-78.0693
G1X70.3702Y-77.5471
G1X71.5253Y-77.0417
G1X75.5988Y-74.8943
G1X76.9757Y-74.3251
G1X78.2674Y-73.9147
G1X80.8750Y-73.4085
G1X86.4105Y-72.8631
G1 Z0F20000
(Start Block)

G1X20.0588Y-72.5364
G1Z6F20000
(Plotting speed under)
G1 F8000

G1X22.1652Y-72.9573
G1X24.2693Y-73.6531
G1X26.1712Y-74.4966
G1X29.6020Y-76.2808
G1X30.8408Y-76.7965
G1X32.1351Y-77.1248
G1X33.5241Y-77.2184
G1X35.3849Y-77.1145
G1X37.3155Y-76.8959
G1X39.1884Y-76.5723
G1X41.0412Y-76.1396
G1X42.8813Y-75.5954
G1X44.6849Y-74.9521
G1X51.0116Y-72.3025
G1X52.7736Y-71.8391
G1X53.9011Y-71.8117
G1X55.5334Y-72.1724
G1X57.4456Y-72.9721
G1X59.1460Y-73.9584
G1X62.0514Y-75.9405
G1X63.1767Y-76.5428
G1X64.4496Y-76.9464
G1X65.8670Y-77.0800
G1X66.8130Y-77.0264
G1X67.8631Y-76.8585
G1X69.9293Y-76.2239
G1X71.5080Y-75.4456
G1X75.1294Y-73.2132
G1X76.3821Y-72.6586
G1X77.6404Y-72.2825
G1X79.0475Y-72.0490
G1X80.6278Y-71.9605
G1X86.6328Y-72.1817
G1 Z0F20000
(Start Block)

G1X20.0015Y-71.2275
G1Z6F20000
(Plotting speed under)
G1 F8000

G1X22.0521Y-71.4138
G1X24.2695Y-71.8953
G1X26.6675Y-72.6987
G1X31.4094Y-74.6567
G1X32.7812Y-75.0135
G1X34.1183Y-75.1350
G1X37.9089Y-74.9761
G1X41.4578Y-74.4794
G1X44.9044Y-73.6540
G1X51.4049Y-71.6419
G1X53.1475Y-71.2936
G1X54.0765Y-71.3007
G1X55.4689Y-71.6200
G1X57.1033Y-72.3126
G1X58.5411Y-73.1413
G1X61.1972Y-74.9090
G1X62.2209Y-75.4523
G1X63.4824Y-75.8629
G1X64.8879Y-76.0092
G1X65.9706Y-75.9513
G1X67.1408Y-75.7564
G1X68.2735Y-75.4495
G1X69.4116Y-75.0234
G1X71.2560Y-74.0487
G1X73.5875Y-72.3582
G1X74.6880Y-71.6601
G1X75.7895Y-71.1408
G1X77.0237Y-70.7847
G1X78.6695Y-70.6044
G1X80.5066Y-70.6689
G1X86.8455Y-71.6505
G1 Z0F20000
(Start Block)

G1X20.0388Y-70.1846
G1Z6F20000
(Plotting speed under)
G1 F8000

G1X22.2072Y-70.1409
G1X24.4739Y-70.3927
G1X27.0982Y-70.9962
G1X31.2256Y-72.3141
G1X32.6514Y-72.6953
G1X34.1176Y-72.9115
G1X36.3052Y-72.9725
G1X40.0625Y-72.9643
G1X43.2849Y-72.7233
G1X46.4181Y-72.2549
G1X52.4556Y-71.0643
G1X53.4741Y-70.9273
G1X54.1894Y-70.9476
G1X55.4238Y-71.2258
G1X56.7545Y-71.7793
G1X58.0105Y-72.4816
G1X60.3085Y-73.9505
G1X61.4085Y-74.5144
G1X62.6614Y-74.8992
G1X63.9523Y-75.0315
G1X65.1552Y-74.9725
G1X66.4370Y-74.7577
G1X67.6811Y-74.4147
G1X68.9220Y-73.9393
G1X69.9630Y-73.4270
G1X70.9630Y-72.8218
G1X73.4364Y-70.8923
G1X74.3801Y-70.2605
G1X75.4549Y-69.7507
G1X76.6876Y-69.4332
G1X78.4215Y-69.3373
G1X80.5306Y-69.5698
G1X82.4024Y-69.9824
G1X86.9910Y-71.2302
G1 Z0F20000
(Start Block)

G1X20.1688Y-69.4730
G1Z6F20000
(Plotting speed under)
G1 F8000

G1X22.7315Y-69.1240
G1X25.3427Y-69.1665
G1X27.8204Y-69.5055
G1X33.4270Y-70.6356
G1X43.3240Y-71.4280
G1X45.4054Y-71.4510
G1X47.4846Y-71.3669
G1X53.4467Y-70.7203
G1X54.2575Y-70.7297
G1X55.2624Y-70.9359
G1X56.4170Y-71.3794
G1X59.6476Y-73.2059
G1X60.6743Y-73.6804
G1X61.7793Y-73.9962
G1X63.0543Y-74.1318
G1X64.3566Y-74.0797
G1X65.7357Y-73.8625
G1X67.0729Y-73.5095
G1X68.4392Y-73.0018
G1X69.6960Y-72.3877
G1X70.8021Y-71.7099
G1X73.3283Y-69.6999
G1X74.2532Y-69.0814
G1X75.3340Y-68.5932
G1X76.4797Y-68.3314
G1X77.3717Y-68.2669
G1X78.3840Y-68.3033
G1X80.5162Y-68.6571
G1X82.4631Y-69.2218
G1X87.0304Y-70.8550
G1 Z0F20000
(Start Block)

G1X20.2949Y-69.0311
G1Z6F20000
(Plotting speed under)
G1 F8000

G1X22.1759Y-68.4900
G1X23.8325Y-68.1691
G1X25.5211Y-68.0088
G1X27.4232Y-68.0073
G1X29.2509Y-68.1407
G1X33.1310Y-68.5826
G1X36.6508Y-68.8477
G1X38.6742Y-69.1940
G1X43.6781Y-70.2305
G1X46.5080Y-70.6251
G1X49.7257Y-70.7400
G1X53.5061Y-70.4495
G1X54.2973Y-70.4670
G1X55.1915Y-70.6357
G1X56.1549Y-70.9622
G1X58.9942Y-72.3431
G1X60.0782Y-72.7755
G1X61.2520Y-73.0581
G1X62.4283Y-73.1625
G1X63.8013Y-73.1104
G1X65.2443Y-72.8958
G1X66.7378Y-72.5184
G1X68.1214Y-72.0237
G1X69.3966Y-71.4291
G1X70.5250Y-70.7739
G1X73.1683Y-68.7634
G1X74.0937Y-68.1666
G1X75.2064Y-67.6911
G1X76.3804Y-67.4553
G1X77.2898Y-67.4181
G1X78.3505Y-67.4955
G1X80.5144Y-67.9570
G1X82.4253Y-68.6263
G1X85.7176Y-70.0819
G1X86.9432Y-70.5381
G1 Z0F20000
(Start Block)

G1X20.3191Y-68.6810
G1Z6F20000
(Plotting speed under)
G1 F8000

G1X23.8100Y-67.4034
G1X25.2287Y-67.0452
G1X26.6609Y-66.8063
G1X29.4990Y-66.6439
G1X35.2462Y-66.8025
G1X36.7986Y-67.0060
G1X38.5835Y-67.4003
G1X44.6896Y-69.2935
G1X47.1037Y-69.8787
G1X48.6549Y-70.1013
G1X50.1296Y-70.1892
G1X51.6977Y-70.1530
G1X53.5610Y-69.9725
G1X54.5886Y-70.0189
G1X56.0824Y-70.3709
G1X58.7385Y-71.3730
G1X59.8700Y-71.7152
G1X61.2194Y-71.9471
G1X62.7814Y-71.9927
G1X64.0724Y-71.8847
G1X65.3045Y-71.6760
G1X67.7676Y-70.9584
G1X69.0329Y-70.4207
G1X70.2566Y-69.7731
G1X71.3167Y-69.0947
G1X73.0137Y-67.8495
G1X74.0412Y-67.2630
G1X75.4199Y-66.8142
G1X76.8866Y-66.7013
G1X78.6635Y-66.9203
G1X80.5888Y-67.4788
G1X82.3620Y-68.2270
G1X85.4614Y-69.7925
G1X86.6936Y-70.2763
G1 Z0F20000
(Start Block)

G1X20.2194Y-68.3294
G1Z6F20000
(Plotting speed under)
G1 F8000

G1X24.4301Y-66.4829
G1X25.8337Y-65.9945
G1X27.2290Y-65.6271
G1X28.6408Y-65.3741
G1X30.1930Y-65.2099
G1X34.9050Y-65.0592
G1X36.8025Y-65.3063
G1X38.9729Y-65.8696
G1X41.1297Y-66.6427
G1X45.7607Y-68.5604
G1X48.1907Y-69.2647
G1X49.3849Y-69.4474
G1X50.6254Y-69.5187
G1X51.8017Y-69.4801
G1X53.6770Y-69.2804
G1X54.7720Y-69.3123
G1X56.0657Y-69.5244
G1X59.9947Y-70.4709
G1X61.3756Y-70.6242
G1X62.7723Y-70.6355
G1X65.1791Y-70.3541
G1X67.5763Y-69.7211
G1X68.9046Y-69.2096
G1X70.0989Y-68.6399
G1X72.8256Y-66.9539
G1X73.6725Y-66.5240
G1X74.8619Y-66.1604
G1X76.2256Y-66.0502
G1X77.9967Y-66.2756
G1X79.8661Y-66.8539
G1X81.6574Y-67.6720
G1X84.8369Y-69.4168
G1X86.2826Y-69.9700
G1 Z0F20000
(Start Block)

G1X20.0188Y-67.8959
G1Z6F20000
(Plotting speed under)
G1 F8000

G1X25.2366Y-65.4184
G1X27.8017Y-64.4620
G1X29.1731Y-64.1147
G1X30.7808Y-63.8358
G1X33.8527Y-63.5223
G1X34.7662Y-63.5004
G1X36.8142Y-63.7606
G1X39.2305Y-64.4404
G1X41.6414Y-65.4260
G1X46.5642Y-67.8261
G1X47.9867Y-68.3192
G1X49.4600Y-68.6130
G1X51.2269Y-68.6789
G1X53.6599Y-68.3922
G1X54.8028Y-68.3549
G1X56.2583Y-68.4576
G1X60.9992Y-69.0597
G1X62.7857Y-69.0842
G1X64.4631Y-68.9512
G1X66.6314Y-68.5545
G1X68.7384Y-67.9174
G1X70.3199Y-67.2609
G1X72.6372Y-66.0295
G1X73.5100Y-65.6733
G1X74.4777Y-65.4540
G1X75.5127Y-65.4011
G1X77.1788Y-65.6309
G1X78.8918Y-66.1864
G1X80.6065Y-67.0072
G1X83.9813Y-68.9474
G1X84.8411Y-69.3034
G1X85.7546Y-69.5441
G1 Z0F20000
(Start Block)

G1X19.7703Y-67.3259
G1Z6F20000
(Plotting speed under)
G1 F8000

G1X21.7750Y-66.4220
G1X26.2202Y-64.2110
G1X28.3852Y-63.3286
G1X29.8331Y-62.8887
G1X31.3961Y-62.5367
G1X33.8245Y-62.1460
G1X34.8201Y-62.1009
G1X35.8689Y-62.1852
G1X37.0817Y-62.4019
G1X39.6210Y-63.1742
G1X42.0746Y-64.2723
G1X46.8437Y-66.8648
G1X48.1303Y-67.3527
G1X49.3693Y-67.6261
G1X50.3612Y-67.7096
G1X51.3349Y-67.6867
G1X54.0413Y-67.2780
G1X55.6861Y-67.1593
G1X61.9231Y-67.3308
G1X65.1150Y-67.1622
G1X67.0278Y-66.8655
G1X68.9725Y-66.3911
G1X70.4756Y-65.8929
G1X73.1322Y-64.8428
G1X73.9370Y-64.7065
G1X74.7467Y-64.6893
G1X76.1113Y-64.8882
G1X77.5884Y-65.3675
G1X79.2520Y-66.1777
G1X82.8860Y-68.3396
G1X84.0212Y-68.7541
G1X85.1798Y-68.9592
G1 Z0F20000
(Start Block)

G1X19.5372Y-66.5925
G1Z6F20000
(Plotting speed under)
G1 F8000

G1X22.1506Y-65.4661
G1X27.0158Y-63.0741
G1X28.9860Y-62.2473
G1X30.6250Y-61.7007
G1X32.4586Y-61.2218
G1X33.9849Y-60.8949
G1X35.0364Y-60.8377
G1X36.1990Y-60.9386
G1X37.3731Y-61.1612
G1X38.6050Y-61.4996
G1X39.9503Y-61.9797
G1X42.4249Y-63.1455
G1X46.9447Y-65.7560
G1X48.1163Y-66.2333
G1X49.3434Y-66.5228
G1X50.4500Y-66.6064
G1X51.5300Y-66.5457
G1X55.0595Y-65.8581
G1X57.7640Y-65.5352
G1X64.7953Y-65.2732
G1X67.3275Y-65.0833
G1X69.9934Y-64.6621
G1X72.7370Y-63.9345
G1X73.8295Y-63.8618
G1X75.3120Y-64.1094
G1X76.8374Y-64.6947
G1X78.2070Y-65.4543
G1X80.8108Y-67.1820
G1X81.8354Y-67.7004
G1X83.1651Y-68.0783
G1X84.6332Y-68.2114
G1 Z0F20000
(Start Block)

G1X19.3749Y-65.6893
G1Z6F20000
(Plotting speed under)
G1 F8000

G1X22.0378Y-64.6287
G1X27.3454Y-62.1758
G1X29.8149Y-61.1571
G1X33.8242Y-59.8528
G1X34.5443Y-59.7205
G1X35.3332Y-59.6899
G1X36.3851Y-59.7739
G1X37.6269Y-60.0037
G1X38.8611Y-60.3442
G1X40.2097Y-60.8306
G1X42.6880Y-62.0174
G1X46.9730Y-64.5367
G1X48.1469Y-65.0269
G1X49.2726Y-65.3006
G1X50.5458Y-65.3854
G1X51.8087Y-65.2634
G1X57.2181Y-63.8707
G1X58.9722Y-63.5318
G1X60.6914Y-63.3049
G1X63.6185Y-63.1545
G1X69.5186Y-63.2220
G1X70.9332Y-63.1310
G1X72.4352Y-62.9210
G1X73.1304Y-62.9132
G1X74.5016Y-63.1895
G1X75.8958Y-63.8005
G1X77.1722Y-64.6073
G1X79.3621Y-66.2567
G1X80.5465Y-66.8914
G1X81.2333Y-67.1051
G1X82.0841Y-67.2546
G1X84.1779Y-67.3218
G1 Z0F20000
(Start Block)

G1X19.3198Y-64.6191
G1Z6F20000
(Plotting speed under)
G1 F8000

G1X21.9639Y-63.6567
G1X28.4344Y-61.0026
G1X33.9489Y-58.9038
G1X34.8534Y-58.6861
G1X35.8004Y-58.6431
G1X36.8539Y-58.7340
G1X37.9345Y-58.9353
G1X40.3931Y-59.7093
G1X42.7679Y-60.8213
G1X47.0198Y-63.2616
G1X48.1117Y-63.7129
G1X49.2482Y-63.9903
G1X50.7502Y-64.0577
G1X52.2923Y-63.8122
G1X57.9418Y-61.7860
G1X60.2636Y-61.1547
G1X62.3207Y-60.8912
G1X64.4574Y-60.9108
G1X66.2654Y-61.1081
G1X70.1211Y-61.7169
G1X72.4323Y-61.8347
G1X73.3151Y-61.9888
G1X74.2657Y-62.3460
G1X75.3252Y-62.9527
G1X76.2729Y-63.6707
G1X78.2071Y-65.3894
G1X79.1742Y-65.9643
G1X79.9515Y-66.2034
G1X81.0172Y-66.3468
G1X83.8571Y-66.3221
G1 Z0F20000
(Start Block)

G1X19.3830Y-63.3847
G1Z6F20000
(Plotting speed under)
G1 F8000

G1X30.4848Y-59.6002
G1X32.4691Y-58.8344
G1X34.5042Y-57.9159
G1X35.3194Y-57.7249
G1X36.3158Y-57.6775
G1X38.2806Y-57.9389
G1X40.3949Y-58.5674
G1X42.6629Y-59.5588
G1X47.2794Y-62.0335
G1X48.6108Y-62.4870
G1X49.9148Y-62.6722
G1X51.4157Y-62.5774
G1X52.8373Y-62.2005
G1X54.6207Y-61.4234
G1X58.2737Y-59.5655
G1X60.1592Y-58.8701
G1X61.2425Y-58.6488
G1X62.3654Y-58.5550
G1X63.4669Y-58.5800
G1X64.7106Y-58.7248
G1X66.7282Y-59.1678
G1X70.3536Y-60.2894
G1X72.5271Y-60.7612
G1X73.3894Y-61.0770
G1X74.1142Y-61.4838
G1X74.8588Y-62.0343
G1X75.6766Y-62.7989
G1X77.2228Y-64.4854
G1X77.7151Y-64.8594
G1X78.2667Y-65.1135
G1X79.0952Y-65.2948
G1X80.2736Y-65.3755
G1X83.6926Y-65.2408
G1 Z0F20000
(Start Block)

G1X19.5499Y-61.9859
G1Z6F20000
(Plotting speed under)
G1 F8000

G1X29.9531Y-59.1897
G1X32.5036Y-58.2699
G1X34.8857Y-57.0627
G1X35.5966Y-56.8629
G1X36.4742Y-56.7719
G1X37.3674Y-56.8018
G1X38.4395Y-56.9538
G1X40.8133Y-57.6175
G1X42.9393Y-58.5124
G1X46.6103Y-60.3701
G1X48.0744Y-60.9335
G1X49.5897Y-61.2165
G1X51.0306Y-61.1720
G1X52.4833Y-60.8215
G1X53.8533Y-60.2013
G1X55.2405Y-59.3742
G1X57.9929Y-57.4841
G1X59.1156Y-56.8808
G1X60.5916Y-56.4355
G1X62.1912Y-56.3297
G1X64.1084Y-56.5477
G1X66.2324Y-57.1047
G1X67.7574Y-57.6723
G1X70.9478Y-59.0979
G1X72.9037Y-59.8463
G1X73.7110Y-60.3657
G1X74.4254Y-60.9920
G1X75.2021Y-61.8819
G1X76.4124Y-63.5485
G1X76.7781Y-63.8764
G1X77.2043Y-64.0952
G1X78.0776Y-64.2739
G1X79.5794Y-64.3316
G1X81.6427Y-64.2732
G1X83.6869Y-64.0964
G1 Z0F20000
(Start Block)

G1X19.7821Y-60.4232
G1Z6F20000
(Plotting speed under)
G1 F8000

G1X22.4042Y-59.8620
G1X27.8934Y-58.9961
G1X30.2373Y-58.5018
G1X31.5418Y-58.1133
G1X32.7124Y-57.6574
G1X35.3615Y-56.2104
G1X36.1913Y-55.9839
G1X37.0786Y-55.9002
G1X38.9597Y-56.0712
G1X41.0336Y-56.6166
G1X42.9369Y-57.3496
G1X46.5546Y-59.0008
G1X47.9352Y-59.4863
G1X49.4745Y-59.7563
G1X50.9495Y-59.6980
G1X52.5036Y-59.2822
G1X53.9213Y-58.5417
G1X55.2941Y-57.5262
G1X57.6517Y-55.4010
G1X58.5774Y-54.7937
G1X59.8380Y-54.3852
G1X61.4147Y-54.2976
G1X62.5092Y-54.3926
G1X63.7687Y-54.6133
G1X65.0068Y-54.9330
G1X66.3262Y-55.3828
G1X68.3147Y-56.2737
G1X72.5202Y-58.5557
G1X73.3317Y-59.1328
G1X74.0341Y-59.8306
G1X74.7253Y-60.7578
G1X75.7313Y-62.5408
G1X76.0272Y-62.8631
G1X76.4010Y-63.0635
G1X77.3931Y-63.2170
G1X79.6347Y-63.2298
G1X81.7985Y-63.1265
G1X83.8257Y-62.8954
G1 Z0F20000
(Start Block)

G1X20.0244Y-58.7081
G1Z6F20000
(Plotting speed under)
G1 F8000

G1X22.6085Y-58.3889
G1X28.1308Y-58.1471
G1X30.3790Y-57.8267
G1X31.7159Y-57.4756
G1X32.9314Y-57.0083
G1X33.9020Y-56.4949
G1X35.1473Y-55.6729
G1X35.8158Y-55.3589
G1X36.6595Y-55.1262
G1X37.6642Y-55.0308
G1X39.2511Y-55.1540
G1X41.1842Y-55.6045
G1X43.0038Y-56.2360
G1X46.4859Y-57.6549
G1X47.8813Y-58.0898
G1X49.3319Y-58.3143
G1X50.8398Y-58.2417
G1X51.6778Y-58.0541
G1X52.4887Y-57.7611
G1X53.9380Y-56.9034
G1X55.2185Y-55.7504
G1X57.0936Y-53.5389
G1X57.8301Y-52.9515
G1X58.3784Y-52.7137
G1X58.9958Y-52.5733
G1X60.6456Y-52.5153
G1X62.9872Y-52.8060
G1X65.2244Y-53.3893
G1X67.3714Y-54.2573
G1X69.4134Y-55.3970
G1X72.4249Y-57.3643
G1X73.2727Y-58.0888
G1X73.8184Y-58.7307
G1X74.2883Y-59.4493
G1X75.2260Y-61.5476
G1X75.4020Y-61.7829
G1X75.7174Y-61.9778
G1X76.8922Y-62.1143
G1X80.1530Y-62.0779
G1X82.2799Y-61.9156
G1X84.0803Y-61.6367
G1 Z0F20000
(Start Block)

G1X20.2176Y-56.8729
G1Z6F20000
(Plotting speed under)
G1 F8000

G1X22.5434Y-56.8256
G1X27.7662Y-57.2569
G1X29.0606Y-57.2434
G1X30.2850Y-57.1216
G1X31.7466Y-56.8031
G1X32.9792Y-56.3511
G1X33.9616Y-55.8307
G1X35.4179Y-54.8450
G1X36.2390Y-54.4624
G1X37.2055Y-54.2121
G1X38.3027Y-54.1298
G1X39.7322Y-54.2488
G1X41.4236Y-54.6157
G1X43.0070Y-55.1122
G1X46.3089Y-56.3206
G1X47.6946Y-56.7173
G1X49.1585Y-56.9287
G1X50.5952Y-56.8640
G1X51.5265Y-56.6572
G1X52.3485Y-56.3513
G1X53.0680Y-55.9695
G1X53.8348Y-55.4125
G1X54.9316Y-54.2859
G1X56.5209Y-51.8711
G1X57.0818Y-51.3368
G1X57.5844Y-51.1218
G1X58.1569Y-51.0125
G1X60.1254Y-50.9887
G1X62.6279Y-51.2781
G1X65.0287Y-51.8671
G1X67.2552Y-52.7536
G1X69.2943Y-53.9187
G1X72.3433Y-56.1499
G1X73.1815Y-56.9606
G1X73.6944Y-57.6506
G1X74.1219Y-58.4213
G1X74.8693Y-60.5702
G1X75.0274Y-60.7656
G1X75.2526Y-60.8838
G1X76.7060Y-60.9841
G1X80.4729Y-60.9088
G1X82.5527Y-60.6902
G1X84.4094Y-60.3196
G1 Z0F20000
(Start Block)

G1X20.3162Y-54.9770
G1Z6F20000
(Plotting speed under)
G1 F8000

G1X21.3562Y-55.0148
G1X22.6168Y-55.1786
G1X27.6196Y-56.2131
G1X28.9729Y-56.3256
G1X30.1938Y-56.2862
G1X31.6594Y-56.0330
G1X33.0168Y-55.5633
G1X34.0376Y-55.0186
G1X35.5623Y-53.9672
G1X36.5205Y-53.5132
G1X37.6068Y-53.2389
G1X38.8597Y-53.1687
G1X40.1874Y-53.2959
G1X41.7578Y-53.6313
G1X46.2176Y-55.0834
G1X47.5985Y-55.4502
G1X48.9564Y-55.6373
G1X50.3214Y-55.5920
G1X51.2447Y-55.4067
G1X52.1747Y-55.0731
G1X52.9833Y-54.6350
G1X53.8055Y-53.9934
G1X54.8780Y-52.7173
G1X55.3266Y-51.9475
G1X56.0583Y-50.3796
G1X56.4919Y-49.9044
G1X56.9318Y-49.7332
G1X57.5722Y-49.6465
G1X60.0868Y-49.6700
G1X62.7631Y-49.9749
G1X65.0891Y-50.5403
G1X67.2753Y-51.4107
G1X69.2712Y-52.5682
G1X72.2619Y-54.9132
G1X73.1004Y-55.7888
G1X73.9079Y-57.1260
G1X74.2314Y-58.0111
G1X74.5582Y-59.4078
G1X74.6802Y-59.6189
G1X74.8711Y-59.7441
G1X75.4373Y-59.8290
G1X77.3372Y-59.8395
G1X80.5530Y-59.7388
G1X82.7250Y-59.4557
G1X84.7629Y-58.9542
G1 Z0F20000
(Start Block)

G1X20.3067Y-53.1027
G1Z6F20000
(Plotting speed under)
G1 F8000

G1X21.4079Y-53.2327
G1X22.6077Y-53.4953
G1X27.6294Y-55.0345
G1X28.9497Y-55.2464
G1X30.2487Y-55.2692
G1X31.7114Y-55.0499
G1X33.0715Y-54.5861
G1X34.1126Y-54.0196
G1X35.6757Y-52.9276
G1X36.7642Y-52.4214
G1X37.8589Y-52.1645
G1X39.1845Y-52.1131
G1X40.4114Y-52.2448
G1X41.8718Y-52.5589
G1X46.1193Y-53.9243
G1X47.4848Y-54.2895
G1X48.8418Y-54.4842
G1X50.1204Y-54.4586
G1X51.1446Y-54.2655
G1X52.0748Y-53.9357
G1X52.9825Y-53.4351
G1X53.7185Y-52.8456
G1X54.2900Y-52.2221
G1X54.8245Y-51.4456
G1X55.2716Y-50.5447
G1X55.8319Y-48.9928
G1X55.9980Y-48.7451
G1X56.2232Y-48.5826
G1X56.6253Y-48.4689
G1X57.4668Y-48.4107
G1X60.5209Y-48.4797
G1X63.0302Y-48.7795
G1X65.4364Y-49.3897
G1X67.5288Y-50.2634
G1X69.5197Y-51.4727
G1X72.2073Y-53.6878
G1X73.0944Y-54.6692
G1X73.5618Y-55.4125
G1X73.9415Y-56.2630
G1X74.4135Y-58.3220
G1X74.5345Y-58.5141
G1X74.7346Y-58.6224
G1X75.3388Y-58.6881
G1X77.9149Y-58.6890
G1X80.7875Y-58.5447
G1X83.0670Y-58.1700
G1X85.0879Y-57.5689
G1 Z0F20000
(Start Block)

G1X20.2180Y-51.3434
G1Z6F20000
(Plotting speed under)
G1 F8000

G1X21.3437Y-51.5227
G1X22.6819Y-51.8780
G1X27.5775Y-53.6587
G1X29.4428Y-54.0127
G1X30.9934Y-53.9765
G1X32.4827Y-53.6284
G1X33.7444Y-53.0529
G1X35.4933Y-51.8204
G1X36.3219Y-51.3718
G1X37.3982Y-51.0278
G1X38.5214Y-50.9055
G1X39.8856Y-50.9887
G1X41.5573Y-51.3284
G1X43.1235Y-51.8082
G1X46.3014Y-52.9541
G1X47.5722Y-53.3145
G1X48.9203Y-53.5191
G1X50.0818Y-53.5038
G1X51.1116Y-53.3206
G1X52.1591Y-52.9479
G1X53.0697Y-52.4316
G1X53.8195Y-51.8149
G1X54.4641Y-51.0778
G1X54.9969Y-50.2406
G1X55.4214Y-49.2858
G1X55.8560Y-47.8593
G1X55.9970Y-47.5982
G1X56.1959Y-47.4282
G1X56.5965Y-47.3063
G1X57.4646Y-47.2513
G1X60.8940Y-47.3400
G1X63.4032Y-47.6693
G1X65.6153Y-48.2578
G1X67.7274Y-49.1637
G1X69.6510Y-50.3624
G1X72.2081Y-52.5127
G1X73.0945Y-53.5222
G1X73.5562Y-54.2802
G1X73.9259Y-55.1414
G1X74.3787Y-57.1893
G1X74.5066Y-57.3751
G1X74.7186Y-57.4785
G1X75.4259Y-57.5422
G1X78.0312Y-57.5363
G1X80.8843Y-57.3574
G1X83.2045Y-56.9251
G1X85.3335Y-56.2137
G1 Z0F20000
(Start Block)

G1X20.1151Y-49.7851
G1Z6F20000
(Plotting speed under)
G1 F8000

G1X21.2580Y-49.9710
G1X22.6265Y-50.3327
G1X27.8761Y-52.2116
G1X29.0947Y-52.4657
G1X30.2341Y-52.5402
G1X31.6103Y-52.3927
G1X32.9541Y-51.9697
G1X33.9582Y-51.4313
G1X35.6087Y-50.2162
G1X36.5572Y-49.7746
G1X37.7528Y-49.5321
G1X39.1006Y-49.5546
G1X40.4666Y-49.7917
G1X41.9639Y-50.2293
G1X46.3654Y-52.0661
G1X47.6159Y-52.5002
G1X48.9333Y-52.7591
G1X50.1709Y-52.7694
G1X51.3230Y-52.5609
G1X52.3784Y-52.1663
G1X53.3175Y-51.6137
G1X54.1318Y-50.9198
G1X54.7962Y-50.1452
G1X55.3131Y-49.3397
G1X55.7818Y-48.3188
G1X56.3082Y-46.7073
G1X56.6662Y-46.3185
G1X57.1688Y-46.1806
G1X57.9820Y-46.1301
G1X61.0544Y-46.2254
G1X63.5700Y-46.5722
G1X65.8295Y-47.1940
G1X67.9015Y-48.1031
G1X69.8027Y-49.3019
G1X72.2091Y-51.3115
G1X73.0988Y-52.3123
G1X73.5764Y-53.0818
G1X73.9568Y-53.9453
G1X74.4504Y-56.0139
G1X74.5870Y-56.2066
G1X74.8069Y-56.3167
G1X75.5281Y-56.3902
G1X78.0382Y-56.3833
G1X80.9180Y-56.1842
G1X83.3365Y-55.7046
G1X85.4489Y-54.9596
G1 Z0F20000
(Start Block)

G1X20.0526Y-48.4408
G1Z6F20000
(Plotting speed under)
G1 F8000

G1X21.2016Y-48.6202
G1X22.4750Y-48.9311
G1X27.7426Y-50.6223
G1X29.0690Y-50.8615
G1X30.1865Y-50.9104
G1X31.6012Y-50.7351
G1X32.9277Y-50.2891
G1X33.9469Y-49.7041
G1X35.2996Y-48.6286
G1X36.1754Y-48.1926
G1X37.3491Y-47.9577
G1X38.6416Y-47.9993
G1X40.2514Y-48.3294
G1X42.0915Y-48.9813
G1X43.6768Y-49.7316
G1X46.5834Y-51.3142
G1X47.7092Y-51.8117
G1X49.0787Y-52.1573
G1X50.3570Y-52.1852
G1X51.4988Y-51.9764
G1X52.5963Y-51.5653
G1X53.6035Y-50.9699
G1X54.5260Y-50.1900
G1X55.1820Y-49.4544
G1X55.7909Y-48.5643
G1X56.3347Y-47.4682
G1X56.9412Y-45.8024
G1X57.1242Y-45.5020
G1X57.3647Y-45.2964
G1X57.8885Y-45.1224
G1X58.6551Y-45.0542
G1X61.2795Y-45.1385
G1X63.8237Y-45.5035
G1X66.0695Y-46.1335
G1X68.1440Y-47.0489
G1X70.0846Y-48.2687
G1X72.2862Y-50.0573
G1X73.2547Y-51.1577
G1X73.7408Y-51.9586
G1X74.0873Y-52.7473
G1X74.6057Y-54.8007
G1X74.7426Y-55.0135
G1X74.9583Y-55.1402
G1X75.7109Y-55.2352
G1X77.7806Y-55.2364
G1X80.8495Y-55.0406
G1X83.2320Y-54.5871
G1X85.4211Y-53.8396
G1 Z0F20000
(Start Block)

G1X20.0496Y-47.2854
G1Z6F20000
(Plotting speed under)
G1 F8000

G1X22.2518Y-47.6825
G1X27.2728Y-49.0266
G1X28.6556Y-49.2274
G1X29.9283Y-49.2485
G1X31.3426Y-49.0425
G1X32.7185Y-48.5568
G1X33.7282Y-47.9544
G1X35.0498Y-46.8500
G1X35.7986Y-46.4879
G1X36.8464Y-46.2951
G1X38.1923Y-46.3609
G1X40.2031Y-46.8488
G1X42.2339Y-47.7008
G1X43.7621Y-48.5632
G1X46.7949Y-50.6304
G1X47.9236Y-51.2522
G1X49.1130Y-51.6162
G1X50.4196Y-51.6711
G1X51.5382Y-51.4796
G1X52.7768Y-51.0281
G1X53.8912Y-50.3849
G1X54.9681Y-49.5104
G1X55.7549Y-48.6610
G1X56.3978Y-47.7666
G1X56.9815Y-46.6944
G1X57.7544Y-44.8665
G1X58.2235Y-44.3261
G1X58.7067Y-44.1313
G1X59.4077Y-44.0353
G1X61.6937Y-44.0936
G1X64.2275Y-44.4733
G1X66.5394Y-45.1442
G1X68.7096Y-46.1340
G1X70.6869Y-47.4042
G1X72.4373Y-48.7894
G1X73.4879Y-50.0068
G1X74.2596Y-51.4748
G1X74.8365Y-53.6004
G1X75.1560Y-53.9474
G1X75.7543Y-54.0656
G1X77.2213Y-54.0910
G1X80.7543Y-53.9109
G1X83.1372Y-53.4929
G1X85.2925Y-52.8108
G1 Z0F20000
(Start Block)

G1X20.1009Y-46.2980
G1Z6F20000
(Plotting speed under)
G1 F8000

G1X21.7594Y-46.5519
G1X26.5727Y-47.5554
G1X27.9672Y-47.6940
G1X29.3564Y-47.6701
G1X30.8328Y-47.4196
G1X32.2566Y-46.9004
G1X33.3915Y-46.2110
G1X34.6305Y-45.1235
G1X35.2216Y-44.8238
G1X36.3681Y-44.6209
G1X37.7660Y-44.7182
G1X38.9343Y-44.9694
G1X40.0791Y-45.3340
G1X41.3330Y-45.8620
G1X42.4591Y-46.4560
G1X44.2077Y-47.6267
G1X47.0350Y-50.0286
G1X48.0565Y-50.7084
G1X49.1464Y-51.0774
G1X50.3720Y-51.1351
G1X51.5746Y-50.9365
G1X52.8532Y-50.4905
G1X54.1701Y-49.7733
G1X55.3291Y-48.8968
G1X56.1995Y-48.0363
G1X56.9619Y-47.0738
G1X57.6657Y-45.9190
G1X58.6024Y-43.9944
G1X58.8606Y-43.6367
G1X59.1659Y-43.3780
G1X59.6522Y-43.1702
G1X60.2858Y-43.0618
G1X62.2593Y-43.0890
G1X64.7329Y-43.4701
G1X67.0966Y-44.1749
G1X69.2579Y-45.1761
G1X71.4639Y-46.6002
G1X72.7854Y-47.6735
G1X73.7882Y-48.8991
G1X74.5352Y-50.3684
G1X75.1242Y-52.4271
G1X75.2812Y-52.6558
G1X75.5134Y-52.7982
G1X76.0494Y-52.9018
G1X77.2887Y-52.9354
G1X80.6910Y-52.7820
G1X83.0222Y-52.4153
G1X85.0994Y-51.8270
G1 Z0F20000
(Start Block)

G1X20.1848Y-45.4612
G1Z6F20000
(Plotting speed under)
G1 F8000

G1X25.6728Y-46.2979
G1X27.2655Y-46.3696
G1X28.6490Y-46.2730
G1X30.2339Y-45.9343
G1X31.7336Y-45.3321
G1X32.9629Y-44.5502
G1X34.1157Y-43.4966
G1X34.6949Y-43.1928
G1X35.8387Y-43.0071
G1X37.3432Y-43.1258
G1X38.5210Y-43.3789
G1X39.6414Y-43.7266
G1X40.8326Y-44.2102
G1X41.9243Y-44.7657
G1X43.2206Y-45.5866
G1X44.4118Y-46.5266
G1X45.4427Y-47.5071
G1X47.1346Y-49.3383
G1X47.8842Y-49.9724
G1X48.4461Y-50.2715
G1X48.9760Y-50.4321
G1X49.6278Y-50.5134
G1X50.3742Y-50.4973
G1X51.7587Y-50.2470
G1X53.1499Y-49.7538
G1X54.5543Y-49.0144
G1X55.8042Y-48.1144
G1X56.7397Y-47.2414
G1X57.5557Y-46.2821
G1X58.3742Y-45.0520
G1X59.4089Y-43.1668
G1X59.7187Y-42.7583
G1X60.0532Y-42.4726
G1X60.5642Y-42.2365
G1X61.1242Y-42.1197
G1X62.9562Y-42.1147
G1X65.4129Y-42.5050
G1X67.7116Y-43.2120
G1X69.8735Y-44.2253
G1X72.1392Y-45.6786
G1X73.2725Y-46.7120
G1X74.1459Y-47.8759
G1X74.8188Y-49.2457
G1X75.3856Y-51.1420
G1X75.5382Y-51.4090
G1X75.8464Y-51.6250
G1X76.3571Y-51.7327
G1X77.4081Y-51.7755
G1X80.5585Y-51.6584
G1X82.7596Y-51.3656
G1X84.8764Y-50.8495
G1 Z0F20000
(Start Block)

G1X20.2696Y-44.7563
G1Z6F20000
(Plotting speed under)
G1 F8000

G1X23.2922Y-45.1781
G1X24.8377Y-45.3139
G1X26.3432Y-45.3122
G1X27.8392Y-45.1368
G1X29.5242Y-44.6892
G1X30.9963Y-44.0349
G1X32.2010Y-43.2598
G1X33.5580Y-42.0189
G1X34.0795Y-41.7060
G1X34.5865Y-41.5614
G1X35.3115Y-41.4910
G1X37.0784Y-41.6381
G1X38.4186Y-41.9333
G1X39.7535Y-42.3627
G1X41.0222Y-42.9053
G1X42.2554Y-43.5789
G1X43.5715Y-44.4940
G1X44.7988Y-45.5855
G1X45.8722Y-46.7934
G1X47.3045Y-48.6836
G1X47.8184Y-49.1961
G1X48.3128Y-49.5005
G1X48.7980Y-49.6633
G1X49.4834Y-49.7529
G1X50.2598Y-49.7363
G1X51.5062Y-49.5412
G1X52.7892Y-49.1667
G1X54.0780Y-48.6245
G1X55.2542Y-47.9676
G1X56.6654Y-46.9217
G1X57.9144Y-45.6718
G1X58.8236Y-44.4756
G1X60.1841Y-42.2763
G1X60.6908Y-41.7047
G1X61.1850Y-41.3931
G1X61.7895Y-41.2059
G1X62.5817Y-41.1197
G1X63.6847Y-41.1474
G1X65.9439Y-41.5010
G1X68.1585Y-42.1720
G1X70.1667Y-43.0838
G1X72.2409Y-44.3580
G1X73.4109Y-45.4072
G1X74.3309Y-46.5976
G1X75.0335Y-47.9594
G1X75.6939Y-49.9515
G1X75.8960Y-50.2581
G1X76.1884Y-50.4457
G1X76.6753Y-50.5583
G1X77.5515Y-50.6092
G1X80.4214Y-50.5284
G1X82.6434Y-50.2759
G1X84.6587Y-49.8506
G1 Z0F20000
(Start Block)

G1X20.3208Y-44.1594
G1Z6F20000
(Plotting speed under)
G1 F8000

G1X22.5241Y-44.4662
G1X24.1422Y-44.5716
G1X25.6500Y-44.5079
G1X27.1730Y-44.2484
G1X28.8208Y-43.7143
G1X30.4202Y-42.8983
G1X31.5974Y-42.0636
G1X33.1341Y-40.6192
G1X33.6374Y-40.3028
G1X34.1385Y-40.1579
G1X34.8450Y-40.0855
G1X36.7480Y-40.2236
G1X38.3065Y-40.5497
G1X39.8097Y-41.0270
G1X41.2132Y-41.6367
G1X42.4638Y-42.3408
G1X43.8502Y-43.3507
G1X45.1267Y-44.5808
G1X46.0923Y-45.7946
G1X47.4326Y-47.8757
G1X47.9141Y-48.3953
G1X48.2926Y-48.6286
G1X48.8034Y-48.7903
G1X49.4256Y-48.8595
G1X50.2991Y-48.8334
G1X51.6365Y-48.6222
G1X53.0880Y-48.2144
G1X54.4565Y-47.6590
G1X55.6718Y-47.0046
G1X57.1264Y-45.9709
G1X58.4003Y-44.7619
G1X59.4020Y-43.5339
G1X60.8470Y-41.3959
G1X61.4309Y-40.7705
G1X61.9991Y-40.4252
G1X62.6024Y-40.2411
G1X63.4284Y-40.1505
G1X64.4406Y-40.1762
G1X66.4368Y-40.4833
G1X68.5849Y-41.1213
G1X70.6390Y-42.0442
G1X72.4335Y-43.1488
G1X73.5467Y-44.1439
G1X74.5056Y-45.3509
G1X75.2500Y-46.7325
G1X75.9981Y-48.7604
G1X76.2632Y-49.1031
G1X76.5376Y-49.2622
G1X77.6855Y-49.4320
G1X80.2483Y-49.3901
G1X82.4478Y-49.1820
G1X84.4800Y-48.8137
G1 Z0F20000
(Start Block)

G1X20.3073Y-43.6390
G1Z6F20000
(Plotting speed under)
G1 F8000

G1X22.1291Y-43.9214
G1X23.7390Y-44.0004
G1X25.2456Y-43.8754
G1X26.6662Y-43.5609
G1X28.3566Y-42.9133
G1X29.9106Y-42.0117
G1X31.0119Y-41.1515
G1X32.8252Y-39.3486
G1X33.2953Y-39.0300
G1X33.8994Y-38.8511
G1X34.5987Y-38.7827
G1X36.4935Y-38.8992
G1X38.1598Y-39.2166
G1X39.6919Y-39.6712
G1X41.2183Y-40.3042
G1X42.5969Y-41.0655
G1X44.0950Y-42.1668
G1X45.4102Y-43.4808
G1X46.4481Y-44.8962
G1X47.6013Y-46.9118
G1X48.0379Y-47.4175
G1X48.3960Y-47.6381
G1X48.9487Y-47.7956
G1X49.6986Y-47.8480
G1X50.5375Y-47.8005
G1X52.0007Y-47.5571
G1X53.4918Y-47.1370
G1X54.8485Y-46.5953
G1X56.1705Y-45.8949
G1X57.5517Y-44.9370
G1X58.8266Y-43.7826
G1X59.8900Y-42.5570
G1X61.4422Y-40.4454
G1X62.1030Y-39.7872
G1X62.6325Y-39.4723
G1X63.2444Y-39.2737
G1X64.0025Y-39.1740
G1X64.9352Y-39.1790
G1X66.8768Y-39.4565
G1X68.9219Y-40.0490
G1X70.8451Y-40.8927
G1X72.5575Y-41.9412
G1X73.6833Y-42.9393
G1X74.6079Y-44.0651
G1X75.4063Y-45.4471
G1X76.2489Y-47.4896
G1X76.5130Y-47.8415
G1X76.7868Y-48.0265
G1X77.7843Y-48.2350
G1X79.9036Y-48.2430
G1X82.2388Y-48.0665
G1X84.3704Y-47.7296
G1 Z0F20000
(Start Block)

G1X20.2089Y-43.1560
G1Z6F20000
(Plotting speed under)
G1 F8000

G1X21.8712Y-43.4586
G1X23.3578Y-43.5247
G1X24.9268Y-43.3549
G1X26.4006Y-42.9670
G1X28.0517Y-42.2530
G1X29.5936Y-41.2703
G1X30.7306Y-40.2941
G1X32.4877Y-38.3720
G1X33.1096Y-37.8743
G1X33.7047Y-37.6701
G1X34.3883Y-37.5813
G1X36.3440Y-37.6584
G1X38.0808Y-37.9532
G1X39.7989Y-38.4340
G1X41.4247Y-39.0901
G1X42.8155Y-39.8471
G1X44.3330Y-40.9506
G1X45.6822Y-42.2946
G1X46.6036Y-43.5357
G1X47.8321Y-45.7430
G1X48.3109Y-46.3230
G1X48.7702Y-46.5762
G1X49.2800Y-46.6919
G1X50.8543Y-46.6692
G1X52.3374Y-46.4174
G1X53.8108Y-46.0070
G1X55.1755Y-45.4726
G1X56.4887Y-44.7953
G1X57.8693Y-43.8717
G1X59.1954Y-42.7244
G1X60.2209Y-41.6159
G1X61.9087Y-39.4969
G1X62.6552Y-38.7994
G1X63.2086Y-38.4844
G1X63.8377Y-38.2836
G1X64.5404Y-38.1861
G1X65.4110Y-38.1807
G1X67.2985Y-38.4381
G1X69.1670Y-38.9702
G1X70.9890Y-39.7554
G1X72.6143Y-40.7451
G1X73.6741Y-41.6550
G1X74.6325Y-42.7554
G1X75.4899Y-44.1173
G1X76.4610Y-46.1919
G1X76.7506Y-46.5698
G1X77.1452Y-46.8293
G1X78.1305Y-47.0345
G1X80.0155Y-47.0565
G1X82.2025Y-46.9052
G1X84.3533Y-46.5925
G1 Z0F20000
(Start Block)

G1X20.0208Y-42.6669
G1Z6F20000
(Plotting speed under)
G1 F8000

G1X21.6183Y-43.0152
G1X23.1300Y-43.0750
G1X24.7089Y-42.8675
G1X26.3708Y-42.3715
G1X28.0117Y-41.5886
G1X29.6003Y-40.4900
G1X30.6518Y-39.5166
G1X32.4964Y-37.3388
G1X33.0889Y-36.8414
G1X33.5854Y-36.6244
G1X34.3244Y-36.4783
G1X36.2136Y-36.4858
G1X38.0372Y-36.7457
G1X39.8793Y-37.2168
G1X41.5455Y-37.8491
G1X43.0282Y-38.6187
G1X44.6360Y-39.7491
G1X46.0316Y-41.1037
G1X47.0867Y-42.5112
G1X48.3056Y-44.6096
G1X48.7551Y-45.1084
G1X49.1284Y-45.3223
G1X49.6904Y-45.4655
G1X50.3975Y-45.5027
G1X51.3313Y-45.4336
G1X52.7550Y-45.1790
G1X54.1507Y-44.7837
G1X55.4449Y-44.2819
G1X56.7279Y-43.6366
G1X58.0877Y-42.7611
G1X59.3869Y-41.6979
G1X60.4630Y-40.6134
G1X62.2500Y-38.5498
G1X63.0693Y-37.8264
G1X63.6444Y-37.5081
G1X64.2860Y-37.3020
G1X65.0573Y-37.1949
G1X65.8803Y-37.1908
G1X67.5933Y-37.4185
G1X69.3959Y-37.9258
G1X71.0772Y-38.6464
G1X72.6067Y-39.5702
G1X73.6696Y-40.4563
G1X74.5755Y-41.4384
G1X75.4896Y-42.7572
G1X76.6437Y-44.9014
G1X76.9706Y-45.2928
G1X77.4544Y-45.5969
G1X78.5066Y-45.8148
G1X80.1436Y-45.8441
G1X82.2684Y-45.7030
G1X84.4431Y-45.3955
G1 Z0F20000
(Start Block)

G1X19.7567Y-42.1292
G1Z6F20000
(Plotting speed under)
G1 F8000

G1X21.2651Y-42.5302
G1X22.8578Y-42.6005
G1X24.5889Y-42.3474
G1X26.3184Y-41.8015
G1X28.0676Y-40.9356
G1X29.6666Y-39.7956
G1X30.9467Y-38.5476
G1X32.6884Y-36.4025
G1X33.3185Y-35.8834
G1X33.9158Y-35.6117
G1X34.5378Y-35.4647
G1X36.3705Y-35.4048
G1X38.1281Y-35.6090
G1X39.9772Y-36.0305
G1X41.6710Y-36.6187
G1X43.2272Y-37.3666
G1X44.8429Y-38.4207
G1X46.3123Y-39.7308
G1X47.3008Y-40.8989
G1X48.7341Y-43.0734
G1X49.2768Y-43.6883
G1X49.7728Y-43.9796
G1X50.3290Y-44.1203
G1X51.0149Y-44.1554
G1X51.8762Y-44.0860
G1X53.1407Y-43.8517
G1X54.4488Y-43.4781
G1X55.7136Y-42.9892
G1X56.9567Y-42.3728
G1X58.2968Y-41.5334
G1X59.5218Y-40.5773
G1X60.6218Y-39.5455
G1X62.5425Y-37.5256
G1X63.3464Y-36.8726
G1X63.9428Y-36.5513
G1X64.5964Y-36.3385
G1X65.3489Y-36.2250
G1X66.1463Y-36.2110
G1X67.7064Y-36.3983
G1X69.4618Y-36.8739
G1X71.1128Y-37.5738
G1X72.5373Y-38.4250
G1X73.5970Y-39.2782
G1X74.5058Y-40.2124
G1X75.3964Y-41.3830
G1X76.7945Y-43.6256
G1X77.1688Y-44.0155
G1X77.6040Y-44.2856
G1X78.5813Y-44.5360
G1X80.2332Y-44.5976
G1X82.3961Y-44.4547
G1X84.6439Y-44.1275
G1 Z0F20000
(Start Block)

G1X19.4475Y-41.5070
G1Z6F20000
(Plotting speed under)
G1 F8000

G1X20.2052Y-41.8038
G1X20.9421Y-41.9791
G1X22.5978Y-42.0538
G1X24.5757Y-41.7457
G1X26.4770Y-41.1222
G1X28.2758Y-40.2114
G1X29.8807Y-39.0575
G1X31.1977Y-37.7755
G1X32.9797Y-35.6260
G1X33.6454Y-35.0840
G1X34.2775Y-34.7557
G1X34.8804Y-34.5642
G1X35.6607Y-34.4370
G1X36.6506Y-34.3999
G1X38.4807Y-34.5539
G1X40.4862Y-34.9740
G1X42.3433Y-35.6021
G1X44.0927Y-36.4493
G1X45.5365Y-37.3912
G1X46.8831Y-38.5389
G1X47.8713Y-39.6066
G1X49.7907Y-41.9932
G1X50.3743Y-42.3982
G1X50.9840Y-42.5958
G1X52.0667Y-42.6364
G1X53.4992Y-42.4070
G1X55.0358Y-41.9535
G1X56.5140Y-41.3319
G1X57.8807Y-40.5813
G1X59.2815Y-39.6126
G1X60.4724Y-38.6130
G1X62.6320Y-36.5739
G1X63.4825Y-35.9370
G1X64.1030Y-35.6159
G1X64.7709Y-35.3979
G1X66.2011Y-35.2520
G1X67.7508Y-35.4094
G1X69.3730Y-35.8257
G1X70.9657Y-36.4766
G1X72.3234Y-37.2580
G1X73.3038Y-37.9976
G1X74.2106Y-38.8484
G1X75.2036Y-40.0136
G1X76.8306Y-42.2816
G1X77.3420Y-42.7435
G1X77.8306Y-43.0054
G1X78.9978Y-43.2636
G1X80.5869Y-43.3012
G1X82.7476Y-43.1282
G1X84.9473Y-42.7721
G1 Z0F20000
(Start Block)

G1X19.1379Y-40.7746
G1Z6F20000
(Plotting speed under)
G1 F8000

G1X19.8145Y-41.1026
G1X20.4524Y-41.2912
G1X21.2952Y-41.4061
G1X22.1798Y-41.4136
G1X24.2897Y-41.1270
G1X26.4630Y-40.4645
G1X28.2785Y-39.5985
G1X29.9577Y-38.4690
G1X31.3577Y-37.2014
G1X33.3452Y-34.9849
G1X34.2428Y-34.3097
G1X35.0079Y-33.9090
G1X35.7290Y-33.6644
G1X36.6327Y-33.5039
G1X37.6179Y-33.4576
G1X39.3020Y-33.5822
G1X41.1584Y-33.9467
G1X42.9411Y-34.5136
G1X44.6380Y-35.2802
G1X46.0638Y-36.1345
G1X47.3330Y-37.0985
G1X50.5970Y-40.3305
G1X51.1725Y-40.6874
G1X51.9079Y-40.9152
G1X52.8394Y-40.9463
G1X53.9680Y-40.7744
G1X55.2344Y-40.4153
G1X56.5596Y-39.8841
G1X57.9066Y-39.1826
G1X59.1591Y-38.3770
G1X62.4992Y-35.6714
G1X63.4696Y-35.0088
G1X64.7636Y-34.4861
G1X66.2603Y-34.3189
G1X67.6792Y-34.4455
G1X69.2286Y-34.8193
G1X70.6804Y-35.3829
G1X72.0246Y-36.1183
G1X73.1007Y-36.8928
G1X74.1270Y-37.8197
G1X76.8667Y-41.0268
G1X77.3859Y-41.4225
G1X77.9232Y-41.6805
G1X79.1512Y-41.9356
G1X80.8674Y-41.9572
G1X83.0519Y-41.7384
G1X85.3317Y-41.3105
G1 Z0F20000

G00 X0.0000 Y0.0000

