$H
G21
G17
G90
G1 Z0F20000
G1 F15000
(Start Layer)
(Start Block)

G1X74.3860Y-32.7070
G1Z6F20000
(Plotting speed under)
G1 F8000

G1X79.1435Y-33.2922
G1X82.6973Y-34.2694
G1X82.4010Y-34.9393
G1X70.3238Y-36.4902
G1X49.8605Y-37.2162
G1X41.3691Y-37.2705
G1X30.4808Y-36.8243
G1X24.4388Y-36.2269
G1X23.1050Y-36.0229
G1X74.3462Y-34.0269
G1X79.1119Y-34.6109
G1X82.6906Y-35.5867
G1X82.4147Y-36.2560
G1X70.3988Y-37.8091
G1X49.9792Y-38.5399
G1X41.4963Y-38.5971
G1X30.5808Y-38.1550
G1X24.4971Y-37.5604
G1X23.1444Y-37.3575
G1X74.2267Y-35.3406
G1X79.0249Y-35.9220
G1X82.6729Y-36.8957
G1X82.4462Y-37.5644
G1X70.5652Y-39.1229
G1X57.7552Y-39.6334
G1X46.7964Y-39.9320
G1X41.7296Y-39.9268
G1X30.7600Y-39.4918
G1X24.5998Y-38.9017
G1X23.2131Y-38.7003
G1X74.0273Y-36.6485
G1X78.8817Y-37.2259
G1X82.6423Y-38.1963
G1X82.4928Y-38.8646
G1X70.8202Y-40.4316
G1X58.0772Y-40.9519
G1X47.1431Y-41.2597
G1X42.0678Y-41.2591
G1X31.0187Y-40.8343
G1X24.7486Y-40.2504
G1X23.3133Y-40.0509
G1X73.7475Y-37.9507
G1X78.6809Y-38.5229
G1X82.5957Y-39.4889
G1X82.5509Y-40.1567
G1X71.1593Y-41.7352
G1X58.5053Y-42.2687
G1X47.5970Y-42.5884
G1X42.5090Y-42.5937
G1X31.3573Y-42.1821
G1X24.9460Y-41.6062
G1X23.4482Y-41.4090
G1X73.3871Y-39.2478
G1X78.4205Y-39.8134
G1X82.5293Y-40.7737
G1X82.6156Y-41.4409
G1X71.5766Y-43.0335
G1X51.5623Y-43.8384
G1X43.0508Y-43.9303
G1X31.7762Y-43.5348
G1X23.6212Y-42.7742
G1X72.9458Y-40.5402
G1X78.0985Y-41.0978
G1X82.4384Y-42.0513
G1X82.6808Y-42.7176
G1X72.0647Y-44.3265
G1X52.2179Y-45.1623
G1X43.6899Y-45.2683
G1X32.2752Y-44.8918
G1X23.8365Y-44.1460
G1X72.4239Y-41.8286
G1X77.7129Y-42.3767
G1X82.3180Y-43.3219
G1X82.7399Y-43.9872
G1X72.6151Y-45.6140
G1X52.9667Y-46.4851
G1X44.4221Y-46.6070
G1X32.8541Y-46.2523
G1X24.0980Y-45.5237
G1X71.8220Y-43.1136
G1X77.2620Y-43.6509
G1X82.1627Y-44.5864
G1X82.7860Y-45.2501
G1X73.2184Y-46.8962
G1X61.1622Y-47.5113
G1X50.4017Y-47.9045
G1X45.2423Y-47.9459
G1X33.5116Y-47.6157
G1X24.4095Y-46.9066
G1X71.1413Y-44.3959
G1X76.7446Y-44.9211
G1X81.9675Y-45.8453
G1X82.8117Y-46.5069
G1X73.8641Y-48.1729
G1X62.0235Y-48.8141
G1X51.3204Y-49.2312
G1X46.1443Y-49.2843
G1X34.2458Y-48.9812
G1X24.7746Y-48.2941
G1X70.3844Y-45.6764
G1X76.1599Y-46.1881
G1X81.7276Y-47.0992
G1X82.8099Y-47.7582
G1X74.5413Y-49.4442
G1X62.9443Y-50.1132
G1X52.3108Y-50.5558
G1X47.1211Y-50.6216
G1X35.0539Y-50.3480
G1X25.1959Y-49.6852
G1X69.5542Y-46.9559
G1X75.5085Y-47.4527
G1X81.4387Y-48.3491
G1X82.7742Y-49.0047
G1X75.2389Y-50.7105
G1X63.9138Y-51.4083
G1X53.3635Y-51.8779
G1X48.1645Y-51.9571
G1X35.9319Y-51.7152
G1X25.6750Y-51.0791
G1X68.6553Y-48.2352
G1X74.7916Y-48.7158
G1X81.0977Y-49.5957
G1X82.6986Y-50.2472
G1X75.9455Y-51.9717
G1X64.9204Y-52.6993
G1X59.2288Y-52.9423
G1X57.8252Y-53.0652
G1X49.2655Y-53.2904
G1X36.8746Y-53.0821
G1X26.2127Y-52.4750
G1X67.6929Y-49.5149
G1X74.0119Y-49.9783
G1X80.7025Y-50.8400
G1X82.5782Y-51.4864
G1X76.6503Y-53.2283
G1X65.9524Y-53.9861
G1X60.3395Y-54.2449
G1X58.9507Y-54.3716
G1X50.4143Y-54.6209
G1X37.8761Y-54.4479
G1X26.8082Y-53.8720
G1X66.6735Y-50.7960
G1X73.1731Y-51.2409
G1X80.2522Y-52.0827
G1X82.4095Y-52.7231
G1X77.3428Y-54.4807
G1X66.9981Y-55.2687
G1X60.1018Y-55.6742
G1X51.6007Y-55.9482
G1X38.9290Y-55.8120
G1X27.4598Y-55.2693
G1X65.6047Y-52.0790
G1X72.2802Y-52.5044
G1X79.7472Y-53.3248
G1X82.1899Y-53.9583
G1X78.0135Y-55.7293
G1X68.0461Y-56.5473
G1X61.2669Y-56.9729
G1X52.8139Y-57.2721
G1X40.0254Y-57.1738
G1X28.1642Y-56.6659
G1X64.4947Y-53.3644
G1X71.3391Y-53.7696
G1X79.1894Y-54.5670
G1X81.9187Y-55.1926
G1X78.6540Y-56.9748
G1X69.0855Y-57.8220
G1X62.4348Y-58.2677
G1X54.0429Y-58.5922
G1X41.1564Y-58.5326
G1X28.9169Y-58.0613
G1X63.3526Y-54.6529
G1X70.3571Y-55.0371
G1X78.5820Y-55.8102
G1X81.5962Y-56.4271
G1X79.2569Y-58.2177
G1X70.1062Y-59.0932
G1X63.5948Y-59.5588
G1X55.2770Y-59.9087
G1X42.3128Y-59.8883
G1X29.7124Y-59.4546
G1X62.1877Y-55.9447
G1X69.3418Y-56.3075
G1X77.9292Y-57.0550
G1X81.2245Y-57.6623
G1X79.8165Y-59.4586
G1X71.0991Y-60.3613
G1X64.7369Y-60.8464
G1X56.5059Y-61.2214
G1X43.4850Y-61.2403
G1X30.5442Y-60.8453
G1X61.0097Y-57.2402
G1X68.3016Y-57.5811
G1X77.2366Y-58.3021
G1X80.8066Y-58.8991
G1X80.3283Y-60.6983
G1X72.0562Y-61.6267
G1X65.8520Y-62.1308
G1X57.7197Y-62.5305
G1X44.6633Y-62.5887
G1X31.4052Y-62.2329
G1X59.8283Y-58.5394
G1X67.2453Y-58.8583
G1X76.5103Y-59.5521
G1X80.3469Y-60.1381
G1X80.7893Y-61.9375
G1X72.9709Y-62.8899
G1X66.9320Y-63.4124
G1X58.9094Y-63.8362
G1X45.8385Y-63.9332
G1X32.2877Y-63.6170
G1X58.6525Y-59.8425
G1X66.1815Y-60.1393
G1X75.7573Y-60.8055
G1X79.8504Y-61.3799
G1X81.1981Y-63.1767
G1X73.8379Y-64.1516
G1X67.9704Y-64.6917
G1X60.0670Y-65.1388
G1X47.0017Y-65.2738
G1X33.1838Y-64.9973
G1X57.4912Y-61.1493
G1X65.1189Y-61.4243
G1X74.9847Y-62.0624
G1X79.3231Y-62.6249
G1X81.5545Y-64.4167
G1X74.6534Y-65.4122
G1X66.0251Y-66.1950
G1X61.1857Y-66.4386
G1X48.1447Y-66.6108
G1X34.0858Y-66.3736
G1X56.3522Y-62.4598
G1X64.0654Y-62.7132
G1X74.1998Y-63.3234
G1X78.7711Y-63.8734
G1X81.8595Y-65.6580
G1X75.4149Y-66.6723
G1X67.0271Y-67.4791
G1X62.2597Y-67.7361
G1X49.2604Y-67.9442
G1X34.9861Y-67.7459
G1X55.2426Y-63.7737
G1X63.0285Y-64.0061
G1X73.4098Y-64.5884
G1X78.2010Y-65.1259
G1X82.1151Y-66.9012
G1X76.1210Y-67.9324
G1X67.9766Y-68.7619
G1X63.2849Y-69.0317
G1X50.3424Y-69.2744
G1X35.8780Y-69.1140
G1X54.1684Y-65.0909
G1X62.0149Y-65.3026
G1X72.6214Y-65.8575
G1X77.6188Y-66.3824
G1X82.3242Y-68.1466
G1X76.7717Y-69.1931
G1X68.8715Y-70.0438
G1X64.2583Y-70.3257
G1X51.3861Y-70.6015
G1X36.7561Y-70.4782
G1X53.1329Y-66.4109
G1X61.0282Y-66.6028
G1X71.8390Y-67.1306
G1X77.0290Y-67.6428
G1X82.4908Y-69.3945
G1X77.3703Y-70.4546
G1X69.7158Y-71.3251
G1X65.1838Y-71.6183
G1X52.3943Y-71.9260
G1X37.6210Y-71.8388
G1X52.1327Y-67.7336
G1X60.0665Y-67.9061
G1X71.0626Y-68.4074
G1X76.4330Y-68.9069
G1X82.6190Y-70.6446
G1X77.9211Y-71.7168
G1X73.1251Y-72.3433
G1X70.5116Y-72.6059
G1X66.0627Y-72.9099
G1X53.3663Y-73.2481
G1X38.4699Y-73.1960
G1X51.1697Y-69.0585
G1X59.1325Y-69.2123
G1X70.2960Y-69.6877
G1X75.8349Y-70.1745
G1X82.7122Y-71.8972
G1X78.4258Y-72.9800
G1X73.8066Y-73.6178
G1X71.2596Y-73.8865
G1X66.8949Y-74.2008
G1X54.3002Y-74.5680
G1X39.2995Y-74.5500
G1X50.2452Y-70.3856
G1X58.2286Y-70.5213
G1X69.5426Y-70.9714
G1X75.2384Y-71.4457
G1X82.7736Y-73.1524
G1X78.8867Y-74.2445
G1X74.4417Y-74.8928
G1X71.9608Y-75.1671
G1X67.6809Y-75.4911
G1X55.1952Y-75.8860
G1X40.1075Y-75.9009
G1X49.3598Y-71.7144
G1X57.3560Y-71.8327
G1X68.8049Y-72.2583
G1X74.6465Y-72.7203
G1X82.8066Y-74.4102
G1X79.3064Y-75.5105
G1X75.0325Y-76.1684
G1X72.6172Y-76.4481
G1X68.4223Y-76.7812
G1X56.0514Y-77.2024
G1X40.8925Y-77.2490
G1X48.5134Y-73.0448
G1X56.5154Y-73.1465
G1X68.0843Y-73.5481
G1X74.0613Y-73.9980
G1X82.8144Y-75.6706
G1X79.6880Y-76.7779
G1X75.5816Y-77.4448
G1X73.2312Y-77.7294
G1X69.1212Y-78.0711
G1X56.8699Y-78.5173
G1X41.6541Y-78.5945
G1X47.7045Y-74.3766
G1X55.7062Y-74.4623
G1X67.3818Y-74.8408
G1X73.4842Y-75.2788
G1X82.7998Y-76.9336
G1X80.0344Y-78.0469
G1X76.0921Y-78.7220
G1X73.8058Y-79.0113
G1X69.7801Y-79.3611
G1X57.6523Y-79.8311
G1X42.3925Y-79.9377
G1X46.9313Y-75.7095
G1X54.9271Y-75.7798
G1X66.6973Y-76.1359
G1X72.9160Y-76.5623
G1X82.7657Y-78.1990
G1X80.3489Y-79.3174
G1X76.5671Y-80.0001
G1X74.3440Y-80.2938
G1X70.4022Y-80.6511
G1X58.4011Y-81.1437
G1X43.1091Y-81.2787
G1X46.1912Y-77.0435
G1X54.1761Y-77.0990
G1X66.0297Y-77.4334
G1X72.3565Y-77.8483
G1X82.7141Y-79.4667
G1X80.6345Y-80.5893
G1X77.0099Y-81.2790
G1X74.8493Y-81.5768
G1X70.9909Y-81.9412
G1X59.1193Y-82.4554
G1X43.8057Y-82.6179
G1X45.4811Y-78.3783
G1X53.4506Y-78.4196
G1X65.3776Y-78.7329
G1X71.8048Y-79.1366
G1X82.6468Y-80.7364
G1X80.8943Y-81.8625
G1X77.4241Y-82.5586
G1X75.3252Y-82.8602
G1X71.5499Y-83.2315
G1X59.8104Y-83.7662
G1X44.4848Y-83.9553
G1X44.7973Y-79.7140
G1X52.7473Y-79.7415
G1X64.7387Y-80.0343
G1X71.2597Y-80.4269
G1X82.5654Y-82.0078
G1X81.1311Y-83.1367
G1X77.8128Y-83.8388
G1X75.7753Y-84.1441
G1X72.0829Y-84.5217
G1X60.4782Y-85.0762
G1X45.1496Y-85.2912
G1X44.1360Y-81.0504
G1X52.0626Y-81.0646
G1X64.1102Y-81.3372
G1X70.7189Y-81.7189
G1X82.4706Y-83.2806
G1X81.3474Y-84.4118
G1X78.1794Y-85.1194
G1X76.2031Y-85.4281
G1X72.5937Y-85.8118
G1X61.1269Y-86.3855
G1X45.8035Y-86.6257
G1X43.4929Y-82.3877
G1X51.3924Y-82.3888
G1X63.4889Y-82.6416
G1X70.1799Y-83.0125
G1X82.3630Y-84.5546
G1X81.5454Y-85.6874
G1X78.5269Y-86.4002
G1X76.6117Y-86.7121
G1X73.0861Y-87.1016
G1X61.7606Y-87.6939
G1X46.4504Y-87.9590
G1X42.8640Y-83.7257
G1X50.7325Y-83.7141
G1X62.8711Y-83.9473
G1X69.6400Y-84.3073
G1X82.2425Y-85.8294
G1X81.7271Y-86.9634
G1X78.8580Y-87.6810
G1X77.0045Y-87.9959
G1X73.5635Y-88.3911
G1X62.3836Y-89.0014
G1X47.0944Y-89.2912
G1X42.2448Y-85.0646
G1X50.0787Y-85.0404
G1X62.2529Y-85.2541
G1X69.0956Y-85.6031
G1X82.1090Y-87.1048
G1X81.8941Y-88.2393
G1X79.1753Y-88.9614
G1X77.3842Y-89.2792
G1X74.0294Y-89.6799
G1X63.0000Y-90.3080
G1X47.7396Y-90.6222
G1X41.6314Y-86.4045
G1X49.4267Y-86.3678
G1X61.6305Y-86.5619
G1X68.5434Y-86.8999
G1X81.9614Y-88.3803
G1X82.0476Y-89.5149
G1X79.4807Y-90.2412
G1X77.7533Y-90.5619
G1X74.4867Y-90.9678
G1X63.6139Y-91.6136
G1X48.3902Y-91.9523
G1X41.0198Y-87.7455
G1X48.7723Y-87.6962
G1X60.9998Y-87.8706
G1X67.9799Y-88.1974
G1X81.7989Y-89.6557
G1X82.1883Y-90.7899
G1X79.7762Y-91.5202
G1X78.1138Y-91.8435
G1X74.9381Y-92.2547
G1X64.2289Y-92.9180
G1X49.0502Y-93.2815
G1X40.4065Y-89.0877
G1X48.1116Y-89.0258
G1X60.3569Y-89.1802
G1X67.4013Y-89.4954
G1X81.6199Y-90.9308
G1X82.3166Y-92.0640
G1X80.0627Y-92.7980
G1X78.4675Y-93.1239
G1X75.3857Y-93.5402
G1X64.8484Y-94.2210
G1X49.7234Y-94.6096
G1X39.7882Y-90.4313
G1X47.4410Y-90.3566
G1X59.6980Y-90.4906
G1X66.8043Y-90.7940
G1X81.4228Y-92.2052
G1X82.4325Y-93.3369
G1X80.3413Y-94.0743
G1X78.8154Y-94.4029
G1X75.8313Y-94.8242
G1X65.4751Y-95.5225
G1X50.4133Y-95.9366
G1X39.1623Y-91.7764
G1X46.7574Y-91.6888
G1X59.0198Y-91.8018
G1X66.1853Y-92.0930
G1X81.2057Y-93.4788
G1X82.5354Y-94.6084
G1X80.6121Y-95.3491
G1X79.1583Y-95.6801
G1X76.2760Y-96.1063
G1X66.1113Y-96.8224
G1X51.1230Y-97.2626
G1X38.5266Y-93.1231
G1X46.0581Y-93.0224
G1X58.3191Y-93.1140
G1X65.5415Y-93.3925
G1X80.9665Y-94.7514
G1X82.6245Y-95.8783
G1X80.8750Y-96.6219
G1X79.4961Y-96.9553
G1X76.7204Y-97.3865
G1X66.7587Y-98.1205
G1X51.8549Y-98.5874
G1X37.8797Y-94.4718
G1X45.3411Y-94.3576
G1X57.5934Y-94.4271
G1X64.8700Y-94.6924
G1X80.7030Y-96.0228
G1X82.6986Y-97.1463
G1X81.1293Y-97.8927
G1X79.8285Y-98.2285
G1X77.1644Y-98.6646
G1X67.4183Y-99.4166
G1X52.6110Y-99.9108
G1X37.2207Y-95.8225
G1X44.6051Y-95.6946
G1X56.8408Y-95.7412
G1X64.1687Y-95.9929
G1X80.4132Y-97.2931
G1X82.7560Y-98.4124
G1X81.3738Y-99.1613
G1X80.1545Y-99.4993
G1X77.6073Y-99.9402
G1X68.0904Y-100.7104
G1X53.3925Y-101.2328
G1X36.5495Y-97.1755
G1X43.8495Y-97.0334
G1X56.0598Y-97.0565
G1X63.4358Y-97.2940
G1X80.0948Y-98.5623
G1X82.7950Y-99.6764
G1X81.6069Y-100.4276
G1X80.4726Y-100.7677
G1X78.0481Y-101.2134
G1X68.7746Y-102.0020
G1X54.1999Y-102.5532
G1X35.8668Y-98.5308
G1X43.0744Y-98.3744
G1X55.2498Y-98.3732
G1X62.6703Y-98.5958
G1X79.7458Y-99.8302
G1X82.8135Y-100.9384
G1X81.8266Y-101.6915
G1X80.7810Y-102.0337
G1X78.4848Y-102.4840
G1X69.4696Y-103.2911
G1X55.0331Y-103.8718
G1X35.1738Y-99.8886
G1X42.2805Y-99.7175
G1X54.4106Y-99.6913
G1X61.8714Y-99.8985
G1X79.3641Y-101.0971
G1X82.8092Y-102.1984
G1X82.3252Y-102.7456
G1X82.0311Y-102.9529
G1X81.0779Y-103.2970
G1X78.9164Y-103.7519
G1X70.1761Y-104.5775
G1X55.8948Y-105.1885
G1X34.4690Y-101.2492
G1X41.4651Y-101.0632
G1X53.5381Y-101.0111
G1X61.0342Y-101.2023
G1X78.9456Y-102.3626
G1X82.7796Y-103.4559
G1X82.4707Y-104.0038
G1X82.2187Y-104.2115
G1X81.3622Y-104.5574
G1X79.3423Y-105.0166
G1X70.8946Y-105.8610
G1X56.7864Y-106.5030
G1X33.7533Y-102.6127
G1X40.6287Y-102.4115
G1X52.6321Y-102.3328
G1X60.1585Y-102.5072
G1X78.4882Y-103.6271
G1X82.7219Y-104.7112
G1X82.5946Y-105.2594
G1X82.3863Y-105.4674
G1X81.6305Y-105.8150
G1X79.7589Y-106.2784
G1X71.6217Y-107.1414
G1X57.7051Y-107.8152
G1X33.0303Y-103.9794
G1X39.7748Y-103.7627
G1X51.6952Y-103.6566
G1X59.2461Y-103.8136
G1X77.9908Y-104.8906
G1X82.6334Y-105.9643
G1X82.6938Y-106.5125
G1X82.5305Y-106.7208
G1X81.8792Y-107.0698
G1X80.1623Y-107.5373
G1X72.3531Y-108.4188
G1X58.6472Y-109.1248
G1X32.3044Y-105.3490
G1X38.9076Y-105.1167
G1X50.7308Y-104.9826
G1X58.2996Y-105.1217
G1X77.4530Y-106.1537
G1X82.5119Y-107.2157
G1X82.7650Y-107.7633
G1X82.6482Y-107.9718
G1X82.1049Y-108.3221
G1X80.5485Y-108.7934
G1X73.0843Y-109.6931
G1X59.6083Y-110.4317
G1X31.5804Y-106.7217
G1X38.0318Y-106.4736
G1X49.7434Y-106.3110
G1X57.3228Y-106.4318
G1X76.8752Y-107.4166
G1X82.3553Y-108.4656
G1X82.8057Y-109.0123
G1X82.7364Y-109.2209
G1X82.3041Y-109.5723
G1X80.9134Y-110.0470
G1X73.8100Y-110.9646
G1X60.5832Y-111.7360
G1X30.8633Y-108.0973
G1X37.1530Y-107.8335
G1X48.7378Y-107.6421
G1X56.3201Y-107.7440
G1X76.2584Y-108.6797
G1X82.1623Y-109.7145
G1X82.8134Y-110.2597
G1X82.7925Y-110.4683
G1X82.4736Y-110.8205
G1X81.2533Y-111.2984
G1X74.5251Y-112.2332
G1X61.5664Y-113.0374
G1X30.1583Y-109.4755
G1X36.2767Y-109.1962
G1X47.7199Y-108.9758
G1X55.2968Y-109.0586
G1X75.6045Y-109.9435
G1X81.9322Y-110.9628
G1X82.7862Y-111.5060
G1X82.8144Y-111.7145
G1X82.6109Y-112.0673
G1X81.5646Y-112.5481
G1X75.2244Y-113.4994
G1X62.5515Y-114.3360
G1X29.4708Y-110.8563
G1X35.4089Y-110.5616
G1X46.6957Y-110.3123
G1X54.2587Y-110.3758
G1X74.9164Y-111.2084
G1X81.6651Y-112.2109
G1X82.7231Y-112.7516
G1X82.8008Y-112.9600
G1X82.7139Y-113.3131
G1X81.8442Y-113.7963
G1X75.9026Y-114.7633
G1X63.5322Y-115.6320
G1X28.8057Y-112.2391
G1 Z0F20000

G00 X0.0000 Y0.0000

