$H
G21
G17
G90
G1 Z0F20000
G1 F15000

(Start Layer)

(Start Block)


G1X52.5437Y-73.9329
G1Z6F20000
(Plotting speed under)
G1 F4000


G1X52.6218Y-73.8883

G1X52.2184Y-74.2434

G1X51.9021Y-74.4095

G1X52.1758Y-74.0731

G1X52.7183Y-73.6211

G1X53.3162Y-73.2376

G1X53.6732Y-73.1256

G1X51.5496Y-74.9146

G1X51.0184Y-75.2732

G1X50.7078Y-75.3445

G1X50.7771Y-75.1149

G1X51.2283Y-74.5781

G1X52.6656Y-73.3696

G1X53.9203Y-72.6339

G1X54.5033Y-72.4226

G1X54.7771Y-72.4168

G1X54.6841Y-72.5881

G1X52.9232Y-73.8352

G1X50.5090Y-75.8538

G1X49.8255Y-76.2772

G1X49.4574Y-76.3048

G1X49.4510Y-76.0826

G1X49.5895Y-75.8001

G1X50.2374Y-75.0022

G1X51.2682Y-74.0580

G1X52.4939Y-73.1261

G1X53.5290Y-72.4926

G1X54.4540Y-72.0725

G1X55.3392Y-71.8220

G1X55.8882Y-71.8526

G1X55.8571Y-72.0041

G1X55.6644Y-72.1575

G1X53.9617Y-73.0879

G1X52.8651Y-73.8354

G1X49.4230Y-76.8308

G1X48.6506Y-77.2698

G1X48.3237Y-77.3330

G1X48.1805Y-77.2846

G1X48.1075Y-76.9727

G1X48.2330Y-76.6202

G1X49.0644Y-75.4824

G1X50.4488Y-74.1896

G1X52.2699Y-72.8409

G1X53.6586Y-72.0378

G1X54.9744Y-71.5221

G1X56.2532Y-71.2791

G1X56.7744Y-71.3043

G1X56.9952Y-71.4031

G1X56.9801Y-71.6161

G1X56.7321Y-71.8005

G1X54.3432Y-72.8284

G1X52.8638Y-73.7299

G1X51.9990Y-74.4572

G1X49.4654Y-76.9131

G1X48.2979Y-77.8413

G1X47.4296Y-78.2760

G1X47.0002Y-78.3115

G1X46.8132Y-78.2114

G1X46.7109Y-77.8785

G1X46.8923Y-77.2444

G1X47.3444Y-76.4976

G1X48.0251Y-75.6770

G1X49.8056Y-74.0607

G1X52.2681Y-72.3366

G1X54.0499Y-71.4299

G1X55.7259Y-70.9318

G1X56.6119Y-70.8176

G1X57.4209Y-70.8307

G1X57.9047Y-70.9401

G1X58.1693Y-71.1857

G1X58.0649Y-71.4134

G1X57.6951Y-71.6289

G1X54.9389Y-72.5209

G1X53.1936Y-73.3726

G1X51.9558Y-74.3167

G1X49.0022Y-77.3625

G1X47.6441Y-78.5394

G1X46.8673Y-79.0260

G1X46.2664Y-79.2622

G1X45.7219Y-79.2952

G1X45.3900Y-79.0929

G1X45.2767Y-78.5997

G1X45.5126Y-77.7743

G1X46.0772Y-76.8227

G1X46.8522Y-75.8777

G1X47.8422Y-74.9057

G1X49.0297Y-73.9251

G1X51.9454Y-71.9650

G1X53.0397Y-71.3758

G1X54.0123Y-70.9638

G1X55.0547Y-70.6394

G1X56.1278Y-70.4324

G1X57.2498Y-70.3593

G1X58.1992Y-70.4323

G1X59.0060Y-70.6705

G1X59.3076Y-70.9585

G1X59.2422Y-71.2507

G1X58.8430Y-71.5027

G1X55.1181Y-72.4386

G1X53.9647Y-72.8683

G1X53.0350Y-73.3410

G1X52.2463Y-73.8706

G1X51.5126Y-74.5113

G1X48.3462Y-78.0037

G1X46.7551Y-79.4191

G1X45.9010Y-79.9490

G1X45.0446Y-80.2601

G1X44.3733Y-80.2557

G1X43.9705Y-79.9909

G1X43.8380Y-79.7151

G1X43.7997Y-79.3277

G1X44.0631Y-78.3014

G1X44.6832Y-77.1924

G1X45.6455Y-75.9863

G1X46.8169Y-74.8379

G1X48.2161Y-73.7071

G1X49.8450Y-72.5893

G1X51.6709Y-71.4947

G1X52.8808Y-70.8736

G1X54.0523Y-70.4201

G1X55.2811Y-70.0987

G1X56.4542Y-69.9367

G1X57.7683Y-69.9234

G1X59.0022Y-70.0902

G1X59.9508Y-70.4064

G1X60.4346Y-70.8021

G1X60.4827Y-71.0482

G1X60.3571Y-71.2884

G1X59.8730Y-71.5424

G1X55.3085Y-72.4013

G1X53.9570Y-72.8297

G1X52.7772Y-73.3771

G1X51.9641Y-73.9025

G1X51.1571Y-74.6018

G1X47.7262Y-78.6314

G1X46.8071Y-79.5519

G1X45.9248Y-80.2777

G1X44.8372Y-80.9314

G1X43.8607Y-81.2461

G1X43.0638Y-81.2153

G1X42.7825Y-81.0907

G1X42.4989Y-80.8207

G1X42.3339Y-80.4304

G1X42.2968Y-79.9665

G1X42.3708Y-79.4408

G1X42.5839Y-78.7723

G1X43.3341Y-77.3820

G1X44.4706Y-75.9440

G1X45.8521Y-74.6033

G1X47.4636Y-73.3395

G1X49.3516Y-72.1050

G1X51.6443Y-70.8163

G1X53.0753Y-70.1707

G1X54.3589Y-69.7624

G1X55.6792Y-69.5134

G1X57.1311Y-69.4310

G1X58.7229Y-69.5649

G1X60.1524Y-69.9080

G1X61.2148Y-70.4061

G1X61.4720Y-70.6259

G1X61.6405Y-70.9028

G1X61.5882Y-71.3080

G1X61.4211Y-71.4741

G1X61.0222Y-71.6517

G1X55.5520Y-72.4183

G1X53.8126Y-72.8888

G1X52.4908Y-73.4540

G1X51.5117Y-74.0735

G1X50.7412Y-74.7620

G1X49.9350Y-75.6869

G1X47.1855Y-79.1994

G1X46.1664Y-80.2674

G1X45.0988Y-81.1586

G1X43.7920Y-81.9145

G1X42.6549Y-82.2316

G1X42.1176Y-82.2362

G1X41.6946Y-82.1419

G1X41.3269Y-81.9480

G1X41.0414Y-81.6586

G1X40.8263Y-81.1557

G1X40.7766Y-80.6160

G1X40.8558Y-79.9713

G1X41.0948Y-79.1759

G1X41.9300Y-77.5620

G1X43.2017Y-75.9053

G1X44.7377Y-74.3951

G1X46.5123Y-73.0122

G1X48.6620Y-71.6497

G1X51.2184Y-70.2833

G1X52.8507Y-69.5830

G1X54.3283Y-69.1610

G1X55.9309Y-68.9384

G1X57.4616Y-68.9403

G1X59.3086Y-69.2055

G1X61.0061Y-69.7105

G1X62.2486Y-70.3464

G1X62.5877Y-70.6383

G1X62.8172Y-71.0075

G1X62.8218Y-71.3787

G1X62.6927Y-71.5948

G1X62.0909Y-71.8860

G1X61.1557Y-72.0225

G1X57.6764Y-72.2660

G1X55.7049Y-72.5264

G1X53.7646Y-72.9744

G1X52.1924Y-73.5829

G1X51.0716Y-74.2646

G1X50.1983Y-75.0644

G1X46.5093Y-79.9617

G1X45.3842Y-81.1540

G1X44.2359Y-82.0946

G1X43.5099Y-82.5484

G1X42.7459Y-82.9081

G1X42.0395Y-83.1255

G1X41.4268Y-83.2132

G1X40.8176Y-83.1857

G1X40.2713Y-83.0254

G1X39.8245Y-82.7374

G1X39.5509Y-82.4148

G1X39.3264Y-81.8959

G1X39.2530Y-81.2660

G1X39.3269Y-80.5158

G1X39.5866Y-79.5775

G1X40.0001Y-78.6156

G1X40.5472Y-77.6433

G1X41.9551Y-75.7606

G1X43.6038Y-74.1102

G1X45.6203Y-72.5437

G1X47.8145Y-71.1897

G1X50.6746Y-69.7396

G1X52.5069Y-68.9725

G1X54.1733Y-68.5351

G1X55.9588Y-68.3511

G1X57.6654Y-68.4322

G1X59.8562Y-68.8657

G1X61.9079Y-69.5936

G1X62.7433Y-70.0125

G1X63.4320Y-70.4745

G1X63.8193Y-70.8658

G1X64.0173Y-71.2651

G1X64.0246Y-71.5895

G1X63.8821Y-71.8842

G1X63.6489Y-72.0528

G1X63.2492Y-72.1883

G1X62.2946Y-72.3036

G1X58.0894Y-72.4716

G1X55.9568Y-72.6931

G1X53.7215Y-73.1353

G1X51.8324Y-73.8014

G1X50.7464Y-74.4225

G1X49.7957Y-75.2477

G1X48.9247Y-76.3581

G1X46.8790Y-79.4083

G1X45.8818Y-80.7226

G1X44.7036Y-81.9886

G1X43.4258Y-83.0243

G1X42.6181Y-83.5109

G1X41.8713Y-83.8494

G1X41.0984Y-84.0828

G1X40.3442Y-84.1841

G1X39.6009Y-84.1371

G1X39.0027Y-83.9551

G1X38.5277Y-83.6679

G1X38.1095Y-83.2111

G1X37.8218Y-82.5590

G1X37.7364Y-81.8111

G1X37.8296Y-80.9014

G1X38.1305Y-79.8175

G1X38.6165Y-78.6795

G1X39.2530Y-77.5402

G1X40.0495Y-76.3780

G1X40.9650Y-75.2579

G1X42.8764Y-73.3875

G1X45.0187Y-71.7873

G1X47.5126Y-70.3455

G1X50.8966Y-68.7795

G1X52.6465Y-68.1550

G1X54.4387Y-67.7981

G1X56.3098Y-67.7396

G1X58.2971Y-67.9898

G1X60.6606Y-68.6402

G1X63.0430Y-69.6588

G1X63.9185Y-70.1637

G1X64.5711Y-70.6487

G1X64.9864Y-71.0946

G1X65.2183Y-71.6107

G1X65.2017Y-72.0229

G1X65.0585Y-72.2688

G1X64.7981Y-72.4534

G1X64.3237Y-72.5886

G1X63.2591Y-72.6736

G1X58.8605Y-72.7306

G1X56.3076Y-72.9286

G1X53.6145Y-73.3908

G1X51.4852Y-74.0812

G1X50.2511Y-74.7622

G1X49.3384Y-75.5628

G1X48.5141Y-76.6192

G1X46.4710Y-79.8708

G1X45.3723Y-81.3971

G1X44.0403Y-82.8529

G1X42.6183Y-83.9845

G1X41.7416Y-84.4907

G1X40.8533Y-84.8617

G1X39.9301Y-85.0952

G1X39.1018Y-85.1590

G1X38.2818Y-85.0569

G1X37.6173Y-84.8098

G1X37.1055Y-84.4629

G1X36.6388Y-83.9230

G1X36.3327Y-83.1868

G1X36.2348Y-82.2732

G1X36.3507Y-81.2458

G1X36.6730Y-80.0770

G1X37.2172Y-78.7711

G1X37.9438Y-77.4398

G1X38.8464Y-76.0948

G1X39.8155Y-74.8819

G1X40.8124Y-73.8119

G1X41.8884Y-72.8135

G1X43.0338Y-71.8971

G1X44.2043Y-71.0868

G1X46.8482Y-69.6095

G1X50.3493Y-68.0838

G1X52.4727Y-67.3845

G1X54.2685Y-67.0798

G1X56.3027Y-67.0936

G1X58.4400Y-67.4628

G1X59.7088Y-67.8259

G1X61.2237Y-68.3796

G1X62.7453Y-69.0546

G1X64.1130Y-69.7743

G1X65.0619Y-70.3757

G1X65.7683Y-70.9500

G1X66.2148Y-71.4924

G1X66.4188Y-72.0539

G1X66.3922Y-72.4486

G1X66.2400Y-72.7316

G1X65.8896Y-72.9498

G1X65.4372Y-73.0566

G1X64.3057Y-73.1139

G1X59.6930Y-73.0687

G1X56.8169Y-73.2301

G1X53.6325Y-73.6984

G1X52.3226Y-74.0288

G1X51.2546Y-74.3943

G1X49.7834Y-75.1567

G1X48.7227Y-76.1120

G1X48.1039Y-76.9414

G1X46.1032Y-80.3246

G1X44.9197Y-82.0579

G1X43.4340Y-83.7150

G1X41.8683Y-84.9429

G1X40.8591Y-85.4987

G1X39.8757Y-85.8756

G1X38.8629Y-86.0936

G1X37.9417Y-86.1292

G1X37.0866Y-85.9942

G1X36.3809Y-85.7191

G1X35.6858Y-85.2224

G1X35.2129Y-84.6411

G1X34.8706Y-83.8128

G1X34.7556Y-82.8180

G1X34.8695Y-81.6981

G1X35.2105Y-80.3985

G1X35.7804Y-78.9659

G1X36.5307Y-77.5187

G1X37.4633Y-76.0470

G1X38.5287Y-74.6346

G1X39.5604Y-73.4642

G1X40.6675Y-72.3789

G1X41.8397Y-71.3918

G1X43.0708Y-70.5051

G1X44.3585Y-69.7137

G1X45.7925Y-68.9666

G1X49.1987Y-67.5426

G1X51.9065Y-66.6468

G1X53.6880Y-66.3346

G1X55.7809Y-66.3473

G1X56.9685Y-66.5170

G1X58.1632Y-66.7978

G1X59.6555Y-67.2725

G1X61.3688Y-67.9639

G1X63.1785Y-68.8326

G1X64.9566Y-69.8250

G1X66.0711Y-70.5627

G1X66.9225Y-71.2846

G1X67.3885Y-71.8804

G1X67.6124Y-72.5610

G1X67.5734Y-72.9938

G1X67.4317Y-73.2502

G1X67.1904Y-73.4261

G1X66.6969Y-73.5686

G1X65.6440Y-73.6213

G1X60.7017Y-73.4809

G1X57.2217Y-73.6193

G1X53.6923Y-74.0837

G1X52.1840Y-74.4302

G1X50.9210Y-74.8374

G1X49.4484Y-75.5541

G1X48.7895Y-76.0401

G1X48.2885Y-76.5308

G1X47.3296Y-77.9462

G1X45.3463Y-81.4912

G1X44.3448Y-82.9508

G1X43.6319Y-83.8158

G1X42.7772Y-84.6815

G1X41.1514Y-85.9201

G1X40.0596Y-86.4959

G1X39.0092Y-86.8754

G1X37.9047Y-87.0892

G1X36.8776Y-87.1056

G1X35.9591Y-86.9432

G1X35.0802Y-86.5759

G1X34.3478Y-86.0219

G1X33.8381Y-85.3779

G1X33.4414Y-84.4627

G1X33.3071Y-83.4702

G1X33.4032Y-82.2146

G1X33.7105Y-80.9217

G1X34.2332Y-79.4717

G1X35.0309Y-77.7967

G1X36.0346Y-76.0920

G1X37.1409Y-74.5140

G1X38.2495Y-73.1602

G1X39.3843Y-71.9638

G1X40.5796Y-70.8819

G1X41.8632Y-69.8961

G1X43.1368Y-69.0719

G1X44.5484Y-68.3105

G1X46.0178Y-67.6463

G1X47.9072Y-66.9281

G1X51.2299Y-65.8603

G1X53.1716Y-65.5201

G1X54.2935Y-65.4741

G1X55.3219Y-65.5412

G1X56.5225Y-65.7282

G1X57.7842Y-66.0496

G1X59.4300Y-66.6197

G1X61.3870Y-67.4813

G1X63.7019Y-68.6858

G1X65.8728Y-69.9741

G1X67.2284Y-70.9199

G1X68.0841Y-71.6900

G1X68.5833Y-72.3813

G1X68.7973Y-73.1056

G1X68.7685Y-73.5255

G1X68.5684Y-73.8777

G1X68.2259Y-74.0754

G1X67.8028Y-74.1604

G1X66.8743Y-74.1909

G1X61.4840Y-73.9636

G1X57.6766Y-74.0759

G1X55.6353Y-74.2710

G1X53.7328Y-74.5562

G1X52.0594Y-74.9156

G1X50.5882Y-75.3629

G1X49.0098Y-76.1066

G1X48.4250Y-76.5173

G1X47.9069Y-77.0226

G1X47.0748Y-78.1926

G1X45.0858Y-81.9524

G1X43.8899Y-83.7724

G1X43.1046Y-84.7242

G1X42.2327Y-85.6042

G1X41.3698Y-86.3148

G1X40.4518Y-86.9283

G1X39.2707Y-87.5200

G1X38.1084Y-87.9062

G1X36.9659Y-88.0975

G1X35.8166Y-88.0870

G1X34.8175Y-87.8832

G1X33.8798Y-87.4712

G1X33.0528Y-86.8279

G1X32.4785Y-86.0870

G1X32.0565Y-85.1384

G1X31.8904Y-83.9459

G1X31.9743Y-82.7003

G1X32.3203Y-81.1902

G1X32.9000Y-79.5551

G1X33.7227Y-77.7756

G1X34.7831Y-75.8985

G1X35.9333Y-74.1725

G1X37.0565Y-72.7170

G1X38.2604Y-71.3652

G1X39.5615Y-70.1176

G1X40.8386Y-69.0868

G1X42.2029Y-68.1701

G1X43.5681Y-67.4204

G1X44.9815Y-66.7828

G1X46.8189Y-66.1109

G1X50.5812Y-65.0004

G1X52.9157Y-64.6147

G1X53.9219Y-64.5910

G1X55.1156Y-64.7008

G1X56.3030Y-64.9242

G1X57.5794Y-65.2962

G1X59.5659Y-66.0804

G1X61.8977Y-67.2429

G1X64.6681Y-68.8360

G1X67.1536Y-70.4256

G1X68.5006Y-71.4378

G1X69.3298Y-72.2576

G1X69.8138Y-73.0390

G1X69.9750Y-73.8209

G1X69.9124Y-74.2441

G1X69.7680Y-74.4960

G1X69.4351Y-74.7026

G1X68.9900Y-74.8006

G1X67.7390Y-74.8052

G1X62.3873Y-74.5059

G1X58.5221Y-74.5761

G1X56.1937Y-74.7682

G1X54.0793Y-75.0542

G1X52.2053Y-75.4218

G1X50.5540Y-75.8755

G1X48.7129Y-76.6693

G1X48.0551Y-77.1190

G1X47.4691Y-77.6758

G1X46.8070Y-78.5725

G1X44.7220Y-82.6915

G1X43.4347Y-84.6834

G1X42.5669Y-85.7213

G1X41.7534Y-86.5303

G1X40.7866Y-87.3136

G1X39.7457Y-87.9811

G1X38.5139Y-88.5640

G1X37.2155Y-88.9561

G1X35.9959Y-89.1221

G1X34.7638Y-89.0741

G1X33.5856Y-88.7863

G1X32.5985Y-88.2985

G1X31.7986Y-87.6431

G1X31.1376Y-86.7698

G1X30.7036Y-85.7459

G1X30.5064Y-84.4507

G1X30.5861Y-83.1477

G1X30.9427Y-81.5221

G1X31.5510Y-79.7527

G1X32.4134Y-77.8129

G1X33.5278Y-75.7461

G1X34.7380Y-73.8282

G1X35.9612Y-72.1466

G1X37.2117Y-70.6557

G1X38.5462Y-69.2930

G1X39.8636Y-68.1650

G1X41.1850Y-67.2268

G1X42.6197Y-66.4069

G1X44.0989Y-65.7388

G1X45.8255Y-65.1314

G1X49.4725Y-64.1782

G1X51.4734Y-63.7776

G1X52.5682Y-63.6427

G1X53.7991Y-63.6594

G1X55.0976Y-63.8325

G1X56.2112Y-64.1000

G1X57.4911Y-64.5295

G1X59.6731Y-65.5085

G1X62.0254Y-66.8081

G1X65.6303Y-69.0520

G1X68.5007Y-70.9929

G1X69.7629Y-72.0083

G1X70.5382Y-72.8444

G1X70.9887Y-73.6675

G1X71.1386Y-74.5849

G1X71.0706Y-74.9501

G1X70.9163Y-75.1956

G1X70.6681Y-75.3642

G1X70.1962Y-75.4817

G1X69.1220Y-75.4919

G1X63.4107Y-75.1069

G1X59.1565Y-75.1552

G1X56.6942Y-75.3433

G1X54.3493Y-75.6432

G1X52.1430Y-76.0583

G1X50.4016Y-76.5225

G1X49.3038Y-76.9138

G1X48.4028Y-77.3488

G1X47.6145Y-77.8746

G1X47.0281Y-78.4259

G1X46.6039Y-79.0180

G1X46.0469Y-80.0340

G1X44.4188Y-83.4374

G1X43.1670Y-85.4344

G1X42.2107Y-86.6016

G1X41.2783Y-87.5192

G1X40.2514Y-88.3347

G1X39.1258Y-89.0296

G1X37.8276Y-89.6154

G1X36.4339Y-90.0062

G1X35.0212Y-90.1590

G1X33.7249Y-90.0676

G1X32.4933Y-89.7325

G1X31.4914Y-89.2200

G1X30.6300Y-88.5158

G1X29.8925Y-87.5497

G1X29.4055Y-86.4257

G1X29.1620Y-85.1084

G1X29.2197Y-83.7124

G1X29.5442Y-82.0590

G1X30.1585Y-80.1545

G1X31.0168Y-78.1041

G1X32.1593Y-75.8452

G1X33.4836Y-73.5997

G1X34.7847Y-71.6788

G1X36.0925Y-69.9979

G1X37.4585Y-68.4869

G1X38.8085Y-67.2335

G1X40.2402Y-66.1436

G1X41.6881Y-65.2728

G1X43.0905Y-64.6201

G1X44.8431Y-64.0112

G1X47.9236Y-63.2947

G1X50.9458Y-62.7304

G1X52.1649Y-62.6153

G1X53.4135Y-62.6510

G1X54.6259Y-62.8176

G1X55.7982Y-63.1224

G1X57.2207Y-63.6398

G1X59.4108Y-64.7129

G1X61.7739Y-66.1238

G1X66.9678Y-69.5793

G1X69.9380Y-71.6955

G1X71.1162Y-72.7323

G1X71.7621Y-73.5260

G1X72.1839Y-74.4351

G1X72.2848Y-75.3278

G1X72.1756Y-75.7692

G1X71.9787Y-76.0060

G1X71.6592Y-76.1524

G1X71.0864Y-76.2277

G1X65.7245Y-75.8263

G1X63.2762Y-75.7347

G1X60.1201Y-75.7781

G1X56.9800Y-76.0055

G1X54.5653Y-76.3126

G1X52.3167Y-76.7208

G1X50.3045Y-77.2328

G1X48.8874Y-77.7396

G1X47.4179Y-78.5442

G1X46.9613Y-78.9355

G1X46.5113Y-79.4772

G1X45.8762Y-80.5121

G1X44.5583Y-83.4407

G1X43.7462Y-84.9788

G1X42.8536Y-86.3459

G1X41.8215Y-87.6037

G1X40.7114Y-88.6583

G1X39.4848Y-89.5650

G1X38.1581Y-90.2947

G1X36.7426Y-90.8287

G1X35.4689Y-91.1125

G1X34.2572Y-91.2085

G1X33.0684Y-91.1303

G1X31.9412Y-90.8725

G1X30.8964Y-90.4351

G1X30.0135Y-89.8604

G1X29.2774Y-89.1575

G1X28.6891Y-88.3446

G1X28.1195Y-87.0580

G1X27.8677Y-85.8098

G1X27.8899Y-84.3259

G1X28.1680Y-82.6721

G1X28.7774Y-80.6387

G1X29.6649Y-78.3910

G1X30.8914Y-75.8290

G1X32.2677Y-73.3498

G1X33.6853Y-71.1087

G1X35.0687Y-69.2002

G1X36.4326Y-67.5719

G1X37.8919Y-66.1088

G1X39.3089Y-64.9525

G1X40.8312Y-63.9801

G1X42.3207Y-63.2733

G1X43.9409Y-62.7216

G1X45.9944Y-62.2673

G1X49.7646Y-61.6997

G1X51.9864Y-61.5356

G1X53.2010Y-61.5827

G1X54.2966Y-61.7590

G1X55.5658Y-62.1327

G1X56.8928Y-62.6597

G1X58.9783Y-63.7577

G1X61.2622Y-65.2140

G1X68.9516Y-70.6299

G1X71.0736Y-72.2122

G1X72.1863Y-73.2166

G1X72.9402Y-74.1897

G1X73.3317Y-75.1932

G1X73.4137Y-76.1747

G1X73.3059Y-76.5498

G1X73.1288Y-76.7596

G1X72.7614Y-76.9254

G1X72.2980Y-76.9895

G1X66.9122Y-76.5474

G1X64.1933Y-76.4293

G1X60.9481Y-76.4631

G1X57.6985Y-76.6849

G1X54.9815Y-77.0180

G1X52.5364Y-77.4505

G1X50.3228Y-77.9912

G1X48.5802Y-78.6036

G1X47.7749Y-78.9917

G1X47.1072Y-79.4330

G1X46.5852Y-79.9060

G1X46.0814Y-80.5176

G1X45.6783Y-81.2215

G1X44.4568Y-84.0379

G1X43.5971Y-85.7426

G1X42.6686Y-87.1949

G1X41.6411Y-88.4682

G1X40.4466Y-89.6145

G1X39.1171Y-90.5890

G1X37.6708Y-91.3673

G1X36.2015Y-91.9010

G1X34.8910Y-92.1820

G1X33.5335Y-92.2790

G1X32.3054Y-92.1890

G1X31.0945Y-91.9118

G1X30.0541Y-91.4879

G1X29.0848Y-90.8885

G1X28.2550Y-90.1346

G1X27.5671Y-89.2274

G1X26.9666Y-87.9706

G1X26.6386Y-86.5700

G1X26.5981Y-84.9955

G1X26.8377Y-83.2732

G1X27.4406Y-81.1138

G1X28.3113Y-78.7775

G1X29.5670Y-75.9927

G1X31.0347Y-73.1714

G1X32.5169Y-70.6472

G1X34.0396Y-68.3738

G1X35.4437Y-66.5594

G1X36.9555Y-64.9130

G1X38.4042Y-63.6359

G1X39.8768Y-62.6184

G1X41.4430Y-61.8287

G1X43.0709Y-61.2684

G1X44.6638Y-60.9316

G1X45.9375Y-60.7659

G1X49.2937Y-60.4839

G1X52.1979Y-60.3728

G1X53.1096Y-60.4546

G1X54.2121Y-60.6999

G1X55.4739Y-61.1269

G1X56.5673Y-61.6093

G1X58.4965Y-62.6927

G1X60.6921Y-64.1824

G1X72.3509Y-72.8670

G1X73.3951Y-73.8784

G1X74.0423Y-74.7882

G1X74.4740Y-75.9487

G1X74.5290Y-76.9968

G1X74.3945Y-77.3914

G1X74.1965Y-77.5921

G1X73.8737Y-77.7263

G1X73.3701Y-77.7785

G1X72.4700Y-77.7498

G1X68.4849Y-77.3462

G1X65.2361Y-77.1737

G1X61.7718Y-77.1989

G1X58.3798Y-77.4255

G1X55.5294Y-77.7675

G1X52.7411Y-78.2522

G1X50.5379Y-78.7766

G1X48.5268Y-79.4467

G1X47.0201Y-80.2572

G1X46.4941Y-80.6811

G1X46.0316Y-81.1926

G1X45.5241Y-82.0927

G1X44.3774Y-84.7419

G1X43.4273Y-86.6861

G1X42.3780Y-88.3119

G1X41.3382Y-89.5593

G1X40.0851Y-90.7321

G1X38.6868Y-91.7169

G1X37.2594Y-92.4575

G1X35.7060Y-93.0020

G1X34.3053Y-93.2843

G1X32.8673Y-93.3722

G1X31.5443Y-93.2624

G1X30.2555Y-92.9590

G1X29.1244Y-92.4923

G1X28.0859Y-91.8483

G1X27.1914Y-91.0389

G1X26.4491Y-90.0696

G1X25.7583Y-88.6133

G1X25.4196Y-87.1319

G1X25.3472Y-85.5219

G1X25.5803Y-83.7331

G1X26.2061Y-81.3791

G1X27.0525Y-79.0293

G1X28.3450Y-76.0168

G1X29.9612Y-72.7336

G1X31.5106Y-69.9228

G1X33.1184Y-67.3440

G1X34.5900Y-65.3042

G1X36.0866Y-63.5482

G1X37.5988Y-62.1185

G1X39.1360Y-60.9945

G1X40.7311Y-60.1637

G1X42.3404Y-59.6171

G1X43.8125Y-59.3293

G1X45.0045Y-59.2145

G1X51.7581Y-59.1072

G1X52.9786Y-59.2866

G1X54.1760Y-59.6033

G1X55.3176Y-60.0304

G1X56.3967Y-60.5688

G1X58.0518Y-61.5645

G1X60.0595Y-63.0102

G1X66.4612Y-68.1247

G1X72.3181Y-72.4775

G1X73.6532Y-73.5819

G1X74.6053Y-74.5811

G1X75.2496Y-75.6129

G1X75.5798Y-76.7319

G1X75.6174Y-77.9095

G1X75.5160Y-78.1867

G1X75.2617Y-78.4353

G1X74.8740Y-78.5605

G1X74.3685Y-78.6051

G1X69.0991Y-78.1137

G1X66.4415Y-77.9710

G1X63.0656Y-77.9691

G1X59.4584Y-78.1830

G1X56.3208Y-78.5424

G1X53.3832Y-79.0317

G1X50.6978Y-79.6510

G1X48.7068Y-80.2903

G1X47.0109Y-81.1303

G1X46.4763Y-81.5408

G1X46.0026Y-82.0684

G1X45.2345Y-83.3651

G1X44.0154Y-86.2741

G1X43.3212Y-87.6554

G1X42.2236Y-89.3649

G1X41.0343Y-90.7509

G1X39.7463Y-91.9077

G1X38.3024Y-92.8825

G1X36.8488Y-93.6015

G1X35.2202Y-94.1434

G1X33.7233Y-94.4188

G1X32.3096Y-94.4906

G1X30.8891Y-94.3677

G1X29.5228Y-94.0456

G1X28.2040Y-93.4994

G1X27.0977Y-92.8016

G1X26.1012Y-91.8909

G1X25.3597Y-90.9125

G1X24.6590Y-89.4814

G1X24.2293Y-87.7563

G1X24.1338Y-86.1007

G1X24.3721Y-84.1471

G1X24.9505Y-81.8108

G1X25.8738Y-79.1581

G1X27.2167Y-75.8907

G1X28.9729Y-72.1301

G1X30.5429Y-69.0995

G1X32.2160Y-66.2062

G1X33.8005Y-63.8467

G1X35.2772Y-61.9940

G1X36.8020Y-60.4486

G1X38.3276Y-59.2623

G1X40.0151Y-58.3380

G1X41.6528Y-57.7887

G1X43.1344Y-57.5253

G1X44.5656Y-57.4604

G1X51.0521Y-57.7737

G1X52.6450Y-58.0225

G1X53.9093Y-58.3514

G1X55.0220Y-58.8073

G1X56.2707Y-59.4884

G1X57.6239Y-60.3591

G1X59.3938Y-61.7053

G1X66.7085Y-67.9210

G1X69.1984Y-69.8658

G1X73.0799Y-72.7316

G1X74.6936Y-74.0599

G1X75.6736Y-75.1200

G1X76.2493Y-76.0604

G1X76.6829Y-77.5376

G1X76.7210Y-78.6873

G1X76.6239Y-78.9793

G1X76.4374Y-79.2098

G1X76.0633Y-79.3824

G1X75.6115Y-79.4361

G1X74.4279Y-79.3847

G1X69.9558Y-78.9285

G1X67.0030Y-78.7888

G1X63.5184Y-78.8151

G1X59.9566Y-79.0454

G1X56.5627Y-79.4509

G1X53.4633Y-79.9871

G1X50.6576Y-80.6470

G1X48.5481Y-81.3477

G1X47.6469Y-81.7490

G1X46.9126Y-82.1911

G1X46.2812Y-82.7238

G1X45.7075Y-83.4078

G1X45.3022Y-84.0914

G1X44.0038Y-87.2453

G1X43.2077Y-88.7997

G1X42.2103Y-90.3508

G1X40.9483Y-91.8224

G1X39.6578Y-92.9714

G1X38.1551Y-93.9811

G1X36.5991Y-94.7374

G1X34.9405Y-95.2785

G1X33.3488Y-95.5647

G1X31.7534Y-95.6344

G1X30.1405Y-95.4734

G1X28.6896Y-95.1051

G1X27.2974Y-94.5101

G1X26.1157Y-93.7469

G1X25.0608Y-92.7728

G1X24.2776Y-91.7278

G1X23.5169Y-90.1578

G1X23.2389Y-89.2149

G1X23.0545Y-88.2282

G1X22.9868Y-86.3918

G1X23.2591Y-84.2087

G1X23.8414Y-81.8689

G1X24.9886Y-78.5556

G1X26.3148Y-75.2753

G1X28.1360Y-71.1814

G1X29.9295Y-67.5238

G1X31.4652Y-64.7104

G1X33.0962Y-62.1107

G1X34.6358Y-60.0821

G1X36.1460Y-58.4820

G1X37.7613Y-57.2022

G1X39.4139Y-56.2952

G1X41.0749Y-55.7645

G1X42.6850Y-55.5368

G1X44.7296Y-55.5792

G1X52.2115Y-56.6330

G1X53.1003Y-56.8357

G1X54.0431Y-57.1855

G1X56.2741Y-58.4163

G1X57.5044Y-59.2979

G1X59.2303Y-60.7104

G1X64.7915Y-65.8209

G1X67.3216Y-68.0120

G1X69.7062Y-69.9136

G1X74.5564Y-73.5332

G1X75.9613Y-74.7671

G1X76.8206Y-75.7747

G1X77.4487Y-76.9947

G1X77.7649Y-78.2351

G1X77.7858Y-79.5686

G1X77.6537Y-79.9066

G1X77.4051Y-80.1301

G1X77.0666Y-80.2431

G1X76.4760Y-80.2938

G1X71.6026Y-79.8441

G1X68.1090Y-79.6579

G1X64.2683Y-79.6929

G1X60.6226Y-79.9429

G1X57.2842Y-80.3447

G1X53.8879Y-80.9331

G1X51.1313Y-81.5747

G1X48.7343Y-82.3426

G1X47.8726Y-82.7249

G1X47.0185Y-83.2161

G1X46.3865Y-83.7014

G1X45.8517Y-84.2762

G1X45.3608Y-85.1552

G1X44.0090Y-88.3684

G1X43.1279Y-90.0593

G1X42.1006Y-91.5873

G1X40.8726Y-92.9932

G1X39.4819Y-94.1929

G1X37.9434Y-95.1925

G1X36.3820Y-95.9233

G1X34.6442Y-96.4686

G1X32.9126Y-96.7559

G1X31.2737Y-96.8073

G1X29.6232Y-96.6347

G1X28.0256Y-96.2273

G1X26.5958Y-95.6236

G1X25.2288Y-94.7529

G1X24.1793Y-93.8017

G1X23.2504Y-92.5931

G1X22.7919Y-91.7750

G1X22.4344Y-90.9213

G1X22.1468Y-89.9723

G1X21.9496Y-88.9557

G1X21.8529Y-86.8508

G1X22.1092Y-84.5476

G1X22.6843Y-82.1974

G1X23.8373Y-78.6982

G1X25.5905Y-74.2062

G1X27.3770Y-69.9877

G1X29.2824Y-65.8342

G1X30.9154Y-62.6690

G1X32.3264Y-60.2816

G1X33.9055Y-58.0675

G1X35.4428Y-56.3706

G1X37.0699Y-55.0392

G1X38.6568Y-54.1547

G1X40.4764Y-53.5754

G1X42.0788Y-53.4017

G1X43.9861Y-53.5019

G1X46.4865Y-54.0063

G1X49.3566Y-54.7083

G1X51.8478Y-55.1276

G1X52.8128Y-55.4204

G1X53.8450Y-55.8540

G1X55.9706Y-57.0768

G1X57.1894Y-58.0112

G1X58.8100Y-59.4121

G1X64.7026Y-65.1977

G1X67.4898Y-67.7279

G1X70.7225Y-70.3475

G1X75.2826Y-73.7330

G1X76.9996Y-75.2254

G1X77.9048Y-76.3495

G1X78.4598Y-77.4310

G1X78.8320Y-79.1567

G1X78.8994Y-79.9499

G1X78.8555Y-80.4245

G1X78.7073Y-80.7632

G1X78.4988Y-80.9593

G1X78.0675Y-81.1160

G1X77.6471Y-81.1606

G1X71.7426Y-80.6797

G1X68.9600Y-80.5658

G1X65.2679Y-80.6052

G1X61.2863Y-80.8862

G1X57.8442Y-81.3154

G1X54.4343Y-81.9105

G1X51.4072Y-82.6214

G1X49.1503Y-83.3350

G1X47.2668Y-84.2330

G1X46.5789Y-84.7407

G1X46.1021Y-85.2594

G1X45.2051Y-86.8197

G1X44.3176Y-89.0110

G1X43.2364Y-91.1590

G1X42.1585Y-92.7405

G1X40.9523Y-94.1185

G1X39.5104Y-95.3547

G1X37.9929Y-96.3382

G1X36.3055Y-97.1220

G1X34.5478Y-97.6660

G1X32.7377Y-97.9632

G1X30.9069Y-98.0143

G1X29.0782Y-97.8082

G1X27.3873Y-97.3650

G1X25.8866Y-96.7266

G1X24.4387Y-95.8183

G1X23.2530Y-94.7509

G1X22.2606Y-93.4791

G1X21.8023Y-92.6764

G1X21.3816Y-91.6943

G1X21.0630Y-90.6523

G1X20.8640Y-89.6395

G1X20.7338Y-87.3004

G1X20.9845Y-84.9476

G1X21.6026Y-82.3647

G1X22.6980Y-78.8751

G1X24.7250Y-73.4177

G1X26.9391Y-67.8857

G1X28.5051Y-64.2270

G1X30.2698Y-60.5283

G1X31.7229Y-57.9572

G1X33.1259Y-55.8874

G1X34.6842Y-54.1031

G1X36.2400Y-52.7838

G1X37.8391Y-51.8726

G1X39.6069Y-51.2887

G1X40.9017Y-51.1267

G1X42.3990Y-51.1464

G1X43.5904Y-51.3252

G1X45.3679Y-51.7681

G1X48.2148Y-52.7298

G1X50.9292Y-53.4254

G1X52.4662Y-53.9528

G1X54.2559Y-54.7479

G1X55.6840Y-55.6698

G1X58.3670Y-57.9891

G1X64.4279Y-64.3374

G1X67.5466Y-67.3174

G1X70.8373Y-70.0679

G1X76.7126Y-74.4679

G1X78.0719Y-75.7174

G1X78.9607Y-76.8409

G1X79.4690Y-77.9685

G1X79.9127Y-79.8984

G1X79.9620Y-80.6976

G1X79.8935Y-81.2996

G1X79.7352Y-81.6455

G1X79.4530Y-81.8717

G1X78.5963Y-82.0282

G1X77.5855Y-82.0083

G1X72.8238Y-81.6086

G1X69.4830Y-81.5004

G1X65.7937Y-81.5828

G1X62.0038Y-81.8729

G1X58.2670Y-82.3566

G1X54.8251Y-82.9779

G1X51.6411Y-83.7374

G1X49.2544Y-84.5234

G1X48.2235Y-84.9679

G1X47.4167Y-85.4307

G1X46.6856Y-86.0227

G1X46.1031Y-86.6902

G1X45.5213Y-87.6191

G1X44.7491Y-89.5645

G1X43.4843Y-92.1773

G1X42.2911Y-93.9363

G1X41.0686Y-95.3171

G1X39.5943Y-96.5744

G1X38.0548Y-97.5618

G1X36.2889Y-98.3706

G1X34.4549Y-98.9228

G1X32.5656Y-99.2177

G1X30.6445Y-99.2591

G1X28.7401Y-99.0391

G1X26.8563Y-98.5456

G1X25.1785Y-97.8244

G1X23.6088Y-96.8366

G1X22.3266Y-95.6742

G1X21.3061Y-94.3771

G1X20.7624Y-93.4148

G1X20.3367Y-92.4223

G1X20.0071Y-91.3536

G1X19.7935Y-90.2654

G1X19.6662Y-89.0197

G1X19.6505Y-87.7937

G1X19.9270Y-85.2278

G1X20.5636Y-82.4124

G1X21.4408Y-79.4786

G1X23.4457Y-73.7154

G1X26.3897Y-65.7540

G1X28.1206Y-61.4277

G1X29.3543Y-58.6541

G1X30.8868Y-55.7091

G1X32.2857Y-53.5517

G1X33.7649Y-51.7730

G1X35.2593Y-50.4581

G1X36.1224Y-49.8899

G1X37.0071Y-49.4305

G1X37.8339Y-49.1049

G1X38.7156Y-48.8707

G1X40.0139Y-48.7013

G1X41.4136Y-48.7134

G1X42.7211Y-48.9218

G1X44.4035Y-49.3679

G1X50.5254Y-51.8177

G1X53.1676Y-52.7842

G1X54.2263Y-53.3530

G1X55.4591Y-54.2361

G1X56.8621Y-55.4265

G1X58.0136Y-56.5515

G1X64.1636Y-63.4090

G1X67.6009Y-66.8607

G1X70.6832Y-69.5319

G1X72.9353Y-71.2833

G1X77.2802Y-74.4746

G1X79.1694Y-76.1800

G1X80.0459Y-77.4111

G1X80.6655Y-78.9072

G1X80.9547Y-80.6503

G1X81.0029Y-81.5858

G1X80.9376Y-82.1708

G1X80.7851Y-82.4760

G1X80.5158Y-82.7076

G1X79.5582Y-82.9204

G1X73.7871Y-82.5700

G1X70.5855Y-82.4790

G1X66.5320Y-82.5894

G1X62.4777Y-82.9340

G1X58.8246Y-83.4295

G1X55.1257Y-84.1202

G1X52.2004Y-84.8320

G1X49.6252Y-85.6709

G1X48.5883Y-86.1331

G1X47.6598Y-86.6769

G1X46.9468Y-87.2306

G1X46.3449Y-87.8798

G1X45.9047Y-88.6234

G1X44.4488Y-91.9726

G1X43.8703Y-93.1057

G1X42.5583Y-95.0969

G1X41.2193Y-96.5946

G1X39.7503Y-97.8426

G1X38.2237Y-98.8149

G1X36.3802Y-99.6563

G1X34.5273Y-100.2073

G1X32.5032Y-100.5153

G1X30.4851Y-100.5467

G1X28.3958Y-100.2921

G1X26.4320Y-99.7698

G1X24.5736Y-98.9714

G1X23.0113Y-98.0074

G1X21.5682Y-96.7475

G1X20.4732Y-95.4083

G1X19.6927Y-94.0404

G1X19.1364Y-92.6224

G1X18.7635Y-90.9963

G1X18.5991Y-89.3068

G1X18.6303Y-87.5632

G1X18.8544Y-85.6561

G1X19.3320Y-83.2576

G1X19.8991Y-81.1391

G1X21.6560Y-75.6231

G1X25.3228Y-64.7674

G1X27.1733Y-59.5869

G1X28.5973Y-56.1202

G1X29.9620Y-53.3185

G1X31.4929Y-50.8697

G1X32.9862Y-49.0840

G1X33.8430Y-48.2975

G1X34.6523Y-47.6854

G1X35.4874Y-47.1747

G1X36.3069Y-46.7865

G1X37.1787Y-46.4870

G1X38.1709Y-46.2651

G1X39.1725Y-46.1524

G1X40.0591Y-46.1508

G1X42.1587Y-46.4679

G1X43.3203Y-46.7894

G1X44.4529Y-47.2299

G1X46.6711Y-48.2559

G1X49.5291Y-49.7350

G1X52.3696Y-50.8651

G1X53.4244Y-51.4424

G1X54.6605Y-52.2851

G1X56.2157Y-53.5590

G1X57.5556Y-54.9014

G1X59.3059Y-56.8653

G1X64.2791Y-62.8231

G1X66.0760Y-64.7782

G1X67.9314Y-66.6198

G1X69.6497Y-68.1863

G1X71.5415Y-69.7687

G1X77.7399Y-74.3799

G1X79.2191Y-75.5702

G1X80.0618Y-76.3979

G1X80.9742Y-77.6097

G1X81.5470Y-78.8768

G1X81.7788Y-79.9067

G1X82.0279Y-81.6535

G1X82.0605Y-82.4450

G1X81.9675Y-82.9916

G1X81.7954Y-83.3355

G1X81.5041Y-83.5771

G1X81.0980Y-83.7278

G1X80.5170Y-83.7966

G1X79.2531Y-83.8011

G1X73.9838Y-83.5182

G1X70.8643Y-83.5014

G1X67.1016Y-83.6541

G1X63.0522Y-84.0299

G1X59.3322Y-84.5633

G1X55.7918Y-85.2383

G1X52.6421Y-86.0211

G1X50.2808Y-86.7897

G1X48.1807Y-87.8085

G1X47.4907Y-88.3071

G1X46.9424Y-88.8627

G1X46.2139Y-90.0403

G1X45.6181Y-91.2194

G1X44.6924Y-93.3763

G1X43.7509Y-95.0396

G1X42.6300Y-96.6373

G1X41.2589Y-98.0911

G1X39.7779Y-99.3041

G1X38.1437Y-100.2890

G1X36.3016Y-101.0849

G1X34.5334Y-101.5758

G1X32.4248Y-101.8729

G1X30.2637Y-101.8728

G1X28.0542Y-101.5717

G1X26.0187Y-101.0064

G1X24.0732Y-100.1672

G1X22.3569Y-99.1110

G1X20.7632Y-97.7395

G1X19.5653Y-96.2720

G1X18.7586Y-94.8930

G1X18.2115Y-93.5564

G1X17.7991Y-91.9451

G1X17.5818Y-90.1942

G1X17.5723Y-88.3115

G1X17.7558Y-86.3404

G1X18.1322Y-84.1612

G1X18.7115Y-81.8338

G1X20.0614Y-77.2191

G1X25.4021Y-59.9104

G1X26.5955Y-56.3775

G1X27.6212Y-53.6497

G1X29.0202Y-50.6398

G1X30.4334Y-48.2825

G1X31.9976Y-46.4046

G1X32.8694Y-45.6076

G1X33.7069Y-44.9904

G1X34.5909Y-44.4812

G1X35.5147Y-44.0801

G1X36.4671Y-43.7864

G1X37.4371Y-43.5999

G1X38.4370Y-43.5294

G1X39.4605Y-43.5670

G1X40.5903Y-43.7149

G1X41.6761Y-43.9568

G1X43.3160Y-44.5387

G1X45.4540Y-45.5349

G1X48.4719Y-47.3231

G1X51.8603Y-49.0488

G1X53.6698Y-50.1527

G1X54.9103Y-51.0379

G1X56.3349Y-52.3317

G1X58.1253Y-54.3076

G1X64.2224Y-61.9906

G1X66.0417Y-64.0611

G1X68.0114Y-66.0945

G1X69.7973Y-67.7658

G1X71.8067Y-69.4882

G1X74.7354Y-71.7525

G1X79.4188Y-75.1631

G1X80.3784Y-75.9925

G1X81.3136Y-76.9535

G1X82.1358Y-78.1861

G1X82.6661Y-79.7601

G1X83.0585Y-81.9597

G1X83.0953Y-83.0381

G1X83.0036Y-83.8053

G1X82.8483Y-84.1251

G1X82.5181Y-84.4197

G1X82.0505Y-84.5925

G1X81.3157Y-84.7037

G1X75.5675Y-84.5492

G1X71.4454Y-84.5582

G1X67.2036Y-84.7999

G1X63.1655Y-85.2386

G1X59.4675Y-85.8134

G1X56.0242Y-86.5118

G1X52.9266Y-87.3108

G1X50.5653Y-88.1313

G1X49.4507Y-88.6248

G1X48.5591Y-89.1422

G1X47.8470Y-89.7105

G1X47.2440Y-90.3646

G1X46.3598Y-91.6948

G1X45.2941Y-94.1942

G1X43.9608Y-96.5909

G1X42.8683Y-98.0689

G1X41.4827Y-99.5261

G1X40.0013Y-100.7183

G1X38.2632Y-101.7464

G1X36.5118Y-102.4911

G1X34.6461Y-102.9948

G1X32.4442Y-103.2856

G1X30.0976Y-103.2480

G1X27.7781Y-102.8935

G1X25.5262Y-102.2243

G1X23.4101Y-101.2706

G1X21.5472Y-100.0778

G1X19.9319Y-98.6657

G1X18.6089Y-97.0228

G1X17.7908Y-95.6121

G1X17.2038Y-94.1334

G1X16.7848Y-92.4918

G1X16.5673Y-90.7288

G1X16.5497Y-88.8157

G1X16.7280Y-86.7328

G1X17.0638Y-84.6877

G1X17.6751Y-82.0779

G1X18.6224Y-78.5222

G1X21.2614Y-69.3629

G1X24.2759Y-58.2035

G1X25.4626Y-54.1619

G1X26.3242Y-51.6187

G1X27.7413Y-48.2401

G1X28.4102Y-46.9675

G1X29.1220Y-45.8258

G1X29.9180Y-44.7363

G1X30.7671Y-43.7735

G1X31.6224Y-42.9919

G1X32.6319Y-42.2680

G1X33.6115Y-41.7310

G1X34.5390Y-41.3525

G1X35.4865Y-41.0853

G1X36.5654Y-40.9165

G1X37.6782Y-40.8671

G1X38.9033Y-40.9404

G1X39.9676Y-41.1157

G1X41.1335Y-41.4291

G1X43.2425Y-42.2326

G1X44.7699Y-43.0186

G1X50.9747Y-46.9760

G1X53.4044Y-48.4016

G1X54.4665Y-49.1596

G1X55.8750Y-50.4715

G1X57.7206Y-52.5284

G1X64.2233Y-61.1591

G1X66.2427Y-63.5384

G1X68.1885Y-65.6011

G1X70.3074Y-67.6183

G1X72.4588Y-69.4634

G1X74.9333Y-71.3950

G1X79.9838Y-75.0338

G1X81.4081Y-76.2240

G1X82.2342Y-77.0608

G1X82.7052Y-77.6947

G1X83.1532Y-78.4810

G1X83.7745Y-80.1683

G1X83.9678Y-81.3113

G1X84.1188Y-83.1302

G1X84.1428Y-83.9733

G1X84.0681Y-84.4788

G1X83.8583Y-84.9320

G1X83.4933Y-85.2622

G1X82.9524Y-85.4815

G1X82.3296Y-85.5820

G1X80.6752Y-85.6495

G1X74.7360Y-85.5857

G1X71.4930Y-85.6927

G1X67.3972Y-85.9982

G1X63.0823Y-86.5341

G1X59.4850Y-87.1492

G1X56.1122Y-87.8798

G1X53.6374Y-88.5476

G1X51.1666Y-89.4015

G1X50.0380Y-89.9200

G1X48.9760Y-90.5684

G1X48.1921Y-91.1972

G1X47.5102Y-91.9332

G1X46.9939Y-92.7416

G1X46.0770Y-94.7972

G1X44.4704Y-97.8057

G1X43.2137Y-99.4909

G1X41.8220Y-100.9635

G1X40.2486Y-102.2076

G1X38.4961Y-103.2370

G1X36.7349Y-103.9743

G1X34.8659Y-104.4693

G1X32.5665Y-104.7593

G1X30.0345Y-104.6844

G1X27.6294Y-104.2778

G1X25.2050Y-103.5196

G1X22.9665Y-102.4816

G1X20.8411Y-101.1000

G1X19.2497Y-99.6973

G1X17.7685Y-97.8968

G1X16.9322Y-96.4693

G1X16.2077Y-94.6751

G1X15.7852Y-92.9910

G1X15.5700Y-91.1484

G1X15.5540Y-89.1324

G1X15.7267Y-87.0388

G1X16.1023Y-84.7659

G1X16.7611Y-81.7688

G1X20.4027Y-67.8576

G1X23.8109Y-53.3490

G1X24.3937Y-51.2298

G1X25.2917Y-48.4144

G1X26.4530Y-45.5510

G1X27.1916Y-44.1343

G1X27.9888Y-42.8525

G1X28.7401Y-41.8610

G1X29.5549Y-40.9870

G1X30.4786Y-40.1834

G1X31.3807Y-39.5592

G1X32.4220Y-39.0102

G1X33.4360Y-38.6305

G1X34.6076Y-38.3465

G1X35.8237Y-38.1995

G1X37.0351Y-38.1904

G1X38.2060Y-38.3131

G1X39.5043Y-38.5768

G1X40.8959Y-38.9865

G1X43.0175Y-39.8920

G1X45.8261Y-41.5361

G1X49.6778Y-44.3313

G1X52.6508Y-46.1932

G1X53.9221Y-47.1625

G1X55.6355Y-48.7764

G1X57.3365Y-50.6801

G1X59.5769Y-53.7044

G1X64.1138Y-60.1065

G1X66.2798Y-62.7670

G1X68.3992Y-65.0752

G1X70.6530Y-67.2626

G1X73.0928Y-69.3732

G1X75.6598Y-71.3658

G1X81.5437Y-75.6238

G1X82.5236Y-76.4611

G1X83.3439Y-77.3608

G1X84.2267Y-78.6927

G1X84.6952Y-80.0115

G1X85.1793Y-83.5454

G1X85.1990Y-84.4976

G1X85.0897Y-85.2346

G1X84.8518Y-85.7508

G1X84.4434Y-86.1128

G1X83.8066Y-86.3577

G1X82.9178Y-86.5159

G1X76.2627Y-86.6596

G1X71.8652Y-86.8592

G1X67.3296Y-87.2853

G1X63.1099Y-87.8819

G1X59.8460Y-88.4816

G1X56.8182Y-89.1606

G1X53.9437Y-89.9681

G1X51.9603Y-90.6742

G1X50.6712Y-91.2793

G1X49.7077Y-91.8333

G1X48.9359Y-92.4100

G1X48.3225Y-93.0306

G1X47.6276Y-94.0927

G1X45.0844Y-98.9717

G1X43.6001Y-100.9844

G1X42.2034Y-102.4580

G1X40.6033Y-103.7140

G1X38.8454Y-104.7583

G1X37.0671Y-105.5008

G1X35.0941Y-106.0221

G1X33.9051Y-106.2128

G1X32.6897Y-106.3033

G1X30.0721Y-106.1924

G1X27.6779Y-105.7528

G1X25.0788Y-104.9122

G1X22.6842Y-103.7757

G1X20.4025Y-102.2975

G1X18.5998Y-100.7145

G1X17.0425Y-98.8733

G1X16.1178Y-97.3318

G1X15.3944Y-95.6799

G1X14.9315Y-94.0634

G1X14.6405Y-92.1749

G1X14.5530Y-90.2217

G1X14.6574Y-88.1208

G1X14.9642Y-85.8210

G1X15.5154Y-82.8909

G1X19.0333Y-68.3513

G1X19.8943Y-64.2575

G1X22.2120Y-52.2260

G1X23.0289Y-48.7443

G1X23.7190Y-46.2617

G1X24.9257Y-43.0665

G1X25.5814Y-41.7185

G1X26.2578Y-40.5726

G1X27.0304Y-39.5088

G1X27.9242Y-38.5013

G1X28.8194Y-37.6923

G1X29.7859Y-37.0101

G1X30.9226Y-36.4116

G1X32.0485Y-35.9867

G1X33.2313Y-35.6933

G1X34.5110Y-35.5367

G1X35.8756Y-35.5345

G1X37.2883Y-35.6796

G1X38.7063Y-35.9628

G1X40.0159Y-36.3569

G1X42.4225Y-37.3997

G1X44.8890Y-38.8022

G1X51.5320Y-43.6816

G1X53.9454Y-45.6459

G1X55.6216Y-47.2176

G1X57.0016Y-48.8167

G1X59.1374Y-51.7526

G1X62.6060Y-56.9714

G1X64.1834Y-59.1942

G1X66.3020Y-61.8937

G1X68.7246Y-64.5983

G1X71.0425Y-66.8768

G1X73.5780Y-69.0972

G1X76.7166Y-71.5364

G1X82.2818Y-75.4825

G1X83.5803Y-76.6078

G1X84.4862Y-77.5598

G1X84.9443Y-78.2058

G1X85.3022Y-78.9197

G1X85.8626Y-80.9164

G1X86.2059Y-83.3416

G1X86.2445Y-84.9796

G1X86.1722Y-85.7930

G1X85.9529Y-86.3714

G1X85.5814Y-86.8002

G1X85.0422Y-87.1081

G1X84.2446Y-87.3456

G1X81.9924Y-87.5815

G1X76.0326Y-87.8207

G1X72.9325Y-88.0295

G1X69.3469Y-88.3782

G1X65.7294Y-88.8656

G1X61.7130Y-89.5639

G1X58.1503Y-90.3460

G1X54.7844Y-91.2798

G1X52.3591Y-92.1928

G1X51.2573Y-92.7129

G1X50.3515Y-93.2535

G1X49.5873Y-93.8582

G1X48.9155Y-94.5670

G1X47.6592Y-96.3847

G1X46.3148Y-99.1908

G1X45.4172Y-100.6495

G1X44.0316Y-102.5388

G1X42.7019Y-103.9231

G1X41.0320Y-105.2574

G1X39.3138Y-106.3012

G1X37.4539Y-107.0869

G1X35.4212Y-107.6364

G1X34.2354Y-107.8269

G1X33.0167Y-107.9137

G1X30.3014Y-107.7918

G1X27.8199Y-107.3058

G1X25.1417Y-106.4126

G1X22.5021Y-105.1284

G1X20.0958Y-103.5661

G1X19.0654Y-102.7349

G1X17.9514Y-101.6953

G1X17.1191Y-100.7993

G1X16.3618Y-99.8355

G1X15.3617Y-98.2376

G1X14.6284Y-96.6825

G1X14.0894Y-94.9674

G1X13.7433Y-93.1443

G1X13.5919Y-91.2592

G1X13.6227Y-89.3422

G1X13.8407Y-87.0803

G1X14.2596Y-84.3564

G1X17.8434Y-68.1009

G1X18.9755Y-61.5334

G1X20.5143Y-51.4699

G1X21.2761Y-47.2982

G1X21.9051Y-44.6139

G1X22.5156Y-42.5864

G1X23.0971Y-40.9849

G1X23.7199Y-39.6003

G1X24.4144Y-38.3598

G1X25.2263Y-37.1661

G1X26.1278Y-36.1079

G1X27.0637Y-35.2520

G1X28.1332Y-34.4925

G1X29.3885Y-33.8254

G1X30.6405Y-33.3632

G1X31.9811Y-33.0619

G1X33.4786Y-32.9107

G1X34.9349Y-32.9233

G1X36.4779Y-33.1020

G1X38.0101Y-33.4493

G1X39.6728Y-33.9867

G1X42.2976Y-35.1464

G1X44.9582Y-36.8204

G1X47.8927Y-38.9899

G1X54.1338Y-44.1421

G1X55.5544Y-45.5511

G1X57.0741Y-47.4366

G1X58.7795Y-49.8186

G1X62.6442Y-55.8651

G1X64.4156Y-58.4297

G1X66.6254Y-61.2938

G1X68.9590Y-63.9454

G1X71.6326Y-66.6085

G1X74.4823Y-69.0941

G1X77.3096Y-71.2838

G1X82.7754Y-75.1211

G1X84.4929Y-76.4953

G1X85.4442Y-77.4800

G1X85.9575Y-78.2286

G1X86.3763Y-79.0288

G1X86.9797Y-80.8501

G1X87.1595Y-82.2091

G1X87.3042Y-84.7107

G1X87.2557Y-86.2641

G1X86.9928Y-87.0435

G1X86.5728Y-87.5682

G1X85.8536Y-87.9953

G1X84.8123Y-88.2896

G1X82.9712Y-88.5499

G1X72.6298Y-89.3611

G1X65.9575Y-90.2724

G1X61.8694Y-91.0423

G1X58.1762Y-91.9140

G1X55.6075Y-92.6709

G1X52.9699Y-93.6711

G1X51.8576Y-94.2352

G1X50.8464Y-94.8983

G1X49.9428Y-95.6537

G1X49.1991Y-96.4554

G1X48.5261Y-97.4141

G1X47.2099Y-100.0797

G1X45.6195Y-102.6475

G1X44.5057Y-104.1298

G1X43.0961Y-105.5595

G1X41.4312Y-106.9052

G1X39.7152Y-107.9477

G1X37.7242Y-108.7881

G1X35.6829Y-109.3430

G1X34.4671Y-109.5254

G1X33.1391Y-109.6041

G1X30.4227Y-109.4509

G1X27.8586Y-108.8928

G1X25.1075Y-107.9154

G1X22.2316Y-106.4426

G1X19.6942Y-104.7370

G1X17.3440Y-102.6725

G1X16.4555Y-101.7076

G1X15.5985Y-100.6025

G1X14.6206Y-99.0947

G1X13.8968Y-97.6297

G1X13.2658Y-95.8006

G1X12.8730Y-94.0430

G1X12.6766Y-92.2876

G1X12.6476Y-90.3169

G1X12.7910Y-88.0789

G1X13.0945Y-85.6374

G1X15.8888Y-71.9962

G1X16.5742Y-68.2090

G1X17.7474Y-60.0628

G1X19.2553Y-47.2190

G1X19.6706Y-44.6839

G1X20.2755Y-41.9243

G1X20.7516Y-40.2032

G1X21.2813Y-38.6958

G1X22.0064Y-37.0713

G1X22.7447Y-35.7429

G1X23.5269Y-34.6252

G1X24.3718Y-33.6718

G1X25.3368Y-32.7946

G1X26.3949Y-32.0381

G1X27.6414Y-31.3767

G1X29.1055Y-30.8487

G1X30.5846Y-30.5151

G1X32.1465Y-30.3523

G1X33.7503Y-30.3776

G1X35.4147Y-30.5791

G1X37.1271Y-30.9445

G1X38.8242Y-31.4637

G1X40.1847Y-32.0131

G1X41.7172Y-32.7747

G1X43.3962Y-33.7462

G1X45.1601Y-34.8930

G1X46.6433Y-36.0299

G1X49.7507Y-38.7278

G1X53.1217Y-41.4834

G1X55.1595Y-43.5437

G1X57.4109Y-46.3527

G1X58.5769Y-48.0493

G1X62.4442Y-54.2947

G1X64.5182Y-57.4074

G1X66.8711Y-60.5180

G1X69.3803Y-63.4058

G1X72.1040Y-66.1485

G1X75.1389Y-68.8249

G1X79.0592Y-71.8148

G1X84.7839Y-75.8043

G1X85.7292Y-76.6201

G1X86.7439Y-77.7586

G1X87.5608Y-79.1135

G1X87.7980Y-79.7551

G1X87.9947Y-80.6355

G1X88.3998Y-84.6959

G1X88.4122Y-85.8557

G1X88.3144Y-86.8061

G1X88.0626Y-87.6440

G1X87.5651Y-88.3057

G1X86.7310Y-88.8320

G1X85.6214Y-89.2106

G1X82.8629Y-89.6641

G1X75.7081Y-90.3784

G1X72.1943Y-90.8056

G1X65.8407Y-91.8089

G1X62.2585Y-92.5411

G1X59.0076Y-93.3369

G1X55.9707Y-94.2720

G1X53.9384Y-95.0721

G1X52.6753Y-95.7232

G1X51.6539Y-96.3565

G1X50.8072Y-97.0208

G1X50.1158Y-97.7214

G1X49.4480Y-98.6661

G1X46.0359Y-104.4428

G1X44.8257Y-105.9289

G1X43.3105Y-107.4386

G1X41.7286Y-108.6959

G1X39.9987Y-109.7141

G1X38.0490Y-110.5432

G1X36.0457Y-111.0978

G1X34.7393Y-111.2886

G1X33.4292Y-111.3651

G1X31.9437Y-111.3343

G1X30.7381Y-111.2100

G1X29.3466Y-110.9419

G1X27.8910Y-110.5453

G1X26.5605Y-110.0964

G1X25.1621Y-109.5062

G1X22.0527Y-107.8282

G1X19.3173Y-105.9022

G1X17.9330Y-104.7385

G1X16.7732Y-103.6305

G1X15.7726Y-102.5142

G1X14.7842Y-101.2507

G1X14.0026Y-100.0710

G1X13.3373Y-98.8148

G1X12.7048Y-97.3014

G1X12.2570Y-95.8716

G1X11.9727Y-94.5386

G1X11.7798Y-92.9536

G1X11.7067Y-91.3104

G1X11.7441Y-89.5447

G1X11.9038Y-87.5429

G1X12.2112Y-85.3838

G1X13.1774Y-80.0154

G1X14.6480Y-72.5486

G1X15.6195Y-66.0093

G1X16.2858Y-60.1629

G1X17.2356Y-47.9212

G1X17.5691Y-44.6906

G1X18.0250Y-41.6576

G1X18.4984Y-39.3528

G1X19.1444Y-37.1566

G1X19.8927Y-35.2447

G1X20.7539Y-33.6163

G1X21.8067Y-32.1462

G1X22.9836Y-30.8991

G1X24.3371Y-29.8558

G1X25.6016Y-29.1520

G1X26.9781Y-28.5873

G1X28.3618Y-28.2016

G1X29.7782Y-27.9787

G1X31.4896Y-27.8943

G1X33.2022Y-27.9737

G1X34.8502Y-28.2001

G1X36.5106Y-28.5887

G1X38.1153Y-29.1130

G1X39.8312Y-29.8098

G1X41.5970Y-30.6655

G1X43.0820Y-31.5117

G1X45.6465Y-33.3592

G1X50.4020Y-37.2954

G1X52.2170Y-38.9571

G1X54.0875Y-40.8155

G1X55.5160Y-42.3666

G1X56.7744Y-43.8994

G1X58.3758Y-46.2388

G1X62.1313Y-52.4272

G1X64.5680Y-56.2132

G1X67.1720Y-59.7154

G1X70.0037Y-62.9972

G1X72.9996Y-66.0084

G1X76.0554Y-68.6847

G1X79.2685Y-71.1593

G1X85.3923Y-75.3499

G1X86.9496Y-76.6565

G1X87.8328Y-77.5839

G1X88.3251Y-78.3196

G1X88.6808Y-79.1245

G1X88.9653Y-80.1093

G1X89.2399Y-81.5345

G1X89.4117Y-82.7595

G1X89.4975Y-84.1327

G1X89.4246Y-87.1731

G1X89.1048Y-88.2412

G1X88.5239Y-89.0401

G1X87.5553Y-89.6969

G1X86.1979Y-90.1803

G1X84.9134Y-90.4895

G1X83.3163Y-90.7574

G1X71.8926Y-92.3179

G1X65.3253Y-93.5069

G1X61.7249Y-94.3220

G1X58.5545Y-95.1994

G1X56.2731Y-95.9701

G1X54.2279Y-96.8654

G1X53.1785Y-97.4259

G1X52.2930Y-98.0116

G1X51.5427Y-98.6414

G1X50.8741Y-99.3543

G1X49.0907Y-101.8447

G1X47.5266Y-104.6646

G1X46.8448Y-105.7269

G1X45.2537Y-107.6708

G1X43.7364Y-109.2016

G1X42.1544Y-110.4376

G1X40.3022Y-111.5278

G1X38.3641Y-112.3683

G1X36.4353Y-112.9049

G1X35.1344Y-113.1044

G1X33.7389Y-113.1992

G1X32.3605Y-113.1834

G1X31.1457Y-113.0573

G1X29.6522Y-112.7640

G1X28.1046Y-112.3316

G1X26.7761Y-111.8606

G1X25.3908Y-111.2419

G1X23.6125Y-110.3000

G1X22.1346Y-109.4070

G1X20.6298Y-108.3662

G1X19.0270Y-107.1241

G1X17.6294Y-105.9234

G1X16.4580Y-104.7900

G1X15.1657Y-103.3597

G1X14.1552Y-102.0867

G1X13.3614Y-100.8955

G1X12.5612Y-99.4265

G1X11.9543Y-98.0683

G1X11.4921Y-96.7086

G1X11.1375Y-95.1806

G1X10.9101Y-93.6573

G1X10.7892Y-92.0281

G1X10.7802Y-90.2889

G1X10.9151Y-88.2541

G1X11.2546Y-85.5545

G1X11.8267Y-81.8600

G1X13.2844Y-73.9179

G1X13.9402Y-69.2746

G1X14.4505Y-64.9348

G1X14.8910Y-59.2441

G1X15.4546Y-46.0959

G1X15.8519Y-41.4812

G1X16.2062Y-38.9795

G1X16.7050Y-36.6830

G1X17.3143Y-34.6312

G1X18.0079Y-32.9401

G1X18.9416Y-31.2546

G1X20.0025Y-29.8080

G1X21.1114Y-28.6858

G1X22.5040Y-27.6354

G1X23.7123Y-26.9420

G1X25.0334Y-26.3800

G1X26.4601Y-25.9694

G1X27.9711Y-25.6907

G1X29.5823Y-25.5428

G1X31.1539Y-25.5434

G1X32.7605Y-25.6960

G1X34.4960Y-26.0063

G1X36.1857Y-26.4325

G1X37.7744Y-26.9446

G1X39.3184Y-27.5578

G1X40.7367Y-28.2497

G1X42.4145Y-29.2209

G1X44.2143Y-30.4064

G1X46.3092Y-31.9264

G1X47.6828Y-33.0571

G1X53.8919Y-38.9482

G1X55.1054Y-40.2139

G1X56.0725Y-41.3644

G1X57.2798Y-43.0318

G1X59.0872Y-45.8165

G1X62.9825Y-52.3772

G1X64.9635Y-55.4216

G1X67.7324Y-59.1365

G1X70.8160Y-62.6940

G1X73.8836Y-65.7726

G1X77.3727Y-68.8046

G1X80.7892Y-71.3586

G1X85.2338Y-74.3276

G1X87.0676Y-75.6470

G1X88.0829Y-76.4642

G1X88.8062Y-77.2328

G1X89.3156Y-77.9681

G1X89.7719Y-78.8392

G1X90.1264Y-79.7769

G1X90.4003Y-80.8540

G1X90.5807Y-82.9613

G1X90.6392Y-86.0234

G1X90.5834Y-87.1949

G1X90.4389Y-87.9750

G1X90.2083Y-88.6801

G1X89.9293Y-89.2061

G1X89.5608Y-89.6733

G1X89.0800Y-90.1000

G1X88.5039Y-90.4682

G1X86.8454Y-91.1671

G1X83.4664Y-91.9673

G1X71.4800Y-93.9441

G1X64.8894Y-95.2781

G1X61.6330Y-96.0952

G1X59.1134Y-96.8311

G1X56.6527Y-97.7322

G1X54.9222Y-98.5085

G1X53.9243Y-99.0775

G1X52.8750Y-99.8251

G1X51.9987Y-100.5906

G1X51.1111Y-101.5361

G1X50.1649Y-102.7935

G1X48.6516Y-105.5153

G1X47.9600Y-106.5798

G1X46.0021Y-109.1145

G1X44.3776Y-110.8139

G1X42.6286Y-112.1788

G1X40.6173Y-113.3915

G1X38.7190Y-114.2295

G1X36.8492Y-114.7561

G1X35.4505Y-114.9890

G1X34.0711Y-115.1017

G1X32.8693Y-115.1022

G1X31.5429Y-114.9731

G1X30.0421Y-114.6849

G1X28.3972Y-114.2297

G1X27.1635Y-113.7760

G1X25.8757Y-113.1851

G1X24.0169Y-112.1770

G1X22.6328Y-111.3185

G1X21.0549Y-110.1963

G1X19.2982Y-108.8129

G1X16.5071Y-106.2714

G1X14.9899Y-104.6488

G1X13.8365Y-103.2506

G1X12.9733Y-102.0116

G1X12.0475Y-100.4743

G1X11.4134Y-99.2058

G1X10.9188Y-97.9444

G1X10.4402Y-96.3015

G1X10.1077Y-94.6628

G1X9.9144Y-92.9947

G1X9.8536Y-91.3395

G1X9.9706Y-88.6614

G1X10.3507Y-85.0509

G1X11.8825Y-75.7248

G1X12.6851Y-69.6544

G1X13.1338Y-65.1989

G1X13.4236Y-59.2720

G1X13.5457Y-53.5835

G1X13.5583Y-46.3864

G1X13.8431Y-40.0917

G1X14.1827Y-37.3397

G1X14.6537Y-34.8949

G1X15.2123Y-32.9376

G1X15.9774Y-31.0297

G1X16.8382Y-29.4185

G1X17.8226Y-28.0514

G1X19.1332Y-26.6931

G1X20.5712Y-25.5791

G1X21.8416Y-24.8574

G1X23.2503Y-24.2685

G1X24.7442Y-23.8058

G1X26.3519Y-23.4774

G1X27.9459Y-23.3194

G1X29.6475Y-23.3118

G1X31.4197Y-23.4337

G1X33.2502Y-23.6949

G1X34.8833Y-24.0534

G1X36.5040Y-24.5450

G1X38.2617Y-25.2257

G1X40.0284Y-26.0409

G1X41.8401Y-27.0034

G1X43.6362Y-28.0926

G1X44.9796Y-29.0532

G1X46.4262Y-30.2340

G1X52.5032Y-35.7634

G1X54.1961Y-37.5131

G1X55.5722Y-39.1472

G1X56.9502Y-41.0072

G1X58.5614Y-43.3867

G1X63.0927Y-51.0698

G1X65.3541Y-54.5345

G1X68.2619Y-58.4170

G1X71.5868Y-62.2554

G1X74.8091Y-65.4880

G1X78.0184Y-68.2946

G1X81.7572Y-71.1184

G1X88.2291Y-75.4062

G1X89.1047Y-76.1350

G1X90.2179Y-77.3224

G1X90.6691Y-77.9566

G1X91.0433Y-78.6609

G1X91.2855Y-79.3105

G1X91.4769Y-80.1760

G1X91.7918Y-84.3615

G1X91.7709Y-86.8194

G1X91.6374Y-87.8997

G1X91.4253Y-88.7856

G1X91.1252Y-89.4890

G1X90.6934Y-90.1391

G1X90.1475Y-90.7032

G1X89.3958Y-91.2609

G1X88.5934Y-91.6988

G1X87.5677Y-92.1252

G1X85.5581Y-92.7644

G1X82.7102Y-93.4292

G1X70.5894Y-95.7649

G1X64.2357Y-97.2076

G1X61.6129Y-97.9205

G1X59.1132Y-98.7363

G1X57.2366Y-99.4526

G1X55.7623Y-100.1642

G1X53.6327Y-101.5077

G1X52.7890Y-102.2100

G1X52.0114Y-103.0013

G1X51.2152Y-104.0756

G1X49.5702Y-106.7055

G1X47.3751Y-109.8050

G1X46.2140Y-111.2421

G1X44.9992Y-112.4391

G1X43.0793Y-113.9707

G1X41.1054Y-115.2083

G1X39.1935Y-116.0721

G1X37.1418Y-116.6762

G1X35.6738Y-116.9412

G1X34.3157Y-117.0672

G1X33.0889Y-117.0598

G1X31.7755Y-116.9289

G1X30.2959Y-116.6509

G1X28.7615Y-116.2340

G1X27.5309Y-115.7691

G1X26.1586Y-115.1182

G1X24.4000Y-114.1385

G1X23.1359Y-113.3264

G1X21.6004Y-112.1948

G1X19.6556Y-110.6174

G1X16.5750Y-107.7403

G1X14.9140Y-105.9833

G1X13.6854Y-104.5293

G1X12.4483Y-102.8291

G1X11.5292Y-101.3916

G1X10.8165Y-100.0395

G1X10.2153Y-98.5918

G1X9.6927Y-97.0232

G1X9.3141Y-95.4379

G1X9.0811Y-93.8174

G1X8.9689Y-92.0588

G1X8.9924Y-89.5534

G1X9.2085Y-86.5585

G1X10.2707Y-79.3555

G1X11.1626Y-72.6269

G1X11.5701Y-68.9484

G1X11.7948Y-65.8261

G1X11.9425Y-61.6433

G1X11.9911Y-56.3054

G1X11.7409Y-47.0586

G1X11.7002Y-42.2752

G1X11.7797Y-39.4307

G1X12.0353Y-36.5224

G1X12.4141Y-34.0758

G1X12.9850Y-31.7958

G1X13.7002Y-29.7842

G1X14.5672Y-28.0435

G1X15.6904Y-26.4047

G1X16.9754Y-24.9907

G1X18.3378Y-23.8952

G1X19.6415Y-23.1049

G1X21.0594Y-22.4267

G1X22.4133Y-21.9395

G1X23.8733Y-21.5760

G1X25.7414Y-21.3019

G1X27.7247Y-21.1755

G1X29.5974Y-21.2133

G1X31.4026Y-21.4077

G1X33.3759Y-21.7975

G1X35.4047Y-22.3485

G1X37.4478Y-23.0501

G1X39.3380Y-23.8436

G1X40.8498Y-24.6070

G1X42.4092Y-25.5498

G1X45.9532Y-28.1277

G1X48.5975Y-30.2854

G1X50.7745Y-32.3175

G1X53.6301Y-35.3156

G1X55.8636Y-37.9653

G1X57.2627Y-39.8292

G1X58.2487Y-41.3004

G1X62.9469Y-49.2701

G1X65.5236Y-53.2355

G1X68.7258Y-57.5028

G1X72.3565Y-61.7084

G1X75.8854Y-65.2653

G1X79.5809Y-68.4498

G1X82.9730Y-70.9426

G1X88.8417Y-74.7348

G1X90.5280Y-76.0506

G1X91.3583Y-76.8651

G1X92.0018Y-77.8319

G1X92.4146Y-78.9349

G1X92.7336Y-80.4675

G1X92.9904Y-82.6368

G1X93.0296Y-84.4457

G1X92.9505Y-86.5910

G1X92.8326Y-87.8570

G1X92.6149Y-88.8799

G1X92.2508Y-89.8155

G1X91.7431Y-90.6510

G1X91.0120Y-91.4548

G1X90.1617Y-92.1097

G1X89.1460Y-92.6987

G1X87.9738Y-93.2406

G1X84.9141Y-94.2671

G1X80.4045Y-95.3815

G1X70.3911Y-97.5380

G1X64.8594Y-98.8816

G1X59.8939Y-100.4106

G1X58.4326Y-100.9876

G1X56.6672Y-101.8228

G1X54.6153Y-103.0663

G1X53.7633Y-103.7611

G1X53.0158Y-104.5172

G1X50.4560Y-107.8298

G1X47.9436Y-111.5762

G1X46.3285Y-113.3869

G1X44.8962Y-114.7086

G1X43.5239Y-115.8027

G1X42.1908Y-116.6968

G1X40.8587Y-117.4123

G1X38.7544Y-118.2548

G1X36.5306Y-118.8326

G1X34.5471Y-119.0672

G1X32.5139Y-119.0023

G1X30.2681Y-118.6283

G1X28.4375Y-118.0651

G1X26.3278Y-117.0830

G1X24.0000Y-115.6958

G1X22.5414Y-114.6159

G1X20.6017Y-113.0127

G1X17.7832Y-110.3739

G1X14.4031Y-106.7677

G1X11.8708Y-103.5060

G1X10.4894Y-101.2510

G1X9.7232Y-99.6656

G1X9.1653Y-98.2782

G1X8.5091Y-95.8905

G1X8.1250Y-93.0829

G1X8.0362Y-90.4639

G1X8.1573Y-87.8609

G1X10.0634Y-72.4435

G1X10.3092Y-69.5717

G1X10.4836Y-65.9290

G1X10.5638Y-61.5356

G1X10.5258Y-57.1198

G1X9.7288Y-41.1666

G1X9.7918Y-37.7383

G1X10.0291Y-34.7639

G1X10.3742Y-32.5852

G1X10.8810Y-30.4577

G1X11.4806Y-28.6814

G1X12.2147Y-27.0847

G1X13.1302Y-25.5272

G1X14.0921Y-24.2610

G1X15.2209Y-23.1292

G1X16.6517Y-22.0066

G1X18.0143Y-21.1728

G1X19.4431Y-20.5142

G1X21.1871Y-19.9431

G1X23.0720Y-19.5022

G1X24.7953Y-19.2522

G1X26.4988Y-19.1540

G1X28.4601Y-19.2196

G1X30.5052Y-19.4287

G1X32.4240Y-19.7477

G1X34.3526Y-20.2000

G1X36.0425Y-20.7255

G1X37.6797Y-21.3719

G1X39.6061Y-22.2875

G1X41.5974Y-23.3828

G1X43.6654Y-24.6669

G1X45.4722Y-25.9253

G1X48.0168Y-28.0910

G1X51.8352Y-31.8714

G1X54.1906Y-34.3511

G1X56.0584Y-36.5725

G1X58.0447Y-39.4342

G1X62.6139Y-47.1017

G1X65.3318Y-51.3274

G1X68.5064Y-55.6195

G1X72.0329Y-59.8431

G1X74.0668Y-62.0692

G1X75.9314Y-63.9591

G1X78.1992Y-66.0741

G1X80.2708Y-67.8333

G1X84.4526Y-70.8999

G1X90.5770Y-74.7793

G1X91.9904Y-75.8497

G1X92.8084Y-76.8118

G1X93.4845Y-78.0169

G1X93.9495Y-79.3840

G1X94.1860Y-80.7508

G1X94.2519Y-82.6457

G1X94.1562Y-86.6979

G1X93.9863Y-88.1104

G1X93.6167Y-89.5071

G1X93.0344Y-90.7486

G1X92.2149Y-91.8292

G1X91.0798Y-92.8386

G1X89.7012Y-93.7271

G1X88.3425Y-94.3997

G1X86.7462Y-95.0593

G1X82.8229Y-96.3146

G1X77.6924Y-97.6275

G1X68.1601Y-99.9052

G1X63.2331Y-101.2804

G1X60.3000Y-102.3044

G1X57.4268Y-103.5742

G1X56.3197Y-104.2118

G1X55.1993Y-105.0075

G1X54.1715Y-105.8844

G1X53.1883Y-106.8705

G1X51.7590Y-108.5683

G1X49.7937Y-111.6011

G1X48.9278Y-112.7911

G1X47.3244Y-114.5906

G1X45.7127Y-116.1960

G1X44.3081Y-117.3945

G1X43.0003Y-118.3087

G1X41.3820Y-119.2167

G1X39.5942Y-120.0086

G1X37.8042Y-120.6007

G1X36.0539Y-120.9670

G1X34.2244Y-121.1060

G1X32.3358Y-121.0215

G1X30.6029Y-120.7528

G1X29.0415Y-120.2979

G1X27.3648Y-119.5853

G1X25.4216Y-118.5366

G1X24.1711Y-117.6978

G1X22.8184Y-116.6357

G1X20.9102Y-114.9832

G1X19.3808Y-113.5120

G1X15.1029Y-108.9061

G1X11.6951Y-104.6612

G1X10.7906Y-103.3341

G1X9.8773Y-101.7909

G1X8.6007Y-99.1785

G1X8.1827Y-97.9919

G1X8.0000Y-97.3245

G1 Z0F20000

(Start Block)


G1X8.0000Y-80.3879
G1Z6F20000
(Plotting speed under)
G1 F4000


G1X8.8201Y-73.5891

G1X9.0861Y-69.0912

G1X9.2156Y-64.3781

G1X9.2037Y-60.5944

G1X9.0710Y-57.4723

G1X8.0000Y-43.7794

G1 Z0F20000

(Start Block)


G1X8.0000Y-33.6950
G1Z6F20000
(Plotting speed under)
G1 F4000


G1X8.2634Y-31.7775

G1X8.7330Y-29.6351

G1X9.3443Y-27.7214

G1X10.1878Y-25.7566

G1X11.0192Y-24.2907

G1X12.0237Y-22.9458

G1X13.2906Y-21.6048

G1X14.6805Y-20.4617

G1X16.0224Y-19.6296

G1X17.7218Y-18.8250

G1X19.3850Y-18.2119

G1X21.0988Y-17.7580

G1X22.7250Y-17.4906

G1X24.8594Y-17.3195

G1X26.9427Y-17.2906

G1X28.9053Y-17.3987

G1X30.7910Y-17.6444

G1X32.5526Y-18.0188

G1X34.5366Y-18.5812

G1X36.6612Y-19.3234

G1X38.7618Y-20.1980

G1X40.6780Y-21.1334

G1X42.2434Y-22.0294

G1X43.8623Y-23.1309

G1X46.5250Y-25.2553

G1X50.4931Y-28.7945

G1X52.8446Y-31.1794

G1X55.1201Y-33.8051

G1X56.7946Y-36.0540

G1X58.9512Y-39.3206

G1X63.0016Y-46.0650

G1X65.7044Y-50.1565

G1X69.6736Y-55.3660

G1X74.1323Y-60.5657

G1X76.2942Y-62.8340

G1X78.3356Y-64.8294

G1X80.1527Y-66.4452

G1X82.1899Y-68.1006

G1X85.2127Y-70.2895

G1X89.1316Y-72.7383

G1X91.6434Y-74.2114

G1X92.9336Y-75.1809

G1X93.9573Y-76.1859

G1X94.6416Y-77.1436

G1X95.0815Y-78.1759

G1X95.3332Y-79.4875

G1X95.4966Y-83.3311

G1X95.4639Y-85.6440

G1X95.2250Y-87.8293

G1X94.7946Y-89.5992

G1X94.0916Y-91.1290

G1X93.1325Y-92.4430

G1X91.8352Y-93.6750

G1X90.1460Y-94.8352

G1X88.8521Y-95.5488

G1X87.4222Y-96.2132

G1X83.7320Y-97.6048

G1X79.2399Y-98.9508

G1X69.8604Y-101.3780

G1X64.9809Y-102.7344

G1X60.9461Y-104.1265

G1X58.3959Y-105.2740

G1X55.9417Y-106.8056

G1X54.9185Y-107.6195

G1X53.9272Y-108.5570

G1X52.9718Y-109.7026

G1X50.3375Y-113.3645

G1X47.6811Y-116.4789

G1X45.9494Y-118.2324

G1X44.7122Y-119.2384

G1X43.1921Y-120.2647

G1X41.5829Y-121.1781

G1X39.9449Y-121.9418

G1X38.2125Y-122.5560

G1X36.4864Y-122.9463

G1X34.5570Y-123.1503

G1X32.6918Y-123.1351

G1X31.1119Y-122.9430

G1X29.6249Y-122.5626

G1X28.0144Y-121.9486

G1X26.3082Y-121.1065

G1X25.0411Y-120.3104

G1X23.6820Y-119.2682

G1X21.6319Y-117.4689

G1X20.2791Y-116.1297

G1X15.7131Y-110.9771

G1X12.7191Y-107.2835

G1X11.2654Y-105.3626

G1X9.1561Y-102.1049

G1X8.4905Y-100.8737

G1X8.0000Y-99.7760

G1 Z0F20000

(Start Block)


G1X8.0000Y-25.1867
G1Z6F20000
(Plotting speed under)
G1 F4000


G1X8.6421Y-23.8352

G1X10.0080Y-21.7901

G1X11.4656Y-20.1680

G1X13.1886Y-18.8115

G1X15.4302Y-17.5048

G1X17.6696Y-16.6115

G1X19.5800Y-16.1173

G1X21.6609Y-15.7321

G1X23.5925Y-15.5163

G1X25.5082Y-15.4520

G1X27.3992Y-15.5505

G1X29.6689Y-15.8312

G1X31.9560Y-16.2557

G1X34.0687Y-16.7817

G1X35.8488Y-17.3414

G1X37.4585Y-17.9622

G1X39.0718Y-18.7219

G1X40.7729Y-19.6587

G1X42.7891Y-20.9181

G1X44.8710Y-22.3594

G1X46.9739Y-23.9382

G1X48.5963Y-25.3151

G1X50.1512Y-26.8057

G1X51.9083Y-28.6578

G1X53.9454Y-30.9276

G1X55.5112Y-32.8543

G1X58.4297Y-36.9260

G1X63.2815Y-44.8322

G1X65.9213Y-48.6866

G1X68.2130Y-51.7103

G1X70.6914Y-54.7774

G1X73.5539Y-58.1713

G1X76.1925Y-61.0955

G1X78.0171Y-62.9948

G1X79.7708Y-64.6679

G1X81.7463Y-66.4152

G1X83.5483Y-67.8704

G1X85.6565Y-69.3790

G1X88.4228Y-71.1724

G1X92.7324Y-73.6493

G1X94.6063Y-74.9593

G1X95.4919Y-75.8376

G1X95.9832Y-76.6570

G1X96.3533Y-77.7416

G1X96.6024Y-79.0528

G1X96.8045Y-80.9232

G1X96.8574Y-82.3488

G1X96.8078Y-84.1334

G1X96.4398Y-87.7904

G1X96.1401Y-89.1036

G1X95.6993Y-90.3417

G1X95.1119Y-91.5163

G1X94.3771Y-92.6140

G1X93.4888Y-93.6452

G1X92.4504Y-94.6133

G1X91.2605Y-95.5342

G1X89.9432Y-96.3871

G1X88.3948Y-97.2446

G1X86.8118Y-98.0050

G1X82.7506Y-99.6009

G1X77.6133Y-101.2129

G1X68.2219Y-103.7985

G1X65.0564Y-104.7653

G1X61.8277Y-105.8853

G1X59.1148Y-107.1323

G1X56.9762Y-108.3852

G1X55.2216Y-109.8139

G1X54.1182Y-111.0004

G1X51.5438Y-114.0746

G1X49.1381Y-117.1450

G1X47.9887Y-118.4907

G1X46.5958Y-119.8309

G1X44.5814Y-121.4006

G1X43.2004Y-122.3242

G1X41.7902Y-123.1442

G1X40.4734Y-123.7886

G1X39.2528Y-124.2681

G1X37.8637Y-124.6867

G1X36.4639Y-124.9895

G1X34.9846Y-125.1889

G1X33.5604Y-125.2626

G1X32.3578Y-125.2185

G1X31.2333Y-125.0667

G1X30.0432Y-124.7943

G1X28.8005Y-124.3943

G1X26.5398Y-123.3756

G1X25.5144Y-122.7338

G1X24.4554Y-121.9453

G1X22.1517Y-119.9306

G1X20.4135Y-118.0989

G1X17.2166Y-114.2835

G1X13.0041Y-108.8898

G1X11.1572Y-106.4199

G1X8.8484Y-103.0272

G1X8.0000Y-101.4708

G1 Z0F20000


G00 X0.0000 Y0.0000


