$H
G21
G17
G90
G1 Z0F20000
G1 F15000

(Start Layer)

(Start Block)


G1X19.8675Y-105.4543
G1Z5F20000
(Plotting speed under)
G1 F4000


G1X23.1394Y-106.2393

G1X27.4950Y-107.7565

G1X29.4955Y-108.2832

G1X32.2905Y-108.6743

G1X35.7349Y-108.7834

G1X39.6761Y-108.6157

G1X46.4917Y-107.9975

G1X48.8515Y-107.8595

G1X51.0488Y-107.8963

G1X54.8548Y-108.2879

G1X58.2765Y-108.1983

G1X60.8367Y-107.9080

G1X63.5340Y-107.4299

G1X66.1760Y-106.8146

G1X71.8293Y-105.3126

G1X74.9659Y-104.7376

G1X77.5494Y-104.5847

G1X82.0944Y-104.8380

G1X86.3309Y-104.7695

G1 Z0F20000

(Start Block)


G1X19.8398Y-104.2003
G1Z5F20000
(Plotting speed under)
G1 F4000


G1X23.2369Y-104.9987

G1X27.5499Y-106.4907

G1X29.5691Y-107.0316

G1X32.3744Y-107.4397

G1X35.6201Y-107.5567

G1X39.7607Y-107.3759

G1X46.6792Y-106.6909

G1X49.0390Y-106.5325

G1X51.2609Y-106.5580

G1X53.5530Y-106.8280

G1X55.0067Y-106.9151

G1X56.7873Y-106.8981

G1X58.7546Y-106.7570

G1X60.9779Y-106.4716

G1X63.4166Y-106.0291

G1X71.7998Y-104.0682

G1X75.0924Y-103.6129

G1X77.7652Y-103.5643

G1X82.3988Y-103.9076

G1X86.4044Y-103.7869

G1 Z0F20000

(Start Block)


G1X19.8055Y-102.9371
G1Z5F20000
(Plotting speed under)
G1 F4000


G1X21.5832Y-103.2889

G1X23.3304Y-103.7370

G1X27.7117Y-105.2337

G1X29.7548Y-105.7768

G1X32.4761Y-106.1773

G1X35.4974Y-106.2973

G1X39.8723Y-106.0949

G1X46.9849Y-105.3166

G1X49.3366Y-105.1433

G1X51.3670Y-105.1559

G1X55.0443Y-105.4914

G1X56.7402Y-105.4743

G1X58.4835Y-105.3543

G1X62.7593Y-104.7340

G1X70.9044Y-103.0248

G1X74.3420Y-102.5979

G1X77.4404Y-102.5706

G1X80.8533Y-102.9334

G1X82.3668Y-103.0149

G1X84.2132Y-102.9922

G1X86.4810Y-102.8411

G1 Z0F20000

(Start Block)


G1X19.7647Y-101.6684
G1Z5F20000
(Plotting speed under)
G1 F4000


G1X21.6557Y-102.0205

G1X23.4182Y-102.4573

G1X27.8767Y-103.9553

G1X29.8445Y-104.4766

G1X32.3739Y-104.8667

G1X35.2775Y-105.0043

G1X37.4871Y-104.9519

G1X39.8973Y-104.7805

G1X47.1883Y-103.8942

G1X49.5290Y-103.7002

G1X51.5790Y-103.7057

G1X55.1833Y-104.0240

G1X58.4018Y-103.9050

G1X62.1996Y-103.4090

G1X69.8953Y-102.0039

G1X73.4800Y-101.6110

G1X75.3120Y-101.5563

G1X77.0195Y-101.6082

G1X80.8297Y-102.0685

G1X82.3386Y-102.1639

G1X84.2838Y-102.1286

G1X86.5537Y-101.9320

G1 Z0F20000

(Start Block)


G1X19.7182Y-100.3986
G1Z5F20000
(Plotting speed under)
G1 F4000


G1X21.6154Y-100.7207

G1X23.4986Y-101.1632

G1X27.9351Y-102.6255

G1X29.9347Y-103.1543

G1X32.2754Y-103.5271

G1X34.9534Y-103.6768

G1X37.3212Y-103.6269

G1X39.8270Y-103.4349

G1X47.2764Y-102.4289

G1X49.6016Y-102.2092

G1X51.6547Y-102.1989

G1X55.4114Y-102.5182

G1X58.5969Y-102.4107

G1X61.7324Y-102.0590

G1X68.9936Y-100.9666

G1X72.5007Y-100.6480

G1X74.5712Y-100.6035

G1X76.5979Y-100.6828

G1X78.4357Y-100.8718

G1X80.7865Y-101.2432

G1X82.2541Y-101.3494

G1X84.2186Y-101.3075

G1X86.6148Y-101.0583

G1 Z0F20000

(Start Block)


G1X19.6677Y-99.1321
G1Z5F20000
(Plotting speed under)
G1 F4000


G1X21.6724Y-99.4380

G1X23.5705Y-99.8594

G1X28.0940Y-101.3142

G1X30.0201Y-101.8136

G1X32.2819Y-102.1738

G1X34.7457Y-102.3192

G1X37.1584Y-102.2687

G1X39.7577Y-102.0509

G1X47.2375Y-100.9303

G1X49.4911Y-100.6842

G1X51.6929Y-100.6513

G1X55.4870Y-100.9794

G1X58.0382Y-100.9530

G1X61.1535Y-100.7129

G1X68.2021Y-99.9190

G1X71.2841Y-99.7072

G1X73.7085Y-99.6764

G1X76.0676Y-99.7874

G1X78.1956Y-100.0241

G1X80.7134Y-100.4517

G1X82.1533Y-100.5655

G1X84.2380Y-100.5085

G1X86.6561Y-100.2167

G1 Z0F20000

(Start Block)


G1X19.6126Y-97.8673
G1Z5F20000
(Plotting speed under)
G1 F4000


G1X21.6140Y-98.1299

G1X23.6321Y-98.5443

G1X25.2010Y-98.9812

G1X28.1372Y-99.9541

G1X30.0982Y-100.4537

G1X32.1703Y-100.7853

G1X34.4162Y-100.9328

G1X36.7847Y-100.8943

G1X39.3648Y-100.6743

G1X41.9721Y-100.3068

G1X47.5589Y-99.3456

G1X50.4079Y-99.0769

G1X52.0149Y-99.1031

G1X55.2851Y-99.4172

G1X57.8322Y-99.4593

G1X60.7282Y-99.3424

G1X67.9824Y-98.8429

G1X71.7889Y-98.7542

G1X74.0179Y-98.8231

G1X76.1256Y-98.9890

G1X78.1308Y-99.2498

G1X80.5191Y-99.6799

G1X81.7803Y-99.7995

G1X84.0693Y-99.7492

G1X86.6700Y-99.4097

G1 Z0F20000

(Start Block)


G1X19.5297Y-96.5621
G1Z5F20000
(Plotting speed under)
G1 F4000


G1X21.6315Y-96.7914

G1X23.7745Y-97.1990

G1X25.2642Y-97.5974

G1X28.3978Y-98.5986

G1X30.3946Y-99.0855

G1X32.2740Y-99.3793

G1X34.3043Y-99.5226

G1X36.6982Y-99.4940

G1X39.2586Y-99.2721

G1X41.8368Y-98.8939

G1X47.6199Y-97.8458

G1X49.2133Y-97.6496

G1X50.7033Y-97.5656

G1X52.1669Y-97.6058

G1X55.2863Y-97.9063

G1X57.4769Y-97.9871

G1X67.5324Y-97.7882

G1X71.8272Y-97.8711

G1X75.8500Y-98.2196

G1X80.3350Y-98.9769

G1X81.8077Y-99.1120

G1X83.9919Y-99.0452

G1X86.6404Y-98.6845

G1 Z0F20000

(Start Block)


G1X19.4145Y-95.2234
G1Z5F20000
(Plotting speed under)
G1 F4000


G1X21.2929Y-95.3738

G1X23.2324Y-95.6726

G1X24.9731Y-96.0762

G1X28.2020Y-97.0669

G1X30.1219Y-97.5577

G1X32.1384Y-97.9123

G1X34.2878Y-98.0963

G1X36.6888Y-98.0896

G1X39.2270Y-97.8810

G1X41.8771Y-97.4908

G1X47.8039Y-96.3985

G1X49.4941Y-96.1994

G1X50.9810Y-96.1320

G1X56.8621Y-96.5345

G1X66.0317Y-96.6808

G1X70.4515Y-96.8997

G1X74.8453Y-97.3752

G1X80.0775Y-98.3049

G1X81.2990Y-98.4354

G1X83.7336Y-98.3894

G1X86.5416Y-98.0181

G1 Z0F20000

(Start Block)


G1X19.2691Y-93.8685
G1Z5F20000
(Plotting speed under)
G1 F4000


G1X21.3445Y-93.9935

G1X23.4110Y-94.2868

G1X25.1023Y-94.6629

G1X28.3862Y-95.6247

G1X30.3811Y-96.1238

G1X32.4269Y-96.4867

G1X34.4754Y-96.6766

G1X36.8546Y-96.6909

G1X39.3735Y-96.4993

G1X41.9954Y-96.1217

G1X48.0924Y-95.0090

G1X49.7720Y-94.8244

G1X51.3750Y-94.7722

G1X56.2933Y-95.1148

G1X64.7008Y-95.4762

G1X68.6000Y-95.7838

G1X73.3202Y-96.4056

G1X79.6386Y-97.6058

G1X80.7168Y-97.7428

G1X83.2848Y-97.7370

G1X86.3590Y-97.3697

G1 Z0F20000

(Start Block)


G1X19.0981Y-92.5129
G1Z5F20000
(Plotting speed under)
G1 F4000


G1X21.3654Y-92.6108

G1X23.5633Y-92.8990

G1X25.2473Y-93.2590

G1X30.7823Y-94.7249

G1X32.8057Y-95.0847

G1X34.7522Y-95.2800

G1X37.0625Y-95.3201

G1X39.5990Y-95.1518

G1X42.2979Y-94.7779

G1X48.2761Y-93.7064

G1X50.0602Y-93.5181

G1X51.7652Y-93.4797

G1X62.1793Y-94.0974

G1X66.8074Y-94.5396

G1X71.3533Y-95.2449

G1X78.7358Y-96.7893

G1X80.0783Y-97.0004

G1X82.7584Y-97.0396

G1X86.0935Y-96.7000

G1 Z0F20000

(Start Block)


G1X18.9085Y-91.1689
G1Z5F20000
(Plotting speed under)
G1 F4000


G1X21.3644Y-91.2417

G1X23.7559Y-91.5365

G1X25.2739Y-91.8474

G1X31.2681Y-93.3684

G1X33.2803Y-93.7282

G1X35.1228Y-93.9269

G1X37.5492Y-93.9889

G1X40.0094Y-93.8406

G1X42.5433Y-93.5076

G1X48.8069Y-92.4245

G1X50.5926Y-92.2603

G1X52.3256Y-92.2511

G1X60.6361Y-92.7266

G1X65.6041Y-93.2631

G1X69.7433Y-94.0021

G1X76.8393Y-95.7026

G1X79.4113Y-96.1876

G1X82.1805Y-96.2694

G1X85.7606Y-95.9772

G1 Z0F20000

(Start Block)


G1X18.7097Y-89.8452
G1Z5F20000
(Plotting speed under)
G1 F4000


G1X21.2463Y-89.8914

G1X23.7428Y-90.1692

G1X25.6016Y-90.5376

G1X32.4572Y-92.1973

G1X34.6707Y-92.5440

G1X36.7496Y-92.7033

G1X38.9505Y-92.6941

G1X41.2722Y-92.5071

G1X43.5734Y-92.1796

G1X48.3661Y-91.3386

G1X50.8070Y-91.0755

G1X52.5023Y-91.0562

G1X60.0942Y-91.4296

G1X63.7722Y-91.8273

G1X67.2130Y-92.4249

G1X70.2781Y-93.1541

G1X75.9696Y-94.7452

G1X78.4765Y-95.2583

G1X79.7755Y-95.3860

G1X81.3825Y-95.4162

G1X85.3864Y-95.1807

G1 Z0F20000

(Start Block)


G1X18.5118Y-88.5474
G1Z5F20000
(Plotting speed under)
G1 F4000


G1X21.2402Y-88.5822

G1X23.9424Y-88.8721

G1X26.3587Y-89.3561

G1X33.1454Y-90.9835

G1X35.3658Y-91.3364

G1X37.4473Y-91.5003

G1X39.6480Y-91.4933

G1X41.9667Y-91.3060

G1X48.8258Y-90.1823

G1X51.1553Y-89.9309

G1X56.3089Y-89.9867

G1X60.3685Y-90.2139

G1X63.7604Y-90.6242

G1X67.0141Y-91.2608

G1X69.9234Y-92.0441

G1X75.0642Y-93.6792

G1X77.4687Y-94.2333

G1X78.8001Y-94.4033

G1X80.5140Y-94.4718

G1X85.0020Y-94.3023

G1 Z0F20000

(Start Block)


G1X18.3254Y-87.2778
G1Z5F20000
(Plotting speed under)
G1 F4000


G1X21.2543Y-87.3092

G1X24.1699Y-87.6156

G1X27.0379Y-88.1878

G1X33.9422Y-89.8622

G1X36.0607Y-90.2047

G1X38.1413Y-90.3734

G1X40.2260Y-90.3713

G1X42.5461Y-90.1879

G1X49.3024Y-89.0734

G1X51.5211Y-88.8255

G1X56.6896Y-88.8030

G1X60.6470Y-89.0136

G1X63.9523Y-89.4477

G1X67.0139Y-90.1081

G1X69.7989Y-90.9387

G1X74.5587Y-92.6257

G1X76.7600Y-93.1811

G1X78.1839Y-93.3726

G1X79.7449Y-93.4503

G1X84.6380Y-93.3459

G1 Z0F20000

(Start Block)


G1X18.1602Y-86.0358
G1Z5F20000
(Plotting speed under)
G1 F4000


G1X21.3027Y-86.0720

G1X24.4375Y-86.4019

G1X27.6491Y-87.0456

G1X34.6447Y-88.8017

G1X36.7544Y-89.1528

G1X38.7147Y-89.3181

G1X40.9153Y-89.3153

G1X43.1907Y-89.1259

G1X49.7914Y-88.0033

G1X52.0128Y-87.7456

G1X57.1772Y-87.6372

G1X61.0305Y-87.8312

G1X64.1420Y-88.2630

G1X67.1128Y-88.9492

G1X69.7938Y-89.8152

G1X74.3266Y-91.5699

G1X76.2422Y-92.0908

G1X77.6138Y-92.2871

G1X79.1712Y-92.3751

G1X84.3205Y-92.3233

G1 Z0F20000

(Start Block)


G1X18.0247Y-84.8198
G1Z5F20000
(Plotting speed under)
G1 F4000


G1X21.5097Y-84.8756

G1X24.9719Y-85.2661

G1X28.3028Y-85.9638

G1X35.2482Y-87.8035

G1X37.3255Y-88.1648

G1X39.2777Y-88.3344

G1X41.3624Y-88.3332

G1X43.6805Y-88.1370

G1X45.8697Y-87.8025

G1X50.2872Y-86.9635

G1X52.3994Y-86.6979

G1X57.5193Y-86.4789

G1X61.4139Y-86.6496

G1X64.4318Y-87.0837

G1X67.3106Y-87.7850

G1X69.9074Y-88.6784

G1X74.1579Y-90.4509

G1X76.0150Y-90.9902

G1X77.2461Y-91.1722

G1X78.6947Y-91.2618

G1X84.0692Y-91.2502

G1 Z0F20000

(Start Block)


G1X17.9253Y-83.6270
G1Z5F20000
(Plotting speed under)
G1 F4000


G1X21.7473Y-83.7106

G1X25.3424Y-84.1389

G1X28.6852Y-84.8692

G1X35.7450Y-86.8635

G1X37.7662Y-87.2336

G1X39.7064Y-87.4090

G1X41.8418Y-87.4030

G1X44.0568Y-87.2055

G1X46.2676Y-86.8540

G1X51.1174Y-85.8876

G1X54.1358Y-85.5495

G1X58.3229Y-85.3170

G1X61.8973Y-85.4708

G1X64.8209Y-85.9057

G1X67.7081Y-86.6465

G1X70.1391Y-87.5314

G1X74.2504Y-89.3461

G1X75.8983Y-89.8499

G1X77.0795Y-90.0350

G1X78.5205Y-90.1285

G1X83.8973Y-90.1423

G1 Z0F20000

(Start Block)


G1X17.8668Y-82.4550
G1Z5F20000
(Plotting speed under)
G1 F4000


G1X19.8724Y-82.4637

G1X22.0341Y-82.5777

G1X25.7665Y-83.0589

G1X29.2124Y-83.8711

G1X36.0446Y-85.9541

G1X38.0676Y-86.3484

G1X40.1064Y-86.5348

G1X42.2793Y-86.5142

G1X44.5148Y-86.2933

G1X46.7527Y-85.9112

G1X51.7248Y-84.8562

G1X55.7361Y-84.3489

G1X59.1196Y-84.1410

G1X62.3740Y-84.2771

G1X65.2028Y-84.7029

G1X68.0030Y-85.4380

G1X70.4885Y-86.3764

G1X74.4049Y-88.1859

G1X76.0598Y-88.7093

G1X77.1107Y-88.8780

G1X78.5603Y-88.9783

G1X83.8120Y-89.0115

G1 Z0F20000

(Start Block)


G1X17.8517Y-81.3021
G1Z5F20000
(Plotting speed under)
G1 F4000


G1X22.0765Y-81.4538

G1X24.0725Y-81.6695

G1X26.0230Y-81.9891

G1X29.4590Y-82.8542

G1X34.4549Y-84.5542

G1X36.2377Y-85.0853

G1X38.2221Y-85.4952

G1X40.2406Y-85.6877

G1X42.4834Y-85.6627

G1X44.9515Y-85.3969

G1X47.2243Y-84.9773

G1X52.1041Y-83.8659

G1X56.8713Y-83.1463

G1X59.9055Y-82.9435

G1X62.9439Y-83.0716

G1X65.7863Y-83.5136

G1X68.4971Y-84.2522

G1X70.8493Y-85.1672

G1X74.7159Y-87.0093

G1X76.3027Y-87.5277

G1X77.3359Y-87.7008

G1X78.7893Y-87.8104

G1X83.8160Y-87.8643

G1 Z0F20000

(Start Block)


G1X17.8805Y-80.1678
G1Z5F20000
(Plotting speed under)
G1 F4000


G1X20.0768Y-80.2181

G1X22.2781Y-80.3727

G1X24.3847Y-80.6266

G1X26.2168Y-80.9494

G1X29.5245Y-81.8367

G1X34.5376Y-83.6756

G1X36.2865Y-84.2348

G1X38.3340Y-84.6748

G1X40.3327Y-84.8612

G1X42.7541Y-84.8151

G1X45.4738Y-84.4820

G1X47.7880Y-84.0133

G1X52.3625Y-82.8944

G1X57.6572Y-81.9420

G1X60.5610Y-81.7202

G1X63.4992Y-81.8383

G1X66.2521Y-82.2676

G1X68.9870Y-83.0219

G1X71.3265Y-83.9497

G1X75.0840Y-85.7770

G1X76.6222Y-86.3012

G1X77.7519Y-86.5000

G1X79.2197Y-86.6217

G1X83.9079Y-86.7006

G1 Z0F20000

(Start Block)


G1X17.9517Y-79.0528
G1Z5F20000
(Plotting speed under)
G1 F4000


G1X20.0898Y-79.1271

G1X22.3236Y-79.3091

G1X24.5288Y-79.6001

G1X26.3411Y-79.9399

G1X29.6080Y-80.8779

G1X34.4976Y-82.8084

G1X36.1903Y-83.3864

G1X38.1839Y-83.8372

G1X40.2676Y-84.0341

G1X42.9946Y-83.9588

G1X45.8787Y-83.5658

G1X48.1355Y-83.0768

G1X52.6111Y-81.9129

G1X56.4814Y-81.0441

G1X58.4227Y-80.6971

G1X61.1959Y-80.4652

G1X64.0353Y-80.5736

G1X66.8087Y-81.0074

G1X69.4690Y-81.7449

G1X71.8415Y-82.6909

G1X75.6002Y-84.5285

G1X77.0821Y-85.0410

G1X78.1337Y-85.2402

G1X79.7237Y-85.3985

G1X84.0824Y-85.5143

G1 Z0F20000

(Start Block)


G1X18.0618Y-77.9589
G1Z5F20000
(Plotting speed under)
G1 F4000


G1X20.2552Y-78.0720

G1X22.4095Y-78.2841

G1X24.8127Y-78.6414

G1X26.5996Y-79.0101

G1X29.6976Y-79.9761

G1X35.6507Y-82.4272

G1X37.2696Y-82.8669

G1X38.9470Y-83.1202

G1X40.3902Y-83.1995

G1X41.8477Y-83.1769

G1X45.1741Y-82.8194

G1X48.0430Y-82.2214

G1X52.3238Y-81.0460

G1X57.9910Y-79.6182

G1X60.4619Y-79.2524

G1X62.8968Y-79.1775

G1X64.5468Y-79.2773

G1X66.1496Y-79.4846

G1X67.7819Y-79.8089

G1X69.4063Y-80.2508

G1X72.0712Y-81.2502

G1X76.2606Y-83.2648

G1X77.8057Y-83.7750

G1X80.5219Y-84.1493

G1X84.3294Y-84.2946

G1 Z0F20000

(Start Block)


G1X18.2053Y-76.8884
G1Z5F20000
(Plotting speed under)
G1 F4000


G1X22.4200Y-77.2860

G1X25.0118Y-77.7189

G1X26.6605Y-78.0839

G1X28.2005Y-78.5422

G1X29.6835Y-79.0882

G1X35.2933Y-81.5357

G1X36.8569Y-81.9809

G1X38.5977Y-82.2487

G1X40.1413Y-82.3286

G1X41.8156Y-82.2919

G1X43.6487Y-82.1331

G1X45.4850Y-81.8620

G1X48.7433Y-81.1263

G1X58.5059Y-78.3378

G1X60.8279Y-77.9545

G1X63.2723Y-77.8549

G1X64.9230Y-77.9428

G1X66.5374Y-78.1395

G1X68.1911Y-78.4545

G1X69.8451Y-78.8899

G1X72.1729Y-79.7191

G1X76.6346Y-81.8081

G1X78.3594Y-82.3953

G1X81.1221Y-82.8302

G1X84.6340Y-83.0290

G1 Z0F20000

(Start Block)


G1X18.3749Y-75.8435
G1Z5F20000
(Plotting speed under)
G1 F4000


G1X22.4450Y-76.3253

G1X26.7239Y-77.2076

G1X29.5618Y-78.2032

G1X33.5835Y-80.0942

G1X34.9488Y-80.6524

G1X36.5376Y-81.1009

G1X38.2269Y-81.3462

G1X39.9912Y-81.4201

G1X41.8869Y-81.3572

G1X43.8837Y-81.1622

G1X45.9188Y-80.8345

G1X49.6360Y-79.9153

G1X58.8869Y-77.0383

G1X61.1600Y-76.6279

G1X63.4955Y-76.5096

G1X65.1586Y-76.5798

G1X66.8923Y-76.7732

G1X68.6124Y-77.0850

G1X70.2855Y-77.5082

G1X72.7515Y-78.3605

G1X77.1256Y-80.3433

G1X78.9200Y-80.9493

G1X81.7568Y-81.4535

G1X84.9758Y-81.7061

G1 Z0F20000

(Start Block)


G1X18.5617Y-74.8251
G1Z5F20000
(Plotting speed under)
G1 F4000


G1X22.3669Y-75.3787

G1X26.7744Y-76.3747

G1X29.2801Y-77.2867

G1X33.1392Y-79.1547

G1X34.4015Y-79.6878

G1X35.9365Y-80.1355

G1X37.7449Y-80.3963

G1X39.7284Y-80.4657

G1X41.8708Y-80.3798

G1X44.0080Y-80.1570

G1X46.1876Y-79.7870

G1X48.8734Y-79.1291

G1X53.3127Y-77.7589

G1X57.7497Y-76.1576

G1X59.2327Y-75.7004

G1X61.3482Y-75.2917

G1X63.6485Y-75.1535

G1X66.7683Y-75.3403

G1X69.7946Y-75.8787

G1X71.3956Y-76.3134

G1X73.0439Y-76.8753

G1X77.4323Y-78.7640

G1X78.9221Y-79.3001

G1X82.0190Y-79.9639

G1X85.3300Y-80.3202

G1 Z0F20000

(Start Block)


G1X18.7556Y-73.8323
G1Z5F20000
(Plotting speed under)
G1 F4000


G1X22.2767Y-74.4517

G1X26.7983Y-75.5734

G1X29.0954Y-76.4389

G1X32.6839Y-78.2043

G1X33.9583Y-78.7411

G1X35.5632Y-79.1848

G1X37.2743Y-79.4057

G1X39.4208Y-79.4648

G1X41.7819Y-79.3606

G1X44.0609Y-79.1139

G1X46.2919Y-78.7217

G1X49.0246Y-78.0270

G1X53.4115Y-76.6209

G1X57.9091Y-74.8634

G1X59.4204Y-74.3619

G1X61.4979Y-73.9432

G1X63.7654Y-73.7981

G1X67.0544Y-73.9725

G1X70.3683Y-74.5372

G1X73.4952Y-75.4573

G1X77.9981Y-77.2802

G1X79.3547Y-77.7388

G1X82.5430Y-78.4653

G1X85.6701Y-78.8738

G1 Z0F20000

(Start Block)


G1X18.9462Y-72.8612
G1Z5F20000
(Plotting speed under)
G1 F4000


G1X22.0627Y-73.5069

G1X26.7730Y-74.7831

G1X28.7887Y-75.5518

G1X32.1718Y-77.2091

G1X33.4150Y-77.7284

G1X34.9854Y-78.1535

G1X36.7303Y-78.3674

G1X39.0193Y-78.4210

G1X41.6635Y-78.2994

G1X44.0685Y-78.0301

G1X46.3433Y-77.6148

G1X49.1106Y-76.8821

G1X53.5132Y-75.4137

G1X58.0350Y-73.5282

G1X59.4186Y-73.0427

G1X61.3498Y-72.6271

G1X63.6248Y-72.4590

G1X65.3432Y-72.4803

G1X67.2077Y-72.6121

G1X68.9492Y-72.8343

G1X70.7259Y-73.1663

G1X73.8284Y-74.0220

G1X78.3072Y-75.7124

G1X79.7271Y-76.1664

G1X83.0123Y-76.9407

G1X85.9715Y-77.3806

G1 Z0F20000

(Start Block)


G1X19.1240Y-71.9050
G1Z5F20000
(Plotting speed under)
G1 F4000


G1X21.9237Y-72.5760

G1X27.1099Y-74.1203

G1X28.8328Y-74.8176

G1X31.9777Y-76.3260

G1X33.1958Y-76.7839

G1X34.5509Y-77.1068

G1X36.2343Y-77.2922

G1X38.7815Y-77.3353

G1X41.4872Y-77.2015

G1X43.9331Y-76.9201

G1X46.2281Y-76.4888

G1X49.0322Y-75.7191

G1X53.5150Y-74.1616

G1X57.8839Y-72.2527

G1X59.2727Y-71.7389

G1X61.1384Y-71.3228

G1X63.3563Y-71.1473

G1X65.2579Y-71.1559

G1X67.3132Y-71.2814

G1X69.2751Y-71.5122

G1X71.0871Y-71.8320

G1X74.1516Y-72.6275

G1X79.8138Y-74.5578

G1X83.3110Y-75.3984

G1X86.2158Y-75.8645

G1 Z0F20000

(Start Block)


G1X19.2804Y-70.9530
G1Z5F20000
(Plotting speed under)
G1 F4000


G1X21.7546Y-71.6204

G1X27.0956Y-73.3249

G1X28.5313Y-73.9008

G1X31.3882Y-75.2201

G1X32.5024Y-75.6362

G1X34.0582Y-76.0042

G1X35.9058Y-76.1875

G1X38.5217Y-76.2134

G1X41.2953Y-76.0644

G1X43.7717Y-75.7644

G1X46.0126Y-75.3247

G1X48.8962Y-74.4965

G1X53.5096Y-72.8166

G1X57.6442Y-70.9626

G1X58.8849Y-70.4861

G1X60.6824Y-70.0617

G1X62.8681Y-69.8723

G1X64.9681Y-69.8644

G1X67.2195Y-69.9760

G1X69.3084Y-70.1921

G1X71.2587Y-70.5072

G1X74.3825Y-71.2656

G1X80.0190Y-73.0586

G1X83.5434Y-73.8938

G1X86.3947Y-74.3583

G1 Z0F20000

(Start Block)


G1X19.3976Y-69.9737
G1Z5F20000
(Plotting speed under)
G1 F4000


G1X21.4486Y-70.5721

G1X27.0912Y-72.4586

G1X31.9727Y-74.4673

G1X33.6400Y-74.8585

G1X35.6579Y-75.0476

G1X38.2319Y-75.0637

G1X40.9580Y-74.9127

G1X43.4380Y-74.6078

G1X45.7302Y-74.1486

G1X48.5656Y-73.3142

G1X53.5866Y-71.4276

G1X57.4109Y-69.6945

G1X58.6187Y-69.2274

G1X60.2590Y-68.8325

G1X62.3100Y-68.6393

G1X64.5973Y-68.6112

G1X67.0394Y-68.7012

G1X69.2419Y-68.8918

G1X71.3221Y-69.1883

G1X74.3878Y-69.8602

G1X78.9682Y-71.2320

G1X81.5082Y-71.8730

G1X84.1864Y-72.4572

G1X86.5328Y-72.8251

G1 Z0F20000

(Start Block)


G1X19.4719Y-68.9453
G1Z5F20000
(Plotting speed under)
G1 F4000


G1X27.1656Y-71.5128

G1X31.7227Y-73.2963

G1X33.5243Y-73.6987

G1X35.7016Y-73.8830

G1X38.3210Y-73.8807

G1X40.9674Y-73.7140

G1X43.3347Y-73.4064

G1X45.5397Y-72.9551

G1X48.4246Y-72.0952

G1X53.6149Y-70.1374

G1X58.4209Y-68.0326

G1X60.0187Y-67.6336

G1X61.9063Y-67.4413

G1X64.2655Y-67.3936

G1X66.9661Y-67.4600

G1X69.3735Y-67.6294

G1X71.5716Y-67.9025

G1X74.6616Y-68.5067

G1X79.1711Y-69.7009

G1X82.4920Y-70.4697

G1X86.6329Y-71.2213

G1 Z0F20000

(Start Block)


G1X19.5145Y-67.8718
G1Z5F20000
(Plotting speed under)
G1 F4000


G1X25.0189Y-69.7848

G1X27.3598Y-70.5100

G1X31.6455Y-72.0941

G1X33.5997Y-72.5075

G1X36.0399Y-72.6890

G1X38.5751Y-72.6635

G1X41.1136Y-72.4803

G1X43.4628Y-72.1526

G1X45.6383Y-71.6881

G1X48.2721Y-70.8991

G1X53.8203Y-68.8539

G1X58.4835Y-66.8266

G1X59.9547Y-66.4563

G1X61.6770Y-66.2671

G1X64.1328Y-66.2036

G1X67.1647Y-66.2526

G1X69.6029Y-66.3905

G1X71.9042Y-66.6324

G1X74.7794Y-67.1122

G1X83.0358Y-68.9269

G1X86.6701Y-69.5780

G1 Z0F20000

(Start Block)


G1X19.5336Y-66.7593
G1Z5F20000
(Plotting speed under)
G1 F4000


G1X24.7248Y-68.5634

G1X27.3626Y-69.3534

G1X31.6255Y-70.8321

G1X33.8608Y-71.2831

G1X36.4489Y-71.4537

G1X38.8760Y-71.4106

G1X41.2859Y-71.2178

G1X43.5990Y-70.8797

G1X45.7319Y-70.4161

G1X48.2134Y-69.6833

G1X53.9290Y-67.6750

G1X58.6053Y-65.6673

G1X59.9592Y-65.3118

G1X61.6337Y-65.1083

G1X64.0051Y-65.0328

G1X67.3789Y-65.0614

G1X70.0409Y-65.1790

G1X72.4342Y-65.3916

G1X75.8336Y-65.8944

G1X86.6344Y-67.9290

G1 Z0F20000

(Start Block)


G1X19.5346Y-65.6147
G1Z5F20000
(Plotting speed under)
G1 F4000


G1X24.8243Y-67.4142

G1X27.3828Y-68.1316

G1X31.7586Y-69.5418

G1X34.1407Y-70.0021

G1X36.9103Y-70.1720

G1X39.2101Y-70.1172

G1X41.4771Y-69.9236

G1X43.7400Y-69.5864

G1X45.9241Y-69.1123

G1X48.1491Y-68.4779

G1X54.0496Y-66.5507

G1X58.9968Y-64.4767

G1X60.3218Y-64.1403

G1X61.7654Y-63.9598

G1X64.0447Y-63.8742

G1X67.7239Y-63.8856

G1X70.5802Y-63.9818

G1X73.0526Y-64.1631

G1X75.6635Y-64.4696

G1X79.5167Y-65.0564

G1X86.5303Y-66.3064

G1 Z0F20000

(Start Block)


G1X19.5219Y-64.4453
G1Z5F20000
(Plotting speed under)
G1 F4000


G1X24.8266Y-66.1835

G1X27.5224Y-66.8861

G1X31.9999Y-68.2132

G1X34.5819Y-68.6804

G1X37.4046Y-68.8391

G1X39.5630Y-68.7797

G1X41.8765Y-68.5722

G1X44.0850Y-68.2355

G1X46.2066Y-67.7808

G1X54.1796Y-65.4734

G1X59.4851Y-63.3070

G1X60.6879Y-63.0023

G1X62.0616Y-62.8182

G1X64.3471Y-62.7213

G1X68.1972Y-62.7207

G1X73.8703Y-62.9555

G1X79.7636Y-63.6212

G1X86.3747Y-64.7357

G1 Z0F20000

(Start Block)


G1X19.4988Y-63.2584
G1Z5F20000
(Plotting speed under)
G1 F4000


G1X24.8263Y-64.9149

G1X27.6682Y-65.5916

G1X32.2787Y-66.8329

G1X35.0475Y-67.3008

G1X38.0276Y-67.4522

G1X40.1311Y-67.3838

G1X42.2955Y-67.1850

G1X44.5276Y-66.8492

G1X46.7645Y-66.3847

G1X54.0934Y-64.5031

G1X55.8069Y-63.9056

G1X59.8504Y-62.2234

G1X61.1998Y-61.8675

G1X62.6180Y-61.6719

G1X64.7948Y-61.5727

G1X68.7966Y-61.5628

G1X74.7833Y-61.7582

G1X80.1225Y-62.2625

G1X86.1916Y-63.2337

G1 Z0F20000

(Start Block)


G1X19.4685Y-62.0606
G1Z5F20000
(Plotting speed under)
G1 F4000


G1X24.8201Y-63.6190

G1X32.6632Y-65.4213

G1X35.6244Y-65.8741

G1X38.6444Y-66.0121

G1X41.6286Y-65.8761

G1X44.6459Y-65.5052

G1X47.0344Y-65.0658

G1X53.6090Y-63.6448

G1X55.9741Y-62.9299

G1X60.5436Y-61.0757

G1X61.9012Y-60.7240

G1X63.3207Y-60.5276

G1X65.4613Y-60.4255

G1X69.4160Y-60.4092

G1X75.9097Y-60.5799

G1X80.6283Y-60.9797

G1X86.0078Y-61.8082

G1 Z0F20000

(Start Block)


G1X19.4342Y-60.8583
G1Z5F20000
(Plotting speed under)
G1 F4000


G1X24.9073Y-62.3291

G1X32.9304Y-63.9405

G1X36.1891Y-64.3928

G1X39.4688Y-64.5244

G1X42.1329Y-64.4140

G1X44.8610Y-64.1302

G1X53.9112Y-62.6089

G1X56.4603Y-61.8717

G1X61.3710Y-59.9244

G1X62.7396Y-59.5796

G1X64.2712Y-59.3748

G1X66.3992Y-59.2775

G1X70.1646Y-59.2593

G1X76.9594Y-59.4075

G1X81.2045Y-59.7572

G1X85.8484Y-60.4597

G1 Z0F20000

(Start Block)


G1X19.3991Y-59.6572
G1Z5F20000
(Plotting speed under)
G1 F4000


G1X24.8840Y-61.0061

G1X33.2781Y-62.4409

G1X36.8353Y-62.8747

G1X40.3684Y-63.0032

G1X42.8033Y-62.9239

G1X45.3678Y-62.7164

G1X54.2095Y-61.5974

G1X55.4917Y-61.3008

G1X56.9511Y-60.8474

G1X62.2326Y-58.7986

G1X63.7130Y-58.4335

G1X65.2557Y-58.2316

G1X67.1667Y-58.1375

G1X70.4760Y-58.1115

G1X77.5574Y-58.2322

G1X81.5423Y-58.5538

G1X85.7334Y-59.1849

G1 Z0F20000

(Start Block)


G1X19.3667Y-58.4622
G1Z5F20000
(Plotting speed under)
G1 F4000


G1X24.9547Y-59.7029

G1X33.7034Y-60.9280

G1X37.8938Y-61.3543

G1X41.9118Y-61.4688

G1X46.5515Y-61.2768

G1X53.2975Y-60.7596

G1X54.6019Y-60.5866

G1X55.9948Y-60.2813

G1X57.5519Y-59.8157

G1X63.3241Y-57.6368

G1X64.8210Y-57.2851

G1X66.4878Y-57.0799

G1X71.3197Y-56.9672

G1X77.9358Y-57.0706

G1X81.7508Y-57.3782

G1X85.6767Y-57.9797

G1 Z0F20000

(Start Block)


G1X19.3405Y-57.2778
G1Z5F20000
(Plotting speed under)
G1 F4000


G1X25.0191Y-58.4047

G1X34.5497Y-59.4444

G1X39.8272Y-59.8650

G1X45.0175Y-59.9723

G1X53.1601Y-59.7782

G1X55.2898Y-59.5396

G1X56.7906Y-59.2084

G1X58.3738Y-58.7387

G1X64.3463Y-56.5277

G1X65.9627Y-56.1528

G1X67.6474Y-55.9467

G1X72.2138Y-55.8277

G1X78.3100Y-55.9311

G1X81.9398Y-56.2400

G1X85.6849Y-56.8415

G1 Z0F20000

(Start Block)


G1X19.3240Y-56.1078
G1Z5F20000
(Plotting speed under)
G1 F4000


G1X23.1971Y-56.8419

G1X25.0800Y-57.1194

G1X37.1029Y-58.0774

G1X44.6029Y-58.5412

G1X53.2509Y-58.7735

G1X55.3645Y-58.6056

G1X57.5846Y-58.1565

G1X59.9667Y-57.4299

G1X65.1899Y-55.5027

G1X66.8280Y-55.0944

G1X68.6246Y-54.8451

G1X72.8294Y-54.6995

G1X78.4652Y-54.8039

G1X82.1188Y-55.1405

G1X85.7574Y-55.7711

G1 Z0F20000

(Start Block)


G1X19.3201Y-54.9559
G1Z5F20000
(Plotting speed under)
G1 F4000


G1X23.0569Y-55.5962

G1X25.1415Y-55.8545

G1X35.4990Y-56.3808

G1X49.6798Y-57.5221

G1X53.6849Y-57.7603

G1X55.9370Y-57.5968

G1X58.3751Y-57.1234

G1X60.9098Y-56.3725

G1X66.4687Y-54.3807

G1X68.1369Y-53.9808

G1X69.8608Y-53.7431

G1X73.8534Y-53.5902

G1X78.7158Y-53.7098

G1X82.2555Y-54.0788

G1X85.8862Y-54.7723

G1 Z0F20000

(Start Block)


G1X19.3315Y-53.8254
G1Z5F20000
(Plotting speed under)
G1 F4000


G1X22.9282Y-54.3835

G1X25.0052Y-54.6042

G1X33.7004Y-54.7752

G1X39.3462Y-55.1066

G1X43.5775Y-55.5373

G1X51.7273Y-56.5657

G1X54.2304Y-56.7429

G1X56.6049Y-56.5790

G1X59.2619Y-56.0816

G1X61.8540Y-55.3398

G1X67.6710Y-53.3170

G1X69.3780Y-52.9129

G1X71.2588Y-52.6566

G1X75.0683Y-52.5166

G1X79.1586Y-52.6700

G1X82.5616Y-53.0957

G1X86.0559Y-53.8500

G1 Z0F20000

(Start Block)


G1X19.3598Y-52.7195
G1Z5F20000
(Plotting speed under)
G1 F4000


G1X22.9208Y-53.2207

G1X24.9831Y-53.4002

G1X33.9385Y-53.3312

G1X39.2443Y-53.5823

G1X44.0453Y-54.1456

G1X52.3941Y-55.5345

G1X54.7730Y-55.7172

G1X57.3698Y-55.5506

G1X60.1439Y-55.0539

G1X62.9247Y-54.2885

G1X69.0077Y-52.2550

G1X70.7665Y-51.8590

G1X72.7172Y-51.6086

G1X76.1421Y-51.5012

G1X79.6701Y-51.6969

G1X82.9288Y-52.1924

G1X86.2446Y-53.0080

G1 Z0F20000

(Start Block)


G1X19.4058Y-51.6419
G1Z5F20000
(Plotting speed under)
G1 F4000


G1X22.9307Y-52.0959

G1X25.0776Y-52.2417

G1X34.0494Y-51.9278

G1X36.7657Y-51.9659

G1X39.4232Y-52.1276

G1X41.9113Y-52.3967

G1X44.5042Y-52.7956

G1X52.9443Y-54.4917

G1X55.3151Y-54.6795

G1X58.0275Y-54.5335

G1X61.0200Y-54.0368

G1X63.9296Y-53.2782

G1X70.1471Y-51.2908

G1X72.0836Y-50.8701

G1X73.9913Y-50.6374

G1X77.0480Y-50.5626

G1X80.1197Y-50.7950

G1X83.2091Y-51.3518

G1X86.4257Y-52.2452

G1 Z0F20000

(Start Block)


G1X19.4690Y-50.5961
G1Z5F20000
(Plotting speed under)
G1 F4000


G1X22.8559Y-51.0045

G1X25.0571Y-51.1271

G1X34.0496Y-50.5770

G1X36.8243Y-50.5693

G1X39.4884Y-50.7119

G1X42.1126Y-51.0021

G1X44.7510Y-51.4427

G1X53.1669Y-53.3757

G1X54.4978Y-53.5511

G1X55.9745Y-53.6275

G1X58.7848Y-53.4990

G1X61.8901Y-53.0251

G1X64.9296Y-52.2838

G1X71.3157Y-50.3649

G1X73.1916Y-49.9769

G1X75.1513Y-49.7515

G1X77.8718Y-49.7161

G1X80.5815Y-49.9840

G1X83.4829Y-50.5951

G1X86.5711Y-51.5529

G1 Z0F20000

(Start Block)


G1X19.5471Y-49.5860
G1Z5F20000
(Plotting speed under)
G1 F4000


G1X22.9030Y-49.9721

G1X25.2050Y-50.0665

G1X27.0173Y-49.9588

G1X31.8593Y-49.4471

G1X34.2939Y-49.2718

G1X36.9928Y-49.2277

G1X39.7637Y-49.3615

G1X42.5256Y-49.6777

G1X45.2057Y-50.1591

G1X53.3995Y-52.2258

G1X54.9433Y-52.4522

G1X56.6387Y-52.5565

G1X59.5418Y-52.4546

G1X62.7548Y-52.0130

G1X65.8226Y-51.3265

G1X72.4249Y-49.5006

G1X74.3816Y-49.1360

G1X76.2044Y-48.9578

G1X78.6805Y-48.9704

G1X81.1184Y-49.2831

G1X83.7177Y-49.9143

G1X86.6558Y-50.9123

G1 Z0F20000

(Start Block)


G1X19.6362Y-48.6158
G1Z5F20000
(Plotting speed under)
G1 F4000


G1X22.9637Y-48.9936

G1X25.2538Y-49.0667

G1X27.1729Y-48.9176

G1X31.9545Y-48.2670

G1X34.3421Y-48.0308

G1X37.1653Y-47.9370

G1X39.9473Y-48.0487

G1X42.7304Y-48.3589

G1X45.5555Y-48.8773

G1X53.8623Y-51.0809

G1X55.6225Y-51.3459

G1X57.5404Y-51.4676

G1X60.5069Y-51.3778

G1X63.6159Y-50.9926

G1X66.7053Y-50.3691

G1X73.3059Y-48.7252

G1X75.2321Y-48.4029

G1X76.9984Y-48.2563

G1X79.2264Y-48.3011

G1X81.3822Y-48.6202

G1X83.7915Y-49.2593

G1X86.6633Y-50.2958

G1 Z0F20000

(Start Block)


G1X19.7304Y-47.6891
G1Z5F20000
(Plotting speed under)
G1 F4000


G1X23.0309Y-48.0748

G1X25.4271Y-48.1306

G1X27.5677Y-47.9129

G1X32.1948Y-47.1345

G1X34.5401Y-46.8397

G1X37.3195Y-46.6967

G1X40.1507Y-46.7791

G1X42.9425Y-47.0719

G1X45.7959Y-47.5867

G1X48.3805Y-48.2325

G1X52.9116Y-49.5589

G1X54.6655Y-49.9585

G1X56.8715Y-50.2606

G1X59.2594Y-50.3614

G1X61.6835Y-50.2665

G1X64.2695Y-49.9847

G1X67.2717Y-49.4644

G1X74.3637Y-47.9402

G1X76.5846Y-47.6663

G1X78.5680Y-47.6204

G1X80.3130Y-47.7696

G1X82.1091Y-48.1336

G1X84.0830Y-48.7275

G1X86.5902Y-49.6695

G1 Z0F20000

(Start Block)


G1X19.8214Y-46.8092
G1Z5F20000
(Plotting speed under)
G1 F4000


G1X23.1934Y-47.2293

G1X25.7131Y-47.2600

G1X27.9721Y-46.9720

G1X32.4733Y-46.0666

G1X34.5700Y-45.7328

G1X37.0639Y-45.5224

G1X39.5534Y-45.5125

G1X42.5103Y-45.7314

G1X45.3693Y-46.1705

G1X48.3235Y-46.8530

G1X54.2755Y-48.5383

G1X56.2524Y-48.9163

G1X58.2509Y-49.1386

G1X61.2491Y-49.2053

G1X64.5166Y-48.9845

G1X67.8296Y-48.5195

G1X74.5894Y-47.2870

G1X76.4044Y-47.0744

G1X78.0091Y-46.9998

G1X79.9492Y-47.0952

G1X81.6853Y-47.4019

G1X83.6867Y-47.9791

G1X86.4492Y-48.9986

G1 Z0F20000

(Start Block)


G1X19.8988Y-45.9780
G1Z5F20000
(Plotting speed under)
G1 F4000


G1X23.2333Y-46.4455

G1X24.5932Y-46.5144

G1X25.8654Y-46.4746

G1X28.2630Y-46.1270

G1X33.0992Y-45.0039

G1X35.1749Y-44.6214

G1X37.7512Y-44.3673

G1X40.4312Y-44.3483

G1X43.2873Y-44.5620

G1X46.1515Y-45.0017

G1X48.8951Y-45.6249

G1X54.9911Y-47.2924

G1X56.9794Y-47.6727

G1X58.9784Y-47.9129

G1X61.9424Y-48.0254

G1X65.0949Y-47.8835

G1X68.1841Y-47.5460

G1X74.9722Y-46.5558

G1X76.7021Y-46.4010

G1X78.3203Y-46.3590

G1X80.1145Y-46.4716

G1X81.7046Y-46.7623

G1X83.4849Y-47.2700

G1X86.2683Y-48.2527

G1 Z0F20000

(Start Block)


G1X19.9494Y-45.1877
G1Z5F20000
(Plotting speed under)
G1 F4000


G1X23.4286Y-45.7369

G1X24.8131Y-45.8023

G1X26.1084Y-45.7432

G1X28.7918Y-45.2907

G1X33.7420Y-43.9813

G1X35.9052Y-43.5249

G1X38.5654Y-43.2247

G1X41.4180Y-43.1953

G1X44.1685Y-43.3994

G1X47.0314Y-43.8305

G1X49.6674Y-44.4104

G1X55.7133Y-45.9844

G1X57.8307Y-46.3870

G1X59.8368Y-46.6394

G1X62.5606Y-46.7863

G1X65.5952Y-46.7266

G1X68.5527Y-46.4979

G1X75.2434Y-45.7684

G1X78.5592Y-45.6624

G1X80.1724Y-45.7843

G1X81.6442Y-46.0540

G1X83.2761Y-46.5015

G1X86.0807Y-47.4183

G1 Z0F20000

(Start Block)


G1X19.9626Y-44.3955
G1Z5F20000
(Plotting speed under)
G1 F4000


G1X21.7888Y-44.7768

G1X23.3747Y-44.9996

G1X24.8653Y-45.0729

G1X26.2545Y-44.9940

G1X27.6787Y-44.7763

G1X29.1936Y-44.4347

G1X34.3495Y-42.8944

G1X36.5878Y-42.3607

G1X39.3224Y-42.0184

G1X42.2471Y-41.9790

G1X45.0036Y-42.1791

G1X47.8788Y-42.6031

G1X50.4195Y-43.1445

G1X56.7701Y-44.7239

G1X58.7912Y-45.1031

G1X60.8046Y-45.3688

G1X63.4079Y-45.5455

G1X66.2003Y-45.5551

G1X69.0263Y-45.4232

G1X75.3988Y-44.9548

G1X78.6295Y-44.9289

G1X80.1113Y-45.0535

G1X81.4431Y-45.2879

G1X85.8891Y-46.5287

G1 Z0F20000

(Start Block)


G1X19.9412Y-43.5858
G1Z5F20000
(Plotting speed under)
G1 F4000


G1X21.8336Y-44.0156

G1X23.3922Y-44.2395

G1X24.9433Y-44.3026

G1X26.3665Y-44.1982

G1X27.9253Y-43.9295

G1X29.5775Y-43.5132

G1X34.9178Y-41.7250

G1X37.1138Y-41.1412

G1X39.8002Y-40.7663

G1X42.8170Y-40.7074

G1X45.6897Y-40.9058

G1X48.5895Y-41.3219

G1X51.1560Y-41.8534

G1X57.8230Y-43.4635

G1X61.7634Y-44.1119

G1X64.2471Y-44.3192

G1X66.8859Y-44.3890

G1X75.5470Y-44.1045

G1X78.6600Y-44.1539

G1X81.2106Y-44.4823

G1X85.7038Y-45.5901

G1 Z0F20000

(Start Block)


G1X19.8918Y-42.7494
G1Z5F20000
(Plotting speed under)
G1 F4000


G1X21.7359Y-43.1973

G1X23.3793Y-43.4347

G1X24.9132Y-43.4824

G1X26.4610Y-43.3459

G1X28.0566Y-43.0433

G1X29.8536Y-42.5496

G1X35.3470Y-40.5089

G1X37.3907Y-39.9034

G1X38.6744Y-39.6525

G1X40.1168Y-39.4817

G1X43.3427Y-39.4103

G1X46.3487Y-39.6168

G1X49.3715Y-40.0489

G1X51.9961Y-40.5879

G1X58.8713Y-42.2225

G1X62.8249Y-42.8922

G1X65.0779Y-43.1124

G1X67.5838Y-43.2343

G1X75.6981Y-43.2136

G1X78.5530Y-43.3206

G1X80.8547Y-43.6097

G1X85.5357Y-44.6062

G1 Z0F20000

(Start Block)


G1X19.8226Y-41.8793
G1Z5F20000
(Plotting speed under)
G1 F4000


G1X21.6209Y-42.3354

G1X23.2406Y-42.5690

G1X24.8743Y-42.6062

G1X26.5551Y-42.4318

G1X28.2989Y-42.0651

G1X30.1338Y-41.5122

G1X31.8745Y-40.8546

G1X35.6411Y-39.2604

G1X37.5850Y-38.6301

G1X38.8512Y-38.3635

G1X40.2821Y-38.1842

G1X43.5278Y-38.1007

G1X46.7722Y-38.3101

G1X50.0558Y-38.7730

G1X52.9527Y-39.3672

G1X59.9654Y-41.0227

G1X63.8780Y-41.7017

G1X68.2780Y-42.0894

G1X75.7313Y-42.2759

G1X78.4389Y-42.4308

G1X80.3922Y-42.6718

G1X85.3933Y-43.5813

G1 Z0F20000

(Start Block)


G1X19.7427Y-40.9713
G1Z5F20000
(Plotting speed under)
G1 F4000


G1X21.5010Y-41.4267

G1X23.2130Y-41.6591

G1X24.8423Y-41.6723

G1X26.5538Y-41.4734

G1X28.3935Y-41.0606

G1X30.3183Y-40.4390

G1X32.0732Y-39.7217

G1X35.8049Y-37.9952

G1X37.6092Y-37.3598

G1X38.8338Y-37.0829

G1X40.2061Y-36.8998

G1X43.6939Y-36.8040

G1X47.0835Y-37.0137

G1X50.5511Y-37.4913

G1X53.7839Y-38.1481

G1X60.9592Y-39.8370

G1X64.9242Y-40.5386

G1X68.9702Y-40.9503

G1X78.1128Y-41.4620

G1X85.2830Y-42.5203

G1 Z0F20000


G00 X0.0000 Y0.0000


