$H
G21
G17
G90
G1 Z0F20000
G1 F15000
(Start Layer)
(Start Block)

G1X19.6406Y-109.2370
G1Z6F20000
(Plotting speed under)
G1 F8000

G1X29.1088Y-106.4847
G1X32.0482Y-105.8274
G1X34.8053Y-105.3976
G1X37.7401Y-105.1755
G1X40.5987Y-105.2124
G1X43.4799Y-105.5132
G1X46.3358Y-106.0820
G1X49.2313Y-106.9508
G1X51.9743Y-108.0747
G1X54.2146Y-109.2834
G1X56.3727Y-110.8005
G1X58.3775Y-112.5308
G1X60.3238Y-114.5250
G1X62.0386Y-116.5406
G1X64.9145Y-120.2029
G1X66.0638Y-121.5126
G1X67.3100Y-122.6485
G1X68.5698Y-123.4691
G1X69.5851Y-123.9276
G1X70.6988Y-124.2725
G1X71.9248Y-124.5105
G1X73.2725Y-124.6477
G1X74.8068Y-124.6880
G1X76.4780Y-124.6261
G1X80.0826Y-124.2137
G1 Z0F20000
(Start Block)

G1X19.6357Y-108.0401
G1Z6F20000
(Plotting speed under)
G1 F8000

G1X25.3998Y-106.3197
G1X28.4544Y-105.4942
G1X31.5144Y-104.8310
G1X34.2831Y-104.4234
G1X37.2282Y-104.2239
G1X40.1765Y-104.2833
G1X43.0583Y-104.6001
G1X45.9062Y-105.1717
G1X48.7985Y-106.0292
G1X51.5735Y-107.1395
G1X53.8843Y-108.3348
G1X56.0253Y-109.7840
G1X58.0238Y-111.4477
G1X59.9769Y-113.3761
G1X61.6760Y-115.2944
G1X64.7781Y-119.0880
G1X65.9358Y-120.3521
G1X67.2040Y-121.4667
G1X68.4798Y-122.2769
G1X69.5022Y-122.7328
G1X70.6184Y-123.0787
G1X71.8416Y-123.3210
G1X73.2023Y-123.4670
G1X76.3957Y-123.4668
G1X80.0774Y-123.0715
G1 Z0F20000
(Start Block)

G1X19.6319Y-106.8553
G1Z6F20000
(Plotting speed under)
G1 F8000

G1X24.8448Y-105.2946
G1X28.0177Y-104.4540
G1X31.0902Y-103.8177
G1X33.8720Y-103.4403
G1X36.8304Y-103.2750
G1X39.7542Y-103.3638
G1X42.6375Y-103.7020
G1X45.4787Y-104.2835
G1X48.3555Y-105.1337
G1X51.1754Y-106.2432
G1X53.5550Y-107.4324
G1X55.7623Y-108.8776
G1X57.7442Y-110.4809
G1X59.6912Y-112.3430
G1X61.3706Y-114.1700
G1X64.4966Y-117.8391
G1X65.7184Y-119.1280
G1X67.0075Y-120.2324
G1X68.3850Y-121.0888
G1X69.4171Y-121.5394
G1X70.5384Y-121.8840
G1X71.7617Y-122.1285
G1X73.1381Y-122.2815
G1X76.3241Y-122.2994
G1X80.0834Y-121.9201
G1 Z0F20000
(Start Block)

G1X19.6288Y-105.6784
G1Z6F20000
(Plotting speed under)
G1 F8000

G1X24.2898Y-104.2743
G1X27.4711Y-103.4408
G1X30.4431Y-102.8402
G1X33.3460Y-102.4663
G1X36.1988Y-102.3276
G1X39.1257Y-102.4307
G1X42.0065Y-102.7770
G1X44.9445Y-103.3824
G1X47.8066Y-104.2239
G1X50.6855Y-105.3370
G1X53.2241Y-106.5684
G1X55.4098Y-107.9459
G1X57.3797Y-109.4818
G1X59.2961Y-111.2432
G1X61.0541Y-113.0775
G1X64.2697Y-116.6853
G1X65.4901Y-117.9173
G1X66.8872Y-119.0656
G1X68.2881Y-119.9023
G1X69.3325Y-120.3452
G1X70.4617Y-120.6862
G1X71.8044Y-120.9484
G1X73.1882Y-121.0967
G1X76.3717Y-121.1167
G1X80.1039Y-120.7568
G1 Z0F20000
(Start Block)

G1X19.6260Y-104.5053
G1Z6F20000
(Plotting speed under)
G1 F8000

G1X23.8444Y-103.2245
G1X26.9226Y-102.4246
G1X29.9032Y-101.8372
G1X32.7025Y-101.4935
G1X35.5617Y-101.3707
G1X38.4921Y-101.4903
G1X41.3717Y-101.8493
G1X44.3023Y-102.4594
G1X47.2566Y-103.3275
G1X50.0906Y-104.4092
G1X52.9654Y-105.7759
G1X55.0532Y-107.0483
G1X57.0095Y-108.5175
G1X58.9636Y-110.2462
G1X60.6552Y-111.9362
G1X63.9634Y-115.4739
G1X65.2528Y-116.7175
G1X66.6782Y-117.8435
G1X68.1919Y-118.7151
G1X69.2510Y-119.1479
G1X70.4987Y-119.5089
G1X71.7393Y-119.7434
G1X73.1439Y-119.8953
G1X76.4344Y-119.9222
G1X80.1420Y-119.5790
G1 Z0F20000
(Start Block)

G1X19.6232Y-103.3322
G1Z6F20000
(Plotting speed under)
G1 F8000

G1X23.5085Y-102.1424
G1X26.5921Y-101.3521
G1X29.4706Y-100.8067
G1X32.1665Y-100.4979
G1X34.9178Y-100.3986
G1X37.7501Y-100.5269
G1X40.6273Y-100.8933
G1X43.4460Y-101.4791
G1X46.3884Y-102.3293
G1X49.3130Y-103.4202
G1X52.3747Y-104.8362
G1X54.6076Y-106.1228
G1X56.4878Y-107.4677
G1X58.4609Y-109.1266
G1X60.2463Y-110.8236
G1X63.5749Y-114.2081
G1X65.0088Y-115.5264
G1X66.4654Y-116.6247
G1X68.0041Y-117.4817
G1X69.0741Y-117.9110
G1X70.3278Y-118.2726
G1X71.6852Y-118.5288
G1X73.1135Y-118.6823
G1X76.4099Y-118.7179
G1X80.2007Y-118.3841
G1 Z0F20000
(Start Block)

G1X19.6199Y-102.1551
G1Z6F20000
(Plotting speed under)
G1 F8000

G1X23.1716Y-101.0559
G1X26.0386Y-100.3206
G1X28.8107Y-99.7968
G1X31.5109Y-99.4934
G1X34.2664Y-99.4063
G1X37.0002Y-99.5421
G1X39.7723Y-99.9004
G1X42.5850Y-100.4846
G1X45.5181Y-101.3260
G1X48.5346Y-102.4372
G1X51.6820Y-103.8649
G1X54.2169Y-105.2596
G1X56.0616Y-106.5255
G1X58.0325Y-108.1095
G1X63.2483Y-113.0278
G1X64.6732Y-114.2717
G1X66.2506Y-115.4074
G1X67.8182Y-116.2451
G1X68.9022Y-116.6680
G1X70.1656Y-117.0273
G1X71.5262Y-117.2856
G1X72.9931Y-117.4479
G1X76.4065Y-117.4963
G1X80.2823Y-117.1695
G1 Z0F20000
(Start Block)

G1X19.6158Y-100.9702
G1Z6F20000
(Plotting speed under)
G1 F8000

G1X22.8332Y-99.9616
G1X25.7028Y-99.2277
G1X28.3690Y-98.7366
G1X30.9620Y-98.4597
G1X33.6069Y-98.3895
G1X36.2416Y-98.5305
G1X39.0130Y-98.8984
G1X41.7179Y-99.4665
G1X44.7485Y-100.3402
G1X47.7540Y-101.4479
G1X50.8884Y-102.8524
G1X53.7966Y-104.3957
G1X55.6299Y-105.6014
G1X57.5979Y-107.1121
G1X62.8398Y-111.7920
G1X64.3304Y-113.0249
G1X65.9443Y-114.1349
G1X67.6360Y-115.0036
G1X68.8399Y-115.4506
G1X70.1237Y-115.7966
G1X71.4597Y-116.0406
G1X72.9960Y-116.2059
G1X76.4259Y-116.2552
G1X80.3890Y-115.9328
G1 Z0F20000
(Start Block)

G1X19.6102Y-99.7737
G1Z6F20000
(Plotting speed under)
G1 F8000

G1X22.6032Y-98.8247
G1X25.2531Y-98.1447
G1X27.8102Y-97.6734
G1X30.2923Y-97.4096
G1X32.8227Y-97.3426
G1X35.4740Y-97.4873
G1X38.0381Y-97.8281
G1X40.7393Y-98.3909
G1X43.7653Y-99.2590
G1X46.8683Y-100.3987
G1X50.0937Y-101.8361
G1X53.3709Y-103.5393
G1X55.1934Y-104.6884
G1X57.0760Y-106.0644
G1X62.3457Y-110.5043
G1X63.9822Y-111.7841
G1X65.7288Y-112.9162
G1X67.4588Y-113.7553
G1X68.6839Y-114.1899
G1X69.9836Y-114.5283
G1X71.4687Y-114.7886
G1X73.0183Y-114.9463
G1X76.5736Y-114.9887
G1X80.5224Y-114.6713
G1 Z0F20000
(Start Block)

G1X19.6028Y-98.5621
G1Z6F20000
(Plotting speed under)
G1 F8000

G1X22.3707Y-97.6731
G1X24.9102Y-97.0195
G1X27.3577Y-96.5719
G1X29.7291Y-96.3251
G1X32.1460Y-96.2658
G1X34.5952Y-96.3991
G1X37.0543Y-96.7199
G1X39.6487Y-97.2513
G1X42.7768Y-98.1417
G1X45.9799Y-99.3203
G1X49.1997Y-100.7554
G1X52.8474Y-102.6301
G1X54.6643Y-103.7217
G1X56.5498Y-105.0301
G1X61.8417Y-109.2307
G1X63.5368Y-110.4832
G1X65.4209Y-111.6417
G1X67.1869Y-112.4594
G1X68.5369Y-112.9179
G1X69.8557Y-113.2461
G1X71.3950Y-113.5058
G1X72.9538Y-113.6595
G1X76.5389Y-113.7058
G1X80.6838Y-113.3824
G1 Z0F20000
(Start Block)

G1X19.5928Y-97.3317
G1Z6F20000
(Plotting speed under)
G1 F8000

G1X22.1351Y-96.5036
G1X24.5629Y-95.8736
G1X26.8994Y-95.4459
G1X29.1584Y-95.2115
G1X31.4603Y-95.1553
G1X33.8084Y-95.2821
G1X36.1640Y-95.5874
G1X38.6537Y-96.0931
G1X41.6779Y-96.9463
G1X44.7815Y-98.0772
G1X48.0094Y-99.5030
G1X51.6701Y-101.3659
G1X53.6881Y-102.4859
G1X55.6865Y-103.7706
G1X61.4112Y-108.0278
G1X63.1806Y-109.2501
G1X65.0154Y-110.3143
G1X66.8158Y-111.1172
G1X68.1837Y-111.5722
G1X69.6264Y-111.9254
G1X71.1357Y-112.1782
G1X72.8017Y-112.3444
G1X76.5308Y-112.3964
G1X80.8739Y-112.0635
G1 Z0F20000
(Start Block)

G1X19.5795Y-96.0792
G1Z6F20000
(Plotting speed under)
G1 F8000

G1X22.0060Y-95.2802
G1X24.2107Y-94.7044
G1X26.4346Y-94.2929
G1X28.5798Y-94.0668
G1X30.8818Y-94.0107
G1X33.1132Y-94.1341
G1X35.3668Y-94.4272
G1X37.7534Y-94.9117
G1X40.4670Y-95.6674
G1X43.2696Y-96.6626
G1X46.1193Y-97.8803
G1X49.1647Y-99.3767
G1X52.7977Y-101.3230
G1X54.6456Y-102.4244
G1X60.8957Y-106.7706
G1X62.7263Y-107.9565
G1X64.6070Y-108.9854
G1X66.4453Y-109.7679
G1X67.9442Y-110.2457
G1X69.4077Y-110.5891
G1X70.9921Y-110.8447
G1X72.7768Y-111.0139
G1X76.6523Y-111.0549
G1X81.0931Y-110.7117
G1 Z0F20000
(Start Block)

G1X19.5622Y-94.8011
G1Z6F20000
(Plotting speed under)
G1 F8000

G1X21.8719Y-94.0319
G1X23.9632Y-93.4841
G1X26.0748Y-93.0944
G1X28.1067Y-92.8814
G1X30.1773Y-92.8266
G1X32.3058Y-92.9345
G1X34.4555Y-93.2034
G1X36.7384Y-93.6545
G1X39.2464Y-94.3352
G1X41.7476Y-95.1956
G1X44.3152Y-96.2543
G1X47.0118Y-97.5365
G1X53.9436Y-101.3065
G1X60.2919Y-105.4622
G1X62.1683Y-106.6062
G1X64.0945Y-107.6061
G1X65.9693Y-108.3734
G1X67.4896Y-108.8467
G1X69.0826Y-109.2138
G1X70.8636Y-109.4906
G1X72.6629Y-109.6520
G1X76.6963Y-109.6862
G1X81.3409Y-109.3242
G1 Z0F20000
(Start Block)

G1X19.5396Y-93.4944
G1Z6F20000
(Plotting speed under)
G1 F8000

G1X21.7320Y-92.7556
G1X23.7090Y-92.2345
G1X25.7069Y-91.8639
G1X27.6244Y-91.6607
G1X29.6949Y-91.6064
G1X31.6903Y-91.7094
G1X33.7389Y-91.9647
G1X35.9203Y-92.3933
G1X38.1189Y-92.9794
G1X40.4208Y-93.7496
G1X42.8012Y-94.7042
G1X45.2296Y-95.8297
G1X47.9620Y-97.2483
G1X53.3456Y-100.2345
G1X61.2948Y-105.0893
G1X63.4726Y-106.1783
G1X65.4910Y-106.9719
G1X67.1485Y-107.4656
G1X68.8238Y-107.8328
G1X70.5421Y-108.0903
G1X72.4575Y-108.2582
G1X74.5903Y-108.3241
G1X76.7653Y-108.2844
G1X81.6164Y-107.8979
G1 Z0F20000
(Start Block)

G1X19.5106Y-92.1558
G1Z6F20000
(Plotting speed under)
G1 F8000

G1X21.4756Y-91.4815
G1X23.4468Y-90.9527
G1X25.3300Y-90.5992
G1X27.1320Y-90.4029
G1X29.0849Y-90.3436
G1X31.0625Y-90.4389
G1X33.0094Y-90.6763
G1X35.0893Y-91.0776
G1X37.1881Y-91.6282
G1X39.3942Y-92.3562
G1X41.5818Y-93.2206
G1X43.8308Y-94.2470
G1X47.9355Y-96.4178
G1X53.6562Y-99.6453
G1X60.2276Y-103.4857
G1X62.6297Y-104.6568
G1X64.9007Y-105.5261
G1X66.5826Y-106.0138
G1X68.3938Y-106.4020
G1X70.3350Y-106.6803
G1X72.3774Y-106.8441
G1X74.5239Y-106.8990
G1X76.8578Y-106.8473
G1X81.9181Y-106.4300
G1 Z0F20000
(Start Block)

G1X19.4734Y-90.7825
G1Z6F20000
(Plotting speed under)
G1 F8000

G1X21.3200Y-90.1403
G1X23.1750Y-89.6363
G1X24.9426Y-89.2980
G1X26.7416Y-89.0979
G1X28.5784Y-89.0396
G1X30.4211Y-89.1221
G1X32.3689Y-89.3533
G1X34.3484Y-89.7302
G1X36.3481Y-90.2478
G1X38.4587Y-90.9353
G1X40.5562Y-91.7547
G1X42.6207Y-92.6861
G1X46.0069Y-94.4501
G1X51.1663Y-97.4399
G1X58.8312Y-101.7263
G1X61.6641Y-103.0880
G1X64.3056Y-104.0721
G1X66.1301Y-104.5781
G1X68.0680Y-104.9710
G1X70.0330Y-105.2358
G1X72.2017Y-105.3962
G1X74.4758Y-105.4414
G1X76.8681Y-105.3775
G1X82.2436Y-104.9172
G1 Z0F20000
(Start Block)

G1X19.4262Y-89.3716
G1Z6F20000
(Plotting speed under)
G1 F8000

G1X21.1540Y-88.7625
G1X22.8920Y-88.2827
G1X24.6542Y-87.9411
G1X26.3377Y-87.7516
G1X28.1734Y-87.6921
G1X29.9674Y-87.7742
G1X31.8160Y-87.9942
G1X33.6959Y-88.3499
G1X35.5972Y-88.8369
G1X37.6129Y-89.4856
G1X39.6202Y-90.2607
G1X41.6395Y-91.1637
G1X44.8307Y-92.8195
G1X51.3004Y-96.6379
G1X57.3117Y-99.9158
G1X60.5730Y-101.4682
G1X63.5933Y-102.5730
G1X65.5413Y-103.0958
G1X67.5432Y-103.4876
G1X69.6317Y-103.7573
G1X71.9263Y-103.9148
G1X74.3268Y-103.9505
G1X76.8970Y-103.8689
G1X82.5900Y-103.3566
G1 Z0F20000
(Start Block)

G1X19.3665Y-87.9207
G1Z6F20000
(Plotting speed under)
G1 F8000

G1X21.0826Y-87.3113
G1X22.7044Y-86.8639
G1X24.3509Y-86.5433
G1X26.0314Y-86.3540
G1X27.7516Y-86.2987
G1X29.4962Y-86.3770
G1X31.2447Y-86.5821
G1X33.0247Y-86.9123
G1X34.9339Y-87.3945
G1X36.8548Y-88.0063
G1X38.7982Y-88.7487
G1X40.8244Y-89.6489
G1X44.1382Y-91.3766
G1X51.0684Y-95.5597
G1X55.5745Y-97.9895
G1X59.4296Y-99.8218
G1X62.8376Y-101.0499
G1X64.8911Y-101.5847
G1X67.0188Y-101.9853
G1X69.2350Y-102.2553
G1X71.6597Y-102.4045
G1X74.1736Y-102.4253
G1X76.8375Y-102.3255
G1X79.8032Y-102.0957
G1X82.9536Y-101.7453
G1 Z0F20000
(Start Block)

G1X19.2915Y-86.4273
G1Z6F20000
(Plotting speed under)
G1 F8000

G1X21.2083Y-85.7524
G1X23.0430Y-85.2824
G1X24.9189Y-84.9836
G1X26.7329Y-84.8633
G1X28.6995Y-84.9074
G1X30.6522Y-85.1163
G1X32.7553Y-85.5103
G1X34.8923Y-86.0774
G1X38.2228Y-87.2734
G1X41.7300Y-88.9169
G1X44.9256Y-90.7190
G1X51.2275Y-94.6308
G1X56.3149Y-97.2736
G1X58.4086Y-98.2095
G1X60.4135Y-98.9775
G1X62.3524Y-99.5874
G1X64.3396Y-100.0767
G1X66.2863Y-100.4306
G1X68.3001Y-100.6795
G1X70.3861Y-100.8275
G1X72.6611Y-100.8800
G1X77.6293Y-100.6820
G1X83.3300Y-100.0805
G1 Z0F20000
(Start Block)

G1X19.1978Y-84.8895
G1Z6F20000
(Plotting speed under)
G1 F8000

G1X20.9921Y-84.2493
G1X22.8153Y-83.7782
G1X24.6856Y-83.4838
G1X26.4996Y-83.3721
G1X28.3872Y-83.4236
G1X30.3480Y-83.6424
G1X32.3573Y-84.0264
G1X34.5095Y-84.6039
G1X37.9101Y-85.8428
G1X41.4492Y-87.5301
G1X44.6448Y-89.3662
G1X50.9444Y-93.3642
G1X55.1644Y-95.5672
G1X57.3859Y-96.5631
G1X59.4175Y-97.3418
G1X61.4773Y-97.9887
G1X63.5865Y-98.5020
G1X65.6563Y-98.8685
G1X67.7958Y-99.1194
G1X70.0101Y-99.2599
G1X72.4158Y-99.2957
G1X77.5916Y-99.0478
G1X83.7139Y-98.3597
G1 Z0F20000
(Start Block)

G1X19.0815Y-83.3056
G1Z6F20000
(Plotting speed under)
G1 F8000

G1X20.8584Y-82.6685
G1X22.5631Y-82.2285
G1X24.4263Y-81.9374
G1X26.2399Y-81.8327
G1X28.1499Y-81.8960
G1X30.1220Y-82.1302
G1X32.1471Y-82.5331
G1X34.2102Y-83.0997
G1X37.6728Y-84.3813
G1X41.2488Y-86.1143
G1X44.4732Y-87.9991
G1X50.7816Y-92.0759
G1X54.3105Y-93.9366
G1X56.5611Y-94.9480
G1X58.7169Y-95.7682
G1X60.8028Y-96.4116
G1X62.9363Y-96.9187
G1X65.0268Y-97.2778
G1X67.2928Y-97.5297
G1X69.6364Y-97.6602
G1X72.0902Y-97.6766
G1X74.7375Y-97.5793
G1X77.5583Y-97.3682
G1X84.0994Y-96.5810
G1 Z0F20000
(Start Block)

G1X18.9380Y-81.6744
G1Z6F20000
(Plotting speed under)
G1 F8000

G1X20.6958Y-81.0416
G1X22.3891Y-80.6104
G1X24.1367Y-80.3437
G1X25.9490Y-80.2441
G1X27.8814Y-80.3168
G1X29.8655Y-80.5632
G1X31.9079Y-80.9811
G1X33.9232Y-81.5438
G1X37.4124Y-82.8476
G1X41.0342Y-84.6188
G1X44.3853Y-86.6024
G1X50.5507Y-90.6489
G1X53.6656Y-92.3236
G1X55.8446Y-93.3101
G1X58.0260Y-94.1422
G1X60.1352Y-94.7900
G1X62.2905Y-95.2965
G1X64.5062Y-95.6662
G1X66.7915Y-95.9055
G1X69.2642Y-96.0247
G1X71.8325Y-96.0187
G1X74.4900Y-95.8970
G1X77.4192Y-95.6523
G1X84.4802Y-94.7429
G1 Z0F20000
(Start Block)

G1X18.7622Y-79.9951
G1Z6F20000
(Plotting speed under)
G1 F8000

G1X20.4989Y-79.3681
G1X22.1797Y-78.9460
G1X23.9224Y-78.6912
G1X25.7373Y-78.6056
G1X27.5762Y-78.6855
G1X29.5729Y-78.9408
G1X31.6338Y-79.3694
G1X33.6858Y-79.9492
G1X35.4523Y-80.5638
G1X37.3192Y-81.3250
G1X40.9891Y-83.1441
G1X44.2913Y-85.1183
G1X50.4228Y-89.1812
G1X53.3353Y-90.7687
G1X55.4399Y-91.7202
G1X57.5473Y-92.5194
G1X59.6812Y-93.1668
G1X61.8604Y-93.6663
G1X64.0984Y-94.0242
G1X66.5149Y-94.2556
G1X69.0077Y-94.3502
G1X71.6751Y-94.3154
G1X74.4470Y-94.1564
G1X77.4869Y-93.8666
G1X84.8490Y-92.8443
G1 Z0F20000
(Start Block)

G1X18.5481Y-78.2677
G1Z6F20000
(Plotting speed under)
G1 F8000

G1X20.1596Y-77.6795
G1X21.8229Y-77.2565
G1X23.5553Y-77.0024
G1X25.3674Y-76.9186
G1X27.2282Y-77.0025
G1X29.2377Y-77.2627
G1X31.3184Y-77.6976
G1X33.4094Y-78.2896
G1X35.2008Y-78.9132
G1X37.0965Y-79.6859
G1X40.8274Y-81.5340
G1X44.1858Y-83.5424
G1X50.3960Y-87.6698
G1X53.1224Y-89.1686
G1X55.2537Y-90.1278
G1X57.2864Y-90.8883
G1X59.3432Y-91.5025
G1X61.4401Y-91.9754
G1X63.6972Y-92.3276
G1X66.1305Y-92.5479
G1X68.6362Y-92.6272
G1X71.4136Y-92.5689
G1X74.2942Y-92.3756
G1X77.3339Y-92.0547
G1X85.1981Y-90.8854
G1 Z0F20000
(Start Block)

G1X18.2893Y-76.4929
G1Z6F20000
(Plotting speed under)
G1 F8000

G1X19.8770Y-75.9133
G1X21.5250Y-75.5005
G1X23.2504Y-75.2571
G1X25.0642Y-75.1840
G1X26.9345Y-75.2781
G1X28.9615Y-75.5487
G1X31.0947Y-76.0011
G1X33.1869Y-76.5969
G1X35.0065Y-77.2305
G1X36.9343Y-78.0149
G1X40.7328Y-79.8906
G1X44.1533Y-81.9290
G1X50.4680Y-86.1107
G1X53.0251Y-87.5163
G1X55.0835Y-88.4400
G1X57.1438Y-89.2037
G1X59.1220Y-89.7852
G1X61.2419Y-90.2525
G1X63.5208Y-90.5924
G1X65.9735Y-90.7940
G1X68.6103Y-90.8498
G1X71.3498Y-90.7606
G1X74.2353Y-90.5342
G1X77.3774Y-90.1656
G1X85.5195Y-88.8668
G1 Z0F20000
(Start Block)

G1X17.9783Y-74.6723
G1Z6F20000
(Plotting speed under)
G1 F8000

G1X19.5407Y-74.1034
G1X21.1719Y-73.7015
G1X22.8896Y-73.4682
G1X24.7045Y-73.4041
G1X26.6896Y-73.5157
G1X28.7396Y-73.8016
G1X30.8885Y-74.2648
G1X33.0142Y-74.8728
G1X34.8655Y-75.5170
G1X36.8176Y-76.3080
G1X40.7127Y-78.2195
G1X44.1904Y-80.2765
G1X50.4525Y-84.3860
G1X53.0399Y-85.8053
G1X55.0266Y-86.6898
G1X57.0124Y-87.4208
G1X59.0159Y-88.0038
G1X61.1595Y-88.4655
G1X63.4598Y-88.7929
G1X65.9307Y-88.9757
G1X68.5476Y-89.0074
G1X71.3789Y-88.8858
G1X74.2654Y-88.6258
G1X77.4000Y-88.2213
G1X85.8049Y-86.7904
G1 Z0F20000
(Start Block)

G1X17.6075Y-72.8086
G1Z6F20000
(Plotting speed under)
G1 F8000

G1X19.2409Y-72.2233
G1X20.8596Y-71.8437
G1X22.5751Y-71.6306
G1X24.3972Y-71.5839
G1X26.3815Y-71.7086
G1X28.4555Y-72.0050
G1X30.6213Y-72.4729
G1X32.7828Y-73.0865
G1X34.6686Y-73.7351
G1X36.6480Y-74.5256
G1X40.6281Y-76.4470
G1X44.1550Y-78.4964
G1X50.6158Y-82.6588
G1X53.1164Y-84.0073
G1X55.0782Y-84.8690
G1X57.0961Y-85.5989
G1X59.1284Y-86.1744
G1X61.1891Y-86.6034
G1X63.5106Y-86.9182
G1X65.9982Y-87.0822
G1X68.6593Y-87.0889
G1X71.3928Y-86.9444
G1X74.2742Y-86.6562
G1X77.3955Y-86.2208
G1X86.0459Y-84.6591
G1 Z0F20000
(Start Block)

G1X17.1683Y-70.9057
G1Z6F20000
(Plotting speed under)
G1 F8000

G1X18.7714Y-70.3368
G1X20.3713Y-69.9699
G1X22.0774Y-69.7660
G1X24.0175Y-69.7269
G1X26.0010Y-69.8606
G1X28.1562Y-70.1724
G1X30.3864Y-70.6537
G1X32.5882Y-71.2730
G1X34.5957Y-71.9556
G1X36.6057Y-72.7487
G1X40.5816Y-74.6326
G1X44.1956Y-76.6847
G1X50.6695Y-80.7535
G1X53.3236Y-82.1521
G1X55.3394Y-83.0123
G1X57.2848Y-83.6947
G1X59.2389Y-84.2339
G1X61.3242Y-84.6559
G1X63.6666Y-84.9579
G1X66.1691Y-85.1036
G1X68.7544Y-85.0898
G1X71.5882Y-84.9142
G1X74.3579Y-84.6096
G1X77.4603Y-84.1460
G1X86.2343Y-82.4771
G1 Z0F20000
(Start Block)

G1X16.6517Y-68.9691
G1Z6F20000
(Plotting speed under)
G1 F8000

G1X18.2039Y-68.4249
G1X19.8027Y-68.0666
G1X21.4981Y-67.8714
G1X23.4372Y-67.8353
G1X25.5380Y-67.9770
G1X27.7044Y-68.2855
G1X29.9675Y-68.7602
G1X32.3045Y-69.3986
G1X34.3416Y-70.0717
G1X36.3968Y-70.8578
G1X40.4712Y-72.7270
G1X44.1838Y-74.7664
G1X50.8139Y-78.7925
G1X53.4160Y-80.1242
G1X55.4139Y-80.9615
G1X57.4593Y-81.6661
G1X59.4439Y-82.2004
G1X61.4432Y-82.5960
G1X63.8047Y-82.8931
G1X66.3183Y-83.0292
G1X68.9230Y-83.0011
G1X71.6490Y-82.8160
G1X74.4036Y-82.4955
G1X77.4815Y-82.0125
G1X86.3622Y-80.2497
G1 Z0F20000
(Start Block)

G1X16.0486Y-67.0057
G1Z6F20000
(Plotting speed under)
G1 F8000

G1X17.5679Y-66.4840
G1X19.2461Y-66.1253
G1X21.0477Y-65.9420
G1X22.9681Y-65.9254
G1X25.0920Y-66.0765
G1X27.2604Y-66.3815
G1X29.5610Y-66.8491
G1X32.0162Y-67.4970
G1X36.2008Y-68.9358
G1X40.3789Y-70.7793
G1X44.1029Y-72.7406
G1X50.8747Y-76.6792
G1X53.6626Y-78.0487
G1X55.7071Y-78.8730
G1X57.7295Y-79.5452
G1X59.7308Y-80.0668
G1X61.7555Y-80.4531
G1X64.1377Y-80.7375
G1X66.5474Y-80.8563
G1X69.1523Y-80.8176
G1X71.8687Y-80.6192
G1X74.6048Y-80.2841
G1X77.5519Y-79.8028
G1X86.4221Y-77.9833
G1 Z0F20000
(Start Block)

G1X15.4222Y-65.1063
G1Z6F20000
(Plotting speed under)
G1 F8000

G1X16.9100Y-64.6071
G1X18.5652Y-64.2639
G1X20.3532Y-64.0873
G1X22.3717Y-64.0715
G1X24.5086Y-64.2187
G1X26.8898Y-64.5435
G1X29.2293Y-65.0048
G1X31.6928Y-65.6297
G1X35.8614Y-66.9960
G1X40.1406Y-68.7908
G1X43.9691Y-70.7095
G1X51.0626Y-74.6378
G1X53.9586Y-75.9870
G1X56.0474Y-76.7907
G1X58.0100Y-77.4154
G1X60.0752Y-77.9314
G1X62.1243Y-78.3021
G1X64.5260Y-78.5671
G1X66.9458Y-78.6651
G1X69.5012Y-78.6054
G1X72.1237Y-78.3935
G1X74.8399Y-78.0391
G1X77.7570Y-77.5367
G1X86.4075Y-75.6845
G1 Z0F20000
(Start Block)

G1X14.8531Y-63.3450
G1Z6F20000
(Plotting speed under)
G1 F8000

G1X16.4218Y-62.8362
G1X18.0459Y-62.5190
G1X19.9389Y-62.3500
G1X21.9357Y-62.3456
G1X24.2012Y-62.5049
G1X26.5696Y-62.8223
G1X29.0026Y-63.2871
G1X31.5056Y-63.9001
G1X35.7464Y-65.2374
G1X40.0659Y-66.9757
G1X44.0151Y-68.8723
G1X51.1218Y-72.6316
G1X54.2124Y-74.0074
G1X56.3395Y-74.7897
G1X58.3332Y-75.3939
G1X60.3105Y-75.8642
G1X62.3147Y-76.2101
G1X64.7321Y-76.4593
G1X67.1588Y-76.5381
G1X69.7123Y-76.4549
G1X72.3071Y-76.2178
G1X74.9031Y-75.8500
G1X77.7896Y-75.3177
G1X86.3135Y-73.3693
G1 Z0F20000
(Start Block)

G1X14.3544Y-61.7059
G1Z6F20000
(Plotting speed under)
G1 F8000

G1X15.7889Y-61.2404
G1X17.4799Y-60.9065
G1X19.3759Y-60.7350
G1X21.4651Y-60.7254
G1X23.7346Y-60.8746
G1X26.2033Y-61.1875
G1X28.7314Y-61.6485
G1X31.2626Y-62.2414
G1X35.5481Y-63.5327
G1X39.9140Y-65.2116
G1X43.9662Y-67.0725
G1X51.1541Y-70.7105
G1X54.4359Y-72.1121
G1X56.4939Y-72.8398
G1X58.5153Y-73.4294
G1X60.5146Y-73.8835
G1X62.5026Y-74.2064
G1X64.8832Y-74.4293
G1X67.3144Y-74.4842
G1X69.8638Y-74.3712
G1X72.4290Y-74.1017
G1X75.0032Y-73.6966
G1X77.8559Y-73.1196
G1X86.1393Y-71.0592
G1 Z0F20000
(Start Block)

G1X13.9352Y-60.1749
G1Z6F20000
(Plotting speed under)
G1 F8000

G1X15.4529Y-59.6933
G1X17.1341Y-59.3753
G1X19.0027Y-59.2129
G1X21.0709Y-59.2008
G1X23.4380Y-59.3473
G1X25.9026Y-59.6447
G1X28.4195Y-60.0799
G1X31.0713Y-60.6716
G1X35.4623Y-61.9407
G1X39.8796Y-63.5733
G1X43.8865Y-65.3385
G1X51.2688Y-68.9194
G1X54.6400Y-70.3023
G1X56.7242Y-71.0093
G1X58.7675Y-71.5768
G1X60.6836Y-71.9883
G1X62.6848Y-72.2910
G1X65.1077Y-72.4871
G1X67.5404Y-72.5058
G1X69.9673Y-72.3608
G1X72.6150Y-72.0359
G1X75.1308Y-71.5873
G1X77.9601Y-70.9494
G1X85.8887Y-68.7743
G1 Z0F20000
(Start Block)

G1X13.6010Y-58.7394
G1Z6F20000
(Plotting speed under)
G1 F8000

G1X15.0968Y-58.2651
G1X16.7569Y-57.9486
G1X18.6055Y-57.7811
G1X20.7582Y-57.7595
G1X23.1332Y-57.8940
G1X25.6724Y-58.1826
G1X28.2714Y-58.6117
G1X30.9369Y-59.1816
G1X35.4215Y-60.4275
G1X39.8767Y-62.0139
G1X43.9255Y-63.7321
G1X51.3805Y-67.2108
G1X54.8345Y-68.5780
G1X56.9402Y-69.2646
G1X58.8987Y-69.7857
G1X60.8289Y-70.1800
G1X62.8400Y-70.4613
G1X65.1856Y-70.6237
G1X67.6167Y-70.6114
G1X70.0341Y-70.4291
G1X72.6619Y-70.0568
G1X75.1488Y-69.5576
G1X77.9334Y-68.8578
G1X85.5694Y-66.5326
G1 Z0F20000
(Start Block)

G1X13.3545Y-57.3891
G1Z6F20000
(Plotting speed under)
G1 F8000

G1X14.8306Y-56.9177
G1X16.4699Y-56.5992
G1X18.4044Y-56.4190
G1X20.5296Y-56.3912
G1X22.8938Y-56.5118
G1X25.5157Y-56.7920
G1X28.1907Y-57.2142
G1X30.8629Y-57.7632
G1X35.3320Y-58.9563
G1X39.9102Y-60.5278
G1X43.9895Y-62.2006
G1X51.3972Y-65.5411
G1X55.0279Y-66.9384
G1X57.0460Y-67.5754
G1X59.0193Y-68.0821
G1X60.9601Y-68.4590
G1X62.8778Y-68.7085
G1X65.2431Y-68.8476
G1X67.6701Y-68.8021
G1X70.1893Y-68.5650
G1X72.6798Y-68.1562
G1X75.1340Y-67.6019
G1X77.7603Y-66.8676
G1X85.1922Y-64.3497
G1 Z0F20000
(Start Block)

G1X13.1960Y-56.1155
G1Z6F20000
(Plotting speed under)
G1 F8000

G1X14.6547Y-55.6428
G1X16.3879Y-55.3025
G1X18.2908Y-55.1228
G1X20.3860Y-55.0873
G1X22.7351Y-55.1937
G1X25.3276Y-55.4514
G1X27.9779Y-55.8450
G1X30.7463Y-56.3860
G1X35.2933Y-57.5527
G1X39.8865Y-59.0743
G1X43.9901Y-60.7008
G1X51.6266Y-64.0364
G1X55.3357Y-65.4181
G1X57.3634Y-66.0303
G1X59.2407Y-66.4874
G1X61.0861Y-66.8249
G1X63.0080Y-67.0533
G1X65.2901Y-67.1594
G1X67.7105Y-67.0798
G1X70.2143Y-66.7985
G1X72.6797Y-66.3378
G1X75.0976Y-65.7253
G1X77.6710Y-64.9225
G1X84.7710Y-62.2384
G1 Z0F20000
(Start Block)

G1X13.1241Y-54.9123
G1Z6F20000
(Plotting speed under)
G1 F8000

G1X14.5674Y-54.4338
G1X16.2795Y-54.0841
G1X18.1577Y-53.8918
G1X20.3264Y-53.8409
G1X22.7678Y-53.9404
G1X25.3203Y-54.1815
G1X28.0344Y-54.5689
G1X30.7973Y-55.0911
G1X35.4050Y-56.2390
G1X40.0022Y-57.7214
G1X44.2104Y-59.3475
G1X51.8752Y-62.6086
G1X55.5477Y-63.9429
G1X57.5842Y-64.5382
G1X59.4673Y-64.9762
G1X61.3161Y-65.2912
G1X63.1379Y-65.4843
G1X65.4504Y-65.5588
G1X67.8608Y-65.4348
G1X70.2334Y-65.1187
G1X72.6715Y-64.6043
G1X75.0505Y-63.9314
G1X77.5667Y-63.0575
G1X84.3210Y-60.2085
G1 Z0F20000
(Start Block)

G1X13.1354Y-53.7747
G1Z6F20000
(Plotting speed under)
G1 F8000

G1X14.5658Y-53.2862
G1X16.2578Y-52.9233
G1X18.1107Y-52.7158
G1X20.3155Y-52.6468
G1X22.7670Y-52.7307
G1X25.3861Y-52.9630
G1X28.0592Y-53.3285
G1X30.8066Y-53.8282
G1X35.4721Y-54.9540
G1X40.1618Y-56.4283
G1X44.3732Y-58.0190
G1X52.1470Y-61.2570
G1X55.7896Y-62.5521
G1X57.7119Y-63.1004
G1X59.6006Y-63.5271
G1X61.4521Y-63.8270
G1X63.2739Y-64.0007
G1X65.6148Y-64.0426
G1X68.0133Y-63.8738
G1X70.3659Y-63.5047
G1X72.7724Y-62.9274
G1X75.1072Y-62.1860
G1X77.5590Y-61.2342
G1X79.9988Y-60.1425
G1X83.8587Y-58.2669
G1 Z0F20000
(Start Block)

G1X13.2255Y-52.6994
G1Z6F20000
(Plotting speed under)
G1 F8000

G1X14.7450Y-52.1683
G1X16.3187Y-51.8168
G1X18.1464Y-51.5916
G1X20.3184Y-51.5021
G1X22.7332Y-51.5631
G1X25.3152Y-51.7698
G1X28.1015Y-52.1295
G1X30.8778Y-52.6162
G1X35.5922Y-53.7225
G1X40.3657Y-55.1917
G1X44.6669Y-56.7892
G1X52.4448Y-59.9799
G1X56.0238Y-61.2310
G1X57.9623Y-61.7701
G1X59.7480Y-62.1604
G1X61.4985Y-62.4338
G1X63.3205Y-62.5961
G1X65.6738Y-62.6148
G1X67.9491Y-62.4260
G1X70.2863Y-62.0224
G1X72.6670Y-61.3984
G1X74.9640Y-60.6011
G1X77.3585Y-59.5808
G1X79.8104Y-58.3662
G1X83.4007Y-56.4178
G1 Z0F20000
(Start Block)

G1X13.3888Y-51.6843
G1Z6F20000
(Plotting speed under)
G1 F8000

G1X14.8999Y-51.1337
G1X16.5667Y-50.7430
G1X18.4635Y-50.4990
G1X20.5117Y-50.4034
G1X22.8819Y-50.4475
G1X25.5209Y-50.6443
G1X28.2819Y-50.9877
G1X31.0091Y-51.4515
G1X35.7428Y-52.5355
G1X40.6136Y-54.0089
G1X44.9046Y-55.5810
G1X52.7698Y-58.7754
G1X56.2248Y-59.9700
G1X58.1255Y-60.4919
G1X59.9125Y-60.8743
G1X61.6628Y-61.1358
G1X63.4825Y-61.2810
G1X65.8619Y-61.2674
G1X68.1249Y-61.0366
G1X70.4418Y-60.5800
G1X72.7907Y-59.8921
G1X75.0424Y-59.0247
G1X77.3694Y-57.9247
G1X79.7255Y-56.6261
G1X82.9629Y-54.6632
G1 Z0F20000
(Start Block)

G1X13.6186Y-50.7285
G1Z6F20000
(Plotting speed under)
G1 F8000

G1X15.1245Y-50.1544
G1X16.7757Y-49.7394
G1X18.6469Y-49.4707
G1X20.6626Y-49.3517
G1X22.9930Y-49.3713
G1X25.5880Y-49.5421
G1X28.3060Y-49.8583
G1X31.0964Y-50.3129
G1X35.8904Y-51.3826
G1X40.8078Y-52.8453
G1X45.2729Y-54.4664
G1X53.1223Y-57.6421
G1X56.4759Y-58.7924
G1X58.4154Y-59.3165
G1X60.1998Y-59.6854
G1X61.9465Y-59.9292
G1X63.6615Y-60.0476
G1X65.9525Y-60.0100
G1X68.2065Y-59.7487
G1X70.5075Y-59.2498
G1X72.8302Y-58.5071
G1X75.0429Y-57.5765
G1X77.3094Y-56.4018
G1X79.5429Y-55.0434
G1X82.5605Y-53.0032
G1 Z0F20000
(Start Block)

G1X13.9073Y-49.8314
G1Z6F20000
(Plotting speed under)
G1 F8000

G1X15.4117Y-49.2301
G1X17.0498Y-48.7872
G1X18.8572Y-48.4953
G1X20.9905Y-48.3422
G1X23.3786Y-48.3459
G1X25.8901Y-48.4985
G1X28.6055Y-48.8023
G1X31.3403Y-49.2368
G1X36.1923Y-50.3031
G1X41.1399Y-51.7640
G1X45.7079Y-53.4192
G1X53.5016Y-56.5782
G1X56.7904Y-57.7004
G1X58.6197Y-58.1909
G1X60.4024Y-58.5552
G1X62.1468Y-58.7901
G1X63.8752Y-58.8952
G1X66.1759Y-58.8278
G1X68.4193Y-58.5266
G1X70.7031Y-57.9759
G1X72.9979Y-57.1694
G1X75.1691Y-56.1680
G1X77.3713Y-54.9126
G1X79.5435Y-53.4485
G1X82.2071Y-51.4369
G1 Z0F20000
(Start Block)

G1X14.2469Y-48.9931
G1Z6F20000
(Plotting speed under)
G1 F8000

G1X15.8515Y-48.3270
G1X17.4884Y-47.8624
G1X19.2851Y-47.5494
G1X21.2673Y-47.3812
G1X23.6130Y-47.3562
G1X26.1907Y-47.4910
G1X28.8517Y-47.7728
G1X31.6345Y-48.2022
G1X36.5384Y-49.2672
G1X41.6058Y-50.7624
G1X46.1968Y-52.4347
G1X53.8047Y-55.5441
G1X57.1397Y-56.6839
G1X58.9497Y-57.1641
G1X60.7271Y-57.5179
G1X62.4664Y-57.7378
G1X64.1234Y-57.8220
G1X66.4179Y-57.7261
G1X68.6525Y-57.3863
G1X70.9218Y-56.7846
G1X73.1922Y-55.9147
G1X75.3257Y-54.8422
G1X77.3823Y-53.5637
G1X79.4879Y-52.0049
G1X81.9145Y-49.9623
G1 Z0F20000
(Start Block)

G1X14.6286Y-48.2135
G1Z6F20000
(Plotting speed under)
G1 F8000

G1X16.2398Y-47.5118
G1X17.8692Y-47.0127
G1X19.6462Y-46.6663
G1X21.7050Y-46.4604
G1X24.0032Y-46.4120
G1X26.5421Y-46.5246
G1X29.1478Y-46.7844
G1X31.9259Y-47.1996
G1X36.9247Y-48.2735
G1X41.9486Y-49.7549
G1X46.5125Y-51.4237
G1X54.1312Y-54.5766
G1X57.4809Y-55.7296
G1X59.2972Y-56.2092
G1X61.0682Y-56.5541
G1X62.7010Y-56.7521
G1X64.3881Y-56.8265
G1X66.6776Y-56.7040
G1X68.9058Y-56.3273
G1X71.1643Y-55.6758
G1X73.3157Y-54.7904
G1X75.4242Y-53.6551
G1X77.4378Y-52.3036
G1X79.3965Y-50.7232
G1X81.6923Y-48.5775
G1 Z0F20000
(Start Block)

G1X15.0432Y-47.4924
G1Z6F20000
(Plotting speed under)
G1 F8000

G1X16.6656Y-46.7526
G1X18.3971Y-46.1877
G1X20.1669Y-45.8145
G1X22.1864Y-45.5839
G1X24.4049Y-45.5103
G1X26.8297Y-45.5922
G1X29.4885Y-45.8365
G1X32.2237Y-46.2312
G1X34.7127Y-46.7055
G1X37.2447Y-47.2951
G1X39.8271Y-48.0051
G1X42.4289Y-48.8287
G1X47.0609Y-50.5468
G1X54.5783Y-53.7133
G1X57.8516Y-54.8480
G1X59.6591Y-55.3248
G1X61.3202Y-55.6466
G1X63.0502Y-55.8493
G1X64.6668Y-55.9075
G1X66.9530Y-55.7608
G1X69.1779Y-55.3491
G1X71.4300Y-54.6494
G1X73.5685Y-53.7050
G1X75.6516Y-52.4989
G1X77.6213Y-51.0680
G1X79.5347Y-49.3754
G1X81.5479Y-47.2809
G1 Z0F20000
(Start Block)

G1X15.4811Y-46.8291
G1Z6F20000
(Plotting speed under)
G1 F8000

G1X17.1198Y-46.0493
G1X18.8514Y-45.4422
G1X20.7220Y-45.0092
G1X22.7040Y-44.7520
G1X24.8946Y-44.6515
G1X27.3728Y-44.7147
G1X29.9687Y-44.9403
G1X32.6665Y-45.3206
G1X35.1970Y-45.7994
G1X37.7002Y-46.3834
G1X40.2558Y-47.0897
G1X42.8337Y-47.9124
G1X47.4319Y-49.6412
G1X54.8413Y-52.8350
G1X58.1273Y-54.0012
G1X59.9272Y-54.4853
G1X61.6852Y-54.8263
G1X63.3088Y-55.0119
G1X64.9561Y-55.0637
G1X67.2410Y-54.8955
G1X69.4659Y-54.4513
G1X71.7169Y-53.7054
G1X73.8490Y-52.7033
G1X75.9149Y-51.4265
G1X77.8495Y-49.9152
G1X79.6458Y-48.1893
G1X81.4865Y-46.0717
G1 Z0F20000
(Start Block)

G1X15.9328Y-46.2224
G1Z6F20000
(Plotting speed under)
G1 F8000

G1X17.6924Y-45.3582
G1X19.4350Y-44.7170
G1X21.3031Y-44.2502
G1X23.2502Y-43.9646
G1X25.4143Y-43.8350
G1X27.8393Y-43.8710
G1X30.4646Y-44.0809
G1X33.1392Y-44.4481
G1X35.6113Y-44.9110
G1X38.1829Y-45.5111
G1X40.8129Y-46.2464
G1X43.3661Y-47.0756
G1X47.9254Y-48.8284
G1X55.2169Y-52.0575
G1X58.5185Y-53.2522
G1X60.3066Y-53.7375
G1X61.9537Y-54.0595
G1X63.5732Y-54.2462
G1X65.2518Y-54.2939
G1X67.5374Y-54.1073
G1X69.7662Y-53.6333
G1X72.0218Y-52.8437
G1X74.1550Y-51.7855
G1X76.2128Y-50.4387
G1X78.1230Y-48.8461
G1X79.8180Y-47.0898
G1X81.5107Y-44.9498
G1 Z0F20000
(Start Block)

G1X16.3888Y-45.6699
G1Z6F20000
(Plotting speed under)
G1 F8000

G1X18.2766Y-44.7163
G1X20.0335Y-44.0393
G1X21.9021Y-43.5367
G1X23.8170Y-43.2212
G1X26.0687Y-43.0565
G1X28.4346Y-43.0715
G1X31.0264Y-43.2637
G1X33.6359Y-43.6129
G1X36.1829Y-44.0881
G1X38.7870Y-44.7029
G1X41.3896Y-45.4437
G1X43.9176Y-46.2825
G1X48.3365Y-48.0241
G1X55.5996Y-51.3395
G1X58.9122Y-52.5665
G1X60.6872Y-53.0550
G1X62.4265Y-53.3914
G1X64.0387Y-53.5640
G1X65.6640Y-53.5932
G1X67.9502Y-53.3765
G1X70.1839Y-52.8616
G1X72.4455Y-52.0171
G1X74.5808Y-50.8927
G1X76.5428Y-49.5362
G1X78.4406Y-47.8616
G1X80.1254Y-45.9853
G1X81.6207Y-43.9166
G1 Z0F20000
(Start Block)

G1X16.8396Y-45.1686
G1Z6F20000
(Plotting speed under)
G1 F8000

G1X18.7617Y-44.1683
G1X20.5319Y-43.4445
G1X22.3972Y-42.8940
G1X24.3966Y-42.5205
G1X26.6254Y-42.3210
G1X28.9427Y-42.3061
G1X31.4947Y-42.4717
G1X34.1511Y-42.8137
G1X36.6636Y-43.2784
G1X39.2100Y-43.8803
G1X41.7816Y-44.6180
G1X44.3832Y-45.4956
G1X48.7612Y-47.2680
G1X55.9843Y-50.6787
G1X59.3029Y-51.9420
G1X61.0631Y-52.4355
G1X62.6909Y-52.7574
G1X64.2985Y-52.9356
G1X65.9559Y-52.9650
G1X68.2475Y-52.7367
G1X70.4935Y-52.1988
G1X72.6969Y-51.3518
G1X74.8976Y-50.1587
G1X76.9006Y-48.7199
G1X78.7234Y-47.0424
G1X80.3784Y-45.1066
G1X81.8140Y-42.9742
G1 Z0F20000
(Start Block)

G1X17.2766Y-44.7141
G1Z6F20000
(Plotting speed under)
G1 F8000

G1X19.3423Y-43.6186
G1X21.2419Y-42.8179
G1X23.1213Y-42.2391
G1X25.0827Y-41.8450
G1X27.1903Y-41.6244
G1X29.5633Y-41.5802
G1X32.0851Y-41.7258
G1X34.6787Y-42.0489
G1X37.1577Y-42.5033
G1X39.7320Y-43.1157
G1X42.2866Y-43.8606
G1X44.8603Y-44.7487
G1X49.1945Y-46.5584
G1X56.3654Y-50.0721
G1X59.6846Y-51.3757
G1X61.4285Y-51.8763
G1X63.1458Y-52.2165
G1X64.7463Y-52.3843
G1X66.3522Y-52.4001
G1X68.6497Y-52.1483
G1X70.9255Y-51.5707
G1X73.1777Y-50.6602
G1X75.3102Y-49.4548
G1X77.3447Y-47.9362
G1X79.1189Y-46.2350
G1X80.7104Y-44.2900
G1X82.0855Y-42.1262
G1 Z0F20000
(Start Block)

G1X17.6917Y-44.3012
G1Z6F20000
(Plotting speed under)
G1 F8000

G1X19.9099Y-43.1078
G1X21.8359Y-42.2675
G1X23.7259Y-41.6494
G1X25.7657Y-41.2042
G1X27.9739Y-40.9483
G1X30.2864Y-40.8890
G1X32.7873Y-41.0219
G1X35.3128Y-41.3319
G1X37.7638Y-41.7829
G1X40.3089Y-42.3975
G1X42.8960Y-43.1705
G1X45.4420Y-44.0774
G1X49.6314Y-45.8929
G1X56.7372Y-49.5166
G1X60.0514Y-50.8642
G1X61.7770Y-51.3739
G1X63.4817Y-51.7192
G1X65.1090Y-51.8898
G1X66.7306Y-51.8983
G1X69.0367Y-51.6266
G1X71.3795Y-51.0017
G1X73.5634Y-50.0873
G1X75.7275Y-48.8316
G1X77.7149Y-47.3142
G1X79.5444Y-45.5163
G1X81.0893Y-43.5688
G1X82.4276Y-41.3768
G1 Z0F20000
(Start Block)

G1X18.0778Y-43.9234
G1Z6F20000
(Plotting speed under)
G1 F8000

G1X20.4215Y-42.6484
G1X22.4133Y-41.7513
G1X24.3176Y-41.0938
G1X26.3378Y-40.6127
G1X28.5324Y-40.3180
G1X30.8877Y-40.2254
G1X33.3792Y-40.3373
G1X35.9034Y-40.6374
G1X38.3702Y-41.0923
G1X40.8870Y-41.7104
G1X43.4089Y-42.4819
G1X45.9261Y-43.4048
G1X49.9717Y-45.2210
G1X57.0941Y-49.0081
G1X58.8684Y-49.8132
G1X60.4978Y-50.4386
G1X62.2021Y-50.9495
G1X63.8923Y-51.2920
G1X65.4629Y-51.4533
G1X67.0842Y-51.4561
G1X69.4510Y-51.1587
G1X71.7193Y-50.5340
G1X73.9366Y-49.5891
G1X76.1420Y-48.2877
G1X78.1711Y-46.7104
G1X79.9579Y-44.9259
G1X81.5059Y-42.9455
G1X82.8297Y-40.7305
G1 Z0F20000
(Start Block)

G1X18.4288Y-43.5734
G1Z6F20000
(Plotting speed under)
G1 F8000

G1X20.9238Y-42.2083
G1X23.0423Y-41.2331
G1X25.0245Y-40.5260
G1X27.0967Y-40.0104
G1X29.2949Y-39.6956
G1X31.5289Y-39.5884
G1X33.9642Y-39.6788
G1X36.5723Y-39.9816
G1X39.0737Y-40.4508
G1X41.5665Y-41.0815
G1X44.0146Y-41.8563
G1X46.5030Y-42.8044
G1X50.4018Y-44.6334
G1X57.4306Y-48.5420
G1X59.2115Y-49.3848
G1X60.8149Y-50.0247
G1X62.4969Y-50.5480
G1X64.1719Y-50.8997
G1X65.7846Y-51.0691
G1X67.4059Y-51.0689
G1X69.7363Y-50.7699
G1X72.0321Y-50.1319
G1X74.3858Y-49.1129
G1X76.5450Y-47.8214
G1X78.5452Y-46.2621
G1X80.3936Y-44.4151
G1X81.9966Y-42.3521
G1X83.2791Y-40.1918
G1 Z0F20000
(Start Block)

G1X18.7399Y-43.2426
G1Z6F20000
(Plotting speed under)
G1 F8000

G1X21.3942Y-41.7888
G1X23.5509Y-40.7739
G1X25.6504Y-39.9950
G1X27.7335Y-39.4474
G1X29.9310Y-39.1033
G1X32.2696Y-38.9712
G1X34.7465Y-39.0578
G1X37.2295Y-39.3477
G1X39.6647Y-39.8101
G1X42.1312Y-40.4478
G1X44.6109Y-41.2588
G1X46.9752Y-42.1943
G1X48.8628Y-43.0609
G1X50.7283Y-44.0289
G1X57.7416Y-48.1131
G1X59.5246Y-48.9956
G1X61.0990Y-49.6512
G1X62.7565Y-50.1885
G1X64.4631Y-50.5594
G1X66.0676Y-50.7316
G1X67.6723Y-50.7319
G1X70.0846Y-50.4150
G1X72.4109Y-49.7546
G1X74.7111Y-48.7525
G1X76.9271Y-47.4295
G1X78.9900Y-45.8238
G1X80.8292Y-43.9957
G1X82.4458Y-41.9408
G1X83.7600Y-39.7645
G1 Z0F20000
(Start Block)

G1X19.0079Y-42.9221
G1Z6F20000
(Plotting speed under)
G1 F8000

G1X21.8286Y-41.3819
G1X24.1222Y-40.2884
G1X26.2483Y-39.4776
G1X28.3449Y-38.8991
G1X30.5444Y-38.5264
G1X32.8751Y-38.3703
G1X35.3010Y-38.4370
G1X37.7608Y-38.7143
G1X40.1421Y-39.1655
G1X42.5804Y-39.8041
G1X45.0773Y-40.6417
G1X47.4355Y-41.6092
G1X49.2970Y-42.5017
G1X51.0422Y-43.4502
G1X58.1348Y-47.7773
G1X59.8026Y-48.6395
G1X61.3454Y-49.3117
G1X63.0236Y-49.8781
G1X64.7107Y-50.2570
G1X66.3057Y-50.4341
G1X67.9602Y-50.4342
G1X70.2875Y-50.1290
G1X72.6475Y-49.4673
G1X74.9983Y-48.4543
G1X77.2063Y-47.1565
G1X79.3260Y-45.5402
G1X81.2327Y-43.6870
G1X82.8932Y-41.6312
G1X84.2550Y-39.4511
G1 Z0F20000
(Start Block)

G1X19.2310Y-42.6020
G1Z6F20000
(Plotting speed under)
G1 F8000

G1X22.3225Y-40.9282
G1X24.6602Y-39.8071
G1X26.8150Y-38.9663
G1X28.9272Y-38.3585
G1X31.1315Y-37.9586
G1X33.4570Y-37.7798
G1X35.8353Y-37.8279
G1X38.3833Y-38.1103
G1X40.8024Y-38.5806
G1X43.2196Y-39.2383
G1X45.5867Y-40.0644
G1X47.9722Y-41.0874
G1X51.3399Y-42.8920
G1X58.4159Y-47.4269
G1X60.1364Y-48.3567
G1X61.6438Y-49.0374
G1X63.2442Y-49.5965
G1X64.9096Y-49.9849
G1X66.4937Y-50.1690
G1X68.0969Y-50.1770
G1X70.4386Y-49.8833
G1X72.8334Y-49.2273
G1X75.2386Y-48.2114
G1X77.4775Y-46.9243
G1X79.6819Y-45.2837
G1X81.6081Y-43.4647
G1X83.2791Y-41.4793
G1X84.7444Y-39.2519
G1 Z0F20000
(Start Block)

G1X19.4089Y-42.2724
G1Z6F20000
(Plotting speed under)
G1 F8000

G1X22.8808Y-40.4160
G1X25.2621Y-39.2778
G1X27.4480Y-38.4186
G1X29.5810Y-37.7932
G1X31.7972Y-37.3783
G1X34.1261Y-37.1893
G1X36.5518Y-37.2377
G1X38.9831Y-37.5132
G1X41.3424Y-37.9817
G1X43.7366Y-38.6525
G1X46.0772Y-39.5002
G1X48.3967Y-40.5383
G1X50.1110Y-41.4437
G1X51.7064Y-42.4042
G1X58.5643Y-47.0373
G1X60.2388Y-47.9981
G1X61.8008Y-48.7450
G1X63.4145Y-49.3357
G1X65.0558Y-49.7349
G1X66.6272Y-49.9280
G1X68.2781Y-49.9414
G1X70.6363Y-49.6486
G1X72.9619Y-49.0257
G1X75.3839Y-48.0350
G1X77.6962Y-46.7488
G1X79.9078Y-45.1636
G1X81.8647Y-43.4007
G1X83.6606Y-41.3773
G1X85.2077Y-39.1647
G1 Z0F20000
(Start Block)

G1X19.5429Y-41.9230
G1Z6F20000
(Plotting speed under)
G1 F8000

G1X23.3055Y-39.9378
G1X25.7309Y-38.7780
G1X27.9472Y-37.8942
G1X30.0990Y-37.2442
G1X32.3240Y-36.8064
G1X34.6525Y-36.5986
G1X37.0354Y-36.6323
G1X39.5581Y-36.9171
G1X41.8596Y-37.3858
G1X44.2318Y-38.0718
G1X46.5461Y-38.9436
G1X48.7999Y-39.9980
G1X50.3973Y-40.8810
G1X51.9623Y-41.8699
G1X58.8602Y-46.7734
G1X60.4813Y-47.7469
G1X61.9552Y-48.4832
G1X63.5322Y-49.0868
G1X65.0375Y-49.4767
G1X66.5901Y-49.6929
G1X68.2994Y-49.7275
G1X70.6688Y-49.4565
G1X73.0275Y-48.8524
G1X75.4651Y-47.8953
G1X77.8535Y-46.6203
G1X80.0798Y-45.0950
G1X82.1472Y-43.3232
G1X83.9885Y-41.3630
G1X85.6234Y-39.1838
G1 Z0F20000

G00 X0.0000 Y0.0000

