$H
G21
G17
G90
G1 Z0F20000
G1 F15000
(Start Layer)
(Start Block)

G1X44.7713Y-65.6142
G1Z6F20000
(Plotting speed under)
G1 F8000

G1X43.7849Y-67.1507
G1X42.5601Y-68.7207
G1X41.1767Y-70.2118
G1X39.6678Y-71.5932
G1X38.1486Y-72.7757
G1X36.5848Y-73.7988
G1X34.8586Y-74.7249
G1X33.0113Y-75.5343
G1X31.0846Y-76.2151
G1X29.0216Y-76.7784
G1X27.0622Y-77.1580
G1X25.1126Y-77.3754
G1X23.0910Y-77.4313
G1X20.9360Y-77.3222
G1X18.7998Y-77.0492
G1X16.8308Y-76.6445
G1X14.9720Y-76.1058
G1X13.1953Y-75.4133
G1X11.4466Y-74.5485
G1X9.7743Y-73.5411
G1X8.1374Y-72.3552
G1X8.0000Y-72.2355
G1 Z0F20000
(Start Block)

G1X8.0000Y-45.6973
G1Z6F20000
(Plotting speed under)
G1 F8000

G1X9.3388Y-44.6417
G1X10.7952Y-43.6907
G1X12.3459Y-42.8490
G1X14.0054Y-42.0973
G1X15.7427Y-41.4490
G1X17.5269Y-40.9174
G1X19.2271Y-40.5346
G1X20.8954Y-40.2809
G1X22.7498Y-40.1347
G1X24.6639Y-40.1137
G1X26.6028Y-40.2167
G1X28.5318Y-40.4426
G1X30.4160Y-40.7903
G1X32.1281Y-41.2310
G1X33.8209Y-41.8012
G1X35.5090Y-42.5019
G1X37.1643Y-43.3188
G1X38.7601Y-44.2381
G1X40.2696Y-45.2460
G1X41.6660Y-46.3287
G1X42.8896Y-47.4386
G1X44.0696Y-48.6909
G1X45.2271Y-50.1253
G1X46.2721Y-51.6447
G1X47.1388Y-53.1331
G1X48.1330Y-55.2777
G1X48.8204Y-57.4032
G1X49.2618Y-59.6787
G1X49.4495Y-62.1194
G1X49.3650Y-64.4457
G1X49.0189Y-66.6851
G1X48.4028Y-68.8255
G1X47.4696Y-71.0461
G1X46.2799Y-73.1863
G1X44.8748Y-75.1752
G1X43.3796Y-76.8591
G1X41.6282Y-78.4357
G1X39.4969Y-79.9896
G1X37.2037Y-81.3344
G1X34.8323Y-82.4205
G1X32.4086Y-83.2226
G1X29.8324Y-83.7916
G1X27.0886Y-84.1302
G1X24.4792Y-84.2043
G1X21.9367Y-84.0149
G1X19.3354Y-83.5300
G1X16.7780Y-82.7785
G1X14.3632Y-81.7962
G1X12.1676Y-80.6048
G1X10.1750Y-79.1725
G1X8.3500Y-77.5014
G1X8.0000Y-77.0969
G1 Z0F20000
(Start Block)

G1X8.0000Y-54.1615
G1Z6F20000
(Plotting speed under)
G1 F8000

G1X8.8394Y-53.2866
G1X10.1901Y-52.0988
G1X11.7505Y-50.9356
G1X13.4156Y-49.8923
G1X15.0585Y-49.0392
G1X16.6953Y-48.3549
G1X18.4647Y-47.7747
G1X20.4302Y-47.2860
G1X22.3570Y-46.9459
G1X24.3050Y-46.7348
G1X26.2375Y-46.6606
G1X28.0134Y-46.7227
G1X29.8830Y-46.9242
G1X31.8777Y-47.2798
G1X33.8613Y-47.7739
G1X35.7942Y-48.3975
G1X37.5479Y-49.1020
G1X39.2042Y-49.9172
G1X40.7670Y-50.8450
G1X42.2822Y-51.8995
G1X43.8027Y-53.1277
G1X45.2138Y-54.4512
G1X46.4236Y-55.7716
G1X47.4849Y-57.1365
G1X48.4096Y-58.5704
G1X49.5272Y-60.7533
G1X50.3984Y-63.0521
G1X50.9940Y-65.3896
G1X51.2855Y-67.6983
G1X51.2664Y-70.0702
G1X50.9530Y-72.4815
G1X50.3629Y-74.8499
G1X49.5137Y-77.0934
G1X48.3764Y-79.2196
G1X46.9414Y-81.2609
G1X45.1866Y-83.2505
G1X43.3109Y-84.9676
G1X41.4066Y-86.3659
G1X39.2595Y-87.6061
G1X36.8372Y-88.7009
G1X34.3123Y-89.5649
G1X31.6799Y-90.1833
G1X29.1208Y-90.4948
G1X26.2598Y-90.5414
G1X23.4074Y-90.3004
G1X20.8739Y-89.8295
G1X18.5039Y-89.1166
G1X16.1315Y-88.1026
G1X13.7964Y-86.7924
G1X11.7680Y-85.3416
G1X10.0586Y-83.7770
G1X8.4899Y-81.8962
G1X8.0000Y-81.1264
G1 Z0F20000
(Start Block)

G1X8.0000Y-62.6695
G1Z6F20000
(Plotting speed under)
G1 F8000

G1X8.4843Y-61.9421
G1X9.6404Y-60.5015
G1X10.8482Y-59.2370
G1X12.0698Y-58.1581
G1X13.4560Y-57.1371
G1X14.9645Y-56.2049
G1X16.6776Y-55.3167
G1X18.4794Y-54.5446
G1X20.2355Y-53.9368
G1X22.0081Y-53.4652
G1X23.8315Y-53.1312
G1X25.8147Y-52.9197
G1X27.8545Y-52.8456
G1X29.9093Y-52.9099
G1X31.8374Y-53.1003
G1X33.7056Y-53.4173
G1X35.4259Y-53.8431
G1X37.1557Y-54.4018
G1X38.9636Y-55.1229
G1X40.7209Y-55.9647
G1X42.3950Y-56.9128
G1X43.8746Y-57.8960
G1X45.2515Y-58.9735
G1X46.5912Y-60.2120
G1X47.8457Y-61.5678
G1X49.0546Y-63.0973
G1X50.0692Y-64.6123
G1X51.2280Y-66.7732
G1X52.0378Y-68.8805
G1X52.6282Y-71.2510
G1X52.9457Y-73.7944
G1X52.9547Y-76.2186
G1X52.6830Y-78.4424
G1X52.0949Y-80.7237
G1X51.2161Y-82.9867
G1X50.0311Y-85.2438
G1X48.6725Y-87.2371
G1X47.1464Y-88.9837
G1X45.3019Y-90.6720
G1X43.0803Y-92.3134
G1X40.7991Y-93.6585
G1X38.5572Y-94.6790
G1X36.0938Y-95.4937
G1X33.3975Y-96.0993
G1X30.6657Y-96.4444
G1X28.1007Y-96.5157
G1X25.6034Y-96.3185
G1X22.8778Y-95.8169
G1X20.1379Y-95.0142
G1X17.6933Y-94.0015
G1X15.5300Y-92.7818
G1X13.4571Y-91.2592
G1X11.5882Y-89.5235
G1X10.0011Y-87.6483
G1X8.8068Y-85.7760
G1X8.0000Y-83.9960
G1 Z0F20000
(Start Block)

G1X8.0000Y-71.4635
G1Z6F20000
(Plotting speed under)
G1 F8000

G1X8.5760Y-70.1671
G1X9.3671Y-68.7512
G1X10.2466Y-67.4806
G1X11.2990Y-66.2228
G1X12.4933Y-65.0128
G1X13.8863Y-63.8076
G1X15.2984Y-62.7637
G1X16.7802Y-61.8335
G1X18.2826Y-61.0501
G1X19.9668Y-60.3391
G1X21.7630Y-59.7331
G1X23.6354Y-59.2419
G1X25.5480Y-58.8757
G1X27.3648Y-58.6530
G1X29.1551Y-58.5599
G1X30.9240Y-58.5972
G1X32.8379Y-58.7685
G1X34.7653Y-59.0695
G1X36.6711Y-59.4944
G1X38.5204Y-60.0375
G1X40.2778Y-60.6929
G1X41.8968Y-61.4441
G1X43.5019Y-62.3380
G1X45.0561Y-63.3518
G1X46.5334Y-64.4667
G1X47.9078Y-65.6644
G1X49.1532Y-66.9263
G1X50.2115Y-68.1908
G1X51.1448Y-69.5132
G1X52.3671Y-71.6477
G1X53.3801Y-73.9914
G1X54.0665Y-76.2788
G1X54.4434Y-78.5709
G1X54.5135Y-81.0721
G1X54.2659Y-83.6073
G1X53.7140Y-86.0800
G1X52.9142Y-88.2956
G1X51.7946Y-90.4541
G1X50.3173Y-92.6227
G1X48.5855Y-94.6349
G1X46.7410Y-96.3480
G1X44.7025Y-97.8339
G1X42.4333Y-99.1360
G1X39.9111Y-100.2669
G1X37.3186Y-101.1310
G1X34.6291Y-101.7080
G1X31.8151Y-101.9879
G1X28.8500Y-101.9784
G1X26.0622Y-101.6852
G1X23.5757Y-101.1486
G1X21.0551Y-100.2965
G1X18.5357Y-99.1287
G1X16.3038Y-97.7842
G1X14.3291Y-96.2475
G1X12.6200Y-94.5069
G1X11.0709Y-92.4710
G1X9.8196Y-90.3009
G1X8.9860Y-88.2670
G1X8.4457Y-86.0688
G1X8.2100Y-83.7558
G1X8.2916Y-81.3234
G1X8.5333Y-79.7439
G1X8.8941Y-78.3360
G1X9.4207Y-76.8964
G1X10.0996Y-75.4603
G1X10.9711Y-73.9669
G1X11.9167Y-72.6184
G1X13.0373Y-71.2755
G1X14.1851Y-70.1227
G1X15.4210Y-69.0830
G1X16.8671Y-68.0529
G1X18.4316Y-67.1068
G1X20.0843Y-66.2624
G1X21.7951Y-65.5375
G1X23.4367Y-64.9784
G1X25.1320Y-64.5417
G1X26.8774Y-64.2227
G1X28.7854Y-64.0031
G1X30.7257Y-63.9065
G1X32.6630Y-63.9361
G1X34.4633Y-64.0830
G1X36.2075Y-64.3495
G1X37.9622Y-64.7487
G1X39.7213Y-65.2738
G1X41.5512Y-65.9531
G1X43.2294Y-66.7039
G1X44.8244Y-67.5483
G1X46.3077Y-68.4756
G1X47.6692Y-69.4836
G1X48.9851Y-70.6202
G1X50.2957Y-71.9323
G1X51.4988Y-73.3318
G1X52.5719Y-74.7939
G1X53.8469Y-76.9660
G1X54.7779Y-79.1794
G1X55.4681Y-81.6361
G1X55.8637Y-84.2529
G1X55.9194Y-86.6323
G1X55.6781Y-88.8395
G1X55.0901Y-91.2636
G1X54.1962Y-93.6456
G1X53.0319Y-95.8964
G1X51.7071Y-97.8339
G1X50.0140Y-99.7466
G1X48.0515Y-101.5189
G1X45.8989Y-103.0885
G1X43.6355Y-104.3933
G1X41.3003Y-105.4056
G1X38.6849Y-106.2321
G1X35.8785Y-106.8243
G1X33.1896Y-107.1172
G1X30.6177Y-107.1204
G1X27.8724Y-106.8318
G1X25.0615Y-106.2442
G1X22.4081Y-105.3913
G1X20.0889Y-104.3342
G1X17.8174Y-102.9451
G1X15.7243Y-101.3087
G1X13.8984Y-99.4985
G1X12.4849Y-97.6755
G1X11.2730Y-95.5539
G1X10.3152Y-93.1758
G1X9.7093Y-90.7384
G1X9.4965Y-88.4362
G1X9.6483Y-86.0754
G1X9.9399Y-84.4808
G1X10.3758Y-82.9056
G1X10.9491Y-81.3803
G1X11.6051Y-80.0230
G1X12.3970Y-78.7164
G1X13.3799Y-77.3849
G1X14.4365Y-76.1722
G1X15.6778Y-74.9490
G1X17.0189Y-73.8161
G1X18.3523Y-72.8535
G1X19.7108Y-72.0248
G1X21.1645Y-71.2847
G1X22.8124Y-70.5874
G1X24.6401Y-69.9592
G1X26.4232Y-69.4772
G1X28.2255Y-69.1159
G1X29.9179Y-68.8950
G1X31.6745Y-68.7937
G1X33.4776Y-68.8132
G1X35.3101Y-68.9491
G1X37.1419Y-69.1981
G1X38.9428Y-69.5571
G1X40.6827Y-70.0228
G1X42.3437Y-70.5968
G1X43.9095Y-71.2694
G1X45.5420Y-72.1074
G1X47.1222Y-73.0585
G1X48.6234Y-74.1063
G1X50.0190Y-75.2342
G1X51.2160Y-76.3581
G1X52.2749Y-77.5234
G1X53.2736Y-78.8108
G1X54.6493Y-80.9797
G1X55.7589Y-83.2674
G1X56.5312Y-85.4987
G1X56.9976Y-87.7946
G1X57.1684Y-90.3183
G1X57.0204Y-92.8698
G1X56.5596Y-95.3493
G1X55.7947Y-97.6563
G1X54.7033Y-99.8915
G1X53.2585Y-102.1275
G1X51.5593Y-104.1862
G1X49.7623Y-105.9013
G1X47.6316Y-107.4866
G1X45.1661Y-108.9271
G1X42.5489Y-110.1066
G1X39.9868Y-110.9452
G1X37.2612Y-111.5012
G1X34.3061Y-111.7822
G1X31.3485Y-111.7610
G1X28.6160Y-111.4516
G1X25.9706Y-110.8338
G1X23.3609Y-109.9152
G1X20.8059Y-108.6962
G1X18.5977Y-107.3133
G1X16.6544Y-105.7114
G1X14.8200Y-103.7548
G1X13.2709Y-101.6132
G1X12.1217Y-99.4716
G1X11.3308Y-97.2445
G1X10.8533Y-94.8463
G1X10.7071Y-92.3991
G1X10.9035Y-90.0112
G1X11.1995Y-88.6109
G1X11.6649Y-87.1299
G1X12.2353Y-85.7452
G1X12.9744Y-84.2970
G1X13.8355Y-82.9042
G1X14.7418Y-81.6722
G1X15.7330Y-80.5336
G1X16.8925Y-79.4148
G1X18.1896Y-78.3494
G1X19.6855Y-77.2984
G1X21.1876Y-76.3960
G1X22.7511Y-75.5986
G1X24.2564Y-74.9588
G1X25.8319Y-74.4219
G1X27.5417Y-73.9744
G1X29.3266Y-73.6323
G1X31.1558Y-73.3996
G1X32.9986Y-73.2809
G1X34.8241Y-73.2805
G1X36.5047Y-73.3926
G1X38.2671Y-73.6372
G1X40.0531Y-74.0102
G1X41.8335Y-74.5027
G1X43.5790Y-75.1058
G1X45.2602Y-75.8105
G1X46.7624Y-76.5613
G1X48.1839Y-77.4045
G1X49.5074Y-78.3270
G1X50.8592Y-79.4165
G1X52.1352Y-80.5995
G1X53.3156Y-81.8570
G1X54.3802Y-83.1695
G1X55.7512Y-85.2610
G1X56.8738Y-87.6235
G1X57.7202Y-90.2456
G1X58.1976Y-92.8233
G1X58.3189Y-95.1558
G1X58.1013Y-97.5882
G1X57.5519Y-100.0506
G1X56.6606Y-102.5424
G1X55.5264Y-104.7753
G1X54.1013Y-106.8380
G1X52.2961Y-108.8586
G1X50.2325Y-110.6991
G1X48.0808Y-112.2293
G1X45.8594Y-113.4518
G1X43.3605Y-114.4880
G1X40.6187Y-115.3134
G1X37.8371Y-115.8543
G1X35.0907Y-116.0820
G1X32.1498Y-115.9870
G1X29.2017Y-115.5773
G1X26.4748Y-114.9048
G1X23.9954Y-113.9861
G1X21.5300Y-112.7109
G1X19.2241Y-111.1573
G1X17.1801Y-109.3993
G1X15.5694Y-107.6024
G1X14.1573Y-105.4963
G1X12.9920Y-103.1148
G1X12.2124Y-100.7493
G1X11.8196Y-98.4822
G1X11.7780Y-96.1032
G1X12.0932Y-93.5786
G1X12.4509Y-92.0896
G1X12.9304Y-90.6511
G1X13.5234Y-89.2979
G1X14.2144Y-88.0467
G1X15.0909Y-86.7305
G1X16.1607Y-85.3761
G1X17.2792Y-84.1653
G1X18.4878Y-83.0381
G1X19.6869Y-82.0762
G1X20.9764Y-81.1968
G1X22.3164Y-80.4219
G1X23.8398Y-79.6730
G1X25.4407Y-79.0112
G1X27.0936Y-78.4469
G1X28.7727Y-77.9907
G1X30.4524Y-77.6533
G1X32.0961Y-77.4431
G1X33.7824Y-77.3399
G1X35.5073Y-77.3389
G1X37.3475Y-77.4481
G1X39.1721Y-77.6690
G1X40.8536Y-77.9790
G1X42.4685Y-78.3862
G1X43.9759Y-78.8786
G1X45.5773Y-79.5211
G1X47.2420Y-80.3202
G1X48.8477Y-81.2270
G1X50.2850Y-82.1688
G1X51.6212Y-83.1805
G1X52.7750Y-84.1944
G1X53.8355Y-85.2786
G1X54.8938Y-86.5322
G1X56.4182Y-88.7299
G1X57.6084Y-90.9581
G1X58.4762Y-93.2206
G1X59.0137Y-95.5332
G1X59.2686Y-98.1544
G1X59.1812Y-100.7864
G1X58.7722Y-103.2229
G1X58.0365Y-105.5303
G1X56.9197Y-107.9027
G1X55.4989Y-110.1619
G1X53.8993Y-112.1399
G1X52.0742Y-113.8923
G1X49.8255Y-115.5787
G1X47.2550Y-117.0886
G1X44.6516Y-118.2534
G1X42.0194Y-119.0782
G1X39.2316Y-119.6204
G1X36.2620Y-119.8900
G1X33.4388Y-119.8592
G1X30.7952Y-119.5390
G1X28.0147Y-118.8770
G1X25.2165Y-117.8807
G1X22.6324Y-116.6178
G1X20.4204Y-115.1642
G1X18.3970Y-113.4217
G1X16.5435Y-111.3763
G1X15.0791Y-109.2715
G1X13.9960Y-107.1042
G1X13.2122Y-104.6895
G1X12.7600Y-102.0711
G1X12.6801Y-100.7616
G1X12.7018Y-99.4742
G1X13.0368Y-97.0893
G1X13.4221Y-95.6510
G1X13.9357Y-94.2188
G1X14.5681Y-92.8155
G1X15.3099Y-91.4640
G1X16.0927Y-90.2695
G1X17.0025Y-89.1024
G1X18.0435Y-87.9774
G1X19.2083Y-86.8966
G1X20.5587Y-85.8140
G1X21.9146Y-84.8734
G1X23.3323Y-84.0245
G1X24.7915Y-83.2830
G1X26.2388Y-82.6759
G1X27.8175Y-82.1411
G1X29.4742Y-81.6971
G1X31.2843Y-81.3319
G1X33.0190Y-81.0915
G1X34.7515Y-80.9581
G1X36.4555Y-80.9369
G1X38.0253Y-81.0233
G1X39.7206Y-81.2266
G1X41.5300Y-81.5607
G1X43.3247Y-82.0100
G1X44.9791Y-82.5335
G1X46.5683Y-83.1471
G1X47.9818Y-83.8016
G1X49.3724Y-84.5681
G1X50.7412Y-85.4506
G1X52.0607Y-86.4291
G1X53.3884Y-87.5572
G1X54.5495Y-88.6862
G1X55.6065Y-89.8651
G1X57.1394Y-91.9795
G1X58.4188Y-94.3925
G1X59.3780Y-96.9712
G1X59.9754Y-99.5987
G1X60.1712Y-101.9989
G1X60.0180Y-104.4736
G1X59.5118Y-107.0645
G1X58.6774Y-109.5643
G1X57.5518Y-111.8450
G1X56.0640Y-114.0253
G1X54.1835Y-116.1553
G1X52.1288Y-117.9967
G1X50.0173Y-119.4852
G1X47.5841Y-120.7905
G1X44.9305Y-121.8623
G1X42.1716Y-122.6620
G1X39.3268Y-123.1620
G1X36.4370Y-123.3211
G1X33.3718Y-123.1564
G1X30.2778Y-122.6518
G1X27.6511Y-121.9088
G1X25.1147Y-120.8468
G1X22.6033Y-119.4396
G1X20.3255Y-117.7921
G1X18.4286Y-116.0127
G1X16.8326Y-114.0287
G1X15.4008Y-111.6567
G1X14.3701Y-109.2605
G1X13.7529Y-106.9325
G1X13.5044Y-104.5510
G1X13.6001Y-101.9986
G1X14.0249Y-99.5887
G1X14.4203Y-98.2437
G1X14.9092Y-96.9962
G1X15.5493Y-95.7006
G1X16.3120Y-94.4213
G1X17.2458Y-93.0954
G1X18.2199Y-91.9078
G1X19.2761Y-90.7927
G1X20.4011Y-89.7683
G1X21.5429Y-88.8787
G1X22.8334Y-88.0164
G1X24.2204Y-87.2184
G1X25.7761Y-86.4524
G1X27.2952Y-85.8193
G1X28.8458Y-85.2819
G1X30.4069Y-84.8505
G1X31.9433Y-84.5363
G1X33.5156Y-84.3194
G1X35.2371Y-84.1876
G1X36.9854Y-84.1574
G1X38.7343Y-84.2293
G1X40.4573Y-84.4033
G1X42.0320Y-84.6607
G1X45.0133Y-85.4485
G1X46.6468Y-86.0484
G1X48.2482Y-86.7531
G1X49.7929Y-87.5512
G1X51.1731Y-88.3778
G1X52.4612Y-89.2679
G1X53.6721Y-90.2420
G1X54.7795Y-91.2764
G1X55.8923Y-92.4732
G1X57.5690Y-94.6580
G1X58.8876Y-96.8823
G1X59.8356Y-99.0927
G1X60.4943Y-101.5164
G1X60.8528Y-104.2486
G1X60.8404Y-106.8744
G1X60.4884Y-109.2828
G1X59.7532Y-111.7322
G1X58.6214Y-114.2347
G1X57.2299Y-116.5017
G1X55.6089Y-118.5121
G1X53.6914Y-120.3338
G1X51.3206Y-122.1023
G1X48.7427Y-123.5998
G1X46.1801Y-124.7109
G1X43.4107Y-125.5319
G1X40.3811Y-126.0814
G1X37.4294Y-126.3046
G1X34.6657Y-126.2146
G1X31.8626Y-125.7962
G1X28.8810Y-125.0105
G1X26.0652Y-123.9206
G1X23.6627Y-122.6369
G1X21.4214Y-121.0343
G1X19.3140Y-119.0936
G1X17.5848Y-117.0455
G1X16.2498Y-114.9263
G1X15.2295Y-112.6013
G1X14.8241Y-111.3301
G1X14.4894Y-109.9372
G1X14.1660Y-107.3508
G1X14.1581Y-106.0902
G1X14.2564Y-104.8447
G1X14.7582Y-102.3027
G1X15.2202Y-100.8436
G1X15.7570Y-99.5125
G1X16.4378Y-98.1412
G1X17.1653Y-96.9326
G1X18.0066Y-95.7687
G1X18.9547Y-94.6539
G1X20.0095Y-93.5780
G1X21.2344Y-92.4891
G1X22.5430Y-91.4778
G1X23.8286Y-90.6153
G1X25.1547Y-89.8502
G1X26.4600Y-89.2144
G1X27.9066Y-88.6250
G1X29.5240Y-88.0830
G1X32.8048Y-87.3032
G1X36.0150Y-86.9295
G1X37.5826Y-86.8974
G1X39.1768Y-86.9666
G1X40.8973Y-87.1461
G1X42.6202Y-87.4302
G1X44.3198Y-87.8142
G1X45.9703Y-88.2935
G1X48.7992Y-89.4115
G1X50.1502Y-90.1071
G1X51.5594Y-90.9510
G1X54.1267Y-92.8346
G1X55.3309Y-93.9080
G1X56.3628Y-94.9604
G1X58.0019Y-97.0218
G1X59.4006Y-99.3824
G1X60.5165Y-102.0008
G1X61.2178Y-104.5719
G1X61.5085Y-107.0664
G1X61.4297Y-109.6750
G1X60.9979Y-112.2868
G1X60.2311Y-114.7873
G1X59.1549Y-117.0628
G1X57.6150Y-119.4036
G1X55.7412Y-121.5887
G1X53.7009Y-123.4511
G1X51.5516Y-124.9635
G1X48.9982Y-126.3366
G1X46.2497Y-127.4491
G1X43.4305Y-128.2508
G1X40.6081Y-128.7048
G1X37.5542Y-128.8416
G1X34.3788Y-128.6415
G1X31.4386Y-128.1257
G1X28.7568Y-127.3096
G1X26.1083Y-126.1535
G1X23.5429Y-124.6697
G1X21.3572Y-123.0258
G1X19.5139Y-121.1990
G1X17.8273Y-119.0100
G1X16.4618Y-116.6501
G1X15.4900Y-114.2327
G1X14.9448Y-111.8285
G1X14.7460Y-109.1963
G1X14.9247Y-106.5618
G1X15.4526Y-104.1509
G1X15.8941Y-102.8917
G1X16.4509Y-101.6318
G1X17.8707Y-99.1739
G1X19.6330Y-96.9045
G1X20.6179Y-95.8802
G1X21.6949Y-94.9185
G1X22.8499Y-94.0281
G1X24.1809Y-93.1364
G1X25.5937Y-92.3163
G1X27.0675Y-91.5795
G1X30.0181Y-90.4331
G1X32.9743Y-89.7099
G1X36.3024Y-89.3130
G1X39.5782Y-89.2930
G1X42.6348Y-89.6280
G1X45.6784Y-90.3564
G1X47.2411Y-90.8797
G1X48.8646Y-91.5337
G1X51.7304Y-93.0048
G1X53.0275Y-93.8414
G1X54.2266Y-94.7447
G1X55.3818Y-95.7475
G1X56.4756Y-96.8318
G1X58.3065Y-99.0204
G1X59.7428Y-101.2549
G1X60.7972Y-103.5525
G1X61.5465Y-106.0727
G1X61.9670Y-108.7819
G1X62.0010Y-111.4583
G1X61.6469Y-113.9400
G1X60.8791Y-116.5337
G1X59.7505Y-119.0499
G1X58.3114Y-121.3705
G1X56.6358Y-123.3737
G1X54.5687Y-125.2844
G1X52.1570Y-127.0372
G1X49.6734Y-128.4309
G1X47.0425Y-129.5020
G1X44.1063Y-130.3184
G1X41.0697Y-130.8229
G1X38.0771Y-130.9876
G1X35.1884Y-130.7984
G1X32.1585Y-130.2557
G1X29.2316Y-129.3962
G1X26.5419Y-128.2505
G1X24.0825Y-126.7933
G1X21.7967Y-125.0274
G1X19.7902Y-123.0435
G1X18.9249Y-121.9982
G1X18.1433Y-120.8935
G1X16.8708Y-118.5728
G1X15.8939Y-115.9762
G1X15.3281Y-113.4211
G1X15.1688Y-111.0087
G1X15.4055Y-108.4360
G1X16.0532Y-105.7585
G1X16.5392Y-104.4129
G1X17.1215Y-103.1218
G1X17.7862Y-101.9190
G1X18.5209Y-100.8105
G1X19.4224Y-99.6460
G1X20.4274Y-98.5202
G1X21.5968Y-97.3788
G1X22.7687Y-96.3806
G1X25.1849Y-94.7043
G1X27.7794Y-93.3851
G1X30.8343Y-92.2729
G1X33.9230Y-91.5344
G1X36.8820Y-91.1857
G1X40.0930Y-91.2063
G1X43.4523Y-91.6154
G1X46.5783Y-92.3667
G1X49.3439Y-93.4108
G1X52.0535Y-94.8373
G1X54.5688Y-96.5630
G1X56.7613Y-98.5055
G1X58.4950Y-100.5381
G1X60.0400Y-102.9435
G1X61.2042Y-105.4145
G1X61.9887Y-107.9217
G1X62.3657Y-110.4413
G1X62.3786Y-113.0759
G1X62.0153Y-115.7998
G1X61.3124Y-118.2885
G1X60.2299Y-120.6642
G1X58.7735Y-122.9726
G1X56.9461Y-125.1919
G1X54.9591Y-127.0566
G1X52.6688Y-128.6892
G1X50.0895Y-130.1022
G1X47.2486Y-131.2702
G1X44.4691Y-132.0538
G1X41.5287Y-132.5080
G1X38.4697Y-132.6445
G1X35.4362Y-132.4631
G1X32.5398Y-131.9558
G1X29.7243Y-131.0957
G1X26.9034Y-129.8678
G1X24.3151Y-128.3614
G1X22.1543Y-126.6949
G1X20.2103Y-124.7199
G1X18.4783Y-122.4299
G1X17.1634Y-120.0977
G1X16.6770Y-118.9593
G1X16.2693Y-117.7459
G1X15.9502Y-116.4824
G1X15.7071Y-115.0837
G1X15.5699Y-113.6649
G1X15.5403Y-112.2455
G1X15.7763Y-109.6754
G1X16.0361Y-108.4623
G1X16.4263Y-107.1665
G1X16.9279Y-105.8705
G1X17.5320Y-104.5908
G1X19.0136Y-102.1459
G1X20.7335Y-100.0353
G1X22.7204Y-98.2053
G1X25.2903Y-96.3873
G1X28.0117Y-94.9241
G1X30.8005Y-93.8484
G1X33.7846Y-93.1151
G1X37.0260Y-92.6973
G1X40.1604Y-92.6414
G1X43.0963Y-92.9380
G1X46.1663Y-93.6240
G1X49.2499Y-94.6908
G1X51.9969Y-96.0209
G1X54.4088Y-97.6129
G1X56.7418Y-99.6344
G1X58.7037Y-101.8269
G1X60.2241Y-104.0660
G1X61.3562Y-106.4224
G1X62.1937Y-109.0578
G1X62.6543Y-111.7565
G1X62.7110Y-114.2927
G1X62.5899Y-115.5449
G1X62.3515Y-116.9122
G1X62.0065Y-118.2820
G1X61.5611Y-119.6370
G1X60.4401Y-122.1444
G1X59.0274Y-124.3849
G1X57.1755Y-126.5466
G1X54.9803Y-128.5302
G1X52.6389Y-130.1863
G1X50.2105Y-131.4894
G1X47.4256Y-132.5674
G1X44.3593Y-133.3752
G1X41.2565Y-133.8323
G1X38.3002Y-133.9076
G1X35.1586Y-133.6154
G1X31.9579Y-132.9509
G1X29.1507Y-132.0224
G1X26.6238Y-130.8170
G1X24.1097Y-129.2158
G1X21.8378Y-127.3516
G1X19.9851Y-125.3853
G1X18.4341Y-123.1606
G1X17.7462Y-121.9045
G1X17.1487Y-120.6029
G1X16.2800Y-118.0287
G1X15.8371Y-115.5568
G1X15.7882Y-113.0797
G1X16.1332Y-110.3479
G1X16.8345Y-107.7892
G1X17.3144Y-106.5759
G1X17.9082Y-105.3681
G1X18.5988Y-104.2044
G1X19.4521Y-102.9798
G1X21.3824Y-100.7372
G1X23.5968Y-98.7583
G1X25.9512Y-97.1757
G1X28.6424Y-95.8292
G1X31.5412Y-94.7685
G1X34.5055Y-94.0495
G1X37.4424Y-93.7095
G1X40.5979Y-93.7067
G1X43.7478Y-94.0435
G1X46.7333Y-94.7100
G1X49.4801Y-95.6968
G1X52.2390Y-97.0691
G1X54.7777Y-98.7237
G1X56.9161Y-100.5405
G1X58.7371Y-102.5866
G1X60.2947Y-104.8699
G1X61.5212Y-107.2829
G1X62.0046Y-108.5495
G1X62.3570Y-109.7469
G1X62.8001Y-112.3125
G1X62.8758Y-115.0691
G1X62.7609Y-116.4907
G1X62.5601Y-117.7840
G1X61.8933Y-120.2179
G1X60.8142Y-122.6476
G1X59.3178Y-125.0735
G1X57.5813Y-127.2116
G1X55.5873Y-129.0794
G1X53.1601Y-130.8068
G1X50.4647Y-132.2780
G1X47.6360Y-133.4185
G1X44.7922Y-134.1689
G1X41.7882Y-134.5988
G1X38.6214Y-134.7120
G1X35.6441Y-134.4924
G1X32.8084Y-133.9356
G1X29.7785Y-132.9624
G1X26.9112Y-131.6603
G1X24.5094Y-130.1961
G1X22.3048Y-128.4024
G1X20.2617Y-126.2393
G1X18.6154Y-123.9659
G1X17.4037Y-121.6699
G1X16.5537Y-119.2083
G1X16.2378Y-117.8203
G1X16.0248Y-116.4128
G1X15.9181Y-115.0047
G1X15.9207Y-113.6151
G1X16.0235Y-112.3578
G1X16.2464Y-111.0308
G1X17.0008Y-108.4426
G1X17.5460Y-107.1178
G1X18.1863Y-105.8276
G1X19.6620Y-103.5013
G1X21.3702Y-101.5141
G1X23.5471Y-99.5767
G1X26.0058Y-97.8724
G1X28.6273Y-96.4898
G1X31.3822Y-95.4665
G1X34.4487Y-94.7214
G1X37.6035Y-94.3128
G1X40.5910Y-94.2655
G1X43.6765Y-94.5985
G1X46.7742Y-95.2947
G1X49.7275Y-96.3137
G1X52.2685Y-97.5495
G1X54.7335Y-99.1723
G1X56.9912Y-101.0911
G1X58.9312Y-103.2097
G1X59.7213Y-104.2754
G1X60.4616Y-105.4549
G1X61.1225Y-106.7132
G1X61.6946Y-108.0274
G1X62.1721Y-109.3798
G1X62.5489Y-110.7525
G1X62.9613Y-113.2944
G1X63.0180Y-114.5383
G1X62.9742Y-115.8030
G1X62.5792Y-118.4790
G1X62.2216Y-119.8587
G1X61.7658Y-121.2092
G1X61.2163Y-122.5124
G1X60.6264Y-123.6642
G1X59.1966Y-125.8233
G1X57.2778Y-128.0118
G1X54.9751Y-130.0429
G1X52.7269Y-131.5710
G1X50.2024Y-132.8509
G1X47.3351Y-133.9114
G1X44.3486Y-134.6592
G1X41.3889Y-135.0489
G1X38.2964Y-135.0732
G1X35.0468Y-134.7308
G1X31.9102Y-134.0372
G1X29.2258Y-133.0907
G1X26.5608Y-131.7605
G1X24.0652Y-130.1273
G1X21.8606Y-128.2709
G1X20.9275Y-127.3084
G1X20.0219Y-126.2225
G1X18.4812Y-123.9216
G1X17.2253Y-121.3541
G1X16.4073Y-118.8252
G1X16.1650Y-117.6008
G1X16.0167Y-116.3280
G1X15.9998Y-113.7063
G1X16.3674Y-110.9860
G1X17.0808Y-108.4949
G1X18.1781Y-106.1278
G1X19.7186Y-103.7512
G1X21.5886Y-101.5545
G1X23.6181Y-99.7178
G1X26.0167Y-98.0822
G1X28.7174Y-96.6858
G1X31.5830Y-95.5924
G1X34.4685Y-94.8671
G1X37.4372Y-94.4965
G1X40.6092Y-94.4478
G1X43.7297Y-94.7380
G1X46.5217Y-95.3302
G1X49.4247Y-96.3264
G1X52.2980Y-97.7042
G1X54.8124Y-99.3056
G1X56.9223Y-101.0884
G1X58.7829Y-103.1422
G1X60.4144Y-105.4840
G1X61.6225Y-107.8399
G1X62.4243Y-110.2431
G1X62.8919Y-112.9314
G1X62.9820Y-114.3524
G1X62.9662Y-115.7670
G1X62.6508Y-118.3116
G1X62.3521Y-119.5199
G1X61.9183Y-120.8265
G1X60.7333Y-123.4069
G1X59.2444Y-125.7520
G1X57.5587Y-127.7567
G1X55.4727Y-129.6290
G1X52.8862Y-131.4126
G1X50.1668Y-132.8384
G1X47.3898Y-133.8786
G1X44.3877Y-134.5900
G1X41.2439Y-134.9755
G1X38.1159Y-135.0165
G1X35.2731Y-134.7192
G1X32.2865Y-134.0487
G1X29.2824Y-133.0130
G1X26.5167Y-131.6799
G1X24.1983Y-130.1606
G1X21.9461Y-128.2323
G1X19.9750Y-126.0619
G1X19.1001Y-124.8791
G1X18.3895Y-123.7553
G1X17.7922Y-122.6293
G1X17.2288Y-121.3395
G1X16.4079Y-118.7190
G1X15.9633Y-116.0329
G1X15.8914Y-114.6574
G1X15.9266Y-113.4097
G1X16.0639Y-112.1536
G1X16.3220Y-110.7827
G1X17.1203Y-108.1502
G1X17.6781Y-106.8252
G1X18.3259Y-105.5509
G1X19.7816Y-103.3323
G1X21.6716Y-101.2034
G1X23.9807Y-99.1955
G1X26.4399Y-97.5403
G1X28.9799Y-96.2684
G1X31.9077Y-95.2321
G1X35.0001Y-94.5140
G1X38.0016Y-94.1583
G1X40.9669Y-94.1652
G1X44.1108Y-94.5389
G1X47.2884Y-95.2823
G1X49.9638Y-96.2415
G1X52.4825Y-97.5184
G1X54.9617Y-99.1791
G1X57.1838Y-101.0915
G1X58.1936Y-102.1498
G1X59.0441Y-103.1822
G1X60.5345Y-105.4738
G1X61.1850Y-106.7537
G1X61.7423Y-108.0733
G1X62.1992Y-109.4151
G1X62.5483Y-110.7617
G1X62.7696Y-112.0010
G1X62.8888Y-113.2420
G1X62.8350Y-115.8198
G1X62.3857Y-118.5233
G1X62.0027Y-119.8916
G1X61.5593Y-121.1198
G1X61.0340Y-122.2918
G1X60.3954Y-123.4587
G1X58.8034Y-125.7400
G1X56.7949Y-127.9350
G1X54.6044Y-129.7837
G1X52.3016Y-131.2527
G1X49.6650Y-132.5167
G1X46.7471Y-133.5371
G1X43.8751Y-134.1950
G1X40.9330Y-134.5029
G1X37.8779Y-134.4787
G1X34.7316Y-134.1193
G1X31.8447Y-133.4585
G1X29.1098Y-132.4650
G1X26.3595Y-131.0827
G1X23.9073Y-129.4761
G1X21.7707Y-127.6643
G1X19.9532Y-125.6253
G1X18.3447Y-123.2550
G1X17.1287Y-120.8341
G1X16.6499Y-119.5628
G1X16.3029Y-118.3667
G1X16.0415Y-117.1031
G1X15.8619Y-115.7001
G1X15.8135Y-112.9405
G1X15.9425Y-111.5183
G1X16.1560Y-110.2251
G1X16.8466Y-107.7932
G1X17.9975Y-105.2794
G1X19.5297Y-102.8666
G1X21.2961Y-100.7470
G1X23.3138Y-98.9030
G1X25.7682Y-97.1963
G1X28.5769Y-95.7071
G1X31.4194Y-94.6069
G1X34.3725Y-93.8781
G1X37.4936Y-93.4884
G1X40.7569Y-93.4402
G1X43.7007Y-93.7298
G1X46.6419Y-94.3922
G1X49.7339Y-95.4879
G1X52.5265Y-96.8680
G1X54.8747Y-98.4280
G1X55.9779Y-99.3396
G1X57.1008Y-100.4049
G1X58.9849Y-102.5812
G1X60.5142Y-104.9089
G1X61.5735Y-107.1999
G1X62.3081Y-109.7303
G1X62.6910Y-112.4587
G1X62.7303Y-113.8683
G1X62.6659Y-115.1515
G1X62.5028Y-116.3904
G1X62.2138Y-117.7169
G1X61.3404Y-120.2824
G1X60.7386Y-121.5833
G1X60.0452Y-122.8413
G1X58.4783Y-125.0824
G1X56.6202Y-127.0481
G1X54.3419Y-128.9057
G1X51.8131Y-130.5065
G1X49.2550Y-131.7228
G1X46.4509Y-132.6444
G1X43.3445Y-133.2869
G1X40.2852Y-133.5824
G1X37.3103Y-133.5308
G1X34.2126Y-133.0955
G1X31.1315Y-132.3033
G1X28.3127Y-131.2360
G1X25.8818Y-129.9662
G1X23.4462Y-128.2711
G1X21.2321Y-126.2912
G1X19.4072Y-124.2006
G1X17.9709Y-122.0007
G1X16.8170Y-119.5129
G1X16.3523Y-118.1605
G1X15.9865Y-116.7882
G1X15.5879Y-114.2464
G1X15.5346Y-112.9999
G1X15.5816Y-111.7275
G1X15.9625Y-109.1339
G1X16.7354Y-106.4754
G1X17.2761Y-105.1533
G1X17.9061Y-103.8933
G1X18.6022Y-102.7391
G1X19.3903Y-101.6283
G1X20.3408Y-100.4680
G1X21.3866Y-99.3527
G1X22.5904Y-98.2289
G1X23.7861Y-97.2523
G1X26.1280Y-95.6858
G1X28.7743Y-94.3788
G1X31.7641Y-93.3160
G1X34.8573Y-92.5939
G1X37.9116Y-92.2593
G1X41.0486Y-92.3053
G1X44.3069Y-92.7219
G1X47.3171Y-93.4603
G1X49.9921Y-94.4829
G1X52.6118Y-95.8753
G1X55.1127Y-97.6142
G1X57.2034Y-99.5008
G1X58.9200Y-101.5697
G1X60.3741Y-103.9271
G1X61.4825Y-106.4291
G1X62.1652Y-108.8611
G1X62.3573Y-110.1055
G1X62.4528Y-111.3911
G1X62.4531Y-112.7006
G1X62.3486Y-114.1195
G1X61.8728Y-116.7128
G1X61.0463Y-119.1345
G1X59.8307Y-121.4450
G1X58.1818Y-123.7480
G1X56.2980Y-125.7739
G1X54.2292Y-127.4885
G1X51.7237Y-129.0490
G1X48.9379Y-130.3518
G1X46.0136Y-131.3326
G1X43.1995Y-131.9149
G1X40.2961Y-132.1721
G1X37.2170Y-132.1245
G1X34.2037Y-131.7598
G1X31.5199Y-131.1201
G1X28.6465Y-130.0652
G1X25.8960Y-128.6857
G1X23.4814Y-127.1061
G1X21.3917Y-125.3151
G1X19.5419Y-123.2516
G1X17.9111Y-120.8959
G1X16.6905Y-118.5205
G1X15.8745Y-116.1241
G1X15.3844Y-113.4339
G1X15.2796Y-112.0067
G1X15.2782Y-110.5819
G1X15.3816Y-109.1779
G1X15.5724Y-107.9091
G1X15.8524Y-106.6965
G1X16.2608Y-105.3984
G1X16.7758Y-104.1025
G1X17.4365Y-102.7338
G1X18.1996Y-101.4041
G1X18.9949Y-100.2151
G1X20.7851Y-98.0571
G1X22.8819Y-96.1595
G1X24.1849Y-95.1923
G1X25.5660Y-94.2978
G1X28.3887Y-92.8189
G1X31.1681Y-91.7839
G1X34.2825Y-91.0546
G1X37.6297Y-90.6691
G1X40.8287Y-90.6703
G1X43.8837Y-91.0598
G1X46.9706Y-91.8410
G1X50.0132Y-93.0011
G1X51.4254Y-93.6974
G1X52.6741Y-94.4224
G1X53.8467Y-95.2183
G1X55.0570Y-96.1663
G1X56.2048Y-97.1977
G1X57.2749Y-98.2968
G1X59.0125Y-100.4755
G1X59.7294Y-101.6010
G1X60.3252Y-102.7218
G1X60.8488Y-103.9189
G1X61.3195Y-105.2618
G1X61.9383Y-107.9386
G1X62.1493Y-110.5159
G1X61.9704Y-112.9096
G1X61.7277Y-114.1676
G1X61.3588Y-115.5259
G1X60.3560Y-118.0895
G1X59.6977Y-119.3546
G1X59.0094Y-120.4692
G1X57.4054Y-122.5154
G1X55.3204Y-124.5354
G1X52.9387Y-126.3274
G1X50.5565Y-127.7058
G1X48.0521Y-128.7663
G1X45.1463Y-129.6244
G1X42.1226Y-130.1750
G1X39.2219Y-130.3832
G1X36.2567Y-130.2429
G1X33.1327Y-129.7414
G1X30.0964Y-128.9091
G1X27.4687Y-127.8571
G1X25.0838Y-126.5482
G1X22.6633Y-124.8313
G1X20.5664Y-122.9466
G1X18.8020Y-120.9121
G1X17.3774Y-118.7099
G1X16.1584Y-116.1147
G1X15.3417Y-113.5136
G1X14.9418Y-111.1209
G1X14.8980Y-108.6655
G1X15.2104Y-106.0532
G1X15.8665Y-103.4936
G1X16.3547Y-102.1773
G1X16.9276Y-100.9374
G1X17.6338Y-99.6864
G1X18.4569Y-98.4544
G1X19.3830Y-97.2569
G1X20.4692Y-96.0345
G1X21.6404Y-94.8869
G1X22.8009Y-93.8956
G1X24.0037Y-93.0043
G1X25.2191Y-92.2305
G1X27.9837Y-90.8204
G1X31.0599Y-89.6826
G1X34.0973Y-88.9475
G1X37.1510Y-88.6070
G1X40.4301Y-88.6310
G1X43.6706Y-89.0211
G1X45.2205Y-89.3490
G1X46.7254Y-89.7731
G1X48.1581Y-90.2846
G1X49.6678Y-90.9365
G1X52.4598Y-92.4664
G1X53.7912Y-93.3699
G1X54.9467Y-94.2729
G1X56.0114Y-95.2361
G1X56.9878Y-96.2679
G1X58.6156Y-98.3885
G1X59.9485Y-100.6858
G1X60.9229Y-103.0539
G1X61.4906Y-105.4110
G1X61.7107Y-108.0233
G1X61.5523Y-110.6639
G1X61.3322Y-111.9542
G1X61.0186Y-113.2028
G1X60.1218Y-115.5382
G1X58.7942Y-117.9054
G1X57.1288Y-120.1273
G1X55.2752Y-122.0245
G1X53.2181Y-123.6280
G1X50.6150Y-125.1844
G1X47.7926Y-126.4502
G1X45.0844Y-127.3036
G1X42.1845Y-127.8415
G1X39.1290Y-128.0678
G1X36.1630Y-127.9846
G1X33.4110Y-127.6170
G1X30.6838Y-126.9286
G1X27.7941Y-125.8515
G1X25.1583Y-124.5288
G1X22.7982Y-122.9782
G1X20.7301Y-121.1958
G1X18.8021Y-119.0711
G1X17.2301Y-116.8502
G1X16.0148Y-114.5487
G1X15.1796Y-112.1975
G1X14.8444Y-110.8131
G1X14.6074Y-109.4026
G1X14.4375Y-106.6752
G1X14.6447Y-104.1437
G1X15.2595Y-101.5832
G1X15.7692Y-100.1615
G1X16.3876Y-98.7651
G1X17.1057Y-97.4135
G1X17.9147Y-96.1262
G1X18.8055Y-94.9227
G1X19.7437Y-93.8438
G1X20.7867Y-92.8041
G1X22.0007Y-91.7462
G1X23.3007Y-90.7548
G1X24.6676Y-89.8435
G1X26.0819Y-89.0261
G1X27.5247Y-88.3165
G1X28.9669Y-87.7294
G1X30.5772Y-87.1984
G1X33.8691Y-86.4411
G1X37.2183Y-86.0724
G1X38.8050Y-86.0433
G1X40.3775Y-86.1186
G1X41.9798Y-86.3000
G1X43.6902Y-86.6024
G1X45.3831Y-87.0107
G1X47.0320Y-87.5177
G1X48.5202Y-88.0785
G1X49.9242Y-88.7143
G1X51.2334Y-89.4237
G1X52.4464Y-90.1929
G1X53.6989Y-91.1073
G1X54.9632Y-92.1692
G1X56.1342Y-93.3029
G1X57.1296Y-94.4151
G1X58.6486Y-96.5378
G1X59.8436Y-98.9007
G1X60.3164Y-100.1526
G1X60.7252Y-101.5295
G1X61.1876Y-104.0998
G1X61.2392Y-106.5176
G1X60.9036Y-108.9929
G1X60.1763Y-111.5571
G1X59.1457Y-113.8967
G1X57.7955Y-116.0422
G1X55.9920Y-118.1580
G1X53.8592Y-120.0952
G1X51.5870Y-121.7019
G1X49.2529Y-122.9459
G1X46.5517Y-123.9980
G1X43.6780Y-124.7764
G1X40.8616Y-125.2317
G1X38.0016Y-125.3644
G1X34.9641Y-125.1608
G1X31.9281Y-124.6350
G1X29.1282Y-123.8398
G1X26.6661Y-122.8254
G1X24.1614Y-121.4415
G1X21.8191Y-119.7906
G1X19.7418Y-117.9422
G1X18.0129Y-115.9483
G1X16.5504Y-113.7241
G1X15.3308Y-111.2371
G1X14.4960Y-108.7751
G1X14.0466Y-106.3948
G1X13.9363Y-103.8906
G1X14.1546Y-101.3472
G1X14.6901Y-98.8670
G1X15.1243Y-97.5439
G1X15.6859Y-96.2159
G1X16.3672Y-94.9098
G1X17.2183Y-93.5407
G1X18.1194Y-92.2972
G1X19.1757Y-91.0324
G1X20.3151Y-89.8506
G1X21.4447Y-88.8359
G1X22.6724Y-87.8893
G1X23.9909Y-87.0162
G1X26.8723Y-85.4824
G1X29.9395Y-84.2938
G1X31.4902Y-83.8525
G1X33.0277Y-83.5241
G1X34.6128Y-83.2929
G1X36.3428Y-83.1489
G1X38.0936Y-83.1091
G1X39.8383Y-83.1730
G1X41.5500Y-83.3399
G1X43.1067Y-83.5906
G1X44.5442Y-83.9193
G1X46.0968Y-84.3852
G1X47.6343Y-84.9574
G1X49.2269Y-85.6696
G1X50.7521Y-86.4767
G1X52.1839Y-87.3656
G1X53.4229Y-88.2653
G1X54.5473Y-89.2241
G1X55.6288Y-90.3023
G1X56.6340Y-91.4656
G1X58.1567Y-93.6275
G1X59.3409Y-95.8892
G1X60.1037Y-98.0755
G1X60.5714Y-100.5566
G1X60.6833Y-103.2084
G1X60.4243Y-105.7037
G1X59.8083Y-108.0239
G1X58.8310Y-110.2984
G1X57.4753Y-112.5765
G1X55.8334Y-114.6597
G1X54.0154Y-116.4087
G1X51.7831Y-118.0618
G1X49.2028Y-119.5410
G1X46.5679Y-120.6732
G1X43.9338Y-121.4471
G1X41.0651Y-121.9497
G1X38.1005Y-122.1629
G1X35.2684Y-122.0818
G1X32.6312Y-121.7202
G1X29.8695Y-121.0324
G1X27.0672Y-120.0202
G1X24.4466Y-118.7454
G1X22.2200Y-117.3195
G1X20.1670Y-115.6288
G1X18.2357Y-113.6340
G1X16.5881Y-111.4792
G1X15.3730Y-109.3903
G1X14.4137Y-107.0661
G1X13.7058Y-104.4018
G1X13.3711Y-101.7977
G1X13.4012Y-99.2677
G1X13.8117Y-96.7539
G1X14.2122Y-95.2956
G1X14.7608Y-93.7616
G1X15.3812Y-92.3646
G1X16.0967Y-91.0278
G1X16.8998Y-89.7713
G1X17.7670Y-88.6269
G1X18.7458Y-87.5125
G1X19.8956Y-86.3712
G1X21.1363Y-85.2936
G1X22.4492Y-84.2949
G1X23.8159Y-83.3906
G1X25.2177Y-82.5958
G1X26.6182Y-81.9295
G1X28.1952Y-81.3067
G1X31.4344Y-80.3632
G1X33.1445Y-80.0254
G1X34.8486Y-79.7964
G1X36.4235Y-79.6855
G1X38.0075Y-79.6798
G1X39.7275Y-79.7870
G1X41.4586Y-80.0052
G1X43.1739Y-80.3288
G1X44.8467Y-80.7520
G1X46.3581Y-81.2363
G1X47.7856Y-81.7989
G1X49.1526Y-82.4544
G1X50.4908Y-83.2134
G1X51.8674Y-84.1221
G1X53.1715Y-85.1171
G1X54.3826Y-86.1821
G1X55.4152Y-87.2298
G1X56.8670Y-89.0399
G1X58.1262Y-91.1445
G1X59.1080Y-93.4076
G1X59.7742Y-95.7325
G1X60.0754Y-97.8401
G1X60.0647Y-100.1070
G1X59.7382Y-102.4231
G1X59.1142Y-104.6968
G1X58.2108Y-106.8365
G1X57.0284Y-108.8056
G1X55.4829Y-110.7627
G1X53.6716Y-112.5769
G1X51.7474Y-114.1136
G1X49.7533Y-115.3586
G1X47.4337Y-116.4704
G1X44.9324Y-117.3756
G1X42.3431Y-118.0399
G1X39.8604Y-118.4193
G1X37.3099Y-118.5404
G1X34.5723Y-118.4087
G1X31.8449Y-118.0234
G1X29.3233Y-117.4210
G1X27.0004Y-116.6063
G1X24.5976Y-115.4731
G1X22.3040Y-114.0997
G1X20.2795Y-112.5989
G1X18.5693Y-111.0294
G1X16.9903Y-109.1966
G1X15.5528Y-107.0801
G1X14.3742Y-104.8328
G1X13.5029Y-102.5365
G1X12.9774Y-100.2676
G1X12.7487Y-97.9656
G1X12.7894Y-95.6244
G1X13.0970Y-93.3220
G1X13.6371Y-91.2318
G1X14.4644Y-89.1572
G1X15.6162Y-87.0282
G1X17.0161Y-85.0048
G1X18.5466Y-83.2297
G1X20.2683Y-81.6358
G1X22.2639Y-80.1669
G1X24.4599Y-78.8647
G1X26.8732Y-77.7306
G1X29.1439Y-76.9216
G1X31.4444Y-76.3553
G1X33.9670Y-75.9820
G1X36.5380Y-75.8314
G1X39.0721Y-75.9068
G1X41.5111Y-76.2160
G1X43.9883Y-76.8019
G1X46.4277Y-77.6400
G1X48.7441Y-78.6939
G1X50.8520Y-79.9273
G1X52.6788Y-81.3035
G1X54.3926Y-82.9341
G1X55.9714Y-84.8159
G1X57.2285Y-86.7240
G1X58.1599Y-88.6155
G1X58.8320Y-90.6213
G1X59.2738Y-92.8331
G1X59.4368Y-95.1773
G1X59.2957Y-97.3636
G1X58.8323Y-99.5276
G1X58.3197Y-101.0354
G1X57.6640Y-102.5254
G1X56.8781Y-103.9704
G1X55.9749Y-105.3432
G1X54.9671Y-106.6164
G1X53.9212Y-107.7185
G1X52.6885Y-108.8224
G1X51.3355Y-109.8621
G1X49.8867Y-110.8203
G1X48.3666Y-111.6799
G1X46.7996Y-112.4235
G1X45.2300Y-113.0275
G1X43.5446Y-113.5333
G1X41.6732Y-113.9535
G1X39.7433Y-114.2511
G1X37.8946Y-114.4147
G1X36.0580Y-114.4578
G1X34.3628Y-114.3835
G1X32.6008Y-114.1788
G1X30.8124Y-113.8457
G1X28.9261Y-113.3639
G1X27.1716Y-112.7928
G1X25.4787Y-112.1188
G1X23.8772Y-111.3502
G1X22.4413Y-110.5246
G1X21.0201Y-109.5589
G1X19.6541Y-108.4813
G1X18.2907Y-107.2393
G1X17.1028Y-105.9909
G1X16.0328Y-104.6883
G1X15.1012Y-103.3504
G1X14.3122Y-101.9769
G1X13.3202Y-99.7473
G1X12.5653Y-97.3042
G1X12.1224Y-94.8309
G1X12.0169Y-92.5077
G1X12.2490Y-90.0512
G1X12.8065Y-87.5769
G1X13.6621Y-85.1791
G1X14.7885Y-82.9520
G1X16.2125Y-80.8830
G1X17.9462Y-78.9145
G1X19.9946Y-77.0515
G1X22.1288Y-75.5041
G1X24.3390Y-74.2635
G1X26.8401Y-73.1956
G1X29.4795Y-72.3636
G1X32.1549Y-71.7972
G1X34.9040Y-71.5186
G1X37.7546Y-71.5513
G1X40.7203Y-71.8937
G1X43.4714Y-72.5030
G1X45.8789Y-73.3212
G1X48.2752Y-74.4624
G1X50.6242Y-75.9235
G1X52.6584Y-77.5315
G1X54.4078Y-79.3089
G1X55.8686Y-81.2802
G1X57.1164Y-83.5342
G1X58.0040Y-85.7928
G1X58.5271Y-87.9578
G1X58.7214Y-90.2161
G1X58.5847Y-92.6517
G1X58.1402Y-94.9630
G1X57.6907Y-96.4124
G1X57.1254Y-97.7713
G1X56.4048Y-99.1222
G1X55.5389Y-100.4537
G1X54.4794Y-101.8226
G1X53.3696Y-103.0443
G1X52.0910Y-104.2464
G1X50.8126Y-105.2639
G1X49.4583Y-106.1676
G1X47.9142Y-107.0324
G1X46.2642Y-107.8058
G1X44.5393Y-108.4746
G1X42.7703Y-109.0252
G1X41.0870Y-109.4245
G1X39.4373Y-109.6935
G1X37.6750Y-109.8541
G1X35.8597Y-109.9006
G1X33.9196Y-109.8268
G1X31.9898Y-109.6279
G1X30.2037Y-109.3250
G1X28.4893Y-108.9115
G1X26.8754Y-108.3957
G1X25.2632Y-107.7585
G1X23.5869Y-106.9659
G1X21.9700Y-106.0659
G1X20.5228Y-105.1305
G1X19.1776Y-104.1245
G1X17.9355Y-103.0388
G1X16.7346Y-101.8034
G1X15.6187Y-100.4616
G1X14.6043Y-99.0375
G1X13.7080Y-97.5553
G1X12.6038Y-95.2308
G1X11.8888Y-93.0018
G1X11.4404Y-90.5064
G1X11.3060Y-87.9466
G1X11.4765Y-85.5214
G1X11.9416Y-83.2253
G1X12.7508Y-80.9047
G1X13.8696Y-78.6273
G1X15.2505Y-76.4750
G1X16.8463Y-74.5302
G1X18.6677Y-72.8024
G1X20.8384Y-71.1659
G1X23.2958Y-69.6932
G1X25.7680Y-68.5477
G1X28.2743Y-67.7133
G1X30.9361Y-67.1301
G1X33.8775Y-66.7841
G1X36.6800Y-66.7368
G1X39.2243Y-66.9646
G1X41.9257Y-67.5078
G1X44.6669Y-68.3647
G1X47.2276Y-69.4781
G1X49.4066Y-70.7486
G1X51.5122Y-72.3684
G1X53.4061Y-74.2332
G1X55.0069Y-76.2552
G1X56.1753Y-78.2284
G1X57.0904Y-80.4723
G1X57.7116Y-82.9529
G1X57.9690Y-85.4603
G1X57.8512Y-87.7778
G1X57.3416Y-90.1689
G1X56.8221Y-91.6998
G1X56.2097Y-93.1049
G1X55.4333Y-94.5444
G1X54.5995Y-95.8132
G1X53.6409Y-97.0184
G1X52.5784Y-98.1416
G1X51.3180Y-99.2820
G1X49.9460Y-100.3487
G1X48.4869Y-101.3219
G1X47.0558Y-102.1348
G1X45.5895Y-102.8310
G1X44.0733Y-103.4153
G1X42.3674Y-103.9392
G1X40.5887Y-104.3590
G1X38.7681Y-104.6679
G1X36.9367Y-104.8591
G1X35.2248Y-104.9253
G1X33.5587Y-104.8755
G1X31.7826Y-104.6990
G1X29.9830Y-104.4011
G1X28.1895Y-103.9884
G1X26.4314Y-103.4675
G1X24.7381Y-102.8447
G1X23.2250Y-102.1689
G1X21.7428Y-101.3723
G1X20.2800Y-100.4457
G1X18.8702Y-99.4122
G1X17.5347Y-98.2889
G1X16.2947Y-97.0932
G1X15.1716Y-95.8421
G1X14.2373Y-94.6250
G1X13.3672Y-93.2741
G1X12.2071Y-90.9967
G1X11.3205Y-88.5946
G1X10.7419Y-86.1576
G1X10.5061Y-83.8433
G1X10.5938Y-81.3513
G1X11.0252Y-78.7347
G1X11.7813Y-76.1986
G1X12.7854Y-73.9511
G1X14.1186Y-71.7972
G1X15.8234Y-69.6637
G1X17.7781Y-67.7173
G1X19.9022Y-66.0434
G1X22.1509Y-64.6779
G1X24.7206Y-63.4760
G1X27.4225Y-62.5314
G1X30.1453Y-61.8837
G1X32.9948Y-61.5468
G1X35.9545Y-61.5245
G1X38.8947Y-61.8041
G1X41.6826Y-62.3729
G1X44.2608Y-63.2330
G1X46.7879Y-64.4163
G1X49.1367Y-65.8535
G1X51.2008Y-67.4802
G1X52.9259Y-69.2725
G1X54.4387Y-71.3396
G1X55.6997Y-73.6515
G1X56.5522Y-75.9263
G1X57.0186Y-78.2200
G1X57.1412Y-80.6526
G1X56.9210Y-83.0997
G1X56.3628Y-85.4490
G1X55.8592Y-86.7894
G1X55.2289Y-88.0922
G1X54.4720Y-89.3784
G1X53.5404Y-90.7101
G1X52.4965Y-91.9767
G1X51.4307Y-93.0840
G1X50.2942Y-94.0935
G1X49.0811Y-95.0059
G1X47.6814Y-95.9021
G1X46.0872Y-96.7673
G1X44.5029Y-97.4915
G1X42.8682Y-98.1119
G1X41.2091Y-98.6155
G1X39.6618Y-98.9686
G1X38.0161Y-99.2262
G1X36.2067Y-99.3896
G1X34.3592Y-99.4395
G1X32.6074Y-99.3816
G1X30.7749Y-99.2084
G1X29.0929Y-98.9383
G1X27.4614Y-98.5591
G1X25.8208Y-98.0583
G1X24.1888Y-97.4450
G1X22.5896Y-96.7296
G1X21.0471Y-95.9228
G1X19.5856Y-95.0349
G1X18.3055Y-94.1346
G1X17.0901Y-93.1406
G1X15.9141Y-92.0266
G1X14.7402Y-90.7439
G1X13.6613Y-89.3807
G1X12.7483Y-88.0438
G1X11.4741Y-85.7207
G1X10.5973Y-83.4349
G1X9.9851Y-80.8611
G1X9.6979Y-78.1134
G1X9.7614Y-75.6057
G1X10.1529Y-73.2159
G1X10.9149Y-70.7399
G1X12.0004Y-68.3205
G1X13.3633Y-66.0529
G1X14.9414Y-64.0492
G1X16.8503Y-62.1734
G1X19.1086Y-60.4082
G1X21.4611Y-58.9448
G1X23.8811Y-57.7845
G1X26.5043Y-56.8825
G1X29.2843Y-56.2375
G1X32.3054Y-55.8516
G1X35.1505Y-55.7993
G1X37.9570Y-56.0784
G1X40.8617Y-56.6911
G1X43.6325Y-57.5947
G1X46.0865Y-58.7232
G1X48.4284Y-60.2012
G1X50.5775Y-61.9695
G1X52.4350Y-63.9355
G1X53.8812Y-65.9703
G1X55.0114Y-68.2322
G1X55.8139Y-70.6562
G1X56.2540Y-73.1231
G1X56.3038Y-75.4331
G1X55.9567Y-77.8810
G1X55.2335Y-80.3305
G1X54.6338Y-81.7514
G1X53.9704Y-83.0168
G1X53.2215Y-84.1906
G1X52.3548Y-85.3207
G1X51.2969Y-86.4931
G1X50.1212Y-87.6132
G1X48.8476Y-88.6624
G1X47.5828Y-89.5653
G1X46.2663Y-90.3743
G1X44.9405Y-91.0623
G1X43.5282Y-91.6717
G1X41.9350Y-92.2376
G1X40.2721Y-92.7121
G1X38.6670Y-93.0684
G1X36.9439Y-93.3440
G1X35.3286Y-93.5000
G1X33.7488Y-93.5497
G1X32.1748Y-93.4974
G1X30.4674Y-93.3371
G1X28.7486Y-93.0729
G1X25.4740Y-92.2785
G1X23.8675Y-91.7321
G1X22.4284Y-91.1343
G1X20.9877Y-90.4174
G1X19.5718Y-89.5950
G1X18.1151Y-88.6203
G1X16.8083Y-87.6214
G1X15.5824Y-86.5568
G1X14.4558Y-85.4393
G1X13.4441Y-84.2783
G1X12.5500Y-83.0770
G1X11.1862Y-80.8145
G1X10.0955Y-78.4032
G1X9.3219Y-75.9362
G1X8.9123Y-73.5605
G1X8.8293Y-70.9702
G1X9.0996Y-68.2404
G1X9.6889Y-65.6822
G1X10.5833Y-63.3072
G1X11.8607Y-60.9629
G1X13.4674Y-58.7197
G1X15.3305Y-56.6670
G1X17.3624Y-54.9055
G1X19.6677Y-53.3646
G1X22.3062Y-51.9981
G1X25.0784Y-50.9171
G1X27.7674Y-50.1933
G1X30.6452Y-49.7705
G1X33.7216Y-49.6547
G1X36.7527Y-49.8607
G1X39.5459Y-50.3716
G1X42.2788Y-51.2312
G1X45.0020Y-52.4507
G1X47.4833Y-53.9361
G1X49.5357Y-55.5666
G1X51.3705Y-57.5072
G1X52.9801Y-59.7562
G1X54.1691Y-62.0344
G1X54.6087Y-63.1841
G1X54.9353Y-64.3133
G1X55.1942Y-65.5852
G1X55.3539Y-66.8905
G1X55.4141Y-68.3129
G1X55.3656Y-69.6304
G1X55.2161Y-70.9263
G1X54.9649Y-72.1828
G1X54.6177Y-73.3685
G1X54.1672Y-74.5394
G1X53.5691Y-75.7948
G1X52.8096Y-77.1142
G1X52.0012Y-78.3031
G1X51.1070Y-79.4327
G1X50.2091Y-80.4133
G1X49.2013Y-81.3603
G1X48.0856Y-82.2587
G1X46.8684Y-83.1083
G1X45.4781Y-83.9488
G1X44.0144Y-84.7089
G1X42.4990Y-85.3756
G1X41.0505Y-85.9044
G1X39.6045Y-86.3267
G1X38.0931Y-86.6600
G1X34.8954Y-87.0691
G1X31.6099Y-87.1223
G1X28.4108Y-86.8044
G1X25.3029Y-86.0877
G1X22.2110Y-84.9836
G1X19.2945Y-83.5510
G1X16.8368Y-81.9429
G1X15.6573Y-80.9906
G1X14.4532Y-79.8799
G1X13.3200Y-78.6878
G1X12.3358Y-77.5113
G1X11.4403Y-76.2921
G1X10.6464Y-75.0440
G1X10.0082Y-73.8654
G1X9.4374Y-72.5933
G1X8.9516Y-71.2611
G1X8.5293Y-69.7855
G1X8.2123Y-68.2797
G1X8.0048Y-66.7638
G1X8.0000Y-66.6906
G1 Z0F20000
(Start Block)

G1X8.0000Y-63.3550
G1Z6F20000
(Plotting speed under)
G1 F8000

G1X8.2435Y-61.3704
G1X8.9783Y-58.6446
G1X10.1222Y-55.9106
G1X10.8495Y-54.5761
G1X11.6029Y-53.4014
G1X13.3701Y-51.2074
G1X15.6444Y-49.0359
G1X18.1919Y-47.1408
G1X20.6955Y-45.7153
G1X23.4417Y-44.5789
G1X26.4804Y-43.7054
G1X29.5704Y-43.1702
G1X31.7191Y-43.0134
G1X33.8313Y-43.0486
G1X36.0783Y-43.2751
G1X38.4014Y-43.7049
G1X40.5367Y-44.2865
G1X42.5269Y-45.0209
G1X44.3491Y-45.9047
G1X46.1117Y-46.9741
G1X47.7667Y-48.1923
G1X49.3429Y-49.5939
G1X50.6467Y-51.0098
G1X51.7459Y-52.5095
G1X52.7054Y-54.1897
G1X53.5176Y-56.0672
G1X54.1051Y-57.9974
G1X54.4346Y-59.8252
G1X54.5257Y-61.6429
G1X54.3832Y-63.5252
G1X53.9941Y-65.5224
G1X53.4098Y-67.3776
G1X52.6743Y-69.0469
G1X51.7492Y-70.6221
G1X50.5881Y-72.1717
G1X49.2282Y-73.6543
G1X47.7070Y-75.0304
G1X46.0622Y-76.2605
G1X44.4442Y-77.2445
G1X42.6255Y-78.1278
G1X40.4673Y-78.9502
G1X38.2988Y-79.5746
G1X36.0863Y-80.0201
G1X33.8868Y-80.2670
G1 Z0F20000
(Start Block)

G1X97.0001Y-73.3156
G1Z6F20000
(Plotting speed under)
G1 F8000

G1X96.1093Y-73.7290
G1X93.2214Y-74.7136
G1X90.2108Y-75.4100
G1X87.3063Y-75.7740
G1X84.4392Y-75.8162
G1X81.4980Y-75.5632
G1X78.4940Y-75.0109
G1X75.7466Y-74.2147
G1X73.1772Y-73.1454
G1X70.5798Y-71.7037
G1X68.0999Y-69.9414
G1X66.0129Y-68.0528
G1X64.3408Y-66.0827
G1X62.8901Y-63.8456
G1X61.6994Y-61.3777
G1X60.9067Y-58.9662
G1X60.4944Y-56.5574
G1X60.4391Y-53.9127
G1X60.7752Y-51.1716
G1X61.4616Y-48.6668
G1X62.4961Y-46.3700
G1X63.9604Y-44.0676
G1X65.7433Y-41.9397
G1X67.6814Y-40.1549
G1X69.9173Y-38.6048
G1X72.5302Y-37.2437
G1X75.4139Y-36.1531
G1X78.1299Y-35.4858
G1X81.0853Y-35.1498
G1X84.2536Y-35.1647
G1X87.2659Y-35.5240
G1X90.0302Y-36.2047
G1X92.7932Y-37.2775
G1X95.5148Y-38.7359
G1X96.7761Y-39.5738
G1X97.0001Y-39.7455
G1 Z0F20000
(Start Block)

G1X97.0001Y-70.1285
G1Z6F20000
(Plotting speed under)
G1 F8000

G1X95.5259Y-71.2525
G1X92.8981Y-72.8156
G1X90.1975Y-74.0495
G1X87.4722Y-74.9404
G1X84.5418Y-75.5450
G1X81.3893Y-75.8675
G1X78.3514Y-75.8749
G1X75.4077Y-75.5639
G1X72.4181Y-74.8989
G1X69.4901Y-73.9178
G1X66.8401Y-72.7130
G1X64.4879Y-71.3015
G1X62.2198Y-69.5229
G1X60.1809Y-67.4909
G1X58.4048Y-65.2209
G1X57.0954Y-62.9534
G1X56.0916Y-60.4018
G1X55.4534Y-57.7317
G1X55.2095Y-55.1713
G1X55.2317Y-53.9295
G1X55.3578Y-52.6753
G1X55.5855Y-51.4060
G1X55.9379Y-50.0389
G1X56.9060Y-47.4675
G1X58.1575Y-45.1742
G1X59.7291Y-43.1013
G1X61.7970Y-41.0559
G1X64.1628Y-39.2560
G1X66.5232Y-37.8887
G1X69.0449Y-36.8382
G1X71.8821Y-36.0323
G1X74.9166Y-35.5287
G1X77.7985Y-35.3933
G1X80.7947Y-35.6369
G1X83.9167Y-36.2711
G1X86.7997Y-37.2180
G1X89.2767Y-38.3926
G1X91.5939Y-39.8847
G1X93.8069Y-41.7239
G1X95.7162Y-43.7703
G1X97.0001Y-45.6096
G1 Z0F20000
(Start Block)

G1X97.0001Y-64.8955
G1Z6F20000
(Plotting speed under)
G1 F8000

G1X96.3618Y-65.9496
G1X94.5464Y-68.1965
G1X92.4854Y-70.1980
G1X90.2092Y-71.9412
G1X87.8612Y-73.3190
G1X85.1164Y-74.5373
G1X82.1974Y-75.4855
G1X79.2313Y-76.1189
G1X76.2780Y-76.4053
G1X73.2141Y-76.3722
G1X70.1498Y-76.0351
G1X67.2179Y-75.4071
G1X64.5773Y-74.5213
G1X61.9673Y-73.3121
G1X59.4262Y-71.7893
G1X57.2335Y-70.1213
G1X56.1751Y-69.1449
G1X55.2002Y-68.1037
G1X53.4558Y-65.8101
G1X52.6536Y-64.4997
G1X52.0004Y-63.2469
G1X51.4483Y-61.9808
G1X51.0060Y-60.7169
G1X50.6855Y-59.4920
G1X50.4427Y-58.1100
G1X50.3148Y-56.7965
G1X50.2814Y-55.3680
G1X50.3552Y-53.9440
G1X50.5190Y-52.6432
G1X50.7969Y-51.2838
G1X51.1473Y-50.0806
G1X51.5957Y-48.9045
G1X52.1900Y-47.6448
G1X52.8890Y-46.4080
G1X53.6815Y-45.2099
G1X55.5030Y-42.9935
G1X56.5098Y-42.0071
G1X57.5382Y-41.1414
G1X58.7346Y-40.2722
G1X60.0197Y-39.4643
G1X61.4666Y-38.6811
G1X62.8740Y-38.0306
G1X65.7584Y-37.0125
G1X68.6466Y-36.4109
G1X71.5889Y-36.1562
G1X74.5593Y-36.2195
G1X77.3183Y-36.5856
G1X80.0150Y-37.2877
G1X82.8734Y-38.4086
G1X85.5493Y-39.8454
G1X87.7581Y-41.4201
G1X89.7406Y-43.2964
G1X91.5488Y-45.5271
G1X92.9691Y-47.8456
G1X93.9659Y-50.1537
G1X94.6204Y-52.6661
G1X94.9293Y-55.4060
G1X94.9356Y-56.8347
G1X94.8447Y-58.1443
G1X94.6590Y-59.4219
G1X94.3827Y-60.6378
G1X93.4694Y-63.2502
G1X92.2149Y-65.7143
G1X90.7121Y-67.9297
G1X89.0806Y-69.7820
G1X87.0294Y-71.5975
G1X84.5275Y-73.3458
G1X81.9191Y-74.7674
G1X79.3463Y-75.8135
G1X76.4659Y-76.6177
G1X73.4342Y-77.1382
G1X70.3829Y-77.3552
G1X67.5197Y-77.2569
G1X64.6237Y-76.8351
G1X61.5492Y-76.0553
G1X58.6368Y-74.9769
G1X56.1195Y-73.6969
G1X53.7431Y-72.0903
G1X51.4949Y-70.1477
G1X49.6256Y-68.0933
G1X48.1944Y-66.0363
G1X47.0079Y-63.6760
G1X46.5015Y-62.3368
G1X46.0944Y-60.9732
G1X45.6087Y-58.3410
G1X45.5243Y-57.1033
G1X45.5429Y-55.8416
G1X45.8844Y-53.2630
G1X46.6348Y-50.6166
G1X47.7001Y-48.2246
G1X49.0496Y-46.1145
G1X50.8755Y-44.0015
G1X53.0961Y-42.0292
G1X55.4467Y-40.4357
G1X57.9728Y-39.1900
G1X60.7437Y-38.2231
G1X63.7396Y-37.5450
G1X66.6149Y-37.2417
G1X69.4986Y-37.3000
G1X72.5443Y-37.7117
G1X75.4029Y-38.4254
G1X78.0544Y-39.4349
G1X80.5465Y-40.7768
G1X82.9703Y-42.4901
G1X85.0431Y-44.3744
G1X86.7219Y-46.3761
G1X88.1609Y-48.7111
G1X88.7843Y-50.0083
G1X89.3135Y-51.3420
G1X90.0189Y-53.8568
G1X90.3215Y-56.2614
G1X90.2600Y-58.8605
G1X89.8128Y-61.5898
G1X89.0296Y-64.1250
G1X87.9444Y-66.4112
G1X86.4238Y-68.7234
G1X84.4957Y-70.9784
G1X82.4565Y-72.8542
G1X80.3071Y-74.3963
G1X77.6991Y-75.8343
G1X74.8698Y-77.0184
G1X72.0432Y-77.8714
G1X69.2277Y-78.3939
G1X66.2005Y-78.6171
G1X63.0162Y-78.5279
G1X60.1149Y-78.1554
G1X57.4352Y-77.5173
G1X54.6572Y-76.5153
G1X51.9938Y-75.2201
G1X49.3250Y-73.5228
G1X48.2073Y-72.6473
G1X47.1567Y-71.6972
G1X46.0940Y-70.5899
G1X45.1079Y-69.4075
G1X44.2101Y-68.1675
G1X43.4125Y-66.8877
G1X42.2324Y-64.4530
G1X41.7896Y-63.1691
G1X41.4665Y-61.9077
G1X41.2350Y-60.6110
G1X41.0887Y-59.1931
G1X41.0497Y-57.7724
G1X41.1185Y-56.3684
G1X41.2958Y-55.0009
G1X41.5579Y-53.7810
G1X41.9234Y-52.5743
G1X42.4306Y-51.2756
G1X43.0459Y-49.9943
G1X43.8136Y-48.6602
G1X44.6205Y-47.4691
G1X45.5043Y-46.3477
G1X46.4550Y-45.3131
G1X47.4252Y-44.4081
G1X49.7206Y-42.6727
G1X52.3826Y-41.1441
G1X55.0963Y-40.0045
G1X56.7788Y-39.5001
G1X58.5284Y-39.1217
G1X60.3441Y-38.8611
G1X62.2944Y-38.7169
G1X64.2394Y-38.7105
G1X66.0406Y-38.8345
G1X67.6895Y-39.0728
G1X69.4524Y-39.4659
G1X71.2147Y-39.9948
G1X73.0382Y-40.6867
G1X74.7864Y-41.5021
G1X76.3381Y-42.3755
G1X77.7005Y-43.2940
G1X79.0417Y-44.3732
G1X80.3109Y-45.5744
G1X81.5523Y-46.9527
G1X82.6048Y-48.3296
G1X83.5188Y-49.7552
G1X84.2329Y-51.1197
G1X84.8296Y-52.5775
G1X85.3307Y-54.2134
G1X85.6887Y-55.9069
G1X85.8972Y-57.6251
G1X85.9498Y-59.3351
G1X85.8514Y-60.9078
G1X85.6091Y-62.4189
G1X85.1950Y-64.0395
G1X84.6295Y-65.6585
G1X83.9243Y-67.2469
G1X83.0908Y-68.7760
G1X82.1996Y-70.1350
G1X81.1792Y-71.4346
G1X79.4190Y-73.2567
G1X77.3972Y-74.9450
G1X75.1888Y-76.4404
G1X72.8692Y-77.6838
G1X70.4331Y-78.6624
G1X67.8176Y-79.4244
G1X65.1077Y-79.9545
G1X62.3983Y-80.2329
G1X59.7409Y-80.2397
G1X57.0187Y-79.9697
G1X54.2024Y-79.4193
G1X51.5928Y-78.6508
G1X49.3480Y-77.7481
G1X47.1805Y-76.5986
G1X45.0312Y-75.1586
G1X43.0624Y-73.5286
G1X41.3446Y-71.7671
G1X39.9236Y-69.9004
G1X38.7013Y-67.7729
G1X37.7149Y-65.4163
G1X37.0773Y-63.1117
G1X36.7797Y-60.9228
G1X36.8012Y-58.6341
G1X37.1311Y-56.3136
G1X37.7493Y-54.0499
G1X38.6360Y-51.9313
G1X39.8148Y-49.9525
G1X41.2965Y-48.0577
G1X43.0968Y-46.2369
G1X45.0863Y-44.6480
G1X47.1625Y-43.3756
G1X49.5267Y-42.2807
G1X51.3654Y-41.6229
G1X53.1531Y-41.1246
G1X54.9508Y-40.7597
G1X56.7178Y-40.5403
G1X58.5882Y-40.4597
G1X60.5102Y-40.5199
G1X62.5459Y-40.7307
G1X64.4506Y-41.0668
G1X66.1925Y-41.5034
G1X67.8511Y-42.0556
G1X69.5149Y-42.7649
G1X71.1493Y-43.6152
G1X72.7237Y-44.5875
G1X74.2077Y-45.6630
G1X75.5706Y-46.8227
G1X76.7853Y-48.0513
G1X77.8595Y-49.3609
G1X78.8337Y-50.7831
G1X79.7389Y-52.3800
G1X80.4579Y-53.9447
G1X81.0287Y-55.5352
G1X81.4166Y-57.0305
G1X81.6604Y-58.5676
G1X81.7685Y-60.2679
G1X81.7223Y-62.0015
G1X81.5237Y-63.7354
G1X81.1748Y-65.4362
G1X80.7107Y-66.9771
G1X80.0938Y-68.4890
G1X79.2800Y-70.0552
G1X78.3668Y-71.5071
G1X77.2659Y-72.9884
G1X75.6179Y-74.8255
G1X73.8270Y-76.4282
G1X71.7659Y-77.8885
G1X69.3871Y-79.2321
G1X66.8555Y-80.3550
G1X64.3585Y-81.1854
G1X61.8644Y-81.7400
G1X59.1517Y-82.0715
G1X56.2805Y-82.1578
G1X53.5565Y-81.9912
G1X51.0348Y-81.5906
G1X48.5797Y-80.9406
G1X45.9764Y-79.9761
G1X43.4294Y-78.7329
G1X41.2192Y-77.3443
G1X39.3279Y-75.8171
G1X37.5873Y-74.0549
G1X36.0054Y-72.0533
G1X34.7194Y-69.9597
G1X33.8100Y-67.9175
G1X33.1550Y-65.6664
G1X32.7790Y-63.2319
G1X32.7276Y-60.8105
G1X32.9931Y-58.5938
G1X33.6186Y-56.3096
G1X34.5725Y-54.0562
G1X35.8093Y-51.9249
G1X37.2790Y-50.0113
G1X38.9889Y-48.3189
G1X41.0607Y-46.7095
G1X43.3387Y-45.3163
G1X45.6358Y-44.2396
G1X47.2866Y-43.6587
G1X49.0173Y-43.1971
G1X50.8192Y-42.8499
G1X52.7607Y-42.6126
G1X54.6017Y-42.5153
G1X56.4095Y-42.5470
G1X58.1676Y-42.7135
G1X59.9474Y-43.0203
G1X61.8323Y-43.4871
G1X63.6861Y-44.0893
G1X65.4702Y-44.8153
G1X67.0615Y-45.6065
G1X68.5581Y-46.5104
G1X69.9483Y-47.5169
G1X71.2751Y-48.6414
G1X72.5858Y-49.9368
G1X73.7116Y-51.2366
G1X74.7055Y-52.5888
G1X75.5502Y-53.9805
G1X76.2471Y-55.4170
G1X76.8607Y-57.0340
G1X77.3348Y-58.7128
G1X77.6606Y-60.4211
G1X77.8293Y-62.1263
G1X77.8365Y-63.6995
G1X77.6944Y-65.2367
G1X77.3860Y-66.8997
G1X76.9249Y-68.5657
G1X76.3207Y-70.2046
G1X75.5828Y-71.7858
G1X74.7750Y-73.1944
G1X73.8398Y-74.5371
G1X72.1767Y-76.4673
G1X70.2466Y-78.2686
G1X68.1219Y-79.8760
G1X65.8832Y-81.2204
G1X63.4848Y-82.3169
G1X60.8929Y-83.2052
G1X58.1026Y-83.8788
G1X55.4115Y-84.2631
G1X52.7465Y-84.3665
G1X49.9011Y-84.1891
G1X47.0675Y-83.7409
G1X44.3551Y-83.0408
G1X42.0610Y-82.1914
G1X39.7648Y-81.0517
G1X37.5830Y-79.6808
G1X35.5139Y-78.0667
G1X33.7297Y-76.3193
G1X32.2251Y-74.4046
G1X30.9032Y-72.1933
G1X29.8816Y-69.8644
G1X29.2247Y-67.6093
G1X28.9141Y-65.3989
G1X28.9130Y-63.0844
G1X29.2304Y-60.6635
G1X29.8584Y-58.3370
G1X30.7299Y-56.3002
G1X32.0042Y-54.1931
G1X33.5847Y-52.1964
G1X35.3254Y-50.4608
G1X37.2011Y-48.9919
G1X39.3739Y-47.6888
G1X41.7722Y-46.5865
G1X43.5125Y-45.9626
G1X45.2803Y-45.4682
G1X46.9454Y-45.1324
G1X48.6901Y-44.9194
G1X50.6008Y-44.8295
G1X52.5468Y-44.8757
G1X54.4883Y-45.0563
G1X56.3860Y-45.3692
G1X58.1073Y-45.7860
G1X59.7090Y-46.3084
G1X61.4045Y-47.0051
G1X63.0631Y-47.8317
G1X64.6537Y-48.7713
G1X66.1454Y-49.8075
G1X67.5071Y-50.9234
G1X68.6927Y-52.0822
G1X69.8128Y-53.3829
G1X70.8345Y-54.7856
G1X71.7897Y-56.3524
G1X72.5541Y-57.8814
G1X73.1354Y-59.3397
G1X73.5717Y-60.8082
G1X73.8768Y-62.3510
G1X74.0571Y-64.0488
G1X74.0886Y-65.7753
G1X73.9709Y-67.4981
G1X73.7033Y-69.1849
G1X73.3149Y-70.7074
G1X72.7638Y-72.2429
G1X72.0574Y-73.7769
G1X71.1573Y-75.3709
G1X70.1800Y-76.8210
G1X68.6203Y-78.7264
G1X66.8551Y-80.4326
G1X64.7411Y-82.0455
G1X62.3931Y-83.4786
G1X59.9011Y-84.6803
G1X57.4547Y-85.5688
G1X54.8750Y-86.2069
G1X52.1596Y-86.6095
G1X49.3040Y-86.7707
G1X46.6123Y-86.6715
G1X44.0580Y-86.3158
G1X41.4636Y-85.6851
G1X38.7414Y-84.7366
G1X36.2877Y-83.5958
G1X34.2042Y-82.3417
G1X32.1786Y-80.7750
G1X30.3330Y-78.9862
G1X28.7323Y-77.0480
G1X27.4861Y-75.1143
G1X26.5162Y-73.0450
G1X25.7817Y-70.7165
G1X25.3438Y-68.2231
G1X25.2563Y-65.8660
G1X25.5168Y-63.5764
G1X26.1269Y-61.2594
G1X27.0494Y-58.9972
G1X28.2457Y-56.8834
G1X29.6528Y-55.0344
G1X31.4645Y-53.2169
G1X33.6348Y-51.5114
G1X35.9084Y-50.1173
G1X38.2397Y-49.0476
G1X39.9179Y-48.4729
G1X41.7814Y-47.9844
G1X43.7003Y-47.6251
G1X45.5335Y-47.4110
G1X47.3474Y-47.3267
G1X49.0148Y-47.3721
G1X50.7954Y-47.5535
G1X52.5981Y-47.8653
G1X54.4890Y-48.3274
G1X56.2352Y-48.8827
G1X57.9043Y-49.5446
G1X59.4679Y-50.3073
G1X60.9356Y-51.1781
G1X62.4402Y-52.2373
G1X63.8669Y-53.4149
G1X65.1180Y-54.6147
G1X66.2518Y-55.8798
G1X67.2449Y-57.1906
G1X68.0758Y-58.5206
G1X68.8117Y-59.9607
G1X69.4699Y-61.5694
G1X69.9900Y-63.2290
G1X70.3611Y-64.9084
G1X70.5643Y-66.4794
G1X70.6174Y-68.0192
G1X70.5250Y-69.5836
G1X70.2944Y-71.1730
G1X69.9047Y-72.8603
G1X69.3731Y-74.5160
G1X68.7496Y-76.0177
G1X68.0128Y-77.4386
G1X67.1468Y-78.7983
G1X65.5531Y-80.8201
G1X63.6950Y-82.7092
G1X61.6414Y-84.3950
G1X59.5714Y-85.7450
G1X57.0984Y-86.9887
G1X54.4243Y-88.0081
G1X51.6557Y-88.7673
G1X48.9969Y-89.2197
G1X46.2130Y-89.3901
G1X43.3491Y-89.2816
G1X40.5156Y-88.9068
G1X37.8231Y-88.2782
G1X35.3768Y-87.4165
G1X32.9645Y-86.2677
G1X30.6092Y-84.8340
G1X28.5723Y-83.2765
G1X26.7619Y-81.5067
G1X25.1800Y-79.4907
G1X23.8130Y-77.2101
G1X22.7861Y-74.8451
G1X22.1766Y-72.6179
G1X21.8975Y-70.3172
G1X21.9322Y-67.8593
G1X22.2713Y-65.5452
G1X22.9000Y-63.3743
G1X23.9126Y-61.1697
G1X25.3255Y-58.9492
G1X26.9629Y-56.9763
G1X28.6540Y-55.3799
G1X30.5986Y-53.9581
G1X32.8796Y-52.6596
G1X35.3322Y-51.5875
G1X36.9816Y-51.0317
G1X38.6346Y-50.6065
G1X40.3645Y-50.3031
G1X42.1689Y-50.1196
G1X44.1173Y-50.0562
G1X45.9692Y-50.1200
G1X47.7927Y-50.3045
G1X49.5542Y-50.6101
G1X51.2770Y-51.0502
G1X53.0103Y-51.6357
G1X54.7194Y-52.3514
G1X56.3729Y-53.1829
G1X57.9396Y-54.1159
G1X59.3111Y-55.0772
G1X60.5821Y-56.1309
G1X61.7356Y-57.2585
G1X62.8794Y-58.5644
G1X63.9781Y-60.0411
G1X64.8897Y-61.4986
G1X65.6597Y-62.9918
G1X66.2392Y-64.4103
G1X66.6960Y-65.9145
G1X67.0266Y-67.4868
G1X67.2285Y-69.1004
G1X67.2991Y-70.7283
G1X67.2359Y-72.3439
G1X67.0364Y-73.9201
G1X66.7015Y-75.4237
G1X66.1913Y-77.0108
G1X65.5298Y-78.5922
G1X64.7308Y-80.1409
G1X63.8084Y-81.6297
G1X62.2568Y-83.6533
G1X60.4924Y-85.4381
G1X58.3884Y-87.1292
G1X55.9775Y-88.6803
G1X53.6148Y-89.8798
G1X51.2235Y-90.7934
G1X48.6052Y-91.4934
G1X45.7698Y-91.9696
G1X42.9209Y-92.1768
G1X40.2543Y-92.1076
G1X37.5557Y-91.7484
G1X34.8576Y-91.1158
G1X32.1660Y-90.2040
G1X29.7751Y-89.1100
G1X27.6299Y-87.8132
G1X25.5141Y-86.1803
G1X23.6144Y-84.3437
G1X22.0078Y-82.3787
G1X20.7805Y-80.3897
G1X19.7902Y-78.1531
G1X19.0719Y-75.7068
G1X18.7019Y-73.2497
G1X18.6945Y-71.0406
G1X19.0382Y-68.6796
G1X19.7480Y-66.2327
G1X20.7335Y-63.9976
G1X21.9123Y-62.0730
G1X23.4556Y-60.1885
G1X25.4470Y-58.2983
G1X27.6786Y-56.6442
G1X29.9390Y-55.3667
G1X32.3817Y-54.3606
G1X34.1247Y-53.8201
G1X35.9209Y-53.3938
G1X37.7370Y-53.0904
G1X39.5401Y-52.9187
G1X41.2080Y-52.8843
G1X43.0064Y-52.9790
G1X44.8333Y-53.2020
G1X46.6555Y-53.5473
G1X48.4402Y-54.0088
G1X50.0615Y-54.5461
G1X51.5921Y-55.1769
G1X53.1134Y-55.9469
G1X54.6019Y-56.8445
G1X56.1156Y-57.9141
G1X57.5370Y-59.0857
G1X58.7690Y-60.2669
G1X59.8086Y-61.4288
G1X60.7457Y-62.6706
G1X61.6045Y-64.0349
G1X62.3607Y-65.4813
G1X63.0396Y-67.0807
G1X63.5502Y-68.6193
G1X63.9251Y-70.1650
G1X64.1535Y-71.6937
G1X64.2359Y-73.2421
G1X64.1808Y-74.8331
G1X63.9760Y-76.5411
G1X63.6501Y-78.1377
G1X63.1990Y-79.6974
G1X62.6270Y-81.1941
G1X61.9506Y-82.5822
G1X61.0968Y-84.0078
G1X59.5934Y-86.0418
G1X57.7742Y-88.0110
G1X55.8408Y-89.6916
G1X53.7446Y-91.1263
G1X51.2634Y-92.4489
G1X48.5998Y-93.5397
G1X45.8600Y-94.3559
G1X43.2372Y-94.8455
G1X40.4234Y-95.0685
G1X37.5520Y-95.0202
G1X34.7342Y-94.7069
G1X32.0565Y-94.1277
G1X29.4612Y-93.2504
G1X26.8541Y-92.0480
G1X24.4387Y-90.6055
G1X22.3853Y-89.0368
G1X20.5818Y-87.2478
G1X18.9377Y-85.1492
G1X17.5920Y-82.9050
G1X16.6077Y-80.6135
G1X16.0092Y-78.3009
G1X15.7364Y-75.8649
G1X15.7919Y-73.4161
G1X16.1764Y-71.0599
G1X16.9272Y-68.7700
G1X18.0415Y-66.5171
G1X19.4633Y-64.3826
G1X21.1330Y-62.4623
G1X23.0288Y-60.8069
G1X25.1941Y-59.3418
G1X27.6588Y-58.0459
G1X30.1398Y-57.0720
G1X31.7523Y-56.6112
G1X33.3953Y-56.2713
G1X35.2046Y-56.0242
G1X37.0527Y-55.8954
G1X38.9060Y-55.8871
G1X40.6309Y-55.9919
G1X42.3021Y-56.2082
G1X43.9518Y-56.5466
G1X45.7130Y-57.0412
G1X47.4573Y-57.6636
G1X49.1532Y-58.4016
G1X50.7691Y-59.2429
G1X52.1933Y-60.1214
G1X53.4517Y-61.0378
G1X54.6806Y-62.0865
G1X55.9145Y-63.3113
G1X57.0547Y-64.6273
G1X58.0810Y-66.0115
G1X58.9733Y-67.4410
G1X59.6726Y-68.8071
G1X60.2595Y-70.2679
G1X60.7277Y-71.8103
G1X61.0712Y-73.4046
G1X61.2854Y-75.0242
G1X61.3656Y-76.6423
G1X61.3152Y-78.1343
G1X61.1410Y-79.5716
G1X60.8182Y-81.0850
G1X60.3583Y-82.6084
G1X59.7302Y-84.2119
G1X58.9702Y-85.7726
G1X58.1448Y-87.1773
G1X56.6213Y-89.2445
G1X54.8024Y-91.1407
G1X52.5366Y-93.0125
G1X50.1393Y-94.5843
G1X47.8201Y-95.7696
G1X45.2514Y-96.7374
G1X42.5009Y-97.4662
G1X39.5767Y-97.9466
G1X36.7924Y-98.1239
G1X34.0033Y-97.9965
G1X31.1607Y-97.5686
G1X28.2840Y-96.8387
G1X25.7761Y-95.9238
G1X23.4714Y-94.7773
G1X21.2343Y-93.3253
G1X19.1798Y-91.6497
G1X17.3258Y-89.7469
G1X15.8757Y-87.8065
G1X14.6426Y-85.5611
G1X13.6860Y-83.0716
G1X13.1332Y-80.7371
G1X12.9299Y-78.4290
G1X13.0857Y-76.0317
G1X13.6078Y-73.5238
G1X14.4687Y-71.1197
G1X15.5700Y-69.0428
G1X17.0763Y-66.9848
G1X18.9027Y-65.0594
G1X20.9644Y-63.3518
G1X23.0638Y-62.0085
G1X25.4602Y-60.8636
G1X28.1658Y-59.9214
G1X29.8657Y-59.4882
G1X31.5749Y-59.1710
G1X33.2652Y-58.9789
G1X34.9265Y-58.9132
G1X36.7375Y-58.9661
G1X38.5702Y-59.1413
G1X40.3921Y-59.4346
G1X42.1705Y-59.8423
G1X43.7811Y-60.3287
G1X45.2426Y-60.8862
G1X46.8015Y-61.6146
G1X48.3279Y-62.4634
G1X49.7973Y-63.4168
G1X51.1849Y-64.4587
G1X52.4660Y-65.5735
G1X53.5524Y-66.6749
G1X54.5014Y-67.8055
G1X55.4402Y-69.1220
G1X56.2827Y-70.5207
G1X57.0165Y-71.9784
G1X57.6293Y-73.4721
G1X58.1088Y-74.9786
G1X58.4268Y-76.3840
G1X58.6224Y-77.8403
G1X58.6987Y-79.4442
G1X58.6405Y-81.0738
G1X58.4498Y-82.7024
G1X58.1289Y-84.3029
G1X57.7116Y-85.7541
G1X57.1536Y-87.2047
G1X56.4702Y-88.6034
G1X55.6568Y-89.9849
G1X54.0950Y-92.1423
G1X52.2908Y-94.1174
G1X50.4115Y-95.7466
G1X48.2123Y-97.2415
G1X45.5971Y-98.6349
G1X42.9305Y-99.7205
G1X40.2372Y-100.4990
G1X37.4989Y-100.9683
G1X34.5439Y-101.1726
G1X31.5905Y-101.0899
G1X28.8564Y-100.7375
G1X26.2119Y-100.0925
G1X23.4010Y-99.0723
G1X20.7501Y-97.7713
G1X18.4584Y-96.3033
G1X16.4582Y-94.6241
G1X14.6460Y-92.6700
G1X13.1057Y-90.5442
G1X11.9058Y-88.3384
G1X11.0921Y-86.1169
G1X10.5688Y-83.6148
G1X10.3994Y-80.9627
G1X10.6072Y-78.4876
G1X11.1907Y-76.1394
G1X12.1472Y-73.8045
G1X13.4819Y-71.4883
G1X15.0368Y-69.4745
G1X16.8983Y-67.6680
G1X19.1503Y-65.9882
G1X21.7298Y-64.5083
G1X24.3395Y-63.4081
G1X27.0779Y-62.6470
G1X28.7786Y-62.3364
G1X30.5169Y-62.1297
G1X32.2647Y-62.0304
G1X33.9941Y-62.0420
G1X35.5796Y-62.1574
G1X37.2406Y-62.3974
G1X38.8240Y-62.7346
G1X40.5034Y-63.2033
G1X42.1535Y-63.7772
G1X43.7479Y-64.4479
G1X45.2598Y-65.2066
G1X46.5875Y-65.9961
G1X47.9010Y-66.9181
G1X49.1651Y-67.9498
G1X50.4343Y-69.1465
G1X51.5407Y-70.3486
G1X52.5435Y-71.6063
G1X53.4249Y-72.9018
G1X54.1351Y-74.1540
G1X54.7633Y-75.5160
G1X55.2899Y-76.9472
G1X55.7337Y-78.5256
G1X56.0491Y-80.1317
G1X56.2224Y-81.6390
G1X56.2716Y-83.1259
G1X56.2016Y-84.4728
G1X56.0034Y-85.9197
G1X55.6833Y-87.3824
G1X55.2152Y-88.9371
G1X54.6649Y-90.3684
G1X54.0137Y-91.7537
G1X53.2683Y-93.0728
G1X51.7374Y-95.2001
G1X49.8187Y-97.2484
G1X47.5368Y-99.1744
G1X45.1466Y-100.7611
G1X42.6941Y-101.9948
G1X39.9530Y-103.0077
G1X36.9701Y-103.7727
G1X34.0700Y-104.2071
G1X31.2126Y-104.3143
G1X28.2756Y-104.1029
G1X25.2606Y-103.5742
G1X22.4049Y-102.7559
G1X19.9516Y-101.7326
G1X17.5397Y-100.3802
G1X15.2230Y-98.7164
G1X13.2630Y-96.9319
G1X11.5721Y-94.9173
G1X10.1680Y-92.6535
G1X9.0486Y-90.1367
G1X8.6221Y-88.8071
G1X8.3290Y-87.5781
G1X8.0540Y-85.1682
G1X8.1544Y-82.6417
G1X8.6133Y-80.1241
G1X9.4110Y-77.7332
G1X10.5637Y-75.5051
G1X12.1443Y-73.3023
G1X14.0462Y-71.2721
G1X16.0972Y-69.5769
G1X18.4001Y-68.1473
G1X20.9576Y-66.9602
G1X23.7802Y-66.0121
G1X26.5480Y-65.4177
G1X28.1004Y-65.2355
G1X29.6968Y-65.1527
G1X32.9701Y-65.2736
G1X34.7021Y-65.4900
G1X36.2956Y-65.7881
G1X37.8304Y-66.1763
G1X39.2336Y-66.6331
G1X40.7378Y-67.2359
G1X42.2208Y-67.9443
G1X43.6617Y-68.7465
G1X45.0395Y-69.6309
G1X46.3332Y-70.5857
G1X47.4511Y-71.5343
G1X48.4928Y-72.5592
G1X49.4935Y-73.7059
G1X50.4198Y-74.9370
G1X51.2602Y-76.2339
G1X52.0031Y-77.5782
G1X52.6370Y-78.9516
G1X53.1200Y-80.2432
G1X53.4912Y-81.5396
G1X53.7612Y-82.8938
G1X53.9381Y-84.3928
G1X53.9988Y-85.9196
G1X53.9433Y-87.4522
G1X53.7716Y-88.9683
G1X53.4839Y-90.4456
G1X53.1135Y-91.7614
G1X52.6079Y-93.1168
G1X51.9814Y-94.4691
G1X51.1922Y-95.8885
G1X49.5507Y-98.2527
G1X47.7112Y-100.2977
G1X45.6432Y-102.0634
G1X43.2041Y-103.6897
G1X40.4621Y-105.1092
G1X37.7192Y-106.1614
G1X34.8614Y-106.8814
G1X31.8423Y-107.3001
G1X28.6868Y-107.4116
G1X25.7390Y-107.2001
G1X22.8728Y-106.6500
G1X20.0255Y-105.7698
G1X17.2355Y-104.5652
G1X14.8114Y-103.1635
G1X12.6386Y-101.4908
G1X10.6061Y-99.4682
G1X8.8888Y-97.2576
G1X8.1770Y-96.1151
G1X8.0000Y-95.7743
G1 Z0F20000
(Start Block)

G1X8.0000Y-79.4235
G1Z6F20000
(Plotting speed under)
G1 F8000

G1X8.6120Y-78.3399
G1X9.3409Y-77.2454
G1X11.0219Y-75.2510
G1X13.1770Y-73.3252
G1X15.6294Y-71.6379
G1X18.1616Y-70.3226
G1X20.7281Y-69.3837
G1X23.6887Y-68.6775
G1X26.7505Y-68.2948
G1X29.8585Y-68.2691
G1X31.4266Y-68.4115
G1X33.0210Y-68.6583
G1X34.6198Y-69.0038
G1X36.2985Y-69.4727
G1X37.9307Y-70.0398
G1X39.4006Y-70.6571
G1X40.7002Y-71.3042
G1X41.9844Y-72.0582
G1X44.4582Y-73.8620
G1X46.6858Y-75.9615
G1X47.6692Y-77.0888
G1X48.5452Y-78.2500
G1X49.2743Y-79.3881
G1X49.9384Y-80.6216
G1X50.5198Y-81.9169
G1X51.0444Y-83.3541
G1X51.4608Y-84.8221
G1X51.7456Y-86.2017
G1X51.9243Y-87.5732
G1X51.9913Y-88.9207
G1X51.9455Y-90.2799
G1X51.7763Y-91.7647
G1X51.5108Y-93.1588
G1X51.1163Y-94.6415
G1X50.6133Y-96.0922
G1X50.0507Y-97.3988
G1X49.4026Y-98.6421
G1X48.6952Y-99.7783
G1X47.8306Y-100.9669
G1X46.8628Y-102.1236
G1X44.6734Y-104.2859
G1X42.2382Y-106.1552
G1X39.6909Y-107.6235
G1X38.2307Y-108.2913
G1X36.6100Y-108.9175
G1X33.3516Y-109.8583
G1X30.2905Y-110.3692
G1X27.1017Y-110.5001
G1X23.7351Y-110.2485
G1X20.4725Y-109.6281
G1X18.9832Y-109.2017
G1X17.5733Y-108.6950
G1X14.7783Y-107.3761
G1X13.3550Y-106.5357
G1X12.0051Y-105.6174
G1X10.7488Y-104.6345
G1X9.6744Y-103.6662
G1X8.6622Y-102.6027
G1X8.0000Y-101.7877
G1 Z0F20000
(Start Block)

G1X8.0000Y-79.6409
G1Z6F20000
(Plotting speed under)
G1 F8000

G1X8.2663Y-79.2748
G1X10.1708Y-77.2779
G1X12.2408Y-75.6294
G1X14.7131Y-74.1502
G1X17.5297Y-72.8935
G1X20.2667Y-72.0319
G1X22.9825Y-71.5221
G1X26.0145Y-71.3118
G1X29.1023Y-71.4308
G1X31.9974Y-71.8578
G1X34.7709Y-72.6156
G1X37.5258Y-73.7285
G1X40.2254Y-75.1906
G1X42.4851Y-76.7818
G1X44.3872Y-78.5245
G1X46.1805Y-80.6376
G1X47.6938Y-82.9431
G1X48.8535Y-85.3406
G1X49.5873Y-87.6674
G1X50.0333Y-90.3624
G1X50.1061Y-93.1118
G1X49.8324Y-95.5936
G1X49.2275Y-97.9312
G1X48.2425Y-100.3416
G1X46.8840Y-102.7532
G1X45.9408Y-104.0948
G1X44.9765Y-105.2690
G1X43.9753Y-106.3159
G1X42.8157Y-107.3643
G1X41.5540Y-108.3596
G1X40.1228Y-109.3453
G1X38.6206Y-110.2428
G1X37.0704Y-111.0374
G1X35.5878Y-111.6784
G1X34.1144Y-112.2006
G1X32.5841Y-112.6345
G1X30.8972Y-113.0044
G1X29.1724Y-113.2775
G1X27.4350Y-113.4508
G1X24.1216Y-113.4914
G1X22.5566Y-113.3621
G1X20.8635Y-113.1081
G1X19.2655Y-112.7660
G1X17.5866Y-112.3010
G1X15.9521Y-111.7394
G1X14.4768Y-111.1303
G1X13.0841Y-110.4499
G1X11.7368Y-109.6693
G1X10.4757Y-108.8093
G1X9.1875Y-107.7913
G1X8.0000Y-106.7094
G1 Z0F20000
(Start Block)

G1X8.0000Y-80.7693
G1Z6F20000
(Plotting speed under)
G1 F8000

G1X8.9585Y-79.8532
G1X11.1847Y-78.1841
G1X13.4777Y-76.8576
G1X15.9850Y-75.8014
G1X18.9076Y-74.9512
G1X21.9409Y-74.4217
G1X24.8367Y-74.2493
G1X27.7258Y-74.4256
G1X30.6632Y-74.9266
G1X33.4196Y-75.6936
G1X35.8892Y-76.6744
G1X38.1859Y-77.9148
G1X40.6218Y-79.6186
G1X42.7412Y-81.5035
G1X44.4710Y-83.4697
G1X45.9024Y-85.6378
G1X47.0663Y-88.0305
G1X47.9124Y-90.5341
G1X48.3852Y-92.9477
G1X48.4999Y-95.3869
G1X48.2410Y-98.1122
G1X47.6067Y-100.8068
G1X46.6623Y-103.2532
G1X45.3830Y-105.5214
G1X44.4568Y-106.8250
G1X43.3538Y-108.1603
G1X42.1471Y-109.4228
G1X40.9338Y-110.5253
G1X39.6616Y-111.5261
G1X38.3754Y-112.3916
G1X37.0065Y-113.1820
G1X35.4630Y-113.9456
G1X33.7557Y-114.6584
G1X32.1001Y-115.2313
G1X30.3292Y-115.7210
G1X28.6658Y-116.0630
G1X27.0120Y-116.2849
G1X25.2034Y-116.4056
G1X23.4660Y-116.4139
G1X21.6242Y-116.3127
G1X19.8099Y-116.1007
G1X18.1489Y-115.8006
G1X16.5485Y-115.4005
G1X15.0057Y-114.8963
G1X13.3827Y-114.2406
G1X11.8011Y-113.4750
G1X10.1993Y-112.5606
G1X8.7815Y-111.6138
G1X8.0000Y-111.0076
G1 Z0F20000
(Start Block)

G1X8.0000Y-82.2845
G1Z6F20000
(Plotting speed under)
G1 F8000

G1X8.7189Y-81.7006
G1X11.1025Y-80.2095
G1X13.6936Y-78.9688
G1X16.2798Y-78.0686
G1X18.9489Y-77.4832
G1X21.8642Y-77.1725
G1X24.8281Y-77.1618
G1X27.6106Y-77.4426
G1X30.3188Y-78.0369
G1X33.0326Y-78.9550
G1X35.7251Y-80.1974
G1X38.0925Y-81.6303
G1X40.1119Y-83.2248
G1X41.9909Y-85.1157
G1X43.6356Y-87.2038
G1X44.9756Y-89.4056
G1X45.9431Y-91.6292
G1X46.6229Y-94.0579
G1X46.9994Y-96.6814
G1X47.0278Y-99.1925
G1X46.7338Y-101.4980
G1X46.0850Y-103.8809
G1X45.1156Y-106.2356
G1X43.8663Y-108.4714
G1X42.9992Y-109.7181
G1X42.0158Y-110.9147
G1X40.8664Y-112.1041
G1X39.5956Y-113.2390
G1X38.2255Y-114.3033
G1X36.7785Y-115.2806
G1X35.2768Y-116.1547
G1X33.7426Y-116.9093
G1X32.2164Y-117.5257
G1X30.5138Y-118.0796
G1X28.7423Y-118.5309
G1X26.9316Y-118.8743
G1X25.1114Y-119.1046
G1X23.4106Y-119.2135
G1X21.7461Y-119.2121
G1X20.0500Y-119.0929
G1X18.3316Y-118.8591
G1X16.5166Y-118.4943
G1X14.7360Y-118.0169
G1X13.0206Y-117.4351
G1X11.4877Y-116.7969
G1X10.0919Y-116.0948
G1X8.6953Y-115.2577
G1X8.0000Y-114.7714
G1 Z0F20000
(Start Block)

G1X8.0000Y-84.0124
G1Z6F20000
(Plotting speed under)
G1 F8000

G1X9.3560Y-83.1379
G1X11.1508Y-82.2109
G1X13.0876Y-81.4177
G1X15.1289Y-80.7663
G1X17.2244Y-80.2723
G1X19.2244Y-79.9624
G1X21.1841Y-79.8218
G1X23.1761Y-79.8421
G1X25.3090Y-80.0254
G1X27.4347Y-80.3682
G1X29.5032Y-80.8634
G1X31.3740Y-81.4704
G1X33.1943Y-82.2406
G1X35.0847Y-83.2412
G1X36.8977Y-84.4046
G1X38.5887Y-85.7012
G1X40.0448Y-87.0324
G1X41.2732Y-88.3846
G1X42.4134Y-89.9184
G1X43.4195Y-91.5741
G1X44.3119Y-93.4058
G1X44.9808Y-95.1896
G1X45.4551Y-96.9761
G1X45.7175Y-98.6952
G1X45.8059Y-100.4881
G1X45.7231Y-102.3131
G1X45.4731Y-104.1320
G1X45.0595Y-105.9065
G1X44.4863Y-107.5984
G1X43.7723Y-109.1601
G1X42.8351Y-110.7869
G1X41.7321Y-112.3643
G1X40.4885Y-113.8595
G1X39.2033Y-115.1707
G1X37.8395Y-116.3480
G1X36.3507Y-117.4214
G1X34.6347Y-118.4580
G1X32.8052Y-119.3812
G1X30.9021Y-120.1727
G1X28.9650Y-120.8143
G1X27.0414Y-121.2867
G1X24.9887Y-121.6122
G1X22.8631Y-121.7837
G1X20.7126Y-121.8017
G1X18.5856Y-121.6668
G1X16.6259Y-121.3969
G1X14.8016Y-120.9983
G1X12.9473Y-120.4359
G1X11.0249Y-119.6885
G1X9.1733Y-118.8018
G1X8.0000Y-118.1265
G1 Z0F20000
(Start Block)

G1X8.0000Y-85.8740
G1Z6F20000
(Plotting speed under)
G1 F8000

G1X9.0501Y-85.2557
G1X10.8088Y-84.4001
G1X12.5084Y-83.7328
G1X14.2731Y-83.2030
G1X16.2176Y-82.7825
G1X18.2332Y-82.4991
G1X20.2762Y-82.3573
G1X22.3031Y-82.3622
G1X24.2705Y-82.5183
G1X26.1263Y-82.8191
G1X28.1003Y-83.2956
G1X30.1499Y-83.9570
G1X32.0362Y-84.7254
G1X33.8157Y-85.6146
G1X35.3837Y-86.5679
G1X36.8494Y-87.6429
G1X38.2444Y-88.8500
G1X39.6128Y-90.2393
G1X40.8457Y-91.7173
G1X41.8623Y-93.1720
G1X42.7164Y-94.6728
G1X43.4079Y-96.2235
G1X43.9949Y-97.9552
G1X44.4241Y-99.7424
G1X44.6869Y-101.5475
G1X44.7745Y-103.3327
G1X44.6888Y-104.9690
G1X44.4361Y-106.6131
G1X44.0249Y-108.2714
G1X43.4288Y-110.0093
G1X42.6800Y-111.6940
G1X41.8441Y-113.2040
G1X40.9100Y-114.5842
G1X39.8139Y-115.9242
G1X38.4978Y-117.2833
G1X37.0481Y-118.5607
G1X35.4946Y-119.7314
G1X33.8675Y-120.7702
G1X32.2133Y-121.6446
G1X30.5009Y-122.3772
G1X28.6874Y-123.0016
G1X26.7078Y-123.5328
G1X24.6964Y-123.9251
G1X22.7937Y-124.1601
G1X21.0244Y-124.2515
G1X19.1196Y-124.2061
G1X17.0798Y-124.0072
G1X15.0462Y-123.6619
G1X13.0616Y-123.1789
G1X11.1686Y-122.5670
G1X9.4590Y-121.8582
G1X8.0000Y-121.1052
G1 Z0F20000
(Start Block)

G1X8.0000Y-87.6376
G1Z6F20000
(Plotting speed under)
G1 F8000

G1X9.5078Y-86.9002
G1X11.3136Y-86.1772
G1X13.1813Y-85.5800
G1X14.9739Y-85.1428
G1X16.7569Y-84.8428
G1X18.6145Y-84.6786
G1X20.6368Y-84.6522
G1X22.6879Y-84.7723
G1X24.7239Y-85.0354
G1X26.6044Y-85.4147
G1X28.3945Y-85.9170
G1X30.0802Y-86.5387
G1X31.7483Y-87.2979
G1X33.4585Y-88.2299
G1X35.0834Y-89.2769
G1X36.5135Y-90.3571
G1X37.8080Y-91.5062
G1X38.9673Y-92.7327
G1X40.0485Y-94.0901
G1X41.0770Y-95.6276
G1X41.9670Y-97.2366
G1X42.6992Y-98.8849
G1X43.2282Y-100.4487
G1X43.5823Y-101.9648
G1X43.8115Y-103.6551
G1X43.8876Y-105.3869
G1X43.8113Y-107.1267
G1X43.6009Y-108.7417
G1X43.2570Y-110.3068
G1X42.7526Y-111.8699
G1X42.0933Y-113.3985
G1X41.2322Y-114.9958
G1X40.2233Y-116.5413
G1X39.0867Y-118.0043
G1X37.9143Y-119.2827
G1X36.6886Y-120.4138
G1X35.3055Y-121.4923
G1X33.7984Y-122.4951
G1X32.1050Y-123.4549
G1X30.3392Y-124.2954
G1X28.5350Y-124.9989
G1X26.8273Y-125.5209
G1X24.9923Y-125.9303
G1X23.0815Y-126.2153
G1X21.1314Y-126.3744
G1X19.0766Y-126.4040
G1X17.1606Y-126.2995
G1X15.4091Y-126.0795
G1X13.6390Y-125.7200
G1X11.8654Y-125.2252
G1X10.0228Y-124.5701
G1X8.2458Y-123.7933
G1X8.0000Y-123.6636
G1 Z0F20000
(Start Block)

G1X8.0000Y-89.3271
G1Z6F20000
(Plotting speed under)
G1 F8000

G1X8.0709Y-89.2881
G1X9.7224Y-88.5425
G1X11.3546Y-87.9594
G1X13.1772Y-87.4569
G1X15.1721Y-87.0577
G1X17.1014Y-86.8083
G1X19.0263Y-86.6916
G1X20.8125Y-86.7092
G1X22.5826Y-86.8592
G1X24.3870Y-87.1428
G1X26.2941Y-87.5775
G1X28.1677Y-88.1414
G1X29.8784Y-88.7856
G1X31.4946Y-89.5280
G1X33.0333Y-90.3881
G1X34.5502Y-91.4067
G1X35.9993Y-92.5512
G1X37.4268Y-93.8699
G1X38.6553Y-95.1995
G1X39.6810Y-96.5055
G1X40.5746Y-97.8743
G1X41.3281Y-99.2952
G1X42.0054Y-100.8903
G1X42.5460Y-102.5429
G1X42.9402Y-104.2217
G1X43.1784Y-105.8955
G1X43.2512Y-107.4391
G1X43.1738Y-108.9944
G1X42.9339Y-110.6780
G1X42.5401Y-112.3626
G1X42.0013Y-114.0169
G1X41.3695Y-115.5180
G1X40.6243Y-116.9382
G1X39.7400Y-118.3046
G1X38.7148Y-119.6265
G1X37.4895Y-120.9724
G1X36.1450Y-122.2393
G1X34.7066Y-123.4032
G1X33.2844Y-124.3861
G1X31.7634Y-125.2677
G1X30.1641Y-126.0349
G1X28.4703Y-126.7073
G1X26.6134Y-127.3041
G1X24.7205Y-127.7744
G1X22.9262Y-128.0937
G1X21.1617Y-128.2808
G1X19.3774Y-128.3380
G1X17.4508Y-128.2663
G1X15.5152Y-128.0640
G1X13.5078Y-127.7158
G1X11.6672Y-127.2619
G1X10.0163Y-126.7261
G1X8.4335Y-126.0743
G1X8.0000Y-125.8565
G1 Z0F20000
(Start Block)

G1X8.0000Y-90.8869
G1Z6F20000
(Plotting speed under)
G1 F8000

G1X8.2625Y-90.7569
G1X10.0710Y-90.0188
G1X11.8244Y-89.4433
G1X13.4880Y-89.0231
G1X15.2171Y-88.7205
G1X16.9964Y-88.5396
G1X18.9240Y-88.4738
G1X20.8664Y-88.5357
G1X22.6869Y-88.7115
G1X24.5529Y-89.0199
G1X26.2620Y-89.4351
G1X27.9952Y-89.9987
G1X29.7116Y-90.6955
G1X31.4719Y-91.5588
G1X33.0596Y-92.4822
G1X34.5389Y-93.4930
G1X35.8136Y-94.5180
G1X36.9805Y-95.6251
G1X38.1403Y-96.9153
G1X39.2001Y-98.2980
G1X40.1934Y-99.8345
G1X40.9912Y-101.3276
G1X41.6344Y-102.8356
G1X42.1053Y-104.3171
G1X42.4492Y-105.8828
G1X42.6606Y-107.4946
G1X42.7385Y-109.2265
G1X42.6721Y-110.8458
G1X42.4687Y-112.4262
G1X42.1295Y-113.9320
G1X41.6485Y-115.4086
G1X40.9849Y-116.9725
G1X40.1795Y-118.5046
G1X39.2478Y-119.9773
G1X38.2051Y-121.3632
G1X37.1362Y-122.5637
G1X35.9609Y-123.6794
G1X34.5771Y-124.8000
G1X33.0776Y-125.8412
G1X31.4907Y-126.7858
G1X29.8444Y-127.6164
G1X28.2606Y-128.2805
G1X26.5921Y-128.8378
G1X24.8583Y-129.2784
G1X22.9569Y-129.6257
G1X21.0182Y-129.8484
G1X19.0786Y-129.9428
G1X17.2733Y-129.9106
G1X15.5173Y-129.7551
G1X13.8357Y-129.4823
G1X12.0469Y-129.0665
G1X10.2798Y-128.5306
G1X8.4715Y-127.8462
G1X8.0000Y-127.6278
G1 Z0F20000
(Start Block)

G1X8.0000Y-92.1740
G1Z6F20000
(Plotting speed under)
G1 F8000

G1X8.4002Y-91.9874
G1X10.0498Y-91.3641
G1X11.7854Y-90.8414
G1X13.6765Y-90.4066
G1X15.4918Y-90.1131
G1X17.2985Y-89.9417
G1X19.0678Y-89.8998
G1X20.8535Y-89.9899
G1X22.6710Y-90.2067
G1X24.5897Y-90.5654
G1X26.3749Y-91.0215
G1X28.0969Y-91.5839
G1X29.7248Y-92.2460
G1X31.2285Y-92.9975
G1X32.7129Y-93.8831
G1X34.2249Y-94.9408
G1X35.6490Y-96.1011
G1X36.9582Y-97.3426
G1X38.0650Y-98.5706
G1X38.9970Y-99.7960
G1X39.8605Y-101.1622
G1X40.6180Y-102.6134
G1X41.2951Y-104.2195
G1X41.8289Y-105.8621
G1X42.1896Y-107.4138
G1X42.4025Y-108.9451
G1X42.4656Y-110.4031
G1X42.3923Y-111.9990
G1X42.1614Y-113.7107
G1X41.7792Y-115.4068
G1X41.2872Y-116.9594
G1X40.7143Y-118.3517
G1X40.0061Y-119.7170
G1X39.1205Y-121.1071
G1X38.0948Y-122.4609
G1X36.9488Y-123.7566
G1X35.7030Y-124.9720
G1X34.3775Y-126.0853
G1X33.0003Y-127.0690
G1X31.5072Y-127.9614
G1X29.8978Y-128.7677
G1X28.2023Y-129.4769
G1X26.3526Y-130.1079
G1X24.5752Y-130.5828
G1X22.8040Y-130.9267
G1X21.0530Y-131.1331
G1X19.2485Y-131.2176
G1X17.3091Y-131.1789
G1X15.3699Y-131.0122
G1X13.4676Y-130.7205
G1X11.7322Y-130.3317
G1X10.0490Y-129.8214
G1X8.4415Y-129.1982
G1X8.0000Y-128.9898
G1 Z0F20000
(Start Block)

G1X8.0000Y-93.2537
G1Z6F20000
(Plotting speed under)
G1 F8000

G1X8.4183Y-93.0576
G1X10.1318Y-92.3950
G1X11.8584Y-91.8686
G1X13.5660Y-91.4887
G1X15.4459Y-91.2107
G1X17.2750Y-91.0632
G1X19.2215Y-91.0310
G1X21.0478Y-91.1188
G1X22.8252Y-91.3228
G1X24.4637Y-91.6299
G1X26.2246Y-92.0939
G1X27.9759Y-92.6881
G1X29.7809Y-93.4424
G1X31.4179Y-94.2638
G1X32.9530Y-95.1761
G1X34.2926Y-96.1174
G1X35.5411Y-97.1539
G1X36.7240Y-98.2974
G1X37.8906Y-99.6071
G1X38.9447Y-100.9904
G1X39.8666Y-102.4230
G1X40.5960Y-103.7948
G1X41.1995Y-105.2318
G1X41.6848Y-106.7723
G1X42.0394Y-108.3706
G1X42.2688Y-110.1001
G1X42.3420Y-111.7277
G1X42.2730Y-113.3260
G1X42.0769Y-114.7688
G1X41.7225Y-116.2876
G1X41.2221Y-117.8131
G1X40.5876Y-119.3203
G1X39.7796Y-120.8738
G1X38.8475Y-122.3485
G1X37.8696Y-123.6377
G1X36.7737Y-124.8452
G1X35.5468Y-125.9946
G1X34.2043Y-127.0792
G1X32.6832Y-128.1384
G1X31.1776Y-129.0369
G1X29.6292Y-129.8192
G1X28.0806Y-130.4622
G1X26.3930Y-131.0187
G1X24.6232Y-131.4700
G1X22.7006Y-131.8267
G1X20.7585Y-132.0545
G1X18.9341Y-132.1462
G1X17.1557Y-132.1118
G1X15.4676Y-131.9557
G1X13.7564Y-131.6819
G1X11.9487Y-131.2720
G1X10.1758Y-130.7472
G1X8.4689Y-130.1165
G1X8.0000Y-129.9045
G1 Z0F20000
(Start Block)

G1X8.0000Y-93.9932
G1Z6F20000
(Plotting speed under)
G1 F8000

G1X8.4925Y-93.7703
G1X10.2036Y-93.1360
G1X11.9783Y-92.6080
G1X13.7855Y-92.1954
G1X15.5942Y-91.9073
G1X17.2731Y-91.7578
G1X19.0463Y-91.7283
G1X20.8622Y-91.8214
G1X22.7914Y-92.0476
G1X24.6978Y-92.3996
G1X26.4503Y-92.8441
G1X28.1192Y-93.3921
G1X29.6747Y-94.0359
G1X31.2289Y-94.8177
G1X32.7388Y-95.7138
G1X34.2624Y-96.7688
G1X35.6053Y-97.8480
G1X36.8303Y-98.9908
G1X37.9318Y-100.2024
G1X38.9131Y-101.4934
G1X39.8481Y-102.9674
G1X40.6582Y-104.5174
G1X41.2936Y-106.0191
G1X41.7934Y-107.5368
G1X42.1458Y-109.0457
G1X42.3414Y-110.4916
G1X42.4104Y-112.0896
G1X42.3379Y-113.7143
G1X42.1099Y-115.4380
G1X41.7566Y-117.0279
G1X41.2725Y-118.5574
G1X40.6715Y-119.9784
G1X39.8897Y-121.4337
G1X38.9592Y-122.8606
G1X37.8995Y-124.2347
G1X36.7301Y-125.5315
G1X35.5467Y-126.6596
G1X34.3043Y-127.6736
G1X32.8809Y-128.6519
G1X31.3314Y-129.5503
G1X29.6858Y-130.3555
G1X27.8777Y-131.0900
G1X26.1291Y-131.6627
G1X24.4733Y-132.0815
G1X22.7427Y-132.3862
G1X20.9552Y-132.5706
G1X19.0221Y-132.6398
G1X17.0777Y-132.5810
G1X15.2581Y-132.4082
G1X13.4924Y-132.1225
G1X11.7847Y-131.7176
G1X10.0545Y-131.1645
G1X8.3425Y-130.4782
G1X8.0000Y-130.3127
G1 Z0F20000
(Start Block)

G1X8.0000Y-94.4192
G1Z6F20000
(Plotting speed under)
G1 F8000

G1X8.4198Y-94.2141
G1X10.0224Y-93.5670
G1X11.7020Y-93.0317
G1X13.4348Y-92.6176
G1X15.3358Y-92.2985
G1X17.2748Y-92.1040
G1X19.2154Y-92.0375
G1X21.0222Y-92.0956
G1X22.7768Y-92.2759
G1X24.5530Y-92.5933
G1X26.3368Y-93.0414
G1X28.1944Y-93.6442
G1X29.8986Y-94.3271
G1X31.5178Y-95.1075
G1X33.0215Y-95.9748
G1X34.4214Y-96.9428
G1X35.7713Y-98.0435
G1X37.0407Y-99.2484
G1X38.2736Y-100.6129
G1X39.3112Y-101.9617
G1X40.2041Y-103.3459
G1X40.9230Y-104.7213
G1X41.5020Y-106.1195
G1X41.9980Y-107.6768
G1X42.3813Y-109.3751
G1X42.6003Y-110.9850
G1X42.6761Y-112.5773
G1X42.6119Y-114.0283
G1X42.3941Y-115.5650
G1X42.0273Y-117.1200
G1X41.4855Y-118.7628
G1X40.7990Y-120.3649
G1X40.0316Y-121.8073
G1X39.1568Y-123.1595
G1X38.2173Y-124.3629
G1X37.0889Y-125.5858
G1X35.7584Y-126.8180
G1X34.3153Y-127.9640
G1X32.7871Y-129.0018
G1X31.2903Y-129.8625
G1X29.7910Y-130.5780
G1X28.1476Y-131.2142
G1X26.3177Y-131.7764
G1X24.4258Y-132.2183
G1X22.6094Y-132.5189
G1X20.7014Y-132.7037
G1X18.9333Y-132.7461
G1X17.1500Y-132.6562
G1X15.2354Y-132.4237
G1X13.3233Y-132.0579
G1X11.5473Y-131.5956
G1X9.8373Y-131.0278
G1X8.2243Y-130.3612
G1X8.0000Y-130.2472
G1 Z0F20000
(Start Block)

G1X8.0000Y-94.4819
G1Z6F20000
(Plotting speed under)
G1 F8000

G1X8.4005Y-94.2833
G1X10.0986Y-93.5854
G1X11.9536Y-92.9653
G1X13.7384Y-92.4996
G1X15.5190Y-92.1634
G1X17.2742Y-91.9649
G1X19.0778Y-91.8898
G1X21.0188Y-91.9388
G1X22.9620Y-92.1161
G1X24.8711Y-92.4183
G1X26.6153Y-92.8168
G1X28.2962Y-93.3320
G1X29.9031Y-93.9605
G1X31.5757Y-94.7565
G1X33.1902Y-95.6695
G1X34.7174Y-96.6820
G1X36.1281Y-97.7762
G1X37.3273Y-98.8690
G1X38.4196Y-100.0495
G1X39.4865Y-101.4166
G1X40.4410Y-102.8724
G1X41.2668Y-104.3888
G1X41.9478Y-105.9376
G1X42.4418Y-107.3998
G1X42.7945Y-108.9086
G1X43.0077Y-110.4977
G1X43.0790Y-112.1254
G1X43.0007Y-113.8642
G1X42.7833Y-115.4785
G1X42.4278Y-117.0413
G1X41.9417Y-118.5096
G1X41.2714Y-120.0236
G1X40.4442Y-121.5179
G1X39.4180Y-123.0486
G1X38.3263Y-124.4174
G1X37.2071Y-125.6127
G1X35.9575Y-126.7425
G1X34.5793Y-127.7865
G1X33.0721Y-128.7540
G1X31.3739Y-129.6755
G1X29.6948Y-130.4379
G1X27.9776Y-131.0773
G1X26.2521Y-131.5784
G1X24.5285Y-131.9375
G1X22.6279Y-132.1925
G1X20.6808Y-132.3190
G1X18.7249Y-132.3159
G1X16.7976Y-132.1822
G1X15.0323Y-131.9341
G1X13.3926Y-131.5792
G1X11.6428Y-131.0672
G1X9.8173Y-130.3897
G1X8.0487Y-129.5866
G1X8.0000Y-129.5600
G1 Z0F20000
(Start Block)

G1X8.0000Y-94.1486
G1Z6F20000
(Plotting speed under)
G1 F8000

G1X8.1423Y-94.0685
G1X9.7910Y-93.2951
G1X11.4309Y-92.6774
G1X13.2447Y-92.1452
G1X15.1344Y-91.7309
G1X17.1661Y-91.4279
G1X19.0987Y-91.2725
G1X20.9972Y-91.2516
G1X22.7601Y-91.3627
G1X24.5546Y-91.6067
G1X26.4563Y-91.9996
G1X28.3308Y-92.5213
G1X30.0493Y-93.1249
G1X31.7685Y-93.8676
G1X33.3064Y-94.6795
G1X34.8449Y-95.6635
G1X36.3173Y-96.7797
G1X37.6974Y-98.0035
G1X38.9591Y-99.3106
G1X40.0184Y-100.5993
G1X40.9339Y-101.9313
G1X41.7152Y-103.3337
G1X42.4173Y-104.9172
G1X42.9780Y-106.5646
G1X43.3876Y-108.2427
G1X43.6365Y-109.9180
G1X43.7154Y-111.4626
G1X43.6279Y-113.1043
G1X43.3702Y-114.7784
G1X42.9524Y-116.4519
G1X42.3845Y-118.0914
G1X41.6764Y-119.6640
G1X40.8909Y-121.0530
G1X39.9645Y-122.3809
G1X38.8892Y-123.6689
G1X37.6104Y-124.9710
G1X36.2141Y-126.1853
G1X34.7274Y-127.2867
G1X33.1774Y-128.2503
G1X31.5448Y-129.0784
G1X29.8022Y-129.7938
G1X27.9688Y-130.3961
G1X26.0812Y-130.8747
G1X24.1761Y-131.2195
G1X22.3884Y-131.4131
G1X20.6251Y-131.4713
G1X18.7159Y-131.3944
G1X16.7834Y-131.1818
G1X14.7648Y-130.8179
G1X12.8046Y-130.3171
G1X11.0358Y-129.7210
G1X9.4037Y-129.0209
G1X8.0000Y-128.2837
G1 Z0F20000
(Start Block)

G1X8.0000Y-93.4345
G1Z6F20000
(Plotting speed under)
G1 F8000

G1X9.6709Y-92.5884
G1X11.4699Y-91.8309
G1X13.3135Y-91.2013
G1X15.0699Y-90.7363
G1X16.8093Y-90.4103
G1X18.7022Y-90.1988
G1X20.7489Y-90.1159
G1X22.8090Y-90.1746
G1X24.8399Y-90.3736
G1X26.7032Y-90.6910
G1X28.4208Y-91.1183
G1X30.2534Y-91.7289
G1X32.0568Y-92.4838
G1X33.7962Y-93.3646
G1X35.4367Y-94.3533
G1X36.8681Y-95.3730
G1X38.2018Y-96.5051
G1X39.4193Y-97.7409
G1X40.6026Y-99.1662
G1X41.6557Y-100.6801
G1X42.5567Y-102.2503
G1X43.2486Y-103.7559
G1X43.7823Y-105.3056
G1X44.1499Y-106.8703
G1X44.3762Y-108.4878
G1X44.4608Y-110.2302
G1X44.3835Y-111.9615
G1X44.1431Y-113.6455
G1X43.7700Y-115.1466
G1X43.2087Y-116.7125
G1X42.4361Y-118.3568
G1X41.5007Y-119.9527
G1X40.4230Y-121.4648
G1X39.2934Y-122.7842
G1X38.0378Y-124.0010
G1X36.5929Y-125.1652
G1X35.0063Y-126.2417
G1X33.3134Y-127.2095
G1X31.5496Y-128.0475
G1X29.8454Y-128.7029
G1X28.0665Y-129.2258
G1X26.2204Y-129.6148
G1X24.2042Y-129.8897
G1X22.1563Y-130.0229
G1X20.1203Y-130.0106
G1X18.2368Y-129.8606
G1X16.3844Y-129.5647
G1X14.5053Y-129.1139
G1X12.6388Y-128.5218
G1X10.7276Y-127.7606
G1X9.0010Y-126.9203
G1X8.0000Y-126.3328
G1 Z0F20000
(Start Block)

G1X8.0000Y-92.3230
G1Z6F20000
(Plotting speed under)
G1 F8000

G1X10.3688Y-90.9939
G1X12.9977Y-89.9248
G1X15.9379Y-89.0945
G1X19.0691Y-88.5603
G1X22.0478Y-88.3872
G1X24.9599Y-88.5630
G1X28.1037Y-89.1034
G1X31.1252Y-89.9724
G1X33.6495Y-91.0254
G1X36.1411Y-92.4537
G1X38.4599Y-94.1794
G1X40.5006Y-96.1163
G1X41.3838Y-97.1369
G1X42.1954Y-98.2313
G1X43.5684Y-100.6077
G1X44.1481Y-101.9194
G1X44.6287Y-103.2616
G1X45.0033Y-104.6161
G1X45.2503Y-105.8689
G1X45.3948Y-107.1040
G1X45.4358Y-108.3726
G1X45.2139Y-110.9806
G1X44.6102Y-113.5765
G1X43.6530Y-116.0323
G1X43.0620Y-117.1487
G1X42.3405Y-118.2855
G1X40.5930Y-120.4811
G1X38.5230Y-122.4849
G1X36.3153Y-124.1368
G1X33.8468Y-125.5100
G1X31.1189Y-126.6232
G1X28.1419Y-127.4674
G1X25.2523Y-127.9383
G1 Z0F20000

G00 X0.0000 Y0.0000

