$H
G21
G17
G90
G1 Z0F20000
G1 F15000
(Start Layer)
(Start Block)

G1X27.2528Y-24.0010
G1Z6F20000
(Plotting speed under)
G1 F8000

G1X33.6659Y-19.3573
G1X45.8958Y-15.2293
G1X54.1399Y-14.8490
G1X76.6293Y-23.4627
G1X84.0344Y-34.1827
G1X85.3112Y-40.8194
G1X85.2230Y-43.9218
G1X84.2881Y-48.5459
G1X64.3291Y-66.7537
G1X26.9057Y-25.6678
G1X33.1302Y-20.9901
G1X45.1450Y-16.6844
G1X53.2629Y-16.1464
G1X75.9497Y-24.2094
G1X83.7126Y-34.6620
G1X85.2504Y-41.1740
G1X85.3017Y-44.1906
G1X84.6122Y-48.7569
G1X65.7366Y-67.6082
G1X25.9200Y-28.0360
G1X31.7594Y-23.1687
G1X43.3665Y-18.3808
G1X51.3214Y-17.4802
G1X74.4738Y-24.3914
G1X82.9809Y-34.3575
G1X85.0190Y-40.6937
G1X85.3121Y-43.6196
G1X85.0312Y-48.1347
G1X68.0260Y-68.0314
G1X24.4597Y-31.1369
G1X29.7111Y-25.9608
G1X40.6790Y-20.4364
G1X48.3996Y-18.9949
G1X72.1349Y-24.1672
G1X81.6867Y-33.3933
G1X84.4246Y-39.4738
G1X85.0429Y-42.2913
G1X85.3121Y-46.7354
G1X70.9969Y-67.9010
G1X22.7825Y-34.9931
G1X27.2354Y-29.4420
G1X37.2831Y-23.0024
G1X44.6525Y-20.8803
G1X68.8823Y-23.7660
G1X79.6578Y-31.9628
G1X83.2395Y-37.6740
G1X84.2439Y-40.3499
G1X85.1748Y-44.6724
G1X74.3645Y-67.1012
G1X21.2115Y-39.5838
G1X24.6566Y-33.6562
G1X33.4628Y-26.2201
G1X40.3196Y-23.3286
G1X64.7279Y-23.4635
G1X76.7575Y-30.3222
G1X81.2574Y-35.5215
G1X82.6822Y-38.0090
G1X84.3477Y-42.1308
G1X77.7794Y-65.5678
G1X20.0886Y-44.8157
G1X22.3366Y-38.5775
G1X29.5677Y-30.1744
G1X35.7201Y-26.4861
G1X59.7829Y-23.5430
G1X72.9386Y-28.7674
G1X78.3513Y-33.2975
G1X80.2023Y-35.5410
G1X82.6281Y-39.3628
G1X80.8695Y-63.3234
G1X19.7147Y-50.5103
G1X20.6196Y-44.0888
G1X25.9715Y-34.8578
G1X31.2203Y-30.4110
G1X54.2683Y-24.2470
G1X68.2767Y-27.5929
G1X74.5173Y-31.3023
G1X76.7710Y-33.2446
G1X79.9326Y-36.6600
G1X83.2980Y-60.4920
G1X20.2924Y-56.4187
G1X19.7722Y-49.9849
G1X23.0137Y-40.1577
G1X27.1809Y-35.0515
G1X48.4932Y-25.7324
G1X62.9724Y-27.0433
G1X69.8871Y-29.8080
G1X72.4942Y-31.3979
G1X76.3197Y-34.3084
G1X84.8213Y-57.2851
G1X21.8868Y-62.2583
G1X19.9355Y-56.0034
G1X20.9419Y-45.8709
G1X23.8955Y-40.2519
G1X42.8030Y-28.0423
G1X57.3172Y-27.2719
G1X64.7054Y-29.0125
G1X67.5972Y-30.2116
G1X71.9771Y-32.5396
G1X85.3282Y-53.9629
G1X24.4186Y-67.7627
G1X21.1061Y-61.8718
G1X19.8737Y-51.7436
G1X21.5441Y-45.7851
G1X37.5185Y-31.1060
G1X51.6379Y-28.3200
G1X59.2792Y-29.0104
G1X62.3760Y-29.7972
G1X67.1782Y-31.4950
G1X84.8474Y-50.7848
G1X27.6926Y-72.7267
G1X23.1513Y-67.3565
G1X19.7897Y-57.5208
G1X20.1740Y-51.4001
G1X32.8820Y-34.7643
G1X46.2343Y-30.1235
G1X53.9162Y-29.7896
G1X57.1361Y-30.1612
G1X62.2224Y-31.2137
G1X83.5225Y-47.9641
G1X31.4480Y-77.0330
G1X25.8518Y-72.2970
G1X20.5585Y-62.9909
G1X19.7133Y-56.8699
G1X29.0287Y-38.8121
G1X41.3325Y-32.5420
G1X48.8712Y-31.2527
G1X52.1369Y-31.2227
G1X57.3753Y-31.6445
G1X81.5620Y-45.6354
G1X35.4258Y-80.6594
G1X28.9677Y-76.6281
G1X21.9901Y-68.0289
G1X20.0121Y-62.0467
G1X25.9659Y-43.0661
G1X37.0242Y-35.4163
G1X44.2655Y-33.2626
G1X47.5038Y-32.8549
G1X52.7754Y-32.6769
G1X79.1543Y-43.8174
G1X39.4584Y-83.6702
G1X32.3209Y-80.3808
G1X23.9076Y-72.6103
G1X20.9073Y-66.8740
G1X23.6259Y-47.3949
G1X33.3222Y-38.6046
G1X40.1563Y-35.6850
G1X43.3125Y-34.9300
G1X48.5241Y-34.1960
G1X76.4731Y-42.5095
G1X43.3981Y-86.1371
G1X35.7480Y-83.5941
G1X26.1435Y-76.7211
G1X22.2419Y-71.3082
G1X21.9321Y-51.6826
G1X30.2174Y-41.9784
G1X36.5680Y-38.3953
G1X39.5988Y-37.3280
G1X44.6761Y-36.0892
G1X73.6593Y-41.6786
G1X47.1498Y-88.1464
G1X39.1346Y-86.3334
G1X28.5649Y-80.3882
G1X23.8825Y-75.3524
G1X20.7852Y-55.8605
G1X27.6556Y-45.4445
G1X33.4727Y-41.2957
G1X36.3442Y-39.9519
G1X41.2293Y-38.2609
G1X70.8030Y-41.2663
G1X50.6770Y-89.7844
G1X42.4228Y-88.6743
G1X31.0865Y-83.6642
G1X25.7341Y-79.0429
G1X20.0870Y-59.9050
G1X25.5611Y-48.9502
G1X30.8110Y-44.3236
G1X33.4959Y-42.7376
G1X38.1422Y-40.6437
G1X67.9436Y-41.2061
G1X53.9911Y-91.1224
G1X45.6047Y-90.6870
G1X33.6708Y-86.6112
G1X27.7456Y-82.4333
G1X19.7568Y-63.8288
G1X23.8552Y-52.4810
G1X28.5105Y-47.4527
G1X30.9851Y-45.6557
G1X35.3522Y-43.2021
G1X65.0767Y-41.4375
G1X57.1361Y-92.2088
G1X48.7101Y-92.4253
G1X36.3224Y-89.2873
G1X29.9072Y-85.5806
G1X19.7412Y-67.6684
G1X22.4714Y-56.0532
G1X26.5030Y-50.6882
G1X28.7440Y-48.7079
G1X32.7924Y-45.9310
G1X62.1661Y-41.9153
G1X60.1722Y-93.0651
G1X51.7915Y-93.9207
G1X39.0765Y-91.7364
G1X32.2421Y-88.5330
G1X20.0177Y-71.4721
G1X21.3654Y-59.7032
G1X24.7365Y-54.0584
G1X26.7187Y-51.9195
G1X30.4059Y-48.8501
G1X59.1579Y-42.6160
G1X63.1601Y-93.6877
G1X54.9089Y-95.1799
G1X41.9858Y-93.9815
G1X34.7958Y-91.3215
G1X20.5949Y-75.2870
G1X20.5218Y-63.4766
G1X23.1847Y-57.6053
G1X24.8802Y-55.3308
G1X28.1580Y-51.9963
G1X55.9950Y-43.5406
G1X66.1466Y-94.0506
G1X58.1142Y-96.1855
G1X45.1063Y-96.0210
G1X37.6235Y-93.9531
G1X21.5084Y-79.1478
G1X19.9564Y-67.4165
G1X21.8531Y-61.3734
G1X23.2308Y-58.9865
G1X26.0449Y-55.4142
G1X52.6319Y-44.7148
G1X69.1519Y-94.1118
G1X61.4382Y-96.8997
G1X48.4831Y-97.8272
G1X40.7765Y-96.4075
G1X22.8142Y-83.0659
G1X19.7155Y-71.5514
G1X20.7810Y-65.3985
G1X21.8082Y-62.9245
G1X24.0990Y-59.1456
G1X49.0483Y-46.1861
G1X72.1601Y-93.8219
G1X64.8779Y-97.2701
G1X52.1362Y-99.3493
G1X44.2873Y-98.6369
G1X24.5772Y-87.0226
G1X19.8697Y-75.8852
G1X20.0385Y-69.6957
G1X20.6827Y-67.1640
G1X22.3891Y-63.2173
G1X45.2611Y-48.0162
G1X75.1143Y-93.1352
G1X68.3890Y-97.2408
G1X56.0494Y-100.5205
G1X48.1589Y-100.5716
G1X26.8605Y-90.9680
G1X20.5045Y-80.3948
G1X19.7170Y-74.2594
G1X19.9477Y-71.7081
G1X21.0076Y-67.6462
G1X41.3060Y-50.2769
G1X77.9390Y-92.0020
G1X71.9155Y-96.7460
G1X60.2036Y-101.2611
G1X52.3962Y-102.1291
G1X29.7387Y-94.8431
G1X21.7199Y-85.0507
G1X19.9243Y-79.0764
G1X19.7143Y-76.5477
G1X20.0698Y-72.4324
G1X37.2598Y-53.0426
G1X80.5132Y-90.3956
G1X75.3391Y-95.7395
G1X64.5015Y-101.4924
G1X56.9188Y-103.2133
G1X33.2305Y-98.5284
G1X23.5953Y-89.7457
G1X20.7682Y-84.0517
G1X20.1017Y-81.5918
G1X19.7121Y-77.4970
G1X33.2862Y-56.3527
G1X82.6696Y-88.3535
G1X78.4839Y-94.2267
G1X68.7752Y-101.1670
G1X61.5734Y-103.7478
G1X37.2864Y-101.8824
G1X26.1592Y-94.3331
G1X22.3163Y-89.0455
G1X21.1918Y-86.7039
G1X20.0399Y-82.7124
G1X29.5770Y-60.1973
G1X84.2510Y-85.9670
G1X81.1695Y-92.2679
G1X72.8274Y-100.2881
G1X66.1652Y-103.7011
G1X41.7881Y-104.7748
G1X29.3706Y-98.6532
G1X24.5708Y-93.8935
G1X23.0027Y-91.7191
G1X21.0998Y-87.9164
G1X26.3212Y-64.5068
G1X85.1425Y-83.3771
G1X83.2430Y-89.9802
G1X76.4619Y-98.9202
G1X70.4838Y-103.1023
G1X46.5548Y-107.1123
G1X33.1126Y-102.5600
G1X27.4555Y-98.4320
G1X25.4738Y-96.4688
G1X22.8601Y-92.9343
G1X23.6722Y-69.1539
G1X85.2983Y-80.7583
G1X84.6103Y-87.5257
G1X79.5172Y-97.1873
G1X74.3382Y-102.0452
G1X51.3662Y-108.8598
G1X37.2018Y-105.9476
G1X30.8186Y-102.5257
G1X28.4661Y-100.8079
G1X25.2077Y-97.6065
G1X21.7179Y-73.9686
G1X84.7563Y-78.2928
G1X85.2568Y-85.0893
G1X81.8960Y-95.2578
G1X77.5876Y-100.6777
G1X55.9941Y-110.0503
G1X41.4135Y-108.7692
G1X34.4523Y-106.0902
G1X31.7806Y-104.6391
G1X27.9616Y-101.8142
G1X20.4655Y-78.7625
G1X83.6345Y-76.1433
G1X85.2509Y-82.8515
G1X83.5803Y-93.3200
G1X80.1642Y-99.1803
G1X60.2373Y-110.7796
G1X45.5151Y-111.0442
G1X38.1248Y-109.1038
G1X35.1883Y-107.9257
G1X30.9021Y-105.4953
G1X19.8431Y-83.3572
G1X82.1106Y-74.4303
G1X84.7305Y-80.9623
G1X84.6294Y-91.5536
G1X82.0766Y-97.7384
G1X63.9466Y-111.1883
G1X49.2991Y-112.8494
G1X41.6136Y-111.6048
G1X38.4649Y-110.6910
G1X33.8040Y-108.6467
G1X19.7188Y-87.6072
G1X80.3906Y-73.2212
G1X83.8750Y-79.5253
G1X85.1617Y-90.1076
G1X83.3987Y-96.5170
G1X67.0379Y-111.4363
G1X52.6067Y-114.3000
G1X44.7342Y-113.6766
G1X41.4196Y-113.0043
G1X36.4685Y-111.3142
G1X19.9291Y-91.4131
G1X78.6757Y-72.5310
G1X82.8730Y-78.5929
G1X85.3259Y-89.0857
G1X84.2452Y-95.6423
G1X69.4890Y-111.6768
G1X55.3392Y-115.5252
G1X47.3571Y-115.4257
G1X43.9143Y-114.9612
G1X38.7444Y-113.5747
G1X20.3101Y-94.7249
G1X77.1347Y-72.3334
G1X81.8928Y-78.1716
G1X85.2721Y-88.5430
G1X84.7442Y-95.1931
G1X71.3267Y-112.0350
G1X57.4564Y-116.6447
G1X49.4154Y-116.9595
G1X45.8831Y-116.6635
G1X40.5656Y-115.5240
G1X20.7357Y-97.5761
G1X75.8298Y-72.5301
G1X81.0040Y-78.1522
G1X85.1096Y-88.3641
G1X85.0414Y-95.0368
G1X72.8150Y-112.4668
G1X59.2825Y-117.7007
G1X51.2728Y-118.3820
G1X47.7218Y-118.2490
G1X42.3289Y-117.3570
G1X21.2536Y-100.3561
G1X74.4649Y-72.8037
G1X80.0181Y-78.1727
G1X84.8362Y-88.1717
G1X85.2379Y-94.8312
G1X74.2825Y-112.8007
G1X61.1483Y-118.6604
G1X53.1993Y-119.7184
G1X49.6422Y-119.7544
G1X44.1910Y-119.1219
G1X21.8988Y-103.1617
G1X72.9725Y-73.1070
G1X78.8983Y-78.1948
G1X84.4380Y-87.9378
G1X85.3250Y-94.5598
G1X75.7286Y-113.0251
G1X63.0558Y-119.5133
G1X55.1990Y-120.9586
G1X51.6492Y-121.1700
G1X46.1579Y-120.8094
G1X22.6843Y-105.9908
G1X71.3435Y-73.4475
G1X77.6335Y-78.2248
G1X83.9016Y-87.6650
G1X85.2891Y-94.2232
G1X77.1422Y-113.1328
G1X64.9979Y-120.2493
G1X57.2676Y-122.0914
G1X53.7390Y-122.4839
G1X48.2278Y-122.4071
G1X23.6211Y-108.8345
G1X69.5744Y-73.8381
G1X76.2168Y-78.2746
G1X83.2149Y-87.3628
G1X85.1154Y-93.8288
G1X78.5058Y-113.1215
G1X66.9599Y-120.8600
G1X59.3923Y-123.1058
G1X55.9000Y-123.6844
G1X50.3909Y-123.9017
G1X24.7168Y-111.6779
G1X67.6686Y-74.2946
G1X74.6469Y-78.3607
G1X82.3689Y-87.0467
G1X84.7906Y-93.3902
G1X79.7979Y-112.9936
G1X68.9203Y-121.3404
G1X61.5537Y-123.9930
G1X58.1131Y-124.7607
G1X52.6301Y-125.2802
G1X25.9738Y-114.5022
G1X65.6363Y-74.8347
G1X72.9282Y-78.5025
G1X81.3588Y-86.7358
G1X84.3045Y-92.9257
G1X80.9954Y-112.7570
G1X70.8540Y-121.6895
G1X63.7269Y-124.7472
G1X60.3543Y-125.7055
G1X54.9230Y-126.5322
G1X27.3892Y-117.2862
G1X63.4937Y-75.4751
G1X71.0718Y-78.7196
G1X80.1855Y-86.4521
G1X83.6516Y-92.4565
G1X82.0758Y-112.4242
G1X72.7338Y-121.9109
G1X65.8846Y-125.3668
G1X62.5964Y-126.5151
G1X57.2431Y-127.6506
G1X28.9544Y-120.0087
G1X61.2621Y-76.2307
G1X69.0935Y-79.0305
G1X78.8549Y-86.2174
G1X82.8315Y-92.0053
G1X83.0195Y-112.0114
G1X74.5335Y-122.0122
G1X67.9990Y-125.8546
G1X64.8112Y-127.1899
G1X59.5627Y-128.6323
G1X30.6559Y-122.6499
G1X58.9654Y-77.1126
G1X67.0133Y-79.4510
G1X77.3780Y-86.0524
G1X81.8487Y-91.5940
G1X83.8112Y-111.5369
G1X76.2294Y-122.0047
G1X70.0439Y-126.2170
G1X66.9724Y-127.7343
G1X61.8550Y-129.4784
G1X32.4768Y-125.1930
G1X56.6286Y-78.1282
G1X64.8528Y-79.9927
G1X75.7693Y-85.9747
G1X80.7121Y-91.2424
G1X84.4407Y-111.0199
G1X77.8023Y-121.9018
G1X71.9971Y-126.4633
G1X69.0567Y-128.1558
G1X64.0959Y-130.1932
G1X34.3988Y-127.6252
G1X54.2755Y-79.2807
G1X62.6340Y-80.6637
G1X74.0447Y-85.9978
G1X79.4333Y-90.9664
G1X84.9027Y-110.4780
G1X79.2380Y-121.7176
G1X73.8410Y-126.6045
G1X71.0458Y-128.4637
G1X66.2657Y-130.7836
G1X36.4037Y-129.9380
G1X51.9268Y-80.5700
G1 Z0F20000

G00 X0.0000 Y0.0000

