$H
G21
G17
G90
G1 Z0F20000
G1 F15000
(Start Layer)
(Start Block)

G1X15.4983Y-120.2048
G1Z6F20000
(Plotting speed under)
G1 F8000

G1X20.7288Y-120.2156
G1X25.8681Y-119.9971
G1X30.7193Y-119.5632
G1X35.3591Y-118.9086
G1X39.7039Y-118.0488
G1X43.9160Y-116.9552
G1X48.0400Y-115.6072
G1X51.9827Y-114.0381
G1X56.0448Y-112.1205
G1X59.5960Y-110.1610
G1X62.2279Y-108.2655
G1X64.6549Y-106.0498
G1X66.5740Y-103.8882
G1X68.3429Y-101.4586
G1X70.0608Y-98.5407
G1X72.7788Y-93.0823
G1X73.5575Y-91.9725
G1X74.4189Y-91.1648
G1X75.1498Y-90.7219
G1X75.9894Y-90.3860
G1X76.9513Y-90.1445
G1X78.1611Y-89.9753
G1X81.0542Y-89.9015
G1X84.6242Y-90.1606
G1 Z0F20000
(Start Block)

G1X14.6067Y-119.3458
G1Z6F20000
(Plotting speed under)
G1 F8000

G1X20.1462Y-119.3223
G1X25.5988Y-119.0801
G1X30.5298Y-118.6425
G1X35.2738Y-117.9844
G1X39.7548Y-117.1104
G1X44.0255Y-116.0172
G1X48.1884Y-114.6806
G1X52.3529Y-113.0573
G1X56.5100Y-111.1500
G1X59.7166Y-109.4393
G1X62.3928Y-107.5890
G1X64.9570Y-105.3585
G1X66.9368Y-103.2525
G1X68.7605Y-100.9267
G1X70.5888Y-98.1150
G1X73.6881Y-92.6171
G1X74.5873Y-91.4290
G1X75.5163Y-90.5816
G1X76.2818Y-90.1082
G1X77.1434Y-89.7424
G1X78.0629Y-89.4845
G1X79.1459Y-89.2978
G1X81.8692Y-89.1572
G1X85.1977Y-89.3432
G1 Z0F20000
(Start Block)

G1X13.7906Y-118.4146
G1Z6F20000
(Plotting speed under)
G1 F8000

G1X19.7490Y-118.3657
G1X25.2940Y-118.1198
G1X30.4020Y-117.6780
G1X35.1941Y-117.0275
G1X39.7424Y-116.1586
G1X44.1654Y-115.0461
G1X48.4600Y-113.6898
G1X52.7324Y-112.0595
G1X57.5280Y-109.9165
G1X59.9231Y-108.6460
G1X62.6340Y-106.8374
G1X65.2459Y-104.6703
G1X67.2837Y-102.6274
G1X69.1563Y-100.4117
G1X71.0873Y-97.7159
G1X74.6400Y-92.1133
G1X75.6891Y-90.8522
G1X76.6966Y-89.9889
G1X77.4020Y-89.5549
G1X78.2866Y-89.1589
G1X79.1644Y-88.8863
G1X80.2391Y-88.6681
G1X82.7427Y-88.4707
G1X85.7977Y-88.5750
G1 Z0F20000
(Start Block)

G1X13.0631Y-117.4231
G1Z6F20000
(Plotting speed under)
G1 F8000

G1X19.4416Y-117.3585
G1X25.2284Y-117.1061
G1X30.3425Y-116.6737
G1X35.1698Y-116.0327
G1X39.7743Y-115.1701
G1X44.2918Y-114.0546
G1X48.7556Y-112.6704
G1X53.2223Y-111.0031
G1X57.7106Y-109.0814
G1X60.1284Y-107.8333
G1X62.9569Y-106.0111
G1X65.6036Y-103.9083
G1X67.6868Y-101.9329
G1X69.5987Y-99.8238
G1X71.6172Y-97.2469
G1X75.5118Y-91.7338
G1X76.6114Y-90.4904
G1X77.7634Y-89.5190
G1X78.5009Y-89.0599
G1X79.3626Y-88.6529
G1X80.2470Y-88.3488
G1X81.3159Y-88.0966
G1X83.6150Y-87.8420
G1X86.4184Y-87.8594
G1 Z0F20000
(Start Block)

G1X12.4347Y-116.3832
G1Z6F20000
(Plotting speed under)
G1 F8000

G1X19.2171Y-116.3108
G1X25.0494Y-116.0684
G1X30.3572Y-115.6335
G1X35.2065Y-115.0018
G1X39.9624Y-114.1228
G1X44.5536Y-113.0017
G1X49.0777Y-111.6212
G1X53.8219Y-109.8914
G1X57.8080Y-108.2584
G1X60.4292Y-106.9455
G1X63.2764Y-105.1735
G1X65.9523Y-103.1440
G1X68.0023Y-101.3148
G1X69.9490Y-99.3259
G1X72.1203Y-96.7950
G1X76.3727Y-91.3667
G1X77.6115Y-90.0681
G1X78.8639Y-89.0584
G1X80.4085Y-88.2060
G1X82.2583Y-87.6068
G1X84.4785Y-87.2716
G1X87.0531Y-87.1994
G1 Z0F20000
(Start Block)

G1X11.9138Y-115.3063
G1Z6F20000
(Plotting speed under)
G1 F8000

G1X19.0656Y-115.2322
G1X25.0613Y-114.9935
G1X30.3611Y-114.5703
G1X35.3087Y-113.9365
G1X40.0980Y-113.0627
G1X44.8576Y-111.9142
G1X49.5321Y-110.5072
G1X54.6244Y-108.6932
G1X58.1037Y-107.3202
G1X60.8294Y-105.9838
G1X63.6843Y-104.2618
G1X66.4598Y-102.2416
G1X68.4547Y-100.5538
G1X70.4267Y-98.6723
G1X72.5940Y-96.3539
G1X77.2675Y-90.9595
G1X78.5778Y-89.6894
G1X79.9098Y-88.6596
G1X81.5151Y-87.7699
G1X83.2803Y-87.1498
G1X85.3259Y-86.7597
G1X87.6946Y-86.5973
G1 Z0F20000
(Start Block)

G1X11.5066Y-114.2025
G1Z6F20000
(Plotting speed under)
G1 F8000

G1X19.1243Y-114.1269
G1X25.2728Y-113.8864
G1X30.7954Y-113.4410
G1X35.9038Y-112.7720
G1X40.8280Y-111.8528
G1X45.7461Y-110.6444
G1X50.7276Y-109.1306
G1X56.6949Y-107.0314
G1X59.4506Y-105.8873
G1X62.1699Y-104.4912
G1X64.8077Y-102.8724
G1X67.3776Y-101.0242
G1X69.5938Y-99.1975
G1X71.7321Y-97.2217
G1X78.3653Y-90.3596
G1X79.6130Y-89.2597
G1X80.8199Y-88.3664
G1X82.4807Y-87.4258
G1X84.1552Y-86.7769
G1X86.1497Y-86.3049
G1X88.3353Y-86.0546
G1 Z0F20000
(Start Block)

G1X11.2176Y-113.0801
G1Z6F20000
(Plotting speed under)
G1 F8000

G1X19.0819Y-113.0078
G1X25.1591Y-112.7807
G1X30.6002Y-112.3575
G1X35.7222Y-111.7074
G1X40.6501Y-110.8134
G1X45.5627Y-109.6427
G1X50.4290Y-108.2206
G1X56.7775Y-106.1008
G1X59.5907Y-104.9800
G1X62.3061Y-103.6537
G1X65.0395Y-102.0686
G1X67.6293Y-100.3213
G1X69.8419Y-98.6293
G1X72.0491Y-96.7565
G1X79.2888Y-89.9439
G1X80.6167Y-88.8635
G1X81.8745Y-87.9847
G1X83.4993Y-87.0770
G1X85.2044Y-86.3838
G1X87.0209Y-85.8885
G1X88.9669Y-85.5720
G1 Z0F20000
(Start Block)

G1X11.0498Y-111.9452
G1Z6F20000
(Plotting speed under)
G1 F8000

G1X18.9338Y-111.8784
G1X24.9262Y-111.6657
G1X30.3839Y-111.2567
G1X35.5058Y-110.6252
G1X40.4272Y-109.7568
G1X45.3267Y-108.6241
G1X50.1744Y-107.2585
G1X56.9900Y-105.0900
G1X59.7493Y-104.0333
G1X62.4523Y-102.7802
G1X65.1832Y-101.2913
G1X67.8735Y-99.5973
G1X69.8091Y-98.2350
G1X71.8517Y-96.6687
G1X79.6573Y-89.9768
G1X81.3225Y-88.6834
G1X82.8878Y-87.6329
G1X84.4682Y-86.7625
G1X86.0958Y-86.0660
G1X87.7948Y-85.5325
G1X89.5813Y-85.1490
G1 Z0F20000
(Start Block)

G1X11.0046Y-110.8016
G1Z6F20000
(Plotting speed under)
G1 F8000

G1X18.7860Y-110.7385
G1X24.7878Y-110.5312
G1X30.1499Y-110.1389
G1X35.2586Y-109.5250
G1X40.0569Y-108.7028
G1X44.9389Y-107.6118
G1X49.7690Y-106.3019
G1X57.1299Y-104.0701
G1X59.4865Y-103.2218
G1X61.8751Y-102.2109
G1X64.2538Y-101.0532
G1X66.6533Y-99.7304
G1X69.2981Y-98.0897
G1X72.0193Y-96.2055
G1X74.6167Y-94.2424
G1X80.1736Y-89.8314
G1X83.0576Y-87.7949
G1X84.7824Y-86.7855
G1X86.5248Y-85.9529
G1X88.3137Y-85.2896
G1X90.1700Y-84.7839
G1 Z0F20000
(Start Block)

G1X11.0824Y-109.6501
G1Z6F20000
(Plotting speed under)
G1 F8000

G1X18.7461Y-109.5869
G1X24.7461Y-109.3778
G1X30.1052Y-108.9850
G1X35.0902Y-108.3909
G1X39.8647Y-107.5862
G1X44.7192Y-106.5244
G1X49.3197Y-105.3156
G1X57.4038Y-102.9711
G1X59.8389Y-102.1276
G1X62.3833Y-101.0952
G1X64.8935Y-99.9264
G1X67.4296Y-98.5940
G1X70.0414Y-97.0641
G1X72.7606Y-95.3098
G1X80.9648Y-89.4453
G1X83.8704Y-87.5295
G1X85.5675Y-86.5612
G1X87.2617Y-85.7319
G1X88.9751Y-85.0385
G1X90.7249Y-84.4740
G1 Z0F20000
(Start Block)

G1X11.2822Y-108.4890
G1Z6F20000
(Plotting speed under)
G1 F8000

G1X18.7093Y-108.4247
G1X24.6966Y-108.2102
G1X30.0473Y-107.8138
G1X35.0027Y-107.2226
G1X39.7458Y-106.4284
G1X44.4616Y-105.4135
G1X48.8321Y-104.2968
G1X57.7112Y-101.8266
G1X60.3157Y-100.9600
G1X62.9237Y-99.9485
G1X65.5945Y-98.7662
G1X68.2861Y-97.4268
G1X70.8688Y-96.0064
G1X73.5795Y-94.3850
G1X81.8971Y-88.9549
G1X84.8268Y-87.1609
G1X88.0332Y-85.4920
G1X91.2380Y-84.2152
G1 Z0F20000
(Start Block)

G1X11.6020Y-107.3142
G1Z6F20000
(Plotting speed under)
G1 F8000

G1X18.6777Y-107.2493
G1X24.5377Y-107.0326
G1X29.8782Y-106.6335
G1X34.8930Y-106.0337
G1X39.4920Y-105.2683
G1X44.0674Y-104.3006
G1X48.1131Y-103.2952
G1X58.0525Y-100.6358
G1X60.8136Y-99.7593
G1X63.6719Y-98.7037
G1X66.4879Y-97.5201
G1X69.4134Y-96.1442
G1X74.6974Y-93.3153
G1X85.8446Y-86.7448
G1X88.8444Y-85.2200
G1X91.7022Y-84.0020
G1 Z0F20000
(Start Block)

G1X12.0382Y-106.1190
G1Z6F20000
(Plotting speed under)
G1 F8000

G1X18.7563Y-106.0541
G1X24.5835Y-105.8246
G1X29.9012Y-105.4123
G1X34.8666Y-104.8070
G1X39.2130Y-104.0830
G1X43.7470Y-103.1346
G1X58.5243Y-99.3710
G1X61.5259Y-98.4627
G1X64.5194Y-97.4152
G1X67.5620Y-96.2108
G1X70.7058Y-94.8248
G1X76.2771Y-92.0567
G1X87.1551Y-86.1637
G1X89.7023Y-84.9050
G1X92.1110Y-83.8280
G1 Z0F20000
(Start Block)

G1X12.5856Y-104.8946
G1Z6F20000
(Plotting speed under)
G1 F8000

G1X18.8419Y-104.8349
G1X24.6258Y-104.5930
G1X29.8935Y-104.1684
G1X34.8206Y-103.5545
G1X39.0144Y-102.8506
G1X43.3994Y-101.9379
G1X59.2505Y-98.0024
G1X62.4505Y-97.0823
G1X65.7399Y-95.9969
G1X69.0798Y-94.7553
G1X72.4317Y-93.3752
G1X78.1213Y-90.7634
G1X88.3697Y-85.6244
G1X92.4592Y-83.6854
G1 Z0F20000
(Start Block)

G1X13.2372Y-103.6308
G1Z6F20000
(Plotting speed under)
G1 F8000

G1X19.0346Y-103.5811
G1X24.7404Y-103.3276
G1X29.9536Y-102.8874
G1X34.8564Y-102.2577
G1X38.7933Y-101.5880
G1X42.9269Y-100.7303
G1X53.8786Y-97.9939
G1X60.2493Y-96.5351
G1X63.7900Y-95.5748
G1X67.4070Y-94.4580
G1X70.9646Y-93.2283
G1X74.6319Y-91.8292
G1X81.7348Y-88.7796
G1X92.7426Y-83.5656
G1 Z0F20000
(Start Block)

G1X13.9840Y-102.3162
G1Z6F20000
(Plotting speed under)
G1 F8000

G1X19.3838Y-102.2810
G1X24.8138Y-102.0283
G1X29.8884Y-101.5846
G1X34.8496Y-100.9306
G1X38.5510Y-100.2917
G1X42.3337Y-99.5082
G1X53.9719Y-96.6146
G1X62.0627Y-94.8562
G1X65.9126Y-93.8764
G1X69.7280Y-92.7840
G1X73.4868Y-91.5844
G1X77.1675Y-90.2876
G1X80.7895Y-88.8928
G1X84.5360Y-87.3304
G1X92.9588Y-83.4590
G1 Z0F20000
(Start Block)

G1X14.8145Y-100.9393
G1Z6F20000
(Plotting speed under)
G1 F8000

G1X18.1298Y-100.9574
G1X21.6034Y-100.8648
G1X25.1945Y-100.6629
G1X28.6806Y-100.3625
G1X32.0009Y-99.9754
G1X35.3190Y-99.4853
G1X38.5824Y-98.9007
G1X42.0153Y-98.1802
G1X54.3347Y-95.1136
G1X62.2474Y-93.5461
G1X67.0799Y-92.4830
G1X74.2053Y-90.6215
G1X79.0226Y-89.1157
G1X83.7159Y-87.4267
G1X88.3360Y-85.5365
G1X93.1067Y-83.3558
G1 Z0F20000
(Start Block)

G1X15.7151Y-99.4888
G1Z6F20000
(Plotting speed under)
G1 F8000

G1X21.4222Y-99.4706
G1X27.5906Y-99.0732
G1X33.6235Y-98.3370
G1X39.6981Y-97.2403
G1X44.2867Y-96.1920
G1X54.9368Y-93.4990
G1X68.7046Y-91.0298
G1X72.8584Y-90.1529
G1X76.6742Y-89.2221
G1X81.0038Y-87.9860
G1X85.1586Y-86.5910
G1X89.2029Y-85.0159
G1X93.1871Y-83.2453
G1 Z0F20000
(Start Block)

G1X16.6697Y-97.9549
G1Z6F20000
(Plotting speed under)
G1 F8000

G1X21.4523Y-97.9907
G1X26.7936Y-97.6898
G1X32.1871Y-97.0831
G1X37.5687Y-96.1839
G1X43.0390Y-94.9861
G1X52.4615Y-92.5348
G1X55.7566Y-91.7788
G1X59.3832Y-91.1862
G1X71.3665Y-89.4863
G1X75.1160Y-88.8195
G1X78.6652Y-88.0586
G1X82.5378Y-87.0519
G1X86.1688Y-85.9157
G1X89.7375Y-84.5986
G1X93.2025Y-83.1170
G1 Z0F20000
(Start Block)

G1X17.6600Y-96.3300
G1Z6F20000
(Plotting speed under)
G1 F8000

G1X21.6658Y-96.4146
G1X26.1127Y-96.2159
G1X30.7436Y-95.7535
G1X35.4876Y-95.0348
G1X41.9757Y-93.6784
G1X52.8551Y-90.8195
G1X56.5218Y-90.0099
G1X61.2398Y-89.3759
G1X73.4211Y-88.1795
G1X77.0056Y-87.6637
G1X80.3073Y-87.0470
G1X83.6303Y-86.2644
G1X86.8461Y-85.3345
G1X90.0332Y-84.2305
G1X93.1572Y-82.9607
G1 Z0F20000
(Start Block)

G1X18.6665Y-94.6093
G1Z6F20000
(Plotting speed under)
G1 F8000

G1X22.0488Y-94.7356
G1X25.9047Y-94.6144
G1X29.9917Y-94.2510
G1X34.3098Y-93.6421
G1X37.5488Y-93.0458
G1X40.8861Y-92.3160
G1X44.7204Y-91.3534
G1X53.5670Y-88.9508
G1X55.9828Y-88.4082
G1X58.0469Y-88.0691
G1X62.7283Y-87.6332
G1X73.9846Y-87.1081
G1X77.0845Y-86.8180
G1X80.0217Y-86.4179
G1X83.4263Y-85.7767
G1X86.6483Y-84.9761
G1X89.8712Y-83.9719
G1X93.0571Y-82.7662
G1 Z0F20000
(Start Block)

G1X19.6683Y-92.7919
G1Z6F20000
(Plotting speed under)
G1 F8000

G1X22.9092Y-92.9578
G1X26.5092Y-92.8693
G1X30.4512Y-92.5239
G1X34.5653Y-91.9338
G1X38.1874Y-91.2417
G1X41.9528Y-90.3698
G1X54.4656Y-86.9617
G1X56.5600Y-86.5155
G1X58.4807Y-86.2272
G1X60.8563Y-86.0191
G1X63.3764Y-85.9304
G1X71.8996Y-86.0384
G1X75.2593Y-85.9978
G1X78.5165Y-85.8088
G1X81.5330Y-85.4703
G1X84.3949Y-84.9872
G1X87.2964Y-84.3259
G1X90.1080Y-83.5121
G1X92.9098Y-82.5240
G1 Z0F20000
(Start Block)

G1X20.6444Y-90.8814
G1Z6F20000
(Plotting speed under)
G1 F8000

G1X23.7542Y-91.0874
G1X27.1115Y-91.0345
G1X30.8158Y-90.7247
G1X34.8335Y-90.1468
G1X38.3734Y-89.4571
G1X42.0213Y-88.5923
G1X54.4587Y-85.1120
G1X56.5855Y-84.6459
G1X58.3875Y-84.3651
G1X60.7437Y-84.1778
G1X63.2828Y-84.1574
G1X65.9002Y-84.2774
G1X74.3379Y-84.8775
G1X77.2106Y-84.9289
G1X80.0327Y-84.8315
G1X83.2417Y-84.5184
G1X86.4284Y-83.9812
G1X89.5656Y-83.2240
G1X92.7242Y-82.2253
G1 Z0F20000
(Start Block)

G1X21.5747Y-88.8857
G1Z6F20000
(Plotting speed under)
G1 F8000

G1X24.5639Y-89.1303
G1X27.7960Y-89.1090
G1X31.3676Y-88.8215
G1X35.2013Y-88.2651
G1X38.6640Y-87.5755
G1X42.2926Y-86.6901
G1X54.6485Y-83.1345
G1X57.0245Y-82.6176
G1X59.0057Y-82.3400
G1X61.3598Y-82.2249
G1X63.9904Y-82.3254
G1X66.6746Y-82.6042
G1X74.7096Y-83.6752
G1X77.5136Y-83.8825
G1X80.1248Y-83.9254
G1X83.2751Y-83.7616
G1X86.3194Y-83.3708
G1X89.4447Y-82.7296
G1X92.5103Y-81.8623
G1 Z0F20000
(Start Block)

G1X22.4409Y-86.8178
G1Z6F20000
(Plotting speed under)
G1 F8000

G1X25.3194Y-87.0968
G1X28.4367Y-87.1073
G1X31.8439Y-86.8491
G1X35.5445Y-86.3126
G1X38.9335Y-85.6254
G1X42.4841Y-84.7362
G1X54.8780Y-81.0673
G1X57.3236Y-80.5353
G1X59.4854Y-80.2574
G1X61.9619Y-80.2149
G1X64.5646Y-80.4380
G1X67.2181Y-80.8648
G1X75.2124Y-82.4364
G1X77.8412Y-82.7800
G1X80.3115Y-82.9490
G1X83.2290Y-82.9367
G1X86.2239Y-82.6810
G1X89.2146Y-82.1838
G1X92.2794Y-81.4276
G1 Z0F20000
(Start Block)

G1X23.2274Y-84.6952
G1Z6F20000
(Plotting speed under)
G1 F8000

G1X26.0043Y-85.0020
G1X29.1188Y-85.0390
G1X32.3794Y-84.8014
G1X35.9471Y-84.2806
G1X39.1676Y-83.6150
G1X42.6430Y-82.7228
G1X52.4352Y-79.6797
G1X55.0650Y-78.9333
G1X57.6814Y-78.3664
G1X59.9195Y-78.1095
G1X62.4109Y-78.1429
G1X65.2245Y-78.5193
G1X67.9682Y-79.1274
G1X75.6271Y-81.1292
G1X78.0874Y-81.6012
G1X80.4968Y-81.9011
G1X83.3316Y-82.0273
G1X86.1514Y-81.9086
G1X89.1031Y-81.5334
G1X92.0431Y-80.9150
G1 Z0F20000
(Start Block)

G1X23.9226Y-82.5394
G1Z6F20000
(Plotting speed under)
G1 F8000

G1X26.7159Y-82.8731
G1X29.7249Y-82.9254
G1X32.9555Y-82.6942
G1X36.3483Y-82.1900
G1X39.5528Y-81.5086
G1X42.9581Y-80.6028
G1X52.4443Y-77.5473
G1X55.1981Y-76.7404
G1X57.9805Y-76.1368
G1X60.2971Y-75.9024
G1X62.9269Y-76.0262
G1X65.7410Y-76.5362
G1X68.5929Y-77.3294
G1X76.1683Y-79.7903
G1X78.5779Y-80.3935
G1X80.8259Y-80.7931
G1X83.4841Y-81.0420
G1X86.2116Y-81.0465
G1X89.0115Y-80.8013
G1X91.8134Y-80.3188
G1 Z0F20000
(Start Block)

G1X24.5192Y-80.3753
G1Z6F20000
(Plotting speed under)
G1 F8000

G1X27.3351Y-80.7269
G1X30.2454Y-80.7872
G1X33.3466Y-80.5697
G1X36.6936Y-80.0648
G1X39.7738Y-79.3920
G1X43.1122Y-78.4756
G1X52.5680Y-75.3148
G1X55.2673Y-74.4987
G1X58.1096Y-73.8712
G1X60.5088Y-73.6449
G1X61.8955Y-73.6886
G1X63.2734Y-73.8479
G1X64.7540Y-74.1302
G1X66.3308Y-74.5372
G1X69.3058Y-75.5304
G1X76.8297Y-78.4328
G1X79.0929Y-79.1295
G1X81.1874Y-79.6170
G1X83.6742Y-79.9781
G1X86.2735Y-80.1044
G1X88.9491Y-79.9837
G1X91.6024Y-79.6338
G1 Z0F20000
(Start Block)

G1X25.0147Y-78.2306
G1Z6F20000
(Plotting speed under)
G1 F8000

G1X27.7457Y-78.5807
G1X30.6744Y-78.6480
G1X33.7592Y-78.4256
G1X36.9620Y-77.9269
G1X40.0213Y-77.2347
G1X43.2969Y-76.2987
G1X52.6204Y-73.0493
G1X55.3646Y-72.1918
G1X58.2620Y-71.5472
G1X59.6194Y-71.3826
G1X60.7774Y-71.3423
G1X62.1672Y-71.4222
G1X63.7203Y-71.6551
G1X65.2986Y-72.0236
G1X66.9589Y-72.5310
G1X70.1052Y-73.7472
G1X77.5054Y-77.0269
G1X79.6329Y-77.8037
G1X81.6869Y-78.3934
G1X84.0137Y-78.8473
G1X86.4422Y-79.0787
G1X88.9248Y-79.0769
G1X91.4218Y-78.8549
G1 Z0F20000
(Start Block)

G1X25.4086Y-76.1423
G1Z6F20000
(Plotting speed under)
G1 F8000

G1X28.1673Y-76.4877
G1X31.0060Y-76.5450
G1X33.9745Y-76.3230
G1X37.1446Y-75.8132
G1X40.1600Y-75.1044
G1X43.2961Y-74.1724
G1X46.4005Y-73.0973
G1X52.5957Y-70.7863
G1X55.3800Y-69.8825
G1X56.9545Y-69.4789
G1X58.4282Y-69.2008
G1X59.6923Y-69.0562
G1X60.9645Y-69.0320
G1X62.3955Y-69.1488
G1X64.0002Y-69.4342
G1X65.7038Y-69.8872
G1X67.4925Y-70.5014
G1X70.8796Y-71.9600
G1X78.2932Y-75.6175
G1X80.2975Y-76.4502
G1X82.2188Y-77.0985
G1X84.3963Y-77.6309
G1X86.6623Y-77.9540
G1X88.9239Y-78.0566
G1X91.2960Y-77.9515
G1 Z0F20000
(Start Block)

G1X25.7112Y-74.1335
G1Z6F20000
(Plotting speed under)
G1 F8000

G1X28.3832Y-74.4576
G1X31.2453Y-74.5058
G1X34.2049Y-74.2667
G1X37.2431Y-73.7547
G1X40.2188Y-73.0262
G1X43.4077Y-72.0336
G1X46.3439Y-70.9678
G1X52.4965Y-68.5618
G1X55.3164Y-67.6068
G1X56.8462Y-67.2003
G1X58.3159Y-66.9130
G1X59.6839Y-66.7560
G1X60.9559Y-66.7431
G1X62.5831Y-66.9041
G1X64.3142Y-67.2573
G1X66.1530Y-67.8019
G1X68.0802Y-68.5279
G1X71.6280Y-70.1851
G1X79.1875Y-74.2215
G1X81.0800Y-75.0830
G1X82.8821Y-75.7641
G1X84.9272Y-76.3477
G1X86.9394Y-76.7207
G1X89.0404Y-76.9087
G1X91.2425Y-76.9055
G1 Z0F20000
(Start Block)

G1X25.9392Y-72.2098
G1Z6F20000
(Plotting speed under)
G1 F8000

G1X28.6345Y-72.5133
G1X31.4065Y-72.5394
G1X34.3584Y-72.2783
G1X37.3738Y-71.7390
G1X40.3133Y-70.9803
G1X43.3458Y-69.9907
G1X46.2245Y-68.8968
G1X52.4274Y-66.3511
G1X55.2450Y-65.3582
G1X56.7936Y-64.9359
G1X58.3554Y-64.6318
G1X59.7152Y-64.4892
G1X60.9739Y-64.4952
G1X62.7030Y-64.6954
G1X64.4642Y-65.0856
G1X66.4480Y-65.7092
G1X68.5256Y-66.5358
G1X72.3519Y-68.4221
G1X80.0865Y-72.7960
G1X81.8764Y-73.6686
G1X83.5693Y-74.3668
G1X85.4935Y-74.9862
G1X87.3734Y-75.4055
G1X89.3293Y-75.6546
G1X91.2585Y-75.7292
G1 Z0F20000
(Start Block)

G1X26.1073Y-70.3744
G1Z6F20000
(Plotting speed under)
G1 F8000

G1X28.8229Y-70.6514
G1X31.6034Y-70.6470
G1X34.4477Y-70.3651
G1X37.4417Y-69.7955
G1X40.3470Y-69.0045
G1X43.3310Y-67.9798
G1X46.2515Y-66.8105
G1X52.2052Y-64.2387
G1X55.0484Y-63.1861
G1X56.6753Y-62.7264
G1X58.2155Y-62.4204
G1X59.5657Y-62.2794
G1X60.9103Y-62.2950
G1X62.7623Y-62.5314
G1X64.6627Y-62.9800
G1X66.7999Y-63.6859
G1X68.9962Y-64.5962
G1X73.0529Y-66.6703
G1X80.9891Y-71.3389
G1X82.7833Y-72.2544
G1X84.3758Y-72.9488
G1X86.0894Y-73.5507
G1X87.8472Y-74.0037
G1X89.5588Y-74.2886
G1X91.3375Y-74.4327
G1 Z0F20000
(Start Block)

G1X26.2283Y-68.6284
G1Z6F20000
(Plotting speed under)
G1 F8000

G1X28.9609Y-68.8743
G1X31.6475Y-68.8419
G1X34.4848Y-68.5322
G1X37.4584Y-67.9302
G1X40.3314Y-67.1052
G1X43.2690Y-66.0442
G1X46.1318Y-64.8389
G1X52.0606Y-62.1447
G1X54.8025Y-61.0806
G1X56.5025Y-60.5806
G1X58.0202Y-60.2707
G1X59.3605Y-60.1294
G1X60.6895Y-60.1449
G1X62.3463Y-60.3423
G1X64.1633Y-60.7392
G1X66.0432Y-61.3120
G1X68.0572Y-62.0798
G1X70.3373Y-63.1151
G1X72.8332Y-64.4209
G1X81.0674Y-69.3764
G1X84.1979Y-71.0359
G1X86.0004Y-71.7942
G1X87.8344Y-72.3868
G1X89.6186Y-72.7861
G1X91.4710Y-73.0244
G1 Z0F20000
(Start Block)

G1X26.3134Y-66.9714
G1Z6F20000
(Plotting speed under)
G1 F8000

G1X29.0596Y-67.1830
G1X31.7508Y-67.1151
G1X34.5822Y-66.7659
G1X37.4350Y-66.1474
G1X40.2773Y-65.2875
G1X43.1711Y-64.1893
G1X45.9785Y-62.9473
G1X51.8490Y-60.1387
G1X54.6227Y-59.0125
G1X56.2871Y-58.5055
G1X57.7815Y-58.1901
G1X59.1109Y-58.0465
G1X60.5251Y-58.0649
G1X62.4109Y-58.3035
G1X64.3724Y-58.7527
G1X66.5197Y-59.4327
G1X68.7791Y-60.3271
G1X71.2063Y-61.4655
G1X73.7490Y-62.8279
G1X81.8600Y-67.7778
G1X84.8221Y-69.3973
G1X86.5330Y-70.1632
G1X88.2627Y-70.7806
G1X89.9288Y-71.2182
G1X91.6479Y-71.5116
G1 Z0F20000
(Start Block)

G1X26.3715Y-65.4019
G1Z6F20000
(Plotting speed under)
G1 F8000

G1X29.1283Y-65.5770
G1X31.8223Y-65.4722
G1X34.5460Y-65.1012
G1X37.3812Y-64.4497
G1X40.1952Y-63.5547
G1X43.1445Y-62.3768
G1X45.8958Y-61.0941
G1X51.6140Y-58.2127
G1X54.3131Y-57.0580
G1X55.9388Y-56.5339
G1X57.5117Y-56.1836
G1X58.8292Y-56.0359
G1X60.3269Y-56.0536
G1X62.3366Y-56.3092
G1X64.5828Y-56.8318
G1X66.8778Y-57.5701
G1X69.3906Y-58.5780
G1X71.8713Y-59.7525
G1X74.5612Y-61.2015
G1X82.6453Y-66.1457
G1X85.5461Y-67.7555
G1X87.1714Y-68.5101
G1X88.7035Y-69.0980
G1X90.2604Y-69.5633
G1X91.8564Y-69.9012
G1 Z0F20000
(Start Block)

G1X26.4100Y-63.9174
G1Z6F20000
(Plotting speed under)
G1 F8000

G1X29.0588Y-64.0553
G1X31.7698Y-63.9231
G1X34.4866Y-63.5228
G1X37.3059Y-62.8385
G1X40.0940Y-61.9088
G1X43.0041Y-60.6924
G1X45.7972Y-59.3254
G1X51.4651Y-56.3210
G1X54.0901Y-55.1472
G1X55.7792Y-54.5853
G1X57.3288Y-54.2358
G1X58.6402Y-54.0956
G1X60.1064Y-54.1140
G1X62.2383Y-54.3797
G1X64.6738Y-54.9404
G1X67.2186Y-55.7555
G1X69.9904Y-56.8679
G1X72.6219Y-58.1152
G1X75.3611Y-59.5874
G1X83.4202Y-64.4812
G1X86.1615Y-66.0144
G1X89.1464Y-67.3448
G1X90.6018Y-67.8276
G1X92.0838Y-68.1995
G1 Z0F20000
(Start Block)

G1X26.4344Y-62.5150
G1Z6F20000
(Plotting speed under)
G1 F8000

G1X29.0888Y-62.6172
G1X31.8006Y-62.4478
G1X34.5115Y-62.0091
G1X37.3162Y-61.2837
G1X40.1768Y-60.2734
G1X43.0443Y-59.0063
G1X45.6925Y-57.6425
G1X51.2163Y-54.5613
G1X53.8625Y-53.3177
G1X55.5115Y-52.7446
G1X57.0321Y-52.3845
G1X58.3297Y-52.2374
G1X59.8747Y-52.2474
G1X62.2367Y-52.5355
G1X64.8516Y-53.1330
G1X67.6510Y-54.0241
G1X70.5806Y-55.1922
G1X73.3289Y-56.4831
G1X76.1488Y-57.9813
G1X84.2750Y-62.8411
G1X86.8377Y-64.2664
G1X89.6856Y-65.5684
G1X92.3172Y-66.4135
G1 Z0F20000
(Start Block)

G1X26.4490Y-61.1910
G1Z6F20000
(Plotting speed under)
G1 F8000

G1X29.1073Y-61.2584
G1X31.8194Y-61.0531
G1X34.5252Y-60.5776
G1X37.3171Y-59.8126
G1X40.1550Y-58.7604
G1X42.9874Y-57.4501
G1X45.6775Y-55.9965
G1X51.0702Y-52.8357
G1X53.6418Y-51.5694
G1X55.2503Y-50.9839
G1X56.7406Y-50.6121
G1X58.1340Y-50.4500
G1X59.6420Y-50.4534
G1X62.2310Y-50.7554
G1X65.0230Y-51.3798
G1X68.0303Y-52.3185
G1X71.1508Y-53.5412
G1X73.9452Y-54.8289
G1X76.8251Y-56.3256
G1X85.1169Y-61.1728
G1X87.5427Y-62.5032
G1X90.1049Y-63.6963
G1X92.5440Y-64.5506
G1 Z0F20000
(Start Block)

G1X26.4566Y-59.9417
G1Z6F20000
(Plotting speed under)
G1 F8000

G1X29.2339Y-59.9714
G1X31.9302Y-59.7227
G1X34.6319Y-59.2025
G1X37.4122Y-58.3906
G1X40.2281Y-57.2901
G1X43.0259Y-55.9318
G1X45.6122Y-54.4683
G1X50.9393Y-51.1921
G1X53.4925Y-49.8773
G1X55.0439Y-49.2899
G1X56.4652Y-48.9174
G1X57.8395Y-48.7435
G1X59.4181Y-48.7309
G1X62.1155Y-49.0186
G1X65.0878Y-49.6505
G1X68.2607Y-50.6026
G1X71.6175Y-51.8759
G1X74.5484Y-53.1890
G1X77.5634Y-54.7144
G1X88.2278Y-60.7067
G1X90.5449Y-61.7937
G1X92.7522Y-62.6189
G1 Z0F20000
(Start Block)

G1X26.4588Y-58.7630
G1Z6F20000
(Plotting speed under)
G1 F8000

G1X29.2384Y-58.7606
G1X31.9354Y-58.4807
G1X34.6347Y-57.9285
G1X37.4076Y-57.0820
G1X40.2088Y-55.9438
G1X43.0718Y-54.4958
G1X45.7297Y-52.9200
G1X50.8320Y-49.6291
G1X53.3314Y-48.2788
G1X54.8437Y-47.6780
G1X56.2156Y-47.2984
G1X57.5682Y-47.1106
G1X59.2117Y-47.0776
G1X61.9804Y-47.3386
G1X65.1531Y-47.9711
G1X68.5815Y-48.9562
G1X72.0742Y-50.2339
G1X75.0442Y-51.5174
G1X78.1969Y-53.0570
G1X88.9845Y-58.9299
G1X91.0633Y-59.8979
G1X92.9309Y-60.6276
G1 Z0F20000
(Start Block)

G1X26.4564Y-57.6504
G1Z6F20000
(Plotting speed under)
G1 F8000

G1X29.2381Y-57.6190
G1X31.9365Y-57.3113
G1X34.7352Y-56.7038
G1X37.5024Y-55.8163
G1X40.2905Y-54.6351
G1X43.1294Y-53.1412
G1X45.7655Y-51.5130
G1X50.8733Y-48.0700
G1X53.2037Y-46.7558
G1X54.5693Y-46.1785
G1X56.0001Y-45.7521
G1X57.4358Y-45.5390
G1X59.0138Y-45.4902
G1X61.9167Y-45.7255
G1X65.2233Y-46.3391
G1X68.8023Y-47.3123
G1X72.4238Y-48.5753
G1X75.2368Y-49.7318
G1X78.1665Y-51.0843
G1X81.2911Y-52.6667
G1X88.9341Y-56.7432
G1X91.0707Y-57.7626
G1X93.0706Y-58.5864
G1 Z0F20000
(Start Block)

G1X26.4494Y-56.5996
G1Z6F20000
(Plotting speed under)
G1 F8000

G1X29.2331Y-56.5429
G1X32.0343Y-56.1936
G1X34.8345Y-55.5501
G1X37.6974Y-54.5874
G1X40.5673Y-53.3113
G1X43.3771Y-51.7614
G1X45.9178Y-50.1220
G1X50.8467Y-46.6500
G1X53.1157Y-45.3056
G1X54.5513Y-44.6723
G1X55.8637Y-44.2663
G1X57.2326Y-44.0426
G1X58.7817Y-43.9661
G1X61.7333Y-44.1500
G1X65.1958Y-44.7290
G1X68.8250Y-45.6442
G1X72.6643Y-46.9026
G1X75.7960Y-48.1295
G1X79.0383Y-49.5710
G1X82.2370Y-51.1353
G1X89.4246Y-54.8326
G1X93.1634Y-56.5059
G1 Z0F20000
(Start Block)

G1X26.4370Y-55.6058
G1Z6F20000
(Plotting speed under)
G1 F8000

G1X29.3229Y-55.5199
G1X32.2289Y-55.1206
G1X35.0326Y-54.4351
G1X37.8953Y-53.4282
G1X40.7585Y-52.1059
G1X43.5517Y-50.5087
G1X46.0922Y-48.8067
G1X50.9564Y-45.2375
G1X53.1701Y-43.8736
G1X54.4712Y-43.2723
G1X55.7535Y-42.8504
G1X57.1773Y-42.5979
G1X58.7031Y-42.5019
G1X61.7977Y-42.6530
G1X65.2854Y-43.1847
G1X69.0425Y-44.0676
G1X72.9932Y-45.2884
G1X76.3428Y-46.5363
G1X79.8041Y-48.0109
G1X89.9821Y-52.9637
G1X93.2033Y-54.3973
G1 Z0F20000
(Start Block)

G1X26.4181Y-54.6642
G1Z6F20000
(Plotting speed under)
G1 F8000

G1X29.4068Y-54.5521
G1X32.3189Y-54.1261
G1X35.2295Y-53.3832
G1X38.0963Y-52.3368
G1X40.9586Y-50.9722
G1X43.8292Y-49.2746
G1X46.3827Y-47.4981
G1X51.1990Y-43.8267
G1X53.2684Y-42.5067
G1X54.5413Y-41.8946
G1X55.8034Y-41.4675
G1X57.1661Y-41.2104
G1X58.6646Y-41.0921
G1X61.7785Y-41.1910
G1X65.3885Y-41.6790
G1X69.2613Y-42.5200
G1X73.3138Y-43.6943
G1X76.8772Y-44.9520
G1X80.5566Y-46.4498
G1X90.5732Y-51.1238
G1X93.1864Y-52.2722
G1 Z0F20000
(Start Block)

G1X26.3914Y-53.7696
G1Z6F20000
(Plotting speed under)
G1 F8000

G1X29.3831Y-53.6454
G1X32.4032Y-53.1885
G1X35.4242Y-52.3918
G1X38.3973Y-51.2688
G1X41.2604Y-49.8575
G1X44.1229Y-48.1106
G1X46.6968Y-46.2591
G1X51.3875Y-42.5486
G1X53.4132Y-41.2017
G1X54.6595Y-40.5762
G1X55.7930Y-40.1711
G1X57.1018Y-39.8913
G1X58.6688Y-39.7331
G1X61.7901Y-39.7736
G1X65.4035Y-40.1923
G1X69.3488Y-40.9681
G1X73.5276Y-42.0896
G1X77.2022Y-43.3060
G1X81.1041Y-44.8105
G1X93.1106Y-50.1420
G1 Z0F20000
(Start Block)

G1X26.3553Y-52.9169
G1Z6F20000
(Plotting speed under)
G1 F8000

G1X29.4505Y-52.7764
G1X32.5812Y-52.2824
G1X35.6150Y-51.4582
G1X38.6999Y-50.2616
G1X41.6630Y-48.7556
G1X44.5181Y-46.9564
G1X47.1251Y-45.0173
G1X51.7091Y-41.2650
G1X53.6058Y-39.9557
G1X54.8269Y-39.3135
G1X55.9424Y-38.8987
G1X57.2851Y-38.5921
G1X58.7175Y-38.4213
G1X61.8341Y-38.3975
G1X65.4378Y-38.7426
G1X69.4418Y-39.4471
G1X73.6363Y-40.4806
G1X77.5147Y-41.6779
G1X81.5400Y-43.1432
G1X85.2437Y-44.6588
G1X92.9762Y-48.0181
G1 Z0F20000
(Start Block)

G1X26.3083Y-52.1004
G1Z6F20000
(Plotting speed under)
G1 F8000

G1X29.5071Y-51.9496
G1X32.7503Y-51.4243
G1X35.9012Y-50.5453
G1X39.0024Y-49.3132
G1X41.9795Y-47.7688
G1X44.9284Y-45.8663
G1X47.4875Y-43.9113
G1X52.0710Y-40.0405
G1X53.9366Y-38.7104
G1X55.0441Y-38.1041
G1X56.1411Y-37.6758
G1X57.4551Y-37.3473
G1X58.9154Y-37.1433
G1X62.0145Y-37.0623
G1X65.5932Y-37.3391
G1X69.6495Y-37.9761
G1X73.8408Y-38.9250
G1X77.8169Y-40.0694
G1X81.9616Y-41.4924
G1X85.8897Y-43.0237
G1X92.7854Y-45.9115
G1 Z0F20000
(Start Block)

G1X26.2491Y-51.3146
G1Z6F20000
(Plotting speed under)
G1 F8000

G1X29.5512Y-51.1602
G1X32.9086Y-50.6103
G1X36.1804Y-49.6822
G1X39.4019Y-48.3751
G1X42.4878Y-46.7326
G1X45.4379Y-44.7765
G1X48.0505Y-42.7214
G1X52.5600Y-38.8007
G1X54.4006Y-37.4601
G1X55.5000Y-36.8556
G1X56.5935Y-36.4312
G1X57.8957Y-36.0978
G1X59.2546Y-35.8901
G1X62.3244Y-35.7587
G1X65.8510Y-35.9712
G1X69.8638Y-36.5284
G1X74.0436Y-37.3930
G1X78.0119Y-38.4526
G1X82.1755Y-39.7927
G1X86.3354Y-41.3315
G1X92.5422Y-43.8320
G1 Z0F20000
(Start Block)

G1X26.1768Y-50.5536
G1Z6F20000
(Plotting speed under)
G1 F8000

G1X27.9696Y-50.5233
G1X29.6824Y-50.3926
G1X33.0539Y-49.8366
G1X34.8044Y-49.3887
G1X36.4504Y-48.8661
G1X39.7982Y-47.4887
G1X42.9067Y-45.8078
G1X45.8746Y-43.8080
G1X48.5463Y-41.6635
G1X53.0854Y-37.6121
G1X54.8166Y-36.3127
G1X55.8106Y-35.7421
G1X56.9826Y-35.2585
G1X58.2590Y-34.9041
G1X59.6262Y-34.6662
G1X62.6411Y-34.4786
G1X66.1102Y-34.6235
G1X69.9809Y-35.0865
G1X74.1495Y-35.8634
G1X78.2022Y-36.8627
G1X82.3794Y-38.1230
G1X86.5787Y-39.5949
G1X92.2522Y-41.7889
G1 Z0F20000
(Start Block)

G1X26.0906Y-49.8114
G1Z6F20000
(Plotting speed under)
G1 F8000

G1X27.8818Y-49.7919
G1X29.6970Y-49.6631
G1X31.4323Y-49.4350
G1X33.1840Y-49.0987
G1X34.9458Y-48.6517
G1X36.7086Y-48.0933
G1X38.4608Y-47.4252
G1X40.1892Y-46.6515
G1X43.4216Y-44.8795
G1X46.4930Y-42.7679
G1X49.1500Y-40.5850
G1X53.6454Y-36.4712
G1X55.3598Y-35.1519
G1X56.3496Y-34.5785
G1X57.5096Y-34.0851
G1X58.7656Y-33.7145
G1X60.1252Y-33.4530
G1X62.9640Y-33.2197
G1X66.3847Y-33.2957
G1X70.2130Y-33.6839
G1X74.3574Y-34.3813
G1X78.3917Y-35.3013
G1X82.4787Y-36.4554
G1X86.7155Y-37.8606
G1X91.9227Y-39.7902
G1 Z0F20000
(Start Block)

G1X25.9905Y-49.0820
G1Z6F20000
(Plotting speed under)
G1 F8000

G1X27.8787Y-49.0736
G1X29.6949Y-48.9556
G1X31.5371Y-48.7227
G1X33.4011Y-48.3690
G1X35.2796Y-47.8909
G1X37.0570Y-47.3238
G1X38.9292Y-46.6024
G1X40.6737Y-45.8111
G1X43.9367Y-44.0009
G1X47.1208Y-41.7778
G1X49.7839Y-39.5462
G1X54.2372Y-35.3743
G1X55.8523Y-34.0902
G1X56.9225Y-33.4492
G1X58.0665Y-32.9394
G1X59.2980Y-32.5475
G1X60.6265Y-32.2614
G1X63.4174Y-31.9748
G1X66.6743Y-31.9859
G1X70.4554Y-32.3015
G1X74.4396Y-32.8995
G1X78.3863Y-33.7226
G1X82.4773Y-34.7977
G1X86.6503Y-36.1028
G1X91.5617Y-37.8424
G1 Z0F20000
(Start Block)

G1X25.8771Y-48.3590
G1Z6F20000
(Plotting speed under)
G1 F8000

G1X27.8433Y-48.3679
G1X29.7773Y-48.2553
G1X31.7272Y-48.0163
G1X33.6007Y-47.6661
G1X35.4922Y-47.1911
G1X37.3908Y-46.5892
G1X39.2822Y-45.8615
G1X41.1369Y-45.0183
G1X42.8248Y-44.1333
G1X44.4617Y-43.1613
G1X47.6692Y-40.9027
G1X50.4331Y-38.5544
G1X54.9419Y-34.2414
G1X56.5499Y-32.9468
G1X57.6146Y-32.2998
G1X58.7450Y-31.7778
G1X59.9562Y-31.3693
G1X61.2587Y-31.0637
G1X63.8842Y-30.7420
G1X67.0818Y-30.6953
G1X70.6667Y-30.9343
G1X74.5340Y-31.4474
G1X78.4890Y-32.2039
G1X82.4805Y-33.1837
G1X86.5830Y-34.3958
G1X91.1784Y-35.9510
G1 Z0F20000
(Start Block)

G1X25.7512Y-47.6365
G1Z6F20000
(Plotting speed under)
G1 F8000

G1X27.8261Y-47.6677
G1X29.8426Y-47.5673
G1X31.7956Y-47.3431
G1X33.7815Y-46.9853
G1X35.7920Y-46.4881
G1X37.7078Y-45.8857
G1X39.6992Y-45.1225
G1X41.6280Y-44.2441
G1X43.3364Y-43.3450
G1X45.0796Y-42.3024
G1X46.7723Y-41.1599
G1X48.3958Y-39.9351
G1X51.1707Y-37.5351
G1X55.7536Y-33.0643
G1X57.2718Y-31.8310
G1X58.3263Y-31.1706
G1X59.4392Y-30.6306
G1X60.6263Y-30.2015
G1X62.0106Y-29.8509
G1X64.5713Y-29.5022
G1X67.6005Y-29.4177
G1X71.0188Y-29.5985
G1X74.7498Y-30.0403
G1X78.5069Y-30.7004
G1X82.3944Y-31.5891
G1X86.4207Y-32.7110
G1X90.7823Y-34.1199
G1 Z0F20000
(Start Block)

G1X25.6149Y-46.9082
G1Z6F20000
(Plotting speed under)
G1 F8000

G1X27.6787Y-46.9690
G1X29.7891Y-46.8935
G1X31.8450Y-46.6812
G1X33.9425Y-46.3217
G1X36.0729Y-45.8075
G1X38.1139Y-45.1715
G1X40.1541Y-44.3913
G1X42.1067Y-43.5031
G1X43.9280Y-42.5421
G1X45.6928Y-41.4799
G1X47.3829Y-40.3322
G1X49.0379Y-39.0746
G1X51.5334Y-36.9131
G1X56.2491Y-32.2264
G1X58.0109Y-30.7349
G1X59.0514Y-30.0549
G1X60.1432Y-29.4926
G1X61.3039Y-29.0402
G1X62.6551Y-28.6642
G1X65.1562Y-28.2743
G1X67.9930Y-28.1481
G1X71.2733Y-28.2711
G1X74.8782Y-28.6452
G1X78.5324Y-29.2333
G1X82.3256Y-30.0431
G1X86.1689Y-31.0537
G1X90.3832Y-32.3521
G1 Z0F20000
(Start Block)

G1X25.4705Y-46.1680
G1Z6F20000
(Plotting speed under)
G1 F8000

G1X27.6352Y-46.2636
G1X29.8216Y-46.2127
G1X31.9798Y-46.0117
G1X34.1898Y-45.6489
G1X36.3342Y-45.1442
G1X38.5024Y-44.4788
G1X40.5930Y-43.6853
G1X42.6646Y-42.7447
G1X44.5101Y-41.7688
G1X46.2992Y-40.6890
G1X48.0963Y-39.4603
G1X49.7912Y-38.1576
G1X52.2860Y-35.9670
G1X57.0943Y-31.0963
G1X58.9285Y-29.5255
G1X59.9580Y-28.8408
G1X61.0361Y-28.2721
G1X62.1811Y-27.8124
G1X63.4081Y-27.4538
G1X65.7450Y-27.0505
G1X68.4141Y-26.8901
G1X71.5464Y-26.9636
G1X75.0298Y-27.2795
G1X78.6561Y-27.8180
G1X82.2810Y-28.5456
G1X86.0374Y-29.4833
G1X89.9910Y-30.6491
G1 Z0F20000
(Start Block)

G1X25.3211Y-45.4100
G1Z6F20000
(Plotting speed under)
G1 F8000

G1X27.5816Y-45.5477
G1X29.8398Y-45.5278
G1X32.0972Y-45.3444
G1X34.3115Y-45.0045
G1X36.5754Y-44.4929
G1X38.8039Y-43.8259
G1X41.0149Y-42.9993
G1X43.2094Y-42.0084
G1X45.0811Y-41.0198
G1X46.9859Y-39.8667
G1X48.8062Y-38.6133
G1X50.6005Y-37.2185
G1X53.1211Y-34.9690
G1X57.9478Y-29.9786
G1X59.8452Y-28.3156
G1X60.8601Y-27.6231
G1X61.9220Y-27.0465
G1X63.0505Y-26.5794
G1X64.2615Y-26.2143
G1X66.4953Y-25.8112
G1X69.0710Y-25.6377
G1X72.0543Y-25.6866
G1X75.3109Y-25.9544
G1X78.7004Y-26.4218
G1X82.2671Y-27.0964
G1X85.8310Y-27.9429
G1X89.6153Y-29.0117
G1 Z0F20000
(Start Block)

G1X25.1703Y-44.6284
G1Z6F20000
(Plotting speed under)
G1 F8000

G1X27.5210Y-44.8157
G1X29.8460Y-44.8332
G1X32.1988Y-44.6739
G1X34.5215Y-44.3414
G1X36.9064Y-43.8200
G1X39.2796Y-43.1190
G1X41.6136Y-42.2476
G1X43.8363Y-41.2412
G1X45.8272Y-40.1828
G1X47.7553Y-39.0034
G1X49.5963Y-37.7214
G1X51.4088Y-36.2947
G1X54.0370Y-33.9064
G1X58.8846Y-28.7795
G1X60.8362Y-27.0348
G1X61.8374Y-26.3435
G1X62.8200Y-25.8017
G1X63.9101Y-25.3399
G1X65.0038Y-24.9977
G1X67.0889Y-24.5936
G1X69.5154Y-24.4006
G1X72.2637Y-24.4129
G1X75.4184Y-24.6359
G1X78.7806Y-25.0650
G1X82.1894Y-25.6746
G1X85.6587Y-26.4607
G1X89.2653Y-27.4399
G1 Z0F20000

G00 X0.0000 Y0.0000

