$H
G21
G17
G90
G1 Z0F20000
G1 F15000

(Start Layer)

(Start Block)


G1X25.5484Y-46.8815
G1Z6F20000
(Plotting speed under)
G1 F4000


G1X26.8768Y-50.4842

G1X28.0469Y-53.0495

G1X29.1449Y-54.8214

G1X29.6826Y-55.4346

G1X30.2163Y-55.8905

G1X30.6887Y-56.1602

G1X31.0924Y-56.2865

G1X32.0911Y-56.3103

G1X33.3614Y-55.8339

G1X35.1214Y-54.9574

G1X35.7267Y-54.7652

G1X36.1269Y-54.7275

G1X36.7225Y-54.8143

G1X37.3122Y-55.0788

G1X37.8316Y-55.5086

G1X38.3464Y-56.1118

G1X39.2854Y-57.6764

G1X40.3464Y-60.1339

G1X43.4225Y-69.3533

G1X44.2960Y-71.6582

G1X45.1501Y-73.4215

G1X45.6358Y-74.1255

G1X46.0483Y-74.5524

G1X46.5313Y-74.8325

G1X46.9484Y-74.8718

G1X47.4646Y-74.7014

G1X47.8862Y-74.3775

G1X48.8002Y-73.2355

G1X50.6784Y-70.1230

G1X51.6301Y-69.0355

G1X51.9708Y-68.8521

G1X52.3758Y-68.7871

G1X52.7767Y-68.9137

G1X53.1078Y-69.1815

G1X53.8020Y-70.1822

G1X54.4838Y-71.7374

G1X56.5091Y-78.0125

G1X57.2744Y-80.1062

G1X57.9220Y-81.3093

G1X58.2089Y-81.6383

G1X58.5123Y-81.8128

G1X58.7942Y-81.8186

G1X59.1661Y-81.6050

G1X59.4765Y-81.2176

G1X59.8348Y-80.5532

G1X60.4561Y-78.9587

G1X62.3228Y-73.0764

G1X62.9632Y-71.8023

G1X63.2418Y-71.5227

G1X63.5115Y-71.4220

G1X63.7784Y-71.4929

G1X64.0135Y-71.7118

G1X64.6146Y-72.8519

G1X65.2129Y-74.6749

G1X66.2888Y-78.4861

G1X66.8227Y-79.8901

G1X67.2650Y-80.4884

G1X67.5262Y-80.5404

G1X67.7449Y-80.3935

G1X68.2016Y-79.4905

G1X68.6450Y-77.9146

G1X70.4434Y-68.8587

G1X70.8295Y-67.6877

G1X71.0271Y-67.3360

G1X71.1966Y-67.1960

G1X71.3647Y-67.1978

G1X71.5727Y-67.3811

G1X71.9819Y-68.3524

G1X73.3928Y-73.9611

G1X73.7383Y-74.5774

G1X73.8637Y-74.6248

G1X74.0270Y-74.5172

G1X74.3630Y-73.7186

G1X74.7470Y-71.8457

G1X76.1175Y-61.9729

G1X76.3931Y-60.8061

G1X76.6853Y-60.2913

G1X76.8090Y-60.3204

G1X76.9320Y-60.4927

G1X77.1996Y-61.2906

G1X78.0648Y-66.0681

G1X78.3575Y-67.3245

G1X78.6319Y-67.8316

G1X78.8001Y-67.7534

G1X78.9217Y-67.4826

G1X79.1629Y-66.4630

G1X79.3870Y-64.9605

G1X80.3559Y-56.6083

G1X80.5950Y-55.3354

G1X80.8189Y-54.7790

G1X80.8973Y-54.7489

G1X81.0538Y-54.9252

G1X81.2938Y-55.8205

G1X82.2371Y-62.5393

G1X82.4770Y-63.7127

G1X82.6838Y-64.1995

G1X82.8392Y-64.2016

G1X82.9170Y-64.0887

G1X83.1508Y-63.2727

G1X84.1994Y-55.8532

G1X84.4748Y-54.6370

G1X84.5787Y-54.4174

G1X84.7411Y-54.3315

G1X84.9865Y-54.8529

G1X85.2379Y-56.1105

G1X86.3400Y-65.2716

G1X86.6163Y-66.9151

G1X86.8709Y-67.8185

G1X87.0150Y-68.0379

G1X87.1602Y-68.0656

G1X87.3965Y-67.7282

G1X87.6728Y-66.8627

G1X88.4717Y-63.4959

G1X88.6867Y-62.8856

G1X88.9191Y-62.5996

G1X89.0807Y-62.6237

G1X89.1620Y-62.7203

G1X89.4465Y-63.4905

G1X89.9969Y-66.6745

G1 Z0F20000


G00 X0.0000 Y0.0000


