$H
G21
G17
G90
G1 Z0F20000
G1 F15000
(Start Layer)
(Start Block)

G1X17.5325Y-118.3412
G1Z6F20000
(Plotting speed under)
G1 F8000

G1X22.3411Y-118.9996
G1X26.3160Y-119.2143
G1X30.4965Y-119.0470
G1X34.8859Y-118.4797
G1X39.3252Y-117.5089
G1X43.5676Y-116.1784
G1X45.6800Y-115.3518
G1X47.6539Y-114.4692
G1X49.5528Y-113.5100
G1X51.4132Y-112.4547
G1X54.4606Y-110.4447
G1X57.1172Y-108.3294
G1X58.1439Y-107.3130
G1X59.0440Y-106.2850
G1X59.9397Y-105.1055
G1X60.7457Y-103.8706
G1X61.4983Y-102.5114
G1X62.1411Y-101.1142
G1X62.6606Y-99.7244
G1X63.0876Y-98.2644
G1X63.5653Y-95.7134
G1X63.8395Y-91.8942
G1X64.0040Y-90.9764
G1X64.3398Y-90.3585
G1X65.0219Y-89.9087
G1X66.1661Y-89.6512
G1X68.0063Y-89.5534
G1X70.4865Y-89.6206
G1X73.2610Y-89.8445
G1X75.8408Y-90.1783
G1X78.2742Y-90.6101
G1X80.6347Y-91.1466
G1X82.9954Y-91.8088
G1 Z0F20000
(Start Block)

G1X16.3133Y-118.0967
G1Z6F20000
(Plotting speed under)
G1 F8000

G1X21.2069Y-118.5898
G1X25.4773Y-118.6951
G1X30.0452Y-118.4273
G1X34.6802Y-117.7803
G1X39.2328Y-116.7650
G1X43.4961Y-115.4330
G1X45.5831Y-114.6293
G1X47.6351Y-113.7310
G1X51.4610Y-111.7359
G1X54.5583Y-109.7706
G1X57.1954Y-107.7680
G1X59.1935Y-105.7581
G1X60.1336Y-104.5987
G1X60.9888Y-103.3842
G1X61.7997Y-102.0452
G1X62.4739Y-100.7361
G1X63.0702Y-99.3563
G1X63.5907Y-97.8769
G1X64.2353Y-95.2945
G1X64.7995Y-91.3186
G1X65.0496Y-90.2954
G1X65.5102Y-89.5349
G1X66.2648Y-89.0502
G1X67.3773Y-88.7756
G1X68.9900Y-88.6576
G1X71.0954Y-88.6910
G1X73.6137Y-88.8788
G1X75.9901Y-89.1724
G1X78.4171Y-89.5861
G1X80.7594Y-90.0992
G1X83.0958Y-90.7299
G1 Z0F20000
(Start Block)

G1X15.0872Y-117.6978
G1Z6F20000
(Plotting speed under)
G1 F8000

G1X19.4371Y-118.0279
G1X23.1340Y-118.1053
G1X27.1232Y-117.9481
G1X31.0932Y-117.5539
G1X34.9341Y-116.9409
G1X38.7475Y-116.0869
G1X42.3672Y-115.0233
G1X45.8996Y-113.7171
G1X48.1728Y-112.7200
G1X50.4021Y-111.6113
G1X52.5631Y-110.4024
G1X54.6343Y-109.1114
G1X56.2814Y-107.9813
G1X57.5642Y-106.9544
G1X58.8735Y-105.7229
G1X60.0270Y-104.4557
G1X61.0193Y-103.1952
G1X61.9670Y-101.8004
G1X62.7910Y-100.3805
G1X63.5392Y-98.8513
G1X64.2235Y-97.1404
G1X64.7859Y-95.3545
G1X65.9992Y-90.0275
G1X66.4265Y-89.1410
G1X67.1058Y-88.4900
G1X68.0536Y-88.0937
G1X69.3111Y-87.8810
G1X71.0628Y-87.8135
G1X73.3472Y-87.9109
G1X75.7348Y-88.1527
G1X78.2788Y-88.5414
G1X80.8260Y-89.0629
G1X83.2423Y-89.6840
G1 Z0F20000
(Start Block)

G1X13.8907Y-117.1494
G1Z6F20000
(Plotting speed under)
G1 F8000

G1X18.4262Y-117.3893
G1X22.6452Y-117.3959
G1X26.9658Y-117.1676
G1X31.1463Y-116.7175
G1X35.1860Y-116.0481
G1X39.0039Y-115.1765
G1X42.7348Y-114.0708
G1X46.3284Y-112.7384
G1X48.6270Y-111.7344
G1X50.9638Y-110.5826
G1X53.2173Y-109.3397
G1X55.4845Y-107.9554
G1X56.7803Y-107.0617
G1X58.0036Y-106.0825
G1X59.1825Y-105.0000
G1X60.3674Y-103.7519
G1X61.3929Y-102.5145
G1X62.3234Y-101.2332
G1X63.2023Y-99.8433
G1X63.9914Y-98.3942
G1X64.7410Y-96.7688
G1X65.3930Y-95.0635
G1X67.0843Y-89.4672
G1X67.6389Y-88.4790
G1X68.3984Y-87.7904
G1X69.3238Y-87.3817
G1X70.5289Y-87.1388
G1X72.1433Y-87.0401
G1X74.0164Y-87.0886
G1X76.2582Y-87.2875
G1X78.6513Y-87.6294
G1X81.0356Y-88.0905
G1X83.4366Y-88.6746
G1 Z0F20000
(Start Block)

G1X12.7574Y-116.4634
G1Z6F20000
(Plotting speed under)
G1 F8000

G1X17.5912Y-116.6342
G1X22.1380Y-116.5855
G1X26.7979Y-116.3105
G1X31.1817Y-115.8247
G1X35.2849Y-115.1392
G1X39.1970Y-114.2460
G1X43.0418Y-113.1094
G1X46.6819Y-111.7695
G1X48.9025Y-110.8157
G1X51.1595Y-109.7346
G1X55.6624Y-107.2372
G1X57.0258Y-106.3196
G1X58.2738Y-105.3509
G1X59.4778Y-104.2873
G1X60.6935Y-103.0656
G1X62.7214Y-100.6087
G1X64.4718Y-97.8823
G1X65.2814Y-96.3310
G1X66.0152Y-94.6957
G1X68.1505Y-89.0290
G1X68.7782Y-88.0016
G1X69.6186Y-87.2223
G1X70.4943Y-86.7867
G1X71.6493Y-86.4918
G1X73.0718Y-86.3470
G1X74.7663Y-86.3419
G1X76.8289Y-86.4837
G1X79.0227Y-86.7618
G1X81.3177Y-87.1698
G1X83.6795Y-87.7055
G1 Z0F20000
(Start Block)

G1X11.7166Y-115.6569
G1Z6F20000
(Plotting speed under)
G1 F8000

G1X16.8515Y-115.7740
G1X21.8764Y-115.6826
G1X26.6960Y-115.3848
G1X31.1976Y-114.8853
G1X35.3491Y-114.1966
G1X39.3857Y-113.2824
G1X43.2886Y-112.1393
G1X47.0591Y-110.7690
G1X51.3595Y-108.8666
G1X55.7144Y-106.5709
G1X57.0933Y-105.6841
G1X58.4500Y-104.6807
G1X59.6808Y-103.6476
G1X60.9296Y-102.4642
G1X62.9735Y-100.1679
G1X64.8174Y-97.5816
G1X66.5782Y-94.4296
G1X69.1954Y-88.6683
G1X70.0230Y-87.4624
G1X70.9524Y-86.6552
G1X71.8778Y-86.1941
G1X72.8748Y-85.9100
G1X74.2239Y-85.7246
G1X75.7169Y-85.6767
G1X77.5361Y-85.7572
G1X79.6400Y-85.9825
G1X81.7217Y-86.3150
G1X83.9704Y-86.7805
G1 Z0F20000
(Start Block)

G1X10.7927Y-114.7499
G1Z6F20000
(Plotting speed under)
G1 F8000

G1X16.3951Y-114.8267
G1X21.7427Y-114.7078
G1X26.6667Y-114.4021
G1X31.2384Y-113.9007
G1X35.5270Y-113.1953
G1X39.6334Y-112.2712
G1X43.5781Y-111.1270
G1X47.4633Y-109.7352
G1X51.6609Y-107.9309
G1X55.8415Y-105.8300
G1X57.2389Y-104.9655
G1X58.6165Y-103.9934
G1X61.2255Y-101.7842
G1X63.3312Y-99.5709
G1X65.2430Y-97.1166
G1X67.1458Y-94.1042
G1X70.2663Y-88.2829
G1X71.2609Y-86.9922
G1X72.2760Y-86.1588
G1X73.1326Y-85.7176
G1X74.1876Y-85.3815
G1X75.4648Y-85.1663
G1X76.8498Y-85.0820
G1X78.4999Y-85.1135
G1X80.2548Y-85.2580
G1X84.3075Y-85.9040
G1 Z0F20000
(Start Block)

G1X10.0051Y-113.7634
G1Z6F20000
(Plotting speed under)
G1 F8000

G1X15.9737Y-113.8116
G1X21.7470Y-113.6768
G1X26.7552Y-113.3688
G1X31.2709Y-112.8813
G1X35.5860Y-112.1841
G1X39.7414Y-111.2649
G1X43.8131Y-110.1039
G1X47.7996Y-108.7045
G1X52.1851Y-106.8769
G1X55.9723Y-105.0546
G1X58.7765Y-103.2825
G1X61.5090Y-101.0969
G1X63.6002Y-99.0520
G1X65.5752Y-96.7471
G1X67.6732Y-93.8034
G1X71.3061Y-87.9592
G1X72.3844Y-86.6788
G1X73.4911Y-85.7831
G1X74.3783Y-85.3055
G1X75.3658Y-84.9506
G1X76.4645Y-84.7080
G1X77.8086Y-84.5598
G1X79.2545Y-84.5258
G1X80.9392Y-84.6021
G1X84.6880Y-85.0802
G1 Z0F20000
(Start Block)

G1X9.3686Y-112.7173
G1Z6F20000
(Plotting speed under)
G1 F8000

G1X15.9096Y-112.7448
G1X21.7838Y-112.6074
G1X26.7333Y-112.3121
G1X31.2952Y-111.8317
G1X35.7264Y-111.1267
G1X39.9149Y-110.2118
G1X44.0987Y-109.0360
G1X48.2663Y-107.5997
G1X53.1660Y-105.6168
G1X56.1132Y-104.2394
G1X59.0218Y-102.4826
G1X61.7824Y-100.3956
G1X63.9188Y-98.4507
G1X65.9401Y-96.2931
G1X68.1562Y-93.5174
G1X72.3306Y-87.6583
G1X73.5807Y-86.3166
G1X74.7729Y-85.4036
G1X75.6055Y-84.9497
G1X76.6081Y-84.5583
G1X77.7026Y-84.2767
G1X78.9578Y-84.0899
G1X81.8060Y-84.0182
G1X85.1074Y-84.3133
G1 Z0F20000
(Start Block)

G1X8.8933Y-111.6294
G1Z6F20000
(Plotting speed under)
G1 F8000

G1X15.8968Y-111.6443
G1X21.9118Y-111.5071
G1X26.8968Y-111.2136
G1X31.4203Y-110.7413
G1X35.8509Y-110.0436
G1X40.1589Y-109.1117
G1X44.4382Y-107.9223
G1X48.7668Y-106.4584
G1X53.9454Y-104.4481
G1X56.2689Y-103.3808
G1X59.1834Y-101.7091
G1X62.0480Y-99.6752
G1X64.2209Y-97.8380
G1X66.2761Y-95.8336
G1X68.6601Y-93.1554
G1X73.3101Y-87.4048
G1X74.6497Y-86.0831
G1X76.0116Y-85.0785
G1X76.8805Y-84.6058
G1X77.8011Y-84.2242
G1X78.8940Y-83.9003
G1X79.9660Y-83.6895
G1X82.5454Y-83.4879
G1X85.5602Y-83.6075
G1 Z0F20000
(Start Block)

G1X8.5862Y-110.5132
G1Z6F20000
(Plotting speed under)
G1 F8000

G1X15.9308Y-110.5219
G1X21.9620Y-110.3894
G1X26.9775Y-110.0991
G1X31.5210Y-109.6288
G1X35.9619Y-108.9352
G1X40.3740Y-107.9892
G1X44.7346Y-106.7919
G1X49.3300Y-105.2699
G1X54.0741Y-103.5188
G1X56.5957Y-102.4016
G1X59.5259Y-100.7909
G1X62.3904Y-98.8704
G1X64.6136Y-97.1200
G1X66.7340Y-95.2193
G1X69.1261Y-92.7972
G1X74.2368Y-87.1908
G1X75.7369Y-85.8323
G1X77.1988Y-84.8003
G1X79.0443Y-83.9004
G1X81.0312Y-83.3282
G1X83.3082Y-83.0199
G1X86.0395Y-82.9667
G1 Z0F20000
(Start Block)

G1X8.4510Y-109.3783
G1Z6F20000
(Plotting speed under)
G1 F8000

G1X16.1203Y-109.3841
G1X22.1482Y-109.2497
G1X27.1782Y-108.9545
G1X31.8170Y-108.4669
G1X36.3688Y-107.7444
G1X40.8697Y-106.7675
G1X45.3870Y-105.5223
G1X50.3756Y-103.8896
G1X54.4293Y-102.4603
G1X57.0326Y-101.3390
G1X60.0070Y-99.7682
G1X62.8611Y-97.9562
G1X65.0195Y-96.3743
G1X67.1746Y-94.6042
G1X69.6290Y-92.3633
G1X75.1910Y-86.9301
G1X76.8012Y-85.5931
G1X78.3278Y-84.5608
G1X80.1198Y-83.6576
G1X82.0252Y-83.0168
G1X84.1560Y-82.5984
G1X86.5371Y-82.3937
G1 Z0F20000
(Start Block)

G1X8.4889Y-108.2286
G1Z6F20000
(Plotting speed under)
G1 F8000

G1X16.4649Y-108.2339
G1X22.6817Y-108.0804
G1X27.9170Y-107.7438
G1X32.8197Y-107.1825
G1X37.5806Y-106.3664
G1X42.2447Y-105.2896
G1X46.7737Y-103.9961
G1X53.4928Y-101.8199
G1X56.2491Y-100.7827
G1X58.9213Y-99.5530
G1X61.6331Y-98.0771
G1X64.3107Y-96.3861
G1X66.5690Y-94.7745
G1X68.8208Y-93.0019
G1X76.4598Y-86.4011
G1X77.8974Y-85.3196
G1X79.3225Y-84.3934
G1X81.0372Y-83.4926
G1X82.9061Y-82.7654
G1X84.8686Y-82.2443
G1X87.0437Y-81.8910
G1 Z0F20000
(Start Block)

G1X8.6987Y-107.0632
G1Z6F20000
(Plotting speed under)
G1 F8000

G1X16.2779Y-107.0781
G1X22.6127Y-106.9200
G1X27.8379Y-106.5814
G1X32.7291Y-106.0222
G1X37.3551Y-105.2389
G1X41.9829Y-104.1936
G1X46.3424Y-102.9872
G1X53.8960Y-100.6509
G1X56.6569Y-99.6500
G1X59.3789Y-98.4601
G1X62.0496Y-97.0973
G1X64.7901Y-95.4950
G1X67.1374Y-93.9592
G1X69.4779Y-92.2862
G1X77.5638Y-86.0229
G1X80.6173Y-84.0346
G1X82.2931Y-83.1662
G1X83.8998Y-82.4912
G1X85.6451Y-81.9194
G1X87.5492Y-81.4595
G1 Z0F20000
(Start Block)

G1X9.0767Y-105.8758
G1Z6F20000
(Plotting speed under)
G1 F8000

G1X15.9160Y-105.9097
G1X22.3674Y-105.7497
G1X27.6743Y-105.4039
G1X32.6499Y-104.8324
G1X37.2308Y-104.0579
G1X41.8121Y-103.0340
G1X45.8912Y-101.9318
G1X54.3430Y-99.4240
G1X56.7887Y-98.5850
G1X59.2434Y-97.6012
G1X61.7687Y-96.4430
G1X64.2255Y-95.1748
G1X66.8619Y-93.6617
G1X69.5253Y-91.9828
G1X77.8837Y-86.1699
G1X80.9035Y-84.2343
G1X82.7273Y-83.2222
G1X84.4483Y-82.3997
G1X86.1824Y-81.7045
G1X88.0427Y-81.0986
G1 Z0F20000
(Start Block)

G1X9.6166Y-104.6555
G1Z6F20000
(Plotting speed under)
G1 F8000

G1X15.8323Y-104.7164
G1X22.2649Y-104.5514
G1X27.6367Y-104.1894
G1X32.6532Y-103.6003
G1X37.1096Y-102.8406
G1X41.5392Y-101.8575
G1X45.2200Y-100.8848
G1X54.9327Y-98.1075
G1X57.6255Y-97.2200
G1X60.4159Y-96.1484
G1X63.1620Y-94.9461
G1X65.9226Y-93.5932
G1X71.1423Y-90.6701
G1X79.4541Y-85.4494
G1X82.2739Y-83.7693
G1X85.4116Y-82.1264
G1X88.5129Y-80.8065
G1 Z0F20000
(Start Block)

G1X10.3088Y-103.3877
G1Z6F20000
(Plotting speed under)
G1 F8000

G1X15.8089Y-103.4874
G1X22.0566Y-103.3294
G1X27.5239Y-102.9512
G1X32.5560Y-102.3482
G1X36.8186Y-101.6179
G1X41.1995Y-100.6520
G1X55.7526Y-96.6794
G1X58.8616Y-95.6983
G1X61.9530Y-94.5684
G1X65.0801Y-93.2724
G1X68.2119Y-91.8254
G1X73.7330Y-88.9486
G1X84.5228Y-82.7948
G1X88.9486Y-80.5789
G1 Z0F20000
(Start Block)

G1X11.1400Y-102.0547
G1Z6F20000
(Plotting speed under)
G1 F8000

G1X16.0486Y-102.2044
G1X22.0700Y-102.0583
G1X27.5062Y-101.6667
G1X32.6759Y-101.0237
G1X36.7613Y-100.3061
G1X40.8647Y-99.3966
G1X51.3808Y-96.5113
G1X57.0651Y-95.0773
G1X60.5609Y-94.0320
G1X64.1260Y-92.8080
G1X67.7179Y-91.4130
G1X71.2941Y-89.8646
G1X74.4433Y-88.3748
G1X77.8108Y-86.6643
G1X89.3392Y-80.4098
G1 Z0F20000
(Start Block)

G1X12.0929Y-100.6379
G1Z6F20000
(Plotting speed under)
G1 F8000

G1X16.4660Y-100.8485
G1X22.0143Y-100.7379
G1X27.4745Y-100.3370
G1X32.6962Y-99.6667
G1X36.4932Y-98.9878
G1X40.3197Y-98.1398
G1X43.8814Y-97.2186
G1X51.5655Y-95.0617
G1X59.4329Y-93.1900
G1X63.4127Y-92.0739
G1X67.2443Y-90.8499
G1X70.9055Y-89.5290
G1X74.5656Y-88.0488
G1X78.0045Y-86.5055
G1X81.4950Y-84.7878
G1X85.0466Y-82.8972
G1X89.6746Y-80.2911
G1 Z0F20000
(Start Block)

G1X13.1456Y-99.1187
G1Z6F20000
(Plotting speed under)
G1 F8000

G1X15.7639Y-99.3494
G1X18.9676Y-99.4188
G1X22.5011Y-99.3221
G1X26.2184Y-99.0667
G1X29.7482Y-98.6844
G1X33.2163Y-98.1722
G1X36.6336Y-97.5316
G1X40.1815Y-96.7268
G1X52.0911Y-93.4480
G1X60.5135Y-91.6671
G1X65.3389Y-90.5217
G1X68.8632Y-89.5578
G1X72.1647Y-88.5294
G1X76.7446Y-86.8635
G1X81.1533Y-84.9582
G1X85.4384Y-82.7975
G1X89.9466Y-80.2128
G1 Z0F20000
(Start Block)

G1X14.2715Y-97.4812
G1Z6F20000
(Plotting speed under)
G1 F8000

G1X15.9991Y-97.7098
G1X17.8667Y-97.8426
G1X22.2874Y-97.8481
G1X27.2445Y-97.5078
G1X32.2860Y-96.8514
G1X36.1628Y-96.1385
G1X40.0280Y-95.2534
G1X43.6585Y-94.2831
G1X50.4286Y-92.3181
G1X53.0599Y-91.6525
G1X64.4308Y-89.6495
G1X69.1141Y-88.6933
G1X72.0633Y-87.9660
G1X74.7924Y-87.1828
G1X77.4930Y-86.2878
G1X80.1215Y-85.2895
G1X82.7111Y-84.1720
G1X85.1638Y-82.9830
G1X87.6228Y-81.6587
G1X90.1486Y-80.1628
G1 Z0F20000
(Start Block)

G1X15.4404Y-95.7133
G1Z6F20000
(Plotting speed under)
G1 F8000

G1X16.9266Y-95.9719
G1X18.5844Y-96.1481
G1X22.2968Y-96.2450
G1X26.6279Y-96.0144
G1X31.2026Y-95.4732
G1X35.2630Y-94.7627
G1X39.4448Y-93.8176
G1X43.2948Y-92.7796
G1X50.6506Y-90.6031
G1X53.7310Y-89.8461
G1X57.8237Y-89.2077
G1X67.5119Y-88.0571
G1X72.4187Y-87.2138
G1X74.7937Y-86.6711
G1X77.1794Y-86.0203
G1X79.4558Y-85.2908
G1X81.7177Y-84.4524
G1X83.8565Y-83.5484
G1X86.0406Y-82.5068
G1X88.1460Y-81.3844
G1X90.2764Y-80.1277
G1 Z0F20000
(Start Block)

G1X16.6192Y-93.8093
G1Z6F20000
(Plotting speed under)
G1 F8000

G1X19.3456Y-94.3062
G1X22.5103Y-94.4952
G1X26.1661Y-94.3856
G1X30.1798Y-93.9819
G1X34.4670Y-93.2820
G1X38.8322Y-92.3133
G1X43.0160Y-91.1747
G1X51.0051Y-88.7557
G1X54.4087Y-87.9486
G1X56.5507Y-87.6405
G1X58.9439Y-87.4140
G1X69.3340Y-86.8290
G1X72.0423Y-86.5244
G1X74.5845Y-86.1154
G1X78.7900Y-85.1332
G1X82.7434Y-83.8208
G1X86.5796Y-82.1468
G1X90.3286Y-80.0926
G1 Z0F20000
(Start Block)

G1X17.7734Y-91.7711
G1Z6F20000
(Plotting speed under)
G1 F8000

G1X20.1509Y-92.3160
G1X22.8599Y-92.5898
G1X26.0516Y-92.5909
G1X29.5103Y-92.3189
G1X33.8796Y-91.6650
G1X38.3992Y-90.6808
G1X42.7851Y-89.4730
G1X51.3672Y-86.8047
G1X53.3758Y-86.2867
G1X55.0126Y-85.9691
G1X57.2084Y-85.7176
G1X59.6368Y-85.6102
G1X67.5236Y-85.7753
G1X70.4981Y-85.7454
G1X73.2540Y-85.5683
G1X75.9763Y-85.2215
G1X79.6307Y-84.4589
G1X83.2805Y-83.3338
G1X86.8049Y-81.8779
G1X90.3067Y-80.0423
G1 Z0F20000
(Start Block)

G1X18.8693Y-89.6094
G1Z6F20000
(Plotting speed under)
G1 F8000

G1X20.2535Y-90.0227
G1X21.6093Y-90.3097
G1X23.1153Y-90.5131
G1X24.7270Y-90.6204
G1X28.2821Y-90.5516
G1X32.3576Y-90.0917
G1X35.5582Y-89.5081
G1X38.9100Y-88.7187
G1X42.9805Y-87.5538
G1X52.0172Y-84.6668
G1X54.4317Y-84.0844
G1X56.5302Y-83.7899
G1X58.5163Y-83.6983
G1X60.6927Y-83.7634
G1X68.0413Y-84.5025
G1X71.0865Y-84.6908
G1X74.1438Y-84.6610
G1X77.0380Y-84.3936
G1X80.3563Y-83.7840
G1X83.7062Y-82.8320
G1X86.9929Y-81.5576
G1X90.2153Y-79.9609
G1 Z0F20000
(Start Block)

G1X19.8763Y-87.3438
G1Z6F20000
(Plotting speed under)
G1 F8000

G1X21.2833Y-87.8127
G1X22.6507Y-88.1429
G1X24.0562Y-88.3696
G1X25.6552Y-88.5103
G1X29.0718Y-88.4851
G1X32.8834Y-88.0672
G1X36.5277Y-87.3747
G1X40.3659Y-86.3925
G1X43.9350Y-85.2931
G1X50.5636Y-83.0538
G1X52.8571Y-82.3707
G1X55.0054Y-81.8854
G1X56.8625Y-81.6592
G1X58.9372Y-81.6372
G1X61.1918Y-81.8372
G1X68.7948Y-83.2171
G1X71.8634Y-83.6202
G1X74.9315Y-83.7500
G1X77.8863Y-83.5815
G1X80.9721Y-83.0950
G1X84.0245Y-82.3064
G1X87.0543Y-81.2204
G1X90.0622Y-79.8329
G1 Z0F20000
(Start Block)

G1X20.7692Y-85.0029
G1Z6F20000
(Plotting speed under)
G1 F8000

G1X22.0957Y-85.4862
G1X23.4971Y-85.8692
G1X24.9077Y-86.1342
G1X26.3931Y-86.2994
G1X27.9588Y-86.3657
G1X29.6925Y-86.3304
G1X33.4621Y-85.9364
G1X36.4986Y-85.3641
G1X39.6365Y-84.5774
G1X43.4410Y-83.4073
G1X52.2370Y-80.3786
G1X54.6919Y-79.7481
G1X56.7486Y-79.4529
G1X58.7537Y-79.4388
G1X61.0064Y-79.7038
G1X63.4156Y-80.2256
G1X68.7142Y-81.6950
G1X71.1437Y-82.2665
G1X73.8508Y-82.6865
G1X76.4465Y-82.8309
G1X78.1223Y-82.7858
G1X79.7801Y-82.6370
G1X83.1202Y-82.0357
G1X86.5005Y-81.0322
G1X89.8583Y-79.6431
G1 Z0F20000
(Start Block)

G1X21.5303Y-82.6228
G1Z6F20000
(Plotting speed under)
G1 F8000

G1X22.8558Y-83.1317
G1X24.2237Y-83.5366
G1X25.6473Y-83.8356
G1X27.1362Y-84.0283
G1X28.6964Y-84.1153
G1X30.3301Y-84.0979
G1X32.1064Y-83.9709
G1X33.9538Y-83.7354
G1X37.3392Y-83.0720
G1X41.0228Y-82.0663
G1X44.4108Y-80.9380
G1X50.7422Y-78.6168
G1X53.0720Y-77.8668
G1X55.2543Y-77.3432
G1X57.1777Y-77.1134
G1X59.3161Y-77.1916
G1X61.6732Y-77.6223
G1X64.1801Y-78.3638
G1X69.2987Y-80.2258
G1X71.5629Y-80.9513
G1X74.0810Y-81.5432
G1X76.5938Y-81.8585
G1X78.1885Y-81.9124
G1X79.7021Y-81.8627
G1X81.3694Y-81.6997
G1X82.9798Y-81.4401
G1X86.3279Y-80.5959
G1X89.6170Y-79.3777
G1 Z0F20000
(Start Block)

G1X22.1511Y-80.2456
G1Z6F20000
(Plotting speed under)
G1 F8000

G1X23.5177Y-80.7821
G1X24.9180Y-81.2109
G1X26.3649Y-81.5290
G1X27.8681Y-81.7354
G1X29.4337Y-81.8304
G1X30.9624Y-81.8193
G1X32.6170Y-81.7059
G1X34.4360Y-81.4745
G1X37.7828Y-80.7994
G1X41.2774Y-79.8071
G1X44.5740Y-78.6617
G1X50.8785Y-76.2434
G1X53.2797Y-75.4444
G1X55.5206Y-74.9079
G1X57.5065Y-74.7034
G1X58.6616Y-74.7418
G1X59.8076Y-74.8851
G1X62.3063Y-75.4980
G1X64.9178Y-76.4658
G1X69.9989Y-78.7348
G1X72.1152Y-79.5876
G1X74.4620Y-80.3239
G1X76.7899Y-80.7839
G1X78.2225Y-80.9287
G1X79.7056Y-80.9725
G1X81.2941Y-80.9073
G1X82.8690Y-80.7357
G1X86.0628Y-80.0870
G1X89.3541Y-79.0238
G1 Z0F20000
(Start Block)

G1X22.6324Y-77.9176
G1Z6F20000
(Plotting speed under)
G1 F8000

G1X24.0421Y-78.4697
G1X25.4776Y-78.9113
G1X26.9512Y-79.2387
G1X28.3622Y-79.4388
G1X29.9334Y-79.5423
G1X31.4761Y-79.5339
G1X33.1203Y-79.4183
G1X34.9197Y-79.1798
G1X38.0868Y-78.5142
G1X41.5433Y-77.4872
G1X44.7512Y-76.3149
G1X50.9495Y-73.8139
G1X53.3887Y-72.9696
G1X55.7849Y-72.3986
G1X57.7871Y-72.2356
G1X58.9452Y-72.3142
G1X60.2504Y-72.5356
G1X61.5323Y-72.8708
G1X62.9958Y-73.3739
G1X65.7489Y-74.5892
G1X70.8087Y-77.2366
G1X72.7929Y-78.1897
G1X74.9861Y-79.0434
G1X77.1448Y-79.6224
G1X78.5342Y-79.8518
G1X79.8621Y-79.9706
G1X81.3549Y-79.9949
G1X82.8023Y-79.9164
G1X85.9192Y-79.4410
G1X89.0872Y-78.5695
G1 Z0F20000
(Start Block)

G1X22.9824Y-75.6925
G1Z6F20000
(Plotting speed under)
G1 F8000

G1X24.4337Y-76.2481
G1X25.9038Y-76.6915
G1X27.4047Y-77.0179
G1X28.8340Y-77.2141
G1X30.3025Y-77.3070
G1X31.8625Y-77.2949
G1X33.4999Y-77.1712
G1X35.1776Y-76.9382
G1X38.2959Y-76.2544
G1X41.7060Y-75.1891
G1X44.8298Y-73.9842
G1X50.9193Y-71.3870
G1X53.2921Y-70.5216
G1X55.7724Y-69.9073
G1X56.8044Y-69.7764
G1X57.8447Y-69.7533
G1X59.1114Y-69.8692
G1X60.5208Y-70.1559
G1X61.9304Y-70.5825
G1X63.5279Y-71.2078
G1X66.6254Y-72.7538
G1X71.7209Y-75.7544
G1X73.5879Y-76.7748
G1X75.6469Y-77.7117
G1X77.6562Y-78.3779
G1X80.1953Y-78.8512
G1X82.9087Y-78.9440
G1X85.8478Y-78.6389
G1X88.8584Y-77.9524
G1 Z0F20000
(Start Block)

G1X23.2246Y-73.5966
G1Z6F20000
(Plotting speed under)
G1 F8000

G1X24.7130Y-74.1464
G1X26.1066Y-74.5553
G1X27.6306Y-74.8811
G1X29.0749Y-75.0746
G1X30.5518Y-75.1622
G1X32.1305Y-75.1410
G1X33.7629Y-75.0046
G1X35.4283Y-74.7559
G1X38.5060Y-74.0372
G1X41.8214Y-72.9386
G1X44.8778Y-71.6884
G1X50.7929Y-69.0125
G1X53.1936Y-68.0892
G1X54.5008Y-67.7033
G1X55.7360Y-67.4417
G1X56.7582Y-67.3160
G1X57.8485Y-67.3065
G1X59.2643Y-67.4698
G1X60.8054Y-67.8328
G1X62.4583Y-68.3986
G1X64.1001Y-69.1114
G1X67.3750Y-70.8891
G1X74.4927Y-75.3622
G1X76.4359Y-76.3437
G1X78.3172Y-77.0610
G1X80.7035Y-77.6187
G1X83.2630Y-77.8156
G1X85.9685Y-77.6431
G1X88.7057Y-77.1332
G1 Z0F20000
(Start Block)

G1X23.3858Y-71.6330
G1Z6F20000
(Plotting speed under)
G1 F8000

G1X24.9062Y-72.1693
G1X26.4351Y-72.5911
G1X27.8719Y-72.8749
G1X29.3318Y-73.0521
G1X30.8189Y-73.1214
G1X32.4020Y-73.0789
G1X33.9292Y-72.9319
G1X35.5835Y-72.6641
G1X38.6238Y-71.9057
G1X41.8758Y-70.7602
G1X44.8543Y-69.4657
G1X50.5839Y-66.7092
G1X52.9744Y-65.7329
G1X54.2806Y-65.3256
G1X55.6041Y-65.0347
G1X56.7311Y-64.9054
G1X57.7922Y-64.9148
G1X59.3304Y-65.1213
G1X61.0133Y-65.5567
G1X62.8485Y-66.2327
G1X64.7003Y-67.0919
G1X68.1793Y-69.0945
G1X75.3097Y-73.8463
G1X77.1516Y-74.8589
G1X78.9173Y-75.6180
G1X81.1624Y-76.2543
G1X83.4445Y-76.5458
G1X85.9606Y-76.5118
G1X88.6345Y-76.1332
G1 Z0F20000
(Start Block)

G1X23.4885Y-69.8010
G1Z6F20000
(Plotting speed under)
G1 F8000

G1X25.0352Y-70.3179
G1X26.4757Y-70.6950
G1X27.9285Y-70.9676
G1X29.3999Y-71.1324
G1X30.8936Y-71.1879
G1X32.4947Y-71.1279
G1X34.0179Y-70.9626
G1X35.6618Y-70.6733
G1X38.6671Y-69.8715
G1X41.8590Y-68.6761
G1X44.7627Y-67.3349
G1X50.3996Y-64.4486
G1X52.8189Y-63.4078
G1X54.0921Y-62.9962
G1X55.3915Y-62.7022
G1X56.5083Y-62.5738
G1X57.6558Y-62.5920
G1X59.3215Y-62.8366
G1X61.1548Y-63.3374
G1X63.0881Y-64.0748
G1X65.1929Y-65.0818
G1X66.9721Y-66.0768
G1X68.9586Y-67.3205
G1X76.2307Y-72.3383
G1X77.9832Y-73.3504
G1X79.6488Y-74.1218
G1X81.7746Y-74.8036
G1X83.9161Y-75.1590
G1X86.2364Y-75.2160
G1X88.6426Y-74.9703
G1 Z0F20000
(Start Block)

G1X23.5505Y-68.0968
G1Z6F20000
(Plotting speed under)
G1 F8000

G1X25.1180Y-68.5902
G1X26.5755Y-68.9451
G1X28.0425Y-69.1949
G1X29.5245Y-69.3360
G1X31.0248Y-69.3666
G1X32.5272Y-69.2880
G1X34.0463Y-69.1025
G1X35.6804Y-68.7901
G1X38.6528Y-67.9429
G1X41.7880Y-66.6959
G1X44.6203Y-65.3064
G1X50.1612Y-62.2835
G1X52.6015Y-61.1740
G1X53.9456Y-60.7265
G1X55.3321Y-60.4199
G1X56.4492Y-60.3185
G1X57.5574Y-60.3585
G1X59.3594Y-60.6492
G1X61.3948Y-61.2341
G1X63.4740Y-62.0533
G1X65.7452Y-63.1642
G1X67.6744Y-64.2639
G1X69.7149Y-65.5627
G1X77.1699Y-70.7908
G1X78.8273Y-71.7760
G1X80.4026Y-72.5447
G1X82.4223Y-73.2563
G1X84.4360Y-73.6617
G1X86.5727Y-73.7936
G1X88.7222Y-73.6592
G1 Z0F20000
(Start Block)

G1X23.5856Y-66.5151
G1Z6F20000
(Plotting speed under)
G1 F8000

G1X25.1688Y-66.9822
G1X26.6393Y-67.3125
G1X28.1172Y-67.5373
G1X29.6073Y-67.6528
G1X31.1123Y-67.6568
G1X32.6155Y-67.5510
G1X34.1311Y-67.3372
G1X35.7562Y-66.9937
G1X38.6973Y-66.0883
G1X41.7768Y-64.7791
G1X44.5371Y-63.3354
G1X49.8877Y-60.2221
G1X52.2421Y-59.0797
G1X53.6481Y-58.5837
G1X55.0065Y-58.2685
G1X56.1140Y-58.1639
G1X57.3087Y-58.2050
G1X59.2432Y-58.5180
G1X61.4831Y-59.1625
G1X63.8277Y-60.0902
G1X66.1693Y-61.2359
G1X68.2893Y-62.4419
G1X70.4497Y-63.8167
G1X78.0812Y-69.1758
G1X79.7769Y-70.1928
G1X81.2696Y-70.9359
G1X83.0941Y-71.6192
G1X84.9911Y-72.0624
G1X86.8750Y-72.2518
G1X88.8618Y-72.2121
G1 Z0F20000
(Start Block)

G1X23.6040Y-65.0495
G1Z6F20000
(Plotting speed under)
G1 F8000

G1X25.1659Y-65.4808
G1X26.6784Y-65.7930
G1X28.1642Y-65.9917
G1X29.6601Y-66.0806
G1X31.1682Y-66.0575
G1X32.6713Y-65.9240
G1X34.1830Y-65.6818
G1X35.7994Y-65.3072
G1X38.7112Y-64.3438
G1X41.7385Y-62.9730
G1X44.4309Y-61.4750
G1X49.6920Y-58.2143
G1X51.9610Y-57.0504
G1X53.3255Y-56.5436
G1X54.6542Y-56.2181
G1X55.7502Y-56.1076
G1X57.0284Y-56.1446
G1X59.0933Y-56.4699
G1X61.4361Y-57.1262
G1X63.8757Y-58.0614
G1X66.4836Y-59.3033
G1X68.6685Y-60.5178
G1X71.0256Y-61.9878
G1X79.0759Y-67.5678
G1X80.6282Y-68.4956
G1X82.1429Y-69.2593
G1X83.8815Y-69.9329
G1X85.5678Y-70.3692
G1X87.3244Y-70.6057
G1X89.0472Y-70.6401
G1 Z0F20000
(Start Block)

G1X23.6127Y-63.6927
G1Z6F20000
(Plotting speed under)
G1 F8000

G1X25.1819Y-64.0959
G1X26.7010Y-64.3813
G1X28.1923Y-64.5538
G1X29.6923Y-64.6162
G1X31.2023Y-64.5662
G1X32.7047Y-64.4056
G1X34.2127Y-64.1355
G1X35.8211Y-63.7305
G1X38.7065Y-62.7106
G1X41.6865Y-61.2793
G1X44.4041Y-59.6719
G1X49.4898Y-56.3147
G1X51.6743Y-55.1276
G1X52.9963Y-54.6086
G1X54.2936Y-54.2713
G1X55.4886Y-54.1480
G1X56.7332Y-54.1795
G1X58.9948Y-54.5215
G1X61.4681Y-55.1946
G1X64.0939Y-56.1722
G1X66.8630Y-57.4551
G1X68.9217Y-58.5621
G1X71.0017Y-59.8025
G1X73.4894Y-61.4241
G1X79.5245Y-65.5706
G1X81.3984Y-66.7010
G1X83.0139Y-67.5200
G1X84.5662Y-68.1398
G1X86.1521Y-68.5907
G1X87.6791Y-68.8519
G1X89.2624Y-68.9534
G1 Z0F20000
(Start Block)

G1X23.6162Y-62.4370
G1Z6F20000
(Plotting speed under)
G1 F8000

G1X25.1895Y-62.8125
G1X26.7128Y-63.0715
G1X28.2078Y-63.2184
G1X29.7105Y-63.2553
G1X31.2218Y-63.1795
G1X32.7235Y-62.9929
G1X34.2283Y-62.6963
G1X35.8301Y-62.2623
G1X38.7903Y-61.1454
G1X41.7241Y-59.6460
G1X44.3773Y-57.9791
G1X49.2974Y-54.5236
G1X51.4526Y-53.2853
G1X52.6593Y-52.7848
G1X53.9424Y-52.4279
G1X55.1190Y-52.2920
G1X56.5432Y-52.3167
G1X58.5745Y-52.5932
G1X60.8471Y-53.1408
G1X63.3195Y-53.9576
G1X65.8587Y-55.0020
G1X68.6631Y-56.3756
G1X71.5515Y-58.0126
G1X74.2734Y-59.7314
G1X80.0265Y-63.5803
G1X82.8567Y-65.2314
G1X84.6085Y-66.0384
G1X86.1949Y-66.5903
G1X87.8170Y-66.9679
G1X89.4910Y-67.1624
G1 Z0F20000
(Start Block)

G1X23.6166Y-61.2747
G1Z6F20000
(Plotting speed under)
G1 F8000

G1X25.2244Y-61.6295
G1X26.7172Y-61.8572
G1X28.2145Y-61.9799
G1X29.7192Y-61.9929
G1X31.2315Y-61.8930
G1X32.7329Y-61.6823
G1X34.2355Y-61.3612
G1X35.8325Y-60.9003
G1X38.7748Y-59.7312
G1X41.7652Y-58.1213
G1X44.3616Y-56.3962
G1X49.2128Y-52.7815
G1X51.2194Y-51.5638
G1X52.3862Y-51.0505
G1X53.6162Y-50.6858
G1X54.8816Y-50.5279
G1X56.2625Y-50.5376
G1X58.5594Y-50.8264
G1X61.0571Y-51.4083
G1X63.7892Y-52.2887
G1X66.5696Y-53.4097
G1X69.4183Y-54.7742
G1X72.3532Y-56.3906
G1X75.0369Y-58.0281
G1X80.8712Y-61.7898
G1X83.5855Y-63.3364
G1X85.2509Y-64.1089
G1X86.7513Y-64.6560
G1X88.2727Y-65.0525
G1X89.7167Y-65.2779
G1 Z0F20000
(Start Block)

G1X23.6146Y-60.1977
G1Z6F20000
(Plotting speed under)
G1 F8000

G1X25.2222Y-60.5267
G1X26.8309Y-60.7431
G1X28.3302Y-60.8355
G1X29.8369Y-60.8181
G1X31.3344Y-60.6899
G1X32.8364Y-60.4502
G1X34.3382Y-60.0998
G1X35.9318Y-59.6072
G1X38.8591Y-58.3779
G1X41.8173Y-56.7038
G1X44.4468Y-54.8609
G1X49.0778Y-51.2007
G1X51.0249Y-49.9428
G1X52.2579Y-49.3733
G1X53.4264Y-49.0194
G1X54.6759Y-48.8556
G1X56.1120Y-48.8518
G1X58.5603Y-49.1341
G1X61.2995Y-49.7426
G1X64.1612Y-50.6288
G1X67.1782Y-51.8021
G1X70.0652Y-53.1367
G1X73.0454Y-54.7147
G1X75.8668Y-56.3678
G1X81.6421Y-59.9393
G1X84.1889Y-61.3551
G1X85.6895Y-62.0607
G1X87.1676Y-62.6312
G1X88.5918Y-63.0479
G1X89.9241Y-63.3119
G1 Z0F20000
(Start Block)

G1X23.6092Y-59.1979
G1Z6F20000
(Plotting speed under)
G1 F8000

G1X25.2154Y-59.5032
G1X26.8241Y-59.6975
G1X28.4400Y-59.7716
G1X29.9322Y-59.7279
G1X31.5319Y-59.5596
G1X33.0357Y-59.2865
G1X34.5380Y-58.9025
G1X36.1298Y-58.3739
G1X37.6022Y-57.7725
G1X39.1395Y-57.0276
G1X42.0607Y-55.2742
G1X44.6342Y-53.3659
G1X49.0976Y-49.6367
G1X50.9761Y-48.3636
G1X52.1731Y-47.7882
G1X53.2632Y-47.4479
G1X54.5124Y-47.2696
G1X55.8938Y-47.2430
G1X58.4820Y-47.4945
G1X61.4315Y-48.0993
G1X64.5336Y-49.0080
G1X67.7807Y-50.2166
G1X70.7975Y-51.5571
G1X73.8132Y-53.0896
G1X82.4201Y-58.0877
G1X84.8477Y-59.3926
G1X87.6200Y-60.5879
G1X90.0993Y-61.2772
G1 Z0F20000
(Start Block)

G1X23.5990Y-58.2669
G1Z6F20000
(Plotting speed under)
G1 F8000

G1X25.3173Y-58.5675
G1X26.9258Y-58.7345
G1X28.4273Y-58.7829
G1X30.0211Y-58.7161
G1X31.6238Y-58.5241
G1X33.1307Y-58.2286
G1X34.6356Y-57.8218
G1X36.2294Y-57.2684
G1X37.7023Y-56.6429
G1X39.2379Y-55.8714
G1X40.7236Y-55.0053
G1X42.2333Y-54.0013
G1X44.7703Y-52.0333
G1X49.1636Y-48.1669
G1X50.9787Y-46.8740
G1X52.0407Y-46.3326
G1X53.0988Y-45.9750
G1X54.3989Y-45.7639
G1X55.8212Y-45.7134
G1X58.5179Y-45.9327
G1X61.5758Y-46.5066
G1X64.9067Y-47.4210
G1X68.3756Y-48.6482
G1X71.4167Y-49.9365
G1X74.5631Y-51.4610
G1X83.1669Y-56.2210
G1X85.5651Y-57.4602
G1X88.0083Y-58.5088
G1X90.2308Y-59.1879
G1 Z0F20000
(Start Block)

G1X23.5819Y-57.3964
G1Z6F20000
(Plotting speed under)
G1 F8000

G1X25.2968Y-57.6777
G1X26.9041Y-57.8293
G1X28.5222Y-57.8633
G1X30.1022Y-57.7768
G1X31.7090Y-57.5652
G1X33.3211Y-57.2265
G1X34.9309Y-56.7609
G1X36.5274Y-56.1716
G1X38.0008Y-55.5124
G1X39.5339Y-54.7050
G1X41.0132Y-53.8036
G1X42.5117Y-52.7629
G1X45.0903Y-50.6668
G1X49.3688Y-46.7131
G1X51.0392Y-45.4693
G1X52.1684Y-44.8731
G1X53.1086Y-44.5543
G1X54.3417Y-44.3327
G1X55.7632Y-44.2524
G1X58.5561Y-44.4245
G1X61.8430Y-44.9826
G1X65.2801Y-45.8632
G1X68.8594Y-47.0552
G1X72.0207Y-48.3230
G1X75.2948Y-49.8303
G1X86.1433Y-55.4734
G1X88.3438Y-56.4128
G1X90.3094Y-57.0590
G1 Z0F20000
(Start Block)

G1X23.5554Y-56.5778
G1Z6F20000
(Plotting speed under)
G1 F8000

G1X25.2664Y-56.8435
G1X26.9873Y-56.9891
G1X28.6068Y-57.0050
G1X30.2739Y-56.8933
G1X31.8863Y-56.6591
G1X33.5051Y-56.2976
G1X35.1221Y-55.8089
G1X36.7257Y-55.1958
G1X38.3026Y-54.4644
G1X39.8377Y-53.6247
G1X41.3161Y-52.6908
G1X42.8094Y-51.6161
G1X45.3658Y-49.4583
G1X49.6251Y-45.3430
G1X51.2497Y-44.0874
G1X52.2599Y-43.5332
G1X53.1810Y-43.2060
G1X54.4456Y-42.9567
G1X55.8377Y-42.8530
G1X58.7392Y-42.9799
G1X62.1239Y-43.4946
G1X65.7547Y-44.3586
G1X69.4362Y-45.5138
G1X72.2027Y-46.5525
G1X75.1212Y-47.7953
G1X78.4169Y-49.3554
G1X86.1446Y-53.2449
G1X88.3206Y-54.1945
G1X90.3290Y-54.9061
G1 Z0F20000
(Start Block)

G1X23.5176Y-55.8022
G1Z6F20000
(Plotting speed under)
G1 F8000

G1X25.2240Y-56.0562
G1X26.9427Y-56.1939
G1X28.6789Y-56.2013
G1X30.3332Y-56.0794
G1X32.0530Y-55.8160
G1X33.6801Y-55.4371
G1X35.4080Y-54.8945
G1X37.0209Y-54.2548
G1X38.6062Y-53.4959
G1X40.1482Y-52.6280
G1X41.7215Y-51.6021
G1X43.2112Y-50.4913
G1X45.7478Y-48.2706
G1X49.9353Y-44.0522
G1X51.5197Y-42.7785
G1X52.4182Y-42.2656
G1X53.4230Y-41.8931
G1X54.6058Y-41.6399
G1X56.0723Y-41.5030
G1X58.9528Y-41.5773
G1X62.4177Y-42.0379
G1X66.1275Y-42.8464
G1X70.0038Y-43.9833
G1X72.9803Y-45.0424
G1X76.1114Y-46.3171
G1X79.4253Y-47.8194
G1X86.5474Y-51.2455
G1X88.5399Y-52.1025
G1X90.2867Y-52.7448
G1 Z0F20000
(Start Block)

G1X23.4666Y-55.0606
G1Z6F20000
(Plotting speed under)
G1 F8000

G1X25.2815Y-55.3198
G1X27.1138Y-55.4504
G1X28.8526Y-55.4401
G1X30.5797Y-55.2942
G1X32.3083Y-55.0098
G1X34.0481Y-54.5817
G1X35.7880Y-54.0088
G1X37.4119Y-53.3399
G1X39.0074Y-52.5513
G1X40.5580Y-51.6527
G1X42.1377Y-50.5937
G1X43.6302Y-49.4496
G1X46.2336Y-47.0953
G1X50.3002Y-42.8364
G1X51.8494Y-41.5376
G1X52.7347Y-41.0197
G1X53.8277Y-40.6066
G1X55.0542Y-40.3372
G1X56.3504Y-40.1972
G1X59.3032Y-40.2180
G1X62.7239Y-40.6084
G1X66.5000Y-41.3547
G1X70.4603Y-42.4326
G1X73.7478Y-43.5370
G1X77.0923Y-44.8394
G1X80.3281Y-46.2444
G1X87.0066Y-49.3175
G1X90.1824Y-50.5909
G1 Z0F20000
(Start Block)

G1X23.4012Y-54.3440
G1Z6F20000
(Plotting speed under)
G1 F8000

G1X25.3233Y-54.6123
G1X27.1531Y-54.7367
G1X28.8927Y-54.7237
G1X30.7086Y-54.5664
G1X32.5484Y-54.2538
G1X34.3007Y-53.8106
G1X36.0552Y-53.2220
G1X37.7965Y-52.4901
G1X39.4063Y-51.6764
G1X41.0660Y-50.6903
G1X42.6534Y-49.5961
G1X44.1497Y-48.4170
G1X46.7481Y-45.9982
G1X50.7969Y-41.6121
G1X52.2371Y-40.3600
G1X53.1103Y-39.8326
G1X54.1793Y-39.4008
G1X55.3714Y-39.1047
G1X56.6692Y-38.9298
G1X59.5712Y-38.8808
G1X63.0416Y-39.2027
G1X66.8732Y-39.8825
G1X70.8085Y-40.8702
G1X74.2002Y-41.9352
G1X77.7665Y-43.2504
G1X81.1278Y-44.6448
G1X87.4366Y-47.4283
G1X90.0192Y-48.4591
G1 Z0F20000
(Start Block)

G1X23.3211Y-53.6432
G1Z6F20000
(Plotting speed under)
G1 F8000

G1X25.3484Y-53.9255
G1X27.1745Y-54.0499
G1X29.0978Y-54.0312
G1X30.9202Y-53.8642
G1X32.7706Y-53.5426
G1X34.5364Y-53.0907
G1X36.4118Y-52.4528
G1X38.1714Y-51.7015
G1X39.8620Y-50.8329
G1X41.5026Y-49.8426
G1X43.1529Y-48.6867
G1X44.6823Y-47.4578
G1X46.9966Y-45.2797
G1X51.1085Y-40.6951
G1X52.6810Y-39.2421
G1X53.5395Y-38.6980
G1X54.5803Y-38.2398
G1X55.7334Y-37.9113
G1X57.1265Y-37.6835
G1X59.9668Y-37.5728
G1X63.3704Y-37.8182
G1X67.1752Y-38.4153
G1X71.1552Y-39.3323
G1X74.7520Y-40.3923
G1X78.4384Y-41.6870
G1X89.8031Y-46.3631
G1 Z0F20000
(Start Block)

G1X23.2269Y-52.9489
G1Z6F20000
(Plotting speed under)
G1 F8000

G1X25.3568Y-53.2514
G1X27.2924Y-53.3855
G1X29.1826Y-53.3693
G1X31.1115Y-53.1942
G1X33.0765Y-52.8476
G1X34.9625Y-52.3532
G1X36.8573Y-51.6936
G1X38.6630Y-50.9077
G1X40.3733Y-50.0138
G1X42.1185Y-48.9397
G1X43.7825Y-47.7482
G1X45.3433Y-46.4652
G1X47.7071Y-44.1804
G1X51.7765Y-39.5123
G1X53.2564Y-38.1166
G1X54.1925Y-37.5107
G1X55.2189Y-37.0428
G1X56.4570Y-36.6721
G1X57.8086Y-36.4335
G1X60.6791Y-36.2845
G1X64.0081Y-36.4827
G1X67.6644Y-37.0031
G1X71.6067Y-37.8466
G1X75.2037Y-38.8451
G1X78.9110Y-40.0831
G1X82.2362Y-41.3474
G1X89.5423Y-44.3155
G1 Z0F20000
(Start Block)

G1X23.1199Y-52.2521
G1Z6F20000
(Plotting speed under)
G1 F8000

G1X25.3492Y-52.5819
G1X27.3915Y-52.7329
G1X29.3471Y-52.7211
G1X31.2808Y-52.5501
G1X33.2562Y-52.2082
G1X35.2636Y-51.6861
G1X37.1797Y-51.0204
G1X39.1412Y-50.1633
G1X40.9649Y-49.1973
G1X42.7313Y-48.0927
G1X44.4145Y-46.8688
G1X45.9910Y-45.5522
G1X48.3627Y-43.2195
G1X52.4810Y-38.3788
G1X53.9529Y-36.9718
G1X54.8776Y-36.3547
G1X55.9790Y-35.8308
G1X57.0895Y-35.4738
G1X58.4227Y-35.2051
G1X61.1470Y-35.0030
G1X64.4507Y-35.1376
G1X68.0517Y-35.5904
G1X71.9653Y-36.3639
G1X75.5621Y-37.3037
G1X79.2915Y-38.4895
G1X82.8520Y-39.7935
G1X89.2470Y-42.3268
G1 Z0F20000
(Start Block)

G1X23.0028Y-51.5436
G1Z6F20000
(Plotting speed under)
G1 F8000

G1X25.3273Y-51.9087
G1X27.3582Y-52.0802
G1X29.3903Y-52.0893
G1X31.4272Y-51.9250
G1X33.5169Y-51.5725
G1X35.5416Y-51.0523
G1X37.6279Y-50.3292
G1X39.6029Y-49.4632
G1X41.4546Y-48.4808
G1X43.2502Y-47.3563
G1X44.9625Y-46.1085
G1X46.6436Y-44.6950
G1X49.1075Y-42.2333
G1X53.2161Y-37.2868
G1X54.6778Y-35.8578
G1X55.6709Y-35.1690
G1X56.6577Y-34.6700
G1X57.8376Y-34.2571
G1X59.1401Y-33.9683
G1X61.7840Y-33.7279
G1X64.9023Y-33.8069
G1X68.4514Y-34.2006
G1X72.2390Y-34.8928
G1X75.8349Y-35.7772
G1X79.5872Y-36.9155
G1X83.2873Y-38.2235
G1X88.9291Y-40.4059
G1 Z0F20000
(Start Block)

G1X22.8791Y-50.8146
G1Z6F20000
(Plotting speed under)
G1 F8000

G1X25.2938Y-51.2240
G1X27.4232Y-51.4288
G1X29.4972Y-51.4585
G1X31.6541Y-51.2997
G1X33.7535Y-50.9568
G1X35.9030Y-50.4129
G1X38.0416Y-49.6758
G1X40.1403Y-48.7554
G1X42.1138Y-47.6997
G1X43.9356Y-46.5456
G1X45.6721Y-45.2656
G1X47.3749Y-43.8161
G1X49.8639Y-41.2926
G1X53.9752Y-36.2283
G1X54.8048Y-35.3302
G1X55.5780Y-34.6331
G1X56.5364Y-33.9532
G1X57.5283Y-33.4342
G1X58.5867Y-33.0420
G1X59.8571Y-32.7328
G1X62.3138Y-32.4624
G1X65.3657Y-32.4916
G1X68.8691Y-32.8358
G1X72.5372Y-33.4609
G1X76.1350Y-34.3008
G1X79.8058Y-35.3689
G1X83.4439Y-36.6107
G1X88.6014Y-38.5601
G1 Z0F20000
(Start Block)

G1X22.7530Y-50.0567
G1Z6F20000
(Plotting speed under)
G1 F8000

G1X25.2523Y-50.5199
G1X27.4743Y-50.7675
G1X29.7191Y-50.8230
G1X31.8589Y-50.6811
G1X34.0727Y-50.3325
G1X36.3090Y-49.7733
G1X38.5293Y-49.0106
G1X40.7559Y-48.0305
G1X42.7606Y-46.9506
G1X44.6122Y-45.7699
G1X46.4623Y-44.3913
G1X48.1848Y-42.9022
G1X50.7122Y-40.2918
G1X54.8253Y-35.1043
G1X55.6446Y-34.1909
G1X56.4798Y-33.4113
G1X57.3579Y-32.7619
G1X58.3246Y-32.2254
G1X59.4305Y-31.7930
G1X60.5710Y-31.4967
G1X62.9580Y-31.1990
G1X65.8447Y-31.1930
G1X69.2069Y-31.4855
G1X72.7678Y-32.0514
G1X76.2630Y-32.8250
G1X79.8500Y-33.8236
G1X83.5292Y-35.0379
G1X88.2770Y-36.7948
G1 Z0F20000
(Start Block)

G1X22.6299Y-49.2613
G1Z6F20000
(Plotting speed under)
G1 F8000

G1X25.3159Y-49.8069
G1X27.6267Y-50.0988
G1X29.9073Y-50.1816
G1X32.1469Y-50.0514
G1X34.4771Y-49.6938
G1X36.7478Y-49.1304
G1X39.0945Y-48.3249
G1X41.3552Y-47.3267
G1X43.3937Y-46.2257
G1X45.3702Y-44.9567
G1X47.2482Y-43.5415
G1X49.0732Y-41.9381
G1X51.6119Y-39.2573
G1X52.9586Y-37.5955
G1X55.7530Y-33.8956
G1X56.6299Y-32.8945
G1X57.4873Y-32.0841
G1X58.3734Y-31.4293
G1X59.2216Y-30.9561
G1X60.2638Y-30.5378
G1X61.3885Y-30.2366
G1X63.7140Y-29.9359
G1X66.4496Y-29.9175
G1X69.5782Y-30.1674
G1X73.0406Y-30.6879
G1X76.4366Y-31.4086
G1X79.9918Y-32.3658
G1X83.6241Y-33.5344
G1X87.9692Y-35.1141
G1 Z0F20000
(Start Block)

G1X22.5153Y-48.4204
G1Z6F20000
(Plotting speed under)
G1 F8000

G1X25.2713Y-49.0433
G1X27.6601Y-49.3987
G1X30.0321Y-49.5272
G1X32.3129Y-49.4262
G1X34.7532Y-49.0770
G1X37.1662Y-48.4929
G1X39.5423Y-47.6872
G1X41.9384Y-46.6352
G1X43.7737Y-45.6554
G1X45.5757Y-44.5312
G1X47.2255Y-43.3443
G1X48.8627Y-41.9957
G1X50.6633Y-40.2832
G1X52.3799Y-38.3867
G1X53.8731Y-36.5030
G1X56.5997Y-32.7667
G1X57.9581Y-31.2124
G1X58.8738Y-30.4241
G1X59.7816Y-29.8421
G1X60.7791Y-29.3868
G1X61.9903Y-29.0233
G1X64.1653Y-28.7040
G1X66.7670Y-28.6524
G1X69.8873Y-28.8726
G1X73.2640Y-29.3546
G1X76.6655Y-30.0530
G1X80.0819Y-30.9492
G1X83.5579Y-32.0416
G1X87.6909Y-33.5211
G1 Z0F20000
(Start Block)

G1X22.4156Y-47.5262
G1Z6F20000
(Plotting speed under)
G1 F8000

G1X25.3398Y-48.2609
G1X27.6927Y-48.6677
G1X30.0333Y-48.8490
G1X32.4643Y-48.7860
G1X34.9024Y-48.4718
G1X37.4674Y-47.8806
G1X39.9716Y-47.0500
G1X42.4958Y-45.9519
G1X44.4639Y-44.9005
G1X46.2978Y-43.7502
G1X48.0580Y-42.4708
G1X49.7932Y-41.0149
G1X51.6301Y-39.2230
G1X53.3435Y-37.2723
G1X54.8468Y-35.3080
G1X57.5017Y-31.5235
G1X58.7516Y-30.0228
G1X59.6599Y-29.2009
G1X60.5471Y-28.6096
G1X61.5279Y-28.1491
G1X62.7007Y-27.7899
G1X64.7413Y-27.4796
G1X67.3283Y-27.4196
G1X70.3490Y-27.6265
G1X73.5467Y-28.0722
G1X76.7474Y-28.7114
G1X80.1383Y-29.5798
G1X83.5487Y-30.6338
G1X87.4541Y-32.0179
G1 Z0F20000
(Start Block)

G1X22.3368Y-46.5706
G1Z6F20000
(Plotting speed under)
G1 F8000

G1X25.4189Y-47.4349
G1X27.8379Y-47.9153
G1X30.2600Y-48.1480
G1X32.6065Y-48.1229
G1X35.2552Y-47.8104
G1X37.8523Y-47.2278
G1X40.4884Y-46.3642
G1X43.0528Y-45.2544
G1X45.1467Y-44.1357
G1X47.1004Y-42.8994
G1X48.9701Y-41.5166
G1X50.7218Y-40.0130
G1X52.6018Y-38.1278
G1X54.2997Y-36.1289
G1X55.8071Y-34.0794
G1X58.3783Y-30.2481
G1X59.5419Y-28.7934
G1X60.3368Y-28.0378
G1X61.2001Y-27.4285
G1X62.1601Y-26.9555
G1X63.3157Y-26.5879
G1X65.3424Y-26.2727
G1X67.7253Y-26.2100
G1X70.6617Y-26.3991
G1X73.7963Y-26.8254
G1X77.0067Y-27.4590
G1X80.2661Y-28.2870
G1X83.6062Y-29.3123
G1X87.2694Y-30.6065
G1 Z0F20000
(Start Block)

G1X22.2852Y-45.5458
G1Z6F20000
(Plotting speed under)
G1 F8000

G1X25.4138Y-46.5307
G1X27.8864Y-47.1046
G1X30.3755Y-47.4086
G1X32.8481Y-47.4240
G1X35.4918Y-47.1431
G1X38.2286Y-46.5527
G1X40.8943Y-45.6963
G1X43.6030Y-44.5358
G1X45.7343Y-43.4010
G1X47.8142Y-42.0817
G1X49.7158Y-40.6635
G1X51.5719Y-39.0462
G1X53.4658Y-37.1031
G1X55.1789Y-35.0244
G1X56.6227Y-32.9871
G1X59.1596Y-29.0321
G1X60.2759Y-27.5790
G1X61.0011Y-26.8632
G1X61.8479Y-26.2435
G1X62.7962Y-25.7652
G1X63.8437Y-25.4222
G1X65.7717Y-25.1045
G1X68.1719Y-25.0323
G1X70.9360Y-25.2046
G1X74.0193Y-25.6170
G1X77.1321Y-26.2253
G1X80.3741Y-27.0446
G1X83.6398Y-28.0464
G1X87.1462Y-29.2893
G1 Z0F20000

G00 X0.0000 Y0.0000

