$H
G21
G17
G90
G1 Z0F20000
G1 F15000
(Start Layer)
(Start Block)

G1X71.6018Y-66.9150
G1 Z3.0F20000
(Plotting speed under)
G1 F4000

G1X70.3656Y-69.1320
G1X68.9338Y-71.4041
G1X67.3648Y-73.6308
G1X65.6726Y-75.7970
G1X63.8714Y-77.8875
G1X61.9752Y-79.8875
G1X59.9979Y-81.7817
G1X57.9536Y-83.5552
G1X55.9347Y-85.1349
G1X53.9573Y-86.5235
G1X51.8892Y-87.8161
G1X49.7189Y-89.0222
G1X47.3707Y-90.1790
G1X44.9472Y-91.2305
G1X42.4661Y-92.1709
G1X39.9453Y-92.9942
G1X37.4027Y-93.6944
G1X34.8560Y-94.2657
G1X32.3232Y-94.7021
G1X29.9174Y-94.9890
G1X27.4966Y-95.1451
G1X24.9227Y-95.1725
G1X22.4122Y-95.0721
G1X19.7829Y-94.8393
G1X17.0524Y-94.4624
G1X14.3429Y-93.9517
G1X11.6756Y-93.3111
G1X8.0000Y-92.1673
G1 Z0F20000
(Start Block)

G1X8.0000Y-64.6607
G1 Z3.0F20000
(Plotting speed under)
G1 F4000

G1X9.9005Y-61.0202
G1X11.1622Y-58.9185
G1X13.8055Y-55.0863
G1X15.2252Y-53.2895
G1X16.7021Y-51.5872
G1X18.1698Y-50.0498
G1X21.4539Y-47.0573
G1X25.1537Y-44.2319
G1X29.1132Y-41.6968
G1X33.2453Y-39.5068
G1X37.3708Y-37.7507
G1X39.3928Y-37.0468
G1X41.4392Y-36.4408
G1X45.7068Y-35.4827
G1X50.3368Y-34.8473
G1X52.7871Y-34.6664
G1X55.1399Y-34.5910
G1X57.5858Y-34.6155
G1X59.9075Y-34.7385
G1X62.1945Y-34.9597
G1X64.4339Y-35.2800
G1X66.5234Y-35.6804
G1X68.7079Y-36.2075
G1X70.9018Y-36.8443
G1X73.0935Y-37.5855
G1X77.4248Y-39.3593
G1X81.6096Y-41.4853
G1X85.4733Y-43.8643
G1X87.3321Y-45.1813
G1X89.0226Y-46.4983
G1X90.6399Y-47.8847
G1X92.2906Y-49.4377
G1X95.3765Y-52.7467
G1X97.0001Y-54.8075
G1 Z0F20000
(Start Block)

G1X97.0001Y-76.6380
G1 Z3.0F20000
(Plotting speed under)
G1 F4000

G1X95.9156Y-80.4155
G1X94.3438Y-84.4857
G1X92.3531Y-88.5881
G1X90.0237Y-92.5501
G1X87.4661Y-96.2113
G1X84.7434Y-99.5134
G1X81.8930Y-102.4272
G1X78.7312Y-105.1399
G1X75.2032Y-107.7016
G1X71.3640Y-110.0536
G1X67.3707Y-112.0890
G1X63.3014Y-113.7630
G1X59.3117Y-115.0109
G1X55.0579Y-115.9244
G1X50.6396Y-116.4872
G1X46.0458Y-116.6978
G1X41.5734Y-116.5453
G1X37.4065Y-116.0673
G1X33.4074Y-115.2601
G1X29.3380Y-114.0481
G1X25.2884Y-112.4622
G1X21.2447Y-110.4939
G1X17.4685Y-108.2732
G1X13.9428Y-105.7988
G1X10.7395Y-103.1064
G1X8.0000Y-100.3317
G1 Z0F20000
(Start Block)

G1X8.0000Y-64.4403
G1 Z3.0F20000
(Plotting speed under)
G1 F4000

G1X9.4103Y-61.4244
G1X10.4468Y-59.5397
G1X12.7680Y-55.9412
G1X15.4724Y-52.4612
G1X18.6439Y-49.0114
G1X22.0949Y-45.8254
G1X25.7520Y-42.9752
G1X27.6348Y-41.6986
G1X29.4584Y-40.5812
G1X31.3297Y-39.5527
G1X33.3696Y-38.5514
G1X37.6569Y-36.7892
G1X42.1383Y-35.3711
G1X46.7148Y-34.3251
G1X51.0901Y-33.6988
G1X55.3771Y-33.4631
G1X59.6975Y-33.6237
G1X64.2008Y-34.1771
G1X68.7966Y-35.1277
G1X73.2864Y-36.4449
G1X75.4606Y-37.2341
G1X77.5710Y-38.1064
G1X79.6053Y-39.0592
G1X81.4865Y-40.0520
G1X83.4347Y-41.1995
G1X85.3588Y-42.4528
G1X89.0965Y-45.2432
G1X92.6970Y-48.4265
G1X95.9296Y-51.7988
G1X97.0001Y-53.1219
G1 Z0F20000
(Start Block)

G1X97.0001Y-86.2865
G1 Z3.0F20000
(Plotting speed under)
G1 F4000

G1X95.9635Y-88.8612
G1X94.0291Y-92.6845
G1X91.7290Y-96.3543
G1X88.9941Y-99.9845
G1X85.8668Y-103.4959
G1X82.4745Y-106.7331
G1X78.9672Y-109.5641
G1X77.1242Y-110.8606
G1X73.4564Y-113.0715
G1X71.4186Y-114.1175
G1X67.1466Y-115.9691
G1X62.6947Y-117.4743
G1X58.1614Y-118.6028
G1X53.8393Y-119.3011
G1X49.6804Y-119.5995
G1X45.3177Y-119.5154
G1X40.7812Y-119.0410
G1X36.1645Y-118.1699
G1X31.6701Y-116.9286
G1X27.4897Y-115.3756
G1X25.5512Y-114.4995
G1X23.6416Y-113.5241
G1X21.6613Y-112.3934
G1X19.7073Y-111.1577
G1X15.9189Y-108.4048
G1X12.3569Y-105.3330
G1X10.6861Y-103.6987
G1X9.1022Y-102.0100
G1X8.0000Y-100.6701
G1 Z0F20000
(Start Block)

G1X8.0000Y-64.3787
G1 Z3.0F20000
(Plotting speed under)
G1 F4000

G1X9.5584Y-61.5097
G1X10.7687Y-59.5759
G1X12.0805Y-57.6724
G1X14.9749Y-53.9946
G1X18.1731Y-50.5530
G1X21.6066Y-47.4244
G1X23.3902Y-46.0016
G1X25.1275Y-44.7407
G1X26.9064Y-43.5730
G1X28.8543Y-42.4214
G1X30.8832Y-41.3428
G1X33.0735Y-40.2998
G1X35.3251Y-39.3460
G1X37.6242Y-38.4862
G1X39.9569Y-37.7253
G1X42.3096Y-37.0683
G1X44.6685Y-36.5201
G1X46.9221Y-36.1014
G1X49.1567Y-35.7914
G1X51.2719Y-35.5998
G1X53.5176Y-35.5031
G1X58.1123Y-35.6156
G1X60.5374Y-35.8318
G1X65.2744Y-36.5576
G1X69.8091Y-37.6419
G1X72.0071Y-38.3178
G1X74.1422Y-39.0802
G1X76.1140Y-39.8886
G1X78.1370Y-40.8336
G1X82.0543Y-42.9990
G1X84.0159Y-44.2525
G1X86.0193Y-45.6551
G1X89.7705Y-48.6487
G1X91.5758Y-50.2862
G1X93.2220Y-51.9136
G1X94.7758Y-53.5901
G1X97.0001Y-56.3185
G1 Z0F20000
(Start Block)

G1X97.0001Y-93.3035
G1 Z3.0F20000
(Plotting speed under)
G1 F4000

G1X95.5427Y-96.0009
G1X94.2767Y-98.0856
G1X92.9339Y-100.0953
G1X91.5208Y-102.0172
G1X90.0442Y-103.8388
G1X88.5607Y-105.4953
G1X86.9016Y-107.1747
G1X85.1379Y-108.7989
G1X83.2817Y-110.3601
G1X81.3450Y-111.8502
G1X79.3399Y-113.2611
G1X77.2783Y-114.5849
G1X75.1724Y-115.8137
G1X71.0559Y-117.8738
G1X68.9795Y-118.7443
G1X66.9854Y-119.4722
G1X64.8363Y-120.1421
G1X62.6235Y-120.7212
G1X58.0579Y-121.6024
G1X55.6292Y-121.9131
G1X53.1875Y-122.1200
G1X50.7475Y-122.2218
G1X48.4241Y-122.2196
G1X46.1283Y-122.1187
G1X43.8730Y-121.9179
G1X41.6700Y-121.6159
G1X39.4704Y-121.2025
G1X37.1583Y-120.6510
G1X34.8423Y-119.9827
G1X32.5359Y-119.2036
G1X30.2526Y-118.3196
G1X28.0061Y-117.3367
G1X25.8097Y-116.2609
G1X23.6771Y-115.0979
G1X21.6218Y-113.8539
G1X19.7373Y-112.5911
G1X17.9477Y-111.2642
G1X16.2174Y-109.8423
G1X14.5271Y-108.3125
G1X12.8848Y-106.6854
G1X11.2310Y-104.8950
G1X9.6472Y-103.0217
G1X8.0000Y-100.8755
G1 Z0F20000
(Start Block)

G1X8.0000Y-64.0767
G1 Z3.0F20000
(Plotting speed under)
G1 F4000

G1X9.1687Y-61.9820
G1X10.4404Y-59.9207
G1X11.7874Y-57.9443
G1X13.2035Y-56.0658
G1X14.6278Y-54.3597
G1X16.2242Y-52.6295
G1X17.9290Y-50.9498
G1X19.7303Y-49.3293
G1X21.6163Y-47.7766
G1X23.6582Y-46.2405
G1X25.6804Y-44.8526
G1X27.7513Y-43.5586
G1X29.8589Y-42.3670
G1X31.9023Y-41.3290
G1X33.9582Y-40.4004
G1X35.9352Y-39.6181
G1X38.0670Y-38.8900
G1X40.2655Y-38.2501
G1X44.8115Y-37.2418
G1X47.2350Y-36.8628
G1X49.6750Y-36.5871
G1X52.0153Y-36.4216
G1X54.4455Y-36.3535
G1X56.7498Y-36.3902
G1X59.0171Y-36.5284
G1X61.1390Y-36.7569
G1X63.3440Y-37.1023
G1X65.5692Y-37.5579
G1X67.9000Y-38.1460
G1X70.2266Y-38.8438
G1X72.5354Y-39.6461
G1X74.9072Y-40.5872
G1X77.1380Y-41.5864
G1X79.3102Y-42.6741
G1X81.4104Y-43.8449
G1X83.4250Y-45.0936
G1X85.2630Y-46.3585
G1X87.1135Y-47.7735
G1X88.8515Y-49.2389
G1X90.6192Y-50.8715
G1X92.3309Y-52.5989
G1X93.9774Y-54.4098
G1X95.6130Y-56.3733
G1X97.0001Y-58.1930
G1 Z0F20000
(Start Block)

G1X97.0001Y-98.9097
G1 Z3.0F20000
(Plotting speed under)
G1 F4000

G1X95.3228Y-101.5138
G1X93.8338Y-103.5716
G1X92.3139Y-105.4913
G1X90.6465Y-107.4209
G1X88.9035Y-109.2668
G1X87.1689Y-110.9486
G1X85.3080Y-112.5947
G1X83.4794Y-114.0619
G1X81.6792Y-115.3665
G1X79.7002Y-116.6567
G1X77.6291Y-117.8704
G1X75.4796Y-119.0023
G1X73.1719Y-120.0887
G1X70.8094Y-121.0747
G1X68.3108Y-121.9872
G1X65.8842Y-122.7500
G1X63.4497Y-123.3941
G1X61.0224Y-123.9137
G1X58.6180Y-124.3028
G1X56.2985Y-124.5542
G1X53.8254Y-124.6958
G1X51.3108Y-124.7166
G1X48.7713Y-124.6189
G1X46.1217Y-124.3938
G1X43.4816Y-124.0453
G1X40.9695Y-123.5961
G1X38.5002Y-123.0372
G1X36.0900Y-122.3708
G1X33.8474Y-121.6319
G1X31.6825Y-120.7952
G1X29.5378Y-119.8370
G1X27.4065Y-118.7581
G1X25.3004Y-117.5672
G1X23.1462Y-116.2171
G1X21.0460Y-114.7648
G1X19.0131Y-113.2201
G1X17.0611Y-111.5930
G1X15.2758Y-109.9625
G1X13.5215Y-108.2023
G1X11.9508Y-106.4622
G1X10.4884Y-104.6641
G1X9.0947Y-102.7614
G1X8.0000Y-101.1072
G1 Z0F20000
(Start Block)

G1X8.0000Y-63.6727
G1 Z3.0F20000
(Plotting speed under)
G1 F4000

G1X10.2443Y-59.2485
G1X12.7267Y-55.2614
G1X15.4544Y-51.5821
G1X18.3568Y-48.2743
G1X21.4519Y-45.3200
G1X24.8592Y-42.6195
G1X28.6560Y-40.1022
G1X32.7759Y-37.8319
G1X36.9533Y-35.9539
G1X41.1906Y-34.4607
G1X43.3520Y-33.8610
G1X45.4274Y-33.3913
G1X47.6555Y-32.9942
G1X52.2462Y-32.4869
G1X54.6855Y-32.3737
G1X59.4818Y-32.4529
G1X64.1139Y-32.9151
G1X68.3924Y-33.7129
G1X72.4115Y-34.8437
G1X76.6113Y-36.4371
G1X80.7431Y-38.4101
G1X84.7238Y-40.7162
G1X88.4702Y-43.3095
G1X91.8267Y-46.0782
G1X94.8619Y-49.0859
G1X97.0001Y-51.6201
G1 Z0F20000
(Start Block)

G1X97.0001Y-99.5597
G1 Z3.0F20000
(Plotting speed under)
G1 F4000

G1X96.7635Y-101.4224
G1X95.8766Y-105.7144
G1X94.6631Y-109.9395
G1X93.1824Y-113.9246
G1X91.4295Y-117.6941
G1X89.4499Y-121.1433
G1X87.1368Y-124.5008
G1X84.3940Y-127.8877
G1X81.3094Y-131.1495
G1X78.0036Y-134.1415
G1X74.6168Y-136.7432
G1X71.2719Y-138.8879
G1X69.1634Y-140.0001
G1 Z0F20000
(Start Block)

G1X46.1465Y-140.0001
G1 Z3.0F20000
(Plotting speed under)
G1 F4000

G1X41.9038Y-139.0577
G1X37.3150Y-137.6385
G1X35.0325Y-136.7720
G1X32.9005Y-135.8567
G1X30.8352Y-134.8623
G1X28.8486Y-133.7924
G1X27.0272Y-132.6982
G1X25.1567Y-131.4501
G1X23.3159Y-130.0959
G1X21.5137Y-128.6447
G1X18.0604Y-125.4878
G1X14.8018Y-121.9750
G1X12.0068Y-118.4111
G1X10.7228Y-116.5361
G1X9.5971Y-114.7200
G1X8.0000Y-111.7308
G1 Z0F20000
(Start Block)

G1X9.2549Y-140.0001
G1 Z3.0F20000
(Plotting speed under)
G1 F4000

G1X8.0000Y-139.1940
G1 Z0F20000
(Start Block)

G1X10.0399Y-140.0001
G1 Z3.0F20000
(Plotting speed under)
G1 F4000

G1X8.0000Y-138.7789
G1 Z0F20000
(Start Block)

G1X10.8377Y-140.0001
G1 Z3.0F20000
(Plotting speed under)
G1 F4000

G1X9.5267Y-139.2439
G1X8.0000Y-138.2038
G1 Z0F20000
(Start Block)

G1X11.8443Y-140.0001
G1 Z3.0F20000
(Plotting speed under)
G1 F4000

G1X8.7772Y-138.1517
G1X8.0000Y-137.6044
G1 Z0F20000
(Start Block)

G1X12.7235Y-140.0001
G1 Z3.0F20000
(Plotting speed under)
G1 F4000

G1X9.2895Y-137.8634
G1X8.0000Y-136.9072
G1 Z0F20000
(Start Block)

G1X14.0495Y-140.0001
G1 Z3.0F20000
(Plotting speed under)
G1 F4000

G1X12.1419Y-138.9233
G1X8.7315Y-136.6675
G1X8.0000Y-136.1042
G1 Z0F20000
(Start Block)

G1X15.1196Y-140.0001
G1 Z3.0F20000
(Plotting speed under)
G1 F4000

G1X12.1049Y-138.2453
G1X8.9123Y-136.0065
G1X8.0000Y-135.2523
G1 Z0F20000
(Start Block)

G1X16.4935Y-140.0001
G1 Z3.0F20000
(Plotting speed under)
G1 F4000

G1X15.5167Y-139.4791
G1X11.9083Y-137.1918
G1X8.0000Y-134.2321
G1 Z0F20000
(Start Block)

G1X17.9003Y-140.0001
G1 Z3.0F20000
(Plotting speed under)
G1 F4000

G1X15.1592Y-138.4899
G1X11.7122Y-136.2112
G1X8.5858Y-133.7334
G1X8.0000Y-133.1844
G1 Z0F20000
(Start Block)

G1X19.2569Y-140.0001
G1 Z3.0F20000
(Plotting speed under)
G1 F4000

G1X18.5579Y-139.6448
G1X14.9745Y-137.4417
G1X11.4371Y-134.8719
G1X8.0000Y-131.9405
G1 Z0F20000
(Start Block)

G1X20.9683Y-140.0001
G1 Z3.0F20000
(Plotting speed under)
G1 F4000

G1X18.2188Y-138.5269
G1X14.4877Y-136.1331
G1X11.1321Y-133.5658
G1X8.0000Y-130.6789
G1 Z0F20000
(Start Block)

G1X22.4618Y-140.0001
G1 Z3.0F20000
(Plotting speed under)
G1 F4000

G1X21.2600Y-139.4184
G1X17.7303Y-137.3051
G1X14.1338Y-134.7200
G1X10.7054Y-131.8149
G1X8.0000Y-129.1355
G1 Z0F20000
(Start Block)

G1X24.3181Y-140.0001
G1 Z3.0F20000
(Plotting speed under)
G1 F4000

G1X21.1781Y-138.3454
G1X17.2207Y-135.8373
G1X13.6122Y-133.1138
G1X10.4138Y-130.2391
G1X8.0000Y-127.6317
G1 Z0F20000
(Start Block)

G1X26.0548Y-140.0001
G1 Z3.0F20000
(Plotting speed under)
G1 F4000

G1X23.7051Y-138.8411
G1X20.0090Y-136.6752
G1X16.4071Y-134.0893
G1X12.8791Y-131.0591
G1X9.5757Y-127.7116
G1X8.0000Y-125.8311
G1 Z0F20000
(Start Block)

G1X27.9807Y-140.0001
G1 Z3.0F20000
(Plotting speed under)
G1 F4000

G1X23.4896Y-137.6494
G1X19.4463Y-135.0512
G1X15.7224Y-132.2011
G1X13.9736Y-130.6802
G1X12.3141Y-129.1050
G1X10.7544Y-127.4827
G1X9.3541Y-125.8804
G1X8.0000Y-124.1761
G1 Z0F20000
(Start Block)

G1X30.2089Y-140.0001
G1 Z3.0F20000
(Plotting speed under)
G1 F4000

G1X28.0064Y-139.0101
G1X25.8370Y-137.9190
G1X23.6537Y-136.6952
G1X21.6452Y-135.4422
G1X19.7351Y-134.1178
G1X17.9618Y-132.7524
G1X16.1495Y-131.2141
G1X14.3852Y-129.5709
G1X12.6781Y-127.8339
G1X11.0374Y-126.0143
G1X9.4088Y-124.0430
G1X8.0000Y-122.1790
G1 Z0F20000
(Start Block)

G1X32.3487Y-140.0001
G1 Z3.0F20000
(Plotting speed under)
G1 F4000

G1X29.2901Y-138.6752
G1X27.2713Y-137.6437
G1X25.2715Y-136.5059
G1X23.2155Y-135.2137
G1X19.3238Y-132.4065
G1X15.6815Y-129.2894
G1X13.9453Y-127.5997
G1X12.3740Y-125.9293
G1X10.9032Y-124.2167
G1X9.5953Y-122.5408
G1X8.0000Y-120.2397
G1 Z0F20000
(Start Block)

G1X35.0107Y-140.0001
G1 Z3.0F20000
(Plotting speed under)
G1 F4000

G1X32.9747Y-139.2083
G1X30.7287Y-138.2200
G1X28.4337Y-137.0895
G1X26.2868Y-135.9139
G1X24.2082Y-134.6560
G1X22.2110Y-133.3222
G1X20.3083Y-131.9187
G1X18.5830Y-130.5120
G1X16.8424Y-128.9425
G1X15.2197Y-127.3346
G1X13.5821Y-125.5600
G1X12.0095Y-123.6980
G1X10.5104Y-121.7604
G1X8.0000Y-118.0648
G1 Z0F20000
(Start Block)

G1X37.9344Y-140.0001
G1 Z3.0F20000
(Plotting speed under)
G1 F4000

G1X35.4923Y-139.1865
G1X33.3408Y-138.3583
G1X31.1698Y-137.4072
G1X29.1724Y-136.4152
G1X27.2169Y-135.3218
G1X25.1979Y-134.0636
G1X23.2115Y-132.6953
G1X21.2686Y-131.2264
G1X19.3798Y-129.6667
G1X17.4815Y-127.9559
G1X15.7366Y-126.2407
G1X14.0785Y-124.4641
G1X12.5810Y-122.7128
G1X11.1825Y-120.9224
G1X9.8925Y-119.1015
G1X8.0000Y-116.0101
G1 Z0F20000
(Start Block)

G1X41.1874Y-140.0001
G1 Z3.0F20000
(Plotting speed under)
G1 F4000

G1X39.0997Y-139.4028
G1X36.9503Y-138.6768
G1X32.6736Y-136.9088
G1X28.4112Y-134.7106
G1X24.3509Y-132.1697
G1X20.6635Y-129.4024
G1X18.9540Y-127.9305
G1X17.4110Y-126.4703
G1X15.8533Y-124.8493
G1X14.3473Y-123.1311
G1X12.8999Y-121.3263
G1X11.4591Y-119.3628
G1X10.0970Y-117.3292
G1X8.0000Y-113.7533
G1 Z0F20000
(Start Block)

G1X8.0000Y-63.3822
G1 Z3.0F20000
(Plotting speed under)
G1 F4000

G1X9.7432Y-60.5933
G1X11.1529Y-58.5920
G1X12.6505Y-56.6480
G1X14.2271Y-54.7727
G1X15.8736Y-52.9777
G1X17.5088Y-51.3436
G1X19.2663Y-49.7393
G1X20.9913Y-48.3091
G1X22.7736Y-46.9738
G1X24.7344Y-45.6486
G1X26.6989Y-44.4485
G1X28.8253Y-43.2746
G1X31.0165Y-42.1865
G1X33.3533Y-41.1506
G1X35.7308Y-40.2208
G1X38.0372Y-39.4340
G1X40.3537Y-38.7568
G1X42.6669Y-38.1950
G1X44.9632Y-37.7544
G1X47.2683Y-37.4338
G1X49.6302Y-37.2235
G1X52.1360Y-37.1202
G1X54.5701Y-37.1308
G1X57.1196Y-37.2546
G1X59.6669Y-37.4922
G1X62.1958Y-37.8421
G1X64.6898Y-38.3026
G1X67.0358Y-38.8474
G1X69.2261Y-39.4628
G1X71.3465Y-40.1682
G1X73.4258Y-40.9753
G1X75.5917Y-41.9373
G1X77.7418Y-43.0136
G1X79.8641Y-44.1961
G1X81.9466Y-45.4769
G1X84.0606Y-46.9068
G1X86.0246Y-48.3632
G1X87.9123Y-49.8933
G1X89.7117Y-51.4891
G1X91.4109Y-53.1426
G1X92.9340Y-54.7738
G1X94.3757Y-56.4780
G1X95.7607Y-58.2796
G1X97.0001Y-60.0523
G1 Z0F20000
(Start Block)

G1X97.0001Y-103.4337
G1 Z3.0F20000
(Plotting speed under)
G1 F4000

G1X95.0478Y-106.2258
G1X93.6549Y-107.9671
G1X92.0869Y-109.7437
G1X90.4127Y-111.4708
G1X88.6440Y-113.1397
G1X86.7921Y-114.7414
G1X84.8686Y-116.2673
G1X82.8012Y-117.7666
G1X80.7671Y-119.1104
G1X78.6964Y-120.3516
G1X76.6003Y-121.4815
G1X74.5786Y-122.4518
G1X72.5249Y-123.3169
G1X70.3943Y-124.0964
G1X68.1018Y-124.8169
G1X65.7528Y-125.4403
G1X63.2613Y-125.9841
G1X60.7405Y-126.4177
G1X58.2066Y-126.7384
G1X55.6761Y-126.9439
G1X53.1652Y-127.0316
G1X50.6903Y-126.9989
G1X48.3634Y-126.8521
G1X46.0432Y-126.5850
G1X43.5978Y-126.1776
G1X41.2376Y-125.6674
G1X38.7810Y-125.0176
G1X36.3420Y-124.2525
G1X33.9362Y-123.3780
G1X31.5793Y-122.3995
G1X29.3773Y-121.3678
G1X27.2489Y-120.2507
G1X25.2909Y-119.1047
G1X23.4242Y-117.8884
G1X21.6091Y-116.5731
G1X19.7510Y-115.0855
G1X17.9393Y-113.4912
G1X16.1836Y-111.8013
G1X14.4938Y-110.0269
G1X12.8797Y-108.1790
G1X11.3511Y-106.2689
G1X9.9177Y-104.3074
G1X8.0000Y-101.3217
G1 Z0F20000
(Start Block)

G1X8.0000Y-62.6963
G1 Z3.0F20000
(Plotting speed under)
G1 F4000

G1X8.5097Y-61.4491
G1X10.5660Y-57.4047
G1X12.8491Y-53.7347
G1X15.4436Y-50.3159
G1X16.9518Y-48.5830
G1X20.2345Y-45.2680
G1X22.0674Y-43.6361
G1X25.7608Y-40.7385
G1X27.6767Y-39.4202
G1X29.6256Y-38.2000
G1X33.4113Y-36.1693
G1X37.3846Y-34.4892
G1X41.6927Y-33.0875
G1X46.1555Y-32.0257
G1X50.6799Y-31.3236
G1X55.1726Y-31.0012
G1X59.3562Y-31.0663
G1X63.6641Y-31.5258
G1X68.2257Y-32.4124
G1X72.8476Y-33.7175
G1X77.2340Y-35.3558
G1X79.3455Y-36.2998
G1X81.3864Y-37.3221
G1X85.0663Y-39.4924
G1X88.6787Y-42.0930
G1X92.2125Y-45.1226
G1X95.5152Y-48.4565
G1X97.0001Y-50.2179
G1 Z0F20000
(Start Block)

G1X66.6019Y-8.0000
G1 Z3.0F20000
(Plotting speed under)
G1 F4000

G1X68.4511Y-10.0082
G1X70.1048Y-12.0083
G1X71.6821Y-14.1116
G1X73.2297Y-16.3886
G1X74.7269Y-18.8321
G1X76.0562Y-21.2500
G1X77.2632Y-23.7113
G1X78.3378Y-26.1991
G1X79.2701Y-28.6964
G1X80.0259Y-31.1010
G1X80.6817Y-33.6686
G1X81.2116Y-36.3138
G1X81.6150Y-39.0165
G1X81.8911Y-41.7570
G1X82.0424Y-44.6176
G1X82.0573Y-47.3735
G1X81.9431Y-50.1068
G1X81.6990Y-52.7976
G1X81.3243Y-55.4260
G1X80.8361Y-57.8952
G1X80.2047Y-60.3759
G1X79.4351Y-62.8625
G1X78.5353Y-65.3386
G1X77.5136Y-67.7881
G1X76.3324Y-70.2863
G1X75.0376Y-72.7200
G1X73.6384Y-75.0713
G1X72.1440Y-77.3218
G1X70.6236Y-79.3768
G1X69.0865Y-81.2425
G1X67.3585Y-83.1230
G1X65.5034Y-84.9421
G1X63.4589Y-86.7548
G1X61.3922Y-88.4160
G1X59.1609Y-90.0420
G1X56.8599Y-91.5554
G1X54.5941Y-92.8952
G1X52.2059Y-94.1531
G1X49.8880Y-95.2250
G1X47.6459Y-96.1209
G1X45.2281Y-96.9362
G1X42.8246Y-97.6103
G1X40.2615Y-98.1952
G1X37.6524Y-98.6595
G1X35.0161Y-99.0014
G1X32.2700Y-99.2248
G1X29.6370Y-99.3110
G1X27.0343Y-99.2688
G1X24.4807Y-99.0962
G1X22.0840Y-98.8047
G1X19.6795Y-98.3781
G1X17.1602Y-97.7932
G1X14.5428Y-97.0413
G1X11.9436Y-96.1503
G1X8.0000Y-94.4965
G1 Z0F20000
(Start Block)

G1X8.0000Y-62.5393
G1 Z3.0F20000
(Plotting speed under)
G1 F4000

G1X9.9362Y-59.5862
G1X11.3425Y-57.7310
G1X12.8666Y-55.9138
G1X14.5676Y-54.0714
G1X16.3719Y-52.2907
G1X18.2666Y-50.5823
G1X20.3193Y-48.8937
G1X22.3591Y-47.3655
G1X24.4508Y-45.9417
G1X26.5816Y-44.6329
G1X28.7387Y-43.4496
G1X30.8277Y-42.4389
G1X33.0815Y-41.4898
G1X35.4209Y-40.6397
G1X37.8296Y-39.8916
G1X40.3909Y-39.2252
G1X42.9913Y-38.6761
G1X45.5119Y-38.2621
G1X48.0356Y-37.9631
G1X50.5462Y-37.7821
G1X53.0277Y-37.7224
G1X55.3674Y-37.7821
G1X57.6868Y-37.9606
G1X60.0377Y-38.2592
G1X62.5068Y-38.6932
G1X64.9810Y-39.2479
G1X67.4443Y-39.9182
G1X69.8813Y-40.6990
G1X72.2760Y-41.5855
G1X74.6128Y-42.5726
G1X76.8758Y-43.6552
G1X78.9644Y-44.7799
G1X80.9566Y-45.9836
G1X82.8908Y-47.2915
G1X84.7933Y-48.7165
G1X86.6541Y-50.2479
G1X88.4633Y-51.8754
G1X90.2821Y-53.6617
G1X92.0227Y-55.5290
G1X93.6739Y-57.4657
G1X95.2243Y-59.4599
G1X97.0001Y-62.0339
G1 Z0F20000
(Start Block)

G1X97.0001Y-105.9944
G1 Z3.0F20000
(Plotting speed under)
G1 F4000

G1X95.9655Y-109.5878
G1X94.3995Y-113.6423
G1X92.4620Y-117.6441
G1X90.1981Y-121.5176
G1X87.6527Y-125.1874
G1X85.0021Y-128.4307
G1X82.2382Y-131.2944
G1X79.1225Y-134.0120
G1X75.6363Y-136.5898
G1X71.8316Y-138.9704
G1X69.8627Y-140.0001
G1 Z0F20000
(Start Block)

G1X97.0001Y-120.6128
G1 Z3.0F20000
(Plotting speed under)
G1 F4000

G1X95.6840Y-122.3096
G1X92.6383Y-125.7560
G1X91.0390Y-127.3379
G1X89.4607Y-128.7587
G1X87.7176Y-130.1861
G1X85.8833Y-131.5545
G1X81.9856Y-134.0914
G1X77.7648Y-136.3674
G1X75.5470Y-137.3904
G1X73.3974Y-138.2743
G1X71.2355Y-139.0578
G1X68.0629Y-140.0001
G1 Z0F20000
(Start Block)

G1X97.0001Y-120.5254
G1 Z3.0F20000
(Plotting speed under)
G1 F4000

G1X96.0570Y-121.7385
G1X94.5305Y-123.4564
G1X92.8426Y-125.1971
G1X89.2977Y-128.4179
G1X85.5040Y-131.3319
G1X83.4973Y-132.6791
G1X81.5435Y-133.8697
G1X79.5695Y-134.9537
G1X77.6599Y-135.8888
G1X73.5388Y-137.5643
G1X69.0863Y-138.9412
G1X64.2138Y-140.0001
G1 Z0F20000
(Start Block)

G1X97.0001Y-120.5173
G1 Z3.0F20000
(Plotting speed under)
G1 F4000

G1X95.5961Y-122.3391
G1X94.0332Y-124.1905
G1X92.3793Y-125.9865
G1X90.5708Y-127.7879
G1X88.6864Y-129.5073
G1X86.8166Y-131.0704
G1X84.8978Y-132.5377
G1X82.9403Y-133.8994
G1X81.0375Y-135.0959
G1X79.1027Y-136.1862
G1X77.0866Y-137.1990
G1X74.9026Y-138.1733
G1X72.6504Y-139.0595
G1X69.8528Y-140.0001
G1 Z0F20000
(Start Block)

G1X97.0001Y-119.9958
G1 Z3.0F20000
(Plotting speed under)
G1 F4000

G1X95.1316Y-122.2746
G1X91.9853Y-125.5237
G1X88.7392Y-128.3462
G1X87.0370Y-129.6313
G1X85.1661Y-130.9142
G1X81.2786Y-133.2256
G1X77.0694Y-135.2835
G1X72.7135Y-136.9927
G1X68.3031Y-138.3122
G1X66.1060Y-138.8131
G1X64.0154Y-139.1882
G1X61.7834Y-139.4803
G1X59.5036Y-139.6728
G1X54.8509Y-139.7635
G1X50.0572Y-139.4578
G1X45.4296Y-138.7774
G1X41.1569Y-137.7813
G1X37.0999Y-136.4470
G1X33.0106Y-134.6725
G1X28.9980Y-132.5118
G1X25.0582Y-129.9585
G1X21.3666Y-127.1123
G1X18.0772Y-124.0982
G1X16.6084Y-122.5571
G1X15.1418Y-120.8622
G1X13.7320Y-119.0696
G1X11.1069Y-115.2369
G1X9.8532Y-113.1304
G1X8.0000Y-109.5526
G1 Z0F20000
(Start Block)

G1X8.0000Y-61.7011
G1 Z3.0F20000
(Plotting speed under)
G1 F4000

G1X9.6411Y-59.3629
G1X11.2032Y-57.3559
G1X12.7736Y-55.5149
G1X14.4744Y-53.6996
G1X16.1610Y-52.0678
G1X17.9089Y-50.5413
G1X19.7629Y-49.0794
G1X21.7976Y-47.6283
G1X23.9232Y-46.2579
G1X26.1252Y-44.9758
G1X28.3887Y-43.7895
G1X30.6993Y-42.7066
G1X33.0420Y-41.7347
G1X35.4024Y-40.8814
G1X37.7656Y-40.1541
G1X40.0235Y-39.5816
G1X42.3117Y-39.1250
G1X44.6622Y-38.7746
G1X47.0604Y-38.5299
G1X49.4916Y-38.3905
G1X52.0436Y-38.3571
G1X54.5991Y-38.4371
G1X57.0403Y-38.6204
G1X59.4549Y-38.9076
G1X61.8283Y-39.2984
G1X64.1460Y-39.7923
G1X66.3019Y-40.3625
G1X68.4376Y-41.0413
G1X70.6691Y-41.8696
G1X72.8913Y-42.8132
G1X75.0916Y-43.8649
G1X77.3463Y-45.0673
G1X79.5492Y-46.3708
G1X81.6858Y-47.7669
G1X83.6613Y-49.1868
G1X85.5501Y-50.6772
G1X87.3392Y-52.2308
G1X89.0170Y-53.8410
G1X90.6204Y-55.5448
G1X92.1670Y-57.3551
G1X93.7096Y-59.3405
G1X95.1741Y-61.4140
G1X97.0001Y-64.3331
G1 Z0F20000
(Start Block)

G1X97.0001Y-107.1106
G1 Z3.0F20000
(Plotting speed under)
G1 F4000

G1X95.2904Y-109.3740
G1X93.7291Y-111.2465
G1X92.1023Y-113.0342
G1X90.4186Y-114.7256
G1X88.7594Y-116.2456
G1X87.0519Y-117.6657
G1X85.2501Y-119.0226
G1X83.3590Y-120.3160
G1X81.3028Y-121.5922
G1X79.1750Y-122.7873
G1X76.9887Y-123.8951
G1X74.7569Y-124.9096
G1X72.4926Y-125.8248
G1X70.2093Y-126.6345
G1X67.9197Y-127.3325
G1X65.6371Y-127.9129
G1X63.4598Y-128.3546
G1X61.2341Y-128.6939
G1X58.9586Y-128.9338
G1X56.5447Y-129.0789
G1X54.2070Y-129.1182
G1X51.7563Y-129.0558
G1X49.3083Y-128.8889
G1X46.8776Y-128.6183
G1X42.3204Y-127.8134
G1X40.1179Y-127.2716
G1X37.9821Y-126.6375
G1X35.9586Y-125.9285
G1X33.8438Y-125.0757
G1X31.7405Y-124.1157
G1X29.6598Y-123.0556
G1X27.5246Y-121.8499
G1X25.4384Y-120.5507
G1X23.4137Y-119.1658
G1X21.5427Y-117.7654
G1X19.6746Y-116.2355
G1X17.9767Y-114.7107
G1X16.3132Y-113.0661
G1X14.8089Y-111.4201
G1X13.2976Y-109.5948
G1X11.8523Y-107.6715
G1X10.4803Y-105.6632
G1X9.1887Y-103.5827
G1X8.0000Y-101.4701
G1 Z0F20000
(Start Block)

G1X8.0000Y-60.7210
G1 Z3.0F20000
(Plotting speed under)
G1 F4000

G1X10.1579Y-56.4858
G1X12.5834Y-52.6255
G1X15.3999Y-48.8628
G1X18.4263Y-45.4399
G1X21.6623Y-42.3497
G1X24.9240Y-39.7555
G1X28.5660Y-37.3536
G1X32.6566Y-35.1234
G1X37.0400Y-33.1843
G1X41.4354Y-31.6618
G1X43.6429Y-31.0531
G1X45.8415Y-30.5531
G1X47.9328Y-30.1800
G1X50.1628Y-29.8904
G1X54.6537Y-29.6094
G1X59.3361Y-29.7068
G1X64.0105Y-30.1857
G1X68.4781Y-31.0162
G1X72.6540Y-32.1678
G1X76.6606Y-33.6793
G1X80.6333Y-35.5824
G1X84.6754Y-37.9406
G1X88.5207Y-40.6220
G1X92.0108Y-43.5054
G1X93.6651Y-45.0619
G1X95.1525Y-46.5948
G1X97.0001Y-48.7330
G1 Z0F20000
(Start Block)

G1X66.1968Y-8.0000
G1 Z3.0F20000
(Plotting speed under)
G1 F4000

G1X67.6497Y-9.2239
G1X69.8917Y-11.3190
G1X72.0175Y-13.5206
G1X73.8793Y-15.6554
G1X75.6067Y-17.8518
G1X77.1837Y-20.0950
G1X78.5662Y-22.3171
G1X79.8967Y-24.7429
G1X81.1596Y-27.3673
G1X82.2605Y-29.9880
G1X83.2707Y-32.7698
G1X84.1413Y-35.5973
G1X84.8422Y-38.3490
G1X85.4160Y-41.1988
G1X85.8162Y-43.9289
G1X86.0532Y-46.5309
G1X86.1467Y-49.2803
G1X86.0890Y-52.0815
G1X85.8843Y-54.9124
G1X85.5217Y-57.8522
G1X84.9900Y-60.8760
G1X84.3042Y-63.8552
G1X83.4995Y-66.6673
G1X82.5600Y-69.3879
G1X81.5292Y-71.9048
G1X80.3443Y-74.3735
G1X78.9961Y-76.8189
G1X77.4991Y-79.2234
G1X75.8071Y-81.6517
G1X73.9871Y-83.9972
G1X72.1235Y-86.1648
G1X70.0988Y-88.2901
G1X68.0676Y-90.2081
G1X65.9761Y-91.9767
G1X63.8017Y-93.6056
G1X61.4019Y-95.1898
G1X58.8749Y-96.6598
G1X56.2448Y-98.0057
G1X53.5358Y-99.2176
G1X50.7721Y-100.2858
G1X47.9777Y-101.2003
G1X45.1769Y-101.9514
G1X42.3937Y-102.5291
G1X39.7138Y-102.9179
G1X36.8620Y-103.1571
G1X33.9511Y-103.2337
G1X31.0076Y-103.1506
G1X28.0575Y-102.9108
G1X25.0267Y-102.5009
G1X22.1442Y-101.9514
G1X19.3347Y-101.2542
G1X16.8077Y-100.4748
G1X14.3662Y-99.5644
G1X11.9367Y-98.4941
G1X9.4383Y-97.2242
G1X8.0000Y-96.3936
G1 Z0F20000
(Start Block)

G1X8.0000Y-60.5955
G1 Z3.0F20000
(Plotting speed under)
G1 F4000

G1X9.2639Y-58.9344
G1X10.8151Y-57.0783
G1X12.4610Y-55.2765
G1X14.1909Y-53.5390
G1X15.9943Y-51.8759
G1X17.8606Y-50.2973
G1X19.7792Y-48.8131
G1X21.7394Y-47.4335
G1X23.6472Y-46.2188
G1X25.5781Y-45.1160
G1X27.5805Y-44.0991
G1X29.7545Y-43.1215
G1X31.9061Y-42.2681
G1X34.2086Y-41.4682
G1X36.5558Y-40.7646
G1X38.9335Y-40.1611
G1X41.3278Y-39.6613
G1X45.9112Y-39.0071
G1X48.1750Y-38.8364
G1X50.3077Y-38.7747
G1X52.5427Y-38.8179
G1X54.8131Y-38.9687
G1X57.1065Y-39.2240
G1X59.5106Y-39.5985
G1X61.9118Y-40.0800
G1X64.2961Y-40.6649
G1X66.6492Y-41.3498
G1X68.9570Y-42.1312
G1X71.1128Y-42.9674
G1X73.2906Y-43.9276
G1X75.2960Y-44.9287
G1X77.2405Y-46.0223
G1X79.2486Y-47.2832
G1X81.1439Y-48.5978
G1X83.0806Y-50.0709
G1X84.9650Y-51.6378
G1X86.7862Y-53.2886
G1X88.5335Y-55.0134
G1X90.1960Y-56.8023
G1X91.6998Y-58.5678
G1X93.1064Y-60.3745
G1X94.4063Y-62.2136
G1X95.5998Y-64.0906
G1X97.0001Y-66.6006
G1 Z0F20000
(Start Block)

G1X97.0001Y-109.5394
G1 Z3.0F20000
(Plotting speed under)
G1 F4000

G1X95.2272Y-114.1940
G1X93.2969Y-118.1746
G1X91.2008Y-121.7060
G1X88.7395Y-125.1226
G1X85.7940Y-128.5587
G1X82.5382Y-131.7891
G1X79.0410Y-134.7496
G1X75.3713Y-137.3762
G1X71.8507Y-139.4699
G1X70.7480Y-140.0001
G1 Z0F20000
(Start Block)

G1X97.0001Y-119.9540
G1 Z3.0F20000
(Plotting speed under)
G1 F4000

G1X94.3886Y-123.5296
G1X92.8664Y-125.3490
G1X91.2869Y-127.0611
G1X89.6226Y-128.6910
G1X87.8494Y-130.2671
G1X85.9795Y-131.7816
G1X84.0249Y-133.2274
G1X81.9980Y-134.5967
G1X79.8227Y-135.9339
G1X77.5958Y-137.1716
G1X75.4222Y-138.2584
G1X73.2258Y-139.2383
G1X71.2836Y-140.0001
G1 Z0F20000
(Start Block)

G1X97.0001Y-119.3743
G1 Z3.0F20000
(Plotting speed under)
G1 F4000

G1X95.5341Y-121.1338
G1X93.9609Y-122.7799
G1X92.2954Y-124.3764
G1X88.7275Y-127.3916
G1X84.8264Y-130.1755
G1X80.8405Y-132.5487
G1X76.9478Y-134.4381
G1X72.9372Y-135.9505
G1X68.5902Y-137.1656
G1X63.9839Y-138.0494
G1X59.3132Y-138.5573
G1X54.7784Y-138.6772
G1X52.5046Y-138.5904
G1X50.3729Y-138.4116
G1X46.1238Y-137.7549
G1X41.6344Y-136.6512
G1X37.0948Y-135.1201
G1X32.7037Y-133.2199
G1X28.6472Y-131.0398
G1X25.0716Y-128.6868
G1X21.6805Y-125.9771
G1X18.3802Y-122.8424
G1X15.2467Y-119.3341
G1X12.4797Y-115.6795
G1X10.0709Y-111.8786
G1X8.0000Y-107.7832
G1 Z0F20000
(Start Block)

G1X8.0000Y-59.5872
G1 Z3.0F20000
(Plotting speed under)
G1 F4000

G1X9.4867Y-57.7202
G1X12.3845Y-54.5536
G1X13.9395Y-53.0770
G1X15.6625Y-51.5844
G1X19.3632Y-48.7819
G1X23.3300Y-46.2674
G1X27.4749Y-44.0940
G1X31.6171Y-42.3488
G1X33.6485Y-41.6480
G1X35.6879Y-41.0496
G1X40.0345Y-40.0950
G1X42.3280Y-39.7462
G1X44.7549Y-39.4831
G1X47.2016Y-39.3239
G1X49.6536Y-39.2691
G1X52.0963Y-39.3193
G1X54.4150Y-39.4665
G1X56.7972Y-39.7241
G1X59.0311Y-40.0712
G1X61.2095Y-40.5181
G1X63.3877Y-41.0772
G1X65.5739Y-41.7473
G1X67.7566Y-42.5226
G1X72.0649Y-44.3664
G1X74.2581Y-45.4713
G1X76.3086Y-46.6143
G1X80.1313Y-49.0669
G1X81.9658Y-50.4199
G1X83.6311Y-51.7701
G1X85.2184Y-53.1858
G1X86.8351Y-54.7680
G1X89.8490Y-58.1304
G1X92.7358Y-61.9480
G1X95.2439Y-65.9030
G1X97.0001Y-69.2646
G1 Z0F20000
(Start Block)

G1X97.0001Y-110.3228
G1 Z3.0F20000
(Plotting speed under)
G1 F4000

G1X94.9226Y-112.8777
G1X93.2716Y-114.6631
G1X89.7927Y-117.9751
G1X86.0569Y-120.9830
G1X84.0765Y-122.3787
G1X82.1459Y-123.6156
G1X80.1928Y-124.7454
G1X78.3046Y-125.7224
G1X76.2581Y-126.6611
G1X74.1374Y-127.5187
G1X69.7233Y-128.9795
G1X65.0615Y-130.1025
G1X60.4516Y-130.8175
G1X58.1603Y-131.0255
G1X55.8948Y-131.1301
G1X53.7632Y-131.1310
G1X51.6303Y-131.0314
G1X47.1854Y-130.5193
G1X44.8951Y-130.1045
G1X42.5093Y-129.5663
G1X40.1418Y-128.9246
G1X37.9029Y-128.2162
G1X35.6115Y-127.3834
G1X33.4715Y-126.4993
G1X31.3986Y-125.5347
G1X29.4053Y-124.4931
G1X27.5694Y-123.4192
G1X25.6748Y-122.1861
G1X23.8096Y-120.8461
G1X21.9833Y-119.4083
G1X18.4839Y-116.2760
G1X16.7590Y-114.5255
G1X15.1837Y-112.7857
G1X12.3568Y-109.2410
G1X11.0606Y-107.3751
G1X9.9258Y-105.5671
G1X8.0000Y-101.9648
G1 Z0F20000
(Start Block)

G1X8.0000Y-58.6471
G1 Z3.0F20000
(Plotting speed under)
G1 F4000

G1X9.5740Y-56.7720
G1X12.8756Y-53.4359
G1X16.3151Y-50.4931
G1X19.8154Y-47.9907
G1X23.5380Y-45.8205
G1X27.7280Y-43.8475
G1X32.1263Y-42.2095
G1X36.6357Y-40.9393
G1X38.9016Y-40.4524
G1X41.1587Y-40.0697
G1X45.4167Y-39.6425
G1X49.7546Y-39.6089
G1X54.2889Y-39.9608
G1X58.8277Y-40.6867
G1X63.2762Y-41.7699
G1X67.4476Y-43.1583
G1X71.2821Y-44.8208
G1X75.1011Y-46.9062
G1X78.9851Y-49.4807
G1X82.6789Y-52.3949
G1X86.1023Y-55.5844
G1X87.6875Y-57.2624
G1X89.1749Y-58.9851
G1X90.4969Y-60.6674
G1X91.7337Y-62.4035
G1X94.0754Y-66.2083
G1X96.1759Y-70.3735
G1X97.0001Y-72.4051
G1 Z0F20000
(Start Block)

G1X97.0001Y-112.5489
G1 Z3.0F20000
(Plotting speed under)
G1 F4000

G1X96.4661Y-113.8851
G1X94.4873Y-117.8078
G1X92.1040Y-121.7103
G1X89.4103Y-125.4254
G1X86.5277Y-128.8022
G1X83.4494Y-131.8532
G1X80.2293Y-134.5161
G1X76.6122Y-137.0178
G1X72.5592Y-139.3555
G1X71.1986Y-140.0001
G1 Z0F20000
(Start Block)

G1X97.0001Y-119.2320
G1 Z3.0F20000
(Plotting speed under)
G1 F4000

G1X94.7274Y-122.4745
G1X91.6739Y-126.1589
G1X88.3240Y-129.5822
G1X84.8278Y-132.6033
G1X83.0203Y-133.9683
G1X81.1832Y-135.2246
G1X79.2758Y-136.3974
G1X77.2828Y-137.4998
G1X73.0878Y-139.4768
G1X71.7690Y-140.0001
G1 Z0F20000
(Start Block)

G1X97.0001Y-118.2034
G1 Z3.0F20000
(Plotting speed under)
G1 F4000

G1X95.1657Y-120.3658
G1X91.9411Y-123.6021
G1X88.5275Y-126.5046
G1X85.0404Y-128.9702
G1X81.2613Y-131.1593
G1X77.0390Y-133.1504
G1X72.6334Y-134.8027
G1X68.1401Y-136.0812
G1X65.8905Y-136.5694
G1X63.6547Y-136.9509
G1X59.4042Y-137.3748
G1X54.9224Y-137.4159
G1X50.3647Y-137.0769
G1X45.7253Y-136.3521
G1X41.3018Y-135.2873
G1X37.1778Y-133.9197
G1X33.3451Y-132.2519
G1X29.4798Y-130.1490
G1X25.5646Y-127.5746
G1X21.8590Y-124.6772
G1X18.4450Y-121.5188
G1X16.8729Y-119.8612
G1X15.4661Y-118.2364
G1X14.1503Y-116.5643
G1X12.8370Y-114.7234
G1X10.4637Y-110.8806
G1X8.3404Y-106.6995
G1X8.0000Y-105.8666
G1 Z0F20000
(Start Block)

G1X8.0000Y-58.5863
G1 Z3.0F20000
(Plotting speed under)
G1 F4000

G1X10.1036Y-54.4661
G1X11.2870Y-52.4677
G1X12.5417Y-50.5445
G1X13.8623Y-48.7081
G1X15.1844Y-47.0411
G1X16.6623Y-45.3507
G1X18.2437Y-43.7028
G1X21.6757Y-40.5650
G1X23.5058Y-39.0905
G1X25.4818Y-37.6301
G1X29.4159Y-35.0860
G1X33.2961Y-33.0138
G1X37.1421Y-31.3766
G1X41.3781Y-30.0126
G1X45.8171Y-28.9877
G1X50.4665Y-28.3047
G1X55.0282Y-28.0072
G1X59.5079Y-28.0901
G1X63.7501Y-28.5541
G1X65.9792Y-28.9553
G1X70.4628Y-30.0697
G1X72.7903Y-30.8069
G1X77.2617Y-32.5367
G1X81.4462Y-34.5662
G1X85.2650Y-36.8399
G1X88.7222Y-39.3534
G1X92.1122Y-42.3077
G1X95.3745Y-45.6647
G1X97.0001Y-47.6328
G1 Z0F20000
(Start Block)

G1X64.7439Y-8.0000
G1 Z3.0F20000
(Plotting speed under)
G1 F4000

G1X67.6924Y-9.9890
G1X70.1130Y-11.8569
G1X72.2990Y-13.7681
G1X74.4667Y-15.9130
G1X76.6097Y-18.3010
G1X78.6385Y-20.8390
G1X80.5344Y-23.4999
G1X82.2791Y-26.2568
G1X83.8076Y-28.9934
G1X85.2005Y-31.8600
G1X86.3535Y-34.6522
G1X87.3263Y-37.5125
G1X88.1408Y-40.4908
G1X88.8124Y-43.6569
G1X89.3215Y-46.9852
G1X89.6406Y-50.3418
G1X89.7653Y-53.5896
G1X89.7094Y-56.6978
G1X89.4870Y-59.6416
G1X89.1084Y-62.4254
G1X88.5312Y-65.3328
G1X87.7451Y-68.3515
G1X86.7781Y-71.3567
G1X85.6422Y-74.3202
G1X84.3053Y-77.3052
G1X82.8144Y-80.1843
G1X81.1828Y-82.9262
G1X79.4804Y-85.4222
G1X77.6200Y-87.8006
G1X75.5018Y-90.1809
G1X73.2093Y-92.4639
G1X70.7696Y-94.6284
G1X68.1278Y-96.7136
G1X65.5556Y-98.5162
G1X62.9207Y-100.1476
G1X60.2475Y-101.5883
G1X57.6121Y-102.7988
G1X54.7519Y-103.8967
G1X51.6803Y-104.8636
G1X48.6216Y-105.6333
G1X45.4121Y-106.2497
G1X42.2845Y-106.6688
G1X39.1707Y-106.9072
G1X36.1019Y-106.9595
G1X33.1038Y-106.8198
G1X30.0812Y-106.4749
G1X27.0229Y-105.9292
G1X23.9595Y-105.1932
G1X20.8249Y-104.2449
G1X17.7518Y-103.1168
G1X14.8654Y-101.8633
G1X12.0995Y-100.4623
G1X9.4848Y-98.9245
G1X8.0000Y-97.9132
G1 Z0F20000
(Start Block)

G1X8.0000Y-57.4754
G1 Z3.0F20000
(Plotting speed under)
G1 F4000

G1X9.9534Y-55.3672
G1X13.3003Y-52.3319
G1X16.9406Y-49.5401
G1X20.8830Y-46.9952
G1X24.8753Y-44.8639
G1X28.7423Y-43.2095
G1X32.7432Y-41.9126
G1X37.0521Y-40.9116
G1X41.5911Y-40.2390
G1X46.0674Y-39.9347
G1X50.4911Y-39.9894
G1X54.6777Y-40.3993
G1X58.8105Y-41.1871
G1X63.1682Y-42.4139
G1X67.5660Y-44.0554
G1X71.7221Y-46.0030
G1X75.6440Y-48.2514
G1X79.0919Y-50.6479
G1X82.3289Y-53.3633
G1X85.4778Y-56.4926
G1X88.4055Y-59.9070
G1X91.0552Y-63.5366
G1X93.3705Y-67.3112
G1X95.2557Y-71.0728
G1X96.7960Y-74.9939
G1X97.0001Y-75.6792
G1 Z0F20000
(Start Block)

G1X97.0001Y-112.9339
G1 Z3.0F20000
(Plotting speed under)
G1 F4000

G1X95.1817Y-115.1440
G1X92.2070Y-118.2628
G1X88.9635Y-121.0924
G1X85.3062Y-123.7619
G1X81.2984Y-126.2081
G1X77.1072Y-128.3203
G1X72.9151Y-130.0163
G1X68.8084Y-131.2763
G1X64.5863Y-132.1566
G1X62.3049Y-132.4781
G1X59.8878Y-132.7121
G1X55.1005Y-132.8699
G1X52.6568Y-132.7970
G1X50.3331Y-132.6297
G1X47.9414Y-132.3535
G1X45.6941Y-131.9913
G1X43.5036Y-131.5338
G1X41.4452Y-130.9999
G1X37.2165Y-129.5862
G1X32.9387Y-127.7330
G1X28.7961Y-125.5163
G1X24.8791Y-122.9851
G1X21.3523Y-120.2518
G1X19.7631Y-118.8364
G1X18.2355Y-117.3407
G1X15.3191Y-114.0784
G1X12.5124Y-110.3505
G1X10.0083Y-106.3832
G1X8.0000Y-102.5270
G1 Z0F20000
(Start Block)

G1X8.0000Y-56.4728
G1 Z3.0F20000
(Plotting speed under)
G1 F4000

G1X11.1744Y-53.3582
G1X14.3436Y-50.7336
G1X17.7219Y-48.4077
G1X21.4698Y-46.2659
G1X25.4334Y-44.3980
G1X29.5349Y-42.8363
G1X33.6968Y-41.6126
G1X37.7456Y-40.7746
G1X41.8019Y-40.3028
G1X46.2011Y-40.1720
G1X50.6732Y-40.4026
G1X55.2291Y-41.0020
G1X59.5749Y-41.9337
G1X63.5400Y-43.1328
G1X67.3287Y-44.6537
G1X71.1666Y-46.5895
G1X74.9049Y-48.8649
G1X78.5551Y-51.4946
G1X81.8809Y-54.3102
G1X84.8987Y-57.3201
G1X87.5178Y-60.4388
G1X90.0299Y-64.0216
G1X92.2859Y-67.8722
G1X94.2869Y-72.0043
G1X95.9035Y-76.1531
G1X97.0001Y-79.8181
G1 Z0F20000
(Start Block)

G1X97.0001Y-114.7268
G1 Z3.0F20000
(Plotting speed under)
G1 F4000

G1X95.1777Y-118.3326
G1X92.8263Y-122.1448
G1X91.5844Y-123.8838
G1X90.2006Y-125.6383
G1X88.7115Y-127.3566
G1X87.1268Y-129.0307
G1X83.6323Y-132.2813
G1X79.8628Y-135.2467
G1X77.8587Y-136.6290
G1X75.9013Y-137.8590
G1X71.9166Y-140.0001
G1 Z0F20000
(Start Block)

G1X97.0001Y-118.0551
G1 Z3.0F20000
(Plotting speed under)
G1 F4000

G1X95.4675Y-120.5641
G1X94.1142Y-122.5405
G1X92.6924Y-124.4223
G1X91.2049Y-126.2009
G1X89.6122Y-127.9215
G1X87.9111Y-129.5926
G1X86.1133Y-131.2062
G1X84.1503Y-132.8169
G1X82.1912Y-134.2871
G1X80.0854Y-135.7306
G1X77.9263Y-137.0748
G1X75.8157Y-138.2634
G1X72.2218Y-140.0001
G1 Z0F20000
(Start Block)

G1X97.0001Y-116.8948
G1 Z3.0F20000
(Plotting speed under)
G1 F4000

G1X95.1535Y-119.0866
G1X93.6643Y-120.6218
G1X92.0066Y-122.1807
G1X88.5061Y-125.0680
G1X84.6462Y-127.7520
G1X80.6765Y-130.0637
G1X76.6872Y-131.9744
G1X72.6656Y-133.4914
G1X68.4989Y-134.6388
G1X64.1386Y-135.4500
G1X59.4697Y-135.9319
G1X54.7879Y-136.0327
G1X50.1947Y-135.7453
G1X47.9630Y-135.4539
G1X45.8699Y-135.0793
G1X43.6682Y-134.5764
G1X41.4571Y-133.9634
G1X37.0535Y-132.4290
G1X32.7524Y-130.5190
G1X28.6475Y-128.2766
G1X24.9908Y-125.8602
G1X21.7260Y-123.2590
G1X18.5689Y-120.2421
G1X15.5455Y-116.8241
G1X12.7292Y-113.0622
G1X10.3009Y-109.1989
G1X8.0000Y-104.6437
G1 Z0F20000
(Start Block)

G1X8.0000Y-55.6249
G1 Z3.0F20000
(Plotting speed under)
G1 F4000

G1X9.5499Y-52.6745
G1X11.9889Y-48.8960
G1X14.8496Y-45.1884
G1X18.0153Y-41.7151
G1X21.3428Y-38.6189
G1X23.1112Y-37.1755
G1X24.8353Y-35.8946
G1X28.4455Y-33.5853
G1X30.4552Y-32.4808
G1X32.6266Y-31.4089
G1X34.8604Y-30.4242
G1X37.1432Y-29.5319
G1X39.4615Y-28.7371
G1X41.7040Y-28.0716
G1X44.0526Y-27.4825
G1X46.2993Y-27.0235
G1X48.5299Y-26.6724
G1X50.6414Y-26.4410
G1X55.0615Y-26.2640
G1X59.6952Y-26.4770
G1X64.4473Y-27.0915
G1X69.0142Y-28.0673
G1X73.3048Y-29.3666
G1X77.2645Y-30.9633
G1X81.2314Y-32.9992
G1X85.1849Y-35.4710
G1X89.0350Y-38.3426
G1X90.8997Y-39.9234
G1X92.6083Y-41.5004
G1X94.2299Y-43.1307
G1X97.0001Y-46.3094
G1 Z0F20000
(Start Block)

G1X61.6768Y-8.0000
G1 Z3.0F20000
(Plotting speed under)
G1 F4000

G1X62.6722Y-8.4417
G1X66.0318Y-10.2649
G1X69.4092Y-12.4361
G1X72.7477Y-14.9358
G1X75.8341Y-17.6009
G1X78.7022Y-20.4484
G1X81.3024Y-23.4378
G1X83.5533Y-26.4781
G1X85.6547Y-29.8446
G1X87.5845Y-33.5214
G1X89.2615Y-37.3632
G1X90.6597Y-41.3051
G1X91.7304Y-45.1859
G1X92.4868Y-49.0405
G1X92.9151Y-52.8224
G1X93.0571Y-56.7260
G1X92.8981Y-60.9981
G1X92.4242Y-65.2676
G1X91.6444Y-69.4593
G1X90.5963Y-73.4042
G1X89.3381Y-76.9734
G1X87.7261Y-80.5794
G1X85.7520Y-84.2158
G1X83.4931Y-87.7342
G1X80.9906Y-91.0766
G1X78.2858Y-94.1847
G1X75.4913Y-96.9359
G1X72.5785Y-99.3659
G1X69.2296Y-101.7293
G1X65.6503Y-103.8655
G1X61.8133Y-105.7849
G1X57.9682Y-107.3635
G1X54.1852Y-108.5919
G1X50.5067Y-109.4685
G1X46.5953Y-110.0603
G1X42.5601Y-110.3511
G1X38.3679Y-110.3402
G1X34.1927Y-110.0200
G1X30.1091Y-109.3939
G1X26.1915Y-108.4654
G1X22.4866Y-107.2394
G1X18.7935Y-105.6726
G1X15.0819Y-103.7505
G1X11.5089Y-101.5474
G1X8.0000Y-98.9795
G1 Z0F20000
(Start Block)

G1X8.0000Y-55.4963
G1 Z3.0F20000
(Plotting speed under)
G1 F4000

G1X10.8260Y-52.9119
G1X14.2862Y-50.2038
G1X17.9125Y-47.7926
G1X21.5520Y-45.7742
G1X25.2729Y-44.1157
G1X29.3166Y-42.7201
G1X33.6425Y-41.6115
G1X38.0709Y-40.8416
G1X42.5130Y-40.4261
G1X46.5866Y-40.3716
G1X50.5524Y-40.6527
G1X54.6630Y-41.3024
G1X58.8958Y-42.3257
G1X63.0741Y-43.6847
G1X67.1184Y-45.3527
G1X70.9489Y-47.3027
G1X74.4170Y-49.4598
G1X77.8087Y-52.0135
G1X81.0567Y-54.9061
G1X84.1719Y-58.1524
G1X86.9546Y-61.5419
G1X89.3678Y-65.0000
G1X91.3817Y-68.4608
G1X93.0950Y-72.0922
G1X94.5839Y-76.0417
G1X95.8345Y-80.3470
G1X96.7305Y-84.6390
G1X97.0001Y-86.7309
G1 Z0F20000
(Start Block)

G1X97.0001Y-115.0508
G1 Z3.0F20000
(Plotting speed under)
G1 F4000

G1X95.7430Y-116.5816
G1X92.4824Y-119.9556
G1X88.9784Y-123.0382
G1X87.1572Y-124.4479
G1X85.3019Y-125.7581
G1X83.4213Y-126.9598
G1X81.5703Y-128.0218
G1X79.5507Y-129.0599
G1X77.4570Y-130.0203
G1X73.0962Y-131.6943
G1X68.4867Y-133.0394
G1X63.9241Y-133.9695
G1X59.6029Y-134.4748
G1X55.4238Y-134.5852
G1X50.9318Y-134.3038
G1X46.3957Y-133.6366
G1X41.8111Y-132.5773
G1X37.4734Y-131.1927
G1X33.4637Y-129.5256
G1X29.6775Y-127.5248
G1X27.7298Y-126.3196
G1X25.8136Y-125.0146
G1X22.1142Y-122.1388
G1X20.2754Y-120.5158
G1X18.5854Y-118.8930
G1X15.4563Y-115.4842
G1X12.8359Y-112.0711
G1X11.6586Y-110.2923
G1X10.4949Y-108.3439
G1X8.4337Y-104.3151
G1X8.0000Y-103.2603
G1 Z0F20000
(Start Block)

G1X8.0000Y-54.4774
G1 Z3.0F20000
(Plotting speed under)
G1 F4000

G1X11.2052Y-51.7377
G1X14.6968Y-49.2632
G1X18.4498Y-47.0339
G1X22.3889Y-45.0871
G1X26.4387Y-43.4598
G1X30.3340Y-42.2399
G1X34.1199Y-41.3892
G1X38.1321Y-40.8382
G1X42.3691Y-40.5958
G1X46.7590Y-40.6818
G1X51.0178Y-41.0888
G1X55.1690Y-41.8116
G1X59.0431Y-42.8189
G1X62.9200Y-44.1992
G1X66.7715Y-45.9379
G1X70.5304Y-47.9946
G1X74.2132Y-50.3876
G1X77.5028Y-52.9005
G1X80.5124Y-55.6009
G1X83.1704Y-58.4277
G1X85.7164Y-61.6191
G1X88.1633Y-65.2287
G1X90.3402Y-69.0363
G1X92.2052Y-72.9701
G1X93.7163Y-76.9586
G1X94.7997Y-80.7805
G1X95.5912Y-84.8691
G1X96.0689Y-89.0959
G1X96.2304Y-93.3834
G1X96.0737Y-97.6541
G1X95.6115Y-101.7331
G1X94.8637Y-105.5595
G1X93.7592Y-109.4333
G1X92.2379Y-113.4919
G1X90.3821Y-117.4734
G1X88.2296Y-121.3037
G1X85.8769Y-124.8281
G1X83.3754Y-127.9952
G1X80.7152Y-130.8336
G1X77.6856Y-133.5889
G1X74.3213Y-136.2123
G1X70.7556Y-138.5912
G1X68.2607Y-140.0001
G1 Z0F20000
(Start Block)

G1X97.0001Y-116.6245
G1 Z3.0F20000
(Plotting speed under)
G1 F4000

G1X96.2523Y-118.0409
G1X93.7407Y-121.9433
G1X90.8218Y-125.7466
G1X87.6835Y-129.2085
G1X86.0296Y-130.8180
G1X84.3296Y-132.3334
G1X82.5913Y-133.7449
G1X80.8776Y-135.0064
G1X77.1161Y-137.4017
G1X74.9920Y-138.5684
G1X72.0144Y-140.0001
G1 Z0F20000
(Start Block)

G1X8.0000Y-53.7141
G1 Z3.0F20000
(Plotting speed under)
G1 F4000

G1X8.6372Y-53.1297
G1X11.9886Y-50.4904
G1X15.3009Y-48.2699
G1X18.6048Y-46.4194
G1X22.1923Y-44.7842
G1X26.0781Y-43.3672
G1X30.2042Y-42.2056
G1X34.4023Y-41.3559
G1X38.5962Y-40.8370
G1X42.6135Y-40.6672
G1X46.6066Y-40.8445
G1X50.6826Y-41.3597
G1X54.7723Y-42.1942
G1X58.9025Y-43.3605
G1X62.8046Y-44.7841
G1X66.5076Y-46.4705
G1X69.8926Y-48.3682
G1X73.1836Y-50.5882
G1X76.5178Y-53.2348
G1X79.7440Y-56.2237
G1X82.6542Y-59.3612
G1X85.2690Y-62.6597
G1X87.4333Y-65.9024
G1X89.3285Y-69.3348
G1X91.0320Y-73.0863
G1X92.5033Y-77.1032
G1X93.6739Y-81.2228
G1X94.5039Y-85.2728
G1X94.9945Y-89.1853
G1X95.1555Y-93.0648
G1X94.9924Y-97.1490
G1X94.4956Y-101.3863
G1X93.6795Y-105.6022
G1X92.5584Y-109.7207
G1X91.2206Y-113.4828
G1X89.6292Y-117.0280
G1X87.7268Y-120.4704
G1X85.4591Y-123.9179
G1X82.8494Y-127.3075
G1X79.9979Y-130.4947
G1X76.9532Y-133.4205
G1X73.8412Y-135.9676
G1X70.5513Y-138.2213
G1X67.4445Y-140.0001
G1 Z0F20000
(Start Block)

G1X8.0000Y-52.8207
G1 Z3.0F20000
(Plotting speed under)
G1 F4000

G1X11.4817Y-50.2218
G1X15.0207Y-47.9884
G1X18.8048Y-45.9742
G1X22.6822Y-44.2758
G1X26.4924Y-42.9601
G1X30.2660Y-42.0080
G1X34.3092Y-41.3303
G1X38.4620Y-40.9551
G1X42.7535Y-40.8863
G1X46.9051Y-41.1289
G1X50.8494Y-41.6622
G1X54.5462Y-42.4697
G1X58.3246Y-43.6281
G1X62.2733Y-45.1863
G1X66.1342Y-47.0595
G1X69.8377Y-49.2116
G1X73.2346Y-51.5474
G1X76.2784Y-54.0176
G1X79.0258Y-56.6566
G1X81.6942Y-59.6540
G1X84.2330Y-62.9740
G1X86.5327Y-66.4848
G1X88.5524Y-70.1263
G1X90.2139Y-73.7471
G1X91.5393Y-77.3970
G1X92.6004Y-81.3106
G1X93.3876Y-85.4831
G1X93.8642Y-89.7445
G1X94.0227Y-94.0178
G1X93.8713Y-98.0280
G1X93.4334Y-101.8174
G1X92.6646Y-105.6497
G1X91.5696Y-109.5115
G1X90.1364Y-113.4359
G1X88.3714Y-117.3520
G1X86.3874Y-121.0056
G1X84.1743Y-124.4254
G1X81.8051Y-127.4959
G1X79.1393Y-130.4228
G1X76.2025Y-133.1989
G1X72.9655Y-135.8450
G1X69.5546Y-138.2457
G1X66.6285Y-140.0001
G1 Z0F20000
(Start Block)

G1X8.0000Y-52.3484
G1 Z3.0F20000
(Plotting speed under)
G1 F4000

G1X10.2809Y-48.4353
G1X11.5769Y-46.4998
G1X13.0016Y-44.5616
G1X14.4299Y-42.7940
G1X15.9137Y-41.1260
G1X17.4750Y-39.5356
G1X19.1383Y-37.9924
G1X20.8930Y-36.5034
G1X22.7284Y-35.0756
G1X24.7182Y-33.6583
G1X26.7722Y-32.3230
G1X28.8782Y-31.0776
G1X33.0161Y-28.9705
G1X37.1243Y-27.3100
G1X39.1466Y-26.6526
G1X41.3257Y-26.0551
G1X45.7504Y-25.1500
G1X50.5129Y-24.5842
G1X55.3131Y-24.4145
G1X59.9435Y-24.6401
G1X62.2017Y-24.9007
G1X64.4049Y-25.2610
G1X66.5951Y-25.7294
G1X68.8951Y-26.3352
G1X71.1012Y-27.0226
G1X73.3929Y-27.8457
G1X75.6611Y-28.7712
G1X77.8927Y-29.7931
G1X82.1073Y-32.0515
G1X84.0709Y-33.2699
G1X85.9541Y-34.5558
G1X87.7454Y-35.9042
G1X89.3876Y-37.2669
G1X91.0665Y-38.7951
G1X92.7000Y-40.4199
G1X94.2803Y-42.1312
G1X97.0001Y-45.4568
G1 Z0F20000
(Start Block)

G1X55.2503Y-8.0000
G1 Z3.0F20000
(Plotting speed under)
G1 F4000

G1X59.7683Y-9.3892
G1X63.8410Y-11.0206
G1X67.6882Y-12.9000
G1X71.3369Y-15.0321
G1X74.6413Y-17.3292
G1X77.7241Y-19.8810
G1X80.7441Y-22.8168
G1X83.5798Y-26.0210
G1X86.2439Y-29.5179
G1X88.5651Y-33.0848
G1X90.5188Y-36.6543
G1X92.1008Y-40.1988
G1X93.4216Y-43.9387
G1X94.5303Y-48.0407
G1X95.3575Y-52.3501
G1X95.8600Y-56.6921
G1X96.0246Y-60.8887
G1X95.8621Y-64.8745
G1X95.3596Y-68.8663
G1X94.5015Y-73.0015
G1X93.2886Y-77.2094
G1X91.7638Y-81.3150
G1X89.9990Y-85.1529
G1X88.0376Y-88.6663
G1X85.8056Y-91.9725
G1X83.1070Y-95.3251
G1X80.1015Y-98.5064
G1X76.8508Y-101.4604
G1X73.4163Y-104.1313
G1X70.0270Y-106.3632
G1X66.6197Y-108.2214
G1X62.8850Y-109.8680
G1X58.8582Y-111.2753
G1X54.6045Y-112.4039
G1X50.4004Y-113.1824
G1X46.2250Y-113.6220
G1X42.2399Y-113.7064
G1X38.1039Y-113.4283
G1X33.9058Y-112.7968
G1X29.6245Y-111.8060
G1X25.5379Y-110.5232
G1X21.7139Y-108.9907
G1X18.2101Y-107.2476
G1X14.8805Y-105.2173
G1X11.5600Y-102.8007
G1X8.0000Y-99.7169
G1 Z0F20000
(Start Block)

G1X8.0000Y-52.1376
G1 Z3.0F20000
(Plotting speed under)
G1 F4000

G1X8.9329Y-51.3717
G1X12.1508Y-49.1256
G1X15.5260Y-47.1711
G1X19.1420Y-45.4452
G1X22.9352Y-43.9676
G1X26.9400Y-42.7323
G1X30.8950Y-41.8203
G1X34.8322Y-41.2186
G1X38.5104Y-40.9522
G1X42.3566Y-40.9845
G1X46.4790Y-41.3369
G1X50.6119Y-42.0023
G1X54.6839Y-42.9666
G1X58.5294Y-44.1821
G1X62.0940Y-45.6161
G1X65.3969Y-47.2665
G1X68.8149Y-49.3257
G1X72.1302Y-51.6771
G1X75.3673Y-54.3451
G1X78.3151Y-57.1555
G1X81.0027Y-60.1274
G1X83.3786Y-63.2182
G1X85.4985Y-66.5162
G1X87.4485Y-70.1453
G1X89.1463Y-73.9597
G1X90.5653Y-77.8924
G1X91.6557Y-81.7793
G1X92.4306Y-85.6529
G1X92.8668Y-89.4083
G1X93.0079Y-93.2810
G1X92.8489Y-97.4327
G1X92.3834Y-101.5965
G1X91.6201Y-105.7009
G1X90.5678Y-109.6743
G1X89.3420Y-113.1779
G1X87.7944Y-116.6678
G1X85.8876Y-120.2045
G1X83.6960Y-123.6441
G1X81.1946Y-127.0119
G1X78.5453Y-130.0882
G1X75.7290Y-132.9029
G1X72.8468Y-135.3546
G1X69.5577Y-137.7164
G1X65.7546Y-140.0001
G1 Z0F20000
(Start Block)

G1X8.0000Y-51.5418
G1 Z3.0F20000
(Plotting speed under)
G1 F4000

G1X8.8489Y-50.8918
G1X12.2656Y-48.6425
G1X15.8083Y-46.6583
G1X19.3299Y-45.0151
G1X22.7855Y-43.7206
G1X26.3859Y-42.6906
G1X30.4360Y-41.8594
G1X34.5872Y-41.3253
G1X38.7670Y-41.0949
G1X42.9026Y-41.1749
G1X46.7295Y-41.5451
G1X50.3621Y-42.1956
G1X54.2190Y-43.2064
G1X58.0605Y-44.5270
G1X61.9170Y-46.1739
G1X65.5371Y-48.0393
G1X68.9539Y-50.1331
G1X72.0304Y-52.3687
G1X74.9934Y-54.9238
G1X77.8194Y-57.7719
G1X80.4673Y-60.8605
G1X82.9536Y-64.2205
G1X85.1150Y-67.6341
G1X86.9316Y-71.0405
G1X88.4009Y-74.4130
G1X89.6565Y-78.0599
G1X90.6834Y-81.9678
G1X91.4504Y-86.0809
G1X91.9169Y-90.2322
G1X92.0713Y-94.2512
G1X91.9256Y-98.0767
G1X91.4875Y-101.7479
G1X90.7310Y-105.5701
G1X89.6536Y-109.4904
G1X88.2926Y-113.3480
G1X86.6704Y-117.0800
G1X84.8584Y-120.5375
G1X82.8385Y-123.7590
G1X80.5453Y-126.8278
G1X77.8954Y-129.8605
G1X74.9932Y-132.7326
G1X71.8883Y-135.3993
G1X68.6306Y-137.8159
G1X65.1435Y-140.0001
G1 Z0F20000
(Start Block)

G1X8.0000Y-50.9137
G1 Z3.0F20000
(Plotting speed under)
G1 F4000

G1X8.7243Y-50.3767
G1X11.9930Y-48.3390
G1X15.5734Y-46.4677
G1X19.4173Y-44.8051
G1X23.3702Y-43.4274
G1X27.2669Y-42.3834
G1X30.9476Y-41.6888
G1X34.5194Y-41.3023
G1X38.4020Y-41.1836
G1X42.3559Y-41.3523
G1X46.4202Y-41.8154
G1X50.3281Y-42.5419
G1X54.1191Y-43.5317
G1X57.7311Y-44.7771
G1X61.1286Y-46.2678
G1X64.5779Y-48.1070
G1X67.9390Y-50.2230
G1X71.2416Y-52.6425
G1X74.2686Y-55.2069
G1X77.0536Y-57.9369
G1X79.4874Y-60.7227
G1X81.7067Y-63.7148
G1X83.8497Y-67.1124
G1X85.8112Y-70.7967
G1X87.5039Y-74.6208
G1X88.8667Y-78.4241
G1X89.8932Y-82.1430
G1X90.5884Y-85.7580
G1X91.0168Y-89.5989
G1X91.1656Y-93.6424
G1X91.0235Y-97.7250
G1X90.5944Y-101.7801
G1X89.8819Y-105.7407
G1X88.9179Y-109.4476
G1X87.6653Y-113.0328
G1X86.0978Y-116.6043
G1X84.1965Y-120.2011
G1X82.0326Y-123.6745
G1X79.7038Y-126.8878
G1X77.1917Y-129.8769
G1X74.5978Y-132.5245
G1X71.7842Y-134.9721
G1X68.5573Y-137.3759
G1X65.1157Y-139.5702
G1X64.3233Y-140.0001
G1 Z0F20000
(Start Block)

G1X8.0000Y-50.5689
G1 Z3.0F20000
(Plotting speed under)
G1 F4000

G1X9.4116Y-49.5803
G1X12.7834Y-47.5640
G1X16.1266Y-45.8900
G1X19.4611Y-44.5380
G1X23.0728Y-43.3831
G1X26.9229Y-42.4511
G1X30.9580Y-41.7717
G1X34.9132Y-41.3891
G1X38.8266Y-41.2926
G1X42.6363Y-41.4921
G1X46.4168Y-42.0047
G1X50.2445Y-42.8273
G1X54.0605Y-43.9389
G1X57.9002Y-45.3569
G1X61.5114Y-46.9890
G1X64.9320Y-48.8462
G1X68.0299Y-50.8550
G1X70.9903Y-53.1283
G1X73.9872Y-55.8097
G1X76.8178Y-58.7377
G1X79.5001Y-61.9426
G1X81.8579Y-65.2172
G1X83.8199Y-68.4173
G1X85.4500Y-71.6066
G1X86.9000Y-75.0786
G1X88.1508Y-78.8155
G1X89.1474Y-82.6685
G1X89.8756Y-86.5772
G1X90.3216Y-90.4812
G1X90.4712Y-94.3201
G1X90.3190Y-98.0053
G1X89.8739Y-101.7625
G1X89.1286Y-105.6466
G1X88.1075Y-109.5000
G1X86.8272Y-113.2629
G1X85.3463Y-116.7853
G1X83.6507Y-120.1099
G1X81.7675Y-123.1799
G1X79.4845Y-126.3379
G1X76.8681Y-129.4514
G1X74.0196Y-132.3901
G1X70.9856Y-135.1063
G1X67.9741Y-137.4367
G1X64.8771Y-139.4822
G1X63.9379Y-140.0001
G1 Z0F20000
(Start Block)

G1X8.0000Y-50.1879
G1 Z3.0F20000
(Plotting speed under)
G1 F4000

G1X8.7309Y-49.6932
G1X12.1630Y-47.7148
G1X15.8449Y-45.9264
G1X19.5345Y-44.4447
G1X23.2653Y-43.2488
G1X26.8862Y-42.3838
G1X30.5534Y-41.8141
G1X34.4512Y-41.5106
G1X38.4233Y-41.4880
G1X42.4070Y-41.7426
G1X46.3397Y-42.2708
G1X50.0629Y-43.0448
G1X53.5293Y-44.0412
G1X57.0079Y-45.3466
G1X60.5538Y-46.9902
G1X64.1104Y-48.9616
G1X67.5296Y-51.1869
G1X70.6769Y-53.5671
G1X73.5159Y-56.0548
G1X76.0253Y-58.6150
G1X78.4248Y-61.4809
G1X80.6589Y-64.5832
G1X82.8008Y-68.0494
G1X84.6955Y-71.6637
G1X86.3102Y-75.3680
G1X87.5837Y-79.0105
G1X88.5197Y-82.5711
G1X89.2046Y-86.3749
G1X89.6169Y-90.2978
G1X89.7559Y-94.2777
G1X89.6209Y-98.2527
G1X89.2111Y-102.1608
G1X88.5471Y-105.8452
G1X87.6072Y-109.4134
G1X86.2927Y-113.1766
G1X84.6728Y-116.9004
G1X82.7789Y-120.5258
G1X80.6423Y-123.9937
G1X78.4165Y-127.0885
G1X76.0270Y-129.9372
G1X73.4939Y-132.5144
G1X70.6324Y-135.0250
G1X67.4714Y-137.4255
G1X63.4460Y-140.0001
G1 Z0F20000
(Start Block)

G1X8.0000Y-49.9868
G1 Z3.0F20000
(Plotting speed under)
G1 F4000

G1X9.3709Y-49.0775
G1X12.6000Y-47.2731
G1X15.9861Y-45.7229
G1X19.6628Y-44.3655
G1X23.4831Y-43.2586
G1X27.3857Y-42.4161
G1X31.2091Y-41.8628
G1X34.9961Y-41.5864
G1X38.5963Y-41.5958
G1X42.2100Y-41.8871
G1X46.0762Y-42.4880
G1X49.9427Y-43.3736
G1X53.7496Y-44.5271
G1X57.4374Y-45.9316
G1X60.8591Y-47.5253
G1X63.9846Y-49.2809
G1X67.0902Y-51.3606
G1X70.1805Y-53.7789
G1X73.1288Y-56.4416
G1X75.8908Y-59.3053
G1X78.4222Y-62.3265
G1X80.6788Y-65.4618
G1X82.5393Y-68.5242
G1X84.2356Y-71.8755
G1X85.7167Y-75.4135
G1X86.9956Y-79.1810
G1X88.0123Y-83.0280
G1X88.7337Y-86.7962
G1X89.1725Y-90.5286
G1X89.3146Y-94.1117
G1X89.1746Y-97.8756
G1X88.7426Y-101.7964
G1X88.0311Y-105.7157
G1X87.0810Y-109.4752
G1X85.8893Y-113.1195
G1X84.5080Y-116.5038
G1X82.9014Y-119.7129
G1X81.0141Y-122.8641
G1X78.6875Y-126.1790
G1X76.1058Y-129.3490
G1X73.3123Y-132.3232
G1X70.4263Y-134.9859
G1X67.4987Y-137.3097
G1X64.5143Y-139.3187
G1X63.3169Y-140.0001
G1 Z0F20000
(Start Block)

G1X8.0000Y-49.9194
G1 Z3.0F20000
(Plotting speed under)
G1 F4000

G1X10.5940Y-48.3857
G1X13.5845Y-46.8453
G1X16.6364Y-45.4951
G1X19.7168Y-44.3535
G1X22.7000Y-43.4628
G1 Z0F20000
(Start Block)

G1X8.0000Y-44.2246
G1 Z3.0F20000
(Plotting speed under)
G1 F4000

G1X10.6549Y-40.4551
G1X12.1735Y-38.5687
G1X13.6899Y-36.8484
G1X15.3282Y-35.1565
G1X16.9508Y-33.6393
G1X18.7440Y-32.1208
G1X20.6383Y-30.6646
G1X22.6211Y-29.2777
G1X24.6800Y-27.9671
G1X26.8021Y-26.7399
G1X28.9750Y-25.6032
G1X31.1859Y-24.5640
G1X33.4224Y-23.6294
G1X37.6407Y-22.1837
G1X39.6961Y-21.6333
G1X41.8872Y-21.1563
G1X44.1354Y-20.7733
G1X46.5286Y-20.4739
G1X51.3009Y-20.1849
G1X56.0970Y-20.2906
G1X58.5205Y-20.4971
G1X60.8095Y-20.7919
G1X63.0527Y-21.1819
G1X65.1440Y-21.6440
G1X67.2921Y-22.2266
G1X69.4485Y-22.9203
G1X71.6967Y-23.7564
G1X73.9308Y-24.7008
G1X76.1381Y-25.7466
G1X78.3955Y-26.9368
G1X80.5964Y-28.2226
G1X82.6428Y-29.5397
G1X84.6116Y-30.9314
G1X86.4904Y-32.3908
G1X88.2665Y-33.9114
G1X89.8847Y-35.4409
G1X91.4572Y-37.0724
G1X93.0433Y-38.8735
G1X94.5657Y-40.7637
G1X97.0001Y-44.1890
G1 Z0F20000
(Start Block)

G1X8.0000Y-48.3582
G1 Z3.0F20000
(Plotting speed under)
G1 F4000

G1X9.7060Y-45.6480
G1X11.0393Y-43.7897
G1X12.4710Y-41.9681
G1X14.0602Y-40.1164
G1X15.7365Y-38.3252
G1X17.4898Y-36.6049
G1X19.3097Y-34.9658
G1X21.1068Y-33.4810
G1X22.9467Y-32.0896
G1X24.8205Y-30.8007
G1X26.7188Y-29.6238
G1X28.6758Y-28.5392
G1X30.8070Y-27.4867
G1X33.0155Y-26.5191
G1X35.2876Y-25.6407
G1X37.7068Y-24.8249
G1X40.1644Y-24.1151
G1X42.5451Y-23.5380
G1X44.9329Y-23.0670
G1X47.3138Y-22.7066
G1X49.5764Y-22.4686
G1X51.8075Y-22.3397
G1X54.0423Y-22.3195
G1X56.3153Y-22.4038
G1X58.7146Y-22.6005
G1X61.1281Y-22.9053
G1X63.5418Y-23.3154
G1X65.9417Y-23.8278
G1X70.5482Y-25.1164
G1X72.8255Y-25.9143
G1X74.9434Y-26.7642
G1X76.9854Y-27.6949
G1X78.9620Y-28.7139
G1X80.9221Y-29.8430
G1X82.8588Y-31.0755
G1X84.8444Y-32.4631
G1X86.7835Y-33.9452
G1X88.6652Y-35.5127
G1X90.4788Y-37.1564
G1X92.2136Y-38.8672
G1X93.8588Y-40.6359
G1X95.4036Y-42.4535
G1X97.0001Y-44.5440
G1 Z0F20000
(Start Block)

G1X8.0000Y-39.4780
G1 Z3.0F20000
(Plotting speed under)
G1 F4000

G1X9.6058Y-37.4051
G1X11.1675Y-35.5906
G1X12.8279Y-33.8271
G1X14.5762Y-32.1241
G1X16.4792Y-30.4251
G1X18.3734Y-28.8759
G1X20.3227Y-27.4165
G1X22.3163Y-26.0565
G1X24.2584Y-24.8555
G1X26.2218Y-23.7630
G1X28.2117Y-22.7794
G1X30.2789Y-21.8767
G1X32.5115Y-21.0207
G1X34.8078Y-20.2556
G1X37.1536Y-19.5847
G1X39.5352Y-19.0112
G1X41.9386Y-18.5383
G1X44.3498Y-18.1692
G1X46.7550Y-17.9073
G1X49.0414Y-17.7597
G1X51.2973Y-17.7163
G1X53.5171Y-17.7798
G1X55.7581Y-17.9510
G1X58.1243Y-18.2412
G1X60.5057Y-18.6417
G1X62.8884Y-19.1488
G1X65.3573Y-19.7861
G1X67.7007Y-20.4987
G1X70.0991Y-21.3420
G1X72.3465Y-22.2444
G1X74.5263Y-23.2340
G1X76.6246Y-24.3071
G1X78.5528Y-25.4137
G1X80.5306Y-26.6806
G1X82.4792Y-28.0617
G1X84.3886Y-29.5473
G1X86.2486Y-31.1275
G1X88.0491Y-32.7923
G1X89.7800Y-34.5320
G1X91.4312Y-36.3366
G1X92.9925Y-38.1964
G1X94.3950Y-40.0213
G1X95.7510Y-41.9606
G1X97.0001Y-43.9528
G1 Z0F20000
(Start Block)

G1X8.0000Y-34.6690
G1 Z3.0F20000
(Plotting speed under)
G1 F4000

G1X10.1325Y-32.1654
G1X13.2299Y-29.0371
G1X14.8430Y-27.6087
G1X16.4995Y-26.2747
G1X20.1479Y-23.7275
G1X24.1830Y-21.3957
G1X28.4360Y-19.3822
G1X32.8148Y-17.7308
G1X37.1321Y-16.5078
G1X39.2287Y-16.0636
G1X41.4252Y-15.7063
G1X43.6759Y-15.4460
G1X46.0688Y-15.2770
G1X50.8327Y-15.2468
G1X53.2775Y-15.3835
G1X55.7119Y-15.6219
G1X58.1219Y-15.9613
G1X60.3955Y-16.3806
G1X64.6939Y-17.4645
G1X68.7341Y-18.8863
G1X72.9322Y-20.7911
G1X77.0279Y-23.0740
G1X80.9366Y-25.6829
G1X84.5739Y-28.5650
G1X87.7882Y-31.5986
G1X90.7000Y-34.9070
G1X92.1057Y-36.7338
G1X93.5045Y-38.7229
G1X96.0158Y-42.8163
G1X97.0001Y-44.7609
G1 Z0F20000
(Start Block)

G1X8.0000Y-29.4344
G1 Z3.0F20000
(Plotting speed under)
G1 F4000

G1X10.2740Y-27.1189
G1X13.7306Y-24.1259
G1X17.5174Y-21.3468
G1X21.3932Y-18.9620
G1X25.3629Y-16.9664
G1X29.3489Y-15.4048
G1X33.6716Y-14.1329
G1X38.1609Y-13.2005
G1X42.7239Y-12.6229
G1X47.1675Y-12.4156
G1X51.4089Y-12.5682
G1X55.5640Y-13.0890
G1X59.8744Y-14.0048
G1X64.2683Y-15.3130
G1X68.6540Y-17.0066
G1X72.7512Y-18.9806
G1X76.4880Y-21.1840
G1X79.9670Y-23.6833
G1X83.3871Y-26.6160
G1X86.6124Y-29.8653
G1X89.5814Y-33.3629
G1X92.1775Y-36.9571
G1X94.4121Y-40.6592
G1X96.2527Y-44.4305
G1X97.0001Y-46.3599
G1 Z0F20000
(Start Block)

G1X8.0000Y-24.0525
G1 Z3.0F20000
(Plotting speed under)
G1 F4000

G1X8.5460Y-23.4997
G1X11.7996Y-20.6966
G1X15.1091Y-18.3110
G1X18.6706Y-16.1835
G1X22.5659Y-14.2579
G1X26.6374Y-12.6178
G1X30.8088Y-11.2937
G1X34.9063Y-10.3345
G1X38.8608Y-9.7436
G1X42.9752Y-9.4856
G1X47.4066Y-9.5681
G1X51.8768Y-10.0015
G1X56.2993Y-10.7750
G1X60.5878Y-11.8781
G1X64.4769Y-13.2289
G1X68.2226Y-14.9046
G1X72.0068Y-16.9798
G1X75.6751Y-19.3725
G1X79.1619Y-22.0357
G1X82.4022Y-24.9228
G1X85.2664Y-27.9140
G1X87.8280Y-31.0930
G1X90.2889Y-34.7349
G1X92.4923Y-38.6277
G1X94.4009Y-42.6941
G1X95.9773Y-46.8565
G1X97.0001Y-50.3744
G1 Z0F20000
(Start Block)

G1X8.0000Y-18.4617
G1 Z3.0F20000
(Plotting speed under)
G1 F4000

G1X11.9314Y-15.5263
G1X15.5760Y-13.2530
G1X19.2546Y-11.3221
G1X22.9922Y-9.7168
G1X26.7670Y-8.4609
G1X28.6625Y-8.0000
G1 Z0F20000
(Start Block)

G1X8.0000Y-12.7110
G1 Z3.0F20000
(Plotting speed under)
G1 F4000

G1X9.1948Y-11.8370
G1X12.4187Y-9.8574
G1X16.0919Y-8.0000
G1 Z0F20000

G00 X0.0000 Y0.0000

