$H
G21
G17
G90
G1 Z0F20000
G1 F15000

(Start Layer)

(Start Block)


G1X33.0221Y-52.5526
G1Z5F20000
(Plotting speed under)
G1 F4000


G1X30.2295Y-47.0745

G1X29.0490Y-37.7333

G1X30.2746Y-32.0480

G1X42.0701Y-18.8462

G1X52.6317Y-16.5164

G1X57.3217Y-17.1099

G1X60.9994Y-18.3923

G1X64.6719Y-20.2820

G1X72.0640Y-27.3792

G1X75.4938Y-35.4037

G1X75.9938Y-38.7894

G1X33.1540Y-54.0672

G1X30.3177Y-48.6502

G1X29.0264Y-39.3581

G1X30.1655Y-33.6908

G1X41.7358Y-20.3371

G1X52.2225Y-17.8409

G1X56.8866Y-18.3469

G1X60.5201Y-19.5371

G1X64.2018Y-21.3306

G1X71.7355Y-28.2289

G1X75.3519Y-36.1356

G1X75.9341Y-39.4753

G1X33.5462Y-55.9369

G1X30.5633Y-50.6323

G1X28.9877Y-41.4140

G1X29.9358Y-35.7432

G1X41.0319Y-22.0357

G1X51.3943Y-19.1887

G1X56.0410Y-19.5270

G1X59.6543Y-20.5678

G1X63.3749Y-22.2053

G1X71.1595Y-28.7774

G1X75.0882Y-36.5046

G1X75.8035Y-39.7917

G1X34.1840Y-58.0838

G1X30.9725Y-52.9384

G1X28.9731Y-43.8244

G1X29.6450Y-38.1384

G1X40.0511Y-23.9351

G1X50.2363Y-20.5952

G1X54.8682Y-20.7034

G1X58.4805Y-21.5527

G1X62.2590Y-22.9884

G1X70.3637Y-29.1300

G1X74.6908Y-36.6211

G1X75.5753Y-39.8487

G1X35.0336Y-60.3973

G1X31.5407Y-55.4511

G1X29.0242Y-46.4778

G1X29.3618Y-40.7766

G1X38.9141Y-26.0102

G1X48.8695Y-22.0908

G1X53.4823Y-21.9291

G1X57.1065Y-22.5615

G1X60.9499Y-23.7667

G1X69.3999Y-29.4059

G1X74.1662Y-36.6157

G1X75.2388Y-39.7773

G1X36.0361Y-62.7595

G1X32.2405Y-58.0409

G1X29.1664Y-49.2440

G1X29.1416Y-43.5370

G1X37.7449Y-28.2117

G1X47.4270Y-23.6849

G1X52.0125Y-23.2379

G1X55.6550Y-23.6444

G1X59.5604Y-24.6089

G1X68.3423Y-29.7131

G1X73.5462Y-36.6147

G1X74.8092Y-39.7060

G1X37.1126Y-65.0684

G1X33.0213Y-60.5907

G1X29.3976Y-51.9964

G1X29.0122Y-46.2974

G1X36.6472Y-30.4708

G1X46.0310Y-25.3602

G1X50.5806Y-24.6349

G1X54.2430Y-24.8217

G1X58.2013Y-25.5525

G1X67.2755Y-30.1297

G1X72.8818Y-36.7186

G1X74.3241Y-39.7389

G1X38.1785Y-67.2555

G1X33.8190Y-63.0151

G1X29.6922Y-54.6339

G1X28.9719Y-48.9556

G1X35.6890Y-32.7139

G1X44.7723Y-27.0802

G1X49.2793Y-26.1011

G1X52.9518Y-26.0858

G1X56.9443Y-26.6006

G1X66.2536Y-30.6803

G1X72.2080Y-36.9571

G1X73.8077Y-39.8947

G1X39.2184Y-69.3285

G1X34.6301Y-65.3342

G1X30.0445Y-57.1963

G1X29.0062Y-51.5744

G1X34.7967Y-34.9958

G1X43.5329Y-28.8719

G1X47.9583Y-27.6448

G1X51.5864Y-27.4232

G1X55.5838Y-27.7056

G1X65.1008Y-31.2304

G1X71.4041Y-37.1374

G1X73.1651Y-39.9651

G1X40.4184Y-71.4162

G1X35.5970Y-67.7134

G1X30.5185Y-59.8788

G1X29.1298Y-54.3414

G1X33.8653Y-37.4464

G1X42.1859Y-30.7976

G1X46.5098Y-29.2996

G1X50.0864Y-28.8531

G1X54.0790Y-28.8808

G1X63.7905Y-31.7875

G1X70.4526Y-37.2726

G1X72.3838Y-39.9752

G1X41.7653Y-73.4831

G1X36.7085Y-70.1060

G1X31.1194Y-62.6252

G1X29.3610Y-57.1962

G1X32.9533Y-40.0311

G1X40.8014Y-32.8506

G1X45.0050Y-31.0714

G1X48.5235Y-30.3903

G1X52.4996Y-30.1524

G1X62.3764Y-32.4041

G1X69.3858Y-37.4308

G1X71.4878Y-39.9974

G1X43.2001Y-75.4787

G1X37.9196Y-72.4483

G1X31.8296Y-65.3589

G1X29.7004Y-60.0597

G1X32.1162Y-42.6924

G1X39.4552Y-35.0026

G1X43.5240Y-32.9460

G1X46.9799Y-32.0308

G1X50.9275Y-31.5289

G1X60.9302Y-33.1215

G1X68.2570Y-37.6758

G1X70.5220Y-40.1016

G1X44.6479Y-77.3665

G1X39.1663Y-74.6864

G1X32.6107Y-68.0058

G1X30.1283Y-62.8508

G1X31.3957Y-45.3579

G1X38.2160Y-37.2061

G1X42.1429Y-34.8891

G1X45.5352Y-33.7502

G1X49.4451Y-32.9987

G1X59.5315Y-33.9621

G1X67.1328Y-38.0559

G1X69.5463Y-40.3438

G1X46.0288Y-79.1294

G1X40.3762Y-76.7845

G1X33.4095Y-70.5058

G1X30.6070Y-65.4993

G1X30.8129Y-47.9515

G1X37.1355Y-39.4021

G1X40.9227Y-36.8524

G1X44.2546Y-35.5091

G1X48.1220Y-34.5331

G1X58.2547Y-34.9279

G1X66.0816Y-38.5979

G1X68.6242Y-40.7585

G1X47.2716Y-80.7705

G1X41.4802Y-78.7285

G1X34.1686Y-72.8204

G1X31.0904Y-67.9556

G1X30.3685Y-50.4069

G1X36.2424Y-41.5321

G1X39.9014Y-38.7844

G1X43.1801Y-37.2628

G1X47.0054Y-36.0951

G1X57.1568Y-36.0043

G1X65.1602Y-39.3071

G1X67.8099Y-41.3570

G1X48.3261Y-82.3081

G1X42.4279Y-80.5247

G1X34.8413Y-74.9384

G1X31.5375Y-70.2006

G1X30.0450Y-52.6858

G1X35.5349Y-43.5572

G1X39.0809Y-40.6494

G1X42.3094Y-38.9809

G1X46.0926Y-37.6560

G1X56.2409Y-37.1629

G1X64.3762Y-40.1551

G1X67.1102Y-42.1086

G1X49.2076Y-83.7725

G1X43.2304Y-82.2080

G1X35.4268Y-76.8989

G1X31.9400Y-72.2751

G1X29.8074Y-54.8145

G1X34.9688Y-45.4874

G1X38.4148Y-42.4500

G1X41.5952Y-40.6605

G1X45.3378Y-39.2056

G1X55.4707Y-38.3762

G1X63.7065Y-41.1044

G1X66.5077Y-42.9740

G1X49.9503Y-85.1884

G1X43.9143Y-83.8104

G1X35.9375Y-78.7414

G1X32.3006Y-74.2202

G1X29.6294Y-56.8252

G1X34.5057Y-47.3410

G1X37.8611Y-44.1977

G1X40.9921Y-42.3087

G1X44.6931Y-40.7440

G1X54.8002Y-39.6246

G1X63.1128Y-42.1193

G1X65.9671Y-43.9116

G1X50.6084Y-86.5739

G1X44.5296Y-85.3637

G1X36.4085Y-80.5160

G1X32.6424Y-76.0949

G1X29.4857Y-58.7780

G1X34.0952Y-49.1625

G1X37.3604Y-45.9280

G1X40.4330Y-43.9539

G1X44.0861Y-42.2890

G1X54.1546Y-40.8940

G1X62.5289Y-43.1597

G1X65.4273Y-44.8720

G1X51.2609Y-87.9406

G1X45.1507Y-86.8997

G1X36.8966Y-82.2817

G1X33.0068Y-77.9709

G1X29.3559Y-60.7542

G1X33.6826Y-51.0164

G1X36.8460Y-47.6940

G1X39.8430Y-45.6395

G1X43.4356Y-43.8712

G1X53.4472Y-42.1785

G1X61.8755Y-44.1896

G1X64.8145Y-45.8089

G1X51.9950Y-89.2912

G1X45.8613Y-88.4431

G1X37.4690Y-84.0933

G1X33.4452Y-79.9171

G1X29.2289Y-62.8383

G1X33.2208Y-52.9733

G1X36.2588Y-49.5558

G1X39.1566Y-47.4154

G1X42.6694Y-45.5287

G1X52.5972Y-43.4834

G1X61.0767Y-45.1857

G1X64.0574Y-46.6900

G1X52.8871Y-90.6170

G1X46.7357Y-90.0043

G1X38.1892Y-85.9880

G1X34.0095Y-81.9836

G1X29.1077Y-65.1003

G1X32.6826Y-55.0961

G1X35.5616Y-51.5688

G1X38.3327Y-49.3295

G1X41.7414Y-47.3014

G1X51.5485Y-44.8262

G1X60.0755Y-46.1461

G1X63.1019Y-47.5073

G1X53.9854Y-91.8974

G1X47.8238Y-91.5742

G1X39.1046Y-87.9749

G1X34.7421Y-84.1877

G1X29.0115Y-67.5777

G1X32.0728Y-57.4216

G1X34.7580Y-53.7643

G1X37.3879Y-51.4001

G1X40.6771Y-49.2041

G1X50.3335Y-46.2303

G1X58.9101Y-47.1096

G1X61.9978Y-48.3131

G1X55.1998Y-93.1136

G1X49.0211Y-93.1076

G1X40.1170Y-89.9580

G1X35.5546Y-86.3941

G1X28.9725Y-70.0901

G1X31.5089Y-59.7863

G1X34.0042Y-55.9933

G1X34.6995Y-55.2560

G1X36.5119Y-53.4913

G1X39.6886Y-51.1319

G1X49.1882Y-47.6876

G1X57.8002Y-48.1501

G1X60.9451Y-49.2056

G1X56.3197Y-94.2818

G1X50.1353Y-94.5700

G1X41.0787Y-91.8426

G1X36.3412Y-88.4923

G1X28.9904Y-72.5066

G1X31.0385Y-62.0893

G1X33.3540Y-58.1792

G1X34.0146Y-57.4048

G1X35.7448Y-55.5541

G1X38.8122Y-53.0495

G1X48.1493Y-49.1818

G1X56.7765Y-49.2625

G1X59.9683Y-50.1808

G1X57.3320Y-95.4174

G1X51.1539Y-95.9739

G1X41.9755Y-93.6364

G1X37.0870Y-90.4870

G1X29.0510Y-74.8206

G1X30.6518Y-64.3192

G1X32.7998Y-60.3093

G1X33.4275Y-59.5021

G1X35.0800Y-57.5762

G1X38.0432Y-54.9437

G1X47.2173Y-50.6993

G1X55.8441Y-50.4342

G1X59.0736Y-51.2266

G1X58.2380Y-96.5336

G1X52.0753Y-97.3321

G1X42.8011Y-95.3507

G1X37.7836Y-92.3880

G1X29.1418Y-77.0338

G1X30.3365Y-66.4725

G1X32.3299Y-62.3784

G1X32.9268Y-61.5424

G1X34.5068Y-59.5512

G1X37.3718Y-56.8070

G1X46.3862Y-52.2291

G1X55.0009Y-51.6529

G1X58.2601Y-52.3307

G1X59.0451Y-97.6404

G1X52.9043Y-98.6560

G1X43.5557Y-96.9979

G1X38.4283Y-94.2072

G1X29.2526Y-79.1532

G1X30.0803Y-68.5511

G1X31.9322Y-64.3862

G1X32.5004Y-63.5251

G1X34.0130Y-61.4773

G1X36.7862Y-58.6358

G1X45.6468Y-53.7633

G1X54.2410Y-52.9081

G1X57.5234Y-53.4820

G1X59.7626Y-98.7452

G1X53.6480Y-99.9552

G1X44.2424Y-98.5895

G1X39.0213Y-95.9565

G1X29.3753Y-81.1873

G1X29.8727Y-70.5591

G1X31.5953Y-66.3346

G1X32.1369Y-65.4517

G1X33.5874Y-63.3550

G1X36.2755Y-60.4285

G1X44.9900Y-55.2960

G1X53.5582Y-54.1912

G1X56.8588Y-54.6711

G1X60.3994Y-99.8534

G1X54.3133Y-101.2370

G1X44.8643Y-100.1348

G1X39.5632Y-97.6454

G1X29.5038Y-83.1432

G1X29.7048Y-72.4999

G1X31.3104Y-68.2251

G1X31.8277Y-67.3230

G1X33.2216Y-65.1837

G1X35.8315Y-62.1834

G1X44.4092Y-56.8223

G1X52.9477Y-55.4952

G1X56.2617Y-55.8906

G1X60.9635Y-100.9691

G1X54.9079Y-102.5072

G1X45.4272Y-101.6423

G1X40.0589Y-99.2843

G1X29.6345Y-85.0331

G1X29.5678Y-74.3848

G1X31.0656Y-70.0688

G1X31.5594Y-69.1516

G1X32.8995Y-66.9767

G1X35.4350Y-63.9121

G1X43.8802Y-58.3454

G1X52.3847Y-56.8146

G1X55.7079Y-57.1316

G1X61.4809Y-102.0873

G1X55.4581Y-103.7678

G1X45.9541Y-103.1240

G1X40.5267Y-100.8898

G1X29.7688Y-86.8804

G1X29.4530Y-76.2332

G1X30.8497Y-71.8811

G1X31.3214Y-70.9500

G1X32.6111Y-68.7425

G1X35.0765Y-65.6193

G1X43.3952Y-59.8648

G1X51.8648Y-58.1462

G1X55.1956Y-58.3906

G1X61.9528Y-103.2112

G1X55.9622Y-105.0222

G1X46.4406Y-104.5818

G1X40.9606Y-102.4620

G1X29.9021Y-88.6796

G1X29.3589Y-78.0376

G1X30.6630Y-73.6536

G1X31.1148Y-72.7092

G1X32.3585Y-70.4722

G1X34.7600Y-67.2965

G1X42.9618Y-61.3740

G1X51.3973Y-59.4867

G1X54.7347Y-59.6656

G1X62.3715Y-104.3472

G1X56.4110Y-106.2748

G1X46.8761Y-106.0160

G1X41.3504Y-103.9985

G1X30.0286Y-90.4218

G1X29.2842Y-79.7871

G1X30.5064Y-75.3754

G1X30.9409Y-74.4184

G1X32.1444Y-72.1551

G1X34.4898Y-68.9334

G1X42.5881Y-62.8658

G1X50.9926Y-60.8323

G1X54.3360Y-60.9545

G1X62.7287Y-105.5028

G1X56.7947Y-107.5305

G1X47.2500Y-107.4275

G1X41.6854Y-105.4974

G1X30.1420Y-92.0986

G1X29.2273Y-81.4715

G1X30.3803Y-77.0363

G1X30.8005Y-76.0677

G1X31.9705Y-73.7818

G1X34.2693Y-70.5213

G1X42.2806Y-64.3337

G1X50.6588Y-62.1792

G1X54.0078Y-62.2545

G1X63.0191Y-106.6844

G1X57.1067Y-108.7940

G1X47.5545Y-108.8178

G1X41.9583Y-106.9587

G1X30.2374Y-93.7050

G1X29.1858Y-83.0848

G1X30.2834Y-78.6303

G1X30.6924Y-77.6514

G1X31.8362Y-75.3468

G1X34.0984Y-72.0552

G1X42.0409Y-65.7733

G1X50.3984Y-63.5240

G1X53.7525Y-63.5627

G1X63.2426Y-107.8952

G1X57.3466Y-110.0682

G1X47.7889Y-110.1897

G1X42.1681Y-108.3850

G1X30.3125Y-95.2429

G1X29.1568Y-84.6283

G1X30.2125Y-80.1587

G1X30.6132Y-79.1714

G1X31.7374Y-76.8521

G1X33.9723Y-73.5370

G1X41.8634Y-67.1849

G1X50.2054Y-64.8651

G1X53.5634Y-64.8765

G1X63.4067Y-109.1338

G1X57.5238Y-111.3535

G1X47.9643Y-111.5477

G1X42.3283Y-109.7852

G1X30.3725Y-96.7330

G1X29.1350Y-86.1292

G1X30.1544Y-81.6547

G1X30.5450Y-80.6685

G1X31.6470Y-78.3455

G1X33.8492Y-75.0177

G1X41.6772Y-68.6028

G1X49.9875Y-66.2105

G1X53.3334Y-66.1904

G1X63.6212Y-110.3441

G1X57.7729Y-112.6212

G1X48.2275Y-112.9207

G1X42.5822Y-111.2275

G1X30.4740Y-98.3299

G1X29.1009Y-87.7550

G1X30.0565Y-83.2798

G1X30.4278Y-82.3004

G1X31.4896Y-79.9735

G1X33.6335Y-76.6242

G1X41.3499Y-70.0978

G1X49.6072Y-67.5774

G1X52.9382Y-67.5030

G1X63.9791Y-111.4727

G1X58.1817Y-113.8473

G1X48.6534Y-114.3181

G1X42.9870Y-112.7331

G1X30.6386Y-100.0763

G1X29.0566Y-89.5416

G1X29.9172Y-85.0596

G1X30.2625Y-84.0837

G1X31.2681Y-81.7455

G1X33.3309Y-78.3606

G1X40.8903Y-71.6736

G1X49.0760Y-68.9723

G1X52.3915Y-68.8226

G1X64.4626Y-112.5204

G1X58.7307Y-115.0279

G1X49.2240Y-115.7284

G1X43.5267Y-114.2857

G1X30.8660Y-101.9477

G1X29.0130Y-91.4654

G1X29.7524Y-86.9716

G1X30.0667Y-85.9955

G1X31.0034Y-83.6394

G1X32.9668Y-80.2075

G1X40.3308Y-73.3227

G1X48.4282Y-70.3996

G1X51.7279Y-70.1584

G1X65.0359Y-113.4968

G1X59.3818Y-116.1638

G1X49.9030Y-117.1367

G1X44.1688Y-115.8616

G1X31.1492Y-103.9036

G1X28.9820Y-93.4862

G1X29.5820Y-88.9778

G1X29.8621Y-87.9977

G1X30.7217Y-85.6191

G1X32.5733Y-82.1331

G1X39.7148Y-75.0293

G1X47.7105Y-71.8599

G1X50.9942Y-71.5173

G1X65.6549Y-114.4199

G1X60.0874Y-117.2608

G1X50.6437Y-118.5302

G1X44.8711Y-117.4368

G1X31.4746Y-105.8974

G1X28.9720Y-95.5559

G1X29.4235Y-91.0325

G1X29.6683Y-90.0456

G1X30.4472Y-87.6420

G1X32.1816Y-84.0996

G1X39.0859Y-76.7718

G1X46.9712Y-73.3486

G1X50.2386Y-72.9012

G1X66.2772Y-115.3124

G1X60.8010Y-118.3301

G1X51.3996Y-119.9011

G1X45.5907Y-118.9927

G1X31.8245Y-107.8866

G1X28.9861Y-97.6292

G1X29.2884Y-93.0926

G1X29.4984Y-92.0970

G1X30.1970Y-89.6684

G1X31.8146Y-86.0713

G1X38.4796Y-78.5279

G1X46.2506Y-74.8573

G1X49.5012Y-74.3072

G1X66.8706Y-116.1962

G1X61.4870Y-119.3845

G1X52.1336Y-121.2474

G1X46.2932Y-120.5188

G1X32.1820Y-109.8409

G1X29.0224Y-99.6729

G1X29.1813Y-95.1260

G1X29.3580Y-94.1211

G1X29.9796Y-91.6689

G1X31.4853Y-88.0212

G1X37.9183Y-80.2785

G1X45.5761Y-76.3763

G1X48.8103Y-75.7292

G1X67.4139Y-117.0911

G1X62.1193Y-120.4377

G1X52.8164Y-122.5716

G1X46.9488Y-122.0104

G1X32.5287Y-111.7357

G1X29.0754Y-101.6555

G1X29.1027Y-97.1002

G1X29.2490Y-96.0849

G1X29.8007Y-93.6108

G1X31.2047Y-89.9179

G1X37.4250Y-82.0000

G1X44.9770Y-77.8918

G1X48.1958Y-77.1580

G1X67.8872Y-118.0193

G1X62.6746Y-121.5054

G1X53.4220Y-123.8792

G1X47.5335Y-123.4671

G1X32.8490Y-113.5561

G1X29.1378Y-103.5601

G1X29.0486Y-98.9997

G1X29.1678Y-97.9754

G1X29.6573Y-95.4831

G1X30.9707Y-91.7523

G1X36.9999Y-83.6846

G1X44.4545Y-79.3972

G1X47.6581Y-78.5872

G1X68.2942Y-118.9854

G1X63.1565Y-122.5926

G1X53.9530Y-125.1759

G1X48.0490Y-124.8951

G1X33.1401Y-115.3085

G1X29.2044Y-105.3914

G1X29.0130Y-100.8288

G1X29.1082Y-99.7971

G1X29.5427Y-97.2900

G1X30.7759Y-93.5276

G1X36.6348Y-85.3323

G1X44.0007Y-80.8899

G1X47.1894Y-80.0134

G1X68.6439Y-119.9882

G1X63.5741Y-123.7000

G1X54.4176Y-126.4661

G1X48.5026Y-126.3007

G1X33.4031Y-117.0026

G1X29.2721Y-107.1588

G1X28.9908Y-102.5964

G1X29.0647Y-101.5589

G1X29.4506Y-99.0399

G1X30.6126Y-95.2515

G1X36.3195Y-86.9471

G1X43.6042Y-82.3700

G1X46.7784Y-81.4352

G1X68.9466Y-121.0232

G1X63.9390Y-124.8259

G1X54.8274Y-127.7524

G1X48.9050Y-127.6893

G1X33.6419Y-118.6497

G1X29.3392Y-108.8745

G1X28.9782Y-104.3141

G1X29.0331Y-103.2721

G1X29.3754Y-100.7438

G1X30.4736Y-96.9338

G1X36.0429Y-88.5351

G1X43.2528Y-83.8392

G1X46.4127Y-82.8527

G1X69.2132Y-122.0839

G1X64.2629Y-125.9669

G1X55.1946Y-129.0365

G1X49.2676Y-129.0654

G1X33.8616Y-120.2610

G1X29.4055Y-110.5505

G1X28.9727Y-105.9936

G1X29.0101Y-104.9484

G1X29.3129Y-102.4129

G1X30.3526Y-98.5846

G1X35.7954Y-90.1026

G1X42.9351Y-85.3001

G1X46.0807Y-84.2668

G1X69.4528Y-123.1638

G1X64.5565Y-127.1191

G1X55.5301Y-130.3188

G1X49.6006Y-130.4321

G1X34.0672Y-121.8456

G1X29.4712Y-112.1970

G1X28.9723Y-107.6447

G1X28.9937Y-106.5972

G1X29.2598Y-104.0559

G1X30.2452Y-100.2120

G1X35.5698Y-91.6550

G1X42.6427Y-86.7549

G1X45.7737Y-85.6788

G1X69.6728Y-124.2574

G1X64.8287Y-128.2785

G1X55.8448Y-131.5993

G1 Z0F20000


G00 X0.0000 Y0.0000


