$H
G21
G17
G90
G1 Z0F20000
G1 F15000
(Start Layer)
(Start Block)

G1X34.4507Y-44.0823
G1 Z3.0F20000
(Plotting speed under)
G1 F4000

G1X33.6782Y-44.8591
G1X32.6838Y-45.5803
G1X31.5438Y-46.2050
G1X30.3603Y-46.6847
G1X28.8879Y-47.1115
G1X27.3464Y-47.4148
G1X25.8361Y-47.5760
G1X24.2874Y-47.6025
G1X22.6777Y-47.4972
G1X21.2987Y-47.2775
G1X19.9357Y-46.9025
G1X18.6523Y-46.3727
G1X17.7453Y-45.8106
G1X17.0441Y-45.1341
G1X16.5975Y-44.4005
G1X16.4555Y-43.6353
G1X16.6458Y-42.7951
G1X17.1582Y-41.9773
G1X17.9121Y-41.2962
G1X18.9944Y-40.6304
G1X20.3039Y-40.0580
G1X21.7024Y-39.6423
G1X23.4734Y-39.2954
G1X25.2495Y-39.1022
G1X27.0446Y-39.0624
G1X28.8795Y-39.1580
G1X30.6831Y-39.3827
G1X32.2703Y-39.7132
G1X33.9779Y-40.2218
G1X35.4533Y-40.8094
G1X36.6798Y-41.4587
G1X37.7566Y-42.2179
G1X38.8821Y-43.3311
G1X39.5307Y-44.4254
G1X39.8034Y-45.6269
G1X39.7885Y-46.2223
G1X39.6482Y-46.8662
G1X39.3942Y-47.4478
G1X39.0277Y-48.0225
G1X37.9342Y-49.1613
G1X36.6447Y-50.0129
G1X34.9266Y-50.7814
G1X32.9466Y-51.3552
G1X30.6197Y-51.6964
G1X28.3964Y-51.7580
G1X26.2884Y-51.5437
G1X24.3111Y-51.0786
G1X22.6831Y-50.3663
G1X22.0101Y-49.9314
G1X21.4729Y-49.4702
G1X21.0989Y-49.0061
G1X20.8201Y-48.4440
G1X20.6880Y-47.5660
G1X20.8939Y-46.7931
G1X21.4734Y-45.9596
G1X22.3723Y-45.1797
G1X23.5410Y-44.5243
G1X25.0319Y-43.9471
G1X26.6055Y-43.5296
G1X28.3401Y-43.2568
G1X30.2745Y-43.1174
G1X32.1240Y-43.1307
G1X33.9581Y-43.2994
G1X35.9045Y-43.6352
G1X37.5265Y-44.0561
G1X39.0239Y-44.6045
G1X40.5196Y-45.3387
G1X41.6946Y-46.1094
G1X42.8461Y-47.2307
G1X43.5717Y-48.4198
G1X43.7655Y-49.0128
G1X43.8384Y-49.5924
G1X43.8041Y-50.1855
G1X43.6682Y-50.7770
G1X43.4362Y-51.3516
G1X43.0646Y-51.9630
G1X42.0937Y-52.9698
G1X40.6941Y-53.9254
G1X39.0648Y-54.6652
G1X36.9885Y-55.2647
G1X34.8689Y-55.6022
G1X32.5051Y-55.6752
G1X30.2190Y-55.4653
G1X28.2301Y-54.9791
G1X26.5615Y-54.2695
G1X25.8944Y-53.8297
G1X25.3361Y-53.3351
G1X24.9106Y-52.8097
G1X24.6418Y-52.2779
G1X24.5387Y-51.4122
G1X24.7909Y-50.5199
G1X25.3087Y-49.7823
G1X26.2111Y-49.0195
G1X27.4080Y-48.3291
G1X28.7269Y-47.8088
G1X30.4378Y-47.3557
G1X32.2090Y-47.0624
G1X33.9167Y-46.9363
G1X35.8540Y-46.9485
G1X37.6881Y-47.0981
G1X39.3960Y-47.3817
G1X41.1329Y-47.8243
G1X42.7393Y-48.3901
G1X44.1125Y-49.0556
G1X45.2901Y-49.8280
G1X46.4305Y-50.8753
G1X47.1464Y-51.9852
G1X47.3585Y-52.5752
G1X47.4793Y-53.2687
G1X47.4708Y-53.8500
G1X47.3321Y-54.4791
G1X46.7312Y-55.6219
G1X45.6771Y-56.7381
G1X44.2731Y-57.6552
G1X42.4521Y-58.4527
G1X40.3194Y-59.0244
G1X37.9566Y-59.3360
G1X35.8132Y-59.3614
G1X33.5524Y-59.1062
G1X31.6130Y-58.6136
G1X29.9498Y-57.8556
G1X28.8321Y-57.0098
G1X28.4209Y-56.4914
G1X28.1405Y-55.9363
G1X27.9928Y-55.0913
G1X28.2109Y-54.2467
G1X28.7643Y-53.4150
G1X29.6091Y-52.6580
G1X30.7648Y-51.9877
G1X32.2009Y-51.4019
G1X33.6475Y-50.9963
G1X35.3784Y-50.6960
G1X37.1467Y-50.5358
G1X38.9085Y-50.5162
G1X40.8493Y-50.6605
G1X42.6846Y-50.9428
G1X44.3149Y-51.3353
G1X45.8314Y-51.8588
G1X47.3135Y-52.5440
G1X48.4978Y-53.2806
G1X49.7003Y-54.3879
G1X50.1783Y-55.0283
G1X50.4859Y-55.5951
G1X50.6676Y-56.1100
G1X50.7624Y-56.7089
G1X50.7460Y-57.3198
G1X50.6225Y-57.9257
G1X50.3958Y-58.5098
G1X50.0567Y-59.0736
G1X48.9898Y-60.1818
G1X47.5565Y-61.1419
G1X45.8952Y-61.8662
G1X43.8052Y-62.4558
G1X41.7153Y-62.7700
G1X39.2607Y-62.8389
G1X37.0357Y-62.6247
G1X34.8883Y-62.0998
G1X33.2511Y-61.3951
G1X32.5955Y-60.9700
G1X31.9697Y-60.4343
G1X31.5071Y-59.8726
G1X31.2592Y-59.3819
G1X31.1222Y-58.4883
G1X31.2963Y-57.6871
G1X31.7874Y-56.9028
G1X32.6503Y-56.1066
G1X33.6931Y-55.4505
G1X34.9471Y-54.9072
G1X36.5798Y-54.4188
G1X38.2587Y-54.0919
G1X40.0432Y-53.9199
G1X41.8947Y-53.8907
G1X43.6336Y-53.9920
G1X45.3480Y-54.2359
G1X47.1644Y-54.6524
G1X48.7434Y-55.1667
G1X50.0736Y-55.7664
G1X51.2692Y-56.4852
G1X52.5080Y-57.5268
G1X53.2881Y-58.6255
G1X53.5570Y-59.2816
G1X53.6969Y-59.9404
G1X53.7004Y-60.5807
G1X53.5879Y-61.1283
G1X53.3285Y-61.7702
G1X52.9450Y-62.3956
G1X51.9511Y-63.4430
G1X50.5002Y-64.3903
G1X48.6502Y-65.1964
G1X46.4404Y-65.7701
G1X44.0734Y-66.0745
G1X41.7982Y-66.0801
G1X39.4677Y-65.8009
G1X37.4626Y-65.2550
G1X35.7477Y-64.4419
G1X35.1654Y-64.0339
G1X34.6783Y-63.5734
G1X34.2427Y-62.9861
G1X33.9975Y-62.4629
G1X33.8807Y-61.6867
G1X34.0714Y-60.8894
G1X34.6120Y-60.0149
G1X35.3474Y-59.3250
G1X36.4810Y-58.6204
G1X37.7697Y-58.0504
G1X39.1597Y-57.6236
G1X40.7992Y-57.2956
G1X42.5609Y-57.0931
G1X44.1947Y-57.0397
G1X46.0290Y-57.1273
G1X47.7614Y-57.3389
G1X49.4100Y-57.6777
G1X50.9290Y-58.1395
G1X52.3432Y-58.7144
G1X53.5571Y-59.3684
G1X54.9304Y-60.4524
G1X55.4655Y-61.0513
G1X55.8749Y-61.6627
G1X56.1370Y-62.2537
G1X56.2743Y-62.8469
G1X56.3026Y-63.4529
G1X56.2237Y-64.0547
G1X56.0393Y-64.6353
G1X55.7362Y-65.2022
G1X55.2679Y-65.8067
G1X54.6741Y-66.3879
G1X53.3298Y-67.3332
G1X51.5785Y-68.1251
G1X49.3582Y-68.7642
G1X47.1570Y-69.0839
G1X44.6852Y-69.1498
G1X42.4095Y-68.9183
G1X40.2258Y-68.3866
G1X38.6088Y-67.6905
G1X37.8754Y-67.2246
G1X37.2004Y-66.6542
G1X36.7534Y-66.1093
G1X36.4809Y-65.5569
G1X36.3353Y-64.6786
G1X36.4824Y-63.9119
G1X36.9290Y-63.1510
G1X37.6413Y-62.4220
G1X38.5750Y-61.7656
G1X39.6713Y-61.2289
G1X41.0959Y-60.7266
G1X42.6654Y-60.3446
G1X44.2387Y-60.1188
G1X45.9761Y-60.0087
G1X47.6346Y-60.0226
G1X49.2526Y-60.1618
G1X50.9987Y-60.4537
G1X52.5695Y-60.8455
G1X53.9679Y-61.3333
G1X55.2546Y-61.9436
G1X56.7633Y-62.9338
G1X57.3062Y-63.4234
G1X57.8082Y-64.0163
G1X58.1963Y-64.6471
G1X58.4605Y-65.2940
G1X58.5906Y-65.9356
G1X58.5750Y-66.5817
G1X58.4421Y-67.1515
G1X58.1583Y-67.8109
G1X57.7480Y-68.4421
G1X57.2637Y-68.9837
G1X55.8756Y-70.0243
G1X54.0180Y-70.9286
G1X51.8448Y-71.5648
G1X49.3829Y-71.9451
G1X47.0058Y-72.0000
G1X44.5699Y-71.7603
G1X42.4247Y-71.2254
G1X41.3706Y-70.8139
G1X40.5406Y-70.3912
G1X39.8694Y-69.9372
G1X39.2912Y-69.4032
G1X38.8495Y-68.8285
G1X38.5961Y-68.3247
G1X38.4585Y-67.5372
G1X38.5955Y-66.7816
G1X38.9680Y-66.0408
G1X39.5506Y-65.3782
G1X40.4526Y-64.6993
G1X41.5845Y-64.0865
G1X42.7911Y-63.6174
G1X44.2869Y-63.2175
G1X45.8337Y-62.9426
G1X47.4184Y-62.7889
G1X48.9999Y-62.7632
G1X50.7397Y-62.8584
G1X52.3279Y-63.0603
G1X53.8395Y-63.3808
G1X55.3619Y-63.8418
G1X56.6619Y-64.3648
G1X58.3362Y-65.3349
G1X59.0728Y-65.9373
G1X59.6186Y-66.5031
G1X60.0418Y-67.0797
G1X60.3441Y-67.6946
G1X60.5077Y-68.2843
G1X60.5629Y-68.9847
G1X60.4935Y-69.5761
G1X60.2867Y-70.2075
G1X59.9214Y-70.8407
G1X59.4125Y-71.4609
G1X58.1527Y-72.5115
G1X56.4553Y-73.3964
G1X54.2508Y-74.1292
G1X51.9902Y-74.5337
G1X49.3433Y-74.6736
G1X46.9781Y-74.4878
G1X44.7069Y-74.0025
G1X42.8764Y-73.2798
G1X41.9856Y-72.7500
G1X41.3307Y-72.2326
G1X40.8321Y-71.6747
G1X40.5124Y-71.1121
G1X40.3020Y-70.3250
G1X40.3565Y-69.5527
G1X40.6675Y-68.8413
G1X41.2143Y-68.1353
G1X41.9622Y-67.4834
G1X42.8528Y-66.9387
G1X44.0136Y-66.4166
G1X45.3300Y-65.9786
G1X46.6543Y-65.6718
G1X48.1169Y-65.4600
G1X49.7729Y-65.3410
G1X51.3204Y-65.3407
G1X52.8487Y-65.4571
G1X54.3959Y-65.6848
G1X55.8750Y-66.0113
G1X57.1116Y-66.3920
G1X59.0796Y-67.2705
G1X59.9257Y-67.7846
G1X60.6558Y-68.3458
G1X61.2026Y-68.8967
G1X61.7026Y-69.5737
G1X62.0526Y-70.2736
G1X62.2219Y-70.8824
G1X62.2516Y-71.5442
G1X62.1262Y-72.2316
G1X61.8551Y-72.9100
G1X61.4490Y-73.5529
G1X60.9520Y-74.1054
G1X60.2949Y-74.6588
G1X58.5590Y-75.6930
G1X56.4249Y-76.4685
G1X53.8944Y-76.9832
G1X51.4424Y-77.1451
G1X48.7775Y-76.9856
G1X46.4206Y-76.4936
G1X44.3991Y-75.7104
G1X43.5985Y-75.2351
G1X42.9834Y-74.7467
G1X42.4219Y-74.1425
G1X42.0780Y-73.5984
G1X41.8760Y-72.9878
G1X41.8557Y-72.2940
G1X42.0329Y-71.5971
G1X42.4024Y-70.9390
G1X42.9965Y-70.3019
G1X43.7998Y-69.6906
G1X44.6623Y-69.1939
G1X45.7021Y-68.7457
G1X46.9832Y-68.3442
G1X48.2946Y-68.0467
G1X50.9444Y-67.7417
G1X52.4813Y-67.7248
G1X54.0290Y-67.8083
G1X55.4146Y-67.9786
G1X56.7583Y-68.2460
G1X59.1083Y-68.9678
G1X60.9188Y-69.8596
G1X61.7927Y-70.4717
G1X62.4561Y-71.0642
G1X62.9736Y-71.6739
G1X63.3334Y-72.2952
G1X63.5673Y-72.9755
G1X63.6562Y-73.6674
G1X63.5958Y-74.3441
G1X63.4027Y-74.9402
G1X63.0328Y-75.5973
G1X62.4449Y-76.3126
G1X61.7942Y-76.8993
G1X61.0029Y-77.4411
G1X58.9998Y-78.3860
G1X56.7190Y-79.0394
G1X53.9917Y-79.3992
G1X51.3349Y-79.3972
G1X48.6522Y-79.0122
G1X47.5532Y-78.7275
G1X46.5027Y-78.3486
G1X45.5406Y-77.8883
G1X44.6399Y-77.3196
G1X44.0150Y-76.7752
G1X43.5380Y-76.1575
G1X43.2287Y-75.4987
G1X43.1098Y-74.9289
G1X43.1518Y-74.3024
G1X43.3710Y-73.6913
G1X43.8167Y-73.0005
G1X44.3591Y-72.4351
G1X45.0492Y-71.9185
G1X45.9627Y-71.4061
G1X48.0665Y-70.6024
G1X50.4891Y-70.1146
G1X53.1825Y-69.9241
G1X55.8471Y-70.0838
G1X58.3352Y-70.5328
G1X60.5500Y-71.2719
G1X62.4069Y-72.2424
G1X63.1205Y-72.7752
G1X63.7422Y-73.3832
G1X64.2368Y-74.0319
G1X64.5851Y-74.6956
G1X64.7589Y-75.2938
G1X64.7958Y-75.9686
G1X64.6819Y-76.6546
G1X64.4246Y-77.3250
G1X63.9949Y-77.9992
G1X63.4435Y-78.5901
G1X62.5819Y-79.2783
G1X61.5659Y-79.8937
G1X60.4787Y-80.3892
G1X59.1644Y-80.8324
G1X57.7413Y-81.1829
G1X56.3014Y-81.4201
G1X54.7907Y-81.5420
G1X53.2319Y-81.5535
G1X51.7228Y-81.4576
G1X50.2962Y-81.2478
G1X48.9544Y-80.9299
G1X47.6335Y-80.4881
G1X46.5920Y-80.0047
G1X45.7549Y-79.4688
G1X44.9956Y-78.8015
G1X44.4663Y-78.1040
G1X44.2081Y-77.4602
G1X44.1323Y-76.8568
G1X44.2010Y-76.2505
G1X44.4146Y-75.6681
G1X44.8058Y-75.0836
G1X45.3458Y-74.5285
G1X46.0205Y-74.0038
G1X46.8040Y-73.5335
G1X48.7742Y-72.7479
G1X51.1514Y-72.2014
G1X53.6277Y-71.9846
G1X56.1734Y-72.0502
G1X58.5995Y-72.4151
G1X60.9193Y-73.0702
G1X62.6932Y-73.8819
G1X64.2049Y-74.9440
G1X64.7699Y-75.5151
G1X65.1951Y-76.1161
G1X65.4680Y-76.6849
G1X65.6542Y-77.3662
G1X65.6948Y-77.9461
G1X65.6025Y-78.5744
G1X65.3755Y-79.1718
G1X64.9640Y-79.8478
G1X64.2521Y-80.6416
G1X63.4173Y-81.2918
G1X62.3190Y-81.9199
G1X60.9589Y-82.5032
G1X59.6752Y-82.9060
G1X58.1320Y-83.2337
G1X56.4951Y-83.4452
G1X54.8781Y-83.5274
G1X53.3350Y-83.4765
G1X51.6944Y-83.2932
G1X50.2668Y-83.0158
G1X48.9428Y-82.6198
G1X47.6718Y-82.0795
G1X46.6090Y-81.4556
G1X45.8355Y-80.7930
G1X45.2645Y-80.0307
G1X44.9930Y-79.4137
G1X44.8949Y-78.8920
G1X44.9307Y-78.3479
G1X45.1389Y-77.6982
G1X45.5130Y-77.0638
G1X45.9552Y-76.5569
G1X46.5745Y-76.0449
G1X47.3087Y-75.5785
G1X49.0759Y-74.7793
G1X51.1637Y-74.2248
G1X53.6282Y-73.8980
G1X56.0736Y-73.8791
G1X58.4396Y-74.1231
G1X60.5259Y-74.5847
G1X62.6117Y-75.3537
G1X64.2134Y-76.2603
G1X64.8956Y-76.8153
G1X65.4671Y-77.4164
G1X65.9070Y-78.0408
G1X66.1676Y-78.5884
G1X66.3130Y-79.1701
G1X66.3398Y-79.7730
G1X66.2248Y-80.4780
G1X66.0038Y-81.0621
G1X65.4938Y-81.8370
G1X64.6469Y-82.6650
G1X63.5712Y-83.4128
G1X62.4108Y-83.9951
G1X60.9998Y-84.5080
G1X59.3575Y-84.9320
G1X57.8518Y-85.1775
G1X56.1318Y-85.3072
G1X54.3952Y-85.3027
G1X52.8046Y-85.1679
G1X51.1463Y-84.8689
G1X49.6059Y-84.4364
G1X48.3488Y-83.9234
G1X47.2230Y-83.2579
G1X46.3345Y-82.5041
G1X45.7933Y-81.7811
G1X45.5575Y-81.2138
G1X45.4526Y-80.6259
G1X45.4822Y-80.0409
G1X45.6425Y-79.4987
G1X45.9360Y-78.9753
G1X46.4276Y-78.3830
G1X47.0620Y-77.8231
G1X47.7146Y-77.3813
G1X49.4434Y-76.5818
G1X51.4992Y-75.9895
G1X53.6754Y-75.6695
G1X56.0435Y-75.5842
G1X58.2768Y-75.7497
G1X60.6267Y-76.2014
G1X62.4983Y-76.8066
G1X64.1525Y-77.6353
G1X65.5262Y-78.6721
G1X66.3446Y-79.7365
G1X66.6280Y-80.3797
G1X66.7615Y-80.9353
G1X66.7870Y-81.4790
G1X66.6731Y-82.1121
G1X66.2589Y-83.0238
G1X65.5849Y-83.8824
G1X64.6448Y-84.6603
G1X63.4454Y-85.3627
G1X62.0703Y-85.9557
G1X60.5524Y-86.4107
G1X58.8322Y-86.7472
G1X56.9619Y-86.9456
G1X55.2334Y-86.9678
G1X53.3792Y-86.8313
G1X51.6510Y-86.5484
G1X50.1879Y-86.1461
G1X48.7378Y-85.5654
G1X47.6267Y-84.9372
G1X46.7712Y-84.2202
G1X46.1053Y-83.3392
G1X45.8608Y-82.7675
G1X45.7719Y-82.2294
G1X45.8186Y-81.6445
G1X46.0009Y-81.0575
G1X46.3120Y-80.4917
G1X46.6984Y-80.0178
G1X47.8729Y-79.0850
G1X49.4285Y-78.2891
G1X51.3028Y-77.6978
G1X53.5813Y-77.2890
G1X55.8257Y-77.1609
G1X58.2004Y-77.2845
G1X60.2911Y-77.6220
G1X62.3390Y-78.2197
G1X64.1028Y-79.0081
G1X65.5202Y-80.0094
G1X66.4803Y-81.0998
G1X66.7338Y-81.5623
G1X66.9258Y-82.1389
G1X67.0023Y-82.7373
G1X66.9635Y-83.3388
G1X66.6891Y-84.2052
G1X66.0869Y-85.0902
G1X65.1916Y-85.9352
G1X64.0242Y-86.7016
G1X62.6287Y-87.3350
G1X61.0269Y-87.8539
G1X59.3962Y-88.2082
G1X57.7007Y-88.4109
G1X55.8451Y-88.4808
G1X54.0320Y-88.3918
G1X52.2525Y-88.1291
G1X50.5862Y-87.7191
G1X49.1776Y-87.1949
G1X47.9476Y-86.5264
G1X46.9700Y-85.7678
G1X46.2988Y-84.9245
G1X46.0742Y-84.4440
G1X45.9243Y-83.8529
G1X45.9111Y-83.2680
G1X46.0289Y-82.7423
G1X46.3051Y-82.1677
G1X46.7213Y-81.6008
G1X47.8074Y-80.6465
G1X49.3535Y-79.8267
G1X51.2521Y-79.1783
G1X53.2039Y-78.7967
G1X55.4701Y-78.6076
G1X57.6045Y-78.6554
G1X59.8508Y-78.9542
G1X61.8306Y-79.4423
G1X63.6119Y-80.1545
G1X65.1308Y-81.0585
G1X66.1452Y-82.0034
G1X66.5208Y-82.5260
G1X66.8401Y-83.1584
G1X67.0019Y-83.7031
G1X67.0518Y-84.2435
G1X66.9838Y-84.8074
G1X66.7623Y-85.4722
G1X66.3988Y-86.1190
G1X65.9831Y-86.6393
G1X64.7598Y-87.6454
G1X63.1709Y-88.5050
G1X61.2806Y-89.1672
G1X58.9653Y-89.6456
G1X56.8332Y-89.8400
G1X54.4762Y-89.7911
G1X52.2318Y-89.5002
G1X50.1553Y-88.9412
G1X48.3774Y-88.1698
G1X47.0544Y-87.2265
G1X46.5530Y-86.6947
G1X46.1773Y-86.1466
G1X45.9641Y-85.6636
G1X45.8536Y-85.0858
G1X45.8800Y-84.4897
G1X46.0396Y-83.8987
G1X46.3289Y-83.3363
G1X46.7735Y-82.7865
G1X47.5916Y-82.0840
G1X48.6143Y-81.4513
G1X49.6467Y-80.9854
G1X50.9380Y-80.5630
G1X52.3634Y-80.2309
G1X53.8335Y-80.0131
G1X55.4157Y-79.9152
G1X57.0663Y-79.9362
G1X58.5762Y-80.0637
G1X59.9964Y-80.2990
G1X61.5388Y-80.6915
G1X62.8652Y-81.1583
G1X63.9199Y-81.6561
G1X64.9432Y-82.3092
G1X65.7897Y-83.0419
G1X66.3565Y-83.7378
G1X66.6778Y-84.3661
G1X66.8595Y-85.0528
G1X66.8851Y-85.7487
G1X66.7798Y-86.3299
G1X66.5388Y-86.9122
G1X66.1184Y-87.5456
G1X65.5540Y-88.1588
G1X64.8688Y-88.7268
G1X63.2607Y-89.6407
G1X61.0895Y-90.4239
G1X58.9111Y-90.8746
G1X56.3459Y-91.0874
G1X53.8087Y-90.9907
G1X51.2912Y-90.5651
G1X49.1885Y-89.8842
G1X47.4603Y-88.9461
G1X46.8273Y-88.4503
G1X46.3257Y-87.9150
G1X45.9197Y-87.2760
G1X45.6758Y-86.6127
G1X45.6063Y-86.0496
G1X45.6908Y-85.4390
G1X45.9361Y-84.8300
G1X46.3270Y-84.2330
G1X46.9318Y-83.5984
G1X47.7484Y-83.0032
G1X48.7883Y-82.4459
G1X49.9761Y-81.9667
G1X51.1726Y-81.6155
G1X52.5210Y-81.3458
G1X54.0682Y-81.1559
G1X55.5218Y-81.0831
G1X56.9388Y-81.1192
G1X58.4865Y-81.2701
G1X59.8865Y-81.5063
G1X61.2170Y-81.8413
G1X62.4360Y-82.2719
G1X63.6468Y-82.8371
G1X64.5960Y-83.4203
G1X65.3134Y-84.0176
G1X65.8184Y-84.5831
G1X66.2539Y-85.2639
G1X66.4940Y-85.8664
G1X66.5907Y-86.5010
G1X66.5261Y-87.1865
G1X66.3024Y-87.8727
G1X65.9289Y-88.5299
G1X65.5017Y-89.0434
G1X64.8904Y-89.5928
G1X64.0636Y-90.1706
G1X62.2618Y-91.0613
G1X59.9763Y-91.7376
G1X57.4008Y-92.1366
G1X54.7300Y-92.1910
G1X52.2306Y-91.9458
G1X49.8673Y-91.3712
G1X48.7596Y-90.9634
G1X47.8241Y-90.5128
G1X47.0533Y-90.0228
G1X46.3180Y-89.4077
G1X45.8101Y-88.8310
G1X45.4477Y-88.2093
G1X45.2744Y-87.6266
G1X45.2415Y-86.9244
G1X45.3903Y-86.2339
G1X45.6850Y-85.6430
G1X46.2111Y-84.9960
G1X46.9192Y-84.3777
G1X47.7710Y-83.8220
G1X48.6394Y-83.3964
G1X49.8205Y-82.9593
G1X51.1250Y-82.6019
G1X52.3750Y-82.3624
G1X53.7323Y-82.2114
G1X56.5881Y-82.1814
G1X59.2266Y-82.5167
G1X60.6474Y-82.8603
G1X61.8593Y-83.2599
G1X62.8782Y-83.7079
G1X63.8349Y-84.2599
G1X64.6591Y-84.8767
G1X65.2506Y-85.4618
G1X65.6504Y-86.0172
G1X65.9562Y-86.6820
G1X66.1099Y-87.3698
G1X66.1034Y-88.0507
G1X65.9123Y-88.7429
G1X65.5516Y-89.4042
G1X65.0364Y-90.0477
G1X64.3883Y-90.6452
G1X63.6028Y-91.1874
G1X62.6675Y-91.6856
G1X61.5143Y-92.1679
G1X60.3846Y-92.5333
G1X57.9543Y-93.0201
G1X55.1923Y-93.2172
G1X52.5336Y-93.0529
G1X49.9310Y-92.5456
G1X47.8167Y-91.7527
G1X46.8605Y-91.2291
G1X46.1450Y-90.7198
G1X45.5807Y-90.1744
G1X45.0900Y-89.4942
G1X44.7846Y-88.7909
G1X44.6864Y-88.1830
G1X44.7588Y-87.5483
G1X45.0420Y-86.8155
G1X45.5198Y-86.1167
G1X46.0758Y-85.5710
G1X46.9131Y-84.9774
G1X47.9230Y-84.4371
G1X48.9425Y-84.0192
G1X50.0653Y-83.6792
G1X52.6880Y-83.2082
G1X55.3530Y-83.1017
G1X58.1248Y-83.3609
G1X60.5105Y-83.9311
G1X61.6940Y-84.3728
G1X62.6710Y-84.8398
G1X63.4547Y-85.3180
G1X64.1579Y-85.8827
G1X64.8013Y-86.5830
G1X65.2150Y-87.2328
G1X65.4611Y-87.9056
G1X65.5256Y-88.5799
G1X65.4299Y-89.2688
G1X65.1793Y-89.9423
G1X64.7582Y-90.5974
G1X64.1942Y-91.1928
G1X63.3979Y-91.8248
G1X62.5618Y-92.3415
G1X61.6295Y-92.7918
G1X60.5457Y-93.1939
G1X58.1055Y-93.8036
G1X55.3887Y-94.0881
G1X52.4532Y-94.0115
G1X49.8743Y-93.5760
G1X48.5867Y-93.2085
G1X47.5265Y-92.8076
G1X46.5500Y-92.3141
G1X45.7322Y-91.7711
G1X44.9882Y-91.1159
G1X44.4894Y-90.4857
G1X44.1763Y-89.8132
G1X44.0419Y-89.1089
G1X44.0903Y-88.4101
G1X44.3016Y-87.7993
G1X44.6908Y-87.1868
G1X45.2377Y-86.5911
G1X45.9166Y-86.0392
G1X46.7776Y-85.5176
G1X47.7315Y-85.0822
G1X48.9056Y-84.6693
G1X50.1574Y-84.3435
G1X51.3369Y-84.1360
G1X54.0971Y-83.9400
G1X56.6414Y-84.0862
G1X59.2754Y-84.6059
G1X60.4480Y-84.9798
G1X61.4442Y-85.4056
G1X62.3784Y-85.9182
G1X63.1880Y-86.4850
G1X63.7758Y-87.0208
G1X64.2391Y-87.6087
G1X64.5837Y-88.2685
G1X64.7760Y-88.9478
G1X64.8044Y-89.6171
G1X64.6460Y-90.3064
G1X64.3079Y-90.9944
G1X63.8090Y-91.6595
G1X63.1689Y-92.2700
G1X62.4369Y-92.7887
G1X61.4715Y-93.3223
G1X60.3864Y-93.7938
G1X59.2498Y-94.1742
G1X58.0282Y-94.4719
G1X55.1458Y-94.8600
G1X53.7248Y-94.9041
G1X52.2912Y-94.8460
G1X50.7630Y-94.6809
G1X49.4215Y-94.4399
G1X48.2228Y-94.1230
G1X47.0178Y-93.6879
G1X45.9356Y-93.1765
G1X45.1047Y-92.6647
G1X44.4017Y-92.0761
G1X43.7879Y-91.3442
G1X43.4266Y-90.6697
G1X43.2600Y-89.9741
G1X43.2955Y-89.3028
G1X43.5459Y-88.5339
G1X43.9366Y-87.8967
G1X44.5013Y-87.2984
G1X45.2735Y-86.7092
G1X46.1973Y-86.1718
G1X47.1198Y-85.7572
G1X48.1953Y-85.3947
G1X50.7126Y-84.8629
G1X53.2667Y-84.6849
G1X56.0496Y-84.8556
G1X58.3638Y-85.3165
G1X60.5855Y-86.1185
G1X61.4902Y-86.5958
G1X62.2386Y-87.1142
G1X62.9512Y-87.7640
G1X63.4416Y-88.3741
G1X63.7780Y-89.0070
G1X63.9360Y-89.5932
G1X63.9625Y-90.3029
G1X63.8203Y-91.0084
G1X63.5233Y-91.6560
G1X63.1010Y-92.2292
G1X62.4620Y-92.8595
G1X61.6807Y-93.4469
G1X60.8156Y-93.9499
G1X59.8859Y-94.3674
G1X57.6167Y-95.0794
G1X56.2666Y-95.3482
G1X54.7995Y-95.5207
G1X53.2611Y-95.5942
G1X51.7386Y-95.5666
G1X50.3324Y-95.4388
G1X48.9843Y-95.2153
G1X47.5951Y-94.8799
G1X46.4322Y-94.4972
G1X45.4383Y-94.0586
G1X44.4956Y-93.5148
G1X43.6998Y-92.9161
G1X43.0763Y-92.2693
G1X42.6791Y-91.6300
G1X42.4230Y-90.8568
G1X42.3894Y-90.0857
G1X42.5738Y-89.3916
G1X42.8952Y-88.8054
G1X43.4265Y-88.1558
G1X44.1067Y-87.5603
G1X44.8222Y-87.0959
G1X45.7875Y-86.6139
G1X46.8773Y-86.1922
G1X49.1974Y-85.6156
G1X51.7745Y-85.3533
G1X54.3325Y-85.4174
G1X57.0567Y-85.8613
G1X58.2334Y-86.1905
G1X59.2687Y-86.5832
G1X60.2322Y-87.0519
G1X61.0822Y-87.5748
G1X61.7773Y-88.1302
G1X62.3018Y-88.7074
G1X62.7460Y-89.4229
G1X62.9829Y-90.0688
G1X63.0634Y-90.7056
G1X62.9790Y-91.3435
G1X62.7387Y-91.9924
G1X62.3553Y-92.6260
G1X61.8414Y-93.2180
G1X61.1487Y-93.7944
G1X60.2376Y-94.3709
G1X59.1903Y-94.8880
G1X58.1620Y-95.2832
G1X56.9874Y-95.6215
G1X55.4976Y-95.9278
G1X54.0549Y-96.1190
G1X52.6367Y-96.2059
G1X51.1925Y-96.1911
G1X49.6394Y-96.0725
G1X48.1693Y-95.8548
G1X46.8508Y-95.5454
G1X45.5530Y-95.1190
G1X44.3875Y-94.6113
G1X43.5013Y-94.1016
G1X42.7086Y-93.4813
G1X42.0213Y-92.7222
G1X41.6139Y-92.0192
G1X41.4257Y-91.2779
G1X41.4504Y-90.5684
G1X41.7001Y-89.7702
G1X42.0701Y-89.1678
G1X42.6306Y-88.5688
G1X43.4439Y-87.9361
G1X44.3074Y-87.4257
G1X45.2376Y-87.0063
G1X46.3306Y-86.6345
G1X48.7770Y-86.0999
G1X51.4133Y-85.9124
G1X54.0753Y-86.0609
G1X56.5344Y-86.5501
G1X58.6875Y-87.3236
G1X59.5957Y-87.8106
G1X60.3943Y-88.3709
G1X61.0606Y-88.9821
G1X61.5604Y-89.6162
G1X61.8630Y-90.2297
G1X62.0260Y-90.9264
G1X62.0211Y-91.6342
G1X61.8809Y-92.2243
G1X61.5636Y-92.8626
G1X61.1063Y-93.4599
G1X60.4337Y-94.1045
G1X59.7196Y-94.6281
G1X57.9112Y-95.5334
G1X55.5982Y-96.2505
G1X54.3240Y-96.4933
G1X52.8275Y-96.6655
G1X49.8864Y-96.7139
G1X47.0999Y-96.3650
G1X45.7325Y-96.0448
G1X44.5287Y-95.6526
G1X43.4135Y-95.1570
G1X42.4253Y-94.5813
G1X41.6187Y-93.9588
G1X41.0722Y-93.3648
G1X40.6378Y-92.6407
G1X40.4026Y-91.8919
G1X40.3831Y-91.1647
G1X40.5821Y-90.4605
G1X40.9799Y-89.7592
G1X41.4716Y-89.1780
G1X42.0950Y-88.6430
G1X42.8675Y-88.1473
G1X43.8694Y-87.6486
G1X44.8747Y-87.2585
G1X47.2070Y-86.6834
G1X49.8771Y-86.4106
G1X52.4341Y-86.4938
G1X55.1337Y-86.9418
G1X57.3060Y-87.6735
G1X58.3075Y-88.1675
G1X59.0902Y-88.6594
G1X59.7032Y-89.1622
G1X60.2836Y-89.8126
G1X60.7039Y-90.5048
G1X60.9219Y-91.1176
G1X60.9852Y-91.7491
G1X60.8830Y-92.4210
G1X60.6217Y-93.0923
G1X60.2117Y-93.7334
G1X59.6248Y-94.3519
G1X58.8687Y-94.9363
G1X57.9692Y-95.4783
G1X56.9665Y-95.9525
G1X54.7198Y-96.6591
G1X53.2921Y-96.9426
G1X51.8432Y-97.1238
G1X50.3461Y-97.1954
G1X48.8030Y-97.1628
G1X47.2943Y-97.0308
G1X45.9135Y-96.8058
G1X44.5602Y-96.4687
G1X43.2924Y-96.0394
G1X42.1819Y-95.5423
G1X41.2619Y-94.9851
G1X40.4430Y-94.3126
G1X39.8222Y-93.5951
G1X39.4414Y-92.8737
G1X39.2892Y-92.1715
G1X39.3199Y-91.4558
G1X39.5312Y-90.7642
G1X39.9021Y-90.1499
G1X40.4785Y-89.5189
G1X41.2148Y-88.9254
G1X42.0749Y-88.4002
G1X42.9957Y-87.9772
G1X44.1146Y-87.5833
G1X46.4690Y-87.0438
G1X49.0786Y-86.8330
G1X51.7147Y-86.9494
G1X54.2073Y-87.4160
G1X56.3213Y-88.1378
G1X57.2269Y-88.6010
G1X58.0387Y-89.1338
G1X58.7222Y-89.7117
G1X59.2427Y-90.3101
G1X59.6082Y-90.9641
G1X59.8130Y-91.6585
G1X59.8495Y-92.3601
G1X59.7413Y-92.9418
G1X59.4535Y-93.5859
G1X58.9977Y-94.2282
G1X58.3965Y-94.8408
G1X57.6728Y-95.3959
G1X55.8428Y-96.3398
G1X53.6257Y-97.0541
G1X52.2839Y-97.3186
G1X50.7507Y-97.5058
G1X47.8739Y-97.5703
G1X46.4234Y-97.4479
G1X44.8917Y-97.2100
G1X43.5632Y-96.9013
G1X42.3721Y-96.5115
G1X41.2843Y-96.0375
G1X40.2417Y-95.4465
G1X39.4474Y-94.8434
G1X38.8429Y-94.1883
G1X38.3681Y-93.3924
G1X38.1510Y-92.6759
G1X38.1487Y-91.9570
G1X38.3678Y-91.2117
G1X38.7255Y-90.5740
G1X39.2229Y-89.9804
G1X39.9185Y-89.3989
G1X40.7583Y-88.8713
G1X41.7217Y-88.3985
G1X42.7645Y-88.0042
G1X45.1502Y-87.4421
G1X47.7315Y-87.1913
G1X50.4758Y-87.3064
G1X52.9084Y-87.7274
G1X55.1287Y-88.4854
G1X56.0929Y-88.9638
G1X56.8814Y-89.4727
G1X57.5587Y-90.0608
G1X58.0993Y-90.7020
G1X58.4776Y-91.3659
G1X58.6607Y-91.9688
G1X58.6947Y-92.5581
G1X58.5738Y-93.2602
G1X58.2865Y-93.9464
G1X57.8786Y-94.5384
G1X57.3025Y-95.1198
G1X56.5780Y-95.6779
G1X55.7364Y-96.1901
G1X54.7532Y-96.6568
G1X52.5207Y-97.3674
G1X51.0791Y-97.6612
G1X49.6614Y-97.8393
G1X48.1436Y-97.9153
G1X46.4924Y-97.8850
G1X45.0064Y-97.7535
G1X43.6763Y-97.5323
G1X42.3562Y-97.2102
G1X41.0412Y-96.7752
G1X40.0050Y-96.3183
G1X39.0309Y-95.7407
G1X38.2075Y-95.0895
G1X37.5809Y-94.4031
G1X37.1961Y-93.7347
G1X36.9849Y-92.9549
G1X36.9805Y-92.2649
G1X37.1791Y-91.5260
G1X37.5378Y-90.9064
G1X38.0605Y-90.2982
G1X38.7202Y-89.7284
G1X39.5384Y-89.1967
G1X41.5093Y-88.3488
G1X43.8691Y-87.7595
G1X46.4754Y-87.5065
G1X49.0125Y-87.5743
G1X51.5998Y-88.0049
G1X52.8424Y-88.3532
G1X53.8620Y-88.7393
G1X54.7472Y-89.1758
G1X55.6259Y-89.7273
G1X56.2873Y-90.2618
G1X56.7821Y-90.7971
G1X57.1780Y-91.4263
G1X57.4272Y-92.0906
G1X57.5189Y-92.7604
G1X57.4244Y-93.4749
G1X57.1420Y-94.1502
G1X56.6891Y-94.8168
G1X56.0867Y-95.4433
G1X55.4590Y-95.9309
G1X54.5767Y-96.4584
G1X53.5546Y-96.9387
G1X51.3612Y-97.6515
G1X48.7884Y-98.0839
G1X46.1384Y-98.2008
G1X43.3693Y-97.9611
G1X42.0121Y-97.7093
G1X40.8414Y-97.3962
G1X38.7045Y-96.5255
G1X37.8222Y-96.0085
G1X37.0981Y-95.4438
G1X36.4993Y-94.7984
G1X36.0643Y-94.1163
G1X35.8158Y-93.4319
G1X35.7664Y-92.7755
G1X35.8939Y-92.0903
G1X36.1882Y-91.4178
G1X36.6376Y-90.7909
G1X37.2704Y-90.1948
G1X38.1668Y-89.5749
G1X39.1160Y-89.0735
G1X40.0855Y-88.6806
G1X41.2856Y-88.3216
G1X43.9563Y-87.8464
G1X46.5978Y-87.7611
G1X49.4109Y-88.0428
G1X50.6395Y-88.3115
G1X51.8700Y-88.6878
G1X52.9992Y-89.1425
G1X53.9875Y-89.6686
G1X54.7950Y-90.2537
G1X55.5242Y-90.9808
G1X55.9911Y-91.6662
G1X56.2476Y-92.3497
G1X56.3159Y-93.0425
G1X56.1866Y-93.8430
G1X55.8947Y-94.5136
G1X55.3630Y-95.2190
G1X54.6406Y-95.8833
G1X53.7560Y-96.4944
G1X52.8267Y-96.9833
G1X51.7833Y-97.4024
G1X50.5207Y-97.7927
G1X49.1848Y-98.0976
G1X47.8840Y-98.2940
G1X46.3727Y-98.4107
G1X43.4182Y-98.3515
G1X42.0916Y-98.1845
G1X40.6529Y-97.8951
G1X39.3953Y-97.5434
G1X38.2528Y-97.1169
G1X37.2456Y-96.6119
G1X36.3571Y-96.0314
G1X35.6302Y-95.4066
G1X35.0980Y-94.7546
G1X34.7642Y-94.0899
G1X34.5843Y-93.3009
G1X34.6296Y-92.5285
G1X34.8720Y-91.8657
G1X35.3572Y-91.1355
G1X36.0355Y-90.4486
G1X36.7910Y-89.8968
G1X37.7753Y-89.3666
G1X39.0174Y-88.8631
G1X40.2562Y-88.4919
G1X41.5191Y-88.2321
G1X42.9442Y-88.0513
G1X44.4095Y-87.9668
G1X45.8378Y-87.9863
G1X47.2889Y-88.1202
G1X48.7261Y-88.3600
G1X49.9739Y-88.6647
G1X51.1348Y-89.0611
G1X52.2296Y-89.5656
G1X53.2698Y-90.2004
G1X53.9001Y-90.7102
G1X54.4107Y-91.2746
G1X54.8094Y-91.9133
G1X55.0580Y-92.5752
G1X55.1405Y-93.1389
G1X55.0770Y-93.7702
G1X54.8533Y-94.4092
G1X54.4832Y-95.0392
G1X53.9803Y-95.6339
G1X53.3943Y-96.1426
G1X52.6069Y-96.6674
G1X51.6895Y-97.1522
G1X49.7853Y-97.8734
G1X47.4555Y-98.3823
G1X45.1796Y-98.6148
G1X42.9233Y-98.5923
G1X40.4826Y-98.3082
G1X38.4668Y-97.8176
G1X36.6219Y-97.0966
G1X35.2050Y-96.2562
G1X34.6156Y-95.7546
G1X34.0659Y-95.1385
G1X33.7102Y-94.5827
G1X33.4834Y-94.0156
G1X33.3965Y-93.4388
G1X33.4380Y-92.8464
G1X33.6031Y-92.2592
G1X33.8870Y-91.6982
G1X34.3341Y-91.1279
G1X34.8887Y-90.6141
G1X36.3144Y-89.6847
G1X38.0633Y-88.9694
G1X40.1720Y-88.4455
G1X42.3150Y-88.1837
G1X44.5806Y-88.1688
G1X46.9819Y-88.4229
G1X49.2249Y-88.9807
G1X51.0641Y-89.7349
G1X51.8436Y-90.1997
G1X52.5315Y-90.7239
G1X53.1026Y-91.2859
G1X53.5315Y-91.8640
G1X53.8129Y-92.4776
G1X53.9399Y-93.0684
G1X53.9321Y-93.7696
G1X53.7903Y-94.3567
G1X53.5093Y-94.9326
G1X53.1293Y-95.4485
G1X52.4030Y-96.1623
G1X51.5011Y-96.8092
G1X50.4759Y-97.3481
G1X49.1725Y-97.8582
G1X47.8428Y-98.2465
G1X46.4154Y-98.5367
G1X44.9366Y-98.7138
G1X43.2915Y-98.7946
G1X41.6797Y-98.7588
G1X40.2453Y-98.6151
G1X38.7051Y-98.3435
G1X37.2657Y-97.9705
G1X36.0502Y-97.5296
G1X34.9710Y-97.0000
G1X33.9546Y-96.3404
G1X33.2282Y-95.6972
G1X32.8155Y-95.1798
G1X32.4672Y-94.5338
G1X32.2722Y-93.8702
G1X32.2346Y-93.3100
G1X32.3428Y-92.7033
G1X32.6018Y-92.1006
G1X32.9969Y-91.5102
G1X33.5124Y-90.9550
G1X34.8489Y-90.0141
G1X36.6772Y-89.2021
G1X38.6455Y-88.6703
G1X40.9839Y-88.3532
G1X43.5365Y-88.3215
G1X46.2959Y-88.6643
G1X48.4334Y-89.2453
G1X49.4308Y-89.6541
G1X50.4193Y-90.1711
G1X51.1754Y-90.6815
G1X51.7920Y-91.2416
G1X52.2546Y-91.8187
G1X52.6285Y-92.5108
G1X52.8032Y-93.1187
G1X52.8207Y-93.7530
G1X52.6713Y-94.4196
G1X52.3645Y-95.0800
G1X51.8357Y-95.7892
G1X51.0298Y-96.4999
G1X50.0235Y-97.1434
G1X48.8592Y-97.7052
G1X47.6420Y-98.1366
G1X46.1903Y-98.5037
G1X44.6416Y-98.7687
G1X43.2030Y-98.9061
G1X41.5911Y-98.9347
G1X39.9501Y-98.8463
G1X38.4788Y-98.6628
G1X37.0629Y-98.3669
G1X35.6510Y-97.9395
G1X34.3800Y-97.4195
G1X33.3535Y-96.8497
G1X32.4703Y-96.1712
G1X31.9022Y-95.5810
G1X31.5267Y-95.0512
G1X31.2620Y-94.4694
G1X31.1420Y-93.8864
G1X31.1603Y-93.1913
G1X31.3094Y-92.6069
G1X31.5686Y-92.0729
G1X31.9997Y-91.5037
G1X32.5755Y-90.9491
G1X33.2702Y-90.4306
G1X34.9058Y-89.5848
G1X37.0413Y-88.9149
G1X39.3831Y-88.5252
G1X42.0584Y-88.4407
G1X44.4861Y-88.6652
G1X46.9217Y-89.2397
G1X48.0022Y-89.6297
G1X48.9309Y-90.0731
G1X49.7612Y-90.5879
G1X50.4728Y-91.1549
G1X51.0321Y-91.7493
G1X51.3950Y-92.3151
G1X51.6473Y-92.9936
G1X51.7339Y-93.6919
G1X51.6485Y-94.3768
G1X51.3768Y-95.0421
G1X50.8066Y-95.8353
G1X50.0993Y-96.5095
G1X49.2264Y-97.1154
G1X48.0541Y-97.7066
G1X46.6960Y-98.2163
G1X45.3480Y-98.5853
G1X43.7991Y-98.8609
G1X42.1495Y-99.0223
G1X40.4953Y-99.0637
G1X38.9727Y-98.9825
G1X37.4277Y-98.7827
G1X35.8571Y-98.4562
G1X34.5468Y-98.0585
G1X33.3495Y-97.5546
G1X32.2068Y-96.9132
G1X31.3639Y-96.2712
G1X30.8998Y-95.7856
G1X30.4767Y-95.1747
G1X30.1931Y-94.5410
G1X30.0616Y-93.9108
G1X30.0792Y-93.3816
G1X30.2497Y-92.7500
G1X30.5684Y-92.1244
G1X31.0214Y-91.5309
G1X31.5914Y-90.9972
G1X32.2692Y-90.5179
G1X34.0423Y-89.6294
G1X35.9774Y-89.0355
G1X38.3305Y-88.6475
G1X40.9084Y-88.5535
G1X43.7033Y-88.8281
G1X45.9842Y-89.3884
G1X48.0424Y-90.2733
G1X48.8874Y-90.8078
G1X49.5632Y-91.3890
G1X50.1035Y-92.0261
G1X50.4838Y-92.6882
G1X50.6686Y-93.2769
G1X50.7007Y-93.9580
G1X50.5589Y-94.6549
G1X50.3052Y-95.2397
G1X49.7734Y-95.9782
G1X49.0310Y-96.6553
G1X47.9999Y-97.3426
G1X46.9103Y-97.8845
G1X45.6667Y-98.3360
G1X44.1895Y-98.7237
G1X42.6333Y-99.0000
G1X41.1305Y-99.1419
G1X39.4960Y-99.1715
G1X37.8634Y-99.0867
G1X36.3889Y-98.8989
G1X34.9276Y-98.5858
G1X33.4490Y-98.1320
G1X32.2422Y-97.6262
G1X31.1911Y-97.0168
G1X30.3620Y-96.3658
G1X29.8327Y-95.8135
G1X29.4355Y-95.2333
G1X29.1996Y-94.6650
G1X29.0867Y-94.0726
G1X29.1117Y-93.3792
G1X29.2684Y-92.8070
G1X29.5531Y-92.2649
G1X30.0233Y-91.6682
G1X31.2593Y-90.6398
G1X32.8997Y-89.8093
G1X35.0875Y-89.1254
G1X37.2844Y-88.7664
G1X39.9681Y-88.6661
G1X42.4186Y-88.8891
G1X44.9210Y-89.4671
G1X45.8992Y-89.8165
G1X46.8925Y-90.2853
G1X47.7831Y-90.8295
G1X48.5279Y-91.4217
G1X49.0105Y-91.9370
G1X49.4214Y-92.5837
G1X49.6742Y-93.2699
G1X49.7582Y-93.9626
G1X49.6690Y-94.6075
G1X49.3916Y-95.2764
G1X48.8043Y-96.0999
G1X48.0804Y-96.7823
G1X47.1480Y-97.4039
G1X45.9811Y-97.9807
G1X44.6700Y-98.4681
G1X43.3897Y-98.8111
G1X41.8281Y-99.0876
G1X40.1845Y-99.2516
G1X38.5624Y-99.2902
G1X37.0072Y-99.2025
G1X35.3550Y-98.9857
G1X33.9122Y-98.6807
G1X32.5945Y-98.2707
G1X31.3214Y-97.7274
G1X30.3040Y-97.1536
G1X29.4589Y-96.5022
G1X28.9361Y-95.9396
G1X28.5355Y-95.3432
G1X28.2715Y-94.7364
G1X28.1579Y-94.1276
G1X28.1912Y-93.5672
G1X28.3818Y-92.9055
G1X28.7247Y-92.2634
G1X29.1309Y-91.7509
G1X29.7173Y-91.2163
G1X30.4481Y-90.7052
G1X32.2121Y-89.8318
G1X34.2625Y-89.2270
G1X36.5150Y-88.8636
G1X39.1604Y-88.7843
G1X41.8941Y-89.0567
G1X44.2357Y-89.6479
G1X46.2363Y-90.5111
G1X47.0164Y-91.0092
G1X47.6934Y-91.5795
G1X48.2960Y-92.2722
G1X48.6618Y-92.9034
G1X48.8502Y-93.5360
G1X48.8775Y-94.2304
G1X48.7355Y-94.9273
G1X48.4819Y-95.5012
G1X47.9435Y-96.2244
G1X47.1432Y-96.9474
G1X46.1490Y-97.6043
G1X45.0588Y-98.1339
G1X43.6855Y-98.6189
G1X42.1708Y-99.0030
G1X40.7376Y-99.2429
G1X39.1539Y-99.3758
G1X37.5104Y-99.3949
G1X35.9131Y-99.2991
G1X34.4750Y-99.0962
G1X32.9326Y-98.7492
G1X31.6065Y-98.3302
G1X30.4245Y-97.8168
G1X29.4012Y-97.2089
G1X28.4832Y-96.4663
G1X27.9728Y-95.8869
G1X27.6455Y-95.3340
G1X27.4373Y-94.7495
G1X27.3495Y-94.0557
G1X27.4115Y-93.4749
G1X27.5804Y-92.9740
G1X27.8957Y-92.4206
G1X28.4040Y-91.8028
G1X28.9600Y-91.2956
G1X29.6489Y-90.8104
G1X31.4544Y-89.9445
G1X33.4891Y-89.3340
G1X35.7407Y-88.9875
G1X38.4112Y-88.8995
G1X40.9924Y-89.1637
G1X43.4098Y-89.7445
G1X44.4166Y-90.1256
G1X45.3918Y-90.6030
G1X46.2502Y-91.1389
G1X46.9488Y-91.7092
G1X47.4485Y-92.2770
G1X47.8341Y-92.9181
G1X48.0688Y-93.5811
G1X48.1390Y-94.2368
G1X48.0387Y-94.8649
G1X47.7310Y-95.5915
G1X47.1644Y-96.3791
G1X46.4742Y-97.0216
G1X45.5374Y-97.6451
G1X44.3161Y-98.2527
G1X43.0701Y-98.7139
G1X41.6756Y-99.0765
G1X40.0638Y-99.3536
G1X38.5136Y-99.5021
G1X37.0005Y-99.5302
G1X35.3523Y-99.4352
G1X33.8419Y-99.2395
G1X32.4058Y-98.9367
G1X31.0742Y-98.5221
G1X29.7615Y-97.9664
G1X28.7359Y-97.3830
G1X27.9522Y-96.7664
G1X27.4355Y-96.2181
G1X27.0370Y-95.6452
G1X26.7729Y-95.0684
G1X26.6569Y-94.5265
G1X26.6651Y-93.9389
G1X26.8337Y-93.2495
G1X27.1653Y-92.5877
G1X27.5714Y-92.0674
G1X28.8363Y-91.0317
G1X30.5558Y-90.1509
G1X32.7036Y-89.4995
G1X35.0805Y-89.1127
G1X37.7410Y-89.0417
G1X40.3635Y-89.2980
G1X42.7189Y-89.8802
G1X43.8344Y-90.2954
G1X44.7502Y-90.7375
G1X45.5135Y-91.2176
G1X46.2553Y-91.8234
G1X46.8400Y-92.4687
G1X47.2087Y-93.0700
G1X47.4073Y-93.6438
G1X47.4830Y-94.3416
G1X47.3900Y-95.0380
G1X47.1373Y-95.6812
G1X46.6190Y-96.4136
G1X45.7974Y-97.1886
G1X44.8718Y-97.8184
G1X43.7645Y-98.3659
G1X42.3334Y-98.8838
G1X40.8833Y-99.2606
G1X39.3847Y-99.5106
G1X37.7495Y-99.6480
G1X36.0879Y-99.6672
G1X34.5743Y-99.5708
G1X33.0107Y-99.3417
G1X31.4099Y-98.9704
G1X30.0546Y-98.5173
G1X28.9427Y-97.9984
G1X27.8812Y-97.3339
G1X27.1082Y-96.6744
G1X26.6620Y-96.1359
G1X26.3418Y-95.5694
G1X26.1188Y-94.8826
G1X26.0642Y-94.2957
G1X26.1380Y-93.7478
G1X26.3669Y-93.1494
G1X26.7385Y-92.5545
G1X27.2364Y-91.9861
G1X27.8439Y-91.4674
G1X28.5135Y-91.0298
G1X30.3689Y-90.1705
G1X32.3657Y-89.6001
G1X34.6571Y-89.2642
G1X37.3068Y-89.1960
G1X39.9965Y-89.4925
G1X42.3253Y-90.0776
G1X43.3417Y-90.4747
G1X44.3626Y-90.9847
G1X45.1592Y-91.4937
G1X45.8370Y-92.0707
G1X46.3377Y-92.6622
G1X46.7472Y-93.3785
G1X46.9456Y-94.0115
G1X46.9791Y-94.6480
G1X46.8432Y-95.3129
G1X46.5484Y-95.9743
G1X46.0329Y-96.6884
G1X45.3629Y-97.3099
G1X44.3998Y-97.9605
G1X43.2648Y-98.5377
G1X42.1034Y-98.9779
G1X40.7956Y-99.3354
G1X39.2748Y-99.6245
G1X37.8274Y-99.7905
G1X36.4194Y-99.8459
G1X34.8688Y-99.7982
G1X33.3463Y-99.6470
G1X31.9851Y-99.4080
G1X30.6371Y-99.0492
G1X29.3760Y-98.5922
G1X28.2767Y-98.0647
G1X27.4014Y-97.4938
G1X26.7562Y-96.9328
G1X26.2406Y-96.3360
G1X25.8775Y-95.7282
G1X25.6988Y-95.2017
G1X25.6336Y-94.6156
G1X25.7156Y-93.9228
G1X25.9185Y-93.3454
G1X26.2637Y-92.7740
G1X26.7492Y-92.2279
G1X27.4506Y-91.6375
G1X29.0511Y-90.7100
G1X31.1666Y-89.9776
G1X33.4446Y-89.5282
G1 Z0F20000

G00 X0.0000 Y0.0000

