$H
G21
G17
G90
G1 Z0F20000
G1 F15000

(Start Layer)

(Start Block)


G1X52.5437Y-73.9073
G1Z5F20000
(Plotting speed under)
G1 F4000


G1X52.5957Y-73.6400

G1X52.2183Y-74.2164

G1X51.8571Y-75.2560

G1X52.8158Y-74.0646

G1X53.4936Y-72.9560

G1X53.6078Y-72.4850

G1X53.5632Y-72.2167

G1X53.4181Y-71.9934

G1X53.1868Y-71.8516

G1X52.7469Y-71.9038

G1X52.3043Y-72.4329

G1X51.0928Y-75.7337

G1X50.2773Y-77.3424

G1X52.5232Y-74.7431

G1X54.2734Y-72.9603

G1X54.6713Y-72.3029

G1X54.6750Y-71.7419

G1X54.2580Y-71.0857

G1X53.5689Y-70.5601

G1X52.7433Y-70.3078

G1X52.2014Y-70.4217

G1X51.7678Y-70.8999

G1X51.5084Y-71.6973

G1X50.8418Y-74.8437

G1X50.2953Y-76.5017

G1X49.8476Y-77.4719

G1X49.3060Y-78.3631

G1X48.7647Y-79.0051

G1X48.5063Y-79.1851

G1X48.4138Y-79.1651

G1X48.5688Y-78.7062

G1X49.2496Y-77.8146

G1X51.8561Y-75.2895

G1X53.1383Y-74.2590

G1X55.3608Y-72.9850

G1X55.6826Y-72.6808

G1X55.8778Y-72.3040

G1X55.8707Y-71.9005

G1X55.5617Y-71.2990

G1X55.0420Y-70.6938

G1X54.3899Y-70.1428

G1X53.5921Y-69.6489

G1X52.8352Y-69.3263

G1X52.1052Y-69.1588

G1X51.5429Y-69.1689

G1X51.0049Y-69.4274

G1X50.6913Y-70.0107

G1X50.2740Y-74.6355

G1X49.9151Y-76.2090

G1X49.4149Y-77.5841

G1X48.7697Y-78.8097

G1X47.9474Y-79.8950

G1X47.0947Y-80.6095

G1X46.6838Y-80.7527

G1X46.5154Y-80.6786

G1X46.4736Y-80.3567

G1X46.6822Y-79.7686

G1X47.0975Y-79.0736

G1X47.6738Y-78.3331

G1X48.9959Y-77.0424

G1X51.0846Y-75.4326

G1X52.1374Y-74.6785

G1X53.0645Y-74.2269

G1X53.9802Y-73.9791

G1X55.7695Y-73.7039

G1X56.4308Y-73.4893

G1X56.8980Y-73.1675

G1X57.1123Y-72.7667

G1X57.1066Y-72.5188

G1X56.9477Y-72.1107

G1X56.3138Y-71.1987

G1X55.4248Y-70.3398

G1X54.3049Y-69.5565

G1X53.0989Y-68.9543

G1X51.8959Y-68.5640

G1X50.8880Y-68.4273

G1X50.0504Y-68.5693

G1X49.6404Y-68.9407

G1X49.4953Y-69.4789

G1X49.7150Y-72.6040

G1X49.7047Y-74.2713

G1X49.4491Y-76.1653

G1X48.9274Y-77.9172

G1X48.0392Y-79.6660

G1X46.9562Y-81.0058

G1X46.2464Y-81.5925

G1X45.6242Y-81.9332

G1X45.1524Y-82.0536

G1X44.7583Y-81.9590

G1X44.6282Y-81.5648

G1X44.7818Y-80.8493

G1X45.2262Y-79.8874

G1X45.9000Y-78.8089

G1X46.6530Y-77.8385

G1X47.3929Y-77.0635

G1X48.1910Y-76.3944

G1X49.0394Y-75.8256

G1X51.5091Y-74.4146

G1X52.4726Y-74.0624

G1X53.5951Y-74.0068

G1X55.7695Y-74.4124

G1X56.7325Y-74.4670

G1X57.2997Y-74.3855

G1X57.7699Y-74.2144

G1X58.1111Y-73.9774

G1X58.2989Y-73.7094

G1X58.3021Y-73.3449

G1X58.1035Y-72.8445

G1X57.7792Y-72.2917

G1X57.2084Y-71.5676

G1X56.0480Y-70.4956

G1X54.6080Y-69.5533

G1X52.8992Y-68.7830

G1X51.2087Y-68.3185

G1X49.6180Y-68.1976

G1X49.0657Y-68.2951

G1X48.6928Y-68.4780

G1X48.4372Y-68.8164

G1X48.3759Y-69.3280

G1X49.0055Y-72.6659

G1X49.1281Y-74.8211

G1X48.9328Y-76.7140

G1X48.3964Y-78.6192

G1X47.9010Y-79.7112

G1X47.3446Y-80.6298

G1X46.7093Y-81.4461

G1X45.9071Y-82.2250

G1X45.1156Y-82.7726

G1X44.3258Y-83.1092

G1X43.6191Y-83.1790

G1X43.1414Y-82.9710

G1X43.0091Y-82.7066

G1X42.9828Y-82.3600

G1X43.1969Y-81.4570

G1X43.8208Y-80.0592

G1X44.6853Y-78.5360

G1X45.6700Y-77.0682

G1X46.5368Y-76.0080

G1X47.3691Y-75.2298

G1X48.2713Y-74.6603

G1X51.0861Y-73.6595

G1X52.1594Y-73.4467

G1X52.5998Y-73.4931

G1X53.2203Y-73.6842

G1X55.6223Y-75.0094

G1X56.8972Y-75.4301

G1X57.6610Y-75.4914

G1X58.4749Y-75.3771

G1X59.1281Y-75.1008

G1X59.4799Y-74.7779

G1X59.4587Y-74.3863

G1X59.1588Y-73.6175

G1X58.6947Y-72.8644

G1X58.1071Y-72.1512

G1X56.6458Y-70.8589

G1X54.9829Y-69.8458

G1X52.8747Y-68.9875

G1X50.6248Y-68.4776

G1X49.5800Y-68.3894

G1X48.7478Y-68.4174

G1X48.1259Y-68.5457

G1X47.6694Y-68.8155

G1X47.4916Y-69.1543

G1X47.5045Y-69.6341

G1X48.4026Y-72.8072

G1X48.6903Y-75.1040

G1X48.5569Y-77.2507

G1X48.3214Y-78.3474

G1X47.9780Y-79.4035

G1X47.4184Y-80.6014

G1X46.7414Y-81.6578

G1X45.9247Y-82.6080

G1X44.9709Y-83.4119

G1X43.9839Y-83.9671

G1X43.0549Y-84.2329

G1X42.3363Y-84.2028

G1X41.9868Y-84.0522

G1X41.7608Y-83.8564

G1X41.6111Y-83.5853

G1X41.5474Y-83.2202

G1X41.6917Y-82.2813

G1X42.2782Y-80.7886

G1X43.4858Y-78.3738

G1X44.7914Y-76.0268

G1X45.9263Y-74.2712

G1X46.8619Y-73.1788

G1X47.7868Y-72.5320

G1X48.6925Y-72.3275

G1X50.1265Y-72.4439

G1X51.7069Y-72.4132

G1X52.1098Y-72.5046

G1X53.0114Y-73.0818

G1X54.7757Y-74.9731

G1X55.4841Y-75.6013

G1X56.2575Y-76.0955

G1X57.1308Y-76.4379

G1X57.9749Y-76.5851

G1X58.9163Y-76.5597

G1X60.2739Y-76.1979

G1X60.5460Y-76.0815

G1X60.5942Y-75.9693

G1X60.5472Y-75.4425

G1X60.2042Y-74.5468

G1X59.7744Y-73.8390

G1X59.1971Y-73.0964

G1X57.7314Y-71.7540

G1X55.9163Y-70.6215

G1X53.6720Y-69.6939

G1X51.3187Y-69.1279

G1X50.1579Y-68.9890

G1X49.0343Y-68.9552

G1X48.0953Y-69.0419

G1X47.4698Y-69.2255

G1X47.0412Y-69.5888

G1X46.9603Y-69.8652

G1X46.9753Y-70.2128

G1X48.0725Y-73.4834

G1X48.3522Y-74.9791

G1X48.4409Y-76.2059

G1X48.3993Y-77.3518

G1X48.2615Y-78.3711

G1X47.9935Y-79.4589

G1X47.6170Y-80.5008

G1X47.0428Y-81.6278

G1X46.2852Y-82.7237

G1X45.3245Y-83.7369

G1X44.3611Y-84.4668

G1X43.2518Y-85.0296

G1X42.2334Y-85.2825

G1X41.3071Y-85.2154

G1X40.7080Y-84.8659

G1X40.3664Y-84.2529

G1X40.3311Y-83.3670

G1X40.5739Y-82.3804

G1X41.3005Y-80.5769

G1X44.2519Y-74.1248

G1X45.4309Y-71.7363

G1X46.4787Y-70.1403

G1X47.0216Y-69.6078

G1X47.5601Y-69.2947

G1X48.1674Y-69.1932

G1X48.7554Y-69.3379

G1X49.2107Y-69.5734

G1X50.6437Y-70.6058

G1X51.6513Y-70.9475

G1X52.1577Y-71.3028

G1X52.8883Y-72.1758

G1X54.2427Y-74.7291

G1X54.7860Y-75.5793

G1X55.4644Y-76.3515

G1X56.3292Y-76.9905

G1X57.4256Y-77.4425

G1X58.5939Y-77.6273

G1X59.7253Y-77.5838

G1X61.1032Y-77.3444

G1X61.5145Y-77.4271

G1X61.6156Y-77.2943

G1X61.6156Y-76.6948

G1X61.4051Y-75.9670

G1X60.9490Y-75.0724

G1X60.3450Y-74.2550

G1X59.6446Y-73.5052

G1X58.8700Y-72.8440

G1X57.8455Y-72.1273

G1X56.8581Y-71.5691

G1X54.5683Y-70.6250

G1X51.9668Y-70.0081

G1X50.6593Y-69.8601

G1X49.3923Y-69.8223

G1X48.3007Y-69.9158

G1X47.5491Y-70.1066

G1X47.2411Y-70.2738

G1X47.0121Y-70.5073

G1X46.9005Y-70.8021

G1X46.8986Y-71.1288

G1X48.0402Y-74.4754

G1X48.3350Y-76.0903

G1X48.4074Y-77.4390

G1X48.3310Y-78.5925

G1X48.1366Y-79.7136

G1X47.8041Y-80.8183

G1X47.3635Y-81.8511

G1X46.6555Y-83.0322

G1X45.7977Y-84.0831

G1X44.7107Y-85.0422

G1X43.6311Y-85.7101

G1X42.4724Y-86.1681

G1X41.3513Y-86.3432

G1X40.4287Y-86.2176

G1X40.0310Y-86.0362

G1X39.7028Y-85.7740

G1X39.3495Y-85.1790

G1X39.2247Y-84.3718

G1X39.3123Y-83.4901

G1X39.6347Y-82.3400

G1X42.2724Y-75.6376

G1X44.4410Y-69.1943

G1X45.0783Y-67.5351

G1X45.5012Y-66.6553

G1X45.9868Y-65.9202

G1X46.4508Y-65.4462

G1X47.0062Y-65.1509

G1X47.4104Y-65.0851

G1X47.8970Y-65.1524

G1X48.3767Y-65.3698

G1X48.8963Y-65.7422

G1X49.8615Y-66.8403

G1X50.7190Y-68.0933

G1X52.3222Y-69.8628

G1X52.6401Y-70.3997

G1X52.9539Y-71.1788

G1X53.9167Y-74.4513

G1X54.2848Y-75.4157

G1X54.8263Y-76.3848

G1X55.5865Y-77.2280

G1X56.7414Y-77.9575

G1X58.1072Y-78.3765

G1X59.6464Y-78.4918

G1X61.7675Y-78.3024

G1X62.5061Y-78.6080

G1X62.5769Y-78.5570

G1X62.6582Y-77.9748

G1X62.4426Y-77.1077

G1X62.0666Y-76.3414

G1X61.4752Y-75.4849

G1X60.7669Y-74.7205

G1X59.9170Y-73.9842

G1X58.9829Y-73.3321

G1X57.9165Y-72.7293

G1X56.7863Y-72.2093

G1X55.6261Y-71.7902

G1X54.2483Y-71.4061

G1X53.0317Y-71.1686

G1X51.6570Y-71.0016

G1X50.3928Y-70.9528

G1X49.1858Y-71.0246

G1X48.2432Y-71.2188

G1X47.7923Y-71.4265

G1X47.4820Y-71.6897

G1X47.3468Y-71.9501

G1X47.3089Y-72.2964

G1X48.3942Y-76.1448

G1X48.6042Y-77.7733

G1X48.5859Y-79.2014

G1X48.4137Y-80.4215

G1X48.1397Y-81.4924

G1X47.7225Y-82.5473

G1X47.2135Y-83.5042

G1X46.4083Y-84.6069

G1X45.4051Y-85.6053

G1X44.2628Y-86.4016

G1X43.1061Y-86.9536

G1X41.7739Y-87.3140

G1X40.6176Y-87.3730

G1X39.6006Y-87.1545

G1X38.8336Y-86.6509

G1X38.4601Y-86.0713

G1X38.2723Y-85.3389

G1X38.2869Y-84.3910

G1X38.5076Y-83.2311

G1X40.6952Y-76.8903

G1X41.6042Y-73.7520

G1X42.2351Y-71.0764

G1X43.2856Y-65.2874

G1X43.8111Y-62.9867

G1X44.4547Y-61.4732

G1X44.8408Y-60.9719

G1X45.2529Y-60.6534

G1X45.7121Y-60.4689

G1X46.2876Y-60.4319

G1X46.8684Y-60.5668

G1X47.5724Y-60.9089

G1X48.1863Y-61.3702

G1X48.8505Y-62.0264

G1X49.4400Y-62.7445

G1X49.9897Y-63.5947

G1X52.6488Y-68.3857

G1X53.1977Y-70.4713

G1X53.6795Y-73.9601

G1X53.9452Y-75.1804

G1X54.4465Y-76.4223

G1X55.1871Y-77.4125

G1X55.7204Y-77.8748

G1X56.3150Y-78.2569

G1X57.0594Y-78.6011

G1X57.8416Y-78.8513

G1X59.6787Y-79.1027

G1X62.4772Y-78.9848

G1X63.0230Y-79.1577

G1X63.3797Y-79.6684

G1X63.6056Y-79.5094

G1X63.6418Y-78.9405

G1X63.4839Y-78.3000

G1X63.0590Y-77.4310

G1X62.5095Y-76.6822

G1X61.8100Y-75.9424

G1X61.0016Y-75.2662

G1X59.9866Y-74.5846

G1X58.9666Y-74.0269

G1X57.7803Y-73.5116

G1X56.5348Y-73.0825

G1X54.0062Y-72.5250

G1X52.7396Y-72.3838

G1X51.4180Y-72.3461

G1X50.2440Y-72.4245

G1X49.4119Y-72.5918

G1X48.7869Y-72.8441

G1X48.4597Y-73.0861

G1X48.2523Y-73.3967

G1X48.1601Y-73.8131

G1X48.2478Y-74.7946

G1X48.8059Y-76.8695

G1X49.0154Y-78.3930

G1X49.0771Y-79.9665

G1X48.9145Y-81.3921

G1X48.6294Y-82.5875

G1X48.2563Y-83.6226

G1X47.7345Y-84.6263

G1X47.0798Y-85.5830

G1X46.2276Y-86.4931

G1X45.1191Y-87.3365

G1X43.9917Y-87.8980

G1X42.6902Y-88.2937

G1X41.2565Y-88.4514

G1X39.9350Y-88.3352

G1X38.9342Y-88.0173

G1X38.0761Y-87.4108

G1X37.6792Y-86.8220

G1X37.4503Y-86.1439

G1X37.3817Y-85.3882

G1X37.4732Y-84.3660

G1X37.8551Y-82.6584

G1X39.8352Y-76.0910

G1X40.6746Y-71.8962

G1X41.0954Y-68.1273

G1X41.2420Y-65.2143

G1X41.3535Y-60.2178

G1X41.5611Y-58.3701

G1X41.7649Y-57.5484

G1X42.0551Y-56.8769

G1X42.4268Y-56.3825

G1X42.9049Y-56.0130

G1X43.6324Y-55.7919

G1X44.6029Y-55.8418

G1X45.5089Y-56.1378

G1X46.6137Y-56.7528

G1X47.5636Y-57.4781

G1X48.4746Y-58.3998

G1X49.4539Y-59.6317

G1X50.2917Y-60.9207

G1X52.3069Y-64.9790

G1X52.8748Y-66.5629

G1X53.3608Y-69.0394

G1X53.5701Y-73.1134

G1X53.7510Y-74.7909

G1X54.2131Y-76.2513

G1X54.9326Y-77.3341

G1X55.5258Y-77.8989

G1X56.2043Y-78.3681

G1X56.9751Y-78.7600

G1X57.8442Y-79.0684

G1X58.9743Y-79.3237

G1X60.0976Y-79.4266

G1X63.5302Y-79.3123

G1X63.7744Y-79.3894

G1X63.9212Y-79.5283

G1X64.1738Y-80.1172

G1X64.4034Y-80.3892

G1X64.5496Y-80.4220

G1X64.6472Y-80.2191

G1X64.6098Y-79.6957

G1X64.3122Y-78.9393

G1X63.8150Y-78.2190

G1X63.2559Y-77.5969

G1X61.6686Y-76.3615

G1X59.7556Y-75.3662

G1X57.5274Y-74.6024

G1X55.1345Y-74.1344

G1X52.6559Y-74.0135

G1X51.6073Y-74.1040

G1X50.8010Y-74.2803

G1X50.1911Y-74.5127

G1X49.7945Y-74.7856

G1X49.4627Y-75.2384

G1X49.3178Y-75.7210

G1X49.2836Y-76.4642

G1X49.6239Y-78.6005

G1X49.7425Y-80.8494

G1X49.6749Y-82.2116

G1X49.3651Y-83.7243

G1X48.9463Y-84.9852

G1X48.4822Y-85.9863

G1X47.8507Y-86.9636

G1X47.0242Y-87.9323

G1X46.1194Y-88.6934

G1X44.8923Y-89.3668

G1X43.8788Y-89.6715

G1X42.5607Y-89.8098

G1X41.0254Y-89.6551

G1X39.5247Y-89.2454

G1X38.3764Y-88.7216

G1X37.4224Y-87.9654

G1X36.9896Y-87.3138

G1X36.7132Y-86.5685

G1X36.6160Y-85.7495

G1X36.6709Y-84.7215

G1X36.9645Y-83.0569

G1X38.3361Y-77.8305

G1X38.9277Y-75.1731

G1X39.3250Y-72.2402

G1X39.5378Y-68.9821

G1X39.5325Y-66.9990

G1X39.3946Y-64.6523

G1X39.1846Y-62.3218

G1X38.4677Y-56.7020

G1X38.4181Y-54.5621

G1X38.5364Y-53.7040

G1X38.8074Y-52.9560

G1X39.1945Y-52.3847

G1X39.6530Y-52.0244

G1X40.6313Y-51.6898

G1X41.8441Y-51.6951

G1X43.4213Y-52.0919

G1X44.9166Y-52.7882

G1X46.5148Y-53.8828

G1X48.0030Y-55.2056

G1X49.1137Y-56.5230

G1X50.3298Y-58.3421

G1X51.1981Y-59.8312

G1X51.9133Y-61.3144

G1X52.6707Y-63.2489

G1X53.1698Y-64.9037

G1X53.4515Y-66.2727

G1X53.5913Y-67.6322

G1X53.6717Y-69.5760

G1X53.6555Y-72.8936

G1X53.7589Y-74.1744

G1X53.9434Y-75.0677

G1X54.2037Y-75.8000

G1X54.5828Y-76.5108

G1X55.0768Y-77.1591

G1X55.8224Y-77.8533

G1X56.7053Y-78.4310

G1X57.8194Y-78.9311

G1X58.9079Y-79.2466

G1X60.0231Y-79.4241

G1X61.1516Y-79.4953

G1X64.1475Y-79.2291

G1X64.5801Y-79.2499

G1X64.8572Y-79.4000

G1X65.0996Y-79.7188

G1X65.3300Y-80.1727

G1X65.5178Y-80.8361

G1X65.6046Y-80.9083

G1X65.7114Y-80.7800

G1X65.5996Y-80.3431

G1X65.2123Y-79.7489

G1X64.7737Y-79.2622

G1X64.0944Y-78.6940

G1X62.6085Y-77.7696

G1X60.6895Y-76.9482

G1X58.5265Y-76.3469

G1X56.2833Y-76.0118

G1X54.1866Y-75.9704

G1X52.5380Y-76.2217

G1X51.8628Y-76.4629

G1X51.3046Y-76.8376

G1X50.9282Y-77.2695

G1X50.6709Y-77.8567

G1X50.5661Y-78.5484

G1X50.5499Y-82.3046

G1X50.4649Y-83.7824

G1X50.1838Y-85.1848

G1X49.6465Y-86.7747

G1X49.0985Y-87.9554

G1X48.4926Y-88.9244

G1X47.6894Y-89.8810

G1X46.7022Y-90.7786

G1X45.6972Y-91.3826

G1X44.4250Y-91.8045

G1X43.4620Y-91.8631

G1X42.3614Y-91.6894

G1X41.4135Y-91.3283

G1X39.9604Y-90.5541

G1X38.2527Y-89.4453

G1X36.9989Y-88.3775

G1X36.4314Y-87.5665

G1X36.1117Y-86.8277

G1X35.9618Y-85.9662

G1X35.9517Y-84.9352

G1X36.1525Y-83.2861

G1X36.8770Y-80.0804

G1X37.8319Y-75.0291

G1X38.0677Y-72.3015

G1X38.1050Y-69.2386

G1X37.9410Y-66.4216

G1X37.4958Y-63.4632

G1X36.8724Y-60.3969

G1X35.3255Y-54.3842

G1X34.9739Y-52.2584

G1X34.9578Y-51.1499

G1X35.1580Y-50.1199

G1X35.5228Y-49.4522

G1X36.1344Y-48.9052

G1X36.6634Y-48.6293

G1X37.1958Y-48.4712

G1X38.7862Y-48.3494

G1X40.3003Y-48.5304

G1X41.9843Y-49.0404

G1X43.6964Y-49.7669

G1X45.1074Y-50.5845

G1X46.6470Y-51.7802

G1X48.1459Y-53.2042

G1X49.5920Y-54.8821

G1X50.7323Y-56.6578

G1X52.2540Y-59.7270

G1X53.1158Y-62.0197

G1X53.5698Y-63.8478

G1X53.8106Y-65.8208

G1X53.9193Y-67.7479

G1X53.8899Y-71.8623

G1X54.0008Y-73.1716

G1X54.3840Y-74.7517

G1X55.0175Y-76.0227

G1X55.8439Y-77.0361

G1X56.8695Y-77.8606

G1X58.0409Y-78.5013

G1X59.3795Y-78.9505

G1X60.7030Y-79.1983

G1X61.8559Y-79.2521

G1X63.6217Y-79.1369

G1X65.3621Y-78.8036

G1X66.2043Y-78.8843

G1X66.4182Y-79.0308

G1X66.5508Y-79.2491

G1X66.6840Y-80.4804

G1X66.8514Y-80.9997

G1X65.7098Y-80.2045

G1X64.1180Y-79.4810

G1X62.2440Y-78.8875

G1X60.2325Y-78.4604

G1X58.2132Y-78.2228

G1X56.2426Y-78.1951

G1X54.5039Y-78.4238

G1X53.4007Y-78.8278

G1X52.5939Y-79.4190

G1X52.2783Y-79.8429

G1X52.0555Y-80.3273

G1X51.6241Y-82.4900

G1X51.3433Y-85.2633

G1X51.0750Y-86.6280

G1X50.6344Y-87.9627

G1X50.1146Y-89.2166

G1X49.5661Y-90.2965

G1X48.9756Y-91.2204

G1X48.2121Y-92.1388

G1X47.3922Y-92.9273

G1X46.4206Y-93.6738

G1X45.6304Y-94.0982

G1X44.6640Y-94.4039

G1X43.7269Y-94.5125

G1X42.9951Y-94.3984

G1X42.2390Y-94.0878

G1X41.6357Y-93.7259

G1X41.0233Y-93.1741

G1X38.7368Y-90.6027

G1X36.6909Y-88.4780

G1X35.8102Y-87.2408

G1X35.4166Y-86.0387

G1X35.3012Y-84.9758

G1X35.3603Y-83.6499

G1X36.4955Y-76.7782

G1X36.7617Y-74.5567

G1X36.8315Y-72.0508

G1X36.7301Y-69.2796

G1X36.3858Y-66.0877

G1X35.7410Y-63.1395

G1X34.6577Y-59.4134

G1X32.4339Y-53.1451

G1X31.8473Y-50.8054

G1X31.7054Y-49.3643

G1X31.7891Y-48.2729

G1X32.2019Y-47.3252

G1X32.8189Y-46.6731

G1X34.1069Y-46.0968

G1X35.5735Y-45.8376

G1X37.7209Y-45.9241

G1X39.6791Y-46.2504

G1X41.3256Y-46.7892

G1X43.5144Y-47.8150

G1X45.3919Y-48.9375

G1X46.9292Y-50.1207

G1X48.6995Y-51.9839

G1X50.5402Y-54.4650

G1X51.8099Y-56.5645

G1X52.8024Y-58.8736

G1X53.5163Y-61.1480

G1X53.9295Y-63.4655

G1X54.1514Y-65.5730

G1X54.2907Y-70.2081

G1X54.5194Y-71.9205

G1X54.7881Y-72.9762

G1X55.1485Y-73.9582

G1X55.6119Y-74.8727

G1X56.1552Y-75.7126

G1X57.0326Y-76.6834

G1X58.0764Y-77.5060

G1X59.3217Y-78.1360

G1X60.6985Y-78.5681

G1X62.2316Y-78.7485

G1X63.8880Y-78.6995

G1X64.9395Y-78.4927

G1X67.5183Y-77.7642

G1X67.8563Y-77.8650

G1X68.0019Y-78.2102

G1X68.1660Y-80.3656

G1X68.1008Y-80.6919

G1X67.8285Y-80.8945

G1X66.6076Y-80.9718

G1X61.0733Y-80.6652

G1X58.3140Y-80.6777

G1X56.8913Y-80.8222

G1X56.0124Y-80.9953

G1X55.0445Y-81.3374

G1X54.3235Y-81.7370

G1X53.6551Y-82.4205

G1X53.1171Y-83.3965

G1X52.6951Y-84.6043

G1X52.1242Y-87.4407

G1X51.6468Y-88.9413

G1X50.4587Y-91.6917

G1X49.8660Y-92.7641

G1X49.2447Y-93.6673

G1X48.4716Y-94.5630

G1X47.5606Y-95.4329

G1X46.5789Y-96.2115

G1X45.6416Y-96.7975

G1X44.7286Y-97.1706

G1X43.7762Y-97.3757

G1X42.9644Y-97.3958

G1X42.2793Y-97.2044

G1X41.4602Y-96.6479

G1X40.8216Y-95.9179

G1X38.3097Y-90.7734

G1X37.4415Y-89.4222

G1X35.4737Y-87.0089

G1X35.0403Y-86.1367

G1X34.7675Y-85.2867

G1X34.6482Y-84.2876

G1X34.6873Y-83.0682

G1X34.9791Y-80.1964

G1X35.4821Y-76.5893

G1X35.6141Y-74.8349

G1X35.5701Y-71.7448

G1X35.3390Y-68.7249

G1X34.8843Y-65.8247

G1X34.0694Y-62.8971

G1X32.6602Y-58.9479

G1X31.1049Y-55.4495

G1X30.3580Y-53.5742

G1X29.8302Y-52.0540

G1X29.5176Y-50.8562

G1X29.2134Y-48.6134

G1X29.2281Y-47.1436

G1X29.3755Y-46.3518

G1X29.5818Y-45.8038

G1X29.8157Y-45.4697

G1X30.3387Y-44.9869

G1X30.9069Y-44.6217

G1X31.6584Y-44.3260

G1X33.8902Y-43.9260

G1X35.7399Y-43.8934

G1X37.9765Y-44.2347

G1X40.4211Y-44.8412

G1X42.4066Y-45.5977

G1X44.2231Y-46.6294

G1X46.2137Y-48.0976

G1X48.3715Y-50.0527

G1X50.0199Y-51.9521

G1X51.3501Y-54.1025

G1X52.7405Y-57.0761

G1X53.4828Y-59.2496

G1X54.0963Y-62.1684

G1X54.6752Y-67.7739

G1X55.0439Y-69.6351

G1X55.6036Y-71.2621

G1X56.2376Y-72.6480

G1X57.1177Y-74.2611

G1X58.0130Y-75.4977

G1X58.8833Y-76.3882

G1X60.1341Y-77.2282

G1X61.2144Y-77.6837

G1X62.5603Y-77.9689

G1X64.2046Y-78.0328

G1X65.6637Y-77.7715

G1X67.4280Y-77.1870

G1X68.7767Y-76.3785

G1X69.1160Y-76.2508

G1X69.3235Y-76.2723

G1X69.4639Y-76.3784

G1X69.6701Y-77.0106

G1X69.7105Y-77.6956

G1X69.6226Y-78.8912

G1X69.5159Y-79.4251

G1X69.3215Y-79.8801

G1X68.9531Y-80.3800

G1X68.4374Y-80.8741

G1X67.0716Y-81.7839

G1X65.6543Y-82.4021

G1X63.9818Y-82.8597

G1X62.2288Y-83.1449

G1X58.4777Y-83.5500

G1X56.9752Y-83.8637

G1X55.9385Y-84.2316

G1X55.0658Y-84.8139

G1X54.3742Y-85.5319

G1X53.8340Y-86.4263

G1X52.7117Y-89.5739

G1X50.8486Y-93.7357

G1X50.0741Y-95.0488

G1X49.1196Y-96.2567

G1X48.1590Y-97.2500

G1X47.0802Y-98.2032

G1X45.9722Y-99.0324

G1X45.1211Y-99.5381

G1X44.1072Y-99.9654

G1X43.0639Y-100.2334

G1X42.1286Y-100.3120

G1X41.3963Y-100.1583

G1X40.9656Y-99.9157

G1X40.5275Y-99.5112

G1X40.1796Y-99.0490

G1X39.9551Y-98.5635

G1X39.3495Y-96.0550

G1X38.7187Y-92.9677

G1X38.1942Y-91.2672

G1X37.6169Y-89.8251

G1X37.0947Y-88.8751

G1X36.3845Y-87.8436

G1X35.2771Y-86.6162

G1X34.5841Y-85.6812

G1X34.2926Y-85.1615

G1X34.0917Y-84.5380

G1X33.9166Y-83.2443

G1X33.9151Y-81.4651

G1X34.3442Y-77.5330

G1X34.4262Y-75.6809

G1X34.3301Y-71.7757

G1X34.0557Y-68.6320

G1X33.5272Y-65.9224

G1X32.5415Y-62.8255

G1X31.0450Y-59.0047

G1X28.7724Y-54.3279

G1X28.1717Y-52.7500

G1X27.8043Y-51.4276

G1X27.6592Y-49.8443

G1X27.7774Y-45.3971

G1X27.8730Y-44.9295

G1X28.1508Y-44.2463

G1X28.6304Y-43.6425

G1X29.1758Y-43.3080

G1X30.1005Y-42.8977

G1X30.9718Y-42.6339

G1X31.7766Y-42.4898

G1X34.8761Y-42.3893

G1X37.2780Y-42.5914

G1X39.0149Y-43.0017

G1X41.5185Y-43.9728

G1X43.8655Y-45.1492

G1X45.8117Y-46.3796

G1X47.4270Y-47.7217

G1X48.9542Y-49.4477

G1X50.5191Y-51.6815

G1X52.1529Y-54.4786

G1X53.0180Y-56.5962

G1X53.8945Y-59.8255

G1X54.6619Y-64.4226

G1X54.9748Y-65.8177

G1X55.3212Y-66.9027

G1X56.0129Y-68.2797

G1X57.5964Y-70.8248

G1X59.4287Y-74.0141

G1X60.3657Y-75.2307

G1X61.3624Y-76.1384

G1X62.4331Y-76.6847

G1X63.8269Y-77.0690

G1X65.2446Y-77.1043

G1X66.7743Y-76.8114

G1X68.0924Y-76.3338

G1X69.1193Y-75.6484

G1X70.9765Y-73.9667

G1X71.0561Y-73.9760

G1X71.1226Y-74.1346

G1X71.1412Y-75.1794

G1X71.0147Y-76.5449

G1X70.7957Y-77.4470

G1X70.4649Y-78.3022

G1X69.5908Y-79.9536

G1X68.5703Y-81.5462

G1X67.7459Y-82.6321

G1X66.6431Y-83.7985

G1X65.0871Y-84.9588

G1X64.2633Y-85.3923

G1X63.4225Y-85.7225

G1X61.7362Y-86.1602

G1X57.7098Y-86.7139

G1X56.3656Y-87.1464

G1X55.6392Y-87.5351

G1X54.8824Y-88.2679

G1X54.2035Y-89.3202

G1X53.1480Y-91.3100

G1X51.6772Y-94.5936

G1X50.8992Y-95.9857

G1X49.6722Y-97.5881

G1X48.0784Y-99.2831

G1X46.9440Y-100.3166

G1X45.9261Y-101.1176

G1X44.9795Y-101.7176

G1X43.9791Y-102.2093

G1X42.7202Y-102.6682

G1X41.4632Y-102.9583

G1X40.5978Y-102.9967

G1X39.9114Y-102.8238

G1X39.5142Y-102.5891

G1X39.1287Y-102.2034

G1X38.9060Y-101.8433

G1X38.7595Y-101.3482

G1X38.4692Y-94.4571

G1X38.0572Y-91.9766

G1X37.4600Y-89.7606

G1X36.9174Y-88.4734

G1X36.2278Y-87.2439

G1X35.6017Y-86.4800

G1X33.8483Y-84.8484

G1X33.3571Y-83.9757

G1X33.0900Y-83.1589

G1X32.9586Y-81.7317

G1X33.1758Y-78.1678

G1X33.1996Y-71.8520

G1X32.9685Y-69.3178

G1X32.3916Y-66.6395

G1X31.5496Y-63.8496

G1X30.3931Y-60.6441

G1X29.6481Y-59.0045

G1X27.7336Y-55.3723

G1X26.9116Y-53.3777

G1X26.5208Y-51.9990

G1X26.4377Y-51.2982

G1X26.4976Y-50.4812

G1X27.3729Y-46.6311

G1X27.3713Y-43.2795

G1X27.5621Y-42.8314

G1X28.1704Y-42.1800

G1X28.6786Y-41.8688

G1X29.3967Y-41.6102

G1X31.2305Y-41.2220

G1X32.6220Y-41.0382

G1X34.6690Y-41.0451

G1X37.0586Y-41.4555

G1X40.1263Y-42.2606

G1X42.5992Y-43.2359

G1X44.4972Y-44.3576

G1X46.5386Y-46.0488

G1X48.1648Y-47.7040

G1X49.7312Y-49.5544

G1X50.9237Y-51.1933

G1X51.7211Y-52.6410

G1X52.4620Y-54.4716

G1X53.4713Y-57.6447

G1X53.7975Y-58.9825

G1X54.3254Y-61.9419

G1X54.8254Y-63.5469

G1X55.3741Y-64.7038

G1X56.0721Y-65.5969

G1X58.5171Y-67.8735

G1X59.3751Y-68.8679

G1X60.3912Y-70.3866

G1X61.2937Y-72.3090

G1X62.2226Y-74.0392

G1X62.7284Y-74.6760

G1X63.5794Y-75.3565

G1X64.7010Y-75.8951

G1X65.8608Y-76.0470

G1X67.3937Y-75.8982

G1X68.7523Y-75.4417

G1X69.4385Y-75.0103

G1X70.1125Y-74.4588

G1X71.4567Y-73.0102

G1X71.8176Y-72.3052

G1X72.1508Y-70.8764

G1X72.1913Y-70.9376

G1X72.0382Y-72.7553

G1X71.6965Y-74.4835

G1X69.3889Y-81.2497

G1X68.5780Y-83.1353

G1X67.7840Y-84.6641

G1X66.8612Y-86.0548

G1X65.9609Y-87.1133

G1X65.2684Y-87.7447

G1X64.5381Y-88.2737

G1X63.7564Y-88.6986

G1X62.9800Y-88.9832

G1X61.3537Y-89.2962

G1X59.3986Y-89.3096

G1X57.5916Y-89.4567

G1X56.9085Y-89.6278

G1X56.3145Y-89.9362

G1X55.3054Y-90.7923

G1X54.2653Y-92.1417

G1X52.3406Y-95.8347

G1X51.2691Y-97.4326

G1X48.9721Y-100.1667

G1X46.9051Y-102.1624

G1X45.8601Y-102.9432

G1X44.6309Y-103.6695

G1X43.2719Y-104.3133

G1X41.8018Y-104.8673

G1X40.6400Y-105.2020

G1X39.6436Y-105.3550

G1X38.7829Y-105.3300

G1X38.0099Y-105.1074

G1X37.6830Y-104.9020

G1X37.4322Y-104.6222

G1X37.2551Y-103.9074

G1X37.4505Y-101.4077

G1X37.9290Y-98.1295

G1X38.0429Y-96.5419

G1X37.8794Y-93.4641

G1X37.4168Y-90.5205

G1X36.6892Y-88.2631

G1X36.0688Y-86.8921

G1X35.6266Y-86.1388

G1X35.1808Y-85.5907

G1X34.5231Y-84.9664

G1X33.4160Y-84.4136

G1X32.5785Y-83.8048

G1X32.3201Y-83.4982

G1X32.1197Y-83.0478

G1X31.9054Y-81.7923

G1X31.8574Y-79.6048

G1X32.1569Y-75.1221

G1X32.1617Y-72.9981

G1X31.8569Y-70.2211

G1X31.2618Y-66.9200

G1X30.5914Y-64.1445

G1X29.9285Y-62.0873

G1X29.2387Y-60.4816

G1X27.5237Y-57.0456

G1X26.2895Y-54.3005

G1X25.8766Y-53.2643

G1X25.6575Y-52.4000

G1X25.6483Y-51.5298

G1X25.8650Y-50.7635

G1X26.5368Y-49.3452

G1X27.6162Y-47.7288

G1X28.0596Y-46.3645

G1X28.1802Y-45.5455

G1X28.1948Y-44.7396

G1X27.7447Y-42.9134

G1X27.6944Y-41.9306

G1X27.7574Y-41.4688

G1X28.0697Y-41.0615

G1X28.8026Y-40.6694

G1X29.7826Y-40.3142

G1X30.6953Y-40.1029

G1X31.7587Y-39.9804

G1X35.5580Y-40.0946

G1X37.0213Y-40.2640

G1X38.4101Y-40.5306

G1X40.3985Y-41.1734

G1X42.7090Y-42.3353

G1X45.1875Y-43.9205

G1X47.4635Y-45.7208

G1X48.7768Y-47.0129

G1X49.7630Y-48.2690

G1X50.7689Y-49.9034

G1X51.8200Y-52.0297

G1X52.8657Y-54.4500

G1X53.2225Y-55.4559

G1X53.5473Y-56.7228

G1X54.0954Y-59.5371

G1X54.7159Y-61.7609

G1X55.1469Y-62.7248

G1X55.5899Y-63.2742

G1X56.1593Y-63.6999

G1X57.6095Y-64.4486

G1X59.7922Y-65.3133

G1X60.8690Y-66.0352

G1X61.6798Y-66.7805

G1X62.2627Y-67.5716

G1X62.8012Y-68.6626

G1X63.3359Y-69.9951

G1X63.8417Y-71.7691

G1X64.1280Y-72.4907

G1X64.9275Y-73.8075

G1X65.6486Y-74.4728

G1X66.2400Y-74.7200

G1X66.9952Y-74.8828

G1X67.7256Y-74.9246

G1X68.4735Y-74.8435

G1X68.9933Y-74.6949

G1X69.5794Y-74.4093

G1X70.9072Y-73.4200

G1X72.0127Y-72.2456

G1X72.6072Y-71.2304

G1X72.8853Y-69.8732

G1X72.8939Y-67.9321

G1X72.8354Y-67.6845

G1X72.6426Y-67.5770

G1X72.3352Y-67.7972

G1X72.1871Y-68.1305

G1X71.9538Y-70.4819

G1X71.0672Y-73.8454

G1X70.6483Y-76.1315

G1X70.1132Y-79.9407

G1X69.6207Y-82.3172

G1X69.1248Y-84.1641

G1X68.4442Y-86.0369

G1X67.6372Y-87.7680

G1X66.7622Y-89.2014

G1X65.8226Y-90.3709

G1X65.1859Y-90.9739

G1X64.5929Y-91.4063

G1X63.2632Y-92.0158

G1X62.4917Y-92.1439

G1X60.8713Y-92.1048

G1X58.7232Y-92.2540

G1X57.5923Y-92.6217

G1X56.4512Y-93.2628

G1X55.7749Y-93.8136

G1X55.1437Y-94.4647

G1X52.7779Y-97.7537

G1X49.2063Y-101.9228

G1X47.3323Y-103.6752

G1X45.3281Y-104.9968

G1X42.6612Y-106.2895

G1X39.9945Y-107.2083

G1X38.8129Y-107.4200

G1X37.7428Y-107.4769

G1X36.8449Y-107.3955

G1X36.1436Y-107.1746

G1X35.8592Y-106.9708

G1X35.6833Y-106.7131

G1X35.5846Y-105.9017

G1X35.8005Y-104.3452

G1X36.9501Y-100.7878

G1X37.2981Y-98.9001

G1X37.4465Y-96.8932

G1X37.4773Y-94.7706

G1X37.3852Y-92.8514

G1X37.1787Y-91.3136

G1X36.7826Y-89.6998

G1X36.1604Y-87.8709

G1X35.4976Y-86.2486

G1X34.8165Y-85.0957

G1X34.1141Y-84.2897

G1X33.7134Y-83.9995

G1X32.6801Y-83.7831

G1X31.7689Y-83.7355

G1X31.4962Y-83.6237

G1X30.9160Y-83.0629

G1X30.6556Y-82.5076

G1X30.5251Y-81.2571

G1X30.8659Y-77.3626

G1X30.8550Y-73.7191

G1X30.6932Y-69.7952

G1X30.3671Y-66.9509

G1X29.9578Y-65.0890

G1X29.3110Y-62.9557

G1X27.5906Y-58.1850

G1X26.0474Y-54.5645

G1X25.8044Y-53.7838

G1X25.6678Y-53.0027

G1X25.6354Y-52.3357

G1X25.7096Y-51.6555

G1X26.1587Y-50.4756

G1X26.6187Y-49.9648

G1X27.9245Y-49.0663

G1X28.3686Y-48.6591

G1X29.2961Y-47.4439

G1X29.7332Y-46.4356

G1X29.7936Y-45.4744

G1X29.5803Y-44.2164

G1X29.1956Y-42.7062

G1X28.5938Y-41.3872

G1X28.4427Y-40.8568

G1X28.4700Y-40.5406

G1X28.6205Y-40.1835

G1X29.1261Y-39.6375

G1X29.5845Y-39.3952

G1X30.2033Y-39.2014

G1X32.7862Y-38.7905

G1X34.6133Y-38.7409

G1X36.3872Y-38.9611

G1X39.4663Y-39.8045

G1X42.3093Y-40.8805

G1X44.5404Y-42.0420

G1X46.2864Y-43.3361

G1X47.7481Y-44.7850

G1X49.2400Y-46.5749

G1X50.8339Y-48.8126

G1X52.1587Y-50.9816

G1X52.6299Y-52.0091

G1X53.0621Y-53.2175

G1X54.2351Y-57.4375

G1X54.7928Y-59.8429

G1X55.0175Y-60.4674

G1X55.2893Y-60.9445

G1X55.6325Y-61.3629

G1X56.0928Y-61.7443

G1X57.3587Y-62.3297

G1X58.1919Y-62.4907

G1X60.2484Y-62.5842

G1X61.8686Y-62.8932

G1X62.9078Y-63.2556

G1X63.7404Y-63.8900

G1X64.5627Y-65.0251

G1X65.1957Y-66.4364

G1X66.2013Y-71.4758

G1X66.4268Y-72.2541

G1X66.7412Y-72.7956

G1X67.3768Y-73.3240

G1X67.9079Y-73.5903

G1X68.4951Y-73.7493

G1X69.0096Y-73.7764

G1X69.5318Y-73.6875

G1X70.2306Y-73.3921

G1X70.9894Y-72.9400

G1X72.4076Y-71.7604

G1X73.1065Y-70.8684

G1X73.5071Y-69.8988

G1X73.7443Y-68.3927

G1X73.7404Y-66.7646

G1X73.5423Y-65.5403

G1X73.1923Y-64.8997

G1X72.7758Y-64.4689

G1X72.3219Y-64.1518

G1X71.8284Y-63.9480

G1X71.5047Y-63.9712

G1X71.3520Y-64.5110

G1X71.3248Y-66.5972

G1X70.7047Y-69.0565

G1X70.2642Y-71.8940

G1X70.2107Y-73.2524

G1X70.2602Y-80.8068

G1X70.1397Y-82.4543

G1X69.8222Y-84.4925

G1X69.1822Y-87.1687

G1X68.3770Y-89.3982

G1X67.1725Y-91.7023

G1X66.5636Y-92.6024

G1X65.9257Y-93.3605

G1X64.9016Y-94.2656

G1X63.9811Y-94.7869

G1X63.3072Y-94.9537

G1X59.6644Y-95.4858

G1X58.1158Y-96.0283

G1X56.9119Y-96.6593

G1X56.0446Y-97.2841

G1X55.0261Y-98.1916

G1X52.8088Y-100.3441

G1X50.1379Y-103.1618

G1X48.8042Y-104.3886

G1X46.8062Y-105.7957

G1X44.2036Y-107.2329

G1X41.2786Y-108.4971

G1X40.1830Y-108.8452

G1X39.0420Y-109.0993

G1X37.6204Y-109.2835

G1X36.1805Y-109.3263

G1X35.0033Y-109.2146

G1X34.2639Y-108.9783

G1X33.9836Y-108.7666

G1X33.8005Y-108.4840

G1X33.7009Y-108.0127

G1X33.7216Y-107.5326

G1X33.9836Y-106.7643

G1X35.0166Y-104.7994

G1X35.4948Y-103.7036

G1X36.2213Y-100.9089

G1X36.6948Y-98.4446

G1X36.9613Y-96.3406

G1X37.0275Y-94.6619

G1X36.8991Y-93.0744

G1X36.3476Y-90.4254

G1X35.2837Y-87.0261

G1X34.6232Y-85.5624

G1X33.7517Y-84.2390

G1X33.0532Y-83.3985

G1X32.5670Y-83.1227

G1X31.9791Y-83.0698

G1X31.0474Y-83.5100

G1X29.9653Y-83.6830

G1X29.5355Y-83.5055

G1X29.2944Y-82.9725

G1X29.1681Y-81.8535

G1X29.2096Y-79.6287

G1X29.8287Y-72.7219

G1X29.8309Y-71.3614

G1X29.7161Y-69.6553

G1X29.3084Y-66.5575

G1X28.5683Y-62.5211

G1X28.1400Y-60.7477

G1X27.0047Y-56.8601

G1X26.5376Y-53.9337

G1X26.6120Y-52.5360

G1X26.7842Y-52.0063

G1X27.0500Y-51.5761

G1X27.6196Y-51.0108

G1X28.8387Y-50.0930

G1X30.3407Y-49.3701

G1X30.8502Y-49.0471

G1X31.2670Y-48.5275

G1X31.5569Y-47.6691

G1X31.6930Y-46.1040

G1X31.5128Y-44.5505

G1X31.1804Y-43.5698

G1X30.1895Y-41.3595

G1X29.3132Y-39.1426

G1X29.3307Y-38.8350

G1X29.4392Y-38.6234

G1X29.9653Y-38.1827

G1X30.5632Y-37.8920

G1X31.2347Y-37.6951

G1X32.8731Y-37.5467

G1X36.6928Y-37.8183

G1X38.1750Y-38.0581

G1X39.5676Y-38.3958

G1X41.3282Y-39.0494

G1X43.1506Y-40.0463

G1X45.2952Y-41.5024

G1X47.4483Y-43.2340

G1X48.8559Y-44.5404

G1X50.0242Y-45.7956

G1X50.9261Y-47.0193

G1X51.7303Y-48.3971

G1X52.6003Y-50.2505

G1X53.9679Y-53.6548

G1X55.0542Y-57.9924

G1X55.6064Y-59.0725

G1X56.1628Y-59.7795

G1X56.5894Y-60.1214

G1X57.1759Y-60.4170

G1X58.1662Y-60.5741

G1X60.9741Y-60.3033

G1X63.2475Y-59.8487

G1X63.9932Y-59.8437

G1X64.6258Y-60.0192

G1X65.2263Y-60.3196

G1X65.7687Y-60.7400

G1X66.2470Y-61.2838

G1X66.6237Y-61.8951

G1X66.9304Y-62.6504

G1X67.4392Y-64.8017

G1X67.7033Y-66.5629

G1X67.7420Y-69.4339

G1X67.8692Y-70.4157

G1X68.3820Y-71.5462

G1X68.7694Y-72.0350

G1X69.1461Y-72.3365

G1X69.5701Y-72.5161

G1X69.9425Y-72.5560

G1X71.0836Y-72.2641

G1X72.4166Y-71.5520

G1X73.0389Y-71.0664

G1X73.4958Y-70.5930

G1X73.9922Y-69.7743

G1X74.3792Y-68.5739

G1X74.6284Y-67.0638

G1X74.6735Y-65.6599

G1X74.5990Y-64.8790

G1X74.4314Y-64.1956

G1X74.1508Y-63.6333

G1X73.6717Y-62.9975

G1X72.8207Y-62.1766

G1X71.8524Y-61.4751

G1X71.0307Y-61.0667

G1X70.8199Y-61.0403

G1X70.6246Y-61.1253

G1X70.3393Y-61.6872

G1X69.8524Y-63.9395

G1X69.1120Y-67.9384

G1X69.0044Y-69.1300

G1X69.0635Y-70.4733

G1X69.2784Y-72.2807

G1X70.1257Y-77.2246

G1X70.3364Y-78.9496

G1X70.4868Y-82.9895

G1X70.3022Y-86.1510

G1X70.0502Y-87.5809

G1X69.6829Y-89.0222

G1X69.1697Y-90.5974

G1X68.5331Y-92.2042

G1X68.0117Y-93.3133

G1X67.3991Y-94.3634

G1X66.6910Y-95.3591

G1X65.9260Y-96.2558

G1X65.2006Y-96.9397

G1X64.4211Y-97.4063

G1X62.7372Y-98.0675

G1X60.7232Y-98.6501

G1X59.3392Y-99.1701

G1X57.9183Y-99.7974

G1X56.5616Y-100.5287

G1X53.8095Y-102.3314

G1X50.7537Y-104.8757

G1X49.2328Y-105.9899

G1X45.8616Y-107.9951

G1X42.8771Y-109.4725

G1X41.6394Y-109.9533

G1X40.3565Y-110.3293

G1X37.4560Y-110.8322

G1X35.8390Y-110.9531

G1X34.3952Y-110.9536

G1X33.4131Y-110.8320

G1X32.6721Y-110.5781

G1X32.1632Y-110.1133

G1X32.0509Y-109.7925

G1X32.0690Y-109.4846

G1X33.4180Y-106.8666

G1X35.0400Y-102.8773

G1X35.6707Y-101.1268

G1X36.0547Y-99.7573

G1X36.2700Y-98.6085

G1X36.3592Y-97.5276

G1X36.3551Y-96.2096

G1X36.2153Y-94.4043

G1X35.9300Y-92.3871

G1X35.4890Y-90.1332

G1X35.0184Y-88.2545

G1X34.6427Y-87.2340

G1X34.1680Y-86.2451

G1X32.2927Y-83.1840

G1X31.6766Y-82.4327

G1X31.3521Y-82.2130

G1X31.1257Y-82.1631

G1X30.9087Y-82.2752

G1X30.3908Y-82.8557

G1X29.2985Y-83.8104

G1X28.9509Y-84.0404

G1X28.6402Y-84.1179

G1X28.2067Y-84.0532

G1X27.8555Y-83.8676

G1X27.6292Y-83.5584

G1X27.4887Y-83.0489

G1X27.5353Y-81.6875

G1X28.1647Y-78.1089

G1X28.3907Y-76.3652

G1X28.5699Y-73.4072

G1X28.6582Y-70.2275

G1X28.5731Y-66.2298

G1X27.9508Y-61.0032

G1X27.7436Y-58.2313

G1X27.7059Y-56.6581

G1X27.8080Y-55.5442

G1X28.1838Y-54.2461

G1X28.8303Y-53.1562

G1X29.4983Y-52.4943

G1X31.2812Y-51.7895

G1X32.0213Y-51.1816

G1X32.6371Y-50.4832

G1X33.0596Y-49.8146

G1X33.3204Y-49.1165

G1X33.4272Y-48.4136

G1X33.4044Y-47.4800

G1X33.2441Y-46.2774

G1X32.5813Y-43.5276

G1X32.2329Y-42.4987

G1X31.8452Y-41.6922

G1X30.1598Y-39.1919

G1X29.8110Y-38.5526

G1X29.5637Y-37.4173

G1X29.6436Y-37.1207

G1X29.8734Y-36.8824

G1X30.2891Y-36.6897

G1X31.2338Y-36.4588

G1X33.3283Y-36.1888

G1X35.1234Y-36.2072

G1X36.8167Y-36.4705

G1X39.6662Y-37.3363

G1X42.5945Y-38.5064

G1X44.9587Y-39.7167

G1X46.8504Y-40.9992

G1X48.2896Y-42.3273

G1X49.8087Y-44.0910

G1X51.2664Y-46.1168

G1X52.8660Y-48.6753

G1X53.3501Y-49.6104

G1X53.8104Y-50.7482

G1X54.8912Y-54.4842

G1X55.8851Y-57.0890

G1X56.4083Y-58.0254

G1X57.0400Y-58.5578

G1X57.6486Y-58.7664

G1X58.3370Y-58.8296

G1X59.2919Y-58.7578

G1X60.4619Y-58.5473

G1X61.3823Y-58.2333

G1X63.8455Y-57.1056

G1X65.6218Y-56.6811

G1X66.5620Y-56.6786

G1X67.2292Y-57.0100

G1X67.7425Y-57.6150

G1X68.2302Y-58.5206

G1X68.6867Y-59.7252

G1X69.0426Y-61.0437

G1X69.2741Y-62.8274

G1X69.2700Y-66.4657

G1X69.3408Y-67.6411

G1X69.7604Y-70.0580

G1X70.0396Y-70.7174

G1X70.3947Y-71.0942

G1X70.7156Y-71.2269

G1X71.2018Y-71.2804

G1X72.2908Y-71.1135

G1X73.3066Y-70.6676

G1X74.0641Y-70.0298

G1X74.6986Y-68.9764

G1X75.2750Y-67.5120

G1X75.6221Y-66.0997

G1X75.7294Y-64.8287

G1X75.6663Y-64.1552

G1X75.4905Y-63.5529

G1X75.1822Y-62.9425

G1X74.6965Y-62.2333

G1X73.2112Y-60.6495

G1X71.5792Y-59.4094

G1X71.1628Y-59.1951

G1X70.7284Y-59.0842

G1X69.8981Y-59.1901

G1X69.0849Y-59.6616

G1X68.3342Y-60.4897

G1X68.1538Y-61.2746

G1X68.2506Y-63.6208

G1X67.6631Y-65.8542

G1X67.5469Y-66.5816

G1X67.5825Y-68.6697

G1X67.9527Y-70.7591

G1X69.3085Y-74.9129

G1X70.5378Y-79.9503

G1X70.9187Y-82.6530

G1X70.9159Y-85.3544

G1X70.7534Y-87.3324

G1X70.4636Y-89.3875

G1X70.0915Y-91.1934

G1X69.6631Y-92.6581

G1X69.0789Y-94.0841

G1X68.3061Y-95.5673

G1X67.1744Y-97.3573

G1X66.3250Y-98.4561

G1X65.4076Y-99.2576

G1X63.4084Y-100.5359

G1X54.8415Y-104.7062

G1X46.3718Y-109.4124

G1X44.7701Y-110.2197

G1X43.3555Y-110.8257

G1X41.7987Y-111.3333

G1X40.0196Y-111.7705

G1X38.0362Y-112.1324

G1X36.0513Y-112.3757

G1X34.5667Y-112.4494

G1X33.2604Y-112.3811

G1X32.1709Y-112.1860

G1X31.3730Y-111.8795

G1X31.0427Y-111.6287

G1X30.8878Y-111.3974

G1X30.8501Y-111.1445

G1X30.9394Y-110.7627

G1X31.8083Y-108.7726

G1X33.3474Y-106.1991

G1X34.0087Y-104.9255

G1X34.5500Y-103.5189

G1X34.8549Y-102.2060

G1X35.2037Y-99.4992

G1X35.3669Y-96.4817

G1X35.3185Y-93.5647

G1X35.0669Y-91.3542

G1X34.5468Y-89.5013

G1X33.6552Y-87.4665

G1X31.4741Y-83.3111

G1X30.7514Y-82.1935

G1X30.0606Y-81.3576

G1X29.8917Y-81.2464

G1X29.7869Y-81.2890

G1X28.4712Y-83.6985

G1X28.1623Y-84.0521

G1X27.5255Y-84.4838

G1X26.7994Y-84.7767

G1X26.2886Y-84.7371

G1X26.0394Y-84.3659

G1X25.9456Y-83.6553

G1X26.0018Y-82.4300

G1X26.2758Y-80.0596

G1X27.3026Y-74.3072

G1X27.6149Y-72.0975

G1X28.1034Y-62.3807

G1X28.2492Y-60.8677

G1X28.4793Y-59.6321

G1X29.0760Y-57.8700

G1X29.9349Y-56.3914

G1X31.6685Y-54.7293

G1X32.9843Y-53.8773

G1X33.5332Y-53.2610

G1X33.7887Y-52.6630

G1X34.0210Y-51.7419

G1X34.3500Y-49.4573

G1X34.4012Y-48.2435

G1X34.3507Y-47.0273

G1X34.1989Y-45.9803

G1X33.9203Y-44.9553

G1X32.9443Y-42.5723

G1X31.0019Y-38.7572

G1X30.5428Y-38.0583

G1X29.2266Y-36.4161

G1X29.1710Y-36.1292

G1X29.2430Y-35.9133

G1X29.7656Y-35.4250

G1X30.3194Y-35.1831

G1X30.9252Y-35.0306

G1X32.6330Y-34.9153

G1X36.2466Y-35.2173

G1X39.1963Y-35.7371

G1X40.9844Y-36.2605

G1X42.5272Y-36.9238

G1X44.2759Y-37.9549

G1X46.1420Y-39.2977

G1X47.9481Y-40.8014

G1X49.6671Y-42.4265

G1X51.1401Y-44.0263

G1X52.0574Y-45.2788

G1X53.2686Y-47.5104

G1X55.0011Y-51.6382

G1X56.2313Y-55.7085

G1X56.7310Y-56.4556

G1X57.5490Y-57.0415

G1X58.1959Y-57.2401

G1X58.9997Y-57.2915

G1X59.9104Y-57.1800

G1X60.6867Y-56.9182

G1X61.8164Y-56.3536

G1X64.2777Y-54.9259

G1X66.1349Y-53.5307

G1X66.7699Y-53.1998

G1X67.0786Y-53.1428

G1X67.4484Y-53.1960

G1X68.2871Y-53.6641

G1X68.8803Y-54.2938

G1X69.3570Y-55.0444

G1X69.8109Y-56.0941

G1X70.0839Y-57.0974

G1X70.4350Y-59.4165

G1X70.8830Y-64.2557

G1X70.9644Y-68.3851

G1X71.1978Y-69.2326

G1X71.4704Y-69.5986

G1X71.7787Y-69.8469

G1X72.5312Y-70.1417

G1X73.2550Y-70.1603

G1X73.9499Y-69.9358

G1X74.4974Y-69.5041

G1X75.4167Y-68.3684

G1X76.1985Y-67.0314

G1X76.6704Y-65.7833

G1X76.8142Y-64.7638

G1X76.7270Y-64.0582

G1X76.4739Y-63.2741

G1X75.5261Y-61.4748

G1X74.1014Y-59.6144

G1X73.3875Y-58.9099

G1X72.7057Y-58.3931

G1X72.1523Y-58.1245

G1X71.4206Y-57.9252

G1X69.8358Y-57.8331

G1X68.8535Y-57.9411

G1X68.0016Y-58.1398

G1X67.3128Y-58.4254

G1X67.0321Y-58.6943

G1X66.9296Y-59.0061

G1X66.9263Y-59.3754

G1X67.3206Y-61.1153

G1X67.3748Y-61.7356

G1X67.2310Y-62.5132

G1X66.4788Y-65.0083

G1X66.2102Y-66.8402

G1X66.2573Y-68.2071

G1X66.4368Y-69.0197

G1X66.7601Y-69.9550

G1X68.2350Y-73.5100

G1X69.6735Y-76.7186

G1X70.3897Y-78.7781

G1X70.8170Y-80.7393

G1X71.1907Y-83.1074

G1X71.4035Y-85.1951

G1X71.4769Y-87.0711

G1X71.4193Y-88.6725

G1X71.2402Y-90.0708

G1X70.8662Y-91.7369

G1X70.3277Y-93.4901

G1X69.5164Y-95.6100

G1X68.5385Y-97.7408

G1X67.9084Y-98.7954

G1X67.1152Y-99.7642

G1X65.0589Y-101.6335

G1X64.1519Y-102.3418

G1X60.3822Y-104.7602

G1X58.4556Y-105.8840

G1X55.0808Y-107.4973

G1X50.4625Y-109.2422

G1X46.8714Y-110.8865

G1X45.1879Y-111.5726

G1X42.9706Y-112.2772

G1X40.5218Y-112.9273

G1X38.3966Y-113.3829

G1X36.6017Y-113.6447

G1X34.8391Y-113.7293

G1X33.1036Y-113.6495

G1X31.6162Y-113.4211

G1X30.5340Y-113.0492

G1X30.1893Y-112.7814

G1X30.0485Y-112.5034

G1X30.0267Y-112.0371

G1X30.1573Y-111.4208

G1X30.5149Y-110.7234

G1X32.0350Y-108.5182

G1X32.6987Y-107.2050

G1X33.6414Y-104.1734

G1X34.3508Y-101.2142

G1X34.6885Y-99.0855

G1X34.8066Y-97.2229

G1X34.7055Y-95.5385

G1X34.3669Y-93.5942

G1X33.4259Y-90.2461

G1X31.8745Y-86.0570

G1X30.7845Y-83.9990

G1X28.4172Y-80.3117

G1X28.2976Y-80.3363

G1X28.1591Y-80.5877

G1X27.9823Y-82.2654

G1X27.7569Y-83.0498

G1X27.0319Y-84.0820

G1X26.0767Y-85.0357

G1X25.3868Y-85.4145

G1X25.0067Y-85.4041

G1X24.7052Y-85.2935

G1X24.4325Y-85.0782

G1X24.2130Y-84.7451

G1X24.0305Y-83.8402

G1X24.2716Y-82.1615

G1X25.6303Y-76.8740

G1X27.3205Y-66.9051

G1X27.6327Y-65.4553

G1X28.0288Y-64.0913

G1X28.5990Y-62.6147

G1X29.2187Y-61.4106

G1X31.8694Y-58.0068

G1X32.5306Y-56.9619

G1X34.0887Y-53.7184

G1X34.4741Y-52.4930

G1X34.6670Y-51.3584

G1X34.6763Y-49.4267

G1X34.4046Y-46.8401

G1X33.9144Y-44.1284

G1X33.2773Y-41.6997

G1X32.8540Y-40.5765

G1X32.2142Y-39.4559

G1X29.3418Y-35.9013

G1X28.9373Y-34.7922

G1X28.9828Y-34.4459

G1X29.1853Y-34.2475

G1X29.6855Y-34.0596

G1X30.8580Y-33.8352

G1X33.3556Y-33.5897

G1X35.4990Y-33.6470

G1X37.3904Y-33.9652

G1X39.9859Y-34.8137

G1X42.8677Y-36.0398

G1X45.5271Y-37.4305

G1X47.6979Y-38.8499

G1X49.0198Y-39.9675

G1X50.3182Y-41.3433

G1X51.5971Y-42.9858

G1X52.9196Y-44.9872

G1X54.1434Y-47.0757

G1X54.6734Y-48.2350

G1X55.1307Y-49.6187

G1X55.8817Y-52.5364

G1X56.2526Y-53.5322

G1X57.2558Y-55.1610

G1X57.7098Y-55.6113

G1X58.2208Y-55.9048

G1X58.9170Y-56.0493

G1X59.5446Y-55.9944

G1X60.4500Y-55.7190

G1X61.5221Y-55.2272

G1X62.8575Y-54.4557

G1X63.8637Y-53.7487

G1X64.5674Y-53.0536

G1X66.1458Y-51.2382

G1X66.8013Y-50.6724

G1X67.5564Y-50.3196

G1X68.0756Y-50.1778

G1X68.4845Y-50.1891

G1X68.8817Y-50.3599

G1X69.5163Y-51.0625

G1X70.1819Y-52.4404

G1X70.9876Y-54.7947

G1X71.6862Y-57.4249

G1X72.0358Y-59.1562

G1X72.1676Y-60.4326

G1X72.1317Y-65.0344

G1X72.1966Y-66.2398

G1X72.5420Y-67.6065

G1X73.1247Y-68.6961

G1X73.6458Y-69.1392

G1X74.1539Y-69.2463

G1X74.8086Y-69.0265

G1X75.6846Y-68.4527

G1X76.5881Y-67.6105

G1X77.2041Y-66.7837

G1X77.5605Y-65.9872

G1X77.6645Y-65.0951

G1X77.4016Y-63.1997

G1X76.7171Y-61.0786

G1X75.8630Y-59.4674

G1X75.3893Y-58.8628

G1X74.8644Y-58.3914

G1X74.1090Y-57.9617

G1X73.2050Y-57.6201

G1X71.9828Y-57.3156

G1X70.7309Y-57.1271

G1X69.3576Y-57.0426

G1X68.2649Y-57.0944

G1X67.6619Y-57.2548

G1X67.3312Y-57.5532

G1X67.1110Y-58.2626

G1X67.0532Y-60.2985

G1X66.2633Y-63.8813

G1X65.4291Y-66.4532

G1X65.3669Y-67.1542

G1X65.4430Y-68.0545

G1X65.7640Y-69.3432

G1X66.4286Y-71.0284

G1X69.0199Y-75.5496

G1X70.8302Y-80.1732

G1X71.4144Y-82.0701

G1X71.8029Y-83.8316

G1X71.9799Y-85.3051

G1X72.0094Y-87.0602

G1X71.8470Y-89.4841

G1X71.4920Y-92.0507

G1X70.9832Y-94.5223

G1X70.3893Y-96.5410

G1X69.8220Y-97.7986

G1X69.0495Y-99.0480

G1X68.1581Y-100.1964

G1X66.2640Y-102.3858

G1X64.7753Y-103.6930

G1X61.6401Y-106.1192

G1X59.7431Y-107.4608

G1X56.6440Y-109.2842

G1X55.2235Y-109.9708

G1X54.0959Y-110.4107

G1X45.8716Y-112.6524

G1X41.5202Y-113.9378

G1X39.0397Y-114.4953

G1X36.4456Y-114.7661

G1X33.7436Y-114.8049

G1X31.6349Y-114.6040

G1X30.8130Y-114.4181

G1X30.2580Y-114.1975

G1X29.9104Y-113.9579

G1X29.6751Y-113.6575

G1X29.5626Y-113.3056

G1X29.5968Y-112.9289

G1X29.8052Y-112.4523

G1X31.0380Y-110.3481

G1X32.5811Y-106.4866

G1X33.3837Y-104.0578

G1X33.7981Y-101.9068

G1X33.8830Y-99.5971

G1X33.7208Y-96.8483

G1X33.3284Y-94.0330

G1X32.7358Y-91.3550

G1X32.0430Y-89.2782

G1X30.9171Y-86.8518

G1X27.4241Y-80.5671

G1X26.8732Y-79.7009

G1X26.5375Y-79.3382

G1X26.4690Y-79.3159

G1X26.4619Y-79.4015

G1X26.8895Y-80.7897

G1X26.8931Y-81.6127

G1X26.3084Y-83.3124

G1X25.4967Y-84.8384

G1X25.1209Y-85.2822

G1X24.6846Y-85.5933

G1X24.0581Y-85.8646

G1X23.5237Y-85.9736

G1X23.0446Y-85.9472

G1X22.7430Y-85.8103

G1X22.5487Y-85.5554

G1X22.4670Y-85.0635

G1X22.6355Y-83.5519

G1X23.5390Y-79.2226

G1X25.4028Y-71.3075

G1X26.1044Y-68.9086

G1X26.7204Y-67.2918

G1X27.3366Y-66.0299

G1X28.4029Y-64.3155

G1X29.9488Y-62.0897

G1X31.9086Y-58.7906

G1X32.7169Y-57.1950

G1X33.2026Y-55.9227

G1X33.5929Y-54.4541

G1X34.0862Y-52.0941

G1X34.4210Y-49.9107

G1X34.5953Y-47.9011

G1X34.6011Y-46.1634

G1X34.4365Y-44.6297

G1X34.0985Y-43.3120

G1X33.5960Y-41.9846

G1X32.9336Y-40.5805

G1X30.2914Y-35.8745

G1X29.6626Y-35.0029

G1X28.4493Y-33.7216

G1X28.3945Y-33.5228

G1X28.4621Y-33.3221

G1X28.8943Y-32.9523

G1X29.5225Y-32.6738

G1X30.3589Y-32.4574

G1X31.3775Y-32.3259

G1X32.4145Y-32.2989

G1X35.2877Y-32.5884

G1X38.4881Y-33.1473

G1X41.0250Y-33.8000

G1X43.1237Y-34.5710

G1X44.8792Y-35.4944

G1X46.7386Y-36.7578

G1X48.5323Y-38.2215

G1X50.2664Y-39.8691

G1X51.9026Y-41.6789

G1X52.9866Y-43.1396

G1X53.6789Y-44.3781

G1X54.3742Y-45.9537

G1X55.6362Y-49.4731

G1X56.3614Y-51.2631

G1X57.2110Y-53.8154

G1X57.6748Y-54.5372

G1X58.2402Y-54.8911

G1X59.0818Y-55.0075

G1X60.1545Y-54.8377

G1X61.3832Y-54.3812

G1X62.5944Y-53.6994

G1X63.3191Y-53.0925

G1X64.2016Y-52.1589

G1X66.9951Y-48.9066

G1X67.9992Y-47.5419

G1X68.3769Y-47.3186

G1X68.8294Y-47.4329

G1X69.2253Y-47.7642

G1X69.7243Y-48.3432

G1X70.8156Y-50.0260

G1X71.7416Y-51.9230

G1X72.3802Y-53.7439

G1X72.6804Y-55.1258

G1X72.9345Y-56.8930

G1X73.9392Y-66.7375

G1X74.1485Y-67.6097

G1X74.4831Y-68.1157

G1X74.7377Y-68.2594

G1X75.1477Y-68.3415

G1X76.1434Y-68.2039

G1X77.0527Y-67.7681

G1X77.7041Y-67.1616

G1X78.0174Y-66.5649

G1X78.2937Y-65.5161

G1X78.4822Y-64.1709

G1X78.5262Y-62.9268

G1X78.4398Y-61.8034

G1X78.2032Y-60.7670

G1X77.8380Y-59.9724

G1X77.3528Y-59.3803

G1X76.4516Y-58.6516

G1X75.2279Y-57.9238

G1X73.7689Y-57.2496

G1X72.3229Y-56.7307

G1X71.2178Y-56.4417

G1X70.3534Y-56.3257

G1X69.8018Y-56.3776

G1X69.2088Y-56.5915

G1X68.6073Y-57.0022

G1X68.0313Y-57.6106

G1X67.4652Y-58.4486

G1X67.0167Y-59.3374

G1X66.9379Y-60.0971

G1X67.1901Y-61.8306

G1X67.1789Y-62.6307

G1X66.9031Y-63.4688

G1X65.9100Y-65.2833

G1X65.5780Y-66.1063

G1X65.2569Y-67.8203

G1X65.3118Y-69.1141

G1X65.5218Y-69.9195

G1X65.8252Y-70.6049

G1X67.5828Y-73.4140

G1X69.8940Y-77.4956

G1X70.6545Y-78.9727

G1X71.2353Y-80.3586

G1X71.6995Y-81.9191

G1X72.1378Y-84.2716

G1X72.4140Y-86.6684

G1X72.5364Y-89.1102

G1X72.4990Y-91.0386

G1X72.3408Y-92.6309

G1X72.0555Y-94.0072

G1X71.5688Y-95.5361

G1X70.7886Y-97.3574

G1X69.6513Y-99.5046

G1X68.6028Y-101.2540

G1X67.5727Y-102.5530

G1X63.4678Y-106.4175

G1X60.4930Y-108.8190

G1X58.5305Y-110.1650

G1X56.6901Y-111.2870

G1X55.0889Y-112.1209

G1X53.6787Y-112.6813

G1X52.3665Y-113.0576

G1X50.8007Y-113.3819

G1X48.4707Y-113.4481

G1X47.5241Y-113.5621

G1X42.0829Y-114.9252

G1X37.1225Y-115.6681

G1X34.9828Y-115.8254

G1X33.2342Y-115.7817

G1X31.5797Y-115.5545

G1X30.4287Y-115.1573

G1X30.0956Y-114.9274

G1X29.8408Y-114.6124

G1X29.7475Y-114.2710

G1X29.7820Y-113.8761

G1X30.5035Y-111.5348

G1X31.8465Y-108.4279

G1X32.3979Y-106.8560

G1X32.7142Y-105.4148

G1X33.0140Y-102.7124

G1X33.0842Y-100.3529

G1X32.9353Y-98.0403

G1X32.5772Y-95.8751

G1X31.9568Y-93.5535

G1X30.2869Y-88.8346

G1X28.1406Y-83.8202

G1X26.8391Y-81.6164

G1X24.7364Y-79.0047

G1X24.5227Y-78.6352

G1X24.7234Y-78.6749

G1X25.0453Y-78.9882

G1X25.3362Y-79.4650

G1X25.4373Y-79.8814

G1X25.4635Y-80.6994

G1X25.4290Y-82.0177

G1X25.2944Y-83.1614

G1X25.0861Y-83.9613

G1X24.7804Y-84.5441

G1X24.1871Y-85.2062

G1X23.3598Y-85.8426

G1X22.5390Y-86.2668

G1X21.9076Y-86.3779

G1X21.5538Y-86.1890

G1X21.2340Y-85.6985

G1X21.0214Y-84.9898

G1X20.9191Y-84.0107

G1X21.0784Y-82.4915

G1X22.1757Y-78.3055

G1X23.0207Y-73.9563

G1X23.5385Y-71.9771

G1X24.2154Y-69.9260

G1X24.7671Y-68.7280

G1X25.4842Y-67.5102

G1X26.8043Y-65.5191

G1X29.2739Y-62.2036

G1X30.5671Y-60.0366

G1X32.1694Y-56.6179

G1X33.1202Y-54.3096

G1X33.8347Y-52.1021

G1X34.2351Y-50.1838

G1X34.3598Y-48.1190

G1X34.1635Y-45.6188

G1X33.6434Y-42.7429

G1X32.8353Y-39.7022

G1X32.1673Y-37.7532

G1X31.4942Y-36.5195

G1X30.6746Y-35.4893

G1X28.8838Y-33.7158

G1X28.3705Y-33.0497

G1X28.2387Y-32.6389

G1X28.2164Y-32.2169

G1X28.3070Y-31.9586

G1X28.5649Y-31.7181

G1X29.1010Y-31.5244

G1X30.0624Y-31.3863

G1X33.8486Y-31.1975

G1X36.3703Y-31.3270

G1X38.6160Y-31.7230

G1X40.8498Y-32.4900

G1X43.5180Y-33.7223

G1X46.1227Y-35.1919

G1X48.3568Y-36.7073

G1X49.8321Y-37.9159

G1X51.0091Y-39.1232

G1X52.1760Y-40.6205

G1X53.3501Y-42.4630

G1X54.6490Y-44.8944

G1X55.7551Y-47.2910

G1X56.1069Y-48.5288

G1X56.6628Y-51.6413

G1X56.9682Y-52.6793

G1X57.2064Y-53.1159

G1X57.6001Y-53.5661

G1X57.9877Y-53.8686

G1X58.4921Y-54.1140

G1X59.4136Y-54.2564

G1X60.5168Y-54.0623

G1X61.4515Y-53.6521

G1X62.6078Y-52.8260

G1X64.4066Y-51.1661

G1X66.2725Y-49.1082

G1X66.8176Y-48.1675

G1X67.6356Y-46.0596

G1X67.9976Y-45.4218

G1X68.2379Y-45.2273

G1X68.4598Y-45.1736

G1X68.8213Y-45.2213

G1X69.2091Y-45.3957

G1X69.7544Y-45.8105

G1X70.3164Y-46.4149

G1X71.4219Y-48.1116

G1X72.3763Y-50.2579

G1X73.4555Y-53.4328

G1X74.2910Y-56.4631

G1X74.7718Y-58.8459

G1X74.8974Y-60.7783

G1X74.8840Y-64.4557

G1X74.9877Y-65.5878

G1X75.3087Y-66.5210

G1X75.8685Y-67.2444

G1X76.4538Y-67.6112

G1X77.0598Y-67.7234

G1X77.6212Y-67.5754

G1X78.0982Y-67.1633

G1X78.8454Y-66.1250

G1X79.5114Y-64.8220

G1X79.8932Y-63.6205

G1X79.9867Y-62.6624

G1X79.8747Y-61.9798

G1X79.5465Y-61.2413

G1X78.9693Y-60.3481

G1X78.1448Y-59.3405

G1X77.1874Y-58.3681

G1X76.1693Y-57.5030

G1X75.2447Y-56.8657

G1X74.3856Y-56.4345

G1X73.7389Y-56.2613

G1X72.8997Y-56.2043

G1X72.0145Y-56.2808

G1X71.1256Y-56.4643

G1X70.0738Y-56.8038

G1X69.1650Y-57.2178

G1X68.4290Y-57.6974

G1X68.1048Y-58.1071

G1X68.0475Y-58.4328

G1X68.0917Y-58.7932

G1X68.9478Y-60.9444

G1X69.0391Y-61.4411

G1X69.0085Y-61.8150

G1X68.6215Y-62.8143

G1X67.2641Y-64.9298

G1X66.0247Y-67.3930

G1X65.7051Y-68.5176

G1X65.7338Y-69.5154

G1X66.1277Y-70.8061

G1X67.1772Y-72.9174

G1X69.9285Y-77.0487

G1X70.5571Y-78.2335

G1X71.0949Y-79.5574

G1X72.1103Y-82.5509

G1X72.8089Y-85.2215

G1X73.1940Y-87.5712

G1X73.2589Y-89.6549

G1X73.0437Y-91.7261

G1X72.5970Y-93.8821

G1X71.8830Y-96.2981

G1X70.9809Y-98.6612

G1X70.2929Y-99.9714

G1X69.4099Y-101.2981

G1X65.9682Y-105.4757

G1X64.3696Y-107.1121

G1X62.6412Y-108.6807

G1X60.8250Y-110.1549

G1X58.7852Y-111.6484

G1X57.0467Y-112.7900

G1X55.5317Y-113.6458

G1X53.9299Y-114.3726

G1X52.3703Y-114.9202

G1X51.2034Y-115.2197

G1X50.6260Y-115.2799

G1X48.5922Y-114.9581

G1X45.2612Y-115.1018

G1X43.5159Y-115.3494

G1X38.8447Y-116.3143

G1X36.5966Y-116.5475

G1X34.7867Y-116.5840

G1X33.2196Y-116.5018

G1X32.0979Y-116.3225

G1X31.1925Y-116.0004

G1X30.7034Y-115.6808

G1X30.3871Y-115.2709

G1X30.2189Y-114.7350

G1X30.1801Y-113.9006

G1X30.3591Y-113.0678

G1X31.4082Y-110.2883

G1X31.7931Y-108.8163

G1X32.2740Y-105.0113

G1X32.3351Y-103.4888

G1X32.2904Y-101.9332

G1X31.9036Y-98.7241

G1X31.1851Y-94.7836

G1X30.3715Y-91.4382

G1X29.5010Y-88.7537

G1X28.7501Y-87.0615

G1X27.6253Y-85.1803

G1X26.4171Y-83.4879

G1X23.2378Y-79.3695

G1X22.7940Y-78.3679

G1X22.8216Y-78.1534

G1X22.9998Y-78.1030

G1X23.3183Y-78.4010

G1X23.6707Y-79.2822

G1X24.1206Y-80.5414

G1X24.3773Y-81.5763

G1X24.4082Y-82.7094

G1X23.9766Y-83.8348

G1X23.3688Y-84.7915

G1X22.6706Y-85.6259

G1X22.0091Y-86.2077

G1X21.4643Y-86.4455

G1X20.7622Y-86.4297

G1X20.0215Y-86.0761

G1X19.5693Y-85.5228

G1X19.4279Y-84.8957

G1X19.5151Y-83.8285

G1X20.0738Y-80.7048

G1X20.1714Y-75.9905

G1X20.3441Y-73.9051

G1X20.5547Y-72.6265

G1X21.0822Y-70.7382

G1X21.4701Y-69.9647

G1X22.1430Y-69.0141

G1X24.6621Y-66.4052

G1X25.9552Y-64.8537

G1X28.6666Y-60.9053

G1X30.2577Y-58.4040

G1X31.5059Y-56.1509

G1X32.3883Y-54.1742

G1X32.9838Y-52.2854

G1X33.4565Y-50.0549

G1X33.7699Y-47.5406

G1X33.8762Y-44.9554

G1X33.7622Y-42.5366

G1X33.4508Y-40.5661

G1X32.9812Y-39.1840

G1X32.2335Y-37.6680

G1X29.7731Y-33.8667

G1X28.9679Y-32.4004

G1X28.2098Y-31.2638

G1X28.1730Y-30.9533

G1X28.5033Y-30.6768

G1X29.2264Y-30.3835

G1X30.1802Y-30.1363

G1X32.3752Y-29.8714

G1X34.4767Y-29.9436

G1X36.7089Y-30.3470

G1X40.1926Y-31.2590

G1X43.3475Y-32.3731

G1X45.7753Y-33.5326

G1X47.8516Y-34.9203

G1X49.5905Y-36.4039

G1X51.3306Y-38.1991

G1X52.9141Y-40.1618

G1X54.2221Y-42.1415

G1X54.7775Y-43.3132

G1X55.2604Y-44.7770

G1X56.2375Y-49.4608

G1X56.6014Y-50.7187

G1X57.2918Y-52.2820

G1X57.7003Y-53.0217

G1X58.1518Y-53.5358

G1X58.6323Y-53.7920

G1X59.0494Y-53.8599

G1X59.5968Y-53.8158

G1X60.9621Y-53.3099

G1X62.7399Y-52.2560

G1X64.4278Y-50.9395

G1X65.2865Y-50.0817

G1X65.9370Y-49.1157

G1X66.4902Y-47.9841

G1X67.5747Y-45.3449

G1X68.0896Y-44.4251

G1X68.5150Y-44.0140

G1X68.9826Y-43.7492

G1X69.3459Y-43.7192

G1X69.7138Y-43.8635

G1X70.1987Y-44.2675

G1X70.8959Y-45.0759

G1X72.4946Y-47.3919

G1X73.8281Y-49.8161

G1X74.7360Y-52.0240

G1X75.0975Y-53.3464

G1X75.4005Y-55.0848

G1X76.1764Y-62.4843

G1X76.8236Y-65.7877

G1X77.0753Y-66.5378

G1X77.3538Y-66.9919

G1X77.7123Y-67.2233

G1X78.2739Y-67.1788

G1X78.9854Y-66.8639

G1X79.7274Y-66.3373

G1X80.3078Y-65.7486

G1X80.7402Y-65.0817

G1X80.9325Y-64.4774

G1X80.9529Y-63.8552

G1X80.6877Y-62.1238

G1X80.0586Y-60.1880

G1X79.2425Y-58.6632

G1X78.8208Y-58.1398

G1X78.3599Y-57.7386

G1X77.6947Y-57.3769

G1X76.7801Y-57.0613

G1X75.7569Y-56.8380

G1X74.5778Y-56.6925

G1X73.3403Y-56.6500

G1X72.2890Y-56.7226

G1X71.5517Y-56.9017

G1X71.2361Y-57.1519

G1X71.1046Y-57.5223

G1X71.1107Y-57.9851

G1X71.5909Y-60.4155

G1X71.3563Y-61.5531

G1X70.7921Y-62.9184

G1X69.8524Y-64.6129

G1X67.9631Y-66.9275

G1X67.4344Y-67.7373

G1X66.9845Y-69.0916

G1X66.8878Y-70.4108

G1X67.0572Y-71.4395

G1X67.4012Y-72.4114

G1X69.9926Y-76.5462

G1X71.9449Y-80.6741

G1X72.9795Y-83.3461

G1X73.4205Y-85.0270

G1X73.6479Y-86.8074

G1X73.6890Y-88.8615

G1X73.5356Y-91.0270

G1X73.2246Y-93.1170

G1X72.7664Y-95.1436

G1X72.1777Y-96.8888

G1X71.3622Y-98.7265

G1X70.0886Y-101.0778

G1X68.7730Y-103.1865

G1X67.3618Y-105.0854

G1X65.6896Y-107.0136

G1X63.9342Y-108.8121

G1X62.0263Y-110.5859

G1X60.1144Y-112.1982

G1X58.4169Y-113.4662

G1X56.9072Y-114.4125

G1X55.2429Y-115.2850

G1X53.4026Y-116.0980

G1X51.6487Y-116.7297

G1X51.0006Y-116.8746

G1X50.3879Y-116.9071

G1X49.0653Y-116.6143

G1X48.6365Y-116.4179

G1X47.6112Y-115.5747

G1X47.1762Y-115.4217

G1X46.7580Y-115.3770

G1X45.4430Y-115.5239

G1X41.3290Y-116.4236

G1X36.4732Y-117.0460

G1X35.1198Y-117.1039

G1X34.0780Y-117.0360

G1X32.9343Y-116.8376

G1X32.0789Y-116.5414

G1X31.5463Y-116.2131

G1X31.1932Y-115.8511

G1X30.9564Y-115.4271

G1X30.8630Y-114.9793

G1X30.9068Y-114.2038

G1X31.4359Y-111.3386

G1X31.7367Y-107.4702

G1X31.7569Y-105.1384

G1X31.4269Y-100.1559

G1X31.1389Y-97.4773

G1X30.6657Y-94.9501

G1X30.0136Y-92.7855

G1X29.1335Y-90.8111

G1X27.8030Y-88.4344

G1X23.3875Y-81.6833

G1X21.0144Y-77.8531

G1X22.2964Y-79.1761

G1X22.7580Y-79.8122

G1X23.1060Y-80.4651

G1X23.2327Y-80.8832

G1X23.2637Y-81.4209

G1X23.0139Y-83.0040

G1X22.7076Y-83.9896

G1X22.3338Y-84.8664

G1X21.9329Y-85.5234

G1X21.5721Y-85.8683

G1X20.8743Y-86.2091

G1X20.1113Y-86.3386

G1X19.4206Y-86.2586

G1X18.9474Y-85.9784

G1X18.7806Y-85.6580

G1X18.6701Y-85.1179

G1X18.5860Y-82.7609

G1X18.3717Y-81.4126

G1X17.9005Y-79.3964

G1X17.1602Y-77.3081

G1X16.9699Y-75.7077

G1X17.0410Y-72.7702

G1X17.1923Y-72.1660

G1X17.5250Y-71.4886

G1X18.3407Y-70.4378

G1X21.7753Y-66.8514

G1X26.4468Y-62.1915

G1X27.7393Y-60.7192

G1X28.7778Y-59.3549

G1X29.8785Y-57.5301

G1X31.0174Y-55.0818

G1X32.0052Y-52.4206

G1X32.7937Y-49.6890

G1X33.3191Y-47.1253

G1X33.5682Y-44.8204

G1X33.5104Y-42.9714

G1X33.1938Y-41.0283

G1X32.4102Y-38.2539

G1X30.8573Y-34.0864

G1X30.4719Y-33.3200

G1X30.0326Y-32.6651

G1X28.3079Y-30.6668

G1X28.1843Y-30.1770

G1X28.4239Y-29.6847

G1X28.8778Y-29.3410

G1X29.6447Y-29.0687

G1X30.5436Y-28.9291

G1X31.7871Y-28.8883

G1X36.1819Y-29.1979

G1X38.1027Y-29.4750

G1X39.8329Y-29.8347

G1X42.0053Y-30.5063

G1X44.2182Y-31.5398

G1X46.7678Y-33.0466

G1X49.0467Y-34.7058

G1X50.5780Y-36.0535

G1X51.9029Y-37.4720

G1X52.7799Y-38.6839

G1X53.6310Y-40.2594

G1X54.7064Y-42.9662

G1X56.4184Y-48.4033

G1X56.6621Y-49.5650

G1X56.8886Y-51.8729

G1X57.0328Y-52.6162

G1X57.3658Y-53.2163

G1X57.8839Y-53.5163

G1X58.4063Y-53.6042

G1X59.0165Y-53.5855

G1X60.5122Y-53.2304

G1X62.1802Y-52.4639

G1X63.5304Y-51.5151

G1X64.4797Y-50.4856

G1X65.6108Y-48.8897

G1X68.6013Y-44.1082

G1X69.3851Y-42.5313

G1X69.7309Y-42.3238

G1X70.3549Y-42.5484

G1X71.0462Y-43.0759

G1X71.8329Y-43.8736

G1X72.5881Y-44.8110

G1X73.2640Y-45.8101

G1X74.3090Y-47.8022

G1X75.4185Y-50.7008

G1X76.5067Y-54.2241

G1X77.3446Y-57.6165

G1X77.6032Y-59.8111

G1X77.6594Y-63.6218

G1X77.7433Y-64.8241

G1X78.0052Y-65.7781

G1X78.4960Y-66.3899

G1X79.1331Y-66.7068

G1X79.8213Y-66.7608

G1X80.5476Y-66.5422

G1X81.0235Y-66.1415

G1X81.4479Y-65.3395

G1X81.8436Y-64.1432

G1X82.0711Y-63.0024

G1X82.1371Y-61.8649

G1X82.0303Y-61.0421

G1X81.7564Y-60.3806

G1X81.1683Y-59.6741

G1X80.2398Y-58.9001

G1X78.7328Y-57.9526

G1X77.2558Y-57.2651

G1X76.2027Y-56.9888

G1X75.5826Y-57.1224

G1X75.1713Y-57.4816

G1X74.8486Y-57.9992

G1X74.1194Y-60.1360

G1X74.0558Y-60.8964

G1X74.1734Y-62.9738

G1X74.0902Y-63.5722

G1X73.9162Y-64.0382

G1X73.6189Y-64.4813

G1X73.1475Y-64.9659

G1X71.2136Y-66.4652

G1X70.5489Y-67.0816

G1X69.3924Y-68.6357

G1X68.7455Y-69.8682

G1X68.5595Y-70.5154

G1X68.4982Y-71.1752

G1X68.5735Y-71.8475

G1X68.7685Y-72.5189

G1X70.5465Y-76.3755

G1X72.6484Y-80.4479

G1X73.1770Y-81.7187

G1X73.5383Y-82.8941

G1X73.9018Y-84.8467

G1X74.0888Y-86.8887

G1X74.1090Y-89.0353

G1X73.9634Y-91.0869

G1X73.5930Y-93.1820

G1X72.9435Y-95.3783

G1X71.7538Y-98.3771

G1X70.5098Y-101.0105

G1X69.3781Y-103.0125

G1X68.0796Y-104.9725

G1X66.0799Y-107.6202

G1X64.1489Y-109.9135

G1X62.8048Y-111.3368

G1X61.5040Y-112.5559

G1X60.2888Y-113.5305

G1X58.9362Y-114.4685

G1X56.8777Y-115.7167

G1X54.5225Y-116.9691

G1X52.6736Y-117.8351

G1X51.2916Y-118.2863

G1X50.2484Y-118.3991

G1X49.4270Y-118.2383

G1X49.1680Y-117.8931

G1X49.0523Y-116.6791

G1X48.8725Y-116.1937

G1X48.6359Y-115.9966

G1X48.3029Y-115.8621

G1X47.2867Y-115.6759

G1X45.8930Y-115.6619

G1X44.1110Y-115.8318

G1X39.5628Y-116.9269

G1X37.8218Y-117.1939

G1X36.0931Y-117.2601

G1X34.7851Y-117.1985

G1X33.7345Y-117.0138

G1X32.9025Y-116.6729

G1X32.4880Y-116.3323

G1X32.1955Y-115.8987

G1X32.0118Y-115.3886

G1X31.8754Y-114.5943

G1X31.6495Y-112.1351

G1X31.6289Y-107.2829

G1X31.3033Y-102.2620

G1X30.9678Y-99.6668

G1X30.6336Y-98.1361

G1X30.1898Y-96.6550

G1X28.6393Y-92.8144

G1X26.3979Y-88.2210

G1X24.0307Y-83.9995

G1X23.1927Y-82.7955

G1X22.2297Y-81.6096

G1X19.2126Y-78.4135

G1X19.0118Y-78.0400

G1X19.0750Y-77.9550

G1X19.2375Y-77.9468

G1X19.8793Y-78.1766

G1X20.5524Y-78.5822

G1X21.1532Y-79.1052

G1X21.4716Y-79.5792

G1X21.6853Y-80.3118

G1X21.8489Y-81.3838

G1X21.9162Y-82.5565

G1X21.8788Y-83.5519

G1X21.7763Y-84.2009

G1X21.5974Y-84.6872

G1X21.2785Y-85.1175

G1X20.7638Y-85.5385

G1X20.0786Y-85.8819

G1X19.3334Y-86.0546

G1X18.8962Y-86.0080

G1X18.5287Y-85.7019

G1X18.1837Y-85.0731

G1X17.5076Y-83.2756

G1X16.9717Y-81.3504

G1X16.7094Y-80.7114

G1X16.2758Y-80.1459

G1X15.0399Y-79.0666

G1X14.5964Y-78.3044

G1X14.1520Y-76.7333

G1X13.9002Y-74.5400

G1X13.9946Y-73.3129

G1X14.4233Y-72.0466

G1X14.9360Y-71.0344

G1X15.6798Y-70.0748

G1X16.5805Y-69.1468

G1X17.2600Y-68.5704

G1X21.0668Y-65.9329

G1X22.7915Y-64.5816

G1X24.2656Y-63.1527

G1X25.5843Y-61.4889

G1X27.5936Y-58.4656

G1X29.4623Y-55.2137

G1X31.0040Y-52.0729

G1X32.0974Y-49.2850

G1X32.6858Y-47.0143

G1X32.9657Y-44.6355

G1X32.9591Y-42.0145

G1X32.6442Y-39.0075

G1X32.2122Y-36.5169

G1X31.7605Y-35.1461

G1X31.0877Y-33.8067

G1X29.4781Y-31.2713

G1X29.0520Y-30.4032

G1X28.8375Y-29.2180

G1X28.8903Y-28.8198

G1X29.0396Y-28.5827

G1X29.4816Y-28.3260

G1X30.3960Y-28.1127

G1X31.8633Y-27.9263

G1X33.3868Y-27.8364

G1X36.0244Y-27.9323

G1X38.3346Y-28.3446

G1X41.3250Y-29.3713

G1X44.4538Y-30.7682

G1X47.1361Y-32.2881

G1X49.2440Y-33.8464

G1X50.7813Y-35.4012

G1X52.2930Y-37.4077

G1X53.7026Y-39.7634

G1X55.0034Y-42.4670

G1X55.7421Y-44.3724

G1X56.0217Y-45.7398

G1X56.0988Y-47.3641

G1X55.9640Y-50.7320

G1X56.0671Y-51.7762

G1X56.2485Y-52.2774

G1X56.6245Y-52.7908

G1X57.0391Y-53.1358

G1X57.5996Y-53.3989

G1X58.2307Y-53.5169

G1X58.9199Y-53.4956

G1X59.6546Y-53.3405

G1X60.4221Y-53.0573

G1X61.8090Y-52.2409

G1X63.6152Y-50.7409

G1X66.0981Y-48.2611

G1X68.0036Y-45.9761

G1X68.6567Y-44.6330

G1X69.3740Y-41.9563

G1X69.6973Y-41.2478

G1X69.9645Y-41.0291

G1X70.2917Y-40.9328

G1X70.6283Y-40.9643

G1X71.0495Y-41.1592

G1X71.6496Y-41.6627

G1X72.3926Y-42.5233

G1X74.5535Y-45.5984

G1X76.1176Y-48.2823

G1X77.2063Y-50.7219

G1X77.6746Y-52.2611

G1X78.0146Y-54.0772

G1X78.6496Y-60.5587

G1X78.8828Y-62.2292

G1X79.5674Y-64.9025

G1X79.9073Y-65.7422

G1X80.2363Y-66.2600

G1X80.5535Y-66.5315

G1X80.9248Y-66.6188

G1X81.4333Y-66.4430

G1X82.0192Y-66.0413

G1X82.6837Y-65.3889

G1X83.1735Y-64.7216

G1X83.4964Y-64.0322

G1X83.5823Y-63.4898

G1X83.3745Y-62.4349

G1X82.8049Y-61.0849

G1X81.9704Y-59.7059

G1X81.1612Y-58.7961

G1X80.5533Y-58.4692

G1X79.7193Y-58.3535

G1X78.8305Y-58.4569

G1X77.9314Y-58.7933

G1X77.3223Y-59.3167

G1X77.1824Y-59.8602

G1X77.3595Y-60.6778

G1X78.3375Y-63.4228

G1X78.4022Y-64.1765

G1X78.2065Y-64.7319

G1X77.9340Y-65.0785

G1X77.5013Y-65.4378

G1X75.1801Y-66.7362

G1X72.7828Y-68.5863

G1X71.6778Y-69.6459

G1X71.1074Y-70.5842

G1X70.8773Y-71.3814

G1X70.8099Y-72.3051

G1X70.9256Y-73.4087

G1X71.2274Y-74.7721

G1X71.7120Y-76.0930

G1X73.5798Y-80.0615

G1X73.9319Y-81.1631

G1X74.3265Y-83.0057

G1X74.6067Y-84.9509

G1X74.7435Y-86.7936

G1X74.7329Y-88.5457

G1X74.5791Y-89.9627

G1X74.0845Y-92.0735

G1X72.9063Y-95.5909

G1X71.9539Y-98.1661

G1X70.9678Y-100.4052

G1X68.7526Y-104.6524

G1X67.3794Y-107.0517

G1X65.9696Y-109.1442

G1X64.5808Y-110.8135

G1X63.0732Y-112.2931

G1X61.1968Y-113.9002

G1X59.0751Y-115.5326

G1X56.8496Y-117.0853

G1X55.4080Y-117.9913

G1X54.0203Y-118.7039

G1X52.6359Y-119.2466

G1X51.2752Y-119.6039

G1X50.1604Y-119.7013

G1X49.9641Y-119.6631

G1X49.7891Y-119.5241

G1X49.7325Y-119.1214

G1X49.9444Y-117.8746

G1X49.8427Y-117.3405

G1X49.2759Y-116.1530

G1X48.8207Y-115.4582

G1X48.2883Y-114.9852

G1X47.7022Y-114.7577

G1X47.1581Y-114.7330

G1X46.4923Y-114.8372

G1X42.2001Y-116.2172

G1X37.7721Y-117.0509

G1X36.5846Y-117.1467

G1X35.6486Y-117.0971

G1X34.7734Y-116.8609

G1X34.0896Y-116.4978

G1X33.5970Y-116.0717

G1X33.1290Y-115.4599

G1X32.6445Y-114.5072

G1X32.4270Y-113.8126

G1X32.2590Y-112.6518

G1X32.0312Y-109.3181

G1X31.4680Y-105.2528

G1X31.0528Y-102.9536

G1X30.4990Y-100.8008

G1X29.2513Y-96.9004

G1X28.0807Y-93.6235

G1X26.9508Y-90.8802

G1X25.8546Y-88.6528

G1X25.0538Y-87.3312

G1X23.9554Y-85.8573

G1X22.3398Y-84.0016

G1X18.7540Y-80.2290

G1X18.1638Y-79.4399

G1X17.9456Y-78.8965

G1X18.0041Y-78.5622

G1X18.3370Y-78.3976

G1X18.8034Y-78.4655

G1X19.2372Y-78.7136

G1X19.7810Y-79.5648

G1X20.5321Y-81.2373

G1X20.9609Y-82.5602

G1X21.0724Y-83.4361

G1X20.8671Y-84.1494

G1X20.3432Y-84.8752

G1X19.6033Y-85.4749

G1X19.2151Y-85.6655

G1X18.8849Y-85.7264

G1X18.5414Y-85.5835

G1X18.2109Y-85.2528

G1X17.2877Y-83.7076

G1X17.0712Y-83.1651

G1X16.6538Y-81.5253

G1X16.2826Y-80.8659

G1X15.7274Y-80.4999

G1X14.3068Y-80.0792

G1X13.8390Y-79.8700

G1X13.3935Y-79.5007

G1X12.8852Y-78.8948

G1X12.4030Y-78.1012

G1X12.0816Y-77.3386

G1X11.8910Y-76.5899

G1X11.8015Y-75.7121

G1X11.8316Y-74.5865

G1X12.1260Y-72.0150

G1X12.4062Y-71.1945

G1X12.8639Y-70.4881

G1X13.3432Y-69.9600

G1X13.9691Y-69.4393

G1X17.1702Y-67.3493

G1X18.8677Y-66.0361

G1X24.4321Y-60.5197

G1X26.6738Y-58.0176

G1X28.3580Y-55.8414

G1X29.6123Y-53.8317

G1X30.4800Y-51.9117

G1X31.2928Y-49.2914

G1X31.8745Y-46.3685

G1X32.2570Y-43.0182

G1X32.4272Y-39.3388

G1X32.3009Y-37.6655

G1X31.9379Y-35.9151

G1X30.6137Y-31.9711

G1X30.1631Y-30.3122

G1X29.5115Y-28.5264

G1X29.5031Y-28.1840

G1X29.6356Y-27.8818

G1X30.2963Y-27.4062

G1X31.1830Y-27.0904

G1X32.2176Y-26.8945

G1X33.3126Y-26.8175

G1X34.5282Y-26.8579

G1X35.7041Y-27.0114

G1X37.3505Y-27.3583

G1X40.8168Y-28.3083

G1X43.5619Y-29.3251

G1X45.8357Y-30.4608

G1X47.8621Y-31.8743

G1X49.9431Y-33.7107

G1X51.5214Y-35.3934

G1X52.8562Y-37.0966

G1X53.9576Y-38.8414

G1X54.6813Y-40.4003

G1X55.0256Y-41.7194

G1X55.2314Y-43.3532

G1X55.2860Y-48.6760

G1X55.4083Y-50.1493

G1X55.8292Y-51.8217

G1X56.1042Y-52.6023

G1X56.4599Y-53.1274

G1X56.8992Y-53.3785

G1X57.5128Y-53.4360

G1X58.3952Y-53.2821

G1X59.4706Y-52.9053

G1X60.7445Y-52.3306

G1X63.6021Y-50.7022

G1X64.8011Y-49.8630

G1X65.8415Y-49.0062

G1X66.7796Y-47.9852

G1X67.6349Y-46.5892

G1X68.3381Y-45.0455

G1X69.5225Y-41.9862

G1X69.9863Y-41.0545

G1X70.8796Y-39.8734

G1X71.1552Y-39.7967

G1X71.4982Y-39.9537

G1X72.3955Y-40.6471

G1X73.3475Y-41.5364

G1X74.2176Y-42.4910

G1X75.0411Y-43.5469

G1X76.3245Y-45.6560

G1X77.4279Y-48.2363

G1X78.8909Y-52.6098

G1X80.1046Y-57.1779

G1X80.4268Y-59.5351

G1X80.6521Y-64.5190

G1X80.8817Y-65.4198

G1X81.0694Y-65.7554

G1X81.3826Y-66.0847

G1X81.9456Y-66.3560

G1X82.6605Y-66.3953

G1X83.4188Y-66.1731

G1X83.9493Y-65.7882

G1X84.2979Y-65.1211

G1X84.5605Y-64.1557

G1X84.7049Y-62.9785

G1X84.6604Y-62.0457

G1X84.5496Y-61.6569

G1X84.3521Y-61.3487

G1X83.4591Y-60.6142

G1X82.2660Y-60.0917

G1X81.8121Y-60.0345

G1X81.4950Y-60.1309

G1X81.3696Y-60.4033

G1X81.4249Y-60.9923

G1X82.1958Y-63.8061

G1X82.3961Y-64.8901

G1X82.3558Y-65.5892

G1X82.0441Y-66.3023

G1X81.3168Y-67.0226

G1X79.6343Y-68.0751

G1X76.4600Y-69.3425

G1X75.4280Y-69.9162

G1X74.8741Y-70.4265

G1X74.3710Y-71.0328

G1X73.6704Y-72.3230

G1X73.3768Y-73.5062

G1X73.3605Y-74.6512

G1X73.6559Y-75.9100

G1X74.8399Y-79.3316

G1X75.3864Y-82.1446

G1X75.6573Y-84.0263

G1X75.7932Y-85.6695

G1X75.7864Y-87.0099

G1X75.6272Y-88.2485

G1X75.3321Y-89.4155

G1X74.8763Y-90.7181

G1X73.5719Y-94.0823

G1X71.5177Y-98.7923

G1X69.5078Y-104.2487

G1X68.2835Y-106.6169

G1X66.5033Y-109.1775

G1X64.6047Y-111.5687

G1X62.6161Y-113.8295

G1X60.7726Y-115.7012

G1X59.1285Y-117.1275

G1X57.5425Y-118.1942

G1X55.6930Y-119.1703

G1X53.5691Y-120.0528

G1X51.4261Y-120.7310

G1X50.7709Y-120.8194

G1X50.5417Y-120.6377

G1X50.6102Y-119.5509

G1X50.5038Y-118.5006

G1X50.4932Y-115.5373

G1X50.3370Y-114.6450

G1X50.0372Y-114.0994

G1X49.4668Y-113.8041

G1X48.6163Y-113.7664

G1X47.6028Y-113.9408

G1X45.1180Y-114.5880

G1 Z0F20000


G00 X0.0000 Y0.0000


