$H
G21
G17
G90
G1 Z0F20000
G1 F15000
(Start Layer)
(Start Block)

G1X47.6792Y-39.7285
G1Z6F20000
(Plotting speed under)
G1 F8000

G1X46.8050Y-41.1184
G1X45.7466Y-42.5600
G1X44.5692Y-43.9533
G1X43.2910Y-45.2805
G1X41.9298Y-46.5238
G1X40.5039Y-47.6653
G1X39.1139Y-48.6339
G1X37.6115Y-49.5302
G1X35.9237Y-50.3807
G1X34.1477Y-51.1316
G1X32.3109Y-51.7744
G1X30.4408Y-52.3007
G1X28.5651Y-52.7021
G1X26.8080Y-52.9596
G1X25.0483Y-53.0938
G1X23.2394Y-53.1088
G1X21.3042Y-52.9995
G1X19.3711Y-52.7665
G1X17.4693Y-52.4148
G1X15.6282Y-51.9491
G1X13.9665Y-51.4073
G1X12.4100Y-50.7736
G1X10.8574Y-50.0104
G1X9.2548Y-49.0826
G1X8.0000Y-48.2384
G1 Z0F20000
(Start Block)

G1X8.0000Y-12.1545
G1Z6F20000
(Plotting speed under)
G1 F8000

G1X8.1043Y-12.0765
G1X9.9523Y-10.9409
G1X11.9448Y-9.9337
G1X14.0362Y-9.0757
G1X16.1812Y-8.3877
G1X17.8450Y-8.0000
G1 Z0F20000
(Start Block)

G1X28.8135Y-8.0000
G1Z6F20000
(Plotting speed under)
G1 F8000

G1X29.6311Y-8.1436
G1X31.6271Y-8.6634
G1X33.6792Y-9.3891
G1X35.7172Y-10.3003
G1X37.7886Y-11.4273
G1X39.6713Y-12.6489
G1X41.4164Y-13.9885
G1X42.9917Y-15.4322
G1X44.3984Y-16.9791
G1X45.7557Y-18.7532
G1X46.9687Y-20.6451
G1X48.0116Y-22.6144
G1X48.8586Y-24.6212
G1X49.4426Y-26.4631
G1X49.8842Y-28.4989
G1X50.1502Y-30.6089
G1X50.2392Y-32.7507
G1X50.1494Y-34.8816
G1X49.8965Y-36.8622
G1X49.4796Y-38.7562
G1X48.8521Y-40.7169
G1X47.9943Y-42.7585
G1X46.9539Y-44.7463
G1X45.7538Y-46.6387
G1X44.4800Y-48.3179
G1X43.1053Y-49.8332
G1X41.5805Y-51.2449
G1X39.8257Y-52.6265
G1X37.9479Y-53.8842
G1X35.9861Y-54.9934
G1X34.0708Y-55.8910
G1X32.1453Y-56.6108
G1X30.0382Y-57.2052
G1X27.7435Y-57.6623
G1X25.4057Y-57.9465
G1X23.0758Y-58.0529
G1X20.8053Y-57.9765
G1X18.7609Y-57.7342
G1X16.5828Y-57.2904
G1X14.4190Y-56.6692
G1X12.3137Y-55.8876
G1X10.3118Y-54.9628
G1X8.5382Y-53.9622
G1X8.0000Y-53.5927
G1 Z0F20000
(Start Block)

G1X8.0000Y-16.7465
G1Z6F20000
(Plotting speed under)
G1 F8000

G1X8.3320Y-16.5110
G1X10.1665Y-15.4255
G1X12.0204Y-14.5393
G1X14.0346Y-13.7855
G1X16.2633Y-13.1523
G1X18.5664Y-12.6891
G1X20.7904Y-12.4162
G1X22.9888Y-12.3206
G1X25.0386Y-12.4031
G1X27.2241Y-12.6689
G1X29.4278Y-13.1080
G1X31.6051Y-13.7097
G1X33.7111Y-14.4635
G1X35.7015Y-15.3585
G1X37.4965Y-16.3583
G1X39.3341Y-17.5943
G1X41.0923Y-18.9933
G1X42.7361Y-20.5250
G1X44.2303Y-22.1588
G1X45.4845Y-23.7857
G1X46.5312Y-25.4279
G1X47.5036Y-27.2955
G1X48.3276Y-29.2648
G1X49.0166Y-31.3942
G1X49.4934Y-33.4489
G1X49.7790Y-35.4852
G1X49.8649Y-37.4237
G1X49.7659Y-39.5198
G1X49.4812Y-41.6377
G1X48.9931Y-43.8343
G1X48.3546Y-45.8665
G1X47.5978Y-47.7044
G1X46.7023Y-49.4210
G1X45.5794Y-51.1828
G1X44.2905Y-52.8847
G1X42.7918Y-54.5699
G1X41.2478Y-56.0534
G1X39.6208Y-57.3833
G1X37.9311Y-58.5374
G1X36.0164Y-59.6233
G1X33.9821Y-60.5773
G1X31.7739Y-61.4164
G1X29.6281Y-62.0508
G1X27.4928Y-62.5047
G1X25.4456Y-62.7641
G1X23.2271Y-62.8668
G1X20.9767Y-62.8016
G1X18.6395Y-62.5589
G1X16.4663Y-62.1650
G1X14.4008Y-61.6176
G1X12.5242Y-60.9438
G1X10.5746Y-60.0585
G1X8.5986Y-58.9627
G1X8.0000Y-58.5645
G1 Z0F20000
(Start Block)

G1X8.0000Y-21.3759
G1Z6F20000
(Plotting speed under)
G1 F8000

G1X8.5753Y-20.9981
G1X10.5430Y-19.9235
G1X12.6024Y-19.0014
G1X14.6135Y-18.2850
G1X16.6229Y-17.7509
G1X18.6448Y-17.3922
G1X20.8515Y-17.1740
G1X23.1031Y-17.1182
G1X25.3536Y-17.2261
G1X27.5569Y-17.4989
G1X29.6696Y-17.9383
G1X31.7586Y-18.5631
G1X33.8396Y-19.3677
G1X35.9622Y-20.3803
G1X37.8991Y-21.4929
G1X39.6245Y-22.6682
G1X41.2076Y-23.9501
G1X42.6509Y-25.3390
G1X44.0707Y-26.9432
G1X45.3683Y-28.6640
G1X46.5186Y-30.4680
G1X47.4969Y-32.3217
G1X48.2814Y-34.2001
G1X48.8951Y-36.1854
G1X49.3395Y-38.2614
G1X49.6101Y-40.3860
G1X49.7023Y-42.5167
G1X49.6202Y-44.5130
G1X49.3681Y-46.4400
G1X48.9354Y-48.3482
G1X48.2923Y-50.3584
G1X47.4729Y-52.3374
G1X46.4951Y-54.2473
G1X45.3764Y-56.0497
G1X44.1402Y-57.6994
G1X42.7725Y-59.2164
G1X41.1657Y-60.7253
G1X39.4172Y-62.1255
G1X37.5640Y-63.3900
G1X35.7314Y-64.4456
G1X33.8694Y-65.3295
G1X31.9254Y-66.0604
G1X29.7792Y-66.6811
G1X27.5657Y-67.1465
G1X25.3304Y-67.4494
G1X23.1186Y-67.5825
G1X20.9638Y-67.5379
G1X18.7734Y-67.3013
G1X16.5655Y-66.8809
G1X14.3860Y-66.2910
G1X12.2804Y-65.5460
G1X10.3816Y-64.7034
G1X8.5959Y-63.7235
G1X8.0000Y-63.3236
G1 Z0F20000
(Start Block)

G1X8.0000Y-26.0184
G1Z6F20000
(Plotting speed under)
G1 F8000

G1X8.5803Y-25.6265
G1X10.2968Y-24.6706
G1X12.2705Y-23.7862
G1X14.3716Y-23.0413
G1X16.6546Y-22.4266
G1X18.8732Y-22.0095
G1X21.0791Y-21.7734
G1X23.2282Y-21.7288
G1X25.4153Y-21.8628
G1X27.6311Y-22.1658
G1X29.8312Y-22.6300
G1X31.9715Y-23.2476
G1X33.9179Y-23.9732
G1X35.7788Y-24.8471
G1X37.6192Y-25.9023
G1X39.4842Y-27.1735
G1X41.2480Y-28.5866
G1X42.8732Y-30.1133
G1X44.2610Y-31.6507
G1X45.4925Y-33.2894
G1X46.6057Y-35.0840
G1X47.5791Y-36.9910
G1X48.3959Y-38.9719
G1X49.0392Y-40.9883
G1X49.4751Y-42.9064
G1X49.7291Y-44.8235
G1X49.8105Y-46.8089
G1X49.7159Y-48.9330
G1X49.4245Y-51.1564
G1X48.9685Y-53.2331
G1X48.3443Y-55.2221
G1X47.5960Y-57.0073
G1X46.6216Y-58.8491
G1X45.4712Y-60.6446
G1X44.1052Y-62.4401
G1X42.6742Y-64.0379
G1X41.1450Y-65.4888
G1X39.5499Y-66.7576
G1X37.8193Y-67.9124
G1X35.8754Y-69.0030
G1X33.7444Y-69.9928
G1X31.6546Y-70.7766
G1X29.5566Y-71.3819
G1X27.4466Y-71.8004
G1X25.2488Y-72.0500
G1X23.0026Y-72.1337
G1X20.6528Y-72.0460
G1X18.4514Y-71.7966
G1X16.3422Y-71.3873
G1X14.4428Y-70.8494
G1X12.4484Y-70.1058
G1X10.4079Y-69.1548
G1X8.4600Y-68.0518
G1X8.0000Y-67.7393
G1 Z0F20000
(Start Block)

G1X8.0000Y-30.7379
G1Z6F20000
(Plotting speed under)
G1 F8000

G1X8.4277Y-30.4430
G1X10.3899Y-29.3120
G1X12.4337Y-28.3438
G1X14.4213Y-27.5961
G1X16.3905Y-27.0431
G1X18.5420Y-26.6235
G1X20.8712Y-26.3535
G1X23.2303Y-26.2604
G1X25.4664Y-26.3413
G1X27.6360Y-26.5922
G1X29.6612Y-27.0007
G1X31.8007Y-27.6098
G1X34.0133Y-28.4275
G1X36.1535Y-29.4110
G1X38.0883Y-30.4896
G1X39.7931Y-31.6291
G1X41.4160Y-32.9304
G1X42.9622Y-34.3938
G1X44.4688Y-36.0657
G1X45.8296Y-37.8442
G1X46.9643Y-39.6085
G1X47.9116Y-41.4063
G1X48.6651Y-43.2284
G1X49.2995Y-45.2493
G1X49.7837Y-47.4397
G1X50.0656Y-49.5568
G1X50.1639Y-51.6570
G1X50.0797Y-53.6034
G1X49.7935Y-55.6386
G1X49.3101Y-57.6966
G1X48.6087Y-59.8333
G1X47.7689Y-61.8125
G1X46.7780Y-63.6922
G1X45.6567Y-65.4245
G1X44.3925Y-67.0306
G1X42.8860Y-68.6422
G1X41.1503Y-70.2176
G1X39.2905Y-71.6475
G1X37.4332Y-72.8477
G1X35.6227Y-73.8126
G1X33.6191Y-74.6693
G1X31.5025Y-75.3828
G1X29.2175Y-75.9649
G1X27.0093Y-76.3545
G1X24.8247Y-76.5706
G1X22.7690Y-76.6056
G1X20.5571Y-76.4573
G1X18.2238Y-76.1102
G1X15.9221Y-75.5799
G1X13.7049Y-74.8795
G1X11.7127Y-74.0627
G1X9.8746Y-73.1078
G1X8.0000Y-71.9091
G1 Z0F20000
(Start Block)

G1X8.0000Y-35.4242
G1Z6F20000
(Plotting speed under)
G1 F8000

G1X8.2629Y-35.2265
G1X9.9980Y-34.1549
G1X11.9404Y-33.1773
G1X14.1061Y-32.3001
G1X16.2603Y-31.6165
G1X18.5493Y-31.0825
G1X20.7274Y-30.7615
G1X22.8716Y-30.6333
G1X25.1822Y-30.6825
G1X27.5219Y-30.9122
G1X29.8394Y-31.3168
G1X31.9884Y-31.8621
G1X34.0271Y-32.5578
G1X35.9373Y-33.3962
G1X37.9076Y-34.4538
G1X39.8925Y-35.7286
G1X41.6796Y-37.0836
G1X43.3188Y-38.5454
G1X44.7815Y-40.1002
G1X46.0737Y-41.7566
G1X47.2952Y-43.6379
G1X48.3591Y-45.6263
G1X49.2431Y-47.6787
G1X49.8983Y-49.6582
G1X50.3368Y-51.5466
G1X50.6144Y-53.6188
G1X50.7072Y-55.7519
G1X50.6090Y-58.0046
G1X50.3311Y-60.1266
G1X49.8759Y-62.1771
G1X49.2453Y-64.1178
G1X48.3734Y-66.1188
G1X47.3012Y-68.0817
G1X45.9954Y-70.0490
G1X44.5979Y-71.8072
G1X43.1538Y-73.3352
G1X41.5518Y-74.7460
G1X39.7843Y-76.0478
G1X37.7924Y-77.2799
G1X35.6993Y-78.3560
G1X33.5519Y-79.2515
G1X31.4910Y-79.9161
G1X29.3798Y-80.3989
G1X27.0778Y-80.7304
G1X24.6284Y-80.8866
G1X22.1897Y-80.8477
G1X19.9183Y-80.6266
G1X17.8073Y-80.2354
G1X15.6657Y-79.6391
G1X13.5483Y-78.8580
G1X11.4093Y-77.8673
G1X9.3973Y-76.7227
G1X8.0000Y-75.7563
G1 Z0F20000
(Start Block)

G1X8.0000Y-40.2368
G1Z6F20000
(Plotting speed under)
G1 F8000

G1X9.6030Y-39.1124
G1X11.5527Y-37.9727
G1X13.5658Y-37.0118
G1X15.5821Y-36.2629
G1X17.7774Y-35.6601
G1X20.0742Y-35.2233
G1X22.5226Y-34.9528
G1X24.8649Y-34.8792
G1X27.0528Y-34.9862
G1X29.2863Y-35.2915
G1X31.6471Y-35.8203
G1X33.9904Y-36.5465
G1X36.2611Y-37.4525
G1X38.3178Y-38.4728
G1X40.1468Y-39.5839
G1X41.9265Y-40.8954
G1X43.6225Y-42.3775
G1X45.2701Y-44.0728
G1X46.6917Y-45.7987
G1X47.9289Y-47.5923
G1X48.9270Y-49.3726
G1X49.8178Y-51.3895
G1X50.5351Y-53.5125
G1X51.0860Y-55.7940
G1X51.4100Y-57.9862
G1X51.5231Y-60.1398
G1X51.4045Y-62.3719
G1X51.0505Y-64.6487
G1X50.4474Y-67.0156
G1X49.6621Y-69.2196
G1X48.7362Y-71.2185
G1X47.6570Y-73.0593
G1X46.3249Y-74.8924
G1X44.7941Y-76.6450
G1X43.1040Y-78.2797
G1X41.2936Y-79.7590
G1X39.4025Y-81.0456
G1X37.4441Y-82.1238
G1X35.2415Y-83.0934
G1X32.8302Y-83.9201
G1X30.3632Y-84.5414
G1X28.0026Y-84.9274
G1X25.6669Y-85.0931
G1X23.2583Y-85.0416
G1X20.8230Y-84.7835
G1X18.3225Y-84.3070
G1X16.0192Y-83.6614
G1X13.9409Y-82.8730
G1X11.9635Y-81.9002
G1X9.9599Y-80.6813
G1X8.0672Y-79.2914
G1X8.0000Y-79.2323
G1 Z0F20000
(Start Block)

G1X8.0000Y-45.0500
G1Z6F20000
(Plotting speed under)
G1 F8000

G1X9.0092Y-44.2333
G1X10.5185Y-43.2083
G1X12.2371Y-42.2258
G1X14.0652Y-41.3497
G1X15.9701Y-40.5945
G1X17.9189Y-39.9745
G1X19.8790Y-39.5040
G1X21.8119Y-39.1969
G1X23.7864Y-39.0359
G1X25.9169Y-39.0133
G1X28.0675Y-39.1386
G1X30.1990Y-39.4100
G1X32.1755Y-39.8024
G1X33.9734Y-40.2946
G1X35.8330Y-40.9597
G1X37.6814Y-41.7775
G1X39.5779Y-42.7822
G1X41.3112Y-43.8604
G1X43.0218Y-45.1014
G1X44.5162Y-46.3694
G1X45.8252Y-47.6753
G1X47.1277Y-49.2045
G1X48.2670Y-50.7684
G1X49.3451Y-52.5026
G1X50.6497Y-55.1161
G1X51.5985Y-57.7687
G1X52.1859Y-60.4880
G1X52.4570Y-63.4304
G1X52.3829Y-66.3876
G1X51.9617Y-69.2448
G1X51.1841Y-71.9499
G1X50.0389Y-74.6279
G1X48.5224Y-77.2832
G1X46.7927Y-79.6393
G1X44.9279Y-81.6302
G1X42.6348Y-83.5567
G1X39.9966Y-85.3156
G1X37.1968Y-86.7711
G1X34.4398Y-87.8260
G1X31.4491Y-88.5774
G1X28.3201Y-89.0137
G1X25.1814Y-89.1248
G1X22.2536Y-88.9127
G1X19.4123Y-88.3681
G1X16.3893Y-87.4320
G1X13.4156Y-86.1350
G1X10.8074Y-84.6109
G1X8.5242Y-82.8419
G1X8.0000Y-82.3218
G1 Z0F20000
(Start Block)

G1X8.0000Y-50.0431
G1Z6F20000
(Plotting speed under)
G1 F8000

G1X8.8064Y-49.3075
G1X10.4135Y-48.0487
G1X12.0259Y-46.9641
G1X13.6963Y-46.0087
G1X15.3887Y-45.2075
G1X17.2095Y-44.5166
G1X19.1327Y-43.9426
G1X21.2255Y-43.4736
G1X23.2533Y-43.1617
G1X25.2806Y-42.9888
G1X27.2735Y-42.9619
G1X29.1294Y-43.0770
G1X31.1177Y-43.3438
G1X33.1185Y-43.7520
G1X35.1972Y-44.3236
G1X37.2158Y-45.0322
G1X39.0480Y-45.8255
G1X40.6870Y-46.6842
G1X42.2963Y-47.6907
G1X43.8583Y-48.8304
G1X45.4268Y-50.1521
G1X46.8920Y-51.5760
G1X48.1647Y-53.0021
G1X49.2985Y-54.4795
G1X50.3006Y-56.0353
G1X51.6221Y-58.6470
G1X52.6756Y-61.5295
G1X53.3710Y-64.4788
G1X53.6660Y-67.2904
G1X53.5774Y-70.1687
G1X53.1050Y-73.1903
G1X52.2729Y-76.1335
G1X51.1524Y-78.7871
G1X49.6648Y-81.3086
G1X47.7501Y-83.7978
G1X45.5422Y-86.0704
G1X43.2125Y-87.9695
G1X40.7285Y-89.5275
G1X37.8952Y-90.8808
G1X34.9026Y-91.9371
G1X31.8738Y-92.6525
G1X30.3303Y-92.8748
G1X28.7517Y-93.0003
G1X25.5066Y-92.9748
G1X22.1642Y-92.5776
G1X19.0751Y-91.8508
G1X16.3030Y-90.8250
G1X13.5740Y-89.4229
G1X10.9348Y-87.6605
G1X8.6677Y-85.7265
G1X8.0000Y-84.9861
G1 Z0F20000
(Start Block)

G1X8.0000Y-55.1556
G1Z6F20000
(Plotting speed under)
G1 F8000

G1X8.1417Y-54.9909
G1X9.4324Y-53.7017
G1X10.8508Y-52.5016
G1X12.3629Y-51.4208
G1X14.0853Y-50.3741
G1X15.9099Y-49.4371
G1X17.8042Y-48.6266
G1X19.6388Y-47.9889
G1X21.3828Y-47.5170
G1X23.2008Y-47.1667
G1X25.1863Y-46.9295
G1X27.2234Y-46.8249
G1X29.2782Y-46.8532
G1X31.3169Y-47.0148
G1X33.3055Y-47.3100
G1X35.1232Y-47.7160
G1X36.9346Y-48.2629
G1X38.7417Y-48.9459
G1X40.6104Y-49.7976
G1X42.4146Y-50.7710
G1X44.0410Y-51.7947
G1X45.5553Y-52.9017
G1X46.9627Y-54.1070
G1X48.3133Y-55.4618
G1X49.5789Y-56.9340
G1X50.7996Y-58.5832
G1X51.8345Y-60.2182
G1X53.2151Y-62.9625
G1X54.1416Y-65.6446
G1X54.4938Y-67.1160
G1X54.7707Y-68.7237
G1X55.0107Y-71.8797
G1X54.8720Y-74.7781
G1X54.3672Y-77.5476
G1X53.4449Y-80.4082
G1X52.1146Y-83.2796
G1X50.5184Y-85.8602
G1X48.6731Y-88.1360
G1X46.4284Y-90.2749
G1X43.8080Y-92.2467
G1X41.1779Y-93.8026
G1X38.4790Y-95.0054
G1X35.5120Y-95.9195
G1X32.2898Y-96.5356
G1X29.0477Y-96.7988
G1X25.9053Y-96.6867
G1X22.7197Y-96.1666
G1X19.5634Y-95.2706
G1X16.6687Y-94.0889
G1X14.0352Y-92.6227
G1X11.6073Y-90.8153
G1X9.3166Y-88.6265
G1X8.0000Y-87.0207
G1 Z0F20000
(Start Block)

G1X8.0000Y-60.5707
G1Z6F20000
(Plotting speed under)
G1 F8000

G1X8.0237Y-60.5378
G1X9.1719Y-59.1788
G1X10.5181Y-57.8050
G1X11.9785Y-56.5157
G1X13.5291Y-55.3334
G1X15.0595Y-54.3323
G1X16.5303Y-53.5161
G1X18.2006Y-52.7458
G1X19.9737Y-52.0743
G1X21.8214Y-51.5096
G1X23.7150Y-51.0595
G1X25.6262Y-50.7320
G1X27.5265Y-50.5349
G1X29.2880Y-50.4756
G1X31.1561Y-50.5443
G1X33.0594Y-50.7406
G1X34.9700Y-51.0592
G1X36.8602Y-51.4947
G1X38.7022Y-52.0418
G1X40.4681Y-52.6953
G1X42.1481Y-53.4582
G1X43.8115Y-54.3691
G1X45.4357Y-55.4120
G1X46.9975Y-56.5687
G1X48.4736Y-57.8212
G1X49.8411Y-59.1513
G1X51.0152Y-60.4665
G1X52.0761Y-61.8536
G1X53.0596Y-63.3734
G1X54.4679Y-66.1005
G1X55.5463Y-68.9702
G1X56.2297Y-71.7707
G1X56.5293Y-74.5804
G1X56.4537Y-77.6033
G1X55.9836Y-80.7282
G1X55.1684Y-83.6239
G1X54.6350Y-84.9819
G1X54.0084Y-86.2977
G1X52.4046Y-88.9630
G1X50.4556Y-91.4667
G1X48.2476Y-93.7013
G1X45.9387Y-95.5155
G1X43.1809Y-97.1744
G1X40.0961Y-98.5758
G1X37.0098Y-99.5754
G1X35.4747Y-99.9242
G1X33.9261Y-100.1722
G1X30.7040Y-100.3966
G1X27.3350Y-100.2564
G1X24.1721Y-99.7688
G1X21.2515Y-98.9458
G1X18.2550Y-97.6775
G1X16.8070Y-96.9064
G1X15.3304Y-96.0018
G1X14.0165Y-95.0802
G1X12.7934Y-94.1007
G1X11.7329Y-93.1274
G1X10.7004Y-92.0357
G1X8.8268Y-89.6083
G1X8.0000Y-88.2905
G1 Z0F20000
(Start Block)

G1X8.0000Y-66.6304
G1Z6F20000
(Plotting speed under)
G1 F8000

G1X8.2636Y-66.1606
G1X9.2797Y-64.6254
G1X10.3375Y-63.2527
G1X11.4780Y-61.9767
G1X12.6692Y-60.8348
G1X14.0219Y-59.7218
G1X15.4901Y-58.6766
G1X17.1400Y-57.6618
G1X18.7743Y-56.7986
G1X20.5488Y-56.0064
G1X22.2531Y-55.3827
G1X23.9445Y-54.8981
G1X25.7811Y-54.5105
G1X27.5835Y-54.2500
G1X29.5243Y-54.0896
G1X31.4761Y-54.0490
G1X33.3089Y-54.1228
G1X35.1988Y-54.3212
G1X36.9323Y-54.6268
G1X38.7689Y-55.0849
G1X40.6057Y-55.6746
G1X42.4160Y-56.3852
G1X44.1735Y-57.2057
G1X45.7656Y-58.0743
G1X47.2640Y-59.0225
G1X48.6697Y-60.0588
G1X49.9628Y-61.1639
G1X51.2699Y-62.4433
G1X52.4971Y-63.8156
G1X53.6876Y-65.3432
G1X54.6991Y-66.8443
G1X55.4896Y-68.2064
G1X56.1688Y-69.5862
G1X56.7277Y-70.9621
G1X57.2315Y-72.4944
G1X57.6368Y-74.0749
G1X57.9561Y-75.7857
G1X58.1486Y-77.4054
G1X58.2331Y-79.0149
G1X58.2116Y-80.4977
G1X58.0895Y-81.9438
G1X57.5286Y-84.8645
G1X57.0675Y-86.4250
G1X56.5028Y-87.9640
G1X55.1416Y-90.8172
G1X54.3149Y-92.1886
G1X53.4761Y-93.3848
G1X52.4892Y-94.6027
G1X51.3987Y-95.7814
G1X50.2194Y-96.9093
G1X48.8853Y-98.0387
G1X46.2086Y-99.9230
G1X43.5968Y-101.3296
G1X40.6306Y-102.4778
G1X37.3680Y-103.3264
G1X34.1521Y-103.7942
G1X32.4722Y-103.8904
G1X30.9097Y-103.8788
G1X29.3110Y-103.7640
G1X27.5934Y-103.5335
G1X25.8776Y-103.1971
G1X24.1855Y-102.7604
G1X22.5393Y-102.2292
G1X20.9606Y-101.6095
G1X19.5564Y-100.9506
G1X18.2558Y-100.2298
G1X16.8907Y-99.3499
G1X15.5703Y-98.3724
G1X14.3100Y-97.3113
G1X13.1249Y-96.1803
G1X12.0303Y-94.9935
G1X11.0999Y-93.8424
G1X10.2731Y-92.6630
G1X9.5142Y-91.3885
G1X8.8355Y-90.0382
G1X8.2063Y-88.5338
G1X8.0000Y-87.9244
G1 Z0F20000
(Start Block)

G1X8.0000Y-73.8572
G1Z6F20000
(Plotting speed under)
G1 F8000

G1X8.0833Y-73.5952
G1X8.6412Y-72.1752
G1X9.2873Y-70.8178
G1X10.0534Y-69.4809
G1X10.9802Y-68.1171
G1X12.0294Y-66.7870
G1X13.1850Y-65.5079
G1X14.4311Y-64.2966
G1X15.7517Y-63.1705
G1X17.1307Y-62.1465
G1X18.5390Y-61.2493
G1X20.0689Y-60.4246
G1X21.6973Y-59.6829
G1X23.4006Y-59.0322
G1X25.1552Y-58.4807
G1X26.9373Y-58.0367
G1X28.6245Y-57.7234
G1X30.2953Y-57.5202
G1X32.0462Y-57.4271
G1X33.8438Y-57.4480
G1X35.6679Y-57.5795
G1X37.4945Y-57.8186
G1X39.2997Y-58.1622
G1X41.0598Y-58.6072
G1X42.7506Y-59.1505
G1X44.2945Y-59.7640
G1X45.8372Y-60.4979
G1X47.4433Y-61.3910
G1X49.0855Y-62.4477
G1X50.5693Y-63.5420
G1X51.9618Y-64.7125
G1X53.2425Y-65.9451
G1X54.3432Y-67.1683
G1X55.3822Y-68.5096
G1X56.3406Y-69.9426
G1X57.2084Y-71.4474
G1X58.0175Y-73.0968
G1X58.6675Y-74.6865
G1X59.1962Y-76.2869
G1X59.5742Y-77.7849
G1X59.8402Y-79.3212
G1X59.9973Y-80.9081
G1X60.0465Y-82.6265
G1X59.9679Y-84.4574
G1X59.7723Y-86.1730
G1X59.4605Y-87.8519
G1X59.0342Y-89.4712
G1X58.5268Y-90.9305
G1X57.8572Y-92.4695
G1X57.0620Y-93.9898
G1X56.1544Y-95.4724
G1X55.1476Y-96.8983
G1X54.0549Y-98.2485
G1X52.8894Y-99.5040
G1X51.6725Y-100.6388
G1X50.3022Y-101.7357
G1X48.8200Y-102.7603
G1X47.2491Y-103.7008
G1X45.6125Y-104.5455
G1X43.9336Y-105.2827
G1X42.3299Y-105.8698
G1X40.7293Y-106.3405
G1X39.1049Y-106.6988
G1X37.3202Y-106.9701
G1X35.4944Y-107.1303
G1X33.6532Y-107.1793
G1X31.8225Y-107.1171
G1X30.1265Y-106.9561
G1X28.4848Y-106.6958
G1X26.9539Y-106.3468
G1X25.3081Y-105.8533
G1X23.6745Y-105.2456
G1X22.0741Y-104.5343
G1X20.4392Y-103.6798
G1X18.9735Y-102.7881
G1X17.6828Y-101.8834
G1X16.5566Y-100.9766
G1X15.4568Y-99.9575
G1X14.3428Y-98.7731
G1X13.3018Y-97.5053
G1X12.3459Y-96.1716
G1X11.4875Y-94.7893
G1X10.7387Y-93.3759
G1X10.1472Y-92.0381
G1X9.6625Y-90.6720
G1X9.2717Y-89.2308
G1X8.9633Y-87.6383
G1X8.7686Y-86.0109
G1X8.6895Y-84.3707
G1X8.7277Y-82.7403
G1X8.8716Y-81.2403
G1X9.1216Y-79.7867
G1X9.4759Y-78.3881
G1X9.9417Y-76.9798
G1X10.5527Y-75.4844
G1X11.2725Y-74.0145
G1X12.0377Y-72.6764
G1X12.9416Y-71.3096
G1X13.8630Y-70.1015
G1X14.8395Y-68.9891
G1X15.9377Y-67.9032
G1X17.1390Y-66.8615
G1X18.5107Y-65.8149
G1X19.9625Y-64.8431
G1X21.3852Y-64.0084
G1X22.9389Y-63.2186
G1X24.4244Y-62.5781
G1X25.8986Y-62.0530
G1X27.5051Y-61.5945
G1X30.7879Y-60.9600
G1X34.1616Y-60.6796
G1X37.4755Y-60.7734
G1X39.0302Y-60.9607
G1X40.7000Y-61.2675
G1X43.9490Y-62.1587
G1X47.1806Y-63.4416
G1X50.0585Y-64.9908
G1X52.5669Y-66.7845
G1X54.9863Y-68.9964
G1X57.1250Y-71.4641
G1X58.0579Y-72.7608
G1X58.8831Y-74.0818
G1X59.6140Y-75.4637
G1X60.2994Y-77.0290
G1X60.8793Y-78.6619
G1X61.3485Y-80.3400
G1X61.7015Y-82.0406
G1X61.9331Y-83.7413
G1X62.0378Y-85.4193
G1X62.0156Y-86.9645
G1X61.8604Y-88.6264
G1X61.5752Y-90.3078
G1X61.1673Y-91.9865
G1X60.6093Y-93.7364
G1X59.9708Y-95.3397
G1X59.2310Y-96.8726
G1X58.3999Y-98.3082
G1X57.4663Y-99.6653
G1X56.4109Y-100.9873
G1X55.1791Y-102.3319
G1X53.8488Y-103.6021
G1X52.4399Y-104.7799
G1X51.0546Y-105.7910
G1X49.6331Y-106.6884
G1X48.1726Y-107.4702
G1X46.5287Y-108.2094
G1X44.8080Y-108.8516
G1X42.9362Y-109.4167
G1X41.0370Y-109.8580
G1X39.2394Y-110.1547
G1X37.4693Y-110.3262
G1X35.7042Y-110.3687
G1X33.8970Y-110.2870
G1X32.0729Y-110.0863
G1X30.3579Y-109.7920
G1X28.6727Y-109.4007
G1X27.0391Y-108.9165
G1X25.5681Y-108.3799
G1X24.1474Y-107.7531
G1X22.8119Y-107.0542
G1X20.1496Y-105.3314
G1X18.8571Y-104.3193
G1X17.6409Y-103.2400
G1X16.5169Y-102.1064
G1X15.5009Y-100.9308
G1X14.6302Y-99.7597
G1X13.8202Y-98.4873
G1X13.0883Y-97.1434
G1X12.4016Y-95.6501
G1X11.8199Y-94.1150
G1X11.3772Y-92.6562
G1X11.0410Y-91.1955
G1X10.8180Y-89.7497
G1X10.7100Y-88.3017
G1X10.7100Y-86.8133
G1X10.8153Y-85.3012
G1X11.0229Y-83.7834
G1X11.3541Y-82.1781
G1X11.7644Y-80.7048
G1X12.2685Y-79.2802
G1X12.8619Y-77.9257
G1X13.5338Y-76.6571
G1X14.3663Y-75.3181
G1X15.3061Y-74.0086
G1X16.3406Y-72.7441
G1X18.5676Y-70.4798
G1X19.8077Y-69.4366
G1X21.0014Y-68.5610
G1X23.6947Y-66.9627
G1X26.7643Y-65.5965
G1X29.8884Y-64.6022
G1X33.0191Y-63.9897
G1X36.2782Y-63.7615
G1X39.6438Y-63.8983
G1X42.9677Y-64.3901
G1X46.1071Y-65.2289
G1X49.0768Y-66.4321
G1X52.0413Y-68.0461
G1X54.6986Y-69.9005
G1X57.0272Y-71.9741
G1X59.0626Y-74.3365
G1X60.8281Y-76.9782
G1X61.7471Y-78.6848
G1X62.4857Y-80.3333
G1X63.0820Y-81.9892
G1X63.5146Y-83.5858
G1X63.8437Y-85.3587
G1X64.0374Y-87.1813
G1X64.0958Y-89.0255
G1X64.0190Y-90.8631
G1X63.8070Y-92.6660
G1X63.4827Y-94.3117
G1X63.0367Y-95.8893
G1X62.4565Y-97.4632
G1X61.7067Y-99.1134
G1X60.8312Y-100.7240
G1X59.7863Y-102.3550
G1X58.6965Y-103.8102
G1X57.5910Y-105.0827
G1X56.3516Y-106.3045
G1X54.9906Y-107.4577
G1X53.4382Y-108.5953
G1X51.8818Y-109.5834
G1X50.1739Y-110.5168
G1X48.4259Y-111.3221
G1X46.7571Y-111.9526
G1X45.0774Y-112.4498
G1X43.2242Y-112.8576
G1X41.3147Y-113.1449
G1X39.3792Y-113.3095
G1X37.4480Y-113.3497
G1X35.5516Y-113.2634
G1X33.8144Y-113.0633
G1X32.0612Y-112.7292
G1X29.0327Y-111.8489
G1X26.1033Y-110.6298
G1X23.4018Y-109.1266
G1X21.0455Y-107.3897
G1X19.9201Y-106.3731
G1X18.7801Y-105.2014
G1X16.7973Y-102.7340
G1X15.9159Y-101.3901
G1X15.1928Y-100.1057
G1X14.5783Y-98.8062
G1X14.0837Y-97.5237
G1X13.6425Y-96.0882
G1X13.2955Y-94.6067
G1X13.0457Y-93.0969
G1X12.8957Y-91.5767
G1X12.8988Y-88.6740
G1X13.0431Y-87.3220
G1X13.3034Y-85.9014
G1X13.6737Y-84.4654
G1X14.1827Y-82.9347
G1X14.8015Y-81.4240
G1X15.4744Y-80.0431
G1X16.2834Y-78.6265
G1X17.1205Y-77.3680
G1X18.0169Y-76.2052
G1X19.0415Y-75.0549
G1X21.2341Y-73.0109
G1X23.7843Y-71.1224
G1X26.5174Y-69.5454
G1X29.2203Y-68.3951
G1X32.3927Y-67.4683
G1X35.7220Y-66.8814
G1X39.0591Y-66.6635
G1X42.1957Y-66.8311
G1X45.3740Y-67.3732
G1X48.6175Y-68.2897
G1X51.5962Y-69.4885
G1X54.2545Y-70.9377
G1X56.8895Y-72.8258
G1X59.3854Y-75.0987
G1X61.4835Y-77.5187
G1X62.3805Y-78.7778
G1X63.1511Y-80.0353
G1X63.9857Y-81.6503
G1X64.7069Y-83.3454
G1X65.3360Y-85.1922
G1X65.7982Y-86.9690
G1X66.1217Y-88.7452
G1X66.2926Y-90.3985
G1X66.3276Y-92.0536
G1X66.2196Y-93.8495
G1X65.9510Y-95.7632
G1X65.5311Y-97.6638
G1X64.9679Y-99.5190
G1X64.3091Y-101.2054
G1X63.5378Y-102.7900
G1X62.6432Y-104.2930
G1X61.6086Y-105.7633
G1X60.3852Y-107.2581
G1X59.0485Y-108.6714
G1X57.6206Y-109.9802
G1X56.1236Y-111.1612
G1X54.6671Y-112.1382
G1X53.0368Y-113.0582
G1X51.2087Y-113.9195
G1X49.3963Y-114.6256
G1X47.4415Y-115.2400
G1X45.5702Y-115.6908
G1X43.7148Y-116.0022
G1X41.9617Y-116.1641
G1X40.0558Y-116.2026
G1X38.1198Y-116.1098
G1X36.0834Y-115.8748
G1X34.0837Y-115.5038
G1X32.2508Y-115.0299
G1X29.4069Y-113.9838
G1X27.9519Y-113.2810
G1X26.5268Y-112.4796
G1X23.8313Y-110.6267
G1X22.5936Y-109.5978
G1X21.4510Y-108.5158
G1X19.6097Y-106.3761
G1X18.7442Y-105.1331
G1X17.9534Y-103.8215
G1X16.6271Y-101.0561
G1X15.7175Y-98.3028
G1X15.4095Y-96.8863
G1X15.2214Y-95.5377
G1X15.1210Y-94.0481
G1X15.1237Y-92.5297
G1X15.2281Y-91.0005
G1X15.4326Y-89.4785
G1X16.1061Y-86.6228
G1X17.0888Y-84.0817
G1X18.5307Y-81.4682
G1X20.3339Y-78.9777
G1X22.3477Y-76.7897
G1X24.6064Y-74.8788
G1X27.2546Y-73.1657
G1X30.1740Y-71.7175
G1X33.2365Y-70.5976
G1X36.1170Y-69.9028
G1X39.1740Y-69.5294
G1X42.4427Y-69.4749
G1X45.6920Y-69.7560
G1X48.6950Y-70.3478
G1X51.6498Y-71.3021
G1X54.6448Y-72.6487
G1X57.4610Y-74.2997
G1X59.8285Y-76.0679
G1X61.8383Y-77.9805
G1X63.7964Y-80.3266
G1X65.4776Y-82.8757
G1X66.3678Y-84.5499
G1X67.1019Y-86.2401
G1X67.6627Y-87.9085
G1X68.0971Y-89.6669
G1X68.4126Y-91.5800
G1X68.5789Y-93.5194
G1X68.5937Y-95.4520
G1X68.4659Y-97.2467
G1X68.1983Y-98.9771
G1X67.7804Y-100.6836
G1X67.2134Y-102.3943
G1X66.4673Y-104.1773
G1X65.5840Y-105.9080
G1X64.6342Y-107.4731
G1X63.5264Y-109.0183
G1X62.3948Y-110.3514
G1X61.0709Y-111.6763
G1X59.6148Y-112.9295
G1X58.0528Y-114.0930
G1X56.3230Y-115.2014
G1X54.6259Y-116.1253
G1X52.9031Y-116.9053
G1X51.1552Y-117.5363
G1X49.3162Y-118.0508
G1X47.3119Y-118.4637
G1X45.2729Y-118.7401
G1X43.2350Y-118.8756
G1X41.2344Y-118.8658
G1X39.3810Y-118.7155
G1X37.4971Y-118.4151
G1X35.6043Y-117.9725
G1X33.6358Y-117.3647
G1X30.7149Y-116.1640
G1X28.1490Y-114.7411
G1X25.8162Y-113.0229
G1X23.5889Y-110.9223
G1X21.6415Y-108.5910
G1X20.0657Y-106.1281
G1X18.9192Y-103.6170
G1X18.0559Y-100.7947
G1X17.5551Y-97.8800
G1X17.4478Y-96.3779
G1X17.4456Y-94.9999
G1X17.7316Y-92.3092
G1X18.4180Y-89.4840
G1X19.5059Y-86.6258
G1X20.8825Y-84.0470
G1X22.5271Y-81.7664
G1X24.6491Y-79.4983
G1X26.9985Y-77.5050
G1X29.5440Y-75.7957
G1X32.0757Y-74.5007
G1X34.8681Y-73.4509
G1X38.0289Y-72.6267
G1X41.2472Y-72.1417
G1X44.2993Y-72.0277
G1X47.3895Y-72.2679
G1X50.6082Y-72.8606
G1X53.6309Y-73.7431
G1X56.3520Y-74.8620
G1X58.9663Y-76.3143
G1X61.6212Y-78.2090
G1X64.0315Y-80.3741
G1X66.0305Y-82.6458
G1X67.6829Y-85.1105
G1X68.6329Y-86.9081
G1X69.4418Y-88.7839
G1X70.0961Y-90.7034
G1X70.5620Y-92.5358
G1X70.8642Y-94.3469
G1X70.9989Y-96.1040
G1X70.9888Y-97.9085
G1X70.8262Y-99.8340
G1X70.5129Y-101.7488
G1X70.0544Y-103.6200
G1X69.4562Y-105.4152
G1X68.7237Y-107.1030
G1X67.8312Y-108.7475
G1X66.7267Y-110.4385
G1X65.5423Y-111.9806
G1X64.1768Y-113.5084
G1X62.7883Y-114.8428
G1X61.3343Y-116.0361
G1X59.8218Y-117.0824
G1X58.0990Y-118.0883
G1X56.2747Y-118.9830
G1X54.2864Y-119.7879
G1X52.2613Y-120.4396
G1X50.3335Y-120.9035
G1X48.4044Y-121.2072
G1X46.4038Y-121.3641
G1X44.3614Y-121.3779
G1X42.3133Y-121.2513
G1X40.2957Y-120.9871
G1X38.3448Y-120.5880
G1X36.4772Y-120.0504
G1X34.7021Y-119.3791
G1X31.9588Y-118.0334
G1X29.3847Y-116.3962
G1X27.1607Y-114.5989
G1X25.2702Y-112.6309
G1X23.5196Y-110.2688
G1X22.0146Y-107.6062
G1X20.9204Y-104.9329
G1X20.2468Y-102.3093
G1X19.9277Y-99.5183
G1X19.9670Y-96.5537
G1X20.3605Y-93.7401
G1X21.0966Y-91.1047
G1X22.2780Y-88.3996
G1X23.8403Y-85.7765
G1X25.7142Y-83.3486
G1X27.7427Y-81.3061
G1X30.0600Y-79.4992
G1X32.7493Y-77.8512
G1X35.6247Y-76.4914
G1X38.4767Y-75.5119
G1X41.4486Y-74.8701
G1X44.5810Y-74.5358
G1X47.8552Y-74.5193
G1X50.9404Y-74.8288
G1X53.9251Y-75.4825
G1X56.9126Y-76.4920
G1X59.8842Y-77.8561
G1X62.5367Y-79.4390
G1X64.7899Y-81.1687
G1X66.9068Y-83.2267
G1X68.8027Y-85.5194
G1X70.4091Y-87.9608
G1X71.2718Y-89.5996
G1X71.9574Y-91.2210
G1X72.5521Y-93.0404
G1X73.0046Y-94.9278
G1X73.3101Y-96.8504
G1X73.4640Y-98.7755
G1X73.4616Y-100.6704
G1X73.2976Y-102.5069
G1X72.9608Y-104.3474
G1X72.4582Y-106.1978
G1X71.8028Y-108.0274
G1X70.9620Y-109.8969
G1X70.0335Y-111.5871
G1X68.9919Y-113.1624
G1X67.8528Y-114.5964
G1X66.5663Y-115.9726
G1X65.0758Y-117.3432
G1X63.3916Y-118.6722
G1X61.7045Y-119.8093
G1X59.9658Y-120.7981
G1X58.2898Y-121.5815
G1X56.4305Y-122.2775
G1X54.4803Y-122.8483
G1X52.4749Y-123.2870
G1X50.4499Y-123.5871
G1X48.4408Y-123.7418
G1X46.4810Y-123.7444
G1X44.6045Y-123.5978
G1X42.6004Y-123.2908
G1X40.6017Y-122.8371
G1X38.5478Y-122.2138
G1X36.6712Y-121.4907
G1X34.0598Y-120.1796
G1X31.5461Y-118.4806
G1X29.1428Y-116.3881
G1X27.1063Y-114.1328
G1X25.5476Y-111.9018
G1X24.2771Y-109.4301
G1X23.2740Y-106.6598
G1X22.6418Y-103.8951
G1X22.3737Y-101.1532
G1X22.4938Y-98.4291
G1X23.0087Y-95.5393
G1X23.8900Y-92.6983
G1X25.0127Y-90.2057
G1X26.4359Y-87.8983
G1X28.2406Y-85.6478
G1X30.4139Y-83.4899
G1X32.7295Y-81.6525
G1X35.1581Y-80.1499
G1X37.8570Y-78.8891
G1X40.8580Y-77.8559
G1X43.8542Y-77.1542
G1X46.8282Y-76.7824
G1X49.7985Y-76.7497
G1X52.9492Y-77.0414
G1X56.0620Y-77.6465
G1X58.9235Y-78.5138
G1X61.5507Y-79.6440
G1X64.2097Y-81.1523
G1X66.7887Y-83.0011
G1X69.0239Y-85.0020
G1X70.8911Y-87.1199
G1X72.5455Y-89.5456
G1X73.5298Y-91.3431
G1X74.3676Y-93.2037
G1X75.0430Y-95.0937
G1X75.5195Y-96.8859
G1X75.8314Y-98.7030
G1X75.9865Y-100.5925
G1X75.9868Y-102.5187
G1X75.8234Y-104.5494
G1X75.5159Y-106.4474
G1X75.0631Y-108.2815
G1X74.5023Y-109.9322
G1X73.7491Y-111.6408
G1X72.8350Y-113.3257
G1X71.7204Y-115.0439
G1X70.4718Y-116.6747
G1X69.1119Y-118.1866
G1X67.7374Y-119.4843
G1X66.2989Y-120.6308
G1X64.6439Y-121.7496
G1X62.8768Y-122.7627
G1X61.0305Y-123.6538
G1X59.1380Y-124.4073
G1X57.2320Y-125.0072
G1X55.3283Y-125.4422
G1X53.3501Y-125.7325
G1X51.2137Y-125.8863
G1X49.0579Y-125.8860
G1X46.9247Y-125.7323
G1X44.9526Y-125.4437
G1X43.0508Y-125.0107
G1X41.2307Y-124.4388
G1X39.3314Y-123.6816
G1X36.5876Y-122.2855
G1X34.1509Y-120.6886
G1X32.0650Y-118.9373
G1X30.2062Y-116.9338
G1X28.4501Y-114.5270
G1X27.0121Y-111.9587
G1X25.9915Y-109.4225
G1X25.3253Y-106.7292
G1X25.0009Y-103.8930
G1X25.0254Y-101.0305
G1X25.3859Y-98.3548
G1X26.1134Y-95.7358
G1X27.2974Y-92.9515
G1X28.8440Y-90.2840
G1X30.6250Y-87.9298
G1X32.6689Y-85.8571
G1X34.9278Y-84.0551
G1X37.5090Y-82.4092
G1X40.2406Y-81.0505
G1X42.9190Y-80.0742
G1X45.9140Y-79.3536
G1X49.0507Y-78.9340
G1X52.2068Y-78.8295
G1X55.2623Y-79.0548
G1X58.2063Y-79.6156
G1X61.2471Y-80.5326
G1X64.1703Y-81.7507
G1X66.8584Y-83.2275
G1X69.1909Y-84.8980
G1X71.4588Y-86.9498
G1X73.4890Y-89.2370
G1X75.1499Y-91.5887
G1X76.0503Y-93.1820
G1X76.8368Y-94.9112
G1X77.4897Y-96.7324
G1X78.0247Y-98.7130
G1X78.3955Y-100.7217
G1X78.5883Y-102.6216
G1X78.6184Y-104.4803
G1X78.4896Y-106.2225
G1X78.1891Y-108.0926
G1X77.7017Y-110.0624
G1X77.0511Y-111.9974
G1X76.2499Y-113.8609
G1X75.3608Y-115.5313
G1X74.3603Y-117.0708
G1X73.2113Y-118.5472
G1X71.8501Y-120.0377
G1X70.3609Y-121.4386
G1X68.7718Y-122.7249
G1X67.1108Y-123.8717
G1X65.4120Y-124.8511
G1X63.6367Y-125.6851
G1X61.6567Y-126.4344
G1X59.6968Y-127.0184
G1X57.6002Y-127.4858
G1X55.6030Y-127.7828
G1X53.6410Y-127.9263
G1X51.6666Y-127.9102
G1X49.6467Y-127.7388
G1X47.6179Y-127.4199
G1X45.5178Y-126.9349
G1X43.4896Y-126.3050
G1X41.6634Y-125.5788
G1X39.1183Y-124.2462
G1X36.5889Y-122.5082
G1X34.2775Y-120.4935
G1X32.2869Y-118.2869
G1X30.7405Y-116.0296
G1X29.4491Y-113.4992
G1X28.4623Y-110.8120
G1X27.8214Y-108.0753
G1X27.5645Y-105.3728
G1X27.6851Y-102.5838
G1X28.1830Y-99.6634
G1X29.0386Y-96.8340
G1X30.1301Y-94.4045
G1X31.5643Y-92.0725
G1X33.3860Y-89.7599
G1X35.4002Y-87.7082
G1X37.6780Y-85.8565
G1X40.1505Y-84.3090
G1X42.9699Y-82.9599
G1X45.9642Y-81.8951
G1X48.8189Y-81.1980
G1X51.6435Y-80.8244
G1X54.6649Y-80.7505
G1X57.8369Y-80.9895
G1X60.8406Y-81.5164
G1X63.6752Y-82.3275
G1X66.3567Y-83.4348
G1X69.0503Y-84.8909
G1X71.5661Y-86.6035
G1X73.8069Y-88.5128
G1X75.6721Y-90.5350
G1X77.4024Y-92.9165
G1X78.4400Y-94.6717
G1X79.3297Y-96.4825
G1X80.0536Y-98.3172
G1X80.5986Y-100.1634
G1X80.9630Y-102.0194
G1X81.1797Y-104.0397
G1X81.2276Y-105.9868
G1X81.1127Y-108.0279
G1X80.8472Y-109.9235
G1X80.4301Y-111.7423
G1X79.8558Y-113.4894
G1X79.1139Y-115.2313
G1X78.1710Y-117.0286
G1X77.0819Y-118.7566
G1X75.8671Y-120.3826
G1X74.6149Y-121.8031
G1X73.2115Y-123.1414
G1X71.6613Y-124.3871
G1X69.9822Y-125.5368
G1X68.1158Y-126.6206
G1X66.2737Y-127.5161
G1X64.4015Y-128.2596
G1X62.5304Y-128.8338
G1X60.5897Y-129.2620
G1X58.4761Y-129.5648
G1X56.2234Y-129.7187
G1X54.0801Y-129.7077
G1X51.9863Y-129.5403
G1X50.0609Y-129.2309
G1X48.1210Y-128.7538
G1X46.1856Y-128.1188
G1X44.2890Y-127.3414
G1X41.5920Y-125.9410
G1X39.2501Y-124.3631
G1X37.1449Y-122.5199
G1X35.2250Y-120.3908
G1X33.5083Y-117.9807
G1X32.1840Y-115.5466
G1X31.2462Y-113.0975
G1X30.5873Y-110.3586
G1X30.2626Y-107.5268
G1X30.2871Y-104.7150
G1X30.6546Y-102.1247
G1X31.3707Y-99.5532
G1X32.5417Y-96.7309
G1X34.0007Y-94.1500
G1X35.6604Y-91.9112
G1X37.6884Y-89.8066
G1X39.9536Y-87.9333
G1X42.4301Y-86.2858
G1X44.9400Y-84.9716
G1X47.5746Y-83.9506
G1X50.5815Y-83.1464
G1X53.8101Y-82.6305
G1X56.9344Y-82.4574
G1X59.8692Y-82.6175
G1X62.8442Y-83.1095
G1X65.9008Y-83.9378
G1X68.8234Y-85.0575
G1X71.4244Y-86.3926
G1X73.8512Y-88.0236
G1X76.2039Y-90.0126
G1X78.3103Y-92.2260
G1X80.0311Y-94.5006
G1X80.9882Y-96.0874
G1X81.8733Y-97.8914
G1X82.6149Y-99.7865
G1X83.2025Y-101.7362
G1X83.6253Y-103.7044
G1X83.8647Y-105.5581
G1X83.9374Y-107.2913
G1X83.8475Y-109.1722
G1X83.5751Y-111.1805
G1X83.1304Y-113.1799
G1X82.5235Y-115.1321
G1X81.8057Y-116.9081
G1X80.9620Y-118.5692
G1X79.9801Y-120.1365
G1X78.7780Y-121.7416
G1X77.4293Y-123.2740
G1X75.9609Y-124.7066
G1X74.3996Y-126.0120
G1X72.8547Y-127.1098
G1X71.1782Y-128.1009
G1X69.2839Y-129.0206
G1X67.2845Y-129.8083
G1X65.2206Y-130.4513
G1X63.1331Y-130.9366
G1X61.1600Y-131.2402
G1X59.2112Y-131.3812
G1X57.2092Y-131.3699
G1X55.0769Y-131.2012
G1X52.9544Y-130.8781
G1X50.8833Y-130.4070
G1X48.9049Y-129.7943
G1X47.0994Y-129.0654
G1X44.5055Y-127.6984
G1X42.0456Y-126.0308
G1X39.8156Y-124.1317
G1X37.9067Y-122.0650
G1X36.3011Y-119.7828
G1X34.9129Y-117.1759
G1X33.8564Y-114.4336
G1X33.2008Y-111.7638
G1X32.9255Y-109.0452
G1X33.0076Y-106.2126
G1X33.4568Y-103.2798
G1X34.2301Y-100.5660
G1X35.2678Y-98.1730
G1X36.7328Y-95.6939
G1X38.5168Y-93.3388
G1X40.4781Y-91.2693
G1X42.6699Y-89.4418
G1X45.2285Y-87.7936
G1X48.0452Y-86.3885
G1X51.0051Y-85.2808
G1X53.8022Y-84.5619
G1X56.6327Y-84.1601
G1X59.6874Y-84.0374
G1X62.8618Y-84.2210
G1X65.8363Y-84.6965
G1X68.5883Y-85.4515
G1X71.4229Y-86.5722
G1X74.2407Y-88.0402
G1X76.6763Y-89.6464
G1X78.8460Y-91.4481
G1X80.7869Y-93.4971
G1X82.5181Y-95.7806
G1X83.6453Y-97.5964
G1X84.5586Y-99.3720
G1X85.2950Y-101.1615
G1X85.8445Y-102.9487
G1X86.2636Y-104.9254
G1X86.5156Y-106.9558
G1X86.5980Y-109.1022
G1X86.5008Y-111.1190
G1X86.2304Y-113.0691
G1X85.8056Y-114.8600
G1X85.1730Y-116.7508
G1X84.3673Y-118.6177
G1X83.4068Y-120.4259
G1X82.3101Y-122.1409
G1X81.0954Y-123.7279
G1X79.7875Y-125.1499
G1X78.2529Y-126.5496
G1X76.5705Y-127.8511
G1X74.6886Y-129.0838
G1X72.8157Y-130.1112
G1X70.9044Y-130.9690
G1X69.0674Y-131.6138
G1X67.0386Y-132.1464
G1X64.9326Y-132.5325
G1X62.6891Y-132.7750
G1X60.5552Y-132.8471
G1X58.4714Y-132.7590
G1X56.5263Y-132.5162
G1X54.4504Y-132.0825
G1X52.3805Y-131.4801
G1X50.2631Y-130.6844
G1X48.3333Y-129.7835
G1X46.7815Y-128.9130
G1X45.4064Y-128.0020
G1X44.0613Y-126.9571
G1X42.6992Y-125.7298
G1X41.4200Y-124.3994
G1X40.2432Y-122.9876
G1X39.1881Y-121.5160
G1X38.2741Y-120.0066
G1X37.5444Y-118.5371
G1X36.9202Y-116.9655
G1X36.4099Y-115.3212
G1X36.0189Y-113.6293
G1X35.7524Y-111.9148
G1X35.6154Y-110.2028
G1X35.6133Y-108.5184
G1X35.7382Y-106.9822
G1X36.0067Y-105.3455
G1X36.4093Y-103.6937
G1X36.9728Y-101.9541
G1X37.6261Y-100.3442
G1X38.3887Y-98.7898
G1X39.2526Y-97.3143
G1X40.1992Y-95.9535
G1X41.2442Y-94.6732
G1X42.4786Y-93.3622
G1X43.9026Y-92.0471
G1X45.4276Y-90.8230
G1X46.9439Y-89.7660
G1X48.5095Y-88.8266
G1X50.0879Y-88.0294
G1X51.7179Y-87.3472
G1X53.5288Y-86.7261
G1X56.7117Y-85.9286
G1X59.9455Y-85.4712
G1X62.9077Y-85.3799
G1X65.9964Y-85.6354
G1X69.3105Y-86.2695
G1X72.5100Y-87.2454
G1X75.3796Y-88.4936
G1X78.0645Y-90.0808
G1X80.6746Y-92.0597
G1X82.9444Y-94.2204
G1X84.8610Y-96.5395
G1X86.3971Y-98.9977
G1X87.7252Y-101.8667
G1X88.2680Y-103.4026
G1X88.7047Y-104.9520
G1X89.2141Y-107.8305
G1X89.3119Y-109.2921
G1X89.3062Y-110.7885
G1X88.9969Y-113.8205
G1X88.3107Y-116.7951
G1X87.3123Y-119.4924
G1X86.6705Y-120.7909
G1X85.9231Y-122.0732
G1X85.0200Y-123.4132
G1X84.0203Y-124.7095
G1X82.9369Y-125.9473
G1X81.7829Y-127.1113
G1X80.5714Y-128.1865
G1X79.3949Y-129.1003
G1X76.8265Y-130.7156
G1X73.8850Y-132.1082
G1X70.6899Y-133.1947
G1X67.6745Y-133.8393
G1X64.6212Y-134.1036
G1X62.8928Y-134.1007
G1X61.1544Y-133.9955
G1X59.4282Y-133.7903
G1X57.7364Y-133.4869
G1X54.7149Y-132.6540
G1X53.2321Y-132.0818
G1X51.7618Y-131.4041
G1X50.1435Y-130.5287
G1X48.5011Y-129.4903
G1X47.0322Y-128.4138
G1X45.6719Y-127.2621
G1X44.5079Y-126.1184
G1X43.3996Y-124.8419
G1X42.3714Y-123.4573
G1X41.4354Y-121.9866
G1X40.5587Y-120.3604
G1X39.8515Y-118.7826
G1X39.2742Y-117.1866
G1X38.8391Y-115.5946
G1X38.5408Y-113.9600
G1X38.3713Y-112.2650
G1X38.3298Y-110.5350
G1X38.4154Y-108.7957
G1X38.6273Y-107.0724
G1X38.9648Y-105.3907
G1X39.3965Y-103.8688
G1X39.9686Y-102.3393
G1X40.7216Y-100.7255
G1X41.6126Y-99.1372
G1X42.6263Y-97.5981
G1X43.7479Y-96.1319
G1X44.8925Y-94.8353
G1X46.1073Y-93.6448
G1X47.3548Y-92.5921
G1X48.7903Y-91.5416
G1X50.3257Y-90.5655
G1X52.0303Y-89.6295
G1X53.7016Y-88.8450
G1X55.4052Y-88.1725
G1X58.4399Y-87.2911
G1X61.7992Y-86.7507
G1X65.2811Y-86.5848
G1X68.7228Y-86.7996
G1X71.8137Y-87.3617
G1X74.8944Y-88.3093
G1X77.9858Y-89.6458
G1X80.8553Y-91.2857
G1X82.1260Y-92.1716
G1X83.3521Y-93.1528
G1X85.6140Y-95.3518
G1X87.6779Y-97.9081
G1X88.5783Y-99.2583
G1X89.3757Y-100.6365
G1X90.5397Y-103.2037
G1X91.3799Y-106.0046
G1X91.8871Y-109.0328
G1X92.0102Y-112.0628
G1X91.9131Y-113.6339
G1X91.7144Y-115.0707
G1X91.4049Y-116.5204
G1X90.9591Y-118.0713
G1X90.4021Y-119.6085
G1X89.7421Y-121.1132
G1X88.9875Y-122.5667
G1X88.2014Y-123.8662
G1X87.3464Y-125.0888
G1X86.4371Y-126.2127
G1X84.2710Y-128.4062
G1X81.7088Y-130.4394
G1X79.0263Y-132.0985
G1X76.2613Y-133.3685
G1X74.7651Y-133.8880
G1X73.1113Y-134.3515
G1X69.7936Y-134.9770
G1X66.4686Y-135.2175
G1X63.4339Y-135.0658
G1X60.3458Y-134.5326
G1X57.1981Y-133.6186
G1X54.3226Y-132.4215
G1X52.8664Y-131.6493
G1X51.4473Y-130.7567
G1X50.0630Y-129.7406
G1X48.6592Y-128.5518
G1X47.3394Y-127.2664
G1X46.1884Y-125.9817
G1X45.1477Y-124.6456
G1X44.2345Y-123.2749
G1X43.4745Y-121.9104
G1X42.7620Y-120.3570
G1X42.1919Y-118.8272
G1X41.6996Y-117.1534
G1X41.3311Y-115.4538
G1X41.1036Y-113.8528
G1X40.9953Y-112.1738
G1X41.0242Y-110.6271
G1X41.1778Y-109.0563
G1X41.4713Y-107.3665
G1X41.8928Y-105.6790
G1X42.4357Y-104.0180
G1X43.0933Y-102.4075
G1X43.8112Y-100.9596
G1X44.6090Y-99.6135
G1X45.5507Y-98.2686
G1X46.6796Y-96.8802
G1X47.9258Y-95.5470
G1X49.2703Y-94.2876
G1X50.6945Y-93.1208
G1X52.1794Y-92.0653
G1X53.6121Y-91.1922
G1X55.1649Y-90.3918
G1X56.8131Y-89.6755
G1X60.0046Y-88.6053
G1X63.1941Y-87.9034
G1X66.2471Y-87.5776
G1X69.3343Y-87.6074
G1X72.7867Y-88.0187
G1X76.0571Y-88.7727
G1X79.0188Y-89.8176
G1X81.9036Y-91.2602
G1X84.6547Y-93.0616
G1X87.1559Y-95.1363
G1X89.2337Y-97.3293
G1X90.9962Y-99.7705
G1X91.8223Y-101.1823
G1X92.5587Y-102.6474
G1X93.1973Y-104.1480
G1X93.7301Y-105.6665
G1X94.1490Y-107.1851
G1X94.4320Y-108.5993
G1X94.6137Y-110.0591
G1X94.6951Y-111.5568
G1X94.5644Y-114.5993
G1X94.3389Y-116.2109
G1X94.0317Y-117.6917
G1X93.6338Y-119.1262
G1X93.1480Y-120.4953
G1X91.8766Y-123.1419
G1X91.0387Y-124.5217
G1X90.1049Y-125.8590
G1X89.0210Y-127.2156
G1X87.9271Y-128.4151
G1X86.7739Y-129.5235
G1X85.6586Y-130.4588
G1X83.0569Y-132.2318
G1X80.0760Y-133.7729
G1X76.9402Y-134.9537
G1X73.9805Y-135.6748
G1X70.8024Y-136.0386
G1X69.0645Y-136.0850
G1X67.3210Y-136.0304
G1X65.5943Y-135.8755
G1X63.9066Y-135.6210
G1X62.3738Y-135.2910
G1X60.8611Y-134.8590
G1X59.3398Y-134.3155
G1X57.7399Y-133.6280
G1X56.0868Y-132.7884
G1X54.5000Y-131.8472
G1X53.0038Y-130.8177
G1X51.6960Y-129.7761
G1X50.4845Y-128.6528
G1X49.3926Y-127.4765
G1X48.3069Y-126.1276
G1X47.3109Y-124.6971
G1X46.4184Y-123.2057
G1X45.6427Y-121.6743
G1X44.9974Y-120.1239
G1X44.5186Y-118.6566
G1X44.1503Y-117.1211
G1X43.8796Y-115.4283
G1X43.7342Y-113.6974
G1X43.7152Y-111.9538
G1X43.8237Y-110.2231
G1X44.0431Y-108.6287
G1X44.3764Y-107.0924
G1X44.8515Y-105.5305
G1X45.4614Y-103.9643
G1X46.2418Y-102.3244
G1X47.1476Y-100.7273
G1X48.1063Y-99.2806
G1X49.0898Y-97.9925
G1X50.1425Y-96.7932
G1X51.3108Y-95.6447
G1X52.5864Y-94.5539
G1X54.0437Y-93.4645
G1X55.5894Y-92.4561
G1X57.2016Y-91.5428
G1X58.7659Y-90.7799
G1X60.3519Y-90.1258
G1X61.8363Y-89.6233
G1X63.4506Y-89.1887
G1X65.1260Y-88.8433
G1X66.8423Y-88.5891
G1X68.6816Y-88.4215
G1X72.1342Y-88.3987
G1X75.2611Y-88.7433
G1X78.4983Y-89.5022
G1X81.6809Y-90.6325
G1X84.6682Y-92.0807
G1X86.0044Y-92.8814
G1X87.2908Y-93.7705
G1X88.5534Y-94.7720
G1X89.7664Y-95.8636
G1X90.9175Y-97.0314
G1X92.0591Y-98.3399
G1X93.0439Y-99.6207
G1X93.9293Y-100.9348
G1X94.6582Y-102.1848
G1X95.3070Y-103.4995
G1X96.3637Y-106.3437
G1X96.7589Y-107.8295
G1X97.0001Y-109.0438
G1 Z0F20000
(Start Block)

G1X97.0001Y-117.0331
G1Z6F20000
(Plotting speed under)
G1 F8000

G1X96.6703Y-118.4910
G1X96.2040Y-120.0530
G1X95.6339Y-121.5852
G1X94.9669Y-123.0686
G1X94.2101Y-124.4838
G1X93.4264Y-125.7299
G1X92.5696Y-126.8989
G1X91.5459Y-128.1138
G1X90.4237Y-129.2832
G1X87.9434Y-131.4339
G1X85.3347Y-133.1979
G1X83.9518Y-133.9511
G1X82.5394Y-134.6000
G1X79.4108Y-135.6979
G1X77.7268Y-136.1275
G1X76.0220Y-136.4580
G1X74.3180Y-136.6843
G1X72.7344Y-136.7976
G1X71.1742Y-136.8098
G1X69.5817Y-136.7194
G1X66.3483Y-136.2465
G1X63.1733Y-135.4130
G1X60.2042Y-134.2535
G1X58.8158Y-133.5480
G1X57.3567Y-132.6729
G1X55.9381Y-131.6857
G1X54.5780Y-130.6019
G1X53.2943Y-129.4368
G1X52.1050Y-128.2058
G1X51.0280Y-126.9243
G1X50.1292Y-125.6798
G1X49.3030Y-124.3292
G1X48.5630Y-122.8950
G1X47.9163Y-121.3966
G1X47.3393Y-119.7566
G1X46.8841Y-118.0900
G1X46.5747Y-116.5185
G1X46.3879Y-114.9642
G1X46.3279Y-113.4185
G1X46.3888Y-111.8329
G1X46.5665Y-110.2245
G1X46.8786Y-108.5135
G1X47.2844Y-106.9227
G1X47.7945Y-105.3716
G1X48.4051Y-103.8807
G1X49.1046Y-102.4833
G1X49.8999Y-101.1531
G1X50.8669Y-99.7638
G1X52.0117Y-98.3385
G1X53.2631Y-96.9803
G1X54.5269Y-95.7774
G1X55.8549Y-94.6696
G1X57.2320Y-93.6739
G1X58.6185Y-92.8144
G1X60.1896Y-91.9787
G1X63.2700Y-90.6736
G1X66.4903Y-89.7073
G1X69.5166Y-89.1562
G1X72.6832Y-88.9607
G1X74.4146Y-88.9990
G1X76.2558Y-89.1442
G1X79.6730Y-89.7039
G1X82.7926Y-90.5939
G1X85.7484Y-91.8539
G1X88.6816Y-93.5282
G1X91.3684Y-95.5003
G1X93.5618Y-97.5606
G1X94.5502Y-98.6938
G1X95.5378Y-99.9893
G1X96.4473Y-101.3575
G1X97.0001Y-102.3191
G1 Z0F20000
(Start Block)

G1X97.0001Y-124.6659
G1Z6F20000
(Plotting speed under)
G1 F8000

G1X96.7870Y-125.0488
G1X95.8422Y-126.5102
G1X94.8666Y-127.8210
G1X93.8185Y-129.0517
G1X92.7797Y-130.1178
G1X91.6289Y-131.1438
G1X90.3808Y-132.1135
G1X88.9612Y-133.0773
G1X87.4653Y-133.9617
G1X85.9131Y-134.7560
G1X84.3246Y-135.4491
G1X82.8146Y-135.9993
G1X81.3102Y-136.4404
G1X79.7767Y-136.7823
G1X76.4630Y-137.2098
G1X74.7191Y-137.2829
G1X72.9794Y-137.2551
G1X71.2662Y-137.1256
G1X69.6019Y-136.8939
G1X68.0716Y-136.5756
G1X66.4295Y-136.1178
G1X64.8886Y-135.5827
G1X63.2762Y-134.9126
G1X61.6195Y-134.0996
G1X60.1245Y-133.2441
G1X58.7185Y-132.3134
G1X57.4170Y-131.3128
G1X56.2312Y-130.2524
G1X55.0321Y-129.0171
G1X53.9100Y-127.6890
G1X52.8793Y-126.2875
G1X52.0061Y-124.9190
G1X51.2391Y-123.5190
G1X50.5905Y-122.1038
G1X50.0580Y-120.6515
G1X49.6269Y-119.1227
G1X49.2839Y-117.4406
G1X49.0624Y-115.7233
G1X48.9673Y-114.0970
G1X48.9845Y-112.4821
G1X49.1165Y-110.8991
G1X49.3646Y-109.3717
G1X49.7339Y-107.8588
G1X50.2568Y-106.2432
G1X50.9045Y-104.6409
G1X51.6670Y-103.0736
G1X52.5345Y-101.5633
G1X53.4377Y-100.2132
G1X54.3535Y-99.0271
G1X55.3735Y-97.8819
G1X56.5663Y-96.7133
G1X57.8614Y-95.5985
G1X59.3247Y-94.4910
G1X60.7755Y-93.5272
G1X62.2753Y-92.6564
G1X63.8066Y-91.8914
G1X65.2514Y-91.2830
G1X66.8202Y-90.7389
G1X68.4588Y-90.2795
G1X70.2475Y-89.8892
G1X72.0682Y-89.6016
G1X73.8971Y-89.4205
G1X75.6105Y-89.3507
G1X77.2900Y-89.3825
G1X78.8512Y-89.5103
G1X82.1348Y-90.0776
G1X85.4827Y-91.0511
G1X88.5503Y-92.3279
G1X89.9296Y-93.0511
G1X91.2765Y-93.8731
G1X92.6027Y-94.8054
G1X93.9624Y-95.8957
G1X95.1819Y-97.0018
G1X96.3984Y-98.2470
G1X97.0001Y-98.9466
G1 Z0F20000
(Start Block)

G1X97.0001Y-128.6606
G1Z6F20000
(Plotting speed under)
G1 F8000

G1X96.2096Y-129.5428
G1X93.8171Y-131.7649
G1X92.5349Y-132.7516
G1X91.2141Y-133.6373
G1X89.8698Y-134.4096
G1X88.4471Y-135.1069
G1X85.3092Y-136.3050
G1X82.0288Y-137.1400
G1X80.3352Y-137.4130
G1X78.7645Y-137.5644
G1X77.1989Y-137.6125
G1X75.4952Y-137.5572
G1X73.7715Y-137.3960
G1X72.0497Y-137.1327
G1X68.7952Y-136.3439
G1X67.2063Y-135.8018
G1X65.7765Y-135.2051
G1X64.3525Y-134.4948
G1X62.8665Y-133.6278
G1X61.5094Y-132.7184
G1X60.1292Y-131.6662
G1X58.8310Y-130.5391
G1X57.7005Y-129.4221
G1X56.6744Y-128.2627
G1X55.7907Y-127.1074
G1X54.9130Y-125.7728
G1X54.1179Y-124.3601
G1X53.3730Y-122.7944
G1X52.7747Y-121.2797
G1X52.2845Y-119.7442
G1X51.9108Y-118.2068
G1X51.6734Y-116.7792
G1X51.5380Y-115.2233
G1X51.5190Y-113.6234
G1X51.6142Y-112.0001
G1X51.8208Y-110.3740
G1X52.1365Y-108.7658
G1X52.5585Y-107.1961
G1X53.0486Y-105.7777
G1X53.6195Y-104.4444
G1X54.3304Y-103.0671
G1X55.2077Y-101.6225
G1X56.1972Y-100.2148
G1X57.2853Y-98.8620
G1X58.4580Y-97.5821
G1X59.7016Y-96.3932
G1X60.9246Y-95.3734
G1X62.2518Y-94.4159
G1X63.6779Y-93.5234
G1X65.1869Y-92.7023
G1X66.7597Y-91.9611
G1X68.3773Y-91.3086
G1X70.0204Y-90.7532
G1X71.6701Y-90.3038
G1X73.2086Y-89.9858
G1X76.4702Y-89.6194
G1X78.3068Y-89.5724
G1X80.1534Y-89.6320
G1X81.9857Y-89.7973
G1X83.6813Y-90.0497
G1X85.3225Y-90.3947
G1X86.8323Y-90.8131
G1X88.4484Y-91.3739
G1X90.0510Y-92.0430
G1X91.6216Y-92.8102
G1X93.2289Y-93.7179
G1X94.6747Y-94.6543
G1X96.0313Y-95.6572
G1X97.0001Y-96.4752
G1 Z0F20000
(Start Block)

G1X97.0001Y-131.3197
G1Z6F20000
(Plotting speed under)
G1 F8000

G1X96.6087Y-131.6698
G1X94.6478Y-133.1225
G1X92.5425Y-134.4107
G1X90.3486Y-135.4995
G1X88.1265Y-136.3524
G1X85.8485Y-136.9770
G1X83.3510Y-137.4244
G1X80.7961Y-137.6581
G1X78.2542Y-137.6716
G1X75.8920Y-137.4713
G1X73.5620Y-137.0436
G1X71.2155Y-136.3880
G1X68.8182Y-135.4879
G1X66.6232Y-134.4390
G1X64.5922Y-133.2324
G1X62.7832Y-131.8967
G1X61.0555Y-130.3397
G1X59.3927Y-128.5346
G1X57.9734Y-126.6781
G1X56.7639Y-124.7434
G1X55.8281Y-122.8372
G1X55.0447Y-120.6828
G1X54.4715Y-118.4136
G1X54.1198Y-116.0903
G1X54.0009Y-113.7736
G1X54.0957Y-111.8117
G1X54.3987Y-109.8038
G1X54.9065Y-107.7700
G1X55.6034Y-105.7508
G1X56.4738Y-103.7883
G1X57.5018Y-101.9248
G1X58.6090Y-100.2862
G1X59.8971Y-98.7146
G1X61.4348Y-97.1370
G1X63.2091Y-95.5956
G1X65.0280Y-94.2564
G1X66.9287Y-93.0807
G1X68.7713Y-92.1453
G1X70.7659Y-91.3367
G1X72.8756Y-90.6653
G1X75.1578Y-90.1208
G1X77.4702Y-89.7479
G1X79.6652Y-89.5622
G1X81.7189Y-89.5499
G1X83.9135Y-89.7149
G1X86.2364Y-90.0724
G1X88.5396Y-90.6073
G1X90.7731Y-91.3073
G1X92.7985Y-92.1202
G1X94.6322Y-93.0396
G1X96.5242Y-94.2014
G1X97.0001Y-94.5504
G1 Z0F20000
(Start Block)

G1X97.0001Y-133.1285
G1Z6F20000
(Plotting speed under)
G1 F8000

G1X96.7793Y-133.2858
G1X95.0058Y-134.3281
G1X93.0993Y-135.2511
G1X91.1000Y-136.0401
G1X89.0476Y-136.6804
G1X86.9822Y-137.1571
G1X84.9427Y-137.4557
G1X82.8656Y-137.5821
G1X80.6301Y-137.5421
G1X78.3813Y-137.3307
G1X76.1670Y-136.9530
G1X74.1296Y-136.4423
G1X72.2822Y-135.8180
G1X70.4423Y-135.0206
G1X68.5458Y-134.0135
G1X66.7219Y-132.8560
G1X65.0073Y-131.5721
G1X63.4390Y-130.1859
G1X62.0402Y-128.7060
G1X60.8066Y-127.1275
G1X59.6399Y-125.3291
G1X58.6265Y-123.4270
G1X57.8236Y-121.5566
G1X57.1983Y-119.6648
G1X56.7840Y-117.8715
G1X56.5346Y-116.0113
G1X56.4436Y-113.9900
G1X56.5267Y-111.9436
G1X56.7650Y-110.0132
G1X57.1568Y-108.1314
G1X57.6992Y-106.3358
G1X58.4288Y-104.5467
G1X59.3391Y-102.7705
G1X60.4665Y-100.9536
G1X61.6822Y-99.3019
G1X63.0152Y-97.7587
G1X64.3713Y-96.4218
G1X65.8599Y-95.1828
G1X67.4864Y-94.0328
G1X69.3195Y-92.9292
G1X71.2461Y-91.9508
G1X73.2306Y-91.1164
G1X75.1419Y-90.4729
G1X77.0395Y-89.9928
G1X79.0981Y-89.6371
G1X81.2226Y-89.4245
G1X83.4771Y-89.3561
G1X85.6168Y-89.4392
G1X87.7056Y-89.6680
G1X89.6241Y-90.0246
G1X91.5506Y-90.5390
G1X93.5666Y-91.2395
G1X95.6331Y-92.1316
G1X97.0001Y-92.8433
G1 Z0F20000
(Start Block)

G1X97.0001Y-134.2093
G1Z6F20000
(Plotting speed under)
G1 F8000

G1X95.8804Y-134.7892
G1X94.1705Y-135.5120
G1X92.3961Y-136.1035
G1X90.4381Y-136.6021
G1X88.3212Y-136.9828
G1X86.1826Y-137.2109
G1X84.1636Y-137.2805
G1X82.1983Y-137.2004
G1X80.3312Y-136.9755
G1X78.3394Y-136.5840
G1X76.3552Y-136.0450
G1X74.4135Y-135.3696
G1X72.5496Y-134.5691
G1X70.8829Y-133.7028
G1X69.3127Y-132.7207
G1X67.7825Y-131.5826
G1X66.2458Y-130.2440
G1X64.8113Y-128.7878
G1X63.5059Y-127.2413
G1X62.4099Y-125.7132
G1X61.5188Y-124.2278
G1X60.7346Y-122.6216
G1X60.0362Y-120.8247
G1X59.4795Y-118.9569
G1X59.0733Y-117.0519
G1X58.8264Y-115.1436
G1X58.7475Y-113.3631
G1X58.8250Y-111.6297
G1X59.0546Y-109.8712
G1X59.4284Y-108.0983
G1X59.9708Y-106.2412
G1X60.6558Y-104.4303
G1X61.4277Y-102.7861
G1X62.3111Y-101.2391
G1X63.2859Y-99.8192
G1X64.4636Y-98.3575
G1X65.8447Y-96.8827
G1X67.3454Y-95.4978
G1X68.8586Y-94.2879
G1X70.4346Y-93.2026
G1X72.0403Y-92.2683
G1X73.7178Y-91.4552
G1X75.5879Y-90.7051
G1X77.5333Y-90.0726
G1X79.5218Y-89.5672
G1X81.5210Y-89.1983
G1X83.4986Y-88.9754
G1X85.3524Y-88.9046
G1X87.3505Y-88.9708
G1X89.3733Y-89.1749
G1X91.3882Y-89.5112
G1X93.3629Y-89.9739
G1X95.1719Y-90.5251
G1X96.8873Y-91.1801
G1X97.0001Y-91.2333
G1 Z0F20000
(Start Block)

G1X97.0001Y-134.7297
G1Z6F20000
(Plotting speed under)
G1 F8000

G1X95.5980Y-135.2732
G1X93.7638Y-135.8435
G1X92.0293Y-136.2515
G1X90.1939Y-136.5391
G1X88.2910Y-136.6966
G1X86.3474Y-136.7262
G1X84.3945Y-136.6293
G1X82.4632Y-136.4074
G1X80.5848Y-136.0619
G1X78.8804Y-135.6214
G1X77.1876Y-135.0468
G1X75.5034Y-134.3402
G1X73.7611Y-133.4658
G1X72.0824Y-132.4750
G1X70.4953Y-131.3835
G1X69.1013Y-130.2706
G1X67.8270Y-129.0838
G1X66.6806Y-127.8333
G1X65.5484Y-126.3968
G1X64.4607Y-124.7817
G1X63.5480Y-123.1834
G1X62.7260Y-121.4518
G1X62.0971Y-119.7947
G1X61.6457Y-118.2194
G1X61.3017Y-116.4765
G1X61.0940Y-114.6759
G1X61.0231Y-112.8464
G1X61.0898Y-111.0167
G1X61.2796Y-109.3145
G1X61.5932Y-107.6621
G1X62.0577Y-105.9959
G1X62.6703Y-104.3429
G1X63.4237Y-102.7019
G1X64.3569Y-101.0091
G1X65.3574Y-99.4674
G1X66.4576Y-98.0103
G1X67.5761Y-96.7333
G1X68.8158Y-95.5190
G1X70.1681Y-94.3762
G1X71.7116Y-93.2437
G1X73.3493Y-92.2022
G1X75.0562Y-91.2672
G1X76.7141Y-90.4939
G1X78.3898Y-89.8434
G1X80.0624Y-89.3265
G1X81.8999Y-88.8945
G1X83.7998Y-88.5761
G1X85.8357Y-88.3662
G1X87.7747Y-88.2884
G1X89.6897Y-88.3313
G1X91.5523Y-88.4975
G1X93.2980Y-88.7789
G1X95.1632Y-89.2134
G1X96.9244Y-89.7454
G1X97.0001Y-89.7735
G1 Z0F20000
(Start Block)

G1X97.0001Y-134.7782
G1Z6F20000
(Plotting speed under)
G1 F8000

G1X95.4332Y-135.2095
G1X93.5260Y-135.6026
G1X91.6063Y-135.8690
G1X89.8038Y-135.9987
G1X88.1386Y-136.0062
G1X86.4660Y-135.8987
G1X84.6652Y-135.6633
G1X82.8585Y-135.3094
G1X81.0716Y-134.8432
G1X79.3299Y-134.2714
G1X77.6589Y-133.6002
G1X76.0843Y-132.8362
G1X74.6344Y-131.9947
G1X73.2153Y-131.0343
G1X71.7675Y-129.9059
G1X70.3961Y-128.6806
G1X69.1895Y-127.4509
G1X68.0252Y-126.0894
G1X67.0507Y-124.7633
G1X66.2259Y-123.4386
G1X65.4357Y-121.9265
G1X64.7480Y-120.3378
G1X64.1706Y-118.6957
G1X63.7115Y-117.0233
G1X63.3784Y-115.3437
G1X63.1793Y-113.6803
G1X63.1201Y-112.1345
G1X63.1817Y-110.5538
G1X63.3743Y-108.8479
G1X63.6928Y-107.1381
G1X64.1029Y-105.5467
G1X64.6509Y-103.8974
G1X65.2680Y-102.4051
G1X65.9739Y-100.9999
G1X66.7672Y-99.6760
G1X67.7316Y-98.2930
G1X68.8730Y-96.8732
G1X70.1204Y-95.5184
G1X71.4562Y-94.2482
G1X72.7829Y-93.1438
G1X74.1574Y-92.1488
G1X75.6337Y-91.2357
G1X77.2092Y-90.4046
G1X78.8677Y-89.6595
G1X80.6831Y-88.9752
G1X82.4402Y-88.4326
G1X84.2101Y-88.0011
G1X85.9699Y-87.6891
G1X87.6150Y-87.5093
G1X89.4022Y-87.4311
G1X91.2240Y-87.4638
G1X93.1582Y-87.6158
G1X95.0761Y-87.8852
G1X96.9498Y-88.2687
G1X97.0001Y-88.2824
G1 Z0F20000
(Start Block)

G1X97.0001Y-134.3962
G1Z6F20000
(Plotting speed under)
G1 F8000

G1X95.5187Y-134.6770
G1X93.8273Y-134.8886
G1X91.9993Y-135.0050
G1X90.1587Y-135.0103
G1X88.4320Y-134.9130
G1X86.6408Y-134.7013
G1X85.0069Y-134.3984
G1X83.3885Y-133.9809
G1X81.7621Y-133.4443
G1X80.1500Y-132.7991
G1X78.5726Y-132.0549
G1X77.0500Y-131.2216
G1X75.6024Y-130.3089
G1X74.2501Y-129.3267
G1X72.9900Y-128.2642
G1X71.8439Y-127.1462
G1X70.6918Y-125.8578
G1X69.6210Y-124.4846
G1X68.6454Y-123.0459
G1X67.7789Y-121.5611
G1X67.0754Y-120.1385
G1X66.4925Y-118.7081
G1X66.0428Y-117.3117
G1X65.6627Y-115.7588
G1X65.3874Y-114.1601
G1X65.2118Y-112.4338
G1X65.1585Y-110.8043
G1X65.2157Y-109.1908
G1X65.3854Y-107.6133
G1X65.6685Y-106.0936
G1X66.0714Y-104.5818
G1X66.5909Y-103.0663
G1X67.2611Y-101.4719
G1X68.0432Y-99.9145
G1X68.9272Y-98.4152
G1X69.8432Y-97.0762
G1X70.7682Y-95.9004
G1X71.8026Y-94.7580
G1X73.0109Y-93.5928
G1X74.3204Y-92.4832
G1X75.7135Y-91.4415
G1X77.1725Y-90.4802
G1X78.6797Y-89.6120
G1X80.2175Y-88.8493
G1X81.6684Y-88.2423
G1X83.2362Y-87.7031
G1X84.9713Y-87.2258
G1X86.7602Y-86.8481
G1X88.5791Y-86.5736
G1X90.4041Y-86.4057
G1X92.1119Y-86.3481
G1X93.7838Y-86.3917
G1X95.3443Y-86.5311
G1X97.0001Y-86.8321
G1 Z0F20000
(Start Block)

G1X97.0001Y-133.5163
G1Z6F20000
(Plotting speed under)
G1 F8000

G1X95.6732Y-133.7351
G1X94.1033Y-133.8507
G1X92.5443Y-133.8645
G1X90.8498Y-133.7736
G1X89.1361Y-133.5777
G1X85.7363Y-132.8875
G1X82.6063Y-131.8620
G1X81.1884Y-131.2440
G1X79.7803Y-130.5150
G1X77.0499Y-128.7619
G1X75.6788Y-127.6960
G1X74.4595Y-126.6238
G1X73.3244Y-125.4963
G1X72.2884Y-124.3252
G1X71.4084Y-123.1817
G1X70.5836Y-121.9416
G1X69.7813Y-120.5392
G1X69.0665Y-119.0725
G1X68.4117Y-117.4644
G1X67.9019Y-115.9233
G1X67.5034Y-114.3743
G1X67.2379Y-112.9314
G1X67.0804Y-111.4904
G1X67.0258Y-109.9061
G1X67.2287Y-106.8663
G1X67.4943Y-105.2455
G1X67.8395Y-103.7492
G1X68.2754Y-102.2925
G1X68.7995Y-100.8918
G1X70.1040Y-98.2811
G1X70.9583Y-96.9219
G1X71.9106Y-95.5979
G1X73.0167Y-94.2463
G1X74.1341Y-93.0418
G1X75.3134Y-91.9179
G1X76.5429Y-90.8895
G1X79.1271Y-89.1334
G1X82.0993Y-87.5936
G1X85.3519Y-86.3501
G1X88.4531Y-85.5569
G1X91.5974Y-85.1506
G1X93.3289Y-85.0773
G1X95.1797Y-85.1056
G1X97.0001Y-85.2398
G1 Z0F20000
(Start Block)

G1X97.0001Y-132.2961
G1Z6F20000
(Plotting speed under)
G1 F8000

G1X95.4618Y-132.4278
G1X92.1264Y-132.3327
G1X89.1246Y-131.8847
G1X86.0208Y-131.0244
G1X82.9855Y-129.8014
G1X80.1546Y-128.2712
G1X78.8582Y-127.4082
G1X77.6962Y-126.5181
G1X75.4048Y-124.3837
G1X74.3132Y-123.1616
G1X73.2999Y-121.8770
G1X71.6059Y-119.2662
G1X70.3949Y-116.7251
G1X69.5070Y-113.9523
G1X68.9435Y-110.9355
G1X68.7627Y-107.9984
G1X68.8162Y-106.5109
G1X68.9728Y-105.0691
G1X69.6000Y-102.1802
G1X70.0959Y-100.6377
G1X70.6950Y-99.1172
G1X72.1223Y-96.3019
G1X73.7286Y-93.9331
G1X75.7426Y-91.6659
G1X78.0893Y-89.5755
G1X80.6674Y-87.7440
G1X83.3737Y-86.2547
G1X86.2061Y-85.1206
G1X89.4492Y-84.2260
G1X92.7818Y-83.6844
G1X95.8616Y-83.5247
G1X97.0001Y-83.5978
G1 Z0F20000

G00 X0.0000 Y0.0000

