$H
G21
G17
G90
G1 Z0F20000
G1 F15000
(Start Layer)
(Start Block)

G1X52.5437Y-73.9326
G1Z6F20000
(Plotting speed under)
G1 F8000

G1X52.6219Y-73.8836
G1X51.9036Y-74.4247
G1X52.4783Y-73.8940
G1X53.6728Y-73.0097
G1X53.0645Y-73.7139
G1X52.1026Y-74.5648
G1X51.1516Y-75.2407
G1X50.7158Y-75.3983
G1X50.7864Y-75.2367
G1X51.2289Y-74.8187
G1X54.7608Y-72.0184
G1X53.5565Y-73.5159
G1X52.0366Y-74.9459
G1X50.3768Y-76.1405
G1X49.8270Y-76.4018
G1X49.4739Y-76.4312
G1X49.5435Y-76.1697
G1X50.0809Y-75.6442
G1X53.7170Y-72.9298
G1X55.8296Y-71.0072
G1X54.9158Y-72.2788
G1X53.7741Y-73.6608
G1X52.8541Y-74.6256
G1X51.7759Y-75.5876
G1X50.5278Y-76.5514
G1X49.4138Y-77.2269
G1X48.5307Y-77.5417
G1X48.3367Y-77.5501
G1X48.1321Y-77.4338
G1X48.1978Y-77.1643
G1X48.3396Y-76.9749
G1X49.1138Y-76.2721
G1X52.9829Y-73.5664
G1X54.5768Y-72.3206
G1X55.9365Y-71.0593
G1X56.8688Y-69.9826
G1X55.2286Y-72.3012
G1X54.0123Y-73.8546
G1X52.8615Y-75.1134
G1X51.5469Y-76.3052
G1X49.9513Y-77.5312
G1X48.6429Y-78.2933
G1X47.9699Y-78.5612
G1X47.4172Y-78.6834
G1X47.0124Y-78.6678
G1X46.7792Y-78.5306
G1X46.7650Y-78.1980
G1X46.8958Y-77.9711
G1X47.8745Y-77.0470
G1X49.2571Y-76.0657
G1X52.9893Y-73.6428
G1X55.1567Y-71.9661
G1X56.8753Y-70.3021
G1X57.5443Y-69.4929
G1X57.8778Y-68.9335
G1X55.4107Y-72.5677
G1X54.1952Y-74.1943
G1X52.8207Y-75.7488
G1X51.2688Y-77.1655
G1X49.3346Y-78.6320
G1X47.6411Y-79.5378
G1X46.9133Y-79.7756
G1X46.1943Y-79.8781
G1X45.6238Y-79.7922
G1X45.3299Y-79.5721
G1X45.2641Y-79.2536
G1X45.4857Y-78.7895
G1X45.9036Y-78.3318
G1X46.5983Y-77.7539
G1X48.3739Y-76.5500
G1X52.9447Y-73.7474
G1X54.3714Y-72.7302
G1X55.7010Y-71.6550
G1X56.8463Y-70.5931
G1X57.7951Y-69.5670
G1X58.5675Y-68.5426
G1X58.8654Y-67.8880
G1X58.2574Y-68.6759
G1X55.6268Y-72.8694
G1X54.3354Y-74.6761
G1X52.8147Y-76.4472
G1X50.9886Y-78.1275
G1X49.8225Y-79.0602
G1X48.7313Y-79.8120
G1X47.7083Y-80.3895
G1X46.7900Y-80.7843
G1X45.7976Y-81.0520
G1X44.9697Y-81.1067
G1X44.3427Y-80.9851
G1X43.8667Y-80.6649
G1X43.7125Y-80.2215
G1X43.8459Y-79.7862
G1X44.2985Y-79.2040
G1X45.1235Y-78.4945
G1X47.1783Y-77.1394
G1X52.8853Y-73.8375
G1X54.6602Y-72.6103
G1X56.2453Y-71.3432
G1X57.6195Y-70.0576
G1X58.7665Y-68.7672
G1X59.5581Y-67.6208
G1X59.7959Y-67.1326
G1X59.8367Y-66.8591
G1X59.6436Y-66.9776
G1X59.1464Y-67.6783
G1X56.1902Y-72.7074
G1X54.5051Y-75.2147
G1X52.7725Y-77.2834
G1X50.7571Y-79.1447
G1X49.4586Y-80.1795
G1X48.2329Y-81.0117
G1X47.0578Y-81.6522
G1X45.8910Y-82.1126
G1X44.7243Y-82.3650
G1X43.7423Y-82.3694
G1X42.9609Y-82.1670
G1X42.3278Y-81.7077
G1X42.0925Y-81.1543
G1X42.2346Y-80.5539
G1X42.7343Y-79.8866
G1X43.6911Y-79.0693
G1X46.0408Y-77.5836
G1X50.8200Y-75.0464
G1X52.7756Y-73.9199
G1X54.9000Y-72.5042
G1X56.8416Y-70.9762
G1X58.3895Y-69.5210
G1X59.5879Y-68.1485
G1X60.5311Y-66.7153
G1X60.7676Y-66.1535
G1X60.7957Y-65.8585
G1X60.6567Y-65.8493
G1X60.4927Y-66.0070
G1X59.9257Y-66.8273
G1X56.6048Y-72.8310
G1X54.6454Y-75.8877
G1X53.7036Y-77.1163
G1X52.7650Y-78.1823
G1X50.3284Y-80.4188
G1X48.8606Y-81.5561
G1X47.4159Y-82.4783
G1X46.0358Y-83.1473
G1X44.7680Y-83.5549
G1X43.4609Y-83.7316
G1X42.3375Y-83.6312
G1X41.3680Y-83.2567
G1X40.6878Y-82.6568
G1X40.4666Y-82.2518
G1X40.4007Y-81.9297
G1X40.5662Y-81.2034
G1X41.2082Y-80.3657
G1X42.2466Y-79.5107
G1X44.9077Y-77.9093
G1X50.5885Y-75.0930
G1X52.6652Y-73.9539
G1X55.1780Y-72.3396
G1X57.3507Y-70.6648
G1X59.0904Y-69.0417
G1X60.5429Y-67.3449
G1X61.4944Y-65.8107
G1X61.7257Y-65.1823
G1X61.6937Y-64.8100
G1X61.5164Y-64.8571
G1X61.3077Y-65.0642
G1X60.6549Y-66.0538
G1X57.0123Y-73.0339
G1X55.8904Y-74.9714
G1X54.8802Y-76.5249
G1X53.8463Y-77.9181
G1X52.8461Y-79.0765
G1X51.6805Y-80.2298
G1X50.0390Y-81.6632
G1X48.3792Y-82.9245
G1X46.7642Y-83.9127
G1X45.2036Y-84.6113
G1X43.6741Y-85.0221
G1X42.2593Y-85.1215
G1X40.9611Y-84.9096
G1X39.8619Y-84.3948
G1X39.0442Y-83.6139
G1X38.7688Y-83.1363
G1X38.6559Y-82.7272
G1X38.6581Y-82.3015
G1X38.7781Y-81.8747
G1X39.0515Y-81.3868
G1X39.4358Y-80.9238
G1X40.6298Y-79.9256
G1X41.9448Y-79.0936
G1X43.6611Y-78.1738
G1X49.8882Y-75.3084
G1X52.3957Y-74.0194
G1X55.3301Y-72.2209
G1X57.8923Y-70.2973
G1X59.8656Y-68.4655
G1X61.4514Y-66.5881
G1X62.4182Y-64.9679
G1X62.6589Y-64.2767
G1X62.6393Y-63.8379
G1X62.4526Y-63.8209
G1X62.1708Y-64.0650
G1X61.3955Y-65.2708
G1X57.3306Y-73.4856
G1X56.1780Y-75.5596
G1X55.0911Y-77.2893
G1X53.9636Y-78.8453
G1X52.7553Y-80.2500
G1X51.6285Y-81.3490
G1X49.7349Y-82.9981
G1X47.8129Y-84.4209
G1X46.0421Y-85.4447
G1X44.2893Y-86.1535
G1X42.6152Y-86.5179
G1X41.0305Y-86.5368
G1X40.2040Y-86.3958
G1X39.5104Y-86.1767
G1X38.8304Y-85.8504
G1X38.2883Y-85.4870
G1X37.7968Y-85.0453
G1X37.3151Y-84.4503
G1X36.8842Y-83.5224
G1X36.8334Y-83.0090
G1X36.8980Y-82.5865
G1X37.0636Y-82.1514
G1X37.3832Y-81.6439
G1X38.2611Y-80.7524
G1X39.7968Y-79.6839
G1X41.9853Y-78.5158
G1X44.4543Y-77.3968
G1X49.1774Y-75.4288
G1X51.8528Y-74.1552
G1X54.2595Y-72.8181
G1X56.5812Y-71.3093
G1X58.0561Y-70.2041
G1X59.4056Y-69.0612
G1X60.6536Y-67.8537
G1X61.6628Y-66.7158
G1X62.4803Y-65.6293
G1X63.1738Y-64.4685
G1X63.5596Y-63.4849
G1X63.6139Y-63.1136
G1X63.5544Y-62.8627
G1X63.3936Y-62.8106
G1X63.0321Y-63.0818
G1X62.2121Y-64.3682
G1X57.8272Y-73.6811
G1X56.5976Y-76.0049
G1X55.3381Y-78.0885
G1X54.1710Y-79.7436
G1X52.9081Y-81.2487
G1X51.2626Y-82.8420
G1X49.4642Y-84.3811
G1X47.3614Y-85.9055
G1X45.4191Y-86.9816
G1X43.4108Y-87.7255
G1X41.5458Y-88.0479
G1X40.6148Y-88.0607
G1X39.6958Y-87.9608
G1X38.8871Y-87.7680
G1X38.1194Y-87.4781
G1X37.3999Y-87.0869
G1X36.7208Y-86.5801
G1X36.1876Y-86.0527
G1X35.6560Y-85.3725
G1X35.2739Y-84.7107
G1X35.0820Y-84.2055
G1X34.9884Y-83.6981
G1X35.0250Y-83.0792
G1X35.2192Y-82.4975
G1X35.5365Y-81.9653
G1X36.0014Y-81.4184
G1X36.6108Y-80.8701
G1X38.2872Y-79.7474
G1X40.6022Y-78.5753
G1X43.2734Y-77.4467
G1X48.8330Y-75.3073
G1X51.6213Y-74.0529
G1X54.4120Y-72.5709
G1X56.8420Y-71.0443
G1X58.4857Y-69.8510
G1X59.9701Y-68.6197
G1X61.2251Y-67.4308
G1X62.4206Y-66.1111
G1X63.4385Y-64.7376
G1X64.1144Y-63.5541
G1X64.4995Y-62.4689
G1X64.5326Y-62.1479
G1X64.4304Y-61.8643
G1X64.2217Y-61.8524
G1X63.8241Y-62.1936
G1X62.9962Y-63.5509
G1X58.3431Y-73.9075
G1X56.9470Y-76.6579
G1X55.6209Y-78.9229
G1X54.3422Y-80.7759
G1X53.0826Y-82.2950
G1X51.6214Y-83.7566
G1X49.3828Y-85.6821
G1X47.1062Y-87.3247
G1X44.8764Y-88.5335
G1X42.7389Y-89.2860
G1X41.7166Y-89.4962
G1X40.6749Y-89.6018
G1X39.6420Y-89.5915
G1X38.6369Y-89.4582
G1X37.7443Y-89.2214
G1X36.8956Y-88.8780
G1X36.0163Y-88.3694
G1X35.2900Y-87.7958
G1X34.7010Y-87.1939
G1X34.0611Y-86.3612
G1X33.5777Y-85.5518
G1X33.2876Y-84.8760
G1X33.1241Y-84.1610
G1X33.1214Y-83.5461
G1X33.3056Y-82.8186
G1X33.6333Y-82.2041
G1X34.1450Y-81.5709
G1X34.7787Y-80.9853
G1X36.6239Y-79.7595
G1X39.1875Y-78.5197
G1X42.2796Y-77.3084
G1X47.7240Y-75.4030
G1X51.1543Y-73.9847
G1X54.2085Y-72.4663
G1X57.0349Y-70.7761
G1X58.7281Y-69.5912
G1X60.3795Y-68.2752
G1X61.7647Y-66.9979
G1X63.0272Y-65.6477
G1X64.2103Y-64.0993
G1X64.9411Y-62.8465
G1X65.3951Y-61.6269
G1X65.4411Y-61.2925
G1X65.3724Y-60.9555
G1X65.1719Y-60.8719
G1X64.7602Y-61.1543
G1X64.3758Y-61.6698
G1X63.8599Y-62.6133
G1X58.8393Y-74.2563
G1X57.3920Y-77.2194
G1X56.0443Y-79.6129
G1X54.6739Y-81.6726
G1X53.2696Y-83.4103
G1X52.0031Y-84.7050
G1X49.6431Y-86.7702
G1X47.1297Y-88.6236
G1X45.9025Y-89.3638
G1X44.7154Y-89.9648
G1X43.5002Y-90.4637
G1X42.3286Y-90.8264
G1X41.2410Y-91.0578
G1X40.0958Y-91.1835
G1X38.9578Y-91.1818
G1X37.8511Y-91.0459
G1X36.8591Y-90.7945
G1X35.9174Y-90.4273
G1X34.9506Y-89.8882
G1X34.1325Y-89.2683
G1X33.3953Y-88.5441
G1X32.6873Y-87.6480
G1X31.9799Y-86.5061
G1X31.5434Y-85.5880
G1X31.2819Y-84.7045
G1X31.2216Y-83.8807
G1X31.3412Y-83.1680
G1X31.6634Y-82.4169
G1X32.1913Y-81.6888
G1X32.9944Y-80.9228
G1X33.9222Y-80.2500
G1X35.0092Y-79.6095
G1X37.8310Y-78.3141
G1X40.8059Y-77.2284
G1X47.4790Y-75.0744
G1X51.1616Y-73.6290
G1X54.2778Y-72.1429
G1X57.1666Y-70.4890
G1X59.0271Y-69.2364
G1X60.7136Y-67.9399
G1X62.4154Y-66.4157
G1X63.7089Y-65.0484
G1X64.8902Y-63.5494
G1X65.8189Y-62.0039
G1X66.2962Y-60.7137
G1X66.3328Y-60.2443
G1X66.2348Y-59.9672
G1X65.9299Y-59.9660
G1X65.5529Y-60.2971
G1X64.6965Y-61.7660
G1X59.5483Y-74.2143
G1X58.0681Y-77.3947
G1X56.6473Y-80.0610
G1X55.2149Y-82.3379
G1X53.7289Y-84.2833
G1X52.4081Y-85.6788
G1X50.1595Y-87.7008
G1X47.4302Y-89.7885
G1X46.0326Y-90.6695
G1X44.7519Y-91.3482
G1X43.4373Y-91.9188
G1X42.1606Y-92.3433
G1X40.8814Y-92.6394
G1X39.6852Y-92.7920
G1X38.4618Y-92.8175
G1X37.2457Y-92.6990
G1X36.1413Y-92.4507
G1X35.0030Y-92.0350
G1X33.9414Y-91.4669
G1X33.0281Y-90.8027
G1X32.2071Y-90.0298
G1X31.4207Y-89.0741
G1X30.5362Y-87.6693
G1X29.8342Y-86.2595
G1X29.4562Y-85.1255
G1X29.3337Y-84.1875
G1X29.4367Y-83.2546
G1X29.7759Y-82.3888
G1X30.3032Y-81.6196
G1X31.1288Y-80.8011
G1X31.9395Y-80.1940
G1X32.9434Y-79.5791
G1X35.4279Y-78.4036
G1X38.7513Y-77.2066
G1X46.2102Y-75.0150
G1X49.6558Y-73.8183
G1X53.7525Y-72.0574
G1X57.3107Y-70.1333
G1X59.3964Y-68.7816
G1X61.2840Y-67.3561
G1X62.9383Y-65.9119
G1X64.4591Y-64.3286
G1X65.6222Y-62.8694
G1X66.6410Y-61.2169
G1X67.1720Y-59.8325
G1X67.2219Y-59.3298
G1X67.1270Y-59.0283
G1X66.8811Y-58.9912
G1X66.5293Y-59.2542
G1X66.1031Y-59.8462
G1X65.6499Y-60.7080
G1X60.4824Y-73.7082
G1X58.8424Y-77.4043
G1X57.3153Y-80.4305
G1X55.8876Y-82.8432
G1X54.3398Y-85.0106
G1X52.7689Y-86.7629
G1X50.9252Y-88.4682
G1X47.8433Y-90.9122
G1X46.3372Y-91.9088
G1X44.9313Y-92.6958
G1X43.5714Y-93.3281
G1X42.0971Y-93.8609
G1X40.7066Y-94.2184
G1X39.2945Y-94.4291
G1X37.9526Y-94.4806
G1X36.6216Y-94.3753
G1X35.4053Y-94.1260
G1X34.1590Y-93.6986
G1X32.9905Y-93.1034
G1X31.9818Y-92.4020
G1X31.0008Y-91.5051
G1X30.1411Y-90.4790
G1X29.1927Y-88.9818
G1X28.2574Y-87.1037
G1X27.7355Y-85.7194
G1X27.4871Y-84.4703
G1X27.5364Y-83.3206
G1X27.8521Y-82.3493
G1X28.4588Y-81.3995
G1X29.3267Y-80.5225
G1X30.2293Y-79.8445
G1X31.3379Y-79.1827
G1X34.0172Y-77.9721
G1X37.7068Y-76.7421
G1X44.8053Y-74.8691
G1X48.9628Y-73.5711
G1X51.4336Y-72.6388
G1X53.5155Y-71.7522
G1X55.5417Y-70.7668
G1X57.5124Y-69.6901
G1X59.6761Y-68.3299
G1X61.7667Y-66.8008
G1X63.4192Y-65.3873
G1X65.0818Y-63.7139
G1X66.4512Y-62.0031
G1X67.4461Y-60.4008
G1X68.0213Y-58.9734
G1X68.0980Y-58.3156
G1X67.9712Y-58.0536
G1X67.6836Y-58.0903
G1X67.3557Y-58.3946
G1X66.9546Y-58.9894
G1X66.5744Y-59.7495
G1X63.5454Y-67.8874
G1X61.7501Y-72.4446
G1X59.7125Y-77.2358
G1X57.9428Y-80.9086
G1X56.5221Y-83.4300
G1X54.9687Y-85.7366
G1X53.2908Y-87.7381
G1X51.5801Y-89.3639
G1X49.6327Y-91.0097
G1X48.1853Y-92.1197
G1X46.5964Y-93.2063
G1X45.0935Y-94.0809
G1X43.5387Y-94.8330
G1X42.0058Y-95.4136
G1X40.5360Y-95.8203
G1X39.0046Y-96.0811
G1X37.4780Y-96.1682
G1X35.9832Y-96.0731
G1X34.6542Y-95.8192
G1X33.2965Y-95.3747
G1X32.0240Y-94.7495
G1X30.9188Y-94.0036
G1X29.8495Y-93.0510
G1X28.9120Y-91.9557
G1X27.8433Y-90.2768
G1X26.7739Y-88.0378
G1X26.0392Y-86.1347
G1X25.6919Y-84.6286
G1X25.6629Y-83.4656
G1X25.9279Y-82.3141
G1X26.5201Y-81.2324
G1X27.4937Y-80.1808
G1X28.4659Y-79.4390
G1X29.6929Y-78.7088
G1X31.0514Y-78.0598
G1X32.7184Y-77.4004
G1X36.3082Y-76.2843
G1X44.7707Y-74.2432
G1X48.6949Y-73.0888
G1X51.0800Y-72.2572
G1X53.2326Y-71.3883
G1X55.4475Y-70.3773
G1X57.4992Y-69.3096
G1X59.7932Y-67.9290
G1X61.8530Y-66.4971
G1X63.7658Y-64.9278
G1X65.5214Y-63.2342
G1X67.1723Y-61.2489
G1X68.1981Y-59.6255
G1X68.6023Y-58.8129
G1X68.8700Y-58.0202
G1X68.9637Y-57.4144
G1X68.8416Y-57.0957
G1X68.5972Y-57.1267
G1X68.2828Y-57.4213
G1X67.8798Y-58.0310
G1X67.5350Y-58.7491
G1X64.8516Y-66.4370
G1X63.1478Y-70.9197
G1X60.5838Y-77.0999
G1X58.3579Y-81.8518
G1X56.6679Y-84.8633
G1X55.0699Y-87.2032
G1X53.5074Y-89.0640
G1X51.5341Y-90.9195
G1X49.7577Y-92.4158
G1X47.8884Y-93.8285
G1X46.4507Y-94.7899
G1X44.7882Y-95.7464
G1X43.2276Y-96.4859
G1X41.5800Y-97.1020
G1X39.9966Y-97.5276
G1X38.4111Y-97.7897
G1X36.8592Y-97.8761
G1X35.3339Y-97.7888
G1X33.7916Y-97.5027
G1X32.4193Y-97.0614
G1X31.0446Y-96.4040
G1X29.9228Y-95.6696
G1X28.8325Y-94.7411
G1X27.7994Y-93.5878
G1X26.5916Y-91.7472
G1X25.6055Y-89.6418
G1X24.4913Y-86.7681
G1X24.1389Y-85.5951
G1X23.9388Y-84.6049
G1X23.8840Y-83.1699
G1X24.1543Y-81.9439
G1X24.7873Y-80.7595
G1X25.7573Y-79.6916
G1X26.7735Y-78.9073
G1X28.0013Y-78.1781
G1X29.5000Y-77.4717
G1X31.2870Y-76.7933
G1X35.3316Y-75.6250
G1X43.9214Y-73.7729
G1X48.4160Y-72.5591
G1X50.8415Y-71.7546
G1X53.3937Y-70.7792
G1X55.4271Y-69.8901
G1X57.5469Y-68.8269
G1X59.9973Y-67.4168
G1X62.0442Y-66.0377
G1X64.2727Y-64.2754
G1X65.9524Y-62.6897
G1X67.6401Y-60.7656
G1X68.9460Y-58.8003
G1X69.3755Y-57.9606
G1X69.6978Y-57.0740
G1X69.8012Y-56.5871
G1X69.7502Y-56.1799
G1X69.5924Y-56.1157
G1X69.2507Y-56.3851
G1X68.8850Y-56.9347
G1X68.4980Y-57.7591
G1X67.9682Y-59.2193
G1X66.0986Y-65.2223
G1X64.6344Y-69.2707
G1X61.6590Y-76.5465
G1X59.0762Y-82.2473
G1X57.3596Y-85.4494
G1X55.6636Y-88.0619
G1X54.0859Y-90.0277
G1X52.0702Y-92.0373
G1X50.4588Y-93.3933
G1X48.1098Y-95.2008
G1X46.4931Y-96.2864
G1X44.8156Y-97.2641
G1X43.1553Y-98.0627
G1X41.4496Y-98.7172
G1X39.7905Y-99.1820
G1X38.1327Y-99.4800
G1X36.4050Y-99.6003
G1X34.8032Y-99.5316
G1X33.1985Y-99.2658
G1X31.7253Y-98.8295
G1X30.2315Y-98.1598
G1X29.0004Y-97.3956
G1X27.8085Y-96.4249
G1X26.6805Y-95.2124
G1X26.0126Y-94.3156
G1X25.3798Y-93.2878
G1X24.3466Y-91.0797
G1X22.8722Y-86.9445
G1X22.2600Y-84.5597
G1X22.1525Y-82.9455
G1X22.4072Y-81.5583
G1X22.6788Y-80.9089
G1X23.0812Y-80.2258
G1X24.0928Y-79.0945
G1X25.1886Y-78.2468
G1X26.5904Y-77.4332
G1X28.1715Y-76.7201
G1X30.1375Y-76.0154
G1X34.2746Y-74.9103
G1X42.2689Y-73.3792
G1X47.6314Y-72.1056
G1X50.5239Y-71.2193
G1X53.0425Y-70.3244
G1X55.4922Y-69.2957
G1X57.7960Y-68.1872
G1X60.2826Y-66.7929
G1X62.6772Y-65.2019
G1X64.6850Y-63.6466
G1X66.6319Y-61.8290
G1X68.2110Y-60.0629
G1X69.6172Y-58.0431
G1X70.4834Y-56.1854
G1X70.6182Y-55.5817
G1X70.5818Y-55.1723
G1X70.4145Y-55.1495
G1X70.1082Y-55.4615
G1X69.4685Y-56.7458
G1X68.9974Y-58.1362
G1X67.2897Y-64.2627
G1X65.9587Y-68.1679
G1X63.3433Y-74.6430
G1X60.0380Y-82.1552
G1X58.2124Y-85.7580
G1X56.4822Y-88.6078
G1X54.7151Y-90.9587
G1X52.8509Y-92.9425
G1X51.2572Y-94.3116
G1X48.6879Y-96.3423
G1X46.8453Y-97.6132
G1X45.1229Y-98.6516
G1X43.3095Y-99.5593
G1X41.5437Y-100.2715
G1X39.7564Y-100.8088
G1X37.9627Y-101.1660
G1X36.1043Y-101.3311
G1X34.3639Y-101.2900
G1X32.6318Y-101.0385
G1X31.0665Y-100.6111
G1X29.5067Y-99.9600
G1X28.0738Y-99.1175
G1X26.7797Y-98.1022
G1X25.6261Y-96.9108
G1X24.8759Y-95.9436
G1X24.1714Y-94.8310
G1X23.6435Y-93.8300
G1X23.0750Y-92.5075
G1X21.3497Y-87.1683
G1X20.6754Y-84.5074
G1X20.5028Y-82.7658
G1X20.5660Y-81.8591
G1X20.7173Y-81.1671
G1X20.9897Y-80.4214
G1X21.3349Y-79.7787
G1X21.8544Y-79.0763
G1X22.4219Y-78.4775
G1X23.5818Y-77.5623
G1X25.0094Y-76.7252
G1X26.7984Y-75.9310
G1X28.8082Y-75.2360
G1X30.9251Y-74.6509
G1X33.1797Y-74.1390
G1X43.1250Y-72.4012
G1X47.6938Y-71.3422
G1X50.3585Y-70.5832
G1X52.7622Y-69.7628
G1X55.4128Y-68.7162
G1X57.7761Y-67.6321
G1X60.5040Y-66.1461
G1X63.0787Y-64.4929
G1X65.1889Y-62.8677
G1X67.2224Y-61.0202
G1X68.8051Y-59.2536
G1X70.2262Y-57.2927
G1X71.2175Y-55.3187
G1X71.4177Y-54.5239
G1X71.3864Y-54.1461
G1X71.1877Y-54.2028
G1X70.8603Y-54.6953
G1X70.2658Y-56.2203
G1X68.4375Y-63.5611
G1X66.9387Y-68.1620
G1X65.0656Y-72.8109
G1X61.1900Y-81.6456
G1X59.1695Y-85.8500
G1X57.2540Y-89.2089
G1X55.2574Y-92.0122
G1X54.2857Y-93.1495
G1X53.3530Y-94.0900
G1X51.3076Y-95.8867
G1X49.4318Y-97.3796
G1X47.2008Y-98.9567
G1X45.3841Y-100.0768
G1X43.4113Y-101.0933
G1X41.5624Y-101.8612
G1X39.6056Y-102.4736
G1X37.7207Y-102.8686
G1X35.7902Y-103.0660
G1X33.8597Y-103.0455
G1X31.9642Y-102.7916
G1X30.2788Y-102.3469
G1X28.6023Y-101.6663
G1X27.1195Y-100.8159
G1X25.7716Y-99.7911
G1X24.5021Y-98.5185
G1X23.6840Y-97.4827
G1X22.8662Y-96.1994
G1X22.2691Y-95.0376
G1X21.6607Y-93.5626
G1X19.8471Y-87.1563
G1X19.1006Y-83.9831
G1X18.9388Y-81.9745
G1X19.1742Y-80.4593
G1X19.4261Y-79.7624
G1X19.8406Y-78.9973
G1X20.3165Y-78.3427
G1X20.8647Y-77.7616
G1X22.1291Y-76.7485
G1X23.6694Y-75.8623
G1X25.4765Y-75.0765
G1X27.6623Y-74.3516
G1X29.9118Y-73.7634
G1X32.5134Y-73.2227
G1X41.9707Y-71.7709
G1X47.5174Y-70.6127
G1X50.2718Y-69.8522
G1X53.1631Y-68.9080
G1X55.5238Y-68.0057
G1X57.8463Y-66.9627
G1X60.5328Y-65.5623
G1X62.9316Y-64.0928
G1X65.3142Y-62.3438
G1X67.4386Y-60.5063
G1X69.3128Y-58.4870
G1X70.7512Y-56.5765
G1X71.8995Y-54.4528
G1X72.1869Y-53.5231
G1X72.2211Y-53.2103
G1X72.1556Y-53.0872
G1X71.9821Y-53.2264
G1X71.7553Y-53.6398
G1X71.2156Y-55.2623
G1X69.7902Y-62.1520
G1X68.8405Y-65.6649
G1X67.5996Y-69.1921
G1X65.9305Y-73.1716
G1X60.8493Y-84.4034
G1X58.6979Y-88.6317
G1X57.4397Y-90.7287
G1X56.0419Y-92.7570
G1X54.8195Y-94.2479
G1X53.4138Y-95.6997
G1X51.6033Y-97.3181
G1X49.2519Y-99.1153
G1X46.9804Y-100.6998
G1X44.9530Y-101.9012
G1X43.0338Y-102.8616
G1X41.0441Y-103.6532
G1X39.0157Y-104.2595
G1X37.1102Y-104.6328
G1X35.1166Y-104.8208
G1X33.1835Y-104.7894
G1X31.2148Y-104.5279
G1X29.4582Y-104.0688
G1X27.6998Y-103.3672
G1X26.1179Y-102.4749
G1X24.6735Y-101.3898
G1X23.3920Y-100.1292
G1X22.4970Y-99.0148
G1X21.6172Y-97.6517
G1X20.9314Y-96.3018
G1X20.3289Y-94.8052
G1X19.5234Y-91.9334
G1X17.6623Y-83.6553
G1X17.4583Y-81.6975
G1X17.5154Y-80.6740
G1X17.6660Y-79.8633
G1X17.9716Y-78.9976
G1X18.3610Y-78.2480
G1X18.8427Y-77.5828
G1X19.4515Y-76.9209
G1X20.7338Y-75.8955
G1X22.4162Y-74.9340
G1X24.3155Y-74.1345
G1X26.6519Y-73.3886
G1X28.8735Y-72.8418
G1X31.4437Y-72.3376
G1X35.1497Y-71.7797
G1X40.2120Y-71.1376
G1X43.9799Y-70.5226
G1X46.6330Y-69.9838
G1X49.9329Y-69.1485
G1X52.7765Y-68.2889
G1X55.4410Y-67.3068
G1X58.1557Y-66.1332
G1X60.8147Y-64.7834
G1X63.3075Y-63.2656
G1X65.9103Y-61.3976
G1X67.8565Y-59.7108
G1X69.9237Y-57.5528
G1X71.3042Y-55.7186
G1X72.1100Y-54.4257
G1X72.4886Y-53.6690
G1X72.9207Y-52.5065
G1X72.9327Y-52.0046
G1X72.5883Y-52.6379
G1X72.1422Y-54.3287
G1X71.0531Y-61.0399
G1X70.3764Y-64.1350
G1X69.4390Y-67.2640
G1X68.1343Y-70.6580
G1X61.4395Y-85.1955
G1X59.3211Y-89.4282
G1X57.8919Y-91.8661
G1X56.6562Y-93.7098
G1X55.2005Y-95.5432
G1X53.6924Y-97.1602
G1X52.0061Y-98.6385
G1X48.9523Y-100.9645
G1X47.0351Y-102.2710
G1X44.8497Y-103.5588
G1X42.8579Y-104.5419
G1X40.7726Y-105.3652
G1X38.7521Y-105.9662
G1X36.7494Y-106.3624
G1X34.6477Y-106.5665
G1X32.5807Y-106.5368
G1X30.5658Y-106.2780
G1X28.6926Y-105.8012
G1X26.8957Y-105.1034
G1X25.2082Y-104.1800
G1X23.7365Y-103.1091
G1X22.3549Y-101.7988
G1X21.2591Y-100.4554
G1X20.3284Y-99.0098
G1X19.5640Y-97.4696
G1X18.9198Y-95.7781
G1X18.2315Y-93.1395
G1X17.3919Y-88.4613
G1X16.2518Y-82.8264
G1X16.1218Y-81.8380
G1X16.0796Y-80.6093
G1X16.1323Y-79.8936
G1X16.3108Y-79.0128
G1X16.5676Y-78.2450
G1X16.9322Y-77.5300
G1X17.4241Y-76.8060
G1X18.0469Y-76.1049
G1X19.4198Y-74.9945
G1X21.1037Y-74.0301
G1X23.2562Y-73.1368
G1X25.6143Y-72.4115
G1X28.1132Y-71.8241
G1X30.7592Y-71.3463
G1X41.9240Y-69.9479
G1X47.0975Y-68.9885
G1X50.0656Y-68.2785
G1X52.6718Y-67.5010
G1X55.5374Y-66.4909
G1X58.2116Y-65.3820
G1X61.1534Y-63.9037
G1X63.9983Y-62.1916
G1X66.2553Y-60.5826
G1X68.4303Y-58.7062
G1X70.4798Y-56.5965
G1X72.3067Y-54.1300
G1X72.9072Y-53.0945
G1X73.4553Y-51.8799
G1X73.6448Y-51.3253
G1X73.6841Y-50.8832
G1X73.4141Y-51.5372
G1X73.0882Y-53.1294
G1X72.2521Y-60.2642
G1X71.7469Y-63.1880
G1X70.9392Y-66.3361
G1X69.7446Y-69.6932
G1X68.2670Y-73.0278
G1X60.0500Y-90.0134
G1X58.6224Y-92.5644
G1X57.4155Y-94.4396
G1X55.8964Y-96.4858
G1X54.4268Y-98.1400
G1X52.6379Y-99.7592
G1X49.8859Y-101.9382
G1X47.5670Y-103.5400
G1X45.1593Y-105.0000
G1X43.0008Y-106.0836
G1X40.7468Y-106.9959
G1X38.6214Y-107.6396
G1X36.5368Y-108.0690
G1X34.3181Y-108.3013
G1X32.1746Y-108.2916
G1X30.0643Y-108.0453
G1X28.0254Y-107.5530
G1X26.1023Y-106.8276
G1X24.3096Y-105.8727
G1X22.7355Y-104.7494
G1X21.2622Y-103.3786
G1X20.0940Y-101.9681
G1X19.0546Y-100.3583
G1X18.1730Y-98.5405
G1X17.5284Y-96.7337
G1X16.9326Y-94.2588
G1X16.0313Y-87.9155
G1X14.9953Y-82.3117
G1X14.7854Y-80.0562
G1X14.8590Y-79.0296
G1X15.0105Y-78.2122
G1X15.2769Y-77.4336
G1X15.6793Y-76.6163
G1X16.1585Y-75.9082
G1X16.7444Y-75.2505
G1X18.1814Y-74.0619
G1X19.9633Y-73.0487
G1X22.1384Y-72.1527
G1X24.7785Y-71.3646
G1X27.3295Y-70.7923
G1X30.2938Y-70.2899
G1X40.5980Y-69.1586
G1X46.9326Y-68.1172
G1X49.8134Y-67.4439
G1X53.0375Y-66.5227
G1X55.7392Y-65.6012
G1X58.1839Y-64.6005
G1X61.3170Y-63.0738
G1X64.1401Y-61.4349
G1X66.6363Y-59.6626
G1X69.0702Y-57.6108
G1X70.8233Y-55.7946
G1X72.6958Y-53.3975
G1X73.3234Y-52.3610
G1X74.0225Y-50.9756
G1X74.4063Y-49.7270
G1X74.2189Y-50.2945
G1X73.9862Y-51.8595
G1X73.4587Y-59.4595
G1X73.0776Y-62.4729
G1X72.3260Y-65.9110
G1X71.2097Y-69.2633
G1X69.6462Y-72.7957
G1X65.2675Y-81.2753
G1X61.6126Y-88.9317
G1X59.8599Y-92.3349
G1X58.6847Y-94.3443
G1X57.2312Y-96.5392
G1X56.0739Y-98.0496
G1X54.7020Y-99.5611
G1X52.7885Y-101.3565
G1X50.9646Y-102.8186
G1X47.7890Y-105.0170
G1X45.2722Y-106.5524
G1X42.9187Y-107.7301
G1X40.6857Y-108.6385
G1X38.4424Y-109.3226
G1X36.1827Y-109.7943
G1X33.8296Y-110.0364
G1X31.5208Y-110.0233
G1X29.3542Y-109.7616
G1X27.2949Y-109.2703
G1X25.2862Y-108.5213
G1X23.4188Y-107.5450
G1X21.7515Y-106.3749
G1X20.2576Y-105.0160
G1X19.3821Y-104.0264
G1X18.5386Y-102.8959
G1X17.8492Y-101.7842
G1X17.2475Y-100.6198
G1X16.7313Y-99.4182
G1X16.2742Y-98.0744
G1X15.8605Y-96.5051
G1X15.6167Y-95.2015
G1X15.3085Y-92.7821
G1X14.8083Y-87.5004
G1X13.7311Y-80.9635
G1X13.6055Y-79.2175
G1X13.7056Y-77.8877
G1X14.0976Y-76.5205
G1X14.6834Y-75.4150
G1X15.5563Y-74.3340
G1X16.1873Y-73.7449
G1X17.0323Y-73.1098
G1X18.9008Y-72.0417
G1X21.1080Y-71.1444
G1X23.8850Y-70.3228
G1X26.5737Y-69.7416
G1X29.5528Y-69.2585
G1X33.2149Y-68.8294
G1X40.4265Y-68.1450
G1X43.6269Y-67.7326
G1X46.1197Y-67.3116
G1X49.7335Y-66.5222
G1X52.8994Y-65.6750
G1X55.6896Y-64.7403
G1X58.5565Y-63.5904
G1X61.5425Y-62.1747
G1X64.1462Y-60.6835
G1X66.8996Y-58.7865
G1X69.2405Y-56.8760
G1X71.1975Y-54.8815
G1X72.9778Y-52.7057
G1X74.4709Y-50.1798
G1X75.0662Y-48.5104
G1X74.8200Y-50.5830
G1X74.6646Y-58.5648
G1X74.3958Y-61.9419
G1X74.1232Y-63.7662
G1X73.7030Y-65.7239
G1X73.2180Y-67.4592
G1X72.6111Y-69.1923
G1X71.8303Y-71.0792
G1X71.0361Y-72.7396
G1X65.9143Y-82.1295
G1X60.3112Y-93.4671
G1X58.8774Y-95.9207
G1X57.7005Y-97.7137
G1X56.2819Y-99.5544
G1X54.8087Y-101.2091
G1X53.2043Y-102.7306
G1X51.2840Y-104.2222
G1X47.8637Y-106.6091
G1X45.1550Y-108.2218
G1X42.8052Y-109.3938
G1X40.5673Y-110.2942
G1X38.1237Y-111.0383
G1X35.7502Y-111.5236
G1X33.3961Y-111.7602
G1X31.0713Y-111.7548
G1X28.7310Y-111.4789
G1X26.5605Y-110.9668
G1X24.4473Y-110.1821
G1X22.5472Y-109.1993
G1X20.7897Y-107.9844
G1X19.2050Y-106.5615
G1X18.2600Y-105.5063
G1X17.4143Y-104.3870
G1X16.6671Y-103.1977
G1X15.9745Y-101.8627
G1X15.4306Y-100.5649
G1X14.9544Y-99.1207
G1X14.6013Y-97.7436
G1X14.3292Y-96.2262
G1X14.0637Y-93.8883
G1X13.8584Y-89.3971
G1X13.6495Y-86.6544
G1X13.3510Y-84.2523
G1X12.6611Y-80.2348
G1X12.5059Y-78.3094
G1X12.6351Y-76.9185
G1X12.9442Y-75.7526
G1X13.5596Y-74.5435
G1X14.3745Y-73.4875
G1X15.0647Y-72.8338
G1X15.9187Y-72.1727
G1X17.7641Y-71.0987
G1X20.2509Y-70.0843
G1X23.0351Y-69.2754
G1X25.9560Y-68.6530
G1X29.1067Y-68.1650
G1X31.6104Y-67.8751
G1X41.3109Y-67.0176
G1X43.5379Y-66.7206
G1X47.0293Y-66.1215
G1X50.1312Y-65.4679
G1X52.8730Y-64.7273
G1X56.0610Y-63.6782
G1X58.9756Y-62.5358
G1X61.8032Y-61.1942
G1X64.7348Y-59.5081
G1X67.4580Y-57.6579
G1X69.5424Y-55.9282
G1X71.9725Y-53.4912
G1X73.2773Y-51.8740
G1X74.8613Y-49.3581
G1X75.2450Y-48.5142
G1X75.6800Y-47.2522
G1X75.5978Y-48.4075
G1X75.5989Y-50.1651
G1X75.8494Y-57.7738
G1X75.7317Y-61.4079
G1X75.4950Y-63.5303
G1X75.1323Y-65.5516
G1X74.6845Y-67.3216
G1X74.0500Y-69.2328
G1X73.2542Y-71.1805
G1X72.2332Y-73.2442
G1X66.2730Y-83.5390
G1X64.9799Y-86.0396
G1X61.8087Y-92.5816
G1X60.0845Y-95.7993
G1X59.0370Y-97.5596
G1X57.8398Y-99.3199
G1X56.5465Y-101.0244
G1X55.3670Y-102.3800
G1X53.5158Y-104.1146
G1X50.5664Y-106.4080
G1X47.9637Y-108.1831
G1X45.2383Y-109.7834
G1X42.8630Y-110.9765
G1X40.3967Y-111.9621
G1X37.9684Y-112.7064
G1X35.5930Y-113.1987
G1X33.1054Y-113.4664
G1X30.7779Y-113.4781
G1X28.3600Y-113.2227
G1X26.0810Y-112.7157
G1X23.8087Y-111.9053
G1X21.8265Y-110.9099
G1X19.9344Y-109.6389
G1X18.2508Y-108.1604
G1X17.2310Y-107.0476
G1X16.2995Y-105.8326
G1X15.4768Y-104.5341
G1X14.7735Y-103.1861
G1X14.1582Y-101.7029
G1X13.6615Y-100.1646
G1X13.3105Y-98.7122
G1X13.0308Y-97.0252
G1X12.8268Y-94.7054
G1X12.7516Y-88.5794
G1X12.6099Y-85.7161
G1X12.3203Y-83.1235
G1X11.6023Y-78.7451
G1X11.5279Y-77.2361
G1X11.6430Y-75.9176
G1X12.0150Y-74.6734
G1X12.6274Y-73.4849
G1X13.4359Y-72.4823
G1X14.1734Y-71.7812
G1X14.9506Y-71.1817
G1X17.0055Y-70.0071
G1X19.4780Y-69.0131
G1X22.6029Y-68.1325
G1X25.4399Y-67.5475
G1X28.7932Y-67.0425
G1X40.1056Y-66.0771
G1X46.8817Y-65.1307
G1X49.6234Y-64.5672
G1X53.1954Y-63.6313
G1X56.1892Y-62.6824
G1X58.7934Y-61.6832
G1X62.1490Y-60.1070
G1X65.3189Y-58.3124
G1X67.7192Y-56.6681
G1X70.1331Y-54.6612
G1X72.2563Y-52.5800
G1X73.9683Y-50.3973
G1X75.2781Y-48.3519
G1X76.0984Y-46.4984
G1X76.2734Y-45.9328
G1X76.3611Y-49.0982
G1X76.9977Y-56.6590
G1X77.0763Y-60.8426
G1X76.9171Y-63.1708
G1X76.6287Y-65.2663
G1X76.1691Y-67.3240
G1X75.5488Y-69.3242
G1X74.6367Y-71.5530
G1X73.2522Y-74.2336
G1X68.4029Y-81.8954
G1X66.5100Y-85.1364
G1X64.7345Y-88.5674
G1X61.8082Y-94.5370
G1X60.4304Y-97.1259
G1X58.0338Y-100.8773
G1X57.0039Y-102.2444
G1X55.9478Y-103.4644
G1X53.9324Y-105.4438
G1X51.6121Y-107.3570
G1X48.9530Y-109.1680
G1X45.4887Y-111.2552
G1X43.0528Y-112.4850
G1X40.3439Y-113.5831
G1X37.8785Y-114.3460
G1X35.3796Y-114.8704
G1X32.8177Y-115.1596
G1X30.3357Y-115.1758
G1X27.7508Y-114.9090
G1X25.4591Y-114.3975
G1X23.1172Y-113.5778
G1X21.1076Y-112.5837
G1X19.0988Y-111.2645
G1X17.3292Y-109.7385
G1X16.2298Y-108.5632
G1X15.2287Y-107.2755
G1X14.3489Y-105.9067
G1X13.5940Y-104.4677
G1X12.9625Y-102.9556
G1X12.4576Y-101.4077
G1X12.0672Y-99.7623
G1X11.7810Y-97.9721
G1X11.6454Y-96.4768
G1X11.5961Y-94.6548
G1X11.7538Y-88.2589
G1X11.6985Y-84.9242
G1X11.4471Y-82.1886
G1X10.7502Y-78.0922
G1X10.6229Y-76.1330
G1X10.7845Y-74.8254
G1X11.1238Y-73.6648
G1X11.6867Y-72.6005
G1X12.4779Y-71.5703
G1X13.1725Y-70.8896
G1X14.0825Y-70.1872
G1X15.0930Y-69.5495
G1X16.2311Y-68.9544
G1X18.7884Y-67.9434
G1X21.9464Y-67.0520
G1X25.1579Y-66.4060
G1X28.5454Y-65.9118
G1X32.2370Y-65.5370
G1X37.0738Y-65.2283
G1X40.3633Y-64.9206
G1X43.6555Y-64.5587
G1X46.2438Y-64.1710
G1X50.0533Y-63.3969
G1X53.4149Y-62.5520
G1X56.2002Y-61.6743
G1X59.1680Y-60.5285
G1X62.4815Y-59.0013
G1X65.3685Y-57.3932
G1X68.1187Y-55.5031
G1X70.8643Y-53.2545
G1X72.7850Y-51.2808
G1X74.8559Y-48.6303
G1X75.8518Y-46.8966
G1X76.5264Y-45.4444
G1X76.8241Y-44.5581
G1X77.0504Y-47.7483
G1X78.0822Y-55.4175
G1X78.3245Y-58.1342
G1X78.4141Y-60.1719
G1X78.3593Y-62.7999
G1X78.1362Y-65.0833
G1X77.7001Y-67.3691
G1X77.0648Y-69.5738
G1X76.0187Y-72.1075
G1X74.6874Y-74.5956
G1X72.9965Y-77.2226
G1X68.9935Y-82.9767
G1X66.9592Y-86.3246
G1X65.5192Y-89.0023
G1X61.9237Y-96.3017
G1X60.1288Y-99.4962
G1X58.2958Y-102.3189
G1X55.9871Y-105.1461
G1X54.0851Y-107.0560
G1X52.2844Y-108.5136
G1X48.4485Y-111.0984
G1X45.4706Y-112.8716
G1X42.7521Y-114.2023
G1X40.0462Y-115.2838
G1X37.4256Y-116.0616
G1X34.8362Y-116.5834
G1X32.2118Y-116.8522
G1X29.6553Y-116.8444
G1X27.1562Y-116.5751
G1X24.7087Y-116.0176
G1X22.4365Y-115.2226
G1X20.2463Y-114.1384
G1X18.2145Y-112.8060
G1X16.3730Y-111.2267
G1X15.2626Y-110.0527
G1X14.1960Y-108.6993
G1X13.2607Y-107.2641
G1X12.4576Y-105.7463
G1X11.8224Y-104.2492
G1X11.2855Y-102.6219
G1X10.8621Y-100.8423
G1X10.5752Y-99.0302
G1X10.4291Y-97.1232
G1X10.4005Y-94.6843
G1X10.8521Y-87.5022
G1X10.8864Y-83.8841
G1X10.7137Y-81.5656
G1X9.9158Y-76.7307
G1X9.8303Y-75.2196
G1X9.9534Y-73.9253
G1X10.2259Y-72.9343
G1X10.8273Y-71.7043
G1X11.5840Y-70.6812
G1X12.3437Y-69.9375
G1X13.2081Y-69.2515
G1X14.2042Y-68.6037
G1X15.2501Y-68.0449
G1X18.0644Y-66.9080
G1X21.2553Y-66.0013
G1X24.7890Y-65.2804
G1X28.4502Y-64.7505
G1X31.0327Y-64.4826
G1X41.4496Y-63.7024
G1X43.8720Y-63.4083
G1X47.2609Y-62.8602
G1X50.5604Y-62.2087
G1X53.3303Y-61.5075
G1X56.7234Y-60.4222
G1X59.8777Y-59.2115
G1X62.8556Y-57.8345
G1X65.6761Y-56.2323
G1X68.6319Y-54.2275
G1X71.0077Y-52.2967
G1X73.0966Y-50.1607
G1X75.0335Y-47.7844
G1X75.7798Y-46.5812
G1X76.7035Y-44.8221
G1X77.3265Y-43.1541
G1X77.6313Y-46.0967
G1X78.9053Y-52.9908
G1X79.3295Y-55.7077
G1X79.6193Y-58.0430
G1X79.7618Y-60.0691
G1X79.8045Y-62.8107
G1X79.6400Y-65.1401
G1X79.2527Y-67.5540
G1X78.6519Y-69.7940
G1X77.6150Y-72.3990
G1X76.4259Y-74.6166
G1X74.8209Y-77.0685
G1X70.3897Y-82.9243
G1X68.1813Y-86.1894
G1X66.2832Y-89.5007
G1X62.8730Y-96.3694
G1X60.5818Y-100.6183
G1X58.5321Y-103.7413
G1X56.4082Y-106.4289
G1X54.6480Y-108.2020
G1X52.4668Y-109.9615
G1X49.1715Y-112.2736
G1X46.0264Y-114.1482
G1X43.0684Y-115.6364
G1X40.3912Y-116.7401
G1X37.4841Y-117.6342
G1X34.5719Y-118.2385
G1X31.8252Y-118.5127
G1X29.0512Y-118.4999
G1X26.5289Y-118.2093
G1X24.0309Y-117.6347
G1X21.6402Y-116.7834
G1X19.3356Y-115.6286
G1X17.3674Y-114.3256
G1X15.5268Y-112.7635
G1X14.3365Y-111.5202
G1X13.2068Y-110.1044
G1X12.2162Y-108.6025
G1X11.3634Y-107.0100
G1X10.6557Y-105.3476
G1X10.1011Y-103.6416
G1X9.6823Y-101.8693
G1X9.3951Y-99.9935
G1X9.2444Y-97.8783
G1X9.2445Y-95.6527
G1X10.0079Y-87.2397
G1X10.1854Y-83.0943
G1X10.0203Y-80.3060
G1X9.2201Y-75.8345
G1X9.1230Y-73.8201
G1X9.2642Y-72.8155
G1X9.6564Y-71.5809
G1X10.1453Y-70.6434
G1X10.7900Y-69.7981
G1X11.5424Y-69.0263
G1X12.4449Y-68.2903
G1X13.4366Y-67.6455
G1X14.6573Y-66.9952
G1X17.4501Y-65.8605
G1X20.9682Y-64.8723
G1X24.3057Y-64.1842
G1X28.2202Y-63.6031
G1X34.1563Y-63.0822
G1X40.4930Y-62.6396
G1X44.6379Y-62.1295
G1X47.6721Y-61.6663
G1X50.6260Y-61.0681
G1X54.1059Y-60.1508
G1X57.2110Y-59.1682
G1X59.9953Y-58.1087
G1X63.1757Y-56.6137
G1X66.3541Y-54.8097
G1X69.0429Y-52.9963
G1X71.3241Y-51.0878
G1X73.8929Y-48.4883
G1X75.2419Y-46.7769
G1X76.9661Y-43.8839
G1X77.7621Y-41.7150
G1X78.2055Y-44.7966
G1X79.7772Y-51.6515
G1X80.5087Y-55.2428
G1X80.8542Y-57.3778
G1X81.1439Y-59.9926
G1X81.2728Y-62.6863
G1X81.1503Y-65.5342
G1X80.8048Y-67.9796
G1X80.2209Y-70.2546
G1X79.6506Y-71.8474
G1X79.0329Y-73.2297
G1X78.2573Y-74.6468
G1X77.1790Y-76.3508
G1X75.7222Y-78.2933
G1X70.6722Y-84.4765
G1X69.3624Y-86.2527
G1X68.2713Y-87.9138
G1X66.1297Y-91.6708
G1X62.5588Y-98.8727
G1X61.3571Y-101.1235
G1X59.0824Y-104.7393
G1X57.1132Y-107.3203
G1X54.9912Y-109.5093
G1X52.3886Y-111.7166
G1X49.9280Y-113.4261
G1X46.6394Y-115.3663
G1X43.5771Y-116.9681
G1X40.8781Y-118.1160
G1X37.7797Y-119.1276
G1X34.8429Y-119.7864
G1X31.9881Y-120.1236
G1X29.1980Y-120.1725
G1X26.5639Y-119.9263
G1X23.8589Y-119.3684
G1X21.4158Y-118.5487
G1X18.9642Y-117.3861
G1X16.8876Y-116.0650
G1X14.8627Y-114.4085
G1X13.5229Y-113.0411
G1X12.2651Y-111.4900
G1X11.2487Y-109.9709
G1X10.3238Y-108.2725
G1X9.5674Y-106.5140
G1X8.9410Y-104.5865
G1X8.5082Y-102.7023
G1X8.2259Y-100.7041
G1X8.0828Y-98.1324
G1X8.1658Y-95.8036
G1X8.4681Y-92.5396
G1X9.3234Y-85.9191
G1X9.5719Y-81.8896
G1X9.4445Y-79.2920
G1X8.5973Y-74.6097
G1X8.4865Y-73.0022
G1X8.6507Y-71.7417
G1X8.9347Y-70.7683
G1X9.4793Y-69.7275
G1X10.1864Y-68.7696
G1X10.9384Y-68.0024
G1X11.9163Y-67.2350
G1X13.0775Y-66.5019
G1X14.3007Y-65.8653
G1X17.0680Y-64.7738
G1X20.7563Y-63.7352
G1X24.5592Y-62.9706
G1X28.5297Y-62.3917
G1X32.5715Y-61.9859
G1X38.9004Y-61.5776
G1X43.8421Y-61.0657
G1X47.0437Y-60.6058
G1X50.7652Y-59.8439
G1X54.3045Y-58.9528
G1X57.2849Y-58.0229
G1X60.0395Y-56.9584
G1X63.6775Y-55.2646
G1X66.9121Y-53.4399
G1X69.5440Y-51.5904
G1X72.1275Y-49.3955
G1X74.1876Y-47.3093
G1X76.0066Y-44.8517
G1X77.2970Y-42.6765
G1X78.0739Y-40.5978
G1X78.1503Y-40.2180
G1X78.3847Y-41.9131
G1X78.8874Y-44.1543
G1X80.4988Y-50.0384
G1X81.6335Y-54.5283
G1X82.1547Y-57.2150
G1X82.5259Y-59.7261
G1X82.7565Y-62.8410
G1X82.7172Y-65.7615
G1X82.4070Y-68.3519
G1X81.8025Y-70.8808
G1X81.2756Y-72.3922
G1X80.6436Y-73.7914
G1X79.7635Y-75.3841
G1X78.8273Y-76.8152
G1X76.4849Y-79.7207
G1X71.2240Y-85.5887
G1X69.8690Y-87.3545
G1X68.5553Y-89.2716
G1X66.8178Y-92.2344
G1X62.9861Y-99.9344
G1X61.2400Y-103.0954
G1X59.4230Y-106.0160
G1X57.4586Y-108.5657
G1X55.2698Y-110.9365
G1X53.1744Y-112.7730
G1X50.7215Y-114.4663
G1X46.5254Y-116.9982
G1X43.6640Y-118.4806
G1X40.5660Y-119.7704
G1X37.5756Y-120.7410
G1X34.6994Y-121.3775
G1X31.8017Y-121.7358
G1X28.9866Y-121.7997
G1X26.1732Y-121.5503
G1X23.5210Y-121.0224
G1X21.0159Y-120.2034
G1X18.5634Y-119.0784
G1X16.3499Y-117.7053
G1X14.2451Y-116.0273
G1X12.8263Y-114.6132
G1X11.4851Y-113.0044
G1X10.3460Y-111.3404
G1X9.3247Y-109.4921
G1X8.4954Y-107.5786
G1X8.0000Y-106.0676
G1 Z0F20000
(Start Block)

G1X8.0000Y-89.6256
G1Z6F20000
(Plotting speed under)
G1 F8000

G1X8.6374Y-85.3715
G1X8.9208Y-82.8287
G1X9.0500Y-80.8273
G1X9.0416Y-79.3337
G1X8.9157Y-77.7946
G1X8.0359Y-73.4950
G1X8.0000Y-72.2930
G1 Z0F20000
(Start Block)

G1X8.0000Y-71.3211
G1Z6F20000
(Plotting speed under)
G1 F8000

G1X8.1235Y-70.5570
G1X8.4541Y-69.6326
G1X8.9139Y-68.7387
G1X9.4740Y-67.9511
G1X10.2185Y-67.1770
G1X11.1781Y-66.3852
G1X12.3090Y-65.6328
G1X13.4716Y-65.0038
G1X14.8852Y-64.3761
G1X16.5444Y-63.7601
G1X20.1268Y-62.7222
G1X24.3382Y-61.8395
G1X28.7252Y-61.1746
G1X31.4162Y-60.8834
G1X42.1052Y-60.0597
G1X44.7223Y-59.7421
G1X47.5575Y-59.2703
G1X51.3191Y-58.5243
G1X54.4912Y-57.7221
G1X57.6716Y-56.6864
G1X60.8394Y-55.4524
G1X64.1864Y-53.8923
G1X67.0604Y-52.2374
G1X70.0048Y-50.1678
G1X72.7638Y-47.8491
G1X74.7324Y-45.7080
G1X76.8202Y-42.8685
G1X77.7356Y-41.0629
G1X78.3808Y-39.3975
G1X78.5223Y-38.6895
G1X78.6980Y-40.0702
G1X79.4040Y-42.9668
G1X82.6689Y-53.5788
G1X83.4114Y-56.7502
G1X83.8886Y-59.3527
G1X84.2575Y-62.8255
G1X84.3113Y-65.8178
G1X84.0457Y-68.7185
G1X83.4583Y-71.4424
G1X82.9223Y-73.0070
G1X82.1773Y-74.6576
G1X81.3485Y-76.1382
G1X80.3155Y-77.6105
G1X78.1871Y-80.1279
G1X72.4475Y-85.9352
G1X70.5312Y-88.2054
G1X69.0986Y-90.1639
G1X67.8665Y-92.1497
G1X66.4321Y-94.7500
G1X64.0100Y-99.7085
G1X61.4373Y-104.5738
G1X59.6281Y-107.3885
G1X57.5900Y-110.0974
G1X55.6939Y-112.1719
G1X53.6309Y-113.9408
G1X50.1061Y-116.4144
G1X46.9036Y-118.3542
G1X43.6538Y-119.9969
G1X40.3015Y-121.3979
G1X37.4482Y-122.3065
G1X34.3743Y-122.9808
G1X31.5427Y-123.3351
G1X28.7456Y-123.3988
G1X25.7655Y-123.1514
G1X23.1548Y-122.6355
G1X20.5028Y-121.7827
G1X18.1946Y-120.7410
G1X15.8070Y-119.2917
G1X13.7173Y-117.6577
G1X12.1907Y-116.1712
G1X10.7587Y-114.4940
G1X9.4999Y-112.6893
G1X8.4222Y-110.7764
G1X8.0000Y-109.8256
G1 Z0F20000
(Start Block)

G1X8.0000Y-84.6716
G1Z6F20000
(Plotting speed under)
G1 F8000

G1X8.1092Y-84.0419
G1X8.4424Y-81.5505
G1X8.6062Y-79.4557
G1X8.6199Y-77.9964
G1X8.5322Y-76.8407
G1X8.1906Y-74.9551
G1X8.0000Y-74.1921
G1 Z0F20000
(Start Block)

G1X8.0000Y-68.5665
G1Z6F20000
(Plotting speed under)
G1 F8000

G1X8.3323Y-67.8822
G1X8.8446Y-67.1586
G1X9.6189Y-66.3068
G1X10.5739Y-65.4822
G1X11.6175Y-64.7716
G1X12.8686Y-64.0835
G1X14.3786Y-63.3948
G1X16.0784Y-62.7438
G1X19.7896Y-61.6593
G1X23.9602Y-60.7418
G1X28.5758Y-59.9967
G1X31.9773Y-59.6371
G1X41.6620Y-58.8601
G1X45.6275Y-58.3262
G1X48.8402Y-57.8018
G1X51.9941Y-57.1374
G1X55.1063Y-56.2796
G1X58.4157Y-55.1948
G1X61.4269Y-54.0181
G1X64.5441Y-52.5199
G1X67.6810Y-50.6754
G1X70.7577Y-48.5148
G1X72.8879Y-46.6676
G1X75.0739Y-44.3096
G1X76.2741Y-42.8232
G1X76.8915Y-41.9214
G1X77.5774Y-40.6831
G1X78.4685Y-38.7187
G1X78.6691Y-38.1212
G1X78.8578Y-37.1301
G1X78.9293Y-38.0733
G1X79.5940Y-40.8427
G1X83.3432Y-51.6164
G1X84.5430Y-55.8086
G1X85.2352Y-58.9712
G1X85.7562Y-62.6918
G1X85.9034Y-65.9920
G1X85.6933Y-69.2264
G1X85.4615Y-70.6646
G1X85.1236Y-72.0850
G1X84.5179Y-73.8940
G1X83.6985Y-75.6955
G1X82.7967Y-77.1810
G1X81.5145Y-78.8840
G1X79.6670Y-80.8732
G1X74.7349Y-85.3647
G1X72.6617Y-87.4130
G1X71.0275Y-89.2265
G1X69.4865Y-91.2790
G1X68.2708Y-93.1511
G1X67.2346Y-94.9570
G1X63.2398Y-103.0256
G1X62.2222Y-104.9328
G1X60.0462Y-108.4621
G1X58.2564Y-110.9434
G1X56.3035Y-113.1117
G1X53.9252Y-115.2722
G1X51.4739Y-117.1453
G1X48.6849Y-118.8825
G1X44.5894Y-121.0465
G1X41.1414Y-122.5901
G1X37.8649Y-123.6940
G1X34.4975Y-124.4894
G1X31.6012Y-124.8811
G1X28.5477Y-124.9758
G1X25.6742Y-124.7708
G1X22.9599Y-124.2604
G1X20.2133Y-123.4188
G1X17.8679Y-122.3804
G1X15.3707Y-120.9051
G1X13.2630Y-119.2837
G1X11.5160Y-117.6129
G1X10.0582Y-115.9206
G1X8.7165Y-114.0223
G1X8.0000Y-112.7676
G1 Z0F20000
(Start Block)

G1X8.0000Y-80.3547
G1Z6F20000
(Plotting speed under)
G1 F8000

G1X8.0277Y-80.1714
G1X8.2377Y-78.1020
G1X8.2657Y-76.7549
G1X8.1588Y-75.3791
G1X8.0000Y-74.4258
G1 Z0F20000
(Start Block)

G1X8.0000Y-66.7967
G1Z6F20000
(Plotting speed under)
G1 F8000

G1X8.4610Y-66.1292
G1X9.2278Y-65.2787
G1X10.1660Y-64.4928
G1X11.3490Y-63.7091
G1X12.8171Y-62.9167
G1X14.2692Y-62.2665
G1X15.8874Y-61.6655
G1X20.1673Y-60.4183
G1X24.5756Y-59.4621
G1X29.2306Y-58.7038
G1X33.8323Y-58.1744
G1X40.4253Y-57.6865
G1X45.2730Y-57.0999
G1X48.4651Y-56.5961
G1X51.8362Y-55.8599
G1X55.5382Y-54.8712
G1X58.5327Y-53.9065
G1X61.2329Y-52.8476
G1X64.7987Y-51.1377
G1X68.1805Y-49.1798
G1X70.7676Y-47.3612
G1X73.2239Y-45.2097
G1X75.6321Y-42.6746
G1X77.0446Y-40.7207
G1X78.6175Y-37.7493
G1X78.8977Y-36.8977
G1X79.1537Y-35.5742
G1X79.1041Y-35.9053
G1X79.3062Y-37.0484
G1X79.8199Y-39.0815
G1X81.5163Y-43.6875
G1X83.5437Y-48.7384
G1X84.7354Y-52.0785
G1X85.8431Y-55.5900
G1X86.6496Y-58.9697
G1X87.2782Y-62.8456
G1X87.5052Y-66.5236
G1X87.4755Y-68.2068
G1X87.3477Y-69.8349
G1X87.1157Y-71.3903
G1X86.7845Y-72.8656
G1X86.1666Y-74.7898
G1X85.4497Y-76.3730
G1X84.4704Y-77.9941
G1X83.2061Y-79.6617
G1X82.0185Y-80.9022
G1X80.1373Y-82.6263
G1X76.7101Y-85.3921
G1X73.3635Y-88.2987
G1X71.4514Y-90.3275
G1X69.7684Y-92.4506
G1X68.6698Y-94.1051
G1X67.4969Y-96.1778
G1X66.0801Y-98.9004
G1X63.9270Y-103.4147
G1X62.0154Y-106.9417
G1X60.4932Y-109.4816
G1X59.0274Y-111.5329
G1X56.9367Y-114.0180
G1X54.7446Y-116.2050
G1X52.7816Y-117.7868
G1X50.3396Y-119.3669
G1X45.8696Y-121.8933
G1X42.4052Y-123.5580
G1X38.5976Y-124.9536
G1X34.9071Y-125.9173
G1X31.7749Y-126.3844
G1X28.6699Y-126.5350
G1X25.8416Y-126.3847
G1X22.9353Y-125.8946
G1X20.2442Y-125.1317
G1X17.6450Y-124.0298
G1X15.2160Y-122.6533
G1X12.9352Y-120.9513
G1X11.0951Y-119.2443
G1X9.4994Y-117.4294
G1X8.0000Y-115.3437
G1 Z0F20000
(Start Block)

G1X8.0000Y-65.2456
G1Z6F20000
(Plotting speed under)
G1 F8000

G1X8.0086Y-65.2324
G1X8.7733Y-64.3915
G1X9.7740Y-63.5475
G1X10.9762Y-62.7312
G1X12.3159Y-61.9917
G1X13.7563Y-61.3418
G1X15.5533Y-60.6599
G1X19.7360Y-59.3898
G1X25.0129Y-58.2035
G1X30.2116Y-57.3181
G1X32.7933Y-56.9954
G1X37.7206Y-56.6105
G1X43.0201Y-56.0679
G1X47.8201Y-55.3643
G1X52.0674Y-54.4677
G1X55.6467Y-53.5353
G1X58.6274Y-52.5523
G1X61.8732Y-51.2465
G1X65.5394Y-49.4822
G1X68.6411Y-47.6531
G1X71.5308Y-45.5151
G1X74.3760Y-42.9629
G1X75.4283Y-41.8436
G1X76.3830Y-40.6369
G1X77.3400Y-39.2204
G1X78.3716Y-37.4843
G1X79.0259Y-35.8887
G1X79.4110Y-34.2715
G1X79.3692Y-33.9946
G1X79.3319Y-34.2188
G1X79.5936Y-35.9461
G1X80.3774Y-38.4044
G1X81.5675Y-41.4360
G1X83.6220Y-46.0783
G1X84.9239Y-49.2363
G1X86.6414Y-53.8127
G1X87.9546Y-58.4869
G1X88.4162Y-60.6278
G1X88.7427Y-62.6071
G1X89.0306Y-65.2791
G1X89.1295Y-67.8393
G1X89.0400Y-70.0765
G1X88.7572Y-72.2943
G1X88.2930Y-74.3371
G1X87.6771Y-76.1041
G1X86.8419Y-77.8053
G1X85.7683Y-79.4660
G1X84.5074Y-80.9211
G1X82.6478Y-82.6655
G1X75.2113Y-88.2223
G1X73.0390Y-90.1612
G1X71.4247Y-91.8395
G1X69.8497Y-93.8654
G1X68.2362Y-96.4138
G1X67.1392Y-98.4113
G1X65.1323Y-102.6066
G1X62.3427Y-108.0746
G1X60.9029Y-110.4286
G1X58.9175Y-113.2369
G1X56.8541Y-115.7115
G1X54.8177Y-117.6396
G1X52.3386Y-119.4939
G1X48.5509Y-121.9129
G1X46.0950Y-123.2754
G1X43.6504Y-124.4575
G1X40.8658Y-125.6145
G1X38.2914Y-126.5150
G1X36.0088Y-127.1474
G1X33.6835Y-127.6150
G1X31.2647Y-127.9292
G1X28.9186Y-128.0640
G1X26.7418Y-128.0148
G1X24.5232Y-127.7811
G1X22.2270Y-127.3485
G1X20.2165Y-126.7785
G1X18.2290Y-126.0100
G1X16.1700Y-125.0012
G1X14.4251Y-123.9253
G1X12.6554Y-122.5967
G1X10.7753Y-120.8984
G1X9.0120Y-118.9298
G1X8.0000Y-117.5522
G1 Z0F20000
(Start Block)

G1X8.0000Y-63.9351
G1Z6F20000
(Plotting speed under)
G1 F8000

G1X8.2790Y-63.6073
G1X9.2453Y-62.7284
G1X10.3274Y-61.9499
G1X11.5327Y-61.2547
G1X13.2142Y-60.4562
G1X15.0931Y-59.7045
G1X19.1770Y-58.4143
G1X24.5731Y-57.1046
G1X29.9745Y-56.0912
G1X33.1432Y-55.6817
G1X43.7244Y-54.6233
G1X50.3771Y-53.4750
G1X53.6041Y-52.7349
G1X56.3380Y-51.9395
G1X59.7854Y-50.7362
G1X62.8878Y-49.4614
G1X65.9835Y-47.9340
G1X68.9652Y-46.1164
G1X71.9700Y-43.9176
G1X73.4613Y-42.6643
G1X74.4450Y-41.7254
G1X75.4755Y-40.6002
G1X76.5043Y-39.3234
G1X78.3906Y-36.5417
G1X78.9669Y-35.2692
G1X79.5490Y-33.3995
G1X79.6561Y-32.8095
G1X79.5563Y-32.3973
G1X79.5696Y-33.3552
G1X79.7079Y-34.1954
G1X80.2062Y-35.8250
G1X80.8793Y-37.6587
G1X81.7175Y-39.6216
G1X85.9854Y-48.7791
G1X87.6583Y-52.9795
G1X89.2013Y-57.8349
G1X89.7027Y-59.8527
G1X90.1440Y-62.0974
G1X90.5373Y-64.9142
G1X90.7340Y-67.6351
G1X90.7209Y-70.1643
G1X90.5113Y-72.5365
G1X90.1175Y-74.6770
G1X89.5471Y-76.5675
G1X88.7210Y-78.4499
G1X87.7270Y-80.0742
G1X86.3741Y-81.6731
G1X84.6288Y-83.2962
G1X81.0805Y-85.7806
G1X77.5033Y-88.0657
G1X75.7061Y-89.3688
G1X73.4991Y-91.1494
G1X71.7454Y-92.9237
G1X70.1159Y-94.9415
G1X68.6225Y-97.2114
G1X66.0188Y-102.2871
G1X63.2664Y-107.9937
G1X61.1123Y-111.6439
G1X59.3328Y-114.2787
G1X57.3969Y-116.5997
G1X55.0535Y-118.8591
G1X52.1552Y-121.1670
G1X49.5605Y-122.8528
G1X47.1121Y-124.1859
G1X43.8709Y-125.7616
G1X41.2700Y-126.8891
G1X38.9138Y-127.7588
G1X36.5869Y-128.4380
G1X34.0782Y-128.9946
G1X31.5965Y-129.3716
G1X29.2969Y-129.5493
G1X26.9283Y-129.5375
G1X24.5477Y-129.3327
G1X22.2772Y-128.9475
G1X20.1841Y-128.3823
G1X18.0320Y-127.5865
G1X16.1081Y-126.6776
G1X14.2740Y-125.5757
G1X12.3402Y-124.1618
G1X10.3073Y-122.3255
G1X8.3695Y-120.1518
G1X8.0000Y-119.6440
G1 Z0F20000
(Start Block)

G1X8.0000Y-62.6357
G1Z6F20000
(Plotting speed under)
G1 F8000

G1X8.1260Y-62.4875
G1X9.0724Y-61.6582
G1X10.3482Y-60.7998
G1X11.8646Y-59.9683
G1X13.5841Y-59.1780
G1X15.3509Y-58.4946
G1X20.1623Y-57.0142
G1X25.4621Y-55.7108
G1X31.0346Y-54.6387
G1X36.1006Y-53.9231
G1X42.8589Y-53.3030
G1X47.3045Y-52.6319
G1X50.4660Y-52.0466
G1X53.3103Y-51.3684
G1X57.0375Y-50.2749
G1X60.1180Y-49.2111
G1X62.8778Y-48.0818
G1X66.2940Y-46.3610
G1X69.6144Y-44.3383
G1X72.3600Y-42.3393
G1X74.6123Y-40.2702
G1X76.9243Y-37.6297
G1X77.7424Y-36.5469
G1X78.3746Y-35.5179
G1X79.0223Y-34.1602
G1X79.7104Y-32.3332
G1X79.8534Y-31.5791
G1X79.7743Y-30.7900
G1X79.6621Y-31.4377
G1X79.7392Y-32.1362
G1X80.1767Y-33.7857
G1X80.6880Y-35.2840
G1X81.8744Y-37.9497
G1X86.5927Y-47.3524
G1X88.2541Y-51.1647
G1X89.3985Y-54.1046
G1X90.2731Y-56.6798
G1X90.9796Y-59.2325
G1X91.5570Y-61.8522
G1X92.0487Y-64.8937
G1X92.3091Y-67.6640
G1X92.3634Y-70.4429
G1X92.1963Y-73.1219
G1X91.8158Y-75.4559
G1X91.2264Y-77.5615
G1X90.4745Y-79.3721
G1X89.4778Y-81.0234
G1X87.9548Y-82.8399
G1X86.4560Y-84.1378
G1X83.5859Y-86.0625
G1X79.7556Y-88.2108
G1X76.0034Y-90.5496
G1X73.7222Y-92.3441
G1X71.7094Y-94.3078
G1X70.1406Y-96.2599
G1X68.6244Y-98.6862
G1X67.1651Y-101.3915
G1X64.9462Y-106.1993
G1X63.1462Y-109.6761
G1X61.6030Y-112.4433
G1X60.2606Y-114.4986
G1X57.8675Y-117.5038
G1X55.4180Y-120.0585
G1X53.2047Y-121.9204
G1X50.5231Y-123.6633
G1X44.5778Y-126.8402
G1X42.1709Y-127.9406
G1X40.0183Y-128.7808
G1X37.3140Y-129.6416
G1X34.6683Y-130.3029
G1X32.1690Y-130.7473
G1X29.7871Y-130.9808
G1X27.2339Y-131.0287
G1X24.6993Y-130.8720
G1X22.5432Y-130.5470
G1X20.3846Y-130.0187
G1X18.1786Y-129.2728
G1X16.3042Y-128.4376
G1X14.3102Y-127.2989
G1X12.3644Y-125.9430
G1X10.2472Y-124.0879
G1X8.0855Y-121.7318
G1X8.0000Y-121.6157
G1 Z0F20000
(Start Block)

G1X8.0000Y-61.4099
G1Z6F20000
(Plotting speed under)
G1 F8000

G1X8.9250Y-60.6284
G1X10.2743Y-59.7172
G1X11.7603Y-58.8959
G1X13.2960Y-58.1933
G1X15.2386Y-57.4402
G1X20.2342Y-55.8370
G1X26.5846Y-54.2341
G1X32.6612Y-52.9914
G1X35.2285Y-52.6008
G1X40.2328Y-52.1312
G1X44.5240Y-51.5755
G1X47.5382Y-51.1250
G1X50.1268Y-50.6291
G1X53.9764Y-49.6865
G1X57.4034Y-48.6949
G1X60.2705Y-47.6973
G1X63.0712Y-46.5158
G1X66.8321Y-44.6284
G1X70.1355Y-42.6234
G1X72.7151Y-40.6672
G1X75.2427Y-38.3155
G1X77.2511Y-36.0564
G1X78.0251Y-34.9303
G1X78.7445Y-33.6652
G1X79.6201Y-31.8188
G1X79.8754Y-31.1104
G1X80.0180Y-30.2717
G1X79.9948Y-29.2185
G1X79.8690Y-29.3001
G1X79.7882Y-29.5046
G1X79.8169Y-30.2673
G1X80.1471Y-31.8924
G1X80.6540Y-33.4379
G1X81.6063Y-35.5508
G1X83.3400Y-38.9586
G1X86.9526Y-45.5978
G1X89.6569Y-51.3619
G1X90.7007Y-53.9212
G1X91.5295Y-56.3208
G1X92.3380Y-59.0942
G1X93.0176Y-61.9469
G1X93.5450Y-64.8978
G1X93.8673Y-67.8901
G1X93.9771Y-70.9193
G1X93.8591Y-73.6726
G1X93.5038Y-76.2067
G1X92.9303Y-78.4881
G1X92.1988Y-80.3463
G1X91.1739Y-82.1206
G1X90.4237Y-83.1171
G1X89.6667Y-83.9233
G1X88.6804Y-84.7683
G1X87.4401Y-85.6605
G1X85.5712Y-86.8076
G1X79.3025Y-89.9497
G1X77.4292Y-90.9857
G1X74.5106Y-92.9874
G1X73.3341Y-93.9536
G1X72.3790Y-94.8655
G1X70.5305Y-97.0538
G1X68.7617Y-99.7338
G1X67.8307Y-101.4858
G1X64.0411Y-109.4828
G1X62.9182Y-111.6914
G1X61.2240Y-114.4642
G1X59.1684Y-117.3811
G1X57.0363Y-119.9264
G1X54.9897Y-121.8464
G1X52.4215Y-123.7428
G1X48.5241Y-126.1735
G1X46.0582Y-127.5205
G1X43.5118Y-128.7381
G1X40.9002Y-129.8077
G1X38.1911Y-130.7540
G1X35.7530Y-131.4522
G1X33.5155Y-131.9383
G1X31.1598Y-132.2789
G1X28.8318Y-132.4558
G1X26.4911Y-132.4723
G1X24.3402Y-132.3200
G1X22.1292Y-131.9712
G1X19.9435Y-131.4382
G1X18.0323Y-130.8036
G1X16.1646Y-129.9777
G1X14.2543Y-128.9194
G1X12.4954Y-127.7429
G1X10.1819Y-125.7734
G1X8.0000Y-123.4579
G1 Z0F20000
(Start Block)

G1X8.0000Y-60.2685
G1Z6F20000
(Plotting speed under)
G1 F8000

G1X8.6121Y-59.7175
G1X9.7813Y-58.8842
G1X11.1333Y-58.1107
G1X12.9689Y-57.2457
G1X15.2415Y-56.3309
G1X17.5295Y-55.5187
G1X20.2063Y-54.6901
G1X27.0537Y-52.8450
G1X32.5506Y-51.6149
G1X35.6301Y-51.1293
G1X46.1145Y-49.8143
G1X50.8708Y-48.8948
G1X54.0274Y-48.1419
G1X56.8126Y-47.3559
G1X59.2139Y-46.5421
G1X61.9564Y-45.4663
G1X65.1188Y-44.0393
G1X67.9669Y-42.5289
G1X70.3556Y-41.0085
G1X72.7690Y-39.1942
G1X75.0051Y-37.2374
G1X76.5934Y-35.5803
G1X78.0106Y-33.6809
G1X79.4181Y-31.3113
G1 Z0F20000

G00 X0.0000 Y0.0000

