$H
G21
G17
G90
G1 Z0F20000
G1 F15000

(Start Layer)

(Start Block)


G1X19.1663Y-107.2979
G1Z6F20000
(Plotting speed under)
G1 F4000


G1X21.9457Y-107.3748

G1X27.1572Y-107.3548

G1X32.1371Y-106.9440

G1X33.0636Y-107.0163

G1X34.8504Y-107.3767

G1X35.6115Y-107.4369

G1X36.4387Y-107.3325

G1X37.8284Y-106.9519

G1X38.5067Y-106.8807

G1X39.3174Y-107.0053

G1X40.6079Y-107.4235

G1X41.2862Y-107.5045

G1X42.0969Y-107.3664

G1X43.4866Y-106.8889

G1X44.1814Y-106.8094

G1X44.9756Y-106.9422

G1X46.5639Y-107.4783

G1X47.4242Y-107.5790

G1X48.3506Y-107.4563

G1X50.7331Y-106.8600

G1X52.7515Y-106.7298

G1X57.1523Y-106.7969

G1X58.1780Y-106.9946

G1X59.8656Y-107.5183

G1X60.3950Y-107.5773

G1X60.9575Y-107.5041

G1X62.2480Y-106.9335

G1X62.8436Y-106.8104

G1X63.3399Y-106.9267

G1X64.3326Y-107.4254

G1X64.7296Y-107.4901

G1X65.1267Y-107.4286

G1X66.0201Y-106.9730

G1X66.4172Y-106.8807

G1X67.8069Y-107.4350

G1X68.1047Y-107.3872

G1X69.1966Y-106.9475

G1X70.5863Y-107.3782

G1X71.9761Y-107.0022

G1X73.2666Y-107.3132

G1X74.4081Y-107.0689

G1X75.5663Y-107.2704

G1X76.9560Y-107.0911

G1X78.2299Y-107.2449

G1X79.6196Y-107.1210

G1X81.0094Y-107.2157

G1X82.5149Y-107.1482

G1X85.8734Y-107.1692

G1 Z0F20000

(Start Block)


G1X19.1663Y-105.9356
G1Z6F20000
(Plotting speed under)
G1 F4000


G1X22.1774Y-106.1398

G1X25.5359Y-106.1820

G1X27.8521Y-106.1056

G1X31.9055Y-105.7996

G1X32.7658Y-105.8681

G1X34.5526Y-106.2136

G1X35.3798Y-106.2903

G1X36.1409Y-106.2129

G1X37.8284Y-105.7744

G1X38.3909Y-105.7366

G1X39.0196Y-105.8284

G1X40.5086Y-106.2981

G1X41.0546Y-106.3559

G1X41.6998Y-106.2668

G1X43.2881Y-105.7233

G1X43.8340Y-105.6652

G1X44.4793Y-105.7557

G1X46.1668Y-106.3488

G1X46.8451Y-106.4332

G1X47.7550Y-106.2995

G1X49.6411Y-105.7108

G1X50.7827Y-105.5840

G1X54.8361Y-105.8847

G1X56.1100Y-105.8289

G1X58.0788Y-105.6079

G1X58.9722Y-105.5975

G1X59.7663Y-105.7421

G1X61.3546Y-106.3482

G1X61.9005Y-106.4289

G1X62.4465Y-106.3396

G1X63.5384Y-105.7957

G1X64.1340Y-105.6702

G1X64.5311Y-105.7495

G1X65.5238Y-106.2773

G1X65.8216Y-106.3481

G1X66.3179Y-106.2545

G1X67.0252Y-105.8575

G1X67.5091Y-105.7578

G1X67.8069Y-105.7916

G1X68.5017Y-106.1661

G1X68.9981Y-106.2701

G1X69.2959Y-106.2270

G1X69.8915Y-105.9117

G1X70.3878Y-105.8215

G1X70.6856Y-105.8641

G1X71.2812Y-106.1552

G1X71.6783Y-106.2018

G1X71.9761Y-106.1723

G1X72.5717Y-105.9137

G1X72.8695Y-105.8743

G1X74.1600Y-106.1741

G1X75.4504Y-105.9010

G1X76.7409Y-106.1300

G1X78.1141Y-105.9511

G1X79.2722Y-106.0893

G1X80.6619Y-105.9805

G1X82.1675Y-106.0670

G1X83.7888Y-105.9993

G1X85.8734Y-106.0473

G1 Z0F20000

(Start Block)


G1X19.1663Y-104.6547
G1Z6F20000
(Plotting speed under)
G1 F4000


G1X23.2197Y-104.8978

G1X25.4201Y-104.9481

G1X27.5047Y-104.9007

G1X31.6739Y-104.6537

G1X32.5673Y-104.7232

G1X34.4533Y-105.0748

G1X35.2640Y-105.1444

G1X35.9423Y-105.0840

G1X37.6299Y-104.6460

G1X38.2751Y-104.5906

G1X38.9203Y-104.6850

G1X40.4093Y-105.1584

G1X40.9388Y-105.2093

G1X41.6005Y-105.1024

G1X42.9903Y-104.5991

G1X43.5859Y-104.5166

G1X44.2807Y-104.6278

G1X45.5712Y-105.1322

G1X46.3819Y-105.2862

G1X47.1595Y-105.1821

G1X48.9462Y-104.5532

G1X49.8562Y-104.4367

G1X50.7331Y-104.5238

G1X53.3140Y-105.0751

G1X55.2993Y-105.2232

G1X57.4832Y-105.0920

G1X59.9648Y-104.5133

G1X60.6266Y-104.4374

G1X61.4538Y-104.5657

G1X62.8436Y-105.1879

G1X63.3399Y-105.2803

G1X63.8362Y-105.2028

G1X64.9282Y-104.6230

G1X65.4245Y-104.5308

G1X65.8216Y-104.6046

G1X66.7150Y-105.0998

G1X67.1120Y-105.2125

G1X68.6010Y-104.5968

G1X69.1966Y-104.7627

G1X69.6930Y-105.0489

G1X69.9907Y-105.1303

G1X70.5863Y-104.9910

G1X71.0827Y-104.7288

G1X71.3805Y-104.6604

G1X72.6709Y-105.0834

G1X74.0607Y-104.7083

G1X75.3512Y-105.0199

G1X76.4927Y-104.7759

G1X77.6509Y-104.9779

G1X79.0406Y-104.7980

G1X80.3145Y-104.9513

G1X81.7042Y-104.8288

G1X83.2098Y-104.9222

G1X85.8734Y-104.8796

G1 Z0F20000

(Start Block)


G1X19.1663Y-103.5614
G1Z6F20000
(Plotting speed under)
G1 F4000


G1X20.9034Y-103.5089

G1X26.2308Y-103.7146

G1X31.5581Y-103.5088

G1X35.2640Y-103.9975

G1X35.9423Y-103.9307

G1X37.5306Y-103.5128

G1X38.1593Y-103.4429

G1X38.7218Y-103.5013

G1X40.1115Y-103.9554

G1X40.8064Y-104.0649

G1X41.5013Y-103.9548

G1X42.7917Y-103.4625

G1X43.4866Y-103.3710

G1X44.1814Y-103.5170

G1X45.4719Y-104.0409

G1X46.1668Y-104.1395

G1X46.9609Y-103.9804

G1X48.4499Y-103.3977

G1X49.2771Y-103.2922

G1X50.0382Y-103.4047

G1X52.3213Y-104.0794

G1X54.0254Y-104.2241

G1X59.2369Y-104.1717

G1X60.1634Y-103.9843

G1X61.7516Y-103.4111

G1X62.3472Y-103.2956

G1X63.0421Y-103.3914

G1X64.2333Y-103.9987

G1X64.8289Y-104.1349

G1X65.2260Y-104.0619

G1X66.2186Y-103.4992

G1X66.6157Y-103.3891

G1X67.1120Y-103.4633

G1X67.8069Y-103.8882

G1X68.4025Y-104.0567

G1X68.7003Y-103.9815

G1X69.5937Y-103.5029

G1X69.8915Y-103.4425

G1X70.9834Y-103.9333

G1X71.2812Y-103.9968

G1X72.5717Y-103.5130

G1X72.8695Y-103.5677

G1X73.3658Y-103.8097

G1X73.9615Y-103.9183

G1X74.7556Y-103.6242

G1X75.1030Y-103.5894

G1X75.4504Y-103.6210

G1X76.2446Y-103.8735

G1X77.5350Y-103.6098

G1X78.9248Y-103.8417

G1X80.1987Y-103.6536

G1X81.5884Y-103.8013

G1X82.9781Y-103.6837

G1X84.4837Y-103.7771

G1X85.8734Y-103.7111

G1 Z0F20000

(Start Block)


G1X19.1663Y-102.5881
G1Z6F20000
(Plotting speed under)
G1 F4000


G1X21.4825Y-102.3602

G1X26.5782Y-102.5095

G1X31.4423Y-102.3605

G1X32.5673Y-102.4448

G1X34.4533Y-102.7835

G1X35.2640Y-102.8513

G1X35.9423Y-102.7927

G1X37.6299Y-102.3526

G1X38.2751Y-102.2983

G1X38.9203Y-102.4008

G1X40.3101Y-102.8606

G1X40.8064Y-102.9182

G1X41.5013Y-102.7962

G1X42.7917Y-102.2941

G1X43.3873Y-102.2259

G1X43.9829Y-102.3505

G1X45.3727Y-102.9191

G1X45.9186Y-102.9903

G1X46.5639Y-102.8766

G1X48.1521Y-102.2248

G1X48.8139Y-102.1476

G1X49.5419Y-102.2809

G1X51.2294Y-102.9079

G1X52.0566Y-103.0625

G1X52.9831Y-103.0460

G1X55.4151Y-102.6784

G1X56.9207Y-102.5927

G1X58.1780Y-102.6690

G1X60.3950Y-103.0307

G1X61.0899Y-103.0752

G1X61.9502Y-102.9409

G1X63.5384Y-102.2484

G1X64.1340Y-102.1475

G1X64.6304Y-102.2545

G1X65.6354Y-102.8208

G1X66.2186Y-102.9862

G1X66.6157Y-102.9152

G1X67.6084Y-102.3260

G1X67.9062Y-102.2389

G1X68.5017Y-102.3686

G1X69.1098Y-102.7753

G1X69.5937Y-102.8915

G1X69.9783Y-102.8229

G1X70.5863Y-102.4332

G1X71.0827Y-102.3196

G1X71.3681Y-102.3652

G1X71.9761Y-102.7300

G1X72.4724Y-102.8215

G1X72.7702Y-102.7678

G1X73.3658Y-102.4344

G1X73.6636Y-102.3931

G1X74.0607Y-102.4376

G1X74.8548Y-102.7717

G1X75.4504Y-102.6702

G1X76.1453Y-102.4171

G1X77.5350Y-102.7386

G1X78.8255Y-102.4733

G1X79.9671Y-102.6793

G1X81.2410Y-102.5122

G1X82.5149Y-102.6519

G1X84.1362Y-102.5392

G1X85.8734Y-102.6291

G1 Z0F20000

(Start Block)


G1X19.1663Y-101.6084
G1Z6F20000
(Plotting speed under)
G1 F4000


G1X20.9531Y-101.3213

G1X22.1774Y-101.2203

G1X27.1572Y-101.3346

G1X31.4423Y-101.2117

G1X32.6665Y-101.2917

G1X34.7511Y-101.6571

G1X35.4956Y-101.7033

G1X36.1409Y-101.6345

G1X37.7291Y-101.2085

G1X38.2751Y-101.1504

G1X38.8211Y-101.2049

G1X40.2108Y-101.6707

G1X40.8064Y-101.7711

G1X41.4020Y-101.6897

G1X42.6924Y-101.1731

G1X43.2881Y-101.0795

G1X43.8837Y-101.1869

G1X45.2734Y-101.7724

G1X45.7697Y-101.8447

G1X46.3653Y-101.7437

G1X47.7550Y-101.1212

G1X48.4499Y-100.9980

G1X49.1448Y-101.1277

G1X50.8323Y-101.8244

G1X51.5934Y-101.9290

G1X52.5198Y-101.7998

G1X55.1008Y-101.1120

G1X57.4997Y-100.9540

G1X58.8895Y-100.9915

G1X59.9648Y-101.1144

G1X62.3472Y-101.8136

G1X63.0421Y-101.9281

G1X63.7370Y-101.8256

G1X65.0274Y-101.1658

G1X65.6230Y-100.9989

G1X66.1194Y-101.1034

G1X67.1120Y-101.6935

G1X67.7076Y-101.8397

G1X68.0054Y-101.7597

G1X68.9981Y-101.1499

G1X69.2959Y-101.0836

G1X69.8915Y-101.2908

G1X70.4995Y-101.6968

G1X70.7849Y-101.7481

G1X71.2812Y-101.6298

G1X71.8892Y-101.2321

G1X72.1746Y-101.1768

G1X72.6709Y-101.2794

G1X73.1921Y-101.6030

G1X73.4651Y-101.6838

G1X74.0607Y-101.5500

G1X74.7556Y-101.2194

G1X76.1453Y-101.6456

G1X77.4358Y-101.2796

G1X78.5773Y-101.5673

G1X79.0240Y-101.5296

G1X79.7355Y-101.3297

G1X81.1086Y-101.5460

G1X82.3991Y-101.3566

G1X83.7888Y-101.5118

G1X85.1785Y-101.3925

G1X85.8734Y-101.4111

G1 Z0F20000

(Start Block)


G1X19.1663Y-100.5480
G1Z6F20000
(Plotting speed under)
G1 F4000


G1X21.6479Y-100.1701

G1X22.7564Y-100.0747

G1X27.6205Y-100.1882

G1X31.5581Y-100.0642

G1X32.9478Y-100.1407

G1X34.9497Y-100.5017

G1X35.7273Y-100.5585

G1X36.4387Y-100.4767

G1X37.8284Y-100.0848

G1X38.5067Y-100.0014

G1X39.2181Y-100.1168

G1X40.5086Y-100.5699

G1X41.0546Y-100.6191

G1X41.6005Y-100.5156

G1X42.7917Y-100.0195

G1X43.3873Y-99.9321

G1X43.9829Y-100.0671

G1X45.2734Y-100.6328

G1X45.7697Y-100.6969

G1X46.3653Y-100.5694

G1X47.6558Y-99.9531

G1X48.2514Y-99.8523

G1X49.0455Y-100.0430

G1X50.3360Y-100.6526

G1X51.1301Y-100.7835

G1X51.9242Y-100.6340

G1X53.9096Y-99.9075

G1X55.1835Y-99.7649

G1X58.1946Y-99.9236

G1X60.9741Y-99.7710

G1X61.8509Y-99.7958

G1X62.8436Y-100.0370

G1X64.2333Y-100.6541

G1X64.9282Y-100.7836

G1X65.5238Y-100.6356

G1X66.6157Y-100.0094

G1X67.1120Y-99.8521

G1X67.6084Y-99.9752

G1X68.5017Y-100.5481

G1X68.9981Y-100.6872

G1X69.2835Y-100.6457

G1X70.2886Y-100.0190

G1X70.5863Y-99.9298

G1X70.8842Y-100.0133

G1X71.9761Y-100.6200

G1X72.2739Y-100.5639

G1X73.3658Y-100.0052

G1X73.6636Y-100.0680

G1X74.7556Y-100.5591

G1X76.0460Y-100.0754

G1X76.2446Y-100.0949

G1X76.8402Y-100.3864

G1X77.3365Y-100.4702

G1X78.4284Y-100.1461

G1X78.9248Y-100.2053

G1X79.7189Y-100.4412

G1X81.0094Y-100.1684

G1X82.2998Y-100.3988

G1X83.6730Y-100.2128

G1X85.0627Y-100.3637

G1X85.8734Y-100.3006

G1 Z0F20000

(Start Block)


G1X19.1663Y-99.4071
G1Z6F20000
(Plotting speed under)
G1 F4000


G1X20.0597Y-99.3682

G1X21.9457Y-99.0363

G1X23.1038Y-98.9270

G1X27.9679Y-99.0707

G1X32.1371Y-98.9177

G1X33.3614Y-98.9867

G1X35.3467Y-99.3546

G1X36.0747Y-99.4105

G1X36.7365Y-99.3388

G1X38.1262Y-98.9420

G1X38.7218Y-98.8563

G1X39.4167Y-98.9502

G1X40.7071Y-99.4190

G1X41.2862Y-99.4737

G1X41.7991Y-99.3577

G1X42.8910Y-98.8928

G1X43.4866Y-98.7834

G1X44.1814Y-98.9541

G1X45.2734Y-99.4693

G1X45.7697Y-99.5502

G1X46.3653Y-99.4259

G1X47.5565Y-98.8205

G1X48.1521Y-98.7085

G1X48.7477Y-98.8339

G1X50.2367Y-99.5525

G1X50.7827Y-99.6336

G1X51.4279Y-99.5171

G1X53.1155Y-98.7764

G1X54.0254Y-98.6180

G1X54.9022Y-98.7030

G1X57.3839Y-99.2583

G1X59.0053Y-99.3819

G1X60.6597Y-99.2543

G1X62.9428Y-98.7071

G1X63.8362Y-98.6243

G1X64.5311Y-98.7716

G1X65.8216Y-99.4397

G1X66.4172Y-99.6324

G1X67.1120Y-99.4833

G1X68.1047Y-98.8503

G1X68.5017Y-98.7084

G1X68.9981Y-98.8305

G1X69.8046Y-99.3856

G1X70.2886Y-99.5293

G1X70.6732Y-99.4631

G1X71.2812Y-99.0229

G1X71.8768Y-98.7922

G1X72.1498Y-98.8576

G1X72.6709Y-99.2097

G1X73.2666Y-99.4710

G1X73.5395Y-99.4183

G1X74.0607Y-99.0865

G1X74.6563Y-98.8670

G1X74.9293Y-98.9293

G1X75.4504Y-99.2546

G1X75.9468Y-99.3820

G1X76.2446Y-99.3408

G1X76.8402Y-98.9972

G1X77.1380Y-98.9569

G1X77.5350Y-99.0045

G1X78.3292Y-99.3372

G1X79.6196Y-98.9745

G1X80.9101Y-99.2940

G1X82.2006Y-99.0359

G1X83.4414Y-99.2409

G1X84.8311Y-99.0727

G1X85.8734Y-99.1839

G1 Z0F20000

(Start Block)


G1X19.1663Y-98.2230
G1Z6F20000
(Plotting speed under)
G1 F4000


G1X20.2086Y-98.2400

G1X22.2435Y-97.8703

G1X23.3355Y-97.7744

G1X28.3154Y-97.9857

G1X32.9478Y-97.7711

G1X33.9570Y-97.8373

G1X35.7438Y-98.1944

G1X36.5379Y-98.2656

G1X37.3321Y-98.1545

G1X38.6225Y-97.7640

G1X39.2016Y-97.7106

G1X39.8137Y-97.8302

G1X41.0049Y-98.2692

G1X41.5013Y-98.3306

G1X42.0969Y-98.2011

G1X43.0895Y-97.7555

G1X43.5859Y-97.6413

G1X44.1814Y-97.7355

G1X45.3727Y-98.3142

G1X45.8690Y-98.4006

G1X46.3653Y-98.3150

G1X47.5565Y-97.6889

G1X48.1521Y-97.5627

G1X48.7477Y-97.6987

G1X50.0382Y-98.3724

G1X50.6338Y-98.4879

G1X51.2294Y-98.3667

G1X52.7184Y-97.6290

G1X53.4463Y-97.4740

G1X54.2074Y-97.5682

G1X56.6890Y-98.3977

G1X57.6155Y-98.5318

G1X58.7736Y-98.5781

G1X61.2057Y-98.5691

G1X62.3472Y-98.4718

G1X63.3399Y-98.2243

G1X64.9282Y-97.5866

G1X65.5238Y-97.4732

G1X66.2186Y-97.6025

G1X67.5091Y-98.3525

G1X68.0054Y-98.4807

G1X68.5017Y-98.3716

G1X69.4944Y-97.7048

G1X69.8915Y-97.5593

G1X70.4871Y-97.7760

G1X71.1944Y-98.2974

G1X71.5790Y-98.3778

G1X71.9761Y-98.2870

G1X72.5841Y-97.8166

G1X73.0680Y-97.6732

G1X73.4527Y-97.7469

G1X73.9739Y-98.1537

G1X74.4578Y-98.2925

G1X74.8424Y-98.2246

G1X75.3636Y-97.8393

G1X75.7482Y-97.7515

G1X76.1453Y-97.8118

G1X76.6664Y-98.1501

G1X76.9394Y-98.2389

G1X77.5350Y-98.1094

G1X78.2299Y-97.7770

G1X79.6196Y-98.2042

G1X80.3145Y-97.9507

G1X80.9101Y-97.8438

G1X81.7042Y-98.0948

G1X82.0517Y-98.1302

G1X83.2098Y-97.8918

G1X84.5995Y-98.1021

G1X85.8734Y-97.9291

G1 Z0F20000

(Start Block)


G1X19.1663Y-97.0337
G1Z6F20000
(Plotting speed under)
G1 F4000


G1X20.3244Y-97.0963

G1X22.2435Y-96.7204

G1X23.2197Y-96.6276

G1X26.9256Y-96.8849

G1X28.6628Y-96.9300

G1X30.5158Y-96.8740

G1X33.7585Y-96.6248

G1X34.6519Y-96.6867

G1X36.4387Y-97.0669

G1X37.1170Y-97.1179

G1X37.8284Y-97.0070

G1X39.1189Y-96.6067

G1X39.5490Y-96.5657

G1X40.1115Y-96.6446

G1X41.3027Y-97.1126

G1X41.8652Y-97.1791

G1X42.2954Y-97.0994

G1X43.3873Y-96.5973

G1X43.9829Y-96.4970

G1X44.4793Y-96.6106

G1X45.5712Y-97.1624

G1X46.1668Y-97.2543

G1X46.6631Y-97.1059

G1X47.6558Y-96.5567

G1X48.2514Y-96.4133

G1X48.7477Y-96.5241

G1X49.9389Y-97.1807

G1X50.5345Y-97.3423

G1X51.2294Y-97.1865

G1X52.5198Y-96.4751

G1X53.2147Y-96.3247

G1X54.0088Y-96.4868

G1X55.7957Y-97.2682

G1X56.8049Y-97.4331

G1X60.5108Y-97.1271

G1X61.5531Y-97.1783

G1X63.5219Y-97.4205

G1X64.3326Y-97.4119

G1X65.1267Y-97.2155

G1X66.6157Y-96.4728

G1X67.2113Y-96.3283

G1X67.8069Y-96.4589

G1X68.9361Y-97.1990

G1X69.3952Y-97.3307

G1X69.8915Y-97.2136

G1X70.7849Y-96.5757

G1X71.2812Y-96.4136

G1X71.5790Y-96.5260

G1X72.4972Y-97.1788

G1X72.7702Y-97.2509

G1X73.3658Y-97.0148

G1X73.8870Y-96.6066

G1X74.1600Y-96.5118

G1X74.7556Y-96.6968

G1X75.2767Y-97.0846

G1X75.5497Y-97.1696

G1X76.1453Y-96.9657

G1X76.8402Y-96.5676

G1X77.1380Y-96.6308

G1X78.2299Y-97.1185

G1X78.9248Y-96.8048

G1X79.5204Y-96.6418

G1X79.7189Y-96.6695

G1X80.3145Y-96.9711

G1X80.6123Y-97.0212

G1X81.0094Y-97.0009

G1X81.6050Y-96.7385

G1X81.9028Y-96.7008

G1X83.0940Y-97.0001

G1X84.4837Y-96.7298

G1X85.8734Y-96.9631

G1 Z0F20000

(Start Block)


G1X19.1663Y-95.8625
G1Z6F20000
(Plotting speed under)
G1 F4000


G1X19.7619Y-95.9647

G1X20.3244Y-95.9505

G1X22.1443Y-95.5636

G1X22.9880Y-95.4804

G1X26.5782Y-95.8103

G1X28.8944Y-95.8768

G1X31.3264Y-95.8067

G1X34.6850Y-95.4793

G1X35.4460Y-95.5397

G1X37.0343Y-95.9087

G1X37.6961Y-95.9707

G1X38.2255Y-95.9052

G1X39.3174Y-95.5477

G1X40.0123Y-95.4150

G1X40.6079Y-95.5097

G1X41.6998Y-95.9466

G1X42.1961Y-96.0377

G1X42.7917Y-95.9170

G1X43.7844Y-95.4480

G1X44.2807Y-95.3463

G1X44.8763Y-95.4917

G1X45.9683Y-96.0493

G1X46.3653Y-96.1123

G1X46.9609Y-95.9414

G1X48.0529Y-95.3384

G1X48.4499Y-95.2671

G1X49.0455Y-95.4336

G1X50.2367Y-96.1217

G1X50.6338Y-96.1924

G1X51.2170Y-96.0622

G1X52.5198Y-95.3048

G1X53.1155Y-95.1801

G1X53.7111Y-95.3046

G1X55.2001Y-96.0644

G1X55.9942Y-96.2756

G1X56.8876Y-96.2221

G1X59.5678Y-95.5257

G1X61.2057Y-95.3895

G1X62.9428Y-95.5429

G1X65.3252Y-96.2084

G1X65.9539Y-96.2857

G1X66.7150Y-96.1417

G1X68.2040Y-95.3017

G1X68.6010Y-95.1895

G1X69.1966Y-95.2969

G1X70.3258Y-96.0791

G1X70.6856Y-96.1890

G1X71.1820Y-96.0479

G1X71.9761Y-95.4391

G1X72.4724Y-95.2856

G1X72.7578Y-95.3412

G1X73.3658Y-95.8145

G1X73.9615Y-96.1071

G1X74.2344Y-96.0490

G1X75.1526Y-95.4295

G1X75.4504Y-95.3463

G1X76.7409Y-96.0291

G1X77.0139Y-95.9709

G1X77.6343Y-95.5755

G1X78.1306Y-95.4380

G1X78.4036Y-95.5173

G1X78.9248Y-95.8598

G1X79.3218Y-95.9303

G1X79.7189Y-95.8620

G1X80.4138Y-95.5078

G1X81.0094Y-95.6074

G1X81.7042Y-95.9060

G1X83.0940Y-95.5342

G1X84.3844Y-95.8545

G1X85.8734Y-95.5919

G1 Z0F20000

(Start Block)


G1X19.1663Y-94.7192
G1Z6F20000
(Plotting speed under)
G1 F4000


G1X20.1589Y-94.8118

G1X21.9457Y-94.4036

G1X22.7564Y-94.3315

G1X26.3466Y-94.7363

G1X31.4423Y-94.7580

G1X32.8320Y-94.6773

G1X35.6115Y-94.3322

G1X36.3394Y-94.4010

G1X37.7291Y-94.7566

G1X38.3909Y-94.8231

G1X38.8211Y-94.7719

G1X40.0123Y-94.3679

G1X40.6079Y-94.2691

G1X41.1042Y-94.3540

G1X42.0969Y-94.7707

G1X42.6924Y-94.8920

G1X43.1888Y-94.7847

G1X44.1814Y-94.3041

G1X44.7770Y-94.2044

G1X45.1741Y-94.3112

G1X46.1668Y-94.8539

G1X46.7624Y-94.9555

G1X47.1595Y-94.8527

G1X48.2514Y-94.2128

G1X48.7477Y-94.1313

G1X49.2192Y-94.2520

G1X50.3484Y-94.9486

G1X50.8323Y-95.0412

G1X51.3286Y-94.9274

G1X52.5198Y-94.1902

G1X53.2147Y-94.0340

G1X53.9096Y-94.2552

G1X55.2001Y-94.9886

G1X55.9942Y-95.1414

G1X56.7883Y-94.9840

G1X58.2773Y-94.3801

G1X59.1707Y-94.1212

G1X60.2792Y-93.9761

G1X61.9005Y-93.9408

G1X63.5219Y-93.9733

G1X64.5311Y-94.1001

G1X65.4245Y-94.3612

G1X66.9135Y-95.0081

G1X67.6084Y-95.1409

G1X68.3032Y-94.9669

G1X69.5937Y-94.1500

G1X69.9907Y-94.0390

G1X70.5863Y-94.2007

G1X71.4798Y-94.8687

G1X71.9761Y-95.0512

G1X72.3732Y-94.8938

G1X73.2790Y-94.2037

G1X73.5644Y-94.1440

G1X74.0607Y-94.2952

G1X74.6784Y-94.8198

G1X75.0534Y-94.9263

G1X75.4504Y-94.8559

G1X76.0584Y-94.3585

G1X76.4431Y-94.2447

G1X76.8402Y-94.3048

G1X77.4482Y-94.7729

G1X77.7336Y-94.8493

G1X78.2299Y-94.7558

G1X78.7510Y-94.3826

G1X79.0240Y-94.2914

G1X79.6196Y-94.4588

G1X80.3145Y-94.8219

G1X81.7042Y-94.3344

G1X82.8954Y-94.7436

G1X83.1932Y-94.7229

G1X83.6896Y-94.4933

G1X84.1362Y-94.4156

G1X84.5830Y-94.4565

G1X85.1785Y-94.6764

G1X85.8734Y-94.6567

G1 Z0F20000

(Start Block)


G1X19.1663Y-93.6027
G1Z6F20000
(Plotting speed under)
G1 F4000


G1X20.0597Y-93.6568

G1X21.5487Y-93.2716

G1X22.2932Y-93.1869

G1X25.5359Y-93.6101

G1X29.4735Y-93.5333

G1X33.1794Y-93.6159

G1X34.1555Y-93.5438

G1X36.5379Y-93.1852

G1X37.2328Y-93.2549

G1X38.5233Y-93.6160

G1X39.0858Y-93.6766

G1X39.6152Y-93.6004

G1X40.7071Y-93.2051

G1X41.3027Y-93.1258

G1X41.7991Y-93.2423

G1X42.7917Y-93.6740

G1X43.2881Y-93.7379

G1X43.6851Y-93.6552

G1X44.7770Y-93.1140

G1X45.1741Y-93.0633

G1X45.6705Y-93.1728

G1X46.6631Y-93.7276

G1X47.0602Y-93.8182

G1X47.6558Y-93.6534

G1X48.4499Y-93.1558

G1X49.0455Y-92.9717

G1X49.6411Y-93.1714

G1X50.6338Y-93.7906

G1X51.1301Y-93.9033

G1X51.7257Y-93.6866

G1X52.8176Y-92.9989

G1X53.3140Y-92.8866

G1X53.9964Y-93.0954

G1X55.2001Y-93.8395

G1X55.9942Y-93.9915

G1X56.6890Y-93.8092

G1X58.4758Y-92.9865

G1X59.0714Y-92.8449

G1X59.8159Y-92.7909

G1X62.5954Y-92.9459

G1X65.1432Y-92.7963

G1X66.0201Y-92.8340

G1X67.0128Y-93.1300

G1X68.4025Y-93.8604

G1X68.9981Y-93.9930

G1X69.5937Y-93.8419

G1X70.6856Y-93.0955

G1X71.2812Y-92.8852

G1X71.8768Y-93.1359

G1X72.6709Y-93.7657

G1X73.0680Y-93.8791

G1X73.4527Y-93.8037

G1X74.3585Y-93.1061

G1X74.7556Y-92.9746

G1X75.0162Y-93.0815

G1X75.8847Y-93.7235

G1X76.1453Y-93.8216

G1X76.4431Y-93.7223

G1X77.2745Y-93.1491

G1X77.5350Y-93.0509

G1X77.8328Y-93.1528

G1X78.6270Y-93.6537

G1X78.9248Y-93.7453

G1X79.6196Y-93.3584

G1X80.2152Y-93.1380

G1X80.4882Y-93.2056

G1X81.0094Y-93.5435

G1X81.5057Y-93.6426

G1X81.8035Y-93.5887

G1X82.2998Y-93.2804

G1X82.5976Y-93.2192

G1X83.0940Y-93.2907

G1X83.8881Y-93.6092

G1X85.1785Y-93.2428

G1X85.8734Y-93.4015

G1 Z0F20000

(Start Block)


G1X19.1663Y-92.5009
G1Z6F20000
(Plotting speed under)
G1 F4000


G1X19.8611Y-92.5010

G1X21.1516Y-92.1247

G1X21.8299Y-92.0402

G1X24.0303Y-92.4138

G1X24.9568Y-92.4737

G1X27.9679Y-92.2528

G1X29.7051Y-92.2053

G1X34.6850Y-92.4694

G1X37.4644Y-92.0418

G1X38.0269Y-92.0862

G1X39.2181Y-92.4410

G1X39.9130Y-92.5307

G1X40.4093Y-92.4359

G1X41.4020Y-92.0569

G1X41.8983Y-91.9806

G1X42.3947Y-92.0756

G1X43.3873Y-92.5267

G1X43.8837Y-92.5863

G1X44.2807Y-92.5060

G1X45.2734Y-91.9942

G1X45.6705Y-91.9082

G1X46.1668Y-92.0298

G1X46.9609Y-92.4970

G1X47.5565Y-92.6724

G1X47.9536Y-92.5752

G1X48.9587Y-91.9526

G1X49.4426Y-91.8399

G1X49.9141Y-91.9488

G1X51.0433Y-92.6807

G1X51.4279Y-92.7452

G1X51.9118Y-92.6284

G1X53.0410Y-91.8682

G1X53.5125Y-91.7493

G1X53.9964Y-91.8360

G1X55.2993Y-92.6640

G1X55.9942Y-92.8488

G1X56.7883Y-92.6384

G1X58.3766Y-91.8121

G1X59.3527Y-91.6456

G1X60.1634Y-91.7245

G1X62.1487Y-92.1039

G1X63.2903Y-92.1840

G1X64.5311Y-92.0968

G1X66.7646Y-91.6695

G1X67.5091Y-91.6664

G1X68.2040Y-91.8625

G1X69.6930Y-92.7159

G1X70.1893Y-92.8384

G1X70.7601Y-92.7181

G1X71.8892Y-91.8924

G1X72.3732Y-91.7563

G1X72.7578Y-91.8365

G1X73.7133Y-92.5830

G1X74.0607Y-92.7506

G1X74.5570Y-92.5940

G1X75.3732Y-91.9368

G1X75.6490Y-91.8609

G1X76.1453Y-91.9797

G1X76.7630Y-92.5176

G1X77.1380Y-92.6294

G1X77.5350Y-92.5607

G1X78.1430Y-92.0549

G1X78.5277Y-91.9519

G1X78.9248Y-92.0282

G1X79.5328Y-92.4994

G1X79.8182Y-92.5627

G1X80.3145Y-92.4362

G1X81.0094Y-91.9962

G1X81.4064Y-92.0677

G1X82.3991Y-92.5327

G1X83.6896Y-92.0488

G1X84.9800Y-92.4504

G1X85.2778Y-92.4228

G1X85.8734Y-92.1649

G1 Z0F20000

(Start Block)


G1X19.1663Y-91.3858
G1Z6F20000
(Plotting speed under)
G1 F4000


G1X19.8611Y-91.2738

G1X20.8538Y-90.9553

G1X21.3667Y-90.8925

G1X22.0450Y-90.9741

G1X23.2362Y-91.2616

G1X24.0303Y-91.3271

G1X27.0414Y-91.0010

G1X29.8209Y-90.9480

G1X32.7162Y-90.9966

G1X35.9589Y-91.3248

G1X38.5067Y-90.8927

G1X40.7071Y-91.3857

G1X41.3027Y-91.2509

G1X42.0969Y-90.9235

G1X42.6924Y-90.8348

G1X43.0895Y-90.9302

G1X44.0822Y-91.3922

G1X44.4793Y-91.4402

G1X44.8763Y-91.3708

G1X45.8690Y-90.8562

G1X46.2660Y-90.7575

G1X46.8616Y-90.9480

G1X47.6558Y-91.4251

G1X48.1521Y-91.5140

G1X48.5244Y-91.4164

G1X49.4426Y-90.8240

G1X49.8396Y-90.6889

G1X50.4352Y-90.8327

G1X51.2294Y-91.3861

G1X51.8250Y-91.6117

G1X52.4206Y-91.4110

G1X53.4132Y-90.7348

G1X53.9096Y-90.5920

G1X54.6044Y-90.8399

G1X55.6964Y-91.5677

G1X56.2920Y-91.6955

G1X56.8876Y-91.5422

G1X58.4758Y-90.6558

G1X59.3527Y-90.4999

G1X60.1634Y-90.6229

G1X62.3472Y-91.2345

G1X63.9851Y-91.3931

G1X65.5238Y-91.2533

G1X67.8069Y-90.6017

G1X68.7003Y-90.5070

G1X69.3952Y-90.6913

G1X70.5863Y-91.4377

G1X71.2812Y-91.6999

G1X71.9761Y-91.4920

G1X72.8695Y-90.8048

G1X73.3658Y-90.5932

G1X73.9615Y-90.8294

G1X74.7556Y-91.4830

G1X75.1526Y-91.5817

G1X75.5277Y-91.4905

G1X76.1453Y-90.9502

G1X76.7409Y-90.6908

G1X77.0139Y-90.7752

G1X77.5350Y-91.2043

G1X78.1306Y-91.5189

G1X78.4036Y-91.4556

G1X78.9248Y-91.0548

G1X79.5204Y-90.7703

G1X79.7065Y-90.7942

G1X80.3145Y-91.2320

G1X80.8108Y-91.4211

G1X81.0962Y-91.3906

G1X81.6174Y-91.0039

G1X82.1013Y-90.8745

G1X82.4860Y-90.9384

G1X83.1932Y-91.3467

G1X83.7888Y-91.2566

G1X84.3844Y-90.9324

G1X84.5830Y-90.9024

G1X85.8734Y-91.3266

G1 Z0F20000

(Start Block)


G1X19.1663Y-90.2147
G1Z6F20000
(Plotting speed under)
G1 F4000


G1X20.3575Y-89.8167

G1X20.7876Y-89.7520

G1X21.3501Y-89.7969

G1X22.5413Y-90.1164

G1X23.1038Y-90.1772

G1X26.1149Y-89.8081

G1X30.1683Y-89.9135

G1X33.7585Y-89.8014

G1X34.8008Y-89.8569

G1X37.1170Y-90.1806

G1X37.7291Y-90.1185

G1X39.4167Y-89.7483

G1X40.0123Y-89.8212

G1X41.1042Y-90.1886

G1X41.5013Y-90.2374

G1X41.9976Y-90.1456

G1X42.7917Y-89.8078

G1X43.3873Y-89.6849

G1X43.7844Y-89.7689

G1X44.7770Y-90.2420

G1X45.1741Y-90.2920

G1X45.5712Y-90.2192

G1X46.4646Y-89.7371

G1X46.9609Y-89.6121

G1X47.3580Y-89.7386

G1X48.2638Y-90.2848

G1X48.6485Y-90.3633

G1X49.1324Y-90.2612

G1X50.0382Y-89.6673

G1X50.4352Y-89.5330

G1X51.0309Y-89.7346

G1X51.8250Y-90.3003

G1X52.4206Y-90.4563

G1X52.7804Y-90.3417

G1X53.8227Y-89.6002

G1X54.4059Y-89.4573

G1X54.8650Y-89.5946

G1X55.9942Y-90.3776

G1X56.6890Y-90.5534

G1X57.3839Y-90.3157

G1X58.6744Y-89.5344

G1X59.4685Y-89.3517

G1X60.2626Y-89.4693

G1X62.6450Y-90.2619

G1X64.4484Y-90.4625

G1X65.4907Y-90.4332

G1X66.5164Y-90.2903

G1X67.3106Y-90.0777

G1X68.9981Y-89.4527

G1X69.6599Y-89.3520

G1X70.4871Y-89.5623

G1X71.8024Y-90.4174

G1X72.2739Y-90.5427

G1X72.7578Y-90.4503

G1X73.8870Y-89.5894

G1X74.2592Y-89.4679

G1X74.7556Y-89.5781

G1X75.4504Y-90.1705

G1X76.0460Y-90.4588

G1X76.3190Y-90.3940

G1X77.2745Y-89.6479

G1X77.5350Y-89.5357

G1X77.8328Y-89.6191

G1X78.9248Y-90.3721

G1X79.2226Y-90.3071

G1X80.3145Y-89.6157

G1X80.6123Y-89.6973

G1X81.5057Y-90.2547

G1X81.7042Y-90.3075

G1X82.9947Y-89.6959

G1X83.2677Y-89.7566

G1X83.7888Y-90.0904

G1X84.2852Y-90.2066

G1X84.5830Y-90.1606

G1X85.1785Y-89.8176

G1X85.8734Y-89.8337

G1 Z0F20000

(Start Block)


G1X19.1663Y-88.9526
G1Z6F20000
(Plotting speed under)
G1 F4000


G1X19.8611Y-88.6790

G1X20.3575Y-88.6055

G1X20.7545Y-88.6405

G1X21.9457Y-88.9839

G1X22.5248Y-89.0308

G1X24.9568Y-88.6569

G1X28.1995Y-88.9140

G1X30.2841Y-88.9603

G1X32.4846Y-88.9108

G1X35.6115Y-88.6552

G1X38.3909Y-89.0297

G1X38.9203Y-88.9569

G1X39.9130Y-88.6676

G1X40.4755Y-88.6043

G1X40.9057Y-88.6623

G1X41.9976Y-89.0498

G1X42.3947Y-89.0825

G1X42.7917Y-89.0228

G1X43.6851Y-88.6427

G1X44.1814Y-88.5359

G1X44.6778Y-88.6727

G1X45.4719Y-89.0746

G1X45.8690Y-89.1435

G1X46.3529Y-89.0538

G1X47.1595Y-88.5971

G1X47.6558Y-88.4657

G1X48.0529Y-88.5993

G1X48.9587Y-89.1535

G1X49.3433Y-89.2157

G1X49.7404Y-89.1275

G1X50.6338Y-88.5373

G1X51.1301Y-88.3868

G1X51.6265Y-88.5906

G1X52.4330Y-89.1723

G1X52.9169Y-89.3011

G1X53.3884Y-89.1806

G1X54.5176Y-88.3802

G1X54.9022Y-88.3124

G1X55.3862Y-88.4376

G1X56.6022Y-89.2867

G1X57.1854Y-89.3992

G1X57.6817Y-89.2601

G1X59.1707Y-88.3639

G1X59.9318Y-88.2080

G1X60.6597Y-88.3385

G1X62.2480Y-88.9612

G1X63.1414Y-89.2183

G1X64.2168Y-89.3729

G1X65.4907Y-89.4142

G1X66.7150Y-89.3434

G1X67.6084Y-89.1864

G1X69.7922Y-88.3614

G1X70.5863Y-88.2047

G1X71.2812Y-88.3601

G1X72.5841Y-89.2224

G1X73.2666Y-89.4033

G1X73.7133Y-89.2348

G1X74.6687Y-88.4789

G1X75.1526Y-88.3207

G1X75.5373Y-88.3982

G1X76.4927Y-89.1675

G1X76.8402Y-89.3177

G1X77.1380Y-89.2286

G1X78.0562Y-88.5041

G1X78.3292Y-88.4049

G1X78.9248Y-88.6317

G1X79.4459Y-89.0943

G1X79.7189Y-89.2071

G1X80.3145Y-89.0162

G1X80.8356Y-88.5816

G1X81.1086Y-88.4847

G1X81.7042Y-88.7078

G1X82.3991Y-89.1535

G1X82.6969Y-89.0850

G1X83.7888Y-88.5361

G1X85.0793Y-89.0788

G1X85.2778Y-89.0526

G1X85.8734Y-88.7210

G1 Z0F20000

(Start Block)


G1X19.1663Y-87.6193
G1Z6F20000
(Plotting speed under)
G1 F4000


G1X19.9604Y-87.4558

G1X21.2509Y-87.8247

G1X21.7141Y-87.8817

G1X24.0303Y-87.5084

G1X26.9256Y-87.8282

G1X30.5158Y-87.7742

G1X33.6427Y-87.8358

G1X34.8008Y-87.7822

G1X37.1170Y-87.5084

G1X39.4167Y-87.8855

G1X40.0123Y-87.8137

G1X41.4020Y-87.4528

G1X42.0969Y-87.5880

G1X42.7917Y-87.8659

G1X43.2881Y-87.9390

G1X43.5859Y-87.9030

G1X44.6778Y-87.4376

G1X44.9756Y-87.3940

G1X45.5712Y-87.5474

G1X46.2660Y-87.9220

G1X46.7624Y-87.9969

G1X47.0602Y-87.9357

G1X47.9536Y-87.4322

G1X48.3506Y-87.3178

G1X48.8470Y-87.4869

G1X49.6535Y-87.9980

G1X50.0382Y-88.0677

G1X50.4352Y-87.9838

G1X51.3286Y-87.3862

G1X51.8250Y-87.2417

G1X52.2221Y-87.3990

G1X53.1279Y-88.0475

G1X53.6118Y-88.1522

G1X54.0833Y-88.0047

G1X55.1256Y-87.2475

G1X55.4978Y-87.1622

G1X55.9942Y-87.2889

G1X57.1233Y-88.0887

G1X57.6817Y-88.2539

G1X58.2773Y-88.1178

G1X59.7663Y-87.2120

G1X60.5108Y-87.0611

G1X61.1560Y-87.1701

G1X62.8436Y-87.8443

G1X63.7370Y-88.1010

G1X64.7958Y-88.2501

G1X66.1855Y-88.2920

G1X67.3436Y-88.2328

G1X68.3032Y-88.0766

G1X69.1966Y-87.7964

G1X70.5863Y-87.2094

G1X71.2812Y-87.0596

G1X72.0629Y-87.2247

G1X73.2790Y-88.0446

G1X73.8622Y-88.2547

G1X74.3585Y-88.1428

G1X75.3732Y-87.3549

G1X75.9468Y-87.1689

G1X76.3190Y-87.2855

G1X77.1876Y-87.9995

G1X77.5350Y-88.1679

G1X77.9321Y-88.0389

G1X78.7510Y-87.3746

G1X79.0240Y-87.2647

G1X79.6196Y-87.4636

G1X80.1601Y-87.9474

G1X80.4138Y-88.0534

G1X81.0094Y-87.8874

G1X81.5305Y-87.4472

G1X81.8035Y-87.3428

G1X82.3991Y-87.5454

G1X83.0940Y-88.0033

G1X83.3918Y-87.9441

G1X84.4837Y-87.3890

G1X85.4764Y-87.8483

G1X85.8734Y-87.9351

G1 Z0F20000

(Start Block)


G1X19.1663Y-86.3225
G1Z6F20000
(Plotting speed under)
G1 F4000


G1X19.6626Y-86.3528

G1X20.5560Y-86.6536

G1X21.1516Y-86.7369

G1X22.9880Y-86.3679

G1X25.5359Y-86.6881

G1X28.5470Y-86.4783

G1X30.6316Y-86.4328

G1X32.8320Y-86.4792

G1X35.7273Y-86.6893

G1X38.5067Y-86.3629

G1X40.5913Y-86.7394

G1X41.0049Y-86.6834

G1X41.9976Y-86.3640

G1X42.4443Y-86.3165

G1X42.8910Y-86.3774

G1X43.7844Y-86.7249

G1X44.1814Y-86.8007

G1X44.6778Y-86.6809

G1X45.4719Y-86.3134

G1X45.8690Y-86.2602

G1X46.2660Y-86.3267

G1X46.9609Y-86.7064

G1X47.5565Y-86.8615

G1X47.8543Y-86.7918

G1X48.8470Y-86.2329

G1X49.1448Y-86.1774

G1X49.7404Y-86.3887

G1X50.4352Y-86.8522

G1X50.8323Y-86.9193

G1X51.2170Y-86.8298

G1X52.0235Y-86.2700

G1X52.5198Y-86.0926

G1X53.0162Y-86.2907

G1X53.8227Y-86.8833

G1X54.3066Y-87.0063

G1X54.6913Y-86.9229

G1X55.7336Y-86.1612

G1X56.1927Y-86.0166

G1X56.7759Y-86.1770

G1X57.9919Y-87.0249

G1X58.4758Y-87.1060

G1X58.9722Y-86.9808

G1X60.4612Y-86.0787

G1X61.2057Y-85.9143

G1X61.9502Y-86.0393

G1X63.5384Y-86.6600

G1X64.4318Y-86.9182

G1X65.4907Y-87.0737

G1X66.7646Y-87.1187

G1X67.9062Y-87.0611

G1X68.8988Y-86.8994

G1X69.7922Y-86.6228

G1X71.1820Y-86.0537

G1X71.9761Y-85.9120

G1X72.6709Y-86.0817

G1X73.9739Y-86.9454

G1X74.5570Y-87.1097

G1X75.0162Y-86.9797

G1X76.0584Y-86.1663

G1X76.5424Y-86.0282

G1X76.9270Y-86.1227

G1X77.8825Y-86.8942

G1X78.2299Y-87.0258

G1X78.5773Y-86.8852

G1X79.4459Y-86.1890

G1X79.7189Y-86.1054

G1X80.1160Y-86.2578

G1X80.8356Y-86.8279

G1X81.1086Y-86.9245

G1X81.7042Y-86.6840

G1X82.3991Y-86.1872

G1X82.6969Y-86.2407

G1X83.7888Y-86.8665

G1X85.0793Y-86.2537

G1X85.3771Y-86.3097

G1X85.8734Y-86.6139

G1 Z0F20000

(Start Block)


G1X19.1663Y-85.2001
G1Z6F20000
(Plotting speed under)
G1 F4000


G1X19.8611Y-85.4663

G1X20.5560Y-85.5924

G1X21.8465Y-85.2583

G1X22.2932Y-85.2213

G1X24.3778Y-85.5401

G1X27.6205Y-85.2632

G1X30.8632Y-85.3288

G1X34.4533Y-85.2671

G1X37.3486Y-85.5407

G1X39.7807Y-85.2194

G1X41.6336Y-85.5868

G1X42.0969Y-85.5403

G1X42.9903Y-85.2422

G1X43.4866Y-85.1601

G1X45.0749Y-85.6401

G1X45.5712Y-85.5665

G1X46.2660Y-85.2223

G1X46.8616Y-85.1065

G1X48.3506Y-85.7211

G1X48.8470Y-85.5680

G1X49.6535Y-85.0931

G1X49.9389Y-85.0443

G1X50.4352Y-85.1581

G1X51.2294Y-85.6778

G1X51.7257Y-85.7802

G1X51.9987Y-85.6945

G1X53.0162Y-85.0127

G1X53.3140Y-84.9513

G1X53.9096Y-85.1887

G1X54.6044Y-85.7219

G1X55.1008Y-85.8654

G1X55.4730Y-85.7796

G1X56.6022Y-84.9674

G1X57.0861Y-84.8761

G1X57.5576Y-85.0189

G1X58.6868Y-85.8216

G1X59.2700Y-85.9626

G1X59.8656Y-85.7995

G1X61.3546Y-84.9218

G1X61.9502Y-84.7754

G1X62.8436Y-84.8773

G1X64.5311Y-85.4704

G1X65.4245Y-85.7024

G1X67.3436Y-85.8703

G1X69.1966Y-85.6904

G1X71.6783Y-84.8671

G1X72.4393Y-84.7688

G1X73.0680Y-84.9248

G1X74.5570Y-85.8542

G1X75.0534Y-85.9574

G1X75.5373Y-85.8264

G1X76.5796Y-85.0173

G1X76.9394Y-84.8760

G1X77.5350Y-85.0447

G1X78.2299Y-85.6533

G1X78.8255Y-85.8635

G1X79.0985Y-85.7646

G1X79.6196Y-85.3193

G1X80.2276Y-84.9538

G1X80.4882Y-85.0005

G1X81.4437Y-85.7035

G1X81.7042Y-85.7966

G1X81.9648Y-85.7027

G1X82.9947Y-85.0372

G1X83.2677Y-85.0790

G1X83.7888Y-85.4425

G1X84.3844Y-85.7076

G1X84.6574Y-85.6418

G1X85.2778Y-85.2362

G1X85.8734Y-85.1398

G1 Z0F20000

(Start Block)


G1X19.1663Y-84.2595
G1Z6F20000
(Plotting speed under)
G1 F4000


G1X19.8611Y-84.4478

G1X21.4825Y-84.0759

G1X23.4513Y-84.3957

G1X25.6517Y-84.1198

G1X28.7786Y-84.3154

G1X31.0948Y-84.3468

G1X33.4110Y-84.3098

G1X36.4221Y-84.1174

G1X38.8542Y-84.3929

G1X40.9388Y-84.0744

G1X42.7917Y-84.4479

G1X44.4131Y-84.0270

G1X44.8763Y-84.0771

G1X45.5712Y-84.3781

G1X46.1668Y-84.5020

G1X47.6558Y-83.9510

G1X48.1521Y-84.0795

G1X48.9462Y-84.5080

G1X49.2440Y-84.5561

G1X49.7404Y-84.4466

G1X50.4352Y-84.0038

G1X50.9316Y-83.8987

G1X51.2170Y-83.9563

G1X52.1228Y-84.5320

G1X52.5198Y-84.6494

G1X52.9169Y-84.5008

G1X53.8227Y-83.8826

G1X54.1081Y-83.8196

G1X54.6044Y-83.9302

G1X55.3986Y-84.5151

G1X55.9942Y-84.7319

G1X56.4905Y-84.5338

G1X57.3839Y-83.8798

G1X57.9795Y-83.7199

G1X58.4758Y-83.8960

G1X59.5678Y-84.6441

G1X60.1634Y-84.8228

G1X60.9451Y-84.6034

G1X62.2480Y-83.8363

G1X63.0586Y-83.6243

G1X63.9355Y-83.7051

G1X66.4172Y-84.3683

G1X67.9227Y-84.4983

G1X69.4944Y-84.3570

G1X71.7776Y-83.7205

G1X72.5551Y-83.6180

G1X73.3658Y-83.7980

G1X74.6687Y-84.6056

G1X75.3512Y-84.8224

G1X75.8475Y-84.6832

G1X76.8402Y-83.9413

G1X77.4358Y-83.7170

G1X77.7956Y-83.8321

G1X78.7510Y-84.5992

G1X79.0240Y-84.7064

G1X79.6196Y-84.5423

G1X80.2373Y-83.9824

G1X80.6123Y-83.8467

G1X81.0094Y-83.8942

G1X81.7042Y-84.4766

G1X82.2006Y-84.6099

G1X82.4860Y-84.5362

G1X83.0071Y-84.0772

G1X83.3918Y-83.9365

G1X83.7888Y-83.9655

G1X84.3968Y-84.4378

G1X84.7815Y-84.5278

G1X85.2654Y-84.4092

G1X85.8734Y-83.9917

G1 Z0F20000

(Start Block)


G1X19.1663Y-83.2920
G1Z6F20000
(Plotting speed under)
G1 F4000


G1X19.5633Y-83.2571

G1X20.7876Y-82.9323

G1X22.5413Y-83.2470

G1X24.6094Y-82.9721

G1X27.1572Y-83.2021

G1X31.2106Y-83.1092

G1X35.0324Y-83.2054

G1X38.0435Y-82.9715

G1X40.2439Y-83.2453

G1X42.0969Y-82.9228

G1X42.7917Y-83.0303

G1X43.4866Y-83.2509

G1X43.9498Y-83.2905

G1X45.5712Y-82.8673

G1X47.0602Y-83.3528

G1X47.5565Y-83.2527

G1X48.2514Y-82.8978

G1X48.6485Y-82.8260

G1X49.0455Y-82.8818

G1X49.7404Y-83.2811

G1X50.3360Y-83.4137

G1X50.6090Y-83.3363

G1X51.5272Y-82.8025

G1X51.8250Y-82.7320

G1X52.2221Y-82.8739

G1X53.1279Y-83.4469

G1X53.4132Y-83.4862

G1X53.9096Y-83.3349

G1X54.6044Y-82.8210

G1X55.2001Y-82.6677

G1X55.5599Y-82.8039

G1X56.5153Y-83.4855

G1X56.8876Y-83.5739

G1X57.3839Y-83.4390

G1X58.3766Y-82.7337

G1X58.8729Y-82.5693

G1X59.5554Y-82.7824

G1X60.7590Y-83.5739

G1X61.2553Y-83.6703

G1X61.8509Y-83.5483

G1X63.6377Y-82.6312

G1X64.5642Y-82.4720

G1X65.3252Y-82.5344

G1X67.4098Y-82.9127

G1X68.5017Y-82.9867

G1X69.8915Y-82.8852

G1X71.8768Y-82.5096

G1X72.6709Y-82.4842

G1X73.4651Y-82.6894

G1X74.7556Y-83.4349

G1X75.4504Y-83.6738

G1X76.1453Y-83.4910

G1X77.1876Y-82.7258

G1X77.5350Y-82.5781

G1X78.1306Y-82.7323

G1X78.8476Y-83.3297

G1X79.4211Y-83.5677

G1X79.7065Y-83.5231

G1X80.6619Y-82.7885

G1X81.0094Y-82.6529

G1X81.2699Y-82.7437

G1X82.1385Y-83.3894

G1X82.3991Y-83.5008

G1X82.6969Y-83.4119

G1X83.7888Y-82.7328

G1X84.0866Y-82.8293

G1X85.0793Y-83.4161

G1X85.3771Y-83.3684

G1X85.8734Y-83.0515

G1 Z0F20000

(Start Block)


G1X19.1663Y-82.0765
G1Z6F20000
(Plotting speed under)
G1 F4000


G1X19.7619Y-81.8430

G1X20.2086Y-81.7915

G1X21.8299Y-82.0967

G1X23.4513Y-81.8259

G1X25.6517Y-82.0571

G1X28.6628Y-81.8771

G1X32.9478Y-81.8642

G1X37.1170Y-82.0588

G1X39.5490Y-81.8267

G1X41.5178Y-82.1002

G1X43.3873Y-81.7789

G1X44.9756Y-82.1506

G1X46.5639Y-81.7372

G1X46.9609Y-81.7819

G1X47.6558Y-82.0973

G1X48.2514Y-82.2022

G1X49.4426Y-81.7066

G1X49.7404Y-81.6586

G1X50.9316Y-82.2233

G1X51.2294Y-82.2754

G1X51.8250Y-82.0568

G1X52.4330Y-81.6633

G1X52.7184Y-81.6078

G1X53.2147Y-81.7141

G1X54.0088Y-82.2390

G1X54.5052Y-82.3394

G1X54.7782Y-82.2528

G1X55.7957Y-81.5736

G1X56.0934Y-81.5112

G1X56.6890Y-81.7375

G1X57.3839Y-82.2600

G1X57.9795Y-82.4323

G1X58.3766Y-82.3072

G1X59.4685Y-81.5580

G1X60.0641Y-81.4274

G1X60.5604Y-81.5887

G1X61.8509Y-82.3828

G1X62.4465Y-82.5277

G1X63.0421Y-82.4341

G1X64.8289Y-81.6023

G1X65.8381Y-81.3571

G1X66.6488Y-81.3274

G1X69.1966Y-81.4535

G1X71.7445Y-81.3248

G1X72.4393Y-81.3669

G1X73.0680Y-81.5121

G1X74.7556Y-82.3380

G1X75.4504Y-82.5292

G1X76.1453Y-82.3534

G1X77.2745Y-81.5649

G1X77.6343Y-81.4372

G1X78.2299Y-81.5637

G1X78.9248Y-82.1227

G1X79.5204Y-82.4326

G1X79.8802Y-82.3513

G1X80.8356Y-81.6193

G1X81.1086Y-81.5248

G1X81.7042Y-81.7325

G1X82.2254Y-82.1883

G1X82.4984Y-82.3136

G1X83.0940Y-82.1881

G1X83.6151Y-81.7508

G1X83.8881Y-81.6288

G1X84.4837Y-81.7521

G1X85.1785Y-82.2415

G1X85.4764Y-82.2347

G1X85.8734Y-82.0885

G1 Z0F20000

(Start Block)


G1X19.1663Y-80.7022
G1Z6F20000
(Plotting speed under)
G1 F4000


G1X19.8611Y-80.6627

G1X20.5560Y-80.8846

G1X21.1351Y-80.9470

G1X22.6406Y-80.6773

G1X24.6094Y-80.9100

G1X27.0414Y-80.7179

G1X31.5581Y-80.8430

G1X36.3063Y-80.7198

G1X38.8542Y-80.9102

G1X40.9388Y-80.6813

G1X42.7917Y-80.9564

G1X44.5289Y-80.6405

G1X46.1668Y-81.0040

G1X47.6558Y-80.5735

G1X49.1448Y-81.0594

G1X49.6411Y-80.9489

G1X50.3360Y-80.5875

G1X50.6338Y-80.5328

G1X51.1301Y-80.6156

G1X51.8250Y-81.0257

G1X52.3213Y-81.1118

G1X52.6067Y-81.0509

G1X53.2147Y-80.6565

G1X53.8103Y-80.4446

G1X54.1081Y-80.5107

G1X55.1008Y-81.1328

G1X55.3986Y-81.2036

G1X55.9942Y-80.9970

G1X56.6890Y-80.4963

G1X57.1854Y-80.3756

G1X57.5576Y-80.4695

G1X58.5999Y-81.1842

G1X58.9722Y-81.2811

G1X59.4685Y-81.1808

G1X60.5977Y-80.4353

G1X61.1560Y-80.2816

G1X61.7516Y-80.4138

G1X63.1414Y-81.2173

G1X63.8693Y-81.3820

G1X64.5311Y-81.2890

G1X66.3179Y-80.5998

G1X67.2113Y-80.3620

G1X68.2701Y-80.2331

G1X69.8915Y-80.1967

G1X71.2812Y-80.2467

G1X72.2739Y-80.3953

G1X73.0680Y-80.6363

G1X74.5570Y-81.2620

G1X75.1526Y-81.3793

G1X75.8475Y-81.2470

G1X77.2372Y-80.3906

G1X77.6343Y-80.2806

G1X78.2299Y-80.4404

G1X78.9248Y-80.9813

G1X79.5204Y-81.2852

G1X79.9174Y-81.1996

G1X80.9225Y-80.4522

G1X81.2079Y-80.3869

G1X81.7042Y-80.5253

G1X82.3122Y-81.0418

G1X82.6969Y-81.1665

G1X83.0940Y-81.1119

G1X83.7020Y-80.6211

G1X84.1859Y-80.4815

G1X84.5706Y-80.5649

G1X85.1785Y-81.0278

G1X85.4764Y-81.0896

G1X85.8734Y-81.0340

G1 Z0F20000

(Start Block)


G1X19.1663Y-79.4970
G1Z6F20000
(Plotting speed under)
G1 F4000


G1X19.8611Y-79.7201

G1X20.4567Y-79.8005

G1X21.9457Y-79.5328

G1X23.4513Y-79.7632

G1X25.5359Y-79.5716

G1X28.7786Y-79.7288

G1X35.1482Y-79.7257

G1X38.1593Y-79.5730

G1X40.4755Y-79.7614

G1X42.2127Y-79.5344

G1X44.0656Y-79.8076

G1X45.6705Y-79.4864

G1X47.1595Y-79.8466

G1X47.6558Y-79.7907

G1X48.3506Y-79.5050

G1X48.8470Y-79.4445

G1X49.1448Y-79.4945

G1X49.8396Y-79.8129

G1X50.3360Y-79.9127

G1X51.5272Y-79.4170

G1X51.8250Y-79.3652

G1X53.2147Y-79.9844

G1X53.6118Y-79.8978

G1X54.5176Y-79.3688

G1X54.8030Y-79.3137

G1X55.2993Y-79.4185

G1X55.9942Y-79.8935

G1X56.5898Y-80.0520

G1X56.9496Y-79.9292

G1X57.9050Y-79.2987

G1X58.2773Y-79.2249

G1X58.7736Y-79.3677

G1X59.5678Y-79.9148

G1X60.1634Y-80.1449

G1X60.8582Y-79.9424

G1X62.0494Y-79.2147

G1X62.5458Y-79.1327

G1X63.1414Y-79.2705

G1X64.6304Y-80.0456

G1X65.3749Y-80.2258

G1X66.3179Y-80.1568

G1X68.7996Y-79.5706

G1X70.2389Y-79.4642

G1X71.7776Y-79.6048

G1X73.8622Y-80.1407

G1X74.6398Y-80.2378

G1X75.4504Y-80.0749

G1X76.7533Y-79.3264

G1X77.4358Y-79.1274

G1X77.9321Y-79.2612

G1X78.8379Y-79.8987

G1X79.4211Y-80.1340

G1X79.7933Y-80.0736

G1X80.8356Y-79.3202

G1X81.1086Y-79.2311

G1X81.7042Y-79.4087

G1X82.3122Y-79.9114

G1X82.5976Y-80.0133

G1X83.0940Y-79.9622

G1X83.7020Y-79.4805

G1X84.1859Y-79.3318

G1X84.5706Y-79.4052

G1X85.2778Y-79.8960

G1X85.8734Y-79.9101

G1 Z0F20000

(Start Block)


G1X19.1663Y-78.5395
G1Z6F20000
(Plotting speed under)
G1 F4000


G1X19.8611Y-78.6573

G1X21.2509Y-78.3881

G1X22.6406Y-78.6188

G1X24.4936Y-78.4276

G1X26.6940Y-78.5817

G1X31.9055Y-78.4592

G1X37.2328Y-78.5823

G1X39.7807Y-78.4262

G1X41.8652Y-78.6146

G1X43.4866Y-78.3860

G1X45.3396Y-78.6530

G1X46.8616Y-78.3389

G1X48.3506Y-78.7152

G1X49.8396Y-78.2870

G1X50.4352Y-78.4320

G1X51.0309Y-78.7206

G1X51.3286Y-78.7573

G1X51.8250Y-78.6551

G1X52.4206Y-78.3210

G1X52.8176Y-78.2427

G1X53.3016Y-78.3296

G1X54.0088Y-78.7372

G1X54.5052Y-78.8244

G1X54.7782Y-78.7439

G1X55.6964Y-78.2137

G1X55.9942Y-78.1459

G1X56.3912Y-78.2797

G1X57.2971Y-78.8417

G1X57.5824Y-78.8993

G1X58.0788Y-78.8006

G1X58.8729Y-78.2749

G1X59.4685Y-78.0668

G1X59.9648Y-78.2204

G1X60.9575Y-78.8446

G1X61.5531Y-78.9994

G1X62.2480Y-78.7691

G1X63.4392Y-78.0884

G1X63.9851Y-77.9846

G1X64.6304Y-78.0909

G1X66.3179Y-78.8301

G1X67.2278Y-79.0505

G1X68.0385Y-79.0900

G1X70.7022Y-78.9567

G1X73.3658Y-79.0904

G1X74.5570Y-78.9243

G1X76.3438Y-78.1129

G1X76.9394Y-77.9833

G1X77.5350Y-78.1142

G1X78.7510Y-78.8904

G1X79.1233Y-78.9845

G1X79.6196Y-78.8897

G1X80.6123Y-78.2021

G1X81.0094Y-78.0668

G1X81.4064Y-78.2068

G1X82.2254Y-78.7954

G1X82.4984Y-78.8934

G1X83.0940Y-78.7398

G1X83.7020Y-78.2676

G1X83.9874Y-78.1855

G1X84.4837Y-78.2671

G1X85.1785Y-78.7549

G1X85.4764Y-78.8035

G1X85.8734Y-78.7330

G1 Z0F20000

(Start Block)


G1X19.1663Y-77.5166
G1Z6F20000
(Plotting speed under)
G1 F4000


G1X20.5560Y-77.2402

G1X21.9457Y-77.4722

G1X23.4513Y-77.2798

G1X25.4201Y-77.4359

G1X28.1995Y-77.3110

G1X32.0213Y-77.3664

G1X36.3063Y-77.3122

G1X39.0858Y-77.4352

G1X41.2862Y-77.2791

G1X43.1392Y-77.4676

G1X44.8763Y-77.2381

G1X46.3819Y-77.5103

G1X48.0032Y-77.2044

G1X49.5419Y-77.5562

G1X51.0309Y-77.1400

G1X52.5198Y-77.6269

G1X53.9096Y-77.0726

G1X54.4059Y-77.2055

G1X55.2001Y-77.6371

G1X55.4978Y-77.6787

G1X55.9942Y-77.5539

G1X56.6890Y-77.1177

G1X57.1854Y-77.0174

G1X57.5576Y-77.1127

G1X58.4758Y-77.6748

G1X58.8729Y-77.7670

G1X59.4685Y-77.5565

G1X60.1634Y-77.0938

G1X60.7590Y-76.9243

G1X61.2553Y-77.0613

G1X62.3472Y-77.7062

G1X62.9428Y-77.8536

G1X63.6377Y-77.6742

G1X65.0274Y-76.9621

G1X65.8216Y-76.8337

G1X66.6157Y-76.9649

G1X68.7996Y-77.6289

G1X70.5863Y-77.8265

G1X71.8603Y-77.8130

G1X73.0680Y-77.6737

G1X73.9615Y-77.4503

G1X75.3512Y-76.9672

G1X76.0460Y-76.8352

G1X76.8402Y-76.9673

G1X78.1430Y-77.7062

G1X78.7262Y-77.8477

G1X79.1233Y-77.7646

G1X80.2276Y-77.0430

G1X80.6123Y-76.9432

G1X81.0962Y-77.0327

G1X81.7042Y-77.4781

G1X82.2998Y-77.7637

G1X82.5976Y-77.7176

G1X83.7888Y-77.0084

G1X84.1859Y-77.0987

G1X85.1785Y-77.6758

G1X85.4764Y-77.6495

G1X85.8734Y-77.4882

G1 Z0F20000

(Start Block)


G1X19.1663Y-76.2380
G1Z6F20000
(Plotting speed under)
G1 F4000


G1X19.8611Y-76.0913

G1X21.2509Y-76.3254

G1X22.6406Y-76.1322

G1X24.3778Y-76.2866

G1X26.4624Y-76.1655

G1X29.3577Y-76.2556

G1X34.2217Y-76.2605

G1X38.2751Y-76.1650

G1X40.7071Y-76.2890

G1X42.6759Y-76.1325

G1X44.4131Y-76.3208

G1X46.1502Y-76.0953

G1X47.6558Y-76.3702

G1X49.1448Y-76.0478

G1X50.5345Y-76.4101

G1X51.0309Y-76.3439

G1X51.7257Y-76.0550

G1X52.1228Y-76.0085

G1X52.6191Y-76.1051

G1X53.2147Y-76.4025

G1X53.6118Y-76.4595

G1X54.0088Y-76.3935

G1X54.7037Y-76.0327

G1X55.2001Y-75.9359

G1X55.4978Y-76.0146

G1X56.3912Y-76.4834

G1X56.6890Y-76.5492

G1X57.0861Y-76.4296

G1X57.9795Y-75.9229

G1X58.2773Y-75.8686

G1X58.7736Y-75.9676

G1X59.5678Y-76.4528

G1X60.1634Y-76.6231

G1X60.6597Y-76.4573

G1X61.5531Y-75.9211

G1X62.1487Y-75.7774

G1X62.6450Y-75.9007

G1X63.9355Y-76.5863

G1X64.5311Y-76.7051

G1X65.1267Y-76.6041

G1X66.7150Y-75.9153

G1X67.6084Y-75.7101

G1X68.5017Y-75.7052

G1X71.5128Y-75.9649

G1X74.7556Y-75.6872

G1X75.7482Y-75.8329

G1X77.4358Y-76.5967

G1X78.0314Y-76.7037

G1X78.5277Y-76.5921

G1X79.5328Y-75.9821

G1X80.1160Y-75.7834

G1X80.5130Y-75.8446

G1X81.5305Y-76.4976

G1X81.9028Y-76.6029

G1X82.3991Y-76.5021

G1X83.0940Y-76.0167

G1X83.5903Y-75.8728

G1X83.8757Y-75.9156

G1X84.4837Y-76.3189

G1X85.0793Y-76.5404

G1X85.3771Y-76.4712

G1X85.8734Y-76.1648

G1 Z0F20000

(Start Block)


G1X19.1663Y-74.9476
G1Z6F20000
(Plotting speed under)
G1 F4000


G1X20.5560Y-75.1795

G1X21.9457Y-74.9852

G1X23.4513Y-75.1414

G1X25.4201Y-75.0181

G1X27.6205Y-75.1128

G1X32.4846Y-75.0539

G1X37.1170Y-75.1139

G1X40.0123Y-75.0180

G1X42.0969Y-75.1428

G1X44.0656Y-74.9872

G1X45.6870Y-75.1768

G1X47.3083Y-74.9547

G1X48.9297Y-75.2149

G1X50.3360Y-74.9002

G1X51.8250Y-75.2749

G1X53.2147Y-74.8416

G1X54.7037Y-75.3276

G1X55.2993Y-75.1767

G1X55.8949Y-74.8554

G1X56.2920Y-74.7990

G1X56.7759Y-74.9073

G1X57.4832Y-75.3009

G1X57.9795Y-75.3902

G1X58.2773Y-75.3110

G1X59.2700Y-74.7671

G1X59.5678Y-74.7104

G1X60.1634Y-74.8789

G1X61.0568Y-75.3837

G1X61.5531Y-75.4737

G1X62.0494Y-75.3089

G1X63.0421Y-74.7620

G1X63.6377Y-74.6273

G1X64.3326Y-74.8024

G1X65.6230Y-75.4305

G1X66.4172Y-75.5602

G1X67.2113Y-75.4353

G1X69.5937Y-74.7587

G1X70.7022Y-74.6350

G1X71.9761Y-74.6067

G1X73.9615Y-74.7700

G1X76.1453Y-75.4258

G1X76.9394Y-75.5586

G1X77.6343Y-75.4376

G1X78.8255Y-74.8050

G1X79.4211Y-74.6337

G1X79.9174Y-74.7234

G1X80.9225Y-75.3300

G1X81.4064Y-75.4602

G1X81.7911Y-75.4068

G1X82.7962Y-74.7976

G1X83.0940Y-74.7073

G1X83.4910Y-74.8150

G1X84.3100Y-75.3069

G1X84.5830Y-75.3860

G1X85.1785Y-75.2408

G1X85.8734Y-74.8282

G1 Z0F20000

(Start Block)


G1X19.1663Y-73.8796
G1Z6F20000
(Plotting speed under)
G1 F4000


G1X19.9604Y-74.0310

G1X21.2509Y-73.8388

G1X22.7564Y-73.9957

G1X24.3778Y-73.8739

G1X26.3466Y-73.9665

G1X35.7273Y-73.8965

G1X39.2016Y-73.9674

G1X41.5178Y-73.8721

G1X43.4866Y-73.9963

G1X45.3396Y-73.8430

G1X46.9609Y-74.0325

G1X48.4499Y-73.8018

G1X49.9720Y-74.0656

G1X51.4775Y-73.7670

G1X51.9242Y-73.8282

G1X52.5198Y-74.0584

G1X53.0162Y-74.1118

G1X53.3140Y-74.0661

G1X53.9096Y-73.8079

G1X54.5052Y-73.7055

G1X55.5971Y-74.1163

G1X55.9942Y-74.1855

G1X57.1854Y-73.6824

G1X57.4832Y-73.6356

G1X58.0788Y-73.8155

G1X58.7736Y-74.1890

G1X59.1707Y-74.2373

G1X59.5678Y-74.1574

G1X60.4612Y-73.6725

G1X60.8582Y-73.5607

G1X61.4538Y-73.7105

G1X62.4465Y-74.2326

G1X62.9428Y-74.3305

G1X63.5384Y-74.1671

G1X64.7296Y-73.5808

G1X65.2590Y-73.4837

G1X65.8216Y-73.5554

G1X67.5091Y-74.2150

G1X68.4025Y-74.3950

G1X69.3124Y-74.3978

G1X72.0919Y-74.1952

G1X75.2188Y-74.4145

G1X76.2446Y-74.2846

G1X77.9321Y-73.5979

G1X78.4615Y-73.4889

G1X79.0240Y-73.5594

G1X80.2152Y-74.2001

G1X80.7116Y-74.3187

G1X81.1086Y-74.2665

G1X82.3991Y-73.5776

G1X82.9947Y-73.6790

G1X83.7020Y-74.1134

G1X84.1859Y-74.2320

G1X84.5706Y-74.1723

G1X85.3771Y-73.7261

G1X85.8734Y-73.6483

G1 Z0F20000

(Start Block)


G1X19.1663Y-72.8739
G1Z6F20000
(Plotting speed under)
G1 F4000


G1X20.5560Y-72.6942

G1X22.0616Y-72.8489

G1X23.5671Y-72.7270

G1X25.4201Y-72.8208

G1X27.7363Y-72.7500

G1X38.2751Y-72.7505

G1X40.8229Y-72.8204

G1X42.9075Y-72.7260

G1X44.8763Y-72.8494

G1X46.4977Y-72.6971

G1X48.2348Y-72.8802

G1X49.6411Y-72.6534

G1X51.1301Y-72.9307

G1X52.5198Y-72.6064

G1X54.0088Y-72.9742

G1X54.6044Y-72.8652

G1X55.2001Y-72.6077

G1X55.4978Y-72.5655

G1X55.9942Y-72.6334

G1X56.6890Y-72.9565

G1X57.1854Y-73.0245

G1X57.4832Y-72.9732

G1X58.3766Y-72.5585

G1X58.7736Y-72.4864

G1X60.0641Y-73.0491

G1X60.3619Y-73.0970

G1X60.8582Y-73.0161

G1X61.7516Y-72.5548

G1X62.2480Y-72.4141

G1X62.7443Y-72.5081

G1X63.8362Y-73.0405

G1X64.4318Y-73.1834

G1X65.1267Y-73.0492

G1X66.4172Y-72.4763

G1X67.2278Y-72.3340

G1X68.0054Y-72.4192

G1X70.2886Y-72.9793

G1X71.9761Y-73.1286

G1X74.1600Y-73.0040

G1X76.5424Y-72.4154

G1X77.1876Y-72.3363

G1X77.9321Y-72.4473

G1X79.3218Y-73.0752

G1X79.7189Y-73.1726

G1X80.4138Y-73.0647

G1X81.7042Y-72.4270

G1X82.2998Y-72.5198

G1X83.0940Y-72.9685

G1X83.5903Y-73.0963

G1X83.8881Y-73.0619

G1X85.0793Y-72.4935

G1X85.3771Y-72.5167

G1X85.8734Y-72.7325

G1 Z0F20000

(Start Block)


G1X19.1663Y-71.6988
G1Z6F20000
(Plotting speed under)
G1 F4000


G1X19.9770Y-71.5514

G1X21.3667Y-71.7013

G1X22.7564Y-71.5809

G1X24.4936Y-71.6724

G1X26.4624Y-71.6043

G1X39.8965Y-71.6034

G1X42.3285Y-71.6733

G1X44.1814Y-71.5794

G1X46.1502Y-71.7015

G1X47.6558Y-71.5462

G1X49.2771Y-71.7323

G1X50.7827Y-71.5165

G1X52.2882Y-71.7735

G1X53.8103Y-71.4628

G1X55.2993Y-71.8341

G1X56.6890Y-71.4027

G1X58.2773Y-71.8821

G1X58.7736Y-71.7974

G1X59.5678Y-71.4254

G1X60.0641Y-71.3466

G1X60.3619Y-71.4100

G1X61.3546Y-71.8852

G1X61.7516Y-71.9548

G1X62.2480Y-71.8639

G1X63.2406Y-71.3845

G1X63.7370Y-71.2689

G1X64.4318Y-71.4093

G1X65.6230Y-71.9471

G1X66.3013Y-72.0343

G1X67.0128Y-71.8978

G1X68.5017Y-71.3854

G1X69.4282Y-71.2173

G1X72.6709Y-71.2566

G1X74.9872Y-71.1882

G1X76.2446Y-71.3169

G1X78.0314Y-71.9282

G1X78.5773Y-72.0300

G1X79.2226Y-71.9563

G1X80.4138Y-71.4102

G1X81.0094Y-71.2664

G1X81.5057Y-71.3857

G1X82.2998Y-71.8076

G1X82.7962Y-71.9449

G1X83.1932Y-71.9143

G1X84.4837Y-71.3403

G1X84.8808Y-71.4156

G1X85.8734Y-71.8649

G1 Z0F20000

(Start Block)


G1X19.1663Y-70.4292
G1Z6F20000
(Plotting speed under)
G1 F4000


G1X19.8611Y-70.4303

G1X20.6718Y-70.5501

G1X22.1774Y-70.4355

G1X23.7987Y-70.5254

G1X25.5359Y-70.4572

G1X41.5178Y-70.4572

G1X43.6024Y-70.5267

G1X45.5712Y-70.4318

G1X47.3083Y-70.5521

G1X48.9297Y-70.4011

G1X50.4352Y-70.5933

G1X51.8250Y-70.3612

G1X53.3140Y-70.6299

G1X54.8361Y-70.3250

G1X55.2993Y-70.3748

G1X55.9942Y-70.6266

G1X56.4574Y-70.6736

G1X57.9795Y-70.2598

G1X58.2773Y-70.3095

G1X59.2700Y-70.7085

G1X59.5678Y-70.7457

G1X60.1634Y-70.5931

G1X60.8582Y-70.2686

G1X61.3546Y-70.2033

G1X61.7516Y-70.2837

G1X62.7443Y-70.7398

G1X63.1414Y-70.8095

G1X63.6377Y-70.7391

G1X64.8289Y-70.2166

G1X65.3749Y-70.1253

G1X65.9208Y-70.1957

G1X67.3106Y-70.7210

G1X68.1543Y-70.8842

G1X68.9650Y-70.8476

G1X71.3970Y-70.4338

G1X72.7868Y-70.3579

G1X74.2592Y-70.4521

G1X77.0718Y-70.8900

G1X77.8328Y-70.7997

G1X79.4211Y-70.2004

G1X79.9671Y-70.1265

G1X80.4138Y-70.1932

G1X81.5057Y-70.7029

G1X81.9028Y-70.7990

G1X82.4984Y-70.7271

G1X83.3918Y-70.2950

G1X83.7888Y-70.1919

G1X84.2852Y-70.3067

G1X85.1785Y-70.7089

G1X85.8734Y-70.6660

G1 Z0F20000

(Start Block)


G1X19.1663Y-69.2629
G1Z6F20000
(Plotting speed under)
G1 F4000


G1X20.2086Y-69.3997

G1X21.5983Y-69.2912

G1X23.1038Y-69.3784

G1X24.8410Y-69.3104

G1X42.9075Y-69.3108

G1X44.8763Y-69.3809

G1X46.8451Y-69.2867

G1X48.3506Y-69.4094

G1X49.9720Y-69.2588

G1X51.5934Y-69.4387

G1X53.0989Y-69.2170

G1X54.6044Y-69.4887

G1X55.9942Y-69.1641

G1X57.4832Y-69.5360

G1X59.1211Y-69.1235

G1X59.5678Y-69.1797

G1X60.3619Y-69.5054

G1X60.8582Y-69.6021

G1X61.2553Y-69.5143

G1X62.1487Y-69.1326

G1X62.6450Y-69.0550

G1X63.1414Y-69.1380

G1X64.2333Y-69.6032

G1X64.6800Y-69.6633

G1X65.2260Y-69.5848

G1X66.5164Y-69.0837

G1X67.2278Y-68.9733

G1X67.9062Y-69.0505

G1X69.4944Y-69.4892

G1X70.3878Y-69.6534

G1X73.1342Y-69.7449

G1X75.6490Y-69.6335

G1X78.4615Y-68.9793

G1X79.1233Y-69.0397

G1X80.4138Y-69.5407

G1X81.0094Y-69.6698

G1X81.6050Y-69.5527

G1X82.3991Y-69.1872

G1X82.8954Y-69.0554

G1X83.2925Y-69.0861

G1X84.5830Y-69.5866

G1X85.1785Y-69.5140

G1X85.8734Y-69.2032

G1 Z0F20000

(Start Block)


G1X19.1663Y-68.2046
G1Z6F20000
(Plotting speed under)
G1 F4000


G1X19.8611Y-68.2595

G1X21.1351Y-68.1428

G1X22.6406Y-68.2332

G1X24.1461Y-68.1639

G1X44.1814Y-68.1639

G1X46.1502Y-68.2345

G1X47.8874Y-68.1416

G1X49.6246Y-68.2610

G1X51.1301Y-68.1061

G1X52.5198Y-68.2980

G1X54.0254Y-68.0732

G1X55.6467Y-68.3314

G1X57.2681Y-68.0280

G1X58.7736Y-68.3954

G1X60.0641Y-67.9943

G1X60.3619Y-67.9704

G1X62.1487Y-68.4528

G1X62.5458Y-68.3831

G1X63.5384Y-67.9837

G1X64.1009Y-67.9055

G1X64.5311Y-67.9693

G1X65.7223Y-68.4278

G1X66.4172Y-68.5224

G1X67.1120Y-68.4004

G1X68.5017Y-67.9590

G1X69.3124Y-67.8366

G1X73.1342Y-68.0625

G1X76.6086Y-67.8265

G1X77.6343Y-67.9354

G1X79.2226Y-68.4344

G1X79.8513Y-68.5194

G1X80.4138Y-68.4377

G1X81.5057Y-67.9967

G1X81.9359Y-67.9111

G1X82.4984Y-67.9669

G1X83.4910Y-68.3774

G1X83.8881Y-68.4523

G1X84.4837Y-68.3341

G1X85.1785Y-68.0380

G1X85.8734Y-67.9901

G1 Z0F20000

(Start Block)


G1X19.1663Y-67.1165
G1Z6F20000
(Plotting speed under)
G1 F4000


G1X20.5560Y-66.9923

G1X21.9457Y-67.0882

G1X23.4513Y-67.0180

G1X45.4554Y-67.0175

G1X47.3083Y-67.0861

G1X49.0455Y-66.9926

G1X50.5511Y-67.1146

G1X52.1724Y-66.9666

G1X53.7938Y-67.1474

G1X55.2001Y-66.9209

G1X56.6890Y-67.1978

G1X58.1780Y-66.8788

G1X59.9318Y-67.2394

G1X61.5531Y-66.8158

G1X62.1487Y-66.9237

G1X62.9428Y-67.2253

G1X63.5384Y-67.3044

G1X63.9355Y-67.2328

G1X65.0274Y-66.8307

G1X65.6230Y-66.7541

G1X66.1194Y-66.8289

G1X67.6084Y-67.3020

G1X68.3859Y-67.3748

G1X71.3970Y-66.8716

G1X73.3658Y-66.7705

G1X75.3346Y-66.8840

G1X78.2299Y-67.3764

G1X79.0240Y-67.2917

G1X80.3145Y-66.8580

G1X81.0094Y-66.7521

G1X82.9947Y-67.3077

G1X83.3918Y-67.2548

G1X84.3844Y-66.8829

G1X84.7153Y-66.8303

G1X85.2778Y-66.8865

G1X85.8734Y-67.1193

G1 Z0F20000

(Start Block)


G1X19.1663Y-65.9381
G1Z6F20000
(Plotting speed under)
G1 F4000


G1X19.9770Y-65.8487

G1X21.3667Y-65.9398

G1X22.9880Y-65.8727

G1X46.4977Y-65.8718

G1X48.3506Y-65.9416

G1X49.9720Y-65.8490

G1X51.7092Y-65.9678

G1X53.2147Y-65.8132

G1X54.6044Y-66.0047

G1X56.2258Y-65.7812

G1X57.8472Y-66.0419

G1X59.4685Y-65.7259

G1X61.0568Y-66.0960

G1X61.5531Y-66.0290

G1X62.4465Y-65.7312

G1X62.9428Y-65.6707

G1X64.3326Y-66.0886

G1X64.9282Y-66.1594

G1X65.4245Y-66.0751

G1X66.6157Y-65.6895

G1X67.2278Y-65.6055

G1X67.9062Y-65.6732

G1X69.4944Y-66.0749

G1X70.4705Y-66.2083

G1X75.9137Y-66.2303

G1X77.1380Y-66.1344

G1X78.9248Y-65.6961

G1X79.6196Y-65.6052

G1X80.3145Y-65.6907

G1X81.8200Y-66.1479

G1X82.4984Y-66.0995

G1X83.8881Y-65.6741

G1X84.4837Y-65.7519

G1X85.3771Y-66.0513

G1X85.8734Y-66.0964

G1 Z0F20000

(Start Block)


G1X19.1663Y-64.7271
G1Z6F20000
(Plotting speed under)
G1 F4000


G1X21.0193Y-64.7913

G1X22.5248Y-64.7253

G1X47.5400Y-64.7244

G1X49.2771Y-64.7930

G1X51.0143Y-64.6999

G1X52.5198Y-64.8233

G1X54.1412Y-64.6723

G1X55.7626Y-64.8537

G1X57.2681Y-64.6282

G1X58.8729Y-64.9024

G1X60.5108Y-64.5879

G1X62.2480Y-64.9570

G1X62.7443Y-64.8801

G1X63.6377Y-64.5946

G1X64.2333Y-64.5259

G1X65.7223Y-64.9301

G1X66.4172Y-65.0159

G1X67.1120Y-64.9091

G1X68.5017Y-64.5328

G1X69.3124Y-64.4581

G1X72.2077Y-64.7708

G1X73.5975Y-64.8338

G1X74.9872Y-64.7786

G1X77.3034Y-64.4926

G1X78.1141Y-64.4613

G1X78.8255Y-64.5461

G1X80.2152Y-64.9307

G1X80.8936Y-65.0159

G1X81.4064Y-64.9502

G1X82.9947Y-64.5239

G1X83.3918Y-64.5607

G1X84.8311Y-64.9448

G1X85.2778Y-64.9213

G1X85.8734Y-64.7389

G1 Z0F20000

(Start Block)


G1X19.1663Y-63.5527
G1Z6F20000
(Plotting speed under)
G1 F4000


G1X20.5560Y-63.6486

G1X22.0616Y-63.5780

G1X48.4665Y-63.5784

G1X50.3194Y-63.6476

G1X51.8250Y-63.5534

G1X53.5621Y-63.6723

G1X55.1835Y-63.5228

G1X56.6890Y-63.7142

G1X58.1946Y-63.4849

G1X59.9318Y-63.7514

G1X61.5531Y-63.4326

G1X63.5219Y-63.8065

G1X65.0274Y-63.4285

G1X65.6065Y-63.3797

G1X67.4098Y-63.8053

G1X68.0385Y-63.8692

G1X71.2812Y-63.3710

G1X74.6398Y-63.3134

G1X76.6086Y-63.4016

G1X79.5038Y-63.8702

G1X80.3145Y-63.7735

G1X81.8200Y-63.3889

G1X82.4984Y-63.4237

G1X83.5903Y-63.7492

G1X84.0204Y-63.8033

G1X84.4837Y-63.7666

G1X85.8734Y-63.4315

G1 Z0F20000

(Start Block)


G1X19.1663Y-62.4257
G1Z6F20000
(Plotting speed under)
G1 F4000


G1X20.0928Y-62.4981

G1X21.7141Y-62.4333

G1X49.2771Y-62.4325

G1X51.1301Y-62.5020

G1X52.7515Y-62.4093

G1X54.4886Y-62.5289

G1X55.9942Y-62.3734

G1X57.6155Y-62.5616

G1X59.3527Y-62.3378

G1X60.9575Y-62.6099

G1X62.8270Y-62.2900

G1X64.6800Y-62.6585

G1X65.2260Y-62.6002

G1X66.4172Y-62.2813

G1X66.9962Y-62.2304

G1X69.8915Y-62.7171

G1X73.9449Y-62.5176

G1X77.6509Y-62.7230

G1X78.6270Y-62.6512

G1X80.7777Y-62.2323

G1X81.4064Y-62.2800

G1X83.0940Y-62.6627

G1X83.6896Y-62.5994

G1X84.9800Y-62.2932

G1X85.8734Y-62.4075

G1 Z0F20000

(Start Block)


G1X19.1663Y-61.3171
G1Z6F20000
(Plotting speed under)
G1 F4000


G1X50.2036Y-61.2858

G1X51.8250Y-61.3551

G1X53.6780Y-61.2627

G1X55.2993Y-61.3842

G1X56.8049Y-61.2304

G1X58.5420Y-61.4162

G1X60.1634Y-61.1868

G1X62.0164Y-61.4590

G1X63.7535Y-61.1418

G1X65.9539Y-61.5148

G1X66.5164Y-61.4625

G1X67.8069Y-61.1575

G1X68.6176Y-61.0822

G1X71.7445Y-61.4809

G1X74.2923Y-61.5576

G1X76.4927Y-61.4702

G1X79.5038Y-61.0822

G1X80.3145Y-61.1572

G1X82.0517Y-61.5110

G1X82.5976Y-61.4836

G1X84.2521Y-61.1428

G1X84.6822Y-61.1698

G1X85.8734Y-61.4417

G1 Z0F20000

(Start Block)


G1X19.1663Y-60.1991
G1Z6F20000
(Plotting speed under)
G1 F4000


G1X21.1351Y-60.1398

G1X50.8985Y-60.1391

G1X52.6357Y-60.2081

G1X54.3728Y-60.1152

G1X55.9942Y-60.2377

G1X57.7313Y-60.0856

G1X59.4685Y-60.2735

G1X61.0899Y-60.0452

G1X62.9428Y-60.3189

G1X65.0274Y-59.9929

G1X66.7150Y-60.3196

G1X67.3436Y-60.3694

G1X70.3547Y-59.9427

G1X74.1765Y-60.0712

G1X77.6509Y-59.9363

G1X78.8090Y-60.0138

G1X80.8936Y-60.3665

G1X81.7042Y-60.3153

G1X82.8954Y-60.0443

G1X83.4414Y-59.9958

G1X85.1785Y-60.3019

G1X85.8734Y-60.2879

G1 Z0F20000

(Start Block)


G1X19.1663Y-59.0624
G1Z6F20000
(Plotting speed under)
G1 F4000


G1X20.6718Y-58.9926

G1X51.5934Y-58.9929

G1X53.3305Y-59.0616

G1X55.0677Y-58.9685

G1X56.6890Y-59.0907

G1X58.5420Y-58.9382

G1X60.1634Y-59.1277

G1X62.0164Y-58.8974

G1X63.8693Y-59.1681

G1X66.0697Y-58.8482

G1X68.1047Y-59.1760

G1X68.8492Y-59.2231

G1X71.9761Y-58.8780

G1X74.4081Y-58.8100

G1X76.6086Y-58.8797

G1X79.7355Y-59.2234

G1X80.5130Y-59.1730

G1X82.3991Y-58.8477

G1X83.0940Y-58.8929

G1X84.5995Y-59.1679

G1X85.8734Y-58.9959

G1 Z0F20000

(Start Block)


G1X19.1663Y-57.9112
G1Z6F20000
(Plotting speed under)
G1 F4000


G1X20.5560Y-57.8451

G1X52.0566Y-57.8461

G1X53.9096Y-57.9159

G1X55.7626Y-57.8227

G1X57.3839Y-57.9447

G1X59.2369Y-57.7909

G1X60.9741Y-57.9799

G1X62.8270Y-57.7479

G1X64.9116Y-58.0244

G1X67.2278Y-57.6990

G1X70.2389Y-58.0701

G1X74.4081Y-57.9320

G1X78.1141Y-58.0781

G1X79.1233Y-58.0255

G1X81.3568Y-57.7038

G1X82.0020Y-57.7266

G1X83.9046Y-58.0243

G1X85.8734Y-57.7511

G1 Z0F20000

(Start Block)


G1X19.1663Y-56.7535
G1Z6F20000
(Plotting speed under)
G1 F4000


G1X20.4402Y-56.6999

G1X52.5198Y-56.6986

G1X54.4886Y-56.7686

G1X56.2258Y-56.6756

G1X58.0788Y-56.7980

G1X59.8159Y-56.6444

G1X61.6689Y-56.8335

G1X63.6377Y-56.6002

G1X65.8381Y-56.8787

G1X68.5017Y-56.5521

G1X71.8603Y-56.8859

G1X74.9872Y-56.9298

G1X77.3034Y-56.8687

G1X80.1987Y-56.5558

G1X81.1086Y-56.5931

G1X83.0940Y-56.8789

G1X85.0793Y-56.6132

G1X85.8734Y-56.6321

G1 Z0F20000

(Start Block)


G1X19.1663Y-55.5951
G1Z6F20000
(Plotting speed under)
G1 F4000


G1X52.8673Y-55.5529

G1X54.8361Y-55.6215

G1X56.6890Y-55.5269

G1X58.5420Y-55.6498

G1X60.3950Y-55.4970

G1X62.3638Y-55.6873

G1X64.3326Y-55.4543

G1X66.7646Y-55.7310

G1X69.8915Y-55.4056

G1X74.5240Y-55.6328

G1X79.3880Y-55.4100

G1X82.2833Y-55.7324

G1X84.4837Y-55.4614

G1X85.8734Y-55.5829

G1 Z0F20000

(Start Block)


G1X19.1663Y-54.4389
G1Z6F20000
(Plotting speed under)
G1 F4000


G1X53.0989Y-54.4056

G1X55.1835Y-54.4759

G1X57.0365Y-54.3824

G1X58.8895Y-54.5035

G1X60.8582Y-54.3479

G1X62.9428Y-54.5419

G1X65.1432Y-54.3078

G1X67.6911Y-54.5857

G1X71.0496Y-54.2705

G1X77.4192Y-54.2590

G1X78.8090Y-54.3182

G1X81.2410Y-54.5825

G1X84.0204Y-54.3092

G1X85.8734Y-54.5176

G1 Z0F20000

(Start Block)


G1X19.1663Y-53.2856
G1Z6F20000
(Plotting speed under)
G1 F4000


G1X53.2147Y-53.2590

G1X55.2993Y-53.3298

G1X57.3839Y-53.2341

G1X59.3527Y-53.3581

G1X61.3215Y-53.2029

G1X63.5219Y-53.3937

G1X65.7223Y-53.1608

G1X68.6176Y-53.4397

G1X72.0919Y-53.1721

G1X74.6398Y-53.1242

G1X77.1876Y-53.1826

G1X80.1987Y-53.4355

G1X81.1252Y-53.4130

G1X83.3256Y-53.1629

G1X85.8734Y-53.3952

G1 Z0F20000

(Start Block)


G1X19.1663Y-52.1349
G1Z6F20000
(Plotting speed under)
G1 F4000


G1X53.2147Y-52.1125

G1X55.2993Y-52.1830

G1X57.4997Y-52.0880

G1X59.4685Y-52.2118

G1X61.6689Y-52.0553

G1X63.8693Y-52.2474

G1X66.4172Y-52.0144

G1X69.4282Y-52.2910

G1X74.5240Y-52.0866

G1X79.5038Y-52.2930

G1X82.7465Y-52.0152

G1X84.9469Y-52.2348

G1X85.8734Y-52.2233

G1 Z0F20000

(Start Block)


G1X19.1663Y-50.9863
G1Z6F20000
(Plotting speed under)
G1 F4000


G1X53.0989Y-50.9662

G1X55.2993Y-51.0368

G1X57.4997Y-50.9413

G1X59.7001Y-51.0643

G1X61.9005Y-50.9099

G1X64.2168Y-51.1019

G1X66.8804Y-50.8684

G1X70.2389Y-51.1399

G1X74.5240Y-51.0655

G1X78.2299Y-51.1467

G1X82.1675Y-50.8683

G1X84.5995Y-51.0961

G1X85.8734Y-51.0286

G1 Z0F20000

(Start Block)


G1X19.1663Y-49.8393
G1Z6F20000
(Plotting speed under)
G1 F4000


G1X52.6357Y-49.8196

G1X55.0677Y-49.8899

G1X57.3839Y-49.7943

G1X59.5843Y-49.9183

G1X62.0164Y-49.7628

G1X64.4484Y-49.9555

G1X67.3436Y-49.7214

G1X71.0496Y-49.9860

G1X76.7244Y-50.0002

G1X78.3457Y-49.9598

G1X81.3568Y-49.7224

G1X84.2521Y-49.9533

G1X85.8734Y-49.8341

G1 Z0F20000

(Start Block)


G1X19.1663Y-48.6935
G1Z6F20000
(Plotting speed under)
G1 F4000


G1X52.0566Y-48.6732

G1X54.6044Y-48.7437

G1X57.1523Y-48.6485

G1X59.4685Y-48.7726

G1X62.0164Y-48.6163

G1X64.5642Y-48.8086

G1X67.6911Y-48.5748

G1X71.3970Y-48.8126

G1X74.4081Y-48.8512

G1X77.3034Y-48.8052

G1X80.6619Y-48.5764

G1X83.9046Y-48.8085

G1X85.8734Y-48.6512

G1 Z0F20000

(Start Block)


G1X19.1663Y-47.5486
G1Z6F20000
(Plotting speed under)
G1 F4000


G1X51.2459Y-47.5265

G1X53.9096Y-47.5971

G1X56.6890Y-47.5015

G1X59.2369Y-47.6253

G1X61.7847Y-47.4692

G1X64.5642Y-47.6622

G1X67.9227Y-47.4279

G1X71.7445Y-47.6383

G1X74.1765Y-47.6782

G1X76.6086Y-47.6315

G1X80.0829Y-47.4291

G1X83.5572Y-47.6621

G1X85.8734Y-47.4823

G1 Z0F20000

(Start Block)


G1X19.1663Y-46.4042
G1Z6F20000
(Plotting speed under)
G1 F4000


G1X50.0878Y-46.3800

G1X53.0989Y-46.4506

G1X55.8784Y-46.3548

G1X58.6578Y-46.4795

G1X61.4373Y-46.3222

G1X64.3326Y-46.5162

G1X67.8069Y-46.2828

G1X73.8291Y-46.4957

G1X79.7355Y-46.2817

G1X83.2098Y-46.5159

G1X85.8734Y-46.3250

G1 Z0F20000

(Start Block)


G1X19.1663Y-45.2598
G1Z6F20000
(Plotting speed under)
G1 F4000


G1X48.6981Y-45.2335

G1X51.8250Y-45.3042

G1X54.9519Y-45.2087

G1X57.8472Y-45.3328

G1X60.8582Y-45.1754

G1X63.9851Y-45.3693

G1X67.6911Y-45.1363

G1X73.5975Y-45.3188

G1X79.2722Y-45.1353

G1X82.9781Y-45.3695

G1X85.8734Y-45.1754

G1 Z0F20000

(Start Block)


G1X19.1663Y-44.1152
G1Z6F20000
(Plotting speed under)
G1 F4000


G1X46.8451Y-44.0868

G1X50.3194Y-44.1576

G1X53.5621Y-44.0619

G1X56.8049Y-44.1864

G1X60.0476Y-44.0291

G1X63.4061Y-44.2229

G1X67.2278Y-43.9913

G1X73.2500Y-44.1542

G1X78.8090Y-43.9884

G1X82.6307Y-44.2227

G1X85.8734Y-44.0303

G1 Z0F20000

(Start Block)


G1X19.1663Y-42.9699
G1Z6F20000
(Plotting speed under)
G1 F4000


G1X44.8763Y-42.9403

G1X48.4665Y-43.0110

G1X51.9408Y-42.9153

G1X55.2993Y-43.0400

G1X58.8895Y-42.8826

G1X62.4796Y-43.0764

G1X66.6488Y-42.8440

G1X72.7868Y-43.0037

G1X78.4615Y-42.8421

G1X82.3991Y-43.0766

G1X85.8734Y-42.8873

G1 Z0F20000

(Start Block)


G1X19.1663Y-41.8237
G1Z6F20000
(Plotting speed under)
G1 F4000


G1X42.6759Y-41.7938

G1X46.3819Y-41.8644

G1X49.9720Y-41.7689

G1X53.5621Y-41.8932

G1X57.2681Y-41.7358

G1X61.3215Y-41.9299

G1X65.7223Y-41.6970

G1X72.2077Y-41.8677

G1X78.2299Y-41.6954

G1X82.2833Y-41.9299

G1X85.8734Y-41.7451

G1 Z0F20000

(Start Block)


G1X19.1663Y-40.6764
G1Z6F20000
(Plotting speed under)
G1 F4000


G1X40.3597Y-40.6474

G1X44.1814Y-40.7179

G1X47.7716Y-40.6223

G1X51.3617Y-40.7468

G1X55.2993Y-40.5894

G1X59.5843Y-40.7835

G1X64.3326Y-40.5505

G1X71.6286Y-40.7457

G1X77.9983Y-40.5488

G1X82.0517Y-40.7832

G1X84.8311Y-40.5999

G1X85.8734Y-40.6031

G1 Z0F20000


G00 X0.0000 Y0.0000


