$H
G21
G17
G90
G1 Z0F20000
G1 F15000

(Start Layer)

(Start Block)


G1X133.4108Y-290.1704
G1Z5F20000
(Plotting speed under)
G1 F4000


G1X133.2409Y-288.9072

G1X132.8551Y-287.0395

G1X132.3871Y-285.4097

G1X131.8090Y-283.8161

G1X131.0382Y-282.0735

G1X130.2579Y-280.5701

G1X129.3981Y-279.1114

G1X127.4782Y-276.3253

G1X126.3009Y-274.8317

G1X123.9292Y-272.1366

G1X120.1818Y-268.4260

G1X117.5105Y-266.0383

G1X114.9342Y-263.8662

G1X109.4968Y-259.5485

G1X94.1412Y-247.8176

G1X88.6160Y-243.3049

G1X84.6798Y-239.8402

G1X82.2375Y-237.5396

G1X79.7222Y-235.0132

G1X76.2091Y-231.1237

G1X72.9707Y-227.0042

G1X70.9599Y-224.0624

G1X70.0758Y-222.6377

G1X68.4383Y-219.7121

G1X66.1737Y-214.9878

G1X63.3483Y-208.6771

G1X60.6288Y-202.0935

G1X58.8569Y-197.3892

G1X57.1060Y-192.2320

G1X55.6342Y-187.2072

G1X54.7815Y-183.7504

G1X54.1168Y-180.4669

G1X53.5887Y-176.9466

G1X53.2936Y-173.3999

G1X53.2902Y-170.0513

G1X53.4119Y-168.3811

G1X53.6653Y-166.5141

G1X54.0107Y-164.8756

G1X54.5509Y-163.0708

G1X55.1830Y-161.5197

G1X55.9683Y-160.0400

G1X56.9121Y-158.6549

G1X58.1579Y-157.2385

G1X59.4164Y-156.1275

G1X60.9737Y-155.0568

G1X62.4591Y-154.2669

G1X64.0147Y-153.6222

G1X65.6209Y-153.1113

G1X67.4677Y-152.6795

G1X70.8128Y-152.2313

G1X72.7097Y-152.1280

G1X74.3996Y-152.1125

G1X77.9870Y-152.2781

G1X83.2325Y-152.9108

G1X86.5635Y-153.5042

G1X90.0770Y-154.2612

G1X96.8266Y-156.0283

G1X103.0884Y-157.9664

G1X111.2616Y-160.8343

G1X119.3269Y-163.9653

G1X127.4867Y-167.3754

G1X135.5476Y-170.9372

G1X161.8670Y-183.1623

G1X166.4772Y-185.1660

G1X171.1425Y-187.0258

G1X175.9223Y-188.6426

G1X179.0877Y-189.4013

G1X182.9079Y-189.0176

G1X183.9654Y-188.3385

G1X185.4706Y-187.1957

G1X186.7068Y-186.0603

G1X187.9685Y-184.6562

G1X188.9649Y-183.3095

G1X189.8419Y-181.8846

G1X190.6024Y-180.3966

G1X191.3288Y-178.6641

G1X191.8058Y-177.2862

G1X192.7010Y-173.8615

G1X193.0509Y-172.0207

G1X193.5386Y-168.5169

G1X193.8707Y-164.9940

G1X194.7155Y-153.1414

G1X195.1508Y-149.4032

G1X195.7541Y-145.8967

G1X196.5610Y-142.6437

G1X197.7497Y-139.2825

G1X198.4477Y-137.7555

G1X199.2429Y-136.2766

G1X200.2586Y-134.6826

G1X201.2683Y-133.3413

G1X202.3759Y-132.0805

G1X203.7319Y-130.7669

G1X205.0244Y-129.6997

G1X206.3889Y-128.7281

G1X207.8148Y-127.8514

G1X209.4795Y-126.9720

G1X211.0061Y-126.2912

G1X212.7751Y-125.6566

G1X214.3874Y-125.2292

G1X216.0296Y-124.9477

G1X217.8981Y-124.8244

G1X219.5581Y-124.9017

G1X220.9941Y-125.1186

G1X222.7982Y-125.5968

G1X224.3413Y-126.2027

G1X225.9937Y-127.0662

G1X227.3784Y-127.9767

G1X228.8389Y-129.1358

G1X230.0498Y-130.2682

G1X231.3188Y-131.6357

G1X233.3443Y-134.2628

G1X235.2086Y-137.2566

G1X236.7232Y-140.2125

G1X237.4839Y-141.9192

G1X238.6987Y-145.0122

G1X239.8340Y-148.3546

G1X241.2076Y-153.3598

G1X242.2268Y-158.4486

G1X242.7189Y-161.9429

G1X243.0346Y-165.2490

G1X243.2514Y-170.4320

G1X243.2067Y-174.1654

G1X243.0418Y-177.2729

G1X242.5041Y-182.6353

G1X241.9856Y-186.1194

G1X241.4617Y-188.9726

G1X240.7666Y-192.2114

G1X239.9708Y-195.4250

G1X239.0217Y-198.8094

G1X238.0341Y-201.9646

G1X235.6582Y-208.5656

G1X233.0199Y-214.8299

G1X230.0899Y-220.9474

G1X228.4772Y-224.0409

G1X226.0879Y-228.3398

G1X224.3226Y-231.3369

G1X221.6217Y-235.6725

G1X216.8256Y-242.7650

G1X211.8560Y-249.4598

G1X208.6961Y-253.4333

G1X205.4484Y-257.3307

G1X200.8730Y-262.4912

G1X194.9835Y-268.6473

G1X188.9748Y-274.4064

G1X186.4059Y-276.7156

G1X182.6970Y-279.8865

G1X177.2719Y-284.1831

G1X171.6282Y-288.2030

G1X168.8897Y-289.9775

G1X165.9175Y-291.7662

G1X163.2374Y-293.2447

G1X159.9460Y-294.8865

G1X156.7541Y-296.2480

G1X155.2226Y-296.8144

G1X153.4768Y-297.3851

G1X150.3130Y-298.1816

G1X148.7047Y-298.4510

G1X146.8793Y-298.6255

G1X145.2499Y-298.6401

G1X143.6272Y-298.4954

G1X142.0323Y-298.1604

G1X140.4981Y-297.6044

G1X138.9009Y-296.6902

G1X137.6508Y-295.6210

G1X136.4833Y-294.1724

G1X135.5839Y-292.5297

G1X134.9958Y-290.9622

G1X134.5811Y-289.3335

G1X134.0971Y-285.7776

G1X133.7457Y-283.9194

G1X133.3137Y-282.3002

G1X132.7767Y-280.7191

G1X132.0578Y-278.9932

G1X131.3281Y-277.5070

G1X129.6511Y-274.6754

G1X127.6151Y-271.8650

G1X125.3837Y-269.2361

G1X123.0072Y-266.7619

G1X120.6718Y-264.5495

G1X118.2633Y-262.4294

G1X115.4861Y-260.1331

G1X110.2718Y-256.0841

G1X95.4774Y-245.0261

G1X91.5320Y-241.8816

G1X87.6811Y-238.6067

G1X84.1122Y-235.3081

G1X80.4347Y-231.5312

G1X77.1460Y-227.6708

G1X74.1667Y-223.5664

G1X72.4570Y-220.8078

G1X70.1207Y-216.3088

G1X66.5920Y-208.7646

G1X63.8588Y-202.4046

G1X62.0687Y-197.8508

G1X60.2914Y-192.8502

G1X58.7880Y-187.9705

G1X57.5473Y-183.0161

G1X56.8988Y-179.6042

G1X56.4759Y-176.3650

G1X56.2781Y-172.9024

G1X56.4005Y-169.6449

G1X56.6326Y-167.8270

G1X56.9583Y-166.2323

G1X57.4753Y-164.4768

G1X58.0858Y-162.9696

G1X58.8490Y-161.5335

G1X59.7700Y-160.1915

G1X60.9899Y-158.8225

G1X62.2252Y-157.7521

G1X63.7567Y-156.7252

G1X65.2196Y-155.9722

G1X66.7533Y-155.3625

G1X68.3380Y-154.8848

G1X70.1615Y-154.4884

G1X71.8071Y-154.2477

G1X75.3413Y-154.0261

G1X77.0120Y-154.0370

G1X80.5591Y-154.2561

G1X85.7455Y-154.9634

G1X89.0381Y-155.6029

G1X92.5097Y-156.4083

G1X99.1728Y-158.2695

G1X105.3442Y-160.2987

G1X113.3770Y-163.2946

G1X121.2669Y-166.5661

G1X127.5080Y-169.3556

G1X135.2910Y-173.0607

G1X142.8549Y-176.8806

G1X158.2788Y-184.9532

G1X162.3416Y-186.9033

G1X166.4415Y-188.6460

G1X170.6764Y-190.1483

G1X173.6859Y-190.9925

G1X175.1514Y-191.3131

G1X176.6579Y-191.5506

G1X180.3489Y-191.0112

G1X181.4003Y-190.3243

G1X182.9046Y-189.1803

G1X184.1477Y-188.0538

G1X185.4250Y-186.6696

G1X186.4414Y-185.3480

G1X187.3433Y-183.9536

G1X188.1330Y-182.5003

G1X188.8961Y-180.8101

G1X189.4039Y-179.4666

G1X190.3797Y-176.1276

G1X190.7743Y-174.3317

G1X191.3479Y-170.9095

G1X191.7656Y-167.4623

G1X192.8675Y-155.8076

G1X193.3673Y-152.1130

G1X194.0209Y-148.6389

G1X194.8640Y-145.4085

G1X196.0773Y-142.0623

G1X196.7814Y-140.5390

G1X197.5792Y-139.0615

G1X198.5931Y-137.4665

G1X199.5974Y-136.1220

G1X200.6960Y-134.8558

G1X202.0379Y-133.5336

G1X203.3147Y-132.4567

G1X204.6608Y-131.4737

G1X206.0663Y-130.5840

G1X207.7059Y-129.6883

G1X209.2084Y-128.9916

G1X210.9482Y-128.3373

G1X212.5327Y-127.8907

G1X214.1452Y-127.5883

G1X215.9781Y-127.4393

G1X217.6048Y-127.4917

G1X219.0105Y-127.6855

G1X220.7745Y-128.1322

G1X222.2813Y-128.7087

G1X223.8925Y-129.5378

G1X225.2407Y-130.4168

G1X226.6604Y-131.5395

G1X227.8356Y-132.6390

G1X229.0650Y-133.9689

G1X231.0220Y-136.5278

G1X232.0065Y-138.0515

G1X232.8161Y-139.4473

G1X234.2671Y-142.3317

G1X234.9930Y-143.9975

G1X236.1477Y-147.0161

G1X237.7253Y-152.0236

G1X238.8867Y-156.9366

G1X239.4461Y-160.1191

G1X239.8859Y-163.5231

G1X240.2465Y-168.5562

G1X240.3028Y-171.7846

G1X240.2120Y-175.4136

G1X239.8414Y-180.2374

G1X239.1731Y-185.2271

G1X238.0139Y-191.1481

G1X236.7798Y-196.0116

G1X234.8090Y-202.3188

G1X232.4154Y-208.6684

G1X229.7790Y-214.6775

G1X226.8724Y-220.5299

G1X225.2809Y-223.4834

G1X222.9331Y-227.5818

G1X218.5744Y-234.5586

G1X213.9323Y-241.2967

G1X209.1582Y-247.6573

G1X203.0448Y-255.1513

G1X198.6986Y-260.0830

G1X193.1160Y-265.9941

G1X187.4226Y-271.5573

G1X181.4660Y-276.8846

G1X177.5397Y-280.1179

G1X174.9045Y-282.1587

G1X169.7862Y-285.8097

G1X166.9772Y-287.6300

G1X164.1000Y-289.3474

G1X159.7356Y-291.6488

G1X156.6684Y-293.0046

G1X155.1955Y-293.5700

G1X153.5154Y-294.1408

G1X150.4691Y-294.9408

G1X148.9198Y-295.2136

G1X147.1610Y-295.3932

G1X145.5912Y-295.4136

G1X144.0281Y-295.2758

G1X142.4926Y-294.9488

G1X141.0169Y-294.4017

G1X139.4831Y-293.4984

G1X138.2856Y-292.4393

G1X137.1715Y-291.0018

G1X136.3186Y-289.3696

G1X135.7661Y-287.8105

G1X135.3822Y-286.1895

G1X134.9529Y-282.6480

G1X134.6356Y-280.7995

G1X134.2397Y-279.1907

G1X133.7439Y-277.6222

G1X133.0769Y-275.9130

G1X132.3978Y-274.4440

G1X130.8330Y-271.6539

G1X128.9287Y-268.8984

G1X126.8376Y-266.3357

G1X124.6060Y-263.9387

G1X122.4080Y-261.8087

G1X120.1356Y-259.7798

G1X117.5073Y-257.5952

G1X112.5476Y-253.7718

G1X97.0553Y-242.4781

G1X93.2325Y-239.4871

G1X89.5005Y-236.3523

G1X85.9042Y-233.0398

G1X82.4968Y-229.5190

G1X79.3405Y-225.7649

G1X76.5057Y-221.7621

G1X74.8956Y-219.0689

G1X71.9613Y-213.2951

G1X69.1728Y-207.4186

G1X66.4720Y-201.2550

G1X64.6348Y-196.6446

G1X62.9617Y-191.9619

G1X61.5010Y-187.2021

G1X60.6632Y-183.9199

G1X59.9860Y-180.6017

G1X59.5335Y-177.4497

G1X59.3015Y-174.0794

G1X59.3886Y-170.9088

G1X59.5994Y-169.1400

G1X59.9053Y-167.5890

G1X60.3991Y-165.8829

G1X60.9881Y-164.4196

G1X61.7291Y-163.0271

G1X62.6274Y-161.7282

G1X63.8212Y-160.4065

G1X65.0334Y-159.3768

G1X66.5392Y-158.3936

G1X67.9796Y-157.6776

G1X69.4913Y-157.1029

G1X71.0547Y-156.6584

G1X72.8547Y-156.2974

G1X74.4800Y-156.0865

G1X76.1194Y-155.9660

G1X79.6239Y-155.9616

G1X81.4810Y-156.0755

G1X84.7766Y-156.4409

G1X89.8880Y-157.3431

G1X93.3310Y-158.1386

G1X96.5464Y-158.9965

G1X103.2928Y-161.1004

G1X110.5078Y-163.7369

G1X118.5249Y-167.0562

G1X126.3469Y-170.6508

G1X132.3324Y-173.6298

G1X138.3156Y-176.8061

G1X145.2140Y-180.7172

G1X156.6756Y-187.5223

G1X160.2165Y-189.4374

G1X162.4757Y-190.5119

G1X166.1004Y-191.9328

G1X168.6965Y-192.7187

G1X171.4489Y-193.3425

G1X174.2275Y-193.6999

G1X177.7893Y-193.0049

G1X180.3380Y-191.1651

G1X181.5881Y-190.0475

G1X182.8810Y-188.6831

G1X183.9174Y-187.3865

G1X184.8443Y-186.0227

G1X185.6630Y-184.6040

G1X186.4628Y-182.9561

G1X187.6022Y-179.9348

G1X188.0579Y-178.3937

G1X188.8313Y-175.0758

G1X189.6600Y-169.9306

G1X190.8092Y-160.0931

G1X191.2824Y-156.6490

G1X191.8891Y-153.2016

G1X192.6963Y-149.7715

G1X193.7054Y-146.5924

G1X194.4044Y-144.8421

G1X195.1147Y-143.3225

G1X195.9149Y-141.8466

G1X196.9271Y-140.2505

G1X197.9259Y-138.9027

G1X199.0155Y-137.6311

G1X200.3433Y-136.3003

G1X201.6044Y-135.2137

G1X202.9323Y-134.2193

G1X204.3173Y-133.3165

G1X205.9316Y-132.4046

G1X207.4101Y-131.6921

G1X209.1208Y-131.0182

G1X210.6775Y-130.5524

G1X212.2602Y-130.2290

G1X214.0576Y-130.0542

G1X215.6510Y-130.0818

G1X217.0264Y-130.2525

G1X218.7503Y-130.6677

G1X220.2208Y-131.2148

G1X221.7908Y-132.0095

G1X223.1024Y-132.8569

G1X224.4814Y-133.9433

G1X225.6209Y-135.0099

G1X226.8106Y-136.3022

G1X227.7894Y-137.5205

G1X228.6991Y-138.7928

G1X230.4230Y-141.6381

G1X231.8104Y-144.4509

G1X232.5016Y-146.0758

G1X234.0914Y-150.5107

G1X235.4620Y-155.4262

G1X236.4284Y-160.2372

G1X237.0523Y-165.1034

G1X237.2742Y-168.2352

G1X237.3636Y-171.5684

G1X237.2174Y-176.6619

G1X236.7909Y-181.3422

G1X236.0707Y-186.1766

G1X234.8586Y-191.9035

G1X233.5889Y-196.5984

G1X231.5840Y-202.6731

G1X229.1726Y-208.7713

G1X226.5382Y-214.5252

G1X223.6550Y-220.1124

G1X219.7785Y-226.8238

G1X215.5271Y-233.4447

G1X211.0391Y-239.8285

G1X206.4606Y-245.8547

G1X200.6413Y-252.9719

G1X194.5398Y-259.8516

G1X189.1780Y-265.4555

G1X183.5674Y-270.8804

G1X177.8148Y-275.9597

G1X172.8108Y-279.9606

G1X167.7250Y-283.5939

G1X165.0081Y-285.3413

G1X162.5513Y-286.7921

G1X158.1510Y-289.0691

G1X155.1684Y-290.3256

G1X153.5542Y-290.8965

G1X150.6253Y-291.7001

G1X149.1349Y-291.9763

G1X147.4428Y-292.1611

G1X145.9326Y-292.1873

G1X144.4291Y-292.0563

G1X142.9531Y-291.7373

G1X141.5358Y-291.1991

G1X140.0653Y-290.3067

G1X138.9205Y-289.2577

G1X137.8598Y-287.8312

G1X137.0533Y-286.2095

G1X136.5365Y-284.6589

G1X136.1834Y-283.0457

G1X135.8087Y-279.5185

G1X135.5256Y-277.6796

G1X135.1658Y-276.0813

G1X134.7111Y-274.5254

G1X134.0960Y-272.8328

G1X132.7712Y-269.9811

G1X131.2067Y-267.3342

G1X129.2286Y-264.5870

G1X127.3246Y-262.3230

G1X125.1850Y-260.0768

G1X122.9504Y-257.9668

G1X120.7773Y-256.0815

G1X118.4056Y-254.1645

G1X113.6578Y-250.6137

G1X102.4599Y-242.7635

G1X98.7059Y-240.0422

G1X94.9987Y-237.1997

G1X91.3803Y-234.1999

G1X87.8999Y-231.0097

G1X84.6147Y-227.6003

G1X81.5907Y-223.9500

G1X79.7205Y-221.3244

G1X78.1241Y-218.7475

G1X75.2046Y-213.2105

G1X72.4142Y-207.5600

G1X69.6962Y-201.6171

G1X67.8379Y-197.1613

G1X66.1372Y-192.6272

G1X64.6431Y-188.0109

G1X63.7792Y-184.8238

G1X63.0733Y-181.5992

G1X62.5913Y-178.5345

G1X62.3249Y-175.2564

G1X62.3767Y-172.1727

G1X62.5663Y-170.4530

G1X62.8524Y-168.9459

G1X63.3230Y-167.2891

G1X63.8905Y-165.8697

G1X64.6092Y-164.5208

G1X65.4848Y-163.2650

G1X66.6527Y-161.9906

G1X67.8417Y-161.0016

G1X69.3217Y-160.0622

G1X70.7397Y-159.3830

G1X72.2294Y-158.8433

G1X73.7714Y-158.4321

G1X75.5480Y-158.1064

G1X77.1530Y-157.9254

G1X78.7725Y-157.8335

G1X82.2358Y-157.8863

G1X84.0715Y-158.0289

G1X87.3294Y-158.4434

G1X92.3814Y-159.4190

G1X95.7831Y-160.2631

G1X98.9583Y-161.1665

G1X105.6133Y-163.3679

G1X112.7149Y-166.1149

G1X120.5764Y-169.5697

G1X128.1993Y-173.3145

G1X135.5227Y-177.2907

G1X141.0015Y-180.5338

G1X147.5032Y-184.7109

G1X156.3790Y-190.7532

G1X159.3911Y-192.5751

G1X161.3066Y-193.5384

G1X162.4038Y-194.0056

G1X164.4239Y-194.7106

G1X166.7167Y-195.2890

G1X169.2120Y-195.6925

G1X171.7972Y-195.8493

G1X175.2298Y-194.9987

G1X177.7715Y-193.1498

G1X179.0285Y-192.0412

G1X180.3370Y-190.6967

G1X181.3934Y-189.4252

G1X182.3452Y-188.0918

G1X183.1931Y-186.7077

G1X184.0296Y-185.1022

G1X185.2416Y-182.1606

G1X185.7361Y-180.6600

G1X186.2201Y-178.9539

G1X186.9656Y-175.6950

G1X187.7956Y-170.8375

G1X189.4675Y-159.3383

G1X190.1301Y-155.9279

G1X190.9822Y-152.5262

G1X192.0214Y-149.3655

G1X193.4479Y-146.1061

G1X194.2506Y-144.6316

G1X195.2612Y-143.0346

G1X196.2545Y-141.6835

G1X197.3351Y-140.4064

G1X198.6489Y-139.0671

G1X199.8942Y-137.9708

G1X201.2038Y-136.9650

G1X202.5683Y-136.0492

G1X204.1575Y-135.1210

G1X205.6119Y-134.3927

G1X207.2935Y-133.6991

G1X208.8223Y-133.2141

G1X210.3753Y-132.8698

G1X212.1371Y-132.6692

G1X213.6972Y-132.6720

G1X215.0423Y-132.8196

G1X216.7261Y-133.2033

G1X218.1603Y-133.7209

G1X219.6892Y-134.4812

G1X220.9643Y-135.2971

G1X222.3025Y-136.3472

G1X223.4062Y-137.3809

G1X224.5564Y-138.6355

G1X225.5006Y-139.8200

G1X226.3763Y-141.0580

G1X228.0300Y-143.8290

G1X229.3539Y-146.5703

G1X230.0103Y-148.1541

G1X231.0447Y-151.0242

G1X232.4354Y-155.7815

G1X233.4272Y-160.4437

G1X233.8836Y-163.4604

G1X234.2188Y-166.6838

G1X234.4349Y-171.4426

G1X234.3429Y-176.0120

G1X233.9515Y-180.7504

G1X233.2451Y-185.6348

G1X232.6281Y-188.7960

G1X232.0307Y-191.3770

G1X230.3986Y-197.1852

G1X228.8848Y-201.6258

G1X226.6025Y-207.3444

G1X224.0392Y-212.8908

G1X221.1504Y-218.4210

G1X217.3887Y-224.8431

G1X213.2861Y-231.1570

G1X208.1464Y-238.3603

G1X203.0002Y-245.0069

G1X197.2202Y-251.9851

G1X191.4169Y-258.5076

G1X186.3223Y-263.8571

G1X180.9814Y-269.0655

G1X175.4851Y-273.9632

G1X170.8276Y-277.7155

G1X165.9336Y-281.2257

G1X162.2087Y-283.5659

G1X159.3156Y-285.1735

G1X156.4976Y-286.5181

G1X153.5935Y-287.6524

G1X152.1968Y-288.0927

G1X149.3506Y-288.7390

G1X147.7252Y-288.9289

G1X146.2744Y-288.9608

G1X144.8306Y-288.8368

G1X143.4140Y-288.5257

G1X142.0552Y-287.9964

G1X140.6481Y-287.1149

G1X139.5558Y-286.0759

G1X138.5485Y-284.6607

G1X137.7886Y-283.0493

G1X137.3073Y-281.5072

G1X136.9851Y-279.9017

G1X136.6650Y-276.3890

G1X136.4162Y-274.5596

G1X136.0924Y-272.9718

G1X135.6788Y-271.4284

G1X134.5379Y-268.3180

G1X133.1976Y-265.6111

G1X131.5568Y-262.9654

G1X129.7460Y-260.5350

G1X126.8531Y-257.2937

G1X124.7641Y-255.2763

G1X122.7254Y-253.4866

G1X118.3348Y-250.0443

G1X113.7456Y-246.8028

G1X101.5874Y-238.5500

G1X97.9712Y-235.8983

G1X94.4283Y-233.0867

G1X91.0095Y-230.0822

G1X87.7732Y-226.8566

G1X84.7867Y-223.3887

G1X83.7861Y-222.0787

G1X82.1239Y-219.6689

G1X80.6255Y-217.1584

G1X76.9956Y-210.3466

G1X74.1851Y-204.6896

G1X72.3058Y-200.6117

G1X70.3989Y-196.1090

G1X69.3132Y-193.2925

G1X67.7856Y-188.8196

G1X66.8957Y-185.7276

G1X66.1611Y-182.5967

G1X65.6495Y-179.6192

G1X65.3489Y-176.4333

G1X65.3654Y-173.4366

G1X65.5337Y-171.7660

G1X65.8001Y-170.3026

G1X66.2474Y-168.6952

G1X66.7934Y-167.3197

G1X67.4899Y-166.0144

G1X68.3427Y-164.8017

G1X69.4846Y-163.5747

G1X70.6506Y-162.6263

G1X72.1048Y-161.7306

G1X73.5003Y-161.0884

G1X74.9681Y-160.5837

G1X76.4886Y-160.2057

G1X78.2418Y-159.9154

G1X81.4262Y-159.7009

G1X83.2352Y-159.7209

G1X86.6625Y-159.9822

G1X91.4864Y-160.7429

G1X96.4609Y-161.8993

G1X99.8068Y-162.8500

G1X102.9277Y-163.8453

G1X109.4594Y-166.2245

G1X116.5944Y-169.2329

G1X124.0665Y-172.8037

G1X131.4285Y-176.7501

G1X137.1103Y-180.1205

G1X143.5160Y-184.3317

G1X148.3348Y-187.8470

G1X156.0828Y-193.9840

G1X157.6846Y-195.1446

G1X159.3483Y-196.1647

G1X161.0464Y-196.9522

G1X161.8803Y-197.2441

G1X163.7742Y-197.7080

G1X165.7558Y-197.9697

G1X166.9756Y-198.0425

G1X169.3675Y-197.9987

G1X172.6708Y-196.9925

G1X175.2055Y-195.1345

G1X176.4694Y-194.0348

G1X177.7935Y-192.7102

G1X178.8700Y-191.4637

G1X179.8468Y-190.1609

G1X180.7237Y-188.8115

G1X182.1972Y-186.0082

G1X183.4148Y-182.9261

G1X183.9436Y-181.2649

G1X184.7751Y-178.0878

G1X185.7300Y-173.3389

G1X187.6531Y-162.0275

G1X188.3717Y-158.6541

G1X189.2685Y-155.2807

G1X190.3379Y-152.1386

G1X191.7817Y-148.8897

G1X192.5869Y-147.4167

G1X193.5958Y-145.8186

G1X194.5837Y-144.4643

G1X195.6552Y-143.1817

G1X196.9549Y-141.8338

G1X198.1846Y-140.7279

G1X199.4758Y-139.7106

G1X200.8198Y-138.7818

G1X202.3839Y-137.8374

G1X203.8142Y-137.0931

G1X205.4667Y-136.3799

G1X206.9676Y-135.8757

G1X208.4910Y-135.5105

G1X210.2172Y-135.2842

G1X211.7439Y-135.2622

G1X213.0588Y-135.3866

G1X214.7025Y-135.7388

G1X216.1003Y-136.2270

G1X217.5881Y-136.9529

G1X218.8266Y-137.7373

G1X220.1241Y-138.7511

G1X221.1920Y-139.7518

G1X222.3026Y-140.9689

G1X223.2122Y-142.1194

G1X224.0540Y-143.3231

G1X225.6376Y-146.0198

G1X226.8978Y-148.6896

G1X227.5195Y-150.2325

G1X228.4938Y-153.0283

G1X229.7909Y-157.6605

G1X230.6980Y-162.1972

G1X231.2545Y-166.6040

G1X231.5140Y-171.2216

G1X231.4565Y-175.8428

G1X231.0973Y-180.4445

G1X230.4244Y-185.1870

G1X229.5088Y-189.6882

G1X228.0910Y-194.9930

G1X226.1805Y-200.6830

G1X223.9474Y-206.2036

G1X222.0708Y-210.2655

G1X219.3864Y-215.4637

G1X215.6929Y-221.8112

G1X211.8565Y-227.7306

G1X207.7563Y-233.5400

G1X201.8906Y-241.2164

G1X195.8348Y-248.6133

G1X190.4204Y-254.8386

G1X184.6458Y-261.0793

G1X179.6328Y-266.1147

G1X174.4574Y-270.8858

G1X170.0552Y-274.5644

G1X165.4115Y-278.0235

G1X161.8656Y-280.3397

G1X159.1053Y-281.9359

G1X156.4120Y-283.2748

G1X153.6322Y-284.4082

G1X152.2942Y-284.8498

G1X149.5657Y-285.5018

G1X148.0070Y-285.6968

G1X146.6157Y-285.7344

G1X145.2316Y-285.6173

G1X143.8744Y-285.3141

G1X142.5741Y-284.7938

G1X141.2303Y-283.9232

G1X140.1906Y-282.8942

G1X139.2367Y-281.4901

G1X138.5233Y-279.8892

G1X138.0777Y-278.3556

G1X137.7862Y-276.7578

G1X137.5208Y-273.2594

G1X137.3062Y-271.4396

G1X137.0185Y-269.8624

G1X136.6460Y-268.3315

G1X135.6076Y-265.2551

G1X134.3797Y-262.5896

G1X132.8705Y-259.9989

G1X131.2000Y-257.6346

G1X128.5207Y-254.5106

G1X126.5772Y-252.5858

G1X124.6729Y-250.8917

G1X120.5440Y-247.6683

G1X116.1874Y-244.6665

G1X106.7329Y-238.5653

G1X103.1949Y-236.1887

G1X99.6850Y-233.6733

G1X96.3872Y-231.0941

G1X92.9474Y-228.0869

G1X89.8377Y-224.9590

G1X86.9924Y-221.5828

G1X85.3461Y-219.2893

G1X83.8592Y-216.8950

G1X80.2399Y-210.3798

G1X77.4191Y-204.9493

G1X75.5239Y-201.0239

G1X73.5927Y-196.6797

G1X72.4887Y-193.9578

G1X70.9276Y-189.6283

G1X70.0117Y-186.6315

G1X69.2484Y-183.5942

G1X68.7072Y-180.7039

G1X68.3723Y-177.6103

G1X68.3535Y-174.7004

G1X68.5006Y-173.0789

G1X68.7471Y-171.6594

G1X69.1712Y-170.1014

G1X69.6958Y-168.7697

G1X70.3701Y-167.5080

G1X71.2001Y-166.3384

G1X72.3160Y-165.1587

G1X73.4589Y-164.2510

G1X74.8873Y-163.3991

G1X76.2603Y-162.7937

G1X77.7062Y-162.3241

G1X79.2053Y-161.9794

G1X80.9351Y-161.7244

G1X84.0792Y-161.5684

G1X85.8663Y-161.6192

G1X89.2529Y-161.9356

G1X94.0202Y-162.7692

G1X98.9350Y-163.9982

G1X102.2391Y-164.9972

G1X105.3190Y-166.0380

G1X108.5563Y-167.2350

G1X112.8792Y-168.9872

G1X117.1298Y-170.8708

G1X120.3997Y-172.4238

G1X127.6481Y-176.1984

G1X131.9048Y-178.6416

G1X134.5515Y-180.2559

G1X139.9293Y-183.7956

G1X142.4676Y-185.6096

G1X145.8415Y-188.1976

G1X150.1106Y-191.8246

G1X156.4291Y-197.7983

G1X158.3504Y-199.2519

G1X159.6884Y-199.8987

G1X160.3597Y-200.1101

G1X161.9318Y-200.3786

G1X164.7387Y-200.3925

G1X166.9371Y-200.1481

G1X170.1112Y-198.9862

G1X172.6390Y-197.1193

G1X173.9098Y-196.0285

G1X175.2495Y-194.7238

G1X176.3460Y-193.5023

G1X177.3477Y-192.2300

G1X178.2538Y-190.9152

G1X179.7948Y-188.1888

G1X181.0930Y-185.1923

G1X181.6665Y-183.5761

G1X182.5840Y-180.4805

G1X183.6638Y-175.8404

G1X185.4740Y-166.4730

G1X186.2316Y-162.9525

G1X187.0865Y-159.6083

G1X188.0743Y-156.4681

G1X189.3863Y-153.1817

G1X190.9226Y-150.2017

G1X191.9298Y-148.6027

G1X192.9123Y-147.2450

G1X193.9748Y-145.9571

G1X195.2604Y-144.6006

G1X196.4743Y-143.4849

G1X199.0708Y-141.5145

G1X200.6098Y-140.5538

G1X202.0160Y-139.7937

G1X203.6393Y-139.0608

G1X205.1124Y-138.5374

G1X206.6061Y-138.1512

G1X208.2967Y-137.8992

G1X209.7901Y-137.8524

G1X211.0746Y-137.9536

G1X212.6783Y-138.2744

G1X214.0398Y-138.7332

G1X215.4864Y-139.4246

G1X216.6884Y-140.1775

G1X217.9452Y-141.1549

G1X218.9773Y-142.1228

G1X220.0483Y-143.3022

G1X220.9233Y-144.4188

G1X221.7311Y-145.5882

G1X223.2445Y-148.2107

G1X224.4412Y-150.8089

G1X225.0281Y-152.3108

G1X225.9423Y-155.0323

G1X227.1459Y-159.5394

G1X227.9683Y-163.9508

G1X228.4483Y-168.2325

G1X228.6335Y-172.7148

G1X228.5075Y-177.1956

G1X228.0858Y-181.6515

G1X227.3544Y-186.2366

G1X226.3894Y-190.5805

G1X224.9220Y-195.6885

G1X223.5343Y-199.6788

G1X221.9095Y-203.7361

G1X219.4448Y-209.0801

G1X216.8162Y-214.0685

G1X213.2981Y-219.9927

G1X209.5761Y-225.6280

G1X205.5304Y-231.2615

G1X199.9325Y-238.5036

G1X193.4313Y-246.4341

G1X187.4285Y-253.3892

G1X181.2143Y-260.1612

G1X176.5427Y-264.8773

G1X172.4454Y-268.6957

G1X168.1103Y-272.3670

G1X163.6447Y-275.7041

G1X161.5226Y-277.1135

G1X158.8951Y-278.6984

G1X156.3263Y-280.0315

G1X153.6710Y-281.1640

G1X152.3915Y-281.6069

G1X149.7808Y-282.2645

G1X148.2888Y-282.4646

G1X146.9571Y-282.5080

G1X145.6326Y-282.3977

G1X144.3348Y-282.1025

G1X143.0930Y-281.5911

G1X141.8126Y-280.7314

G1X140.8255Y-279.7125

G1X139.9250Y-278.3195

G1X139.2581Y-276.7291

G1X138.8481Y-275.2040

G1X138.5874Y-273.6138

G1X138.3765Y-270.1299

G1X138.1962Y-268.3197

G1X137.9446Y-266.7529

G1X137.1538Y-263.5921

G1X136.1444Y-260.8508

G1X134.9352Y-258.3432

G1X133.3906Y-255.7882

G1X131.8905Y-253.7268

G1X129.3537Y-250.8459

G1X127.6256Y-249.1813

G1X125.5931Y-247.4439

G1X121.6516Y-244.5227

G1X117.4654Y-241.7980

G1X106.1105Y-234.7655

G1X102.6858Y-232.4399

G1X99.4558Y-230.0406

G1X96.0755Y-227.2258

G1X93.0105Y-224.2811

G1X90.1987Y-221.0870

G1X87.8099Y-217.7829

G1X84.9351Y-212.9566

G1X82.1387Y-207.9842

G1X80.0065Y-203.9609

G1X78.1262Y-200.1594

G1X76.2166Y-195.9418

G1X75.0645Y-193.1272

G1X73.5538Y-188.9061

G1X72.7346Y-186.1552

G1X72.0266Y-183.1936

G1X71.5342Y-180.2012

G1X71.3281Y-177.3735

G1X71.3416Y-175.9643

G1X71.4674Y-174.3919

G1X71.6943Y-173.0161

G1X72.0951Y-171.5075

G1X72.5981Y-170.2197

G1X73.2502Y-169.0017

G1X74.0575Y-167.8751

G1X75.1475Y-166.7428

G1X76.2671Y-165.8757

G1X77.6699Y-165.0675

G1X79.0203Y-164.4991

G1X80.4443Y-164.0646

G1X81.9221Y-163.7530

G1X83.6283Y-163.5334

G1X86.7323Y-163.4358

G1X88.4974Y-163.5174

G1X91.8434Y-163.8890

G1X94.9880Y-164.4509

G1X98.3085Y-165.2269

G1X101.4091Y-166.0970

G1X104.6713Y-167.1444

G1X110.9020Y-169.4763

G1X114.0543Y-170.8061

G1X117.8933Y-172.5556

G1X123.9522Y-175.5962

G1X129.6254Y-178.7707

G1X135.0443Y-182.1382

G1X138.9369Y-184.8015

G1X141.4555Y-186.6585

G1X143.8514Y-188.5442

G1X146.9879Y-191.2328

G1X149.0055Y-193.1288

G1X150.8307Y-194.9882

G1X153.1328Y-197.5733

G1X155.9666Y-201.0096

G1X157.3525Y-202.3390

G1X158.3304Y-202.8453

G1X158.8391Y-202.9762

G1X160.0895Y-203.0492

G1X161.5418Y-202.9040

G1X164.5068Y-202.2974

G1X167.5517Y-200.9800

G1X168.5726Y-200.2538

G1X171.3502Y-198.0222

G1X172.7055Y-196.7373

G1X174.8487Y-194.2991

G1X175.7838Y-193.0190

G1X176.7304Y-191.5405

G1X178.1606Y-188.8380

G1X178.7712Y-187.4585

G1X179.3894Y-185.8871

G1X180.3928Y-182.8733

G1X181.5977Y-178.3419

G1X184.4476Y-165.6624

G1X185.3528Y-162.3506

G1X186.3768Y-159.2330

G1X187.7134Y-155.9616

G1X189.2584Y-152.9868

G1X190.2639Y-151.3867

G1X191.2409Y-150.0258

G1X192.2944Y-148.7324

G1X193.5658Y-147.3673

G1X194.7641Y-146.2420

G1X197.3218Y-144.2471

G1X198.8356Y-143.2702

G1X200.2178Y-142.4942

G1X201.8119Y-141.7416

G1X203.2572Y-141.1991

G1X204.7212Y-140.7919

G1X206.3763Y-140.5142

G1X207.8363Y-140.4425

G1X209.0906Y-140.5207

G1X210.6541Y-140.8099

G1X211.9793Y-141.2393

G1X213.3848Y-141.8963

G1X214.5502Y-142.6176

G1X215.7662Y-143.5588

G1X216.7626Y-144.4937

G1X217.7940Y-145.6355

G1X218.6345Y-146.7182

G1X220.2053Y-149.1816

G1X221.4436Y-151.6520

G1X221.9846Y-152.9282

G1X222.9805Y-155.7072

G1X224.1557Y-159.8917

G1X225.0097Y-164.1553

G1X225.5404Y-168.4723

G1X225.7518Y-172.8163

G1X225.6538Y-177.1615

G1X225.2396Y-181.6554

G1X224.5895Y-185.7611

G1X223.6621Y-189.9748

G1X222.5993Y-193.7815

G1X221.2994Y-197.6701

G1X219.7599Y-201.6199

G1X217.4751Y-206.6638

G1X214.9515Y-211.5040

G1X211.4750Y-217.3641

G1X207.8789Y-222.7709

G1X204.0727Y-228.0194

G1X198.7268Y-234.8808

G1X191.0280Y-244.2548

G1X183.7797Y-252.7286

G1X178.7302Y-258.3181

G1X174.4301Y-262.7582

G1X170.4271Y-266.5670

G1X166.5348Y-269.9170

G1X163.1904Y-272.4917

G1X161.1798Y-273.8872

G1X158.6850Y-275.4608

G1X156.2410Y-276.7882

G1X153.7100Y-277.9199

G1X152.4892Y-278.3639

G1X149.9962Y-279.0272

G1X148.5708Y-279.2325

G1X147.2987Y-279.2816

G1X146.0338Y-279.1782

G1X144.7954Y-278.8909

G1X143.6121Y-278.3885

G1X142.3951Y-277.5397

G1X141.4606Y-276.5308

G1X140.6135Y-275.1489

G1X139.9930Y-273.5690

G1X139.6187Y-272.0524

G1X139.3888Y-270.4699

G1X139.2326Y-267.0004

G1X138.8709Y-263.6435

G1X138.5806Y-262.1377

G1X137.7474Y-259.1291

G1X137.2690Y-257.8074

G1X136.1782Y-255.3462

G1X134.7781Y-252.8553

G1X133.4125Y-250.8614

G1X131.0902Y-248.1051

G1X129.4983Y-246.5317

G1X127.6146Y-244.9061

G1X125.8642Y-243.5606

G1X123.9277Y-242.2104

G1X119.9651Y-239.7294

G1X112.3607Y-235.3349

G1X107.9563Y-232.6761

G1X104.6257Y-230.4866

G1X101.3588Y-228.1068

G1X98.2159Y-225.5075

G1X95.2648Y-222.6669

G1X93.4052Y-220.5911

G1X91.0386Y-217.4615

G1X88.1787Y-212.8719

G1X85.3803Y-208.1256

G1X83.2362Y-204.2721

G1X81.3379Y-200.6211

G1X79.4018Y-196.5601

G1X78.2289Y-193.8447

G1X76.6826Y-189.7654

G1X75.8376Y-187.1033

G1X75.0996Y-184.2348

G1X74.5744Y-181.3347

G1X74.3345Y-178.5939

G1X74.3300Y-177.2282

G1X74.4346Y-175.7049

G1X74.6416Y-174.3729

G1X75.0192Y-172.9137

G1X75.5007Y-171.6697

G1X76.1307Y-170.4953

G1X76.9152Y-169.4118

G1X77.9792Y-168.3268

G1X79.0757Y-167.5005

G1X80.4526Y-166.7360

G1X81.7807Y-166.2045

G1X83.1826Y-165.8050

G1X84.6390Y-165.5266

G1X86.3219Y-165.3424

G1X89.3857Y-165.3033

G1X91.1288Y-165.4157

G1X92.6841Y-165.5849

G1X95.9892Y-166.1254

G1X99.0882Y-166.8219

G1X102.3558Y-167.7225

G1X105.5923Y-168.7611

G1X108.6070Y-169.8463

G1X114.8965Y-172.4375

G1X121.5443Y-175.6268

G1X124.6892Y-177.2928

G1X128.7832Y-179.6237

G1X132.9046Y-182.1714

G1X135.6099Y-183.9688

G1X140.5882Y-187.5944

G1X142.9821Y-189.5215

G1X145.2355Y-191.4787

G1X147.2085Y-193.3375

G1X149.1236Y-195.3104

G1X150.8281Y-197.2556

G1X152.8348Y-199.8808

G1X153.9578Y-201.5800

G1X156.0900Y-205.1257

G1X156.6309Y-205.6442

G1X156.9727Y-205.7918

G1X157.7184Y-205.8212

G1X159.4351Y-205.3712

G1X162.0767Y-204.4468

G1X164.9925Y-202.9738

G1X166.0073Y-202.2397

G1X168.7908Y-200.0158

G1X171.2983Y-197.5794

G1X173.3142Y-195.1227

G1X174.2975Y-193.6865

G1X175.8003Y-191.0638

G1X176.4497Y-189.7246

G1X177.1126Y-188.1983

G1X178.2020Y-185.2661

G1X179.5319Y-180.8434

G1X182.2085Y-170.0954

G1X183.0951Y-166.8328

G1X184.1263Y-163.5446

G1X185.2860Y-160.4580

G1X186.7818Y-157.2404

G1X188.5982Y-154.1707

G1X190.6143Y-151.5077

G1X191.8716Y-150.1341

G1X193.0542Y-148.9991

G1X195.5731Y-146.9797

G1X197.0617Y-145.9865

G1X198.4199Y-145.1947

G1X199.9848Y-144.4225

G1X201.4023Y-143.8608

G1X202.8365Y-143.4327

G1X204.4561Y-143.1291

G1X205.8828Y-143.0327

G1X207.1067Y-143.0877

G1X208.6302Y-143.3455

G1X209.9191Y-143.7454

G1X211.2834Y-144.3680

G1X212.4124Y-145.0578

G1X213.5876Y-145.9626

G1X214.5481Y-146.8647

G1X215.5400Y-147.9688

G1X216.3459Y-149.0176

G1X217.8453Y-151.4076

G1X219.0187Y-153.8072

G1X219.5283Y-155.0475

G1X220.4591Y-157.7487

G1X221.5428Y-161.8146

G1X222.3102Y-165.9545

G1X222.7595Y-170.1430

G1X222.8949Y-174.3533

G1X222.8128Y-177.2155

G1X222.4646Y-181.2388

G1X221.8308Y-185.3872

G1X220.8993Y-189.6341

G1X219.7631Y-193.6357

G1X218.5843Y-197.0794

G1X217.1334Y-200.7418

G1X214.8925Y-205.6044

G1X212.3387Y-210.3916

G1X209.6750Y-214.8166

G1X206.1047Y-220.1391

G1X202.5070Y-225.0259

G1X197.3681Y-231.5147

G1X187.1426Y-243.8523

G1X180.4504Y-251.7819

G1X175.5871Y-257.2622

G1X172.3264Y-260.6945

G1X168.6420Y-264.2836

G1X164.8144Y-267.6353

G1X161.7308Y-270.0257

G1X158.4748Y-272.2232

G1X156.1554Y-273.5449

G1X153.7488Y-274.6757

G1X152.5866Y-275.1210

G1X150.2114Y-275.7900

G1X148.8527Y-276.0003

G1X147.6401Y-276.0552

G1X146.4349Y-275.9586

G1X145.2559Y-275.6793

G1X144.1311Y-275.1858

G1X142.9774Y-274.3479

G1X142.0955Y-273.3491

G1X141.3018Y-271.9783

G1X140.7278Y-270.4088

G1X140.3891Y-268.9007

G1X140.1901Y-267.3259

G1X140.0884Y-263.8709

G1X139.7970Y-260.5341

G1X139.1923Y-257.4317

G1X138.3932Y-254.7640

G1X137.4209Y-252.3492

G1X136.8120Y-251.0992

G1X135.5622Y-248.9334

G1X134.1997Y-247.0000

G1X132.0170Y-244.5143

G1X130.5159Y-243.1072

G1X128.8338Y-241.7376

G1X127.1721Y-240.5402

G1X125.3242Y-239.3411

G1X122.4646Y-237.6608

G1X114.1458Y-233.1565

G1X110.9010Y-231.3139

G1X107.6507Y-229.3135

G1X104.4497Y-227.1201

G1X101.3596Y-224.7052

G1X98.4496Y-222.0473

G1X96.6116Y-220.0952

G1X94.2672Y-217.1400

G1X92.1058Y-213.8585

G1X89.2955Y-209.3783

G1X87.1214Y-205.7286

G1X85.1786Y-202.2606

G1X83.1744Y-198.3922

G1X82.0154Y-195.9536

G1X80.3539Y-192.0545

G1X79.3599Y-189.3430

G1X78.5105Y-186.5866

G1X77.8807Y-183.9580

G1X77.6144Y-182.4683

G1X77.3407Y-179.8142

G1X77.3181Y-178.4921

G1X77.4015Y-177.0179

G1X77.5888Y-175.7297

G1X77.9431Y-174.3198

G1X78.4032Y-173.1197

G1X79.0109Y-171.9889

G1X79.7727Y-170.9485

G1X80.8106Y-169.9109

G1X81.8841Y-169.1252

G1X83.2352Y-168.4045

G1X84.5408Y-167.9099

G1X85.9208Y-167.5454

G1X87.3558Y-167.3003

G1X89.0152Y-167.1514

G1X92.0388Y-167.1707

G1X93.7600Y-167.3140

G1X95.2961Y-167.5095

G1X98.5609Y-168.1036

G1X101.6220Y-168.8482

G1X104.8493Y-169.7984

G1X108.0445Y-170.8856

G1X111.0190Y-172.0162

G1X114.1397Y-173.3155

G1X118.6497Y-175.3877

G1X122.3601Y-177.2626

G1X125.3011Y-178.8568

G1X128.1825Y-180.5169

G1X132.1368Y-182.9671

G1X136.0885Y-185.6414

G1X138.6603Y-187.5262

G1X141.1228Y-189.4608

G1X143.4586Y-191.4396

G1X146.6193Y-194.4132

G1X148.4392Y-196.3394

G1X150.1683Y-198.3820

G1X151.6592Y-200.3918

G1X152.8224Y-202.2166

G1X153.7871Y-204.0291

G1X154.4415Y-205.5574

G1X155.3570Y-208.5133

G1X155.6149Y-208.7384

G1X155.7983Y-208.7082

G1X159.6465Y-206.5962

G1X162.4330Y-204.9675

G1X166.2313Y-202.0095

G1X167.6179Y-200.7644

G1X169.8510Y-198.4373

G1X170.8443Y-197.2264

G1X172.5879Y-194.7304

G1X173.4398Y-193.2896

G1X174.8356Y-190.5093

G1X176.5053Y-186.2944

G1X177.8860Y-181.9340

G1X181.3362Y-169.5590

G1X182.4122Y-166.2992

G1X183.6020Y-163.2312

G1X185.1151Y-160.0240

G1X186.9323Y-156.9548

G1X188.9339Y-154.2831

G1X190.1772Y-152.9008

G1X191.3440Y-151.7562

G1X193.8242Y-149.7124

G1X196.6217Y-147.8952

G1X198.1575Y-147.1034

G1X199.5471Y-146.5224

G1X200.9517Y-146.0734

G1X202.5357Y-145.7441

G1X203.9290Y-145.6228

G1X205.1227Y-145.6547

G1X206.6061Y-145.8810

G1X207.8587Y-146.2515

G1X209.1818Y-146.8397

G1X210.2742Y-147.4980

G1X211.4087Y-148.3665

G1X212.3335Y-149.2356

G1X213.2857Y-150.3022

G1X214.0571Y-151.3171

G1X215.4850Y-153.6336

G1X216.5937Y-155.9625

G1X217.0718Y-157.1668

G1X217.9375Y-159.7901

G1X218.9297Y-163.7375

G1X219.4270Y-166.4624

G1X219.8948Y-170.5112

G1X220.0520Y-174.5854

G1X219.9069Y-178.6587

G1X219.4949Y-182.5455

G1X218.8004Y-186.5464

G1X218.1448Y-189.3852

G1X217.0317Y-193.2571

G1X215.4152Y-197.7748

G1X213.9328Y-201.2733

G1X212.2347Y-204.7990

G1X210.4031Y-208.1975

G1X207.8225Y-212.4827

G1X205.0245Y-216.6594

G1X201.5388Y-221.3894

G1X197.2444Y-226.7619

G1X187.5068Y-238.3368

G1X177.9404Y-249.9683

G1X175.0526Y-253.3752

G1X172.0936Y-256.7046

G1X168.6357Y-260.3303

G1X165.9995Y-262.8654

G1X163.3235Y-265.2150

G1X160.4936Y-267.4348

G1X157.2425Y-269.6239

G1X155.0065Y-270.8598

G1X152.6839Y-271.8780

G1X150.4265Y-272.5527

G1X149.1344Y-272.7682

G1X147.9813Y-272.8288

G1X146.8358Y-272.7391

G1X145.7162Y-272.4677

G1X144.6499Y-271.9832

G1X143.5595Y-271.1562

G1X142.7302Y-270.1674

G1X141.9899Y-268.8077

G1X141.4625Y-267.2487

G1X141.1594Y-265.7491

G1X140.9911Y-264.1820

G1X140.9443Y-260.7414

G1X140.7232Y-257.4246

G1X140.2115Y-254.3515

G1X139.5176Y-251.7206

G1X138.6637Y-249.3522

G1X138.1259Y-248.1327

G1X137.0163Y-246.0331

G1X135.7986Y-244.1769

G1X133.8303Y-241.8238

G1X132.4635Y-240.5123

G1X130.9194Y-239.2523

G1X129.3814Y-238.1642

G1X127.6575Y-237.0866

G1X123.9509Y-235.0681

G1X116.9942Y-231.6030

G1X113.8457Y-229.9517

G1X109.6661Y-227.5208

G1X106.5551Y-225.4452

G1X103.5638Y-223.1381

G1X100.7646Y-220.5820

G1X99.0099Y-218.6980

G1X96.7945Y-215.8415

G1X91.8631Y-208.4084

G1X89.6953Y-204.8946

G1X87.7608Y-201.5446

G1X85.7719Y-197.7968

G1X84.5572Y-195.2796

G1X83.4961Y-192.8632

G1X82.4760Y-190.2469

G1X81.5979Y-187.5841

G1X80.9385Y-185.0428

G1X80.6545Y-183.6019

G1X80.3469Y-181.0346

G1X80.3064Y-179.7560

G1X80.3685Y-178.3309

G1X80.5360Y-177.0865

G1X80.8671Y-175.7259

G1X81.3057Y-174.5697

G1X81.8912Y-173.4825

G1X82.6302Y-172.4852

G1X83.6422Y-171.4950

G1X84.6925Y-170.7499

G1X86.0179Y-170.0729

G1X87.3010Y-169.6153

G1X88.6590Y-169.2858

G1X90.0726Y-169.0739

G1X91.7086Y-168.9604

G1X94.6920Y-169.0381

G1X96.3913Y-169.2122

G1X99.6153Y-169.7490

G1X102.6466Y-170.4582

G1X105.8464Y-171.3849

G1X108.8318Y-172.3934

G1X111.9683Y-173.5860

G1X114.8846Y-174.8087

G1X117.9397Y-176.2003

G1X121.9985Y-178.2212

G1X125.9588Y-180.3826

G1X128.9787Y-182.1617

G1X132.8864Y-184.6506

G1X135.5575Y-186.4876

G1X139.3150Y-189.2959

G1X141.5949Y-191.1561

G1X143.8904Y-193.1802

G1X146.0348Y-195.2475

G1X148.0033Y-197.3476

G1X150.4274Y-200.3381

G1X151.8492Y-202.4375

G1X152.9912Y-204.4786

G1X153.7884Y-206.2991

G1X154.1142Y-207.2569

G1X154.4800Y-208.8015

G1X154.5794Y-210.6433

G1X154.4393Y-211.4010

G1X154.2929Y-211.6970

G1X154.2778Y-211.5742

G1X154.5629Y-211.0609

G1X155.2213Y-210.3054

G1X155.7914Y-209.7923

G1X159.8736Y-206.9612

G1X162.3733Y-205.0583

G1X165.0740Y-202.7779

G1X166.2505Y-201.6565

G1X168.3745Y-199.3301

G1X169.4312Y-197.9786

G1X171.0794Y-195.5153

G1X171.8062Y-194.2569

G1X173.1752Y-191.5269

G1X174.9220Y-187.2092

G1X176.3029Y-183.0708

G1X179.5773Y-172.2852

G1X180.6981Y-169.0537

G1X181.9180Y-166.0042

G1X183.4485Y-162.8075

G1X185.2664Y-159.7387

G1X187.2536Y-157.0583

G1X188.4827Y-155.6675

G1X189.6339Y-154.5132

G1X192.0753Y-152.4450

G1X194.8236Y-150.5956

G1X196.3303Y-149.7841

G1X197.6920Y-149.1840

G1X199.0669Y-148.7140

G1X200.6153Y-148.3590

G1X201.9753Y-148.2129

G1X203.1387Y-148.2217

G1X204.5820Y-148.4164

G1X205.7983Y-148.7576

G1X207.0803Y-149.3114

G1X208.1362Y-149.9381

G1X209.2299Y-150.7702

G1X210.1189Y-151.6064

G1X211.0315Y-152.6354

G1X211.7683Y-153.6164

G1X213.1248Y-155.8595

G1X214.1687Y-158.1177

G1X215.0632Y-160.6241

G1X216.0268Y-164.2737

G1X216.5665Y-167.0551

G1X217.0498Y-170.9648

G1X217.2241Y-174.7461

G1X217.1805Y-177.4272

G1X216.8710Y-181.3562

G1X216.2559Y-185.4004

G1X215.4380Y-189.0753

G1X214.3552Y-192.8234

G1X213.1679Y-196.1860

G1X211.7585Y-199.5943

G1X210.1288Y-203.0251

G1X207.7666Y-207.3541

G1X205.8505Y-210.4756

G1X203.2007Y-214.3852

G1X200.4655Y-218.0605

G1X196.2738Y-223.2227

G1X185.0032Y-236.2734

G1X173.6336Y-250.4576

G1X169.3198Y-255.4988

G1X166.9743Y-258.0127

G1X164.5838Y-260.3813

G1X162.8016Y-262.0128

G1X160.1507Y-264.2085

G1X157.0911Y-266.3829

G1X154.9796Y-267.6155

G1X152.7815Y-268.6349

G1X150.6418Y-269.3153

G1X149.4164Y-269.5359

G1X148.3229Y-269.6023

G1X147.2369Y-269.5194

G1X146.1768Y-269.2561

G1X145.1690Y-268.7804

G1X144.1420Y-267.9644

G1X143.3652Y-266.9856

G1X142.6783Y-265.6371

G1X142.1974Y-264.0885

G1X141.9300Y-262.5974

G1X141.7925Y-261.0380

G1X141.8001Y-257.6118

G1X141.6493Y-254.3151

G1X141.2306Y-251.2712

G1X140.6418Y-248.6771

G1X139.9064Y-246.3551

G1X139.4396Y-245.1661

G1X138.4703Y-243.1326

G1X137.3975Y-241.3537

G1X135.6434Y-239.1333

G1X134.4111Y-237.9173

G1X133.0049Y-236.7668

G1X131.5907Y-235.7881

G1X129.9906Y-234.8320

G1X126.5054Y-233.0677

G1X119.8424Y-230.0493

G1X115.8034Y-228.0897

G1X111.7307Y-225.8267

G1X108.5882Y-223.7814

G1X106.7219Y-222.3943

G1X104.8191Y-220.8081

G1X102.2247Y-218.2601

G1X100.0282Y-215.5781

G1X97.1420Y-211.5272

G1X92.9248Y-205.2058

G1X89.5622Y-199.5337

G1X87.1690Y-194.8403

G1X86.0685Y-192.3433

G1X85.1462Y-189.9474

G1X84.3183Y-187.3583

G1X83.6944Y-184.7354

G1X83.3531Y-182.2549

G1X83.2945Y-181.0198

G1X83.3354Y-179.6438

G1X83.4831Y-178.4431

G1X83.7910Y-177.1320

G1X84.2080Y-176.0196

G1X84.7713Y-174.9761

G1X85.4876Y-174.0219

G1X86.4736Y-173.0789

G1X87.5008Y-172.3745

G1X88.8004Y-171.7413

G1X90.0610Y-171.3206

G1X91.3971Y-171.0261

G1X92.7893Y-170.8475

G1X94.4019Y-170.7694

G1X97.3451Y-170.9056

G1X100.5200Y-171.3587

G1X103.7041Y-172.0599

G1X106.6898Y-172.9008

G1X109.8362Y-173.9500

G1X112.9488Y-175.1345

G1X117.2759Y-177.0014

G1X120.2855Y-178.4417

G1X123.2448Y-179.9692

G1X126.8267Y-181.9695

G1X129.6544Y-183.6687

G1X133.6843Y-186.2935

G1X137.5348Y-189.0599

G1X139.8881Y-190.9014

G1X143.3557Y-193.8812

G1X145.5414Y-195.9731

G1X147.5611Y-198.1104

G1X149.3871Y-200.2821

G1X150.9008Y-202.3432

G1X152.2577Y-204.5252

G1X153.3214Y-206.6641

G1X154.0265Y-208.5927

G1X154.4412Y-210.4848

G1X154.5185Y-212.0457

G1X154.3032Y-213.3689

G1X154.1169Y-213.8546

G1X153.8927Y-214.2381

G1X153.3614Y-214.6875

G1X153.1239Y-214.7235

G1X152.8992Y-214.6314

G1X152.7574Y-214.4402

G1X152.6891Y-214.1541

G1X152.7207Y-213.7315

G1X153.1144Y-212.7725

G1X153.5546Y-212.1423

G1X154.7861Y-210.8949

G1X161.1123Y-205.9967

G1X163.7267Y-203.6951

G1X165.9047Y-201.4338

G1X166.9981Y-200.1247

G1X168.7190Y-197.7410

G1X169.4846Y-196.5230

G1X170.2817Y-195.1315

G1X171.6289Y-192.4442

G1X173.3339Y-188.3478

G1X174.8430Y-184.0736

G1X177.8185Y-175.0114

G1X178.9841Y-171.8083

G1X180.2341Y-168.7773

G1X181.7819Y-165.5911

G1X183.6006Y-162.5228

G1X185.5733Y-159.8337

G1X186.7884Y-158.4342

G1X187.9238Y-157.2702

G1X190.3265Y-155.1776

G1X193.0255Y-153.2961

G1X194.5031Y-152.4650

G1X195.8370Y-151.8457

G1X197.1821Y-151.3547

G1X198.6950Y-150.9740

G1X200.0217Y-150.8031

G1X201.1548Y-150.7887

G1X202.5580Y-150.9520

G1X203.7379Y-151.2637

G1X204.9787Y-151.7831

G1X205.9981Y-152.3783

G1X207.0511Y-153.1741

G1X207.9044Y-153.9774

G1X208.7774Y-154.9687

G1X209.4795Y-155.9158

G1X210.7646Y-158.0855

G1X211.7438Y-160.2730

G1X212.5720Y-162.7024

G1X213.4461Y-166.2398

G1X213.9217Y-168.9341

G1X214.3203Y-172.7183

G1X214.4179Y-176.3745

G1X214.3232Y-178.9642

G1X213.9433Y-182.7544

G1X213.5558Y-185.1588

G1X212.7400Y-188.8647

G1X211.6399Y-192.6336

G1X210.3623Y-196.1575

G1X209.0774Y-199.1656

G1X207.5317Y-202.3361

G1X205.7848Y-205.5075

G1X203.2313Y-209.5946

G1X201.3359Y-212.3194

G1X198.5742Y-215.9547

G1X194.5423Y-220.7600

G1X186.0371Y-230.1331

G1X182.4995Y-234.2100

G1X178.5960Y-239.1018

G1X171.0078Y-249.0881

G1X168.2922Y-252.4214

G1X166.1403Y-254.8773

G1X163.9333Y-257.2027

G1X161.3719Y-259.6420

G1X159.8076Y-260.9822

G1X156.9395Y-263.1421

G1X154.9524Y-264.3712

G1X152.8788Y-265.3920

G1X150.8569Y-266.0780

G1X149.6982Y-266.3038

G1X148.6641Y-266.3759

G1X147.6379Y-266.2999

G1X146.6371Y-266.0445

G1X145.6878Y-265.5778

G1X144.7242Y-264.7726

G1X144.0000Y-263.8039

G1X143.3665Y-262.4665

G1X142.9321Y-260.9284

G1X142.7003Y-259.4458

G1X142.5936Y-257.8940

G1X142.6558Y-254.4823

G1X142.5753Y-251.2057

G1X142.2495Y-248.1910

G1X141.7660Y-245.6337

G1X141.1490Y-243.3581

G1X140.7533Y-242.1996

G1X139.9242Y-240.2322

G1X138.9962Y-238.5305

G1X138.0355Y-237.1422

G1X137.4565Y-236.4428

G1X136.3585Y-235.3225

G1X135.0903Y-234.2815

G1X133.7998Y-233.4120

G1X132.3236Y-232.5775

G1X129.9628Y-231.4549

G1X121.7543Y-228.1050

G1X117.6904Y-226.2730

G1X113.7220Y-224.1603

G1X111.7162Y-222.9204

G1X109.8798Y-221.6506

G1X107.1555Y-219.4592

G1X104.6792Y-217.0115

G1X103.2619Y-215.3147

G1X101.8298Y-213.4350

G1X97.5826Y-207.6074

G1X94.1835Y-202.4679

G1X92.1418Y-199.0333

G1X90.8853Y-196.7145

G1X89.7800Y-194.4806

G1X88.7079Y-192.0545

G1X87.3910Y-188.3994

G1X86.7343Y-185.8689

G1X86.5131Y-184.6720

G1X86.2825Y-182.2837

G1X86.3022Y-180.9568

G1X86.4301Y-179.7999

G1X86.7148Y-178.5382

G1X87.1103Y-177.4696

G1X87.6514Y-176.4697

G1X88.3449Y-175.5586

G1X89.3050Y-174.6630

G1X90.3090Y-173.9993

G1X91.5828Y-173.4098

G1X92.8210Y-173.0260

G1X94.1351Y-172.7666

G1X95.5059Y-172.6211

G1X97.0950Y-172.5784

G1X99.9981Y-172.7730

G1X103.1318Y-173.2834

G1X106.2756Y-174.0381

G1X109.2236Y-174.9271

G1X112.3295Y-176.0259

G1X116.8327Y-177.8805

G1X121.2422Y-179.9706

G1X124.1788Y-181.5071

G1X127.8980Y-183.6222

G1X130.3730Y-185.1386

G1X133.2679Y-187.0307

G1X136.9893Y-189.6775

G1X140.6627Y-192.5748

G1X143.0198Y-194.6231

G1X145.1163Y-196.6063

G1X147.1923Y-198.7661

G1X149.0872Y-200.9735

G1X150.7708Y-203.2166

G1X152.1314Y-205.3451

G1X152.7201Y-206.4084

G1X153.7447Y-208.6433

G1X154.4313Y-210.8056

G1X154.7418Y-212.7175

G1X154.7028Y-214.5362

G1X154.5567Y-215.2899

G1X154.0063Y-216.5997

G1X153.6542Y-217.0659

G1X153.2603Y-217.4203

G1X152.7883Y-217.6763

G1X152.3633Y-217.7746

G1X151.9546Y-217.7499

G1X151.5410Y-217.5780

G1X151.2366Y-217.3062

G1X151.0124Y-216.9318

G1X150.8781Y-216.4021

G1X150.8792Y-215.8516

G1X151.0072Y-215.2397

G1X151.3175Y-214.4923

G1X151.7525Y-213.7870

G1X152.3556Y-213.0442

G1X154.7544Y-210.9487

G1X159.9859Y-206.8050

G1X162.3540Y-204.6445

G1X163.4345Y-203.5376

G1X165.3807Y-201.2719

G1X166.3582Y-199.9668

G1X168.0044Y-197.4426

G1X169.4376Y-194.8370

G1X171.2676Y-190.8493

G1X172.8941Y-186.6675

G1X176.6845Y-176.0623

G1X178.5499Y-171.5504

G1X180.1150Y-168.3746

G1X181.9345Y-165.3068

G1X183.8927Y-162.6090

G1X185.0936Y-161.2010

G1X186.2134Y-160.0273

G1X188.5772Y-157.9102

G1X191.2271Y-155.9966

G1X192.6755Y-155.1459

G1X193.9815Y-154.5074

G1X195.2970Y-153.9955

G1X196.7743Y-153.5889

G1X198.0676Y-153.3932

G1X199.1705Y-153.3558

G1X200.5336Y-153.4875

G1X201.6772Y-153.7698

G1X202.8769Y-154.2548

G1X203.8597Y-154.8184

G1X204.8719Y-155.5779

G1X205.6894Y-156.3483

G1X206.5229Y-157.3021

G1X207.1905Y-158.2153

G1X208.4040Y-160.3115

G1X209.3185Y-162.4283

G1X210.0804Y-164.7807

G1X210.8651Y-168.2059

G1X211.2765Y-170.8130

G1X211.5903Y-174.4719

G1X211.6347Y-176.8255

G1X211.5515Y-179.3262

G1X211.1898Y-182.9883

G1X210.5861Y-186.4655

G1X210.0168Y-188.8934

G1X209.3369Y-191.2848

G1X208.1504Y-194.7225

G1X206.8801Y-197.7890

G1X205.3976Y-200.8771

G1X203.7079Y-203.9620

G1X201.9691Y-206.7893

G1X199.9884Y-209.6975

G1X197.3715Y-213.1548

G1X195.3489Y-215.6024

G1X192.6732Y-218.6196

G1X183.8757Y-227.7973

G1X179.9957Y-232.1466

G1X176.4783Y-236.6437

G1X168.5890Y-247.6242

G1X165.9489Y-250.9752

G1X163.8886Y-253.3637

G1X161.7574Y-255.6085

G1X160.1507Y-257.1445

G1X157.6337Y-259.2727

G1X156.7879Y-259.9012

G1X154.9252Y-261.1269

G1X152.9761Y-262.1490

G1X151.0720Y-262.8407

G1X149.9799Y-263.0716

G1X149.0054Y-263.1494

G1X148.0388Y-263.0804

G1X147.0974Y-262.8329

G1X146.2067Y-262.3751

G1X145.3063Y-261.5809

G1X144.6348Y-260.6222

G1X144.0547Y-259.2959

G1X143.6668Y-257.7682

G1X143.4706Y-256.2941

G1X143.3947Y-254.7501

G1X143.5115Y-251.3527

G1X143.5013Y-248.0962

G1X143.2686Y-245.1108

G1X142.8902Y-242.5903

G1X142.3917Y-240.3611

G1X142.0670Y-239.2330

G1X141.3781Y-237.3318

G1X140.1941Y-235.0291

G1X138.8603Y-233.2836

G1X137.1758Y-231.7961

G1X136.0091Y-231.0360

G1X134.6567Y-230.3230

G1X131.6142Y-229.0673

G1X123.6044Y-226.2261

G1X119.7503Y-224.6208

G1X115.8822Y-222.6628

G1X113.9342Y-221.4959

G1X112.0476Y-220.2134

G1X109.4368Y-218.1116

G1X107.1810Y-215.8539

G1X102.2684Y-209.7289

G1X98.7144Y-204.8756

G1X95.9497Y-200.6753

G1X93.4756Y-196.3670

G1X92.3255Y-194.0618

G1X91.3518Y-191.8435

G1X90.1116Y-188.2968

G1X89.7742Y-187.0025

G1X89.3653Y-184.6957

G1X89.2690Y-182.2698

G1X89.3772Y-181.1567

G1X89.6387Y-179.9443

G1X90.0126Y-178.9196

G1X90.5315Y-177.9634

G1X91.2023Y-177.0953

G1X92.1364Y-176.2471

G1X93.1172Y-175.6240

G1X94.3654Y-175.0783

G1X95.5810Y-174.7314

G1X96.8732Y-174.5070

G1X98.2226Y-174.3947

G1X99.7883Y-174.3874

G1X102.6512Y-174.6405

G1X105.7437Y-175.2080

G1X108.8472Y-176.0163

G1X111.7574Y-176.9534

G1X114.8229Y-178.1017

G1X119.2649Y-180.0277

G1X123.6097Y-182.1890

G1X126.4994Y-183.7745

G1X130.1533Y-185.9545

G1X134.0075Y-188.4806

G1X136.6423Y-190.3582

G1X140.2068Y-193.1305

G1X143.6875Y-196.1615

G1X145.8919Y-198.3023

G1X147.9403Y-200.5034

G1X149.8066Y-202.7587

G1X151.3697Y-204.9225

G1X152.7900Y-207.2484

G1X153.8665Y-209.4435

G1X154.6924Y-211.7462

G1X155.1513Y-213.9691

G1X155.2185Y-215.9267

G1X155.0951Y-216.9406

G1X154.8890Y-217.7752

G1X154.5951Y-218.5341

G1X153.7096Y-219.8306

G1X153.1916Y-220.2771

G1X152.6282Y-220.6026

G1X151.9628Y-220.8139

G1X151.3653Y-220.8617

G1X150.7854Y-220.7764

G1X150.1831Y-220.5246

G1X149.7160Y-220.1723

G1X149.3358Y-219.7095

G1X149.0358Y-219.0727

G1X148.8994Y-218.4220

G1X148.9002Y-217.7068

G1X149.0805Y-216.8423

G1X149.4125Y-216.0344

G1X149.9252Y-215.1936

G1X152.1949Y-212.9424

G1X157.4419Y-208.8185

G1X159.8549Y-206.7136

G1X160.9646Y-205.6413

G1X162.1314Y-204.4168

G1X163.9976Y-202.1926

G1X165.7273Y-199.7536

G1X167.9027Y-196.0110

G1X169.7762Y-192.0656

G1X171.4117Y-188.0793

G1X174.9507Y-178.8046

G1X176.8658Y-174.3236

G1X177.6764Y-172.6408

G1X179.2731Y-169.6970

G1X180.2685Y-168.0908

G1X182.2123Y-165.3844

G1X184.5032Y-162.7843

G1X186.8282Y-160.6429

G1X188.1911Y-159.5683

G1X189.4289Y-158.6971

G1X190.8481Y-157.8267

G1X192.1263Y-157.1690

G1X193.4121Y-156.6362

G1X194.8538Y-156.2039

G1X196.1138Y-155.9834

G1X197.1863Y-155.9228

G1X198.5094Y-156.0231

G1X199.6167Y-156.2759

G1X200.7752Y-156.7265

G1X201.7215Y-157.2586

G1X202.6929Y-157.9818

G1X203.4747Y-158.7193

G1X204.2686Y-159.6354

G1X204.9016Y-160.5147

G1X206.0437Y-162.5375

G1X206.8934Y-164.5835

G1X207.5891Y-166.8591

G1X208.2843Y-170.1721

G1X208.6315Y-172.6920

G1X208.8606Y-176.2254

G1X208.8534Y-178.4961

G1X208.7179Y-180.9066

G1X208.2840Y-184.4315

G1X207.8652Y-186.6648

G1X207.2718Y-189.1455

G1X206.2863Y-192.3895

G1X205.4668Y-194.6333

G1X204.0949Y-197.8387

G1X202.7393Y-200.5565

G1X201.1305Y-203.3991

G1X198.7382Y-207.0855

G1X196.7456Y-209.8005

G1X194.1306Y-213.0026

G1X192.1236Y-215.2501

G1X189.4893Y-217.9957

G1X180.4787Y-226.7850

G1X178.4698Y-228.9483

G1X176.6070Y-231.1789

G1X173.9407Y-234.7864

G1X168.8438Y-242.5081

G1X166.2369Y-246.2667

G1X163.8756Y-249.3554

G1X161.9029Y-251.6765

G1X159.1214Y-254.5298

G1X157.4234Y-256.0351

G1X155.7272Y-257.3284

G1X153.9425Y-258.4546

G1X153.0734Y-258.9061

G1X151.2871Y-259.6035

G1X150.2617Y-259.8395

G1X149.3467Y-259.9230

G1X148.4397Y-259.8608

G1X147.5578Y-259.6213

G1X146.7256Y-259.1725

G1X145.8886Y-258.3891

G1X145.2696Y-257.4405

G1X144.7429Y-256.1254

G1X144.4015Y-254.6081

G1X144.2410Y-253.1425

G1X144.1959Y-251.6061

G1X144.3673Y-248.2232

G1X144.4274Y-244.9868

G1X144.2877Y-242.0306

G1X144.0144Y-239.5469

G1X143.6344Y-237.3641

G1X143.1012Y-235.2577

G1X142.5432Y-233.6690

G1X141.5080Y-231.6607

G1X140.7326Y-230.6340

G1X139.7425Y-229.6791

G1X138.7533Y-228.9722

G1X136.9898Y-228.0685

G1X134.9617Y-227.3177

G1X128.3871Y-225.3885

G1X124.7191Y-224.1854

G1X121.8559Y-223.0680

G1X118.9912Y-221.7354

G1X116.1958Y-220.1632

G1X114.3731Y-218.9493

G1X112.6431Y-217.6157

G1X110.4094Y-215.5324

G1X105.5116Y-209.8166

G1X103.2914Y-207.0273

G1X101.2692Y-204.3216

G1X99.1435Y-201.2461

G1X97.8928Y-199.2799

G1X96.0640Y-196.0981

G1X94.9398Y-193.8622

G1X93.9469Y-191.5740

G1X93.1693Y-189.3815

G1X92.8142Y-188.1361

G1X92.3714Y-185.9161

G1X92.2359Y-183.5828

G1X92.3243Y-182.5134

G1X92.5625Y-181.3505

G1X92.9150Y-180.3697

G1X93.4117Y-179.4570

G1X94.0597Y-178.6320

G1X94.9678Y-177.8311

G1X95.9255Y-177.2487

G1X97.1479Y-176.7467

G1X98.3411Y-176.4368

G1X99.6113Y-176.2474

G1X100.9393Y-176.1683

G1X103.8835Y-176.3141

G1X106.9157Y-176.8052

G1X109.9771Y-177.5625

G1X112.8573Y-178.4682

G1X117.3163Y-180.1776

G1X120.3049Y-181.5079

G1X124.4497Y-183.5795

G1X128.8200Y-186.0419

G1X132.4086Y-188.2869

G1X136.1841Y-190.8866

G1X138.7572Y-192.8185

G1X142.2243Y-195.6713

G1X144.5417Y-197.7766

G1X146.7247Y-199.9502

G1X148.6378Y-202.0564

G1X150.4943Y-204.3519

G1X152.1398Y-206.6994

G1X153.5383Y-209.0856

G1X154.5928Y-211.3490

G1X155.3915Y-213.7402

G1X155.8143Y-216.0726

G1X155.8324Y-218.1569

G1X155.6952Y-219.1359

G1X155.4221Y-220.1685

G1X155.0752Y-221.0143

G1X154.6335Y-221.7783

G1X153.4129Y-223.0614

G1X152.7291Y-223.4884

G1X151.9962Y-223.7848

G1X151.1374Y-223.9516

G1X150.3674Y-223.9489

G1X149.6163Y-223.8029

G1X148.8251Y-223.4711

G1X148.1955Y-223.0383

G1X147.6592Y-222.4872

G1X147.1934Y-221.7433

G1X146.9196Y-220.9923

G1X146.7932Y-220.1740

G1X146.8436Y-219.1923

G1X147.0726Y-218.2818

G1X147.4949Y-217.3430

G1X149.6353Y-214.9362

G1X154.8979Y-210.8320

G1X158.4947Y-207.7450

G1X159.6982Y-206.5629

G1X161.6371Y-204.4184

G1X162.5190Y-203.3216

G1X164.2281Y-200.9275

G1X166.4996Y-197.0826

G1X168.3438Y-193.3213

G1X170.1270Y-189.1772

G1X173.8413Y-180.0722

G1X176.0035Y-175.4207

G1X177.6089Y-172.4821

G1X178.6025Y-170.8749

G1X180.5319Y-168.1597

G1X182.7930Y-165.5414

G1X185.0792Y-163.3755

G1X186.4170Y-162.2847

G1X189.0208Y-160.5076

G1X190.2711Y-159.8307

G1X191.5272Y-159.2769

G1X192.9334Y-158.8189

G1X194.1600Y-158.5736

G1X195.2023Y-158.4898

G1X196.4852Y-158.5586

G1X197.5562Y-158.7820

G1X198.6736Y-159.1982

G1X199.5833Y-159.6988

G1X200.5140Y-160.3856

G1X201.2600Y-161.0902

G1X202.0143Y-161.9687

G1X203.1487Y-163.7089

G1X204.1008Y-165.7374

G1X204.7889Y-167.7632

G1X205.3292Y-169.9973

G1X205.8636Y-173.3517

G1X206.0638Y-175.6591

G1X206.1161Y-179.0729

G1X205.9994Y-181.2598

G1X205.7514Y-183.5753

G1X205.3783Y-185.8747

G1X204.6467Y-189.0789

G1X203.6491Y-192.3423

G1X202.7950Y-194.6328

G1X201.9456Y-196.6216

G1X200.5923Y-199.3920

G1X199.0368Y-202.1601

G1X196.7032Y-205.7428

G1X194.8214Y-208.2745

G1X192.2411Y-211.3675

G1X189.6136Y-214.1786

G1X186.9276Y-216.7947

G1X179.7867Y-223.1574

G1X177.6995Y-225.1110

G1X175.8657Y-227.0132

G1X174.2035Y-228.9996

G1X173.0210Y-230.5900

G1X171.4752Y-232.9157

G1X167.1265Y-240.1622

G1X165.2093Y-243.1893

G1X163.1031Y-246.2043

G1X160.7132Y-249.2042

G1X158.7783Y-251.3036

G1X157.2131Y-252.7975

G1X155.6415Y-254.0851

G1X153.9812Y-255.2105

G1X153.1708Y-255.6631

G1X151.5022Y-256.3662

G1X150.5435Y-256.6073

G1X149.6880Y-256.6966

G1X148.8407Y-256.6413

G1X148.0182Y-256.4097

G1X147.2444Y-255.9698

G1X146.4708Y-255.1974

G1X145.9044Y-254.2588

G1X145.4311Y-252.9548

G1X145.1362Y-251.4480

G1X145.0113Y-249.9909

G1X144.9970Y-248.4622

G1X145.3535Y-241.8773

G1X145.3068Y-238.9504

G1X145.1386Y-236.5035

G1X144.6944Y-233.2999

G1X144.2860Y-231.5310

G1X143.7925Y-230.0612

G1X143.2443Y-228.9200

G1X142.8959Y-228.3713

G1X142.2011Y-227.5379

G1X141.3467Y-226.8254

G1X140.4275Y-226.2840

G1X139.3229Y-225.8140

G1X137.4611Y-225.2491

G1X131.2353Y-223.8349

G1X128.5685Y-223.1406

G1X124.9033Y-221.9548

G1X122.1002Y-220.8080

G1X119.3538Y-219.4195

G1X116.7419Y-217.7752

G1X115.0836Y-216.5092

G1X112.9629Y-214.5246

G1X108.0697Y-209.1153

G1X105.8424Y-206.4508

G1X103.8177Y-203.8531

G1X101.6966Y-200.8883

G1X100.3775Y-198.8669

G1X99.2059Y-196.9068

G1X98.0558Y-194.7661

G1X97.0342Y-192.5715

G1X96.2270Y-190.4662

G1X95.8541Y-189.2697

G1X95.3776Y-187.1365

G1X95.2027Y-184.8957

G1X95.2714Y-183.8702

G1X95.4864Y-182.7566

G1X95.8173Y-181.8197

G1X96.2918Y-180.9507

G1X96.9171Y-180.1688

G1X97.7992Y-179.4152

G1X98.7338Y-178.8734

G1X99.9304Y-178.4152

G1X101.1011Y-178.1421

G1X102.3494Y-177.9878

G1X103.6560Y-177.9420

G1X105.1748Y-178.0054

G1X107.9574Y-178.3754

G1X110.9674Y-179.0573

G1X113.9903Y-179.9727

G1X116.8250Y-181.0060

G1X121.2022Y-182.8875

G1X124.1293Y-184.3222

G1X128.3446Y-186.6258

G1X131.1405Y-188.3093

G1X134.6638Y-190.6192

G1X138.3606Y-193.2925

G1X140.8721Y-195.2788

G1X144.2418Y-198.2122

G1X146.4811Y-200.3775

G1X148.5771Y-202.6138

G1X150.3985Y-204.7815

G1X152.1453Y-207.1449

G1X153.6660Y-209.5624

G1X154.9221Y-212.0202

G1X155.8236Y-214.3509

G1X156.4362Y-216.8118

G1X156.5879Y-217.9520

G1X156.6454Y-219.2088

G1X156.5914Y-220.2961

G1X156.4344Y-221.3450

G1X156.1719Y-222.3451

G1X155.7491Y-223.3964

G1X155.2614Y-224.2534

G1X154.6718Y-225.0225

G1X153.1162Y-226.2922

G1X152.2665Y-226.6997

G1X151.3641Y-226.9671

G1X150.3119Y-227.0892

G1X149.3695Y-227.0360

G1X148.4472Y-226.8293

G1X147.4671Y-226.4177

G1X146.6749Y-225.9043

G1X145.9827Y-225.2648

G1X145.3511Y-224.4139

G1X144.9398Y-223.5627

G1X144.6862Y-222.6411

G1X144.6067Y-221.5423

G1X144.7326Y-220.5292

G1X145.0646Y-219.4924

G1X147.0758Y-216.9300

G1X153.6305Y-211.8494

G1X156.0247Y-209.8488

G1X157.2649Y-208.7090

G1X159.2766Y-206.6442

G1X160.1971Y-205.5877

G1X161.9913Y-203.2777

G1X164.3940Y-199.5510

G1X166.3540Y-195.8840

G1X168.2467Y-191.8212

G1X172.1272Y-182.8268

G1X174.3306Y-178.2005

G1X175.9446Y-175.2671

G1X176.9366Y-173.6589

G1X178.8514Y-170.9350

G1X181.0827Y-168.2985

G1X183.3302Y-166.1081

G1X184.6428Y-165.0011

G1X187.1934Y-163.1885

G1X188.4159Y-162.4924

G1X189.6423Y-161.9176

G1X191.0129Y-161.4339

G1X192.2062Y-161.1637

G1X193.2182Y-161.0569

G1X194.4610Y-161.0942

G1X195.4957Y-161.2882

G1X196.5719Y-161.6699

G1X197.4451Y-162.1390

G1X198.3351Y-162.7895

G1X199.0453Y-163.4612

G1X199.7600Y-164.3021

G1X200.8259Y-165.9740

G1X201.3230Y-166.9896

G1X202.0432Y-168.8941

G1X202.6064Y-171.0158

G1X203.1227Y-174.1044

G1X203.3416Y-176.4499

G1X203.4116Y-178.5493

G1X203.3603Y-180.7852

G1X203.1932Y-182.8883

G1X202.8941Y-185.1123

G1X202.4725Y-187.3179

G1X201.6771Y-190.3856

G1X200.9821Y-192.5144

G1X200.1852Y-194.5990

G1X199.2937Y-196.6330

G1X197.8276Y-199.5200

G1X195.8564Y-202.8015

G1X194.0766Y-205.3674

G1X191.5852Y-208.5046

G1X188.9967Y-211.3481

G1X187.0143Y-213.3068

G1X184.4240Y-215.6453

G1X175.4092Y-222.9956

G1X173.7408Y-224.5729

G1X172.4845Y-225.9564

G1X171.1022Y-227.7745

G1X169.8206Y-229.7733

G1X165.4644Y-237.8607

G1X163.2618Y-241.6202

G1X161.3314Y-244.4885

G1X158.9656Y-247.4837

G1X157.0028Y-249.5599

G1X154.8439Y-251.3940

G1X154.0199Y-251.9663

G1X152.4998Y-252.8122

G1X151.7173Y-253.1289

G1X150.8253Y-253.3752

G1X150.0294Y-253.4702

G1X149.2417Y-253.4217

G1X148.4785Y-253.1981

G1X147.7633Y-252.7672

G1X147.0530Y-252.0056

G1X146.5392Y-251.0771

G1X146.1193Y-249.7842

G1X145.8709Y-248.2878

G1X145.7817Y-246.8392

G1X145.7982Y-245.3183

G1X146.2795Y-238.7679

G1X146.3259Y-235.8702

G1X146.2003Y-232.3753

G1X146.0081Y-230.3334

G1X145.5867Y-227.9382

G1X145.1967Y-226.6799

G1X144.4773Y-225.3348

G1X144.1486Y-224.9430

G1X143.4322Y-224.3400

G1X142.6367Y-223.9079

G1X141.6560Y-223.5595

G1X139.9605Y-223.1805

G1X134.8710Y-222.4131

G1X131.5131Y-221.7784

G1X127.9508Y-220.8417

G1X125.2092Y-219.8806

G1X122.5118Y-218.6758

G1X119.9374Y-217.2139

G1X118.2983Y-216.0715

G1X116.1966Y-214.2612

G1X111.3110Y-209.2567

G1X109.0719Y-206.7620

G1X107.0291Y-204.3148

G1X105.5311Y-202.3878

G1X103.5416Y-199.5843

G1X102.3479Y-197.7155

G1X101.1717Y-195.6699

G1X100.1214Y-193.5690

G1X99.2847Y-191.5509

G1X98.8940Y-190.4032

G1X98.3837Y-188.3568

G1X98.1696Y-186.2087

G1X98.2185Y-185.2270

G1X98.4102Y-184.1627

G1X98.7197Y-183.2697

G1X99.1719Y-182.4443

G1X99.7744Y-181.7055

G1X100.6306Y-180.9993

G1X101.5421Y-180.4982

G1X102.7129Y-180.0837

G1X103.8611Y-179.8475

G1X105.0875Y-179.7282

G1X106.3727Y-179.7156

G1X109.2295Y-179.9919

G1X112.1779Y-180.6017

G1X115.1581Y-181.4692

G1X117.9626Y-182.4731

G1X120.9213Y-183.7012

G1X125.2091Y-185.7569

G1X129.2323Y-187.9649

G1X132.0141Y-189.6485

G1X135.6766Y-192.0722

G1X139.2015Y-194.6504

G1X141.8464Y-196.7687

G1X145.1952Y-199.7315

G1X148.4206Y-202.9784

G1X150.4295Y-205.2774

G1X152.1592Y-207.5066

G1X153.7963Y-209.9378

G1X155.1923Y-212.4254

G1X156.3059Y-214.9547

G1X157.0542Y-217.3528

G1X157.3055Y-218.5490

G1X157.4808Y-219.8834

G1X157.5356Y-221.0549

G1X157.4764Y-222.3450

G1X157.3114Y-223.4596

G1X157.0364Y-224.5331

G1X156.6486Y-225.5543

G1X156.0761Y-226.6243

G1X155.4475Y-227.4925

G1X154.7102Y-228.2666

G1X152.8195Y-229.5230

G1X151.8039Y-229.9110

G1X150.7320Y-230.1493

G1X149.4864Y-230.2269

G1X148.3715Y-230.1232

G1X147.2781Y-229.8558

G1X146.1092Y-229.3642

G1X145.1543Y-228.7704

G1X144.3061Y-228.0425

G1X143.5087Y-227.0845

G1X142.9599Y-226.1330

G1X142.5792Y-225.1083

G1X142.3697Y-223.8923

G1X142.3926Y-222.7766

G1X142.6342Y-221.6417

G1X144.5163Y-218.9237

G1X146.9741Y-216.9668

G1X152.3578Y-212.9209

G1X154.8317Y-210.8551

G1X157.8753Y-207.8539

G1X158.8960Y-206.6869

G1X160.6731Y-204.4080

G1X163.0031Y-200.8552

G1X165.0989Y-197.0433

G1X166.9895Y-193.1363

G1X171.0993Y-184.1169

G1X173.4480Y-179.5089

G1X175.2706Y-176.4430

G1X177.1710Y-173.7103

G1X179.3725Y-171.0556

G1X181.5812Y-168.8408

G1X182.8687Y-167.7174

G1X185.3660Y-165.8693

G1X186.5607Y-165.1540

G1X187.7574Y-164.5584

G1X189.0924Y-164.0488

G1X190.2524Y-163.7539

G1X191.2341Y-163.6239

G1X192.4368Y-163.6297

G1X193.4352Y-163.7943

G1X194.4702Y-164.1416

G1X195.3069Y-164.5791

G1X196.1561Y-165.1933

G1X196.8306Y-165.8321

G1X197.5056Y-166.6354

G1X198.5030Y-168.2391

G1X198.9627Y-169.2156

G1X199.6181Y-171.0494

G1X200.1150Y-173.0941

G1X200.5418Y-176.0705

G1X200.6966Y-178.3288

G1X200.6714Y-181.4860

G1X200.5097Y-183.5080

G1X200.2173Y-185.6475

G1X199.5667Y-188.7611

G1X199.0183Y-190.7230

G1X198.2879Y-192.8905

G1X197.1346Y-195.7037

G1X196.2072Y-197.6328

G1X194.6940Y-200.3606

G1X193.2322Y-202.6428

G1X191.5286Y-204.9935

G1X189.6596Y-207.2791

G1X187.7237Y-209.3917

G1X185.1188Y-211.9113

G1X183.1489Y-213.6192

G1X180.5352Y-215.6800

G1X174.3858Y-220.0391

G1X172.5871Y-221.3950

G1X171.0808Y-222.7152

G1X169.9807Y-223.8929

G1X168.8108Y-225.4776

G1X167.7606Y-227.2668

G1X163.5437Y-236.2702

G1X162.3662Y-238.5018

G1X161.0738Y-240.6950

G1X159.6691Y-242.7999

G1X158.0922Y-244.8511

G1X156.1816Y-246.9377

G1X154.8168Y-248.1496

G1X154.0587Y-248.7221

G1X152.6559Y-249.5715

G1X151.1071Y-250.1430

G1X150.3707Y-250.2438

G1X149.6426Y-250.2021

G1X148.9389Y-249.9865

G1X148.2822Y-249.5645

G1X147.6352Y-248.8139

G1X147.1741Y-247.8954

G1X146.8076Y-246.6136

G1X146.6056Y-245.1277

G1X146.5520Y-243.6876

G1X146.7307Y-240.6139

G1 Z0F20000


G00 X0.0000 Y0.0000


