$H
G21
G17
G90
G1 Z0F20000
G1 F15000
(Start Layer)
(Start Block)

G1X17.6319Y-21.7831
G1 Z3.0F20000
(Plotting speed under)
G1 F4000

G1X44.6320Y-21.7831
G1X44.6320Y-48.7831
G1X17.6319Y-48.7831
G1X17.6319Y-21.7831
G1 Z0F20000
(Start Block)

G1X24.4836Y-28.8215
G1 Z3.0F20000
(Plotting speed under)
G1 F4000

G1X24.4807Y-32.4205
G1X24.1322Y-32.4205
G1X24.1322Y-28.1568
G1X24.4807Y-28.1568
G1X26.4368Y-31.7499
G1X26.4397Y-28.1568
G1X26.7882Y-28.1568
G1X26.7882Y-32.4205
G1X26.4397Y-32.4205
G1X24.4836Y-28.8215
G1 Z0F20000
(Start Block)

G1X28.0388Y-32.4205
G1 Z3.0F20000
(Plotting speed under)
G1 F4000

G1X28.0388Y-28.1568
G1X30.5425Y-28.1568
G1X30.5425Y-28.4643
G1X28.3872Y-28.4643
G1X28.3872Y-30.0719
G1X30.2672Y-30.0719
G1X30.2672Y-30.3765
G1X28.3872Y-30.3765
G1X28.3872Y-32.1159
G1X30.5542Y-32.1159
G1X30.5542Y-32.4205
G1X28.0388Y-32.4205
G1 Z0F20000
(Start Block)

G1X33.0874Y-30.5405
G1 Z3.0F20000
(Plotting speed under)
G1 F4000

G1X31.9658Y-32.4205
G1X31.5529Y-32.4205
G1X32.8795Y-30.2594
G1X31.5939Y-28.1568
G1X32.0068Y-28.1568
G1X33.0815Y-29.9782
G1X34.1621Y-28.1568
G1X34.5750Y-28.1568
G1X33.2894Y-30.2594
G1X34.6160Y-32.4205
G1X34.2060Y-32.4205
G1X33.0874Y-30.5405
G1 Z0F20000
(Start Block)

G1X35.3043Y-28.1568
G1 Z3.0F20000
(Plotting speed under)
G1 F4000

G1X38.3644Y-28.1568
G1X38.3644Y-28.4643
G1X37.0057Y-28.4643
G1X37.0057Y-32.4205
G1X36.6630Y-32.4205
G1X36.6660Y-28.4643
G1X35.3043Y-28.4643
G1X35.3043Y-28.1568
G1 Z0F20000
(Start Block)

G1X33.2045Y-41.1059
G1 Z3.0F20000
(Plotting speed under)
G1 F4000

G1X34.2733Y-41.1059
G1X34.2733Y-41.4163
G1X31.8048Y-41.4163
G1X31.8048Y-41.1059
G1X32.8414Y-41.1059
G1X32.8414Y-37.4689
G1X31.8048Y-37.4689
G1X31.8048Y-37.1527
G1X34.2733Y-37.1527
G1X34.2733Y-37.4689
G1X33.2045Y-37.4689
G1X33.2045Y-41.1059
G1 Z0F20000
(Start Block)

G1X28.3228Y-41.1528
G1 Z3.0F20000
(Plotting speed under)
G1 F4000

G1X27.9890Y-40.7633
G1X27.8514Y-40.2303
G1X28.2057Y-40.2303
G1X28.2831Y-40.5450
G1X28.4780Y-40.8469
G1X28.7917Y-41.0646
G1X29.1208Y-41.1557
G1X29.5849Y-41.1495
G1X29.9301Y-41.0389
G1X30.1966Y-40.8251
G1X30.3102Y-40.6231
G1X30.3375Y-40.2267
G1X30.0908Y-39.7999
G1X28.4019Y-39.0092
G1X28.1211Y-38.7095
G1X27.9831Y-38.3126
G1X28.0944Y-37.7237
G1X28.5029Y-37.3122
G1X29.1942Y-37.0987
G1X29.8338Y-37.1849
G1X30.1880Y-37.3723
G1X30.4327Y-37.6124
G1X30.6034Y-37.9197
G1X30.6831Y-38.3357
G1X30.3287Y-38.3357
G1X30.2262Y-37.9579
G1X30.0154Y-37.6622
G1X29.7050Y-37.4718
G1X29.3155Y-37.4016
G1X28.8496Y-37.4884
G1X28.5616Y-37.6680
G1X28.3752Y-37.9472
G1X28.3485Y-38.3247
G1X28.4370Y-38.5524
G1X28.6947Y-38.8042
G1X29.9077Y-39.2897
G1X30.4410Y-39.6606
G1X30.6876Y-40.1278
G1X30.6336Y-40.7651
G1X30.2760Y-41.1996
G1X29.6390Y-41.4506
G1X28.9004Y-41.4224
G1X28.3228Y-41.1528
G1 Z0F20000
(Start Block)

G1X26.7531Y-37.1527
G1 Z3.0F20000
(Plotting speed under)
G1 F4000

G1X26.7531Y-37.4601
G1X24.5978Y-37.4601
G1X24.5978Y-39.0678
G1X26.4778Y-39.0678
G1X26.4778Y-39.3723
G1X24.5978Y-39.3723
G1X24.5978Y-41.1118
G1X26.7648Y-41.1118
G1X26.7648Y-41.4163
G1X24.2493Y-41.4163
G1X24.2493Y-37.1527
G1X26.7531Y-37.1527
G1 Z0F20000
(Start Block)

G1X21.8395Y-37.5164
G1 Z3.0F20000
(Plotting speed under)
G1 F4000

G1X20.7410Y-37.4513
G1X20.7410Y-41.1206
G1X21.5323Y-41.1150
G1X22.0207Y-40.9800
G1X22.4541Y-40.6227
G1X22.7147Y-40.1073
G1X22.8084Y-39.4953
G1X22.7147Y-38.4616
G1X22.3815Y-37.8636
G1X21.8395Y-37.5164
G1 Z0F20000
(Start Block)

G1X23.0368Y-38.3386
G1 Z3.0F20000
(Plotting speed under)
G1 F4000

G1X23.1559Y-38.9654
G1X23.1344Y-39.8236
G1X22.9949Y-40.3490
G1X22.6972Y-40.8423
G1X22.3562Y-41.1430
G1X21.8603Y-41.3618
G1X20.3896Y-41.4163
G1X20.3896Y-37.1527
G1X21.5357Y-37.1574
G1X22.1525Y-37.3137
G1X22.6972Y-37.7296
G1X23.0368Y-38.3386
G1 Z0F20000
(Start Block)

G1X18.1757Y-84.9635
G1 Z3.0F20000
(Plotting speed under)
G1 F4000

G1X18.1757Y-57.9635
G1X45.1758Y-57.9635
G1X45.1758Y-84.9635
G1X18.1757Y-84.9635
G1 Z0F20000
(Start Block)

G1X25.0917Y-62.4870
G1 Z3.0F20000
(Plotting speed under)
G1 F4000

G1X25.7193Y-62.4923
G1X26.2168Y-62.6886
G1X26.6535Y-63.1220
G1X26.8237Y-63.6292
G1X26.8306Y-63.7441
G1X26.2743Y-63.7441
G1X26.1835Y-63.4103
G1X26.0048Y-63.1496
G1X25.5171Y-62.9281
G1X24.9492Y-63.0201
G1X24.7215Y-63.1950
G1X24.6028Y-63.4041
G1X24.6158Y-63.8336
G1X24.8084Y-64.0766
G1X26.2310Y-64.7029
G1X26.5693Y-64.9802
G1X26.7867Y-65.3517
G1X26.8217Y-65.9152
G1X26.6458Y-66.3005
G1X26.2154Y-66.6570
G1X25.6230Y-66.8281
G1X24.9722Y-66.7831
G1X24.4626Y-66.5622
G1X24.0823Y-66.1876
G1X23.8903Y-65.6701
G1X23.8818Y-65.5509
G1X24.4352Y-65.5509
G1X24.6737Y-66.0887
G1X24.9432Y-66.2842
G1X25.2897Y-66.3737
G1X25.9209Y-66.2686
G1X26.2433Y-65.9166
G1X26.2368Y-65.4689
G1X26.0458Y-65.2122
G1X24.5401Y-64.5245
G1X24.2676Y-64.2902
G1X24.0509Y-63.9261
G1X24.0269Y-63.4103
G1X24.1938Y-63.0250
G1X24.6123Y-62.6553
G1X25.0917Y-62.4870
G1 Z0F20000
(Start Block)

G1X29.7269Y-65.2053
G1 Z3.0F20000
(Plotting speed under)
G1 F4000

G1X29.1647Y-63.3546
G1X28.5936Y-65.2053
G1X29.7269Y-65.2053
G1 Z0F20000
(Start Block)

G1X28.1046Y-66.7808
G1 Z3.0F20000
(Plotting speed under)
G1 F4000

G1X27.5629Y-66.7808
G1X28.9392Y-62.5171
G1X29.3931Y-62.5171
G1X30.7460Y-66.7808
G1X30.2072Y-66.7808
G1X29.8704Y-65.6768
G1X28.4472Y-65.6768
G1X28.1046Y-66.7808
G1 Z0F20000
(Start Block)

G1X32.6701Y-66.7808
G1 Z3.0F20000
(Plotting speed under)
G1 F4000

G1X31.3230Y-62.5171
G1X31.9028Y-62.5171
G1X32.9014Y-65.9081
G1X33.9087Y-62.5171
G1X34.4856Y-62.5171
G1X33.1415Y-66.7808
G1X32.6701Y-66.7808
G1 Z0F20000
(Start Block)

G1X30.5220Y-69.7561
G1 Z3.0F20000
(Plotting speed under)
G1 F4000

G1X30.4584Y-70.1849
G1X30.7285Y-70.7715
G1X31.3112Y-70.2356
G1X31.3405Y-69.7876
G1X31.1296Y-69.5387
G1X30.9569Y-69.4977
G1X30.7343Y-69.5445
G1X30.5220Y-69.7561
G1 Z0F20000
(Start Block)

G1X29.5392Y-72.4090
G1 Z3.0F20000
(Plotting speed under)
G1 F4000

G1X29.5597Y-72.0369
G1X29.6912Y-71.7102
G1X30.3331Y-71.0790
G1X29.9239Y-70.2833
G1X29.9239Y-69.8461
G1X30.0364Y-69.5195
G1X30.2905Y-69.2384
G1X30.6231Y-69.0905
G1X31.0913Y-69.0607
G1X31.4420Y-69.1805
G1X31.8061Y-69.6119
G1X31.8588Y-70.1060
G1X31.6106Y-70.5870
G1X30.9920Y-71.1200
G1X31.8910Y-72.3001
G1X32.0521Y-71.8901
G1X32.1136Y-71.4099
G1X32.6026Y-71.4099
G1X32.4943Y-72.1068
G1X32.1839Y-72.6837
G1X32.7139Y-73.3777
G1X32.0667Y-73.3777
G1X31.8237Y-73.0556
G1X31.1336Y-73.4015
G1X30.3705Y-73.3819
G1X29.7989Y-73.0344
G1X29.6216Y-72.7511
G1X29.5392Y-72.4090
G1 Z0F20000
(Start Block)

G1X30.4409Y-71.5918
G1 Z3.0F20000
(Plotting speed under)
G1 F4000

G1X30.0901Y-72.1478
G1X30.1223Y-72.5637
G1X30.2600Y-72.7891
G1X30.5801Y-72.9723
G1X30.9018Y-72.9923
G1X31.1999Y-72.9209
G1X31.5601Y-72.7042
G1X30.6143Y-71.4421
G1X30.4409Y-71.5918
G1 Z0F20000
(Start Block)

G1X30.7285Y-76.1825
G1 Z3.0F20000
(Plotting speed under)
G1 F4000

G1X29.7299Y-76.1825
G1X29.7299Y-75.7110
G1X32.3069Y-75.7110
G1X32.3069Y-76.1825
G1X31.2849Y-76.1825
G1X31.2849Y-79.5061
G1X32.3069Y-79.5061
G1X32.3069Y-79.9747
G1X29.7299Y-79.9747
G1X29.7299Y-79.5061
G1X30.7285Y-79.5061
G1X30.7285Y-76.1825
G1 Z0F20000
(Start Block)

G1X27.9737Y-75.8719
G1 Z3.0F20000
(Plotting speed under)
G1 F4000

G1X28.3095Y-76.0997
G1X28.4957Y-76.3386
G1X28.6397Y-76.7466
G1X28.6512Y-77.1254
G1X28.4325Y-77.6847
G1X27.8585Y-78.1181
G1X28.7605Y-79.9747
G1X28.1894Y-79.9747
G1X27.3520Y-78.2353
G1X26.4998Y-78.2353
G1X26.4998Y-79.9747
G1X25.9610Y-79.9747
G1X25.9610Y-75.7110
G1X27.3295Y-75.7163
G1X27.9737Y-75.8719
G1 Z0F20000
(Start Block)

G1X27.5686Y-77.7345
G1 Z3.0F20000
(Plotting speed under)
G1 F4000

G1X27.9259Y-77.5032
G1X28.0821Y-77.2230
G1X28.1058Y-76.8541
G1X27.9952Y-76.5300
G1X27.7733Y-76.3055
G1X27.4587Y-76.1822
G1X26.4998Y-76.1561
G1X26.4998Y-77.7902
G1X27.5686Y-77.7345
G1 Z0F20000
(Start Block)

G1X23.7047Y-76.1643
G1 Z3.0F20000
(Plotting speed under)
G1 F4000

G1X22.7426Y-76.1561
G1X22.7426Y-77.8194
G1X23.8199Y-77.7921
G1X24.1212Y-77.6619
G1X24.3366Y-77.4368
G1X24.4453Y-77.1209
G1X24.3854Y-76.6481
G1X24.1225Y-76.3179
G1X23.7047Y-76.1643
G1 Z0F20000
(Start Block)

G1X24.9534Y-77.3344
G1 Z3.0F20000
(Plotting speed under)
G1 F4000

G1X24.7172Y-77.7902
G1X24.2253Y-78.1397
G1X23.6965Y-78.2601
G1X22.7426Y-78.2645
G1X22.7426Y-79.9747
G1X22.2008Y-79.9747
G1X22.2008Y-75.7110
G1X23.6965Y-75.7165
G1X24.4108Y-75.9311
G1X24.7172Y-76.1888
G1X24.9214Y-76.5437
G1X24.9899Y-76.8705
G1X24.9534Y-77.3344
G1 Z0F20000
(Start Block)

G1X33.9762Y-79.9747
G1 Z3.0F20000
(Plotting speed under)
G1 F4000

G1X33.4286Y-79.9747
G1X33.4286Y-75.7110
G1X33.9791Y-75.7110
G1X35.6336Y-78.8912
G1X35.6424Y-75.7110
G1X36.1900Y-75.7110
G1X36.1900Y-79.9747
G1X35.6395Y-79.9747
G1X33.9850Y-76.7887
G1X33.9762Y-79.9747
G1 Z0F20000
(Start Block)

G1X40.1844Y-75.7110
G1 Z3.0F20000
(Plotting speed under)
G1 F4000

G1X40.1844Y-76.1737
G1X38.8667Y-76.1737
G1X38.8667Y-79.9747
G1X38.3395Y-79.9747
G1X38.3395Y-76.1737
G1X37.0218Y-76.1737
G1X37.0218Y-75.7110
G1X40.1844Y-75.7110
G1 Z0F20000
(Start Block)

G1X38.0291Y-62.9798
G1 Z3.0F20000
(Plotting speed under)
G1 F4000

G1X35.9792Y-62.9798
G1X35.9792Y-64.3502
G1X37.7597Y-64.3502
G1X37.7597Y-64.8100
G1X35.9792Y-64.8100
G1X35.9792Y-66.3210
G1X38.0554Y-66.3210
G1X38.0554Y-66.7808
G1X35.4375Y-66.7808
G1X35.4375Y-62.5171
G1X38.0291Y-62.5171
G1X38.0291Y-62.9798
G1 Z0F20000
(Start Block)

G1X41.5945Y-40.7457
G1 Z3.0F20000
(Plotting speed under)
G1 F4000

G1X41.5974Y-37.1527
G1X41.9459Y-37.1527
G1X41.9459Y-41.4163
G1X41.5974Y-41.4163
G1X39.6413Y-37.8174
G1X39.6384Y-41.4163
G1X39.2899Y-41.4163
G1X39.2899Y-37.1527
G1X39.6384Y-37.1527
G1X41.5945Y-40.7457
G1 Z0F20000
(Start Block)

G1X35.7800Y-40.0585
G1 Z3.0F20000
(Plotting speed under)
G1 F4000

G1X36.0041Y-40.6344
G1X36.4180Y-41.0480
G1X36.9032Y-41.1703
G1X37.4478Y-41.1001
G1X37.8988Y-40.7984
G1X37.9017Y-39.6974
G1X36.8915Y-39.6974
G1X36.8915Y-39.3928
G1X38.2356Y-39.3928
G1X38.2414Y-40.9097
G1X37.8594Y-41.2354
G1X37.4039Y-41.4189
G1X36.9002Y-41.4749
G1X36.4317Y-41.3958
G1X36.0510Y-41.1820
G1X35.7553Y-40.8629
G1X35.5444Y-40.4675
G1X35.3991Y-39.9128
G1X35.4126Y-38.5231
G1X35.5761Y-37.9863
G1X35.8658Y-37.5304
G1X36.2878Y-37.2149
G1X36.7260Y-37.0990
G1X37.2768Y-37.1541
G1X37.7046Y-37.3668
G1X38.0921Y-37.8408
G1X38.2356Y-38.3533
G1X37.8900Y-38.3533
G1X37.6339Y-37.7605
G1X37.1592Y-37.4427
G1X36.8534Y-37.4016
G1X36.4844Y-37.4718
G1X36.0448Y-37.8268
G1X35.8343Y-38.2537
G1X35.7374Y-38.7310
G1X35.7800Y-40.0585
G1 Z0F20000
(Start Block)

G1X60.6896Y-36.9280
G1 Z3.0F20000
(Plotting speed under)
G1 F4000

G1X61.1295Y-36.9835
G1X61.5263Y-37.1437
G1X61.8894Y-37.4209
G1X62.1378Y-37.7444
G1X62.4166Y-38.6315
G1X62.3639Y-39.8088
G1X62.0376Y-40.5285
G1X61.4217Y-41.0335
G1X60.8050Y-41.1870
G1X59.6588Y-41.1917
G1X59.6588Y-36.9280
G1X60.6896Y-36.9280
G1 Z0F20000
(Start Block)

G1X60.8015Y-37.2322
G1 Z3.0F20000
(Plotting speed under)
G1 F4000

G1X60.0102Y-37.2267
G1X60.0102Y-40.8959
G1X60.9086Y-40.8777
G1X61.3907Y-40.6979
G1X61.7890Y-40.3053
G1X62.0347Y-39.6846
G1X62.0659Y-38.6352
G1X61.9001Y-38.0158
G1X61.4844Y-37.4891
G1X61.2017Y-37.3259
G1X60.8015Y-37.2322
G1 Z0F20000
(Start Block)

G1X66.0223Y-36.9280
G1 Z3.0F20000
(Plotting speed under)
G1 F4000

G1X66.0223Y-37.2355
G1X63.8670Y-37.2355
G1X63.8670Y-38.8431
G1X65.7470Y-38.8431
G1X65.7470Y-39.1477
G1X63.8670Y-39.1477
G1X63.8670Y-40.8871
G1X66.0340Y-40.8871
G1X66.0340Y-41.1917
G1X63.5186Y-41.1917
G1X63.5186Y-36.9280
G1X66.0223Y-36.9280
G1 Z0F20000
(Start Block)

G1X67.6774Y-40.9883
G1 Z3.0F20000
(Plotting speed under)
G1 F4000

G1X67.2582Y-40.5387
G1X67.1206Y-40.0057
G1X67.4749Y-40.0057
G1X67.5523Y-40.3203
G1X67.7472Y-40.6223
G1X68.0609Y-40.8399
G1X68.3900Y-40.9310
G1X68.8541Y-40.9249
G1X69.1993Y-40.8143
G1X69.4658Y-40.6005
G1X69.5794Y-40.3984
G1X69.6067Y-40.0020
G1X69.3600Y-39.5752
G1X67.6711Y-38.7846
G1X67.3903Y-38.4849
G1X67.2523Y-38.0880
G1X67.3636Y-37.4990
G1X67.7721Y-37.0876
G1X68.4634Y-36.8740
G1X69.1030Y-36.9602
G1X69.4573Y-37.1476
G1X69.7019Y-37.3878
G1X69.8726Y-37.6950
G1X69.9523Y-38.1111
G1X69.5979Y-38.1111
G1X69.4954Y-37.7333
G1X69.2846Y-37.4375
G1X68.9742Y-37.2472
G1X68.5847Y-37.1769
G1X68.1188Y-37.2638
G1X67.8308Y-37.4434
G1X67.6444Y-37.7226
G1X67.6177Y-38.1000
G1X67.7062Y-38.3277
G1X67.9639Y-38.5796
G1X69.1769Y-39.0650
G1X69.7102Y-39.4360
G1X69.9568Y-39.9032
G1X69.9373Y-40.4485
G1X69.6373Y-40.9005
G1X69.0073Y-41.2071
G1X68.2771Y-41.2207
G1X67.6774Y-40.9883
G1 Z0F20000
(Start Block)

G1X73.5426Y-36.9280
G1 Z3.0F20000
(Plotting speed under)
G1 F4000

G1X73.5426Y-37.2443
G1X72.4737Y-37.2443
G1X72.4737Y-40.8813
G1X73.5426Y-40.8813
G1X73.5426Y-41.1917
G1X71.0740Y-41.1917
G1X71.0740Y-40.8813
G1X72.1106Y-40.8813
G1X72.1106Y-37.2443
G1X71.0740Y-37.2443
G1X71.0740Y-36.9280
G1X73.5426Y-36.9280
G1 Z0F20000
(Start Block)

G1X68.6315Y-27.9377
G1 Z3.0F20000
(Plotting speed under)
G1 F4000

G1X69.0503Y-28.0229
G1X69.4074Y-28.2075
G1X69.6506Y-28.4453
G1X69.8156Y-28.7536
G1X69.8849Y-29.1884
G1X69.7740Y-29.6914
G1X69.4798Y-30.0702
G1X69.0445Y-30.3304
G1X70.0167Y-32.1958
G1X69.6506Y-32.1958
G1X68.7165Y-30.4124
G1X67.6623Y-30.4124
G1X67.6623Y-32.1958
G1X67.3168Y-32.1958
G1X67.3168Y-27.9322
G1X68.6315Y-27.9377
G1 Z0F20000
(Start Block)

G1X69.2378Y-28.4885
G1 Z3.0F20000
(Plotting speed under)
G1 F4000

G1X68.7238Y-28.2514
G1X67.6623Y-28.2308
G1X67.6623Y-30.1167
G1X68.7204Y-30.1056
G1X69.2612Y-29.8502
G1X69.4603Y-29.5574
G1X69.5335Y-29.1855
G1X69.4545Y-28.7843
G1X69.2378Y-28.4885
G1 Z0F20000
(Start Block)

G1X65.8832Y-28.9908
G1 Z3.0F20000
(Plotting speed under)
G1 F4000

G1X65.6985Y-28.5884
G1X65.2990Y-28.3070
G1X64.9036Y-28.2308
G1X63.9139Y-28.2308
G1X63.9139Y-30.1430
G1X65.0072Y-30.1375
G1X65.4119Y-30.0220
G1X65.6956Y-29.7995
G1X65.8232Y-29.5925
G1X65.8832Y-28.9908
G1 Z0F20000
(Start Block)

G1X65.3291Y-27.9940
G1 Z3.0F20000
(Plotting speed under)
G1 F4000

G1X65.8554Y-28.2777
G1X66.1453Y-28.6701
G1X66.2507Y-29.1943
G1X66.1453Y-29.7184
G1X65.8554Y-30.1079
G1X65.4278Y-30.3510
G1X65.0136Y-30.4343
G1X63.9139Y-30.4388
G1X63.9139Y-32.1958
G1X63.5625Y-32.1958
G1X63.5625Y-27.9322
G1X65.3291Y-27.9940
G1 Z0F20000
(Start Block)

G1X73.6128Y-32.1958
G1 Z3.0F20000
(Plotting speed under)
G1 F4000

G1X71.0974Y-32.1958
G1X71.0974Y-27.9322
G1X73.6011Y-27.9322
G1X73.6011Y-28.2396
G1X71.4459Y-28.2396
G1X71.4459Y-29.8473
G1X73.3259Y-29.8473
G1X73.3259Y-30.1518
G1X71.4459Y-30.1518
G1X71.4459Y-31.8913
G1X73.6128Y-31.8913
G1X73.6128Y-32.1958
G1 Z0F20000
(Start Block)

G1X76.2485Y-32.1958
G1 Z3.0F20000
(Plotting speed under)
G1 F4000

G1X75.9235Y-32.1958
G1X74.5559Y-27.9322
G1X74.9278Y-27.9322
G1X76.0816Y-31.6658
G1X77.2441Y-27.9322
G1X77.6160Y-27.9322
G1X76.2485Y-32.1958
G1 Z0F20000
(Start Block)

G1X76.4245Y-41.2359
G1 Z3.0F20000
(Plotting speed under)
G1 F4000

G1X75.8104Y-41.2047
G1X75.2380Y-40.8858
G1X74.8587Y-40.3467
G1X74.6540Y-39.5730
G1X74.6650Y-38.4110
G1X74.8934Y-37.6623
G1X75.3726Y-37.0957
G1X75.9952Y-36.8744
G1X76.5460Y-36.9294
G1X76.9738Y-37.1421
G1X77.3613Y-37.6162
G1X77.5048Y-38.1286
G1X77.1592Y-38.1286
G1X77.0333Y-37.7479
G1X76.8225Y-37.4463
G1X76.5179Y-37.2501
G1X76.1226Y-37.1769
G1X75.7536Y-37.2472
G1X75.4637Y-37.4317
G1X75.1035Y-38.0291
G1X74.9922Y-38.7407
G1X75.0492Y-39.8339
G1X75.3397Y-40.5110
G1X75.7946Y-40.8754
G1X76.1724Y-40.9457
G1X76.5831Y-40.9105
G1X76.9660Y-40.7583
G1X77.1680Y-40.5738
G1X77.1710Y-39.4727
G1X76.1607Y-39.4727
G1X76.1607Y-39.1682
G1X77.5048Y-39.1682
G1X77.5106Y-40.6851
G1X77.0203Y-41.0703
G1X76.4245Y-41.2359
G1 Z0F20000
(Start Block)

G1X78.9076Y-36.9280
G1 Z3.0F20000
(Plotting speed under)
G1 F4000

G1X80.8637Y-40.5211
G1X80.8667Y-36.9280
G1X81.2151Y-36.9280
G1X81.2151Y-41.1917
G1X80.8667Y-41.1917
G1X78.9105Y-37.5927
G1X78.9076Y-41.1917
G1X78.5591Y-41.1917
G1X78.5591Y-36.9280
G1X78.9076Y-36.9280
G1 Z0F20000
(Start Block)

G1X100.4087Y-37.2970
G1 Z3.0F20000
(Plotting speed under)
G1 F4000

G1X99.1554Y-37.2267
G1X99.1554Y-39.1126
G1X100.3374Y-39.0761
G1X100.8336Y-38.7589
G1X101.0184Y-38.3125
G1X100.9821Y-37.8711
G1X100.7308Y-37.4844
G1X100.4087Y-37.2970
G1 Z0F20000
(Start Block)

G1X100.9768Y-37.2648
G1 Z3.0F20000
(Plotting speed under)
G1 F4000

G1X101.3086Y-37.7495
G1X101.3493Y-38.4524
G1X101.0617Y-38.9830
G1X100.5375Y-39.3263
G1X101.5098Y-41.1917
G1X101.1437Y-41.1917
G1X100.2096Y-39.4083
G1X99.1554Y-39.4083
G1X99.1554Y-41.1917
G1X98.8098Y-41.1917
G1X98.8098Y-36.9280
G1X100.2331Y-36.9453
G1X100.6404Y-37.0558
G1X100.9768Y-37.2648
G1 Z0F20000
(Start Block)

G1X103.8438Y-37.4463
G1 Z3.0F20000
(Plotting speed under)
G1 F4000

G1X103.1293Y-39.6894
G1X104.5525Y-39.6894
G1X103.8438Y-37.4463
G1 Z0F20000
(Start Block)

G1X103.0297Y-40.0028
G1 Z3.0F20000
(Plotting speed under)
G1 F4000

G1X102.6520Y-41.1917
G1X102.2976Y-41.1917
G1X103.6857Y-36.9280
G1X104.0019Y-36.9280
G1X105.3783Y-41.1917
G1X105.0268Y-41.1917
G1X104.6520Y-40.0028
G1X103.0297Y-40.0028
G1 Z0F20000
(Start Block)

G1X106.6112Y-41.1917
G1 Z3.0F20000
(Plotting speed under)
G1 F4000

G1X106.2628Y-41.1917
G1X106.2628Y-36.9280
G1X106.6112Y-36.9280
G1X108.5674Y-40.5211
G1X108.5703Y-36.9280
G1X108.9188Y-36.9280
G1X108.9188Y-41.1917
G1X108.5703Y-41.1917
G1X106.6141Y-37.5927
G1X106.6112Y-41.1917
G1 Z0F20000
(Start Block)

G1X112.3296Y-37.4209
G1 Z3.0F20000
(Plotting speed under)
G1 F4000

G1X112.6707Y-37.9220
G1X112.8568Y-38.6315
G1X112.8438Y-39.5989
G1X112.6028Y-40.3359
G1X112.2471Y-40.7797
G1X111.6707Y-41.1086
G1X111.2452Y-41.1870
G1X110.0990Y-41.1917
G1X110.0990Y-36.9280
G1X111.5697Y-36.9835
G1X111.9665Y-37.1437
G1X112.3296Y-37.4209
G1 Z0F20000
(Start Block)

G1X112.1635Y-37.7245
G1 Z3.0F20000
(Plotting speed under)
G1 F4000

G1X111.9246Y-37.4891
G1X111.5489Y-37.2918
G1X110.4505Y-37.2267
G1X110.4505Y-40.8959
G1X111.2417Y-40.8904
G1X111.6419Y-40.7967
G1X112.0113Y-40.5621
G1X112.2881Y-40.2074
G1X112.4930Y-39.5833
G1X112.5144Y-38.7385
G1X112.3856Y-38.1237
G1X112.1635Y-37.7245
G1 Z0F20000
(Start Block)

G1X115.5313Y-37.2560
G1 Z3.0F20000
(Plotting speed under)
G1 F4000

G1X115.0335Y-37.1938
G1X114.6053Y-37.3747
G1X114.2646Y-37.8377
G1X114.1052Y-38.4244
G1X114.0831Y-39.4587
G1X114.2226Y-40.1739
G1X114.5239Y-40.6734
G1X115.0393Y-40.9291
G1X115.4262Y-40.9057
G1X115.8182Y-40.6734
G1X116.0730Y-40.2862
G1X116.2282Y-39.6982
G1X116.2503Y-38.6609
G1X116.1521Y-38.0613
G1X115.8882Y-37.5309
G1X115.5313Y-37.2560
G1 Z0F20000
(Start Block)

G1X116.2033Y-37.4055
G1 Z3.0F20000
(Plotting speed under)
G1 F4000

G1X116.4508Y-37.8973
G1X116.5891Y-38.5606
G1X116.5891Y-39.5635
G1X116.4116Y-40.3322
G1X116.1382Y-40.8000
G1X115.7302Y-41.1267
G1X115.2953Y-41.2453
G1X114.7143Y-41.1712
G1X114.3482Y-40.9515
G1X114.1341Y-40.7143
G1X113.8182Y-40.0086
G1X113.7367Y-38.6727
G1X113.9218Y-37.7950
G1X114.3453Y-37.1711
G1X114.9229Y-36.8899
G1X115.6250Y-36.9514
G1X115.9061Y-37.1046
G1X116.2033Y-37.4055
G1 Z0F20000
(Start Block)

G1X117.6486Y-36.9280
G1 Z3.0F20000
(Plotting speed under)
G1 F4000

G1X118.0996Y-36.9280
G1X118.9576Y-39.3410
G1X119.8712Y-36.9280
G1X120.3310Y-36.9280
G1X120.3310Y-41.1917
G1X119.9884Y-41.1917
G1X120.0147Y-37.3965
G1X119.0689Y-39.9091
G1X118.8404Y-39.9091
G1X117.9619Y-37.4375
G1X117.9912Y-41.1917
G1X117.6486Y-41.1917
G1X117.6486Y-36.9280
G1 Z0F20000
(Start Block)

G1X115.3468Y-32.1958
G1 Z3.0F20000
(Plotting speed under)
G1 F4000

G1X115.0042Y-32.1958
G1X115.0071Y-28.2396
G1X113.6454Y-28.2396
G1X113.6454Y-27.9322
G1X116.7055Y-27.9322
G1X116.7055Y-28.2396
G1X115.3468Y-28.2396
G1X115.3468Y-32.1958
G1 Z0F20000
(Start Block)

G1X109.9351Y-27.9322
G1 Z3.0F20000
(Plotting speed under)
G1 F4000

G1X110.3480Y-27.9322
G1X111.4227Y-29.7536
G1X112.5032Y-27.9322
G1X112.9161Y-27.9322
G1X111.6306Y-30.0347
G1X112.9571Y-32.1958
G1X112.5471Y-32.1958
G1X111.4285Y-30.3158
G1X110.3070Y-32.1958
G1X109.8941Y-32.1958
G1X111.2206Y-30.0347
G1X109.9351Y-27.9322
G1 Z0F20000
(Start Block)

G1X108.8953Y-32.1958
G1 Z3.0F20000
(Plotting speed under)
G1 F4000

G1X106.3799Y-32.1958
G1X106.3799Y-27.9322
G1X108.8836Y-27.9322
G1X108.8836Y-28.2396
G1X106.7284Y-28.2396
G1X106.7284Y-29.8473
G1X108.6084Y-29.8473
G1X108.6084Y-30.1518
G1X106.7284Y-30.1518
G1X106.7284Y-31.8913
G1X108.8953Y-31.8913
G1X108.8953Y-32.1958
G1 Z0F20000
(Start Block)

G1X104.7779Y-31.5252
G1 Z3.0F20000
(Plotting speed under)
G1 F4000

G1X104.7809Y-27.9322
G1X105.1293Y-27.9322
G1X105.1293Y-32.1958
G1X104.7809Y-32.1958
G1X102.8247Y-28.5969
G1X102.8218Y-32.1958
G1X102.4733Y-32.1958
G1X102.4733Y-27.9322
G1X102.8218Y-27.9322
G1X104.7779Y-31.5252
G1 Z0F20000
(Start Block)

G1X96.3206Y-48.5960
G1 Z3.0F20000
(Plotting speed under)
G1 F4000

G1X96.3206Y-21.5960
G1X123.3206Y-21.5960
G1X123.3206Y-48.5960
G1X96.3206Y-48.5960
G1 Z0F20000
(Start Block)

G1X162.4933Y-21.7087
G1 Z3.0F20000
(Plotting speed under)
G1 F4000

G1X162.4933Y-48.7087
G1X135.4933Y-48.7087
G1X135.4933Y-21.7087
G1X162.4933Y-21.7087
G1 Z0F20000
(Start Block)

G1X143.4492Y-28.4281
G1 Z3.0F20000
(Plotting speed under)
G1 F4000

G1X142.3546Y-28.4211
G1X142.3546Y-30.3333
G1X143.6442Y-30.2927
G1X143.9580Y-30.1498
G1X144.2066Y-29.8921
G1X144.3429Y-29.3904
G1X144.2095Y-28.8792
G1X143.8555Y-28.5487
G1X143.4492Y-28.4281
G1 Z0F20000
(Start Block)

G1X144.5283Y-30.0187
G1 Z3.0F20000
(Plotting speed under)
G1 F4000

G1X144.2013Y-30.3727
G1X143.7689Y-30.5719
G1X142.3546Y-30.6291
G1X142.3546Y-32.3861
G1X142.0032Y-32.3861
G1X142.0032Y-28.1224
G1X143.5632Y-28.1402
G1X144.2013Y-28.3907
G1X144.5283Y-28.7491
G1X144.6745Y-29.1601
G1X144.6745Y-29.6090
G1X144.5283Y-30.0187
G1 Z0F20000
(Start Block)

G1X147.2851Y-30.2705
G1 Z3.0F20000
(Plotting speed under)
G1 F4000

G1X147.7019Y-30.0405
G1X147.9010Y-29.7476
G1X147.9693Y-29.2661
G1X147.8360Y-28.8636
G1X147.5828Y-28.6033
G1X147.2623Y-28.4629
G1X146.1030Y-28.4211
G1X146.1030Y-30.3070
G1X147.2851Y-30.2705
G1 Z0F20000
(Start Block)

G1X145.7575Y-28.1224
G1 Z3.0F20000
(Plotting speed under)
G1 F4000

G1X147.3902Y-28.1824
G1X147.8481Y-28.3978
G1X148.1594Y-28.7376
G1X148.3213Y-29.2619
G1X148.2612Y-29.7682
G1X148.0094Y-30.1775
G1X147.4852Y-30.5207
G1X148.4574Y-32.3861
G1X148.0914Y-32.3861
G1X147.1572Y-30.6027
G1X146.1030Y-30.6027
G1X146.1030Y-32.3861
G1X145.7575Y-32.3861
G1X145.7575Y-28.1224
G1 Z0F20000
(Start Block)

G1X149.5381Y-32.3861
G1 Z3.0F20000
(Plotting speed under)
G1 F4000

G1X149.5381Y-28.1224
G1X152.0419Y-28.1224
G1X152.0419Y-28.4299
G1X149.8866Y-28.4299
G1X149.8866Y-30.0376
G1X151.7666Y-30.0376
G1X151.7666Y-30.3421
G1X149.8866Y-30.3421
G1X149.8866Y-32.0815
G1X152.0536Y-32.0815
G1X152.0536Y-32.3861
G1X149.5381Y-32.3861
G1 Z0F20000
(Start Block)

G1X152.9966Y-28.1224
G1 Z3.0F20000
(Plotting speed under)
G1 F4000

G1X153.3686Y-28.1224
G1X154.5223Y-31.8561
G1X155.6849Y-28.1224
G1X156.0568Y-28.1224
G1X154.6892Y-32.3861
G1X154.3642Y-32.3861
G1X152.9966Y-28.1224
G1 Z0F20000
(Start Block)

G1X159.3572Y-41.3819
G1 Z3.0F20000
(Plotting speed under)
G1 F4000

G1X159.3835Y-37.5868
G1X158.4377Y-40.0993
G1X158.2093Y-40.0993
G1X157.3308Y-37.6278
G1X157.3600Y-41.3819
G1X157.0174Y-41.3819
G1X157.0174Y-37.1183
G1X157.4684Y-37.1183
G1X158.3264Y-39.5312
G1X159.2400Y-37.1183
G1X159.6998Y-37.1183
G1X159.6998Y-41.3819
G1X159.3572Y-41.3819
G1 Z0F20000
(Start Block)

G1X155.5970Y-38.6118
G1 Z3.0F20000
(Plotting speed under)
G1 F4000

G1X155.3244Y-37.8149
G1X154.9001Y-37.4463
G1X154.2802Y-37.4085
G1X153.9741Y-37.5650
G1X153.7453Y-37.8178
G1X153.4740Y-38.6147
G1X153.4606Y-39.7671
G1X153.6878Y-40.5854
G1X154.0710Y-41.0029
G1X154.4081Y-41.1194
G1X154.7950Y-41.0960
G1X155.1025Y-40.9385
G1X155.3302Y-40.6866
G1X155.5970Y-39.8885
G1X155.5970Y-38.6118
G1 Z0F20000
(Start Block)

G1X155.8196Y-38.0876
G1 Z3.0F20000
(Plotting speed under)
G1 F4000

G1X155.9579Y-38.7508
G1X155.9579Y-39.7538
G1X155.8551Y-40.3109
G1X155.6322Y-40.8168
G1X155.2791Y-41.2072
G1X154.8940Y-41.3960
G1X154.2998Y-41.4208
G1X153.8891Y-41.2656
G1X153.3870Y-40.7187
G1X153.1246Y-39.8642
G1X153.1401Y-38.5298
G1X153.4388Y-37.6893
G1X153.7141Y-37.3613
G1X153.9760Y-37.1851
G1X154.2917Y-37.0802
G1X154.7764Y-37.0802
G1X155.0933Y-37.1851
G1X155.4345Y-37.4333
G1X155.8196Y-38.0876
G1 Z0F20000
(Start Block)

G1X151.6569Y-40.3977
G1 Z3.0F20000
(Plotting speed under)
G1 F4000

G1X151.8618Y-39.7736
G1X151.8867Y-39.0334
G1X151.8208Y-38.5246
G1X151.5980Y-38.0065
G1X151.2934Y-37.6794
G1X150.9177Y-37.4821
G1X149.8193Y-37.4170
G1X149.8193Y-41.0862
G1X150.6105Y-41.0807
G1X151.0107Y-40.9869
G1X151.3801Y-40.7524
G1X151.6569Y-40.3977
G1 Z0F20000
(Start Block)

G1X151.9716Y-40.5261
G1 Z3.0F20000
(Plotting speed under)
G1 F4000

G1X151.6159Y-40.9700
G1X151.0395Y-41.2989
G1X150.6140Y-41.3773
G1X149.4678Y-41.3819
G1X149.4678Y-37.1183
G1X150.9385Y-37.1737
G1X151.4344Y-37.3945
G1X151.8368Y-37.7714
G1X152.1151Y-38.3043
G1X152.2341Y-38.9311
G1X152.2126Y-39.7892
G1X151.9716Y-40.5261
G1 Z0F20000
(Start Block)

G1X148.2876Y-37.1183
G1 Z3.0F20000
(Plotting speed under)
G1 F4000

G1X148.2876Y-41.3819
G1X147.9391Y-41.3819
G1X145.9830Y-37.7830
G1X145.9800Y-41.3819
G1X145.6316Y-41.3819
G1X145.6316Y-37.1183
G1X145.9800Y-37.1183
G1X147.9362Y-40.7114
G1X147.9391Y-37.1183
G1X148.2876Y-37.1183
G1 Z0F20000
(Start Block)

G1X144.0208Y-40.1930
G1 Z3.0F20000
(Plotting speed under)
G1 F4000

G1X142.3985Y-40.1930
G1X142.0208Y-41.3819
G1X141.6664Y-41.3819
G1X143.0545Y-37.1183
G1X143.3707Y-37.1183
G1X144.7471Y-41.3819
G1X144.3956Y-41.3819
G1X144.0208Y-40.1930
G1 Z0F20000
(Start Block)

G1X143.2126Y-37.6366
G1 Z3.0F20000
(Plotting speed under)
G1 F4000

G1X142.4981Y-39.8797
G1X143.9213Y-39.8797
G1X143.2126Y-37.6366
G1 Z0F20000
(Start Block)

G1X139.8114Y-37.1783
G1 Z3.0F20000
(Plotting speed under)
G1 F4000

G1X140.4342Y-37.5387
G1X140.7078Y-38.0404
G1X140.7396Y-38.5128
G1X140.5782Y-38.9840
G1X140.3417Y-39.2563
G1X139.9063Y-39.5166
G1X140.8786Y-41.3819
G1X140.5125Y-41.3819
G1X139.5784Y-39.5986
G1X138.5242Y-39.5986
G1X138.5242Y-41.3819
G1X138.1786Y-41.3819
G1X138.1786Y-37.1183
G1X139.8114Y-37.1783
G1 Z0F20000
(Start Block)

G1X140.3873Y-38.5027
G1 Z3.0F20000
(Plotting speed under)
G1 F4000

G1X140.3163Y-37.9704
G1X140.0039Y-37.5992
G1X139.4843Y-37.4236
G1X138.5242Y-37.4170
G1X138.5242Y-39.3028
G1X139.4525Y-39.3028
G1X139.8244Y-39.2267
G1X140.2024Y-38.9491
G1X140.3873Y-38.5027
G1 Z0F20000
(Start Block)

G1X56.8047Y-21.8957
G1 Z3.0F20000
(Plotting speed under)
G1 F4000

G1X83.8047Y-21.8957
G1X83.8047Y-48.8958
G1X56.8047Y-48.8958
G1X56.8047Y-21.8957
G1 Z0F20000
(Start Block)

G1X67.1876Y-110.3246
G1 Z3.0F20000
(Plotting speed under)
G1 F4000

G1X67.2315Y-108.5441
G1X66.4438Y-110.8399
G1X66.1334Y-110.8399
G1X65.4101Y-108.6056
G1X65.4540Y-112.0259
G1X64.9269Y-112.0259
G1X64.9269Y-107.7623
G1X65.5975Y-107.7623
G1X66.2915Y-109.8941
G1X67.0411Y-107.7623
G1X67.7147Y-107.7623
G1X67.7147Y-112.0259
G1X67.1876Y-112.0259
G1X67.1876Y-110.3246
G1 Z0F20000
(Start Block)

G1X61.8454Y-107.7623
G1 Z3.0F20000
(Plotting speed under)
G1 F4000

G1X63.1983Y-112.0259
G1X62.6595Y-112.0259
G1X62.3227Y-110.9219
G1X60.8996Y-110.9219
G1X60.5569Y-112.0259
G1X60.0152Y-112.0259
G1X61.3915Y-107.7623
G1X61.8454Y-107.7623
G1 Z0F20000
(Start Block)

G1X61.0460Y-110.4505
G1 Z3.0F20000
(Plotting speed under)
G1 F4000

G1X62.1793Y-110.4505
G1X61.6170Y-108.5998
G1X61.0460Y-110.4505
G1 Z0F20000
(Start Block)

G1X57.6053Y-107.9231
G1 Z3.0F20000
(Plotting speed under)
G1 F4000

G1X57.9411Y-108.1509
G1X58.1273Y-108.3898
G1X58.2713Y-108.7978
G1X58.2827Y-109.1766
G1X58.0641Y-109.7359
G1X57.4901Y-110.1694
G1X58.3921Y-112.0259
G1X57.8210Y-112.0259
G1X56.9835Y-110.2865
G1X56.1314Y-110.2865
G1X56.1314Y-112.0259
G1X55.5926Y-112.0259
G1X55.5926Y-107.7623
G1X56.9610Y-107.7675
G1X57.6053Y-107.9231
G1 Z0F20000
(Start Block)

G1X56.8576Y-109.8414
G1 Z3.0F20000
(Plotting speed under)
G1 F4000

G1X57.3030Y-109.7434
G1X57.6219Y-109.4714
G1X57.7371Y-109.1601
G1X57.6776Y-108.6788
G1X57.4901Y-108.4211
G1X57.2032Y-108.2630
G1X56.1314Y-108.2074
G1X56.1314Y-109.8414
G1X56.8576Y-109.8414
G1 Z0F20000
(Start Block)

G1X50.5843Y-112.0259
G1 Z3.0F20000
(Plotting speed under)
G1 F4000

G1X51.9606Y-107.7623
G1X52.4145Y-107.7623
G1X53.7674Y-112.0259
G1X53.2286Y-112.0259
G1X52.8918Y-110.9219
G1X51.4686Y-110.9219
G1X51.1260Y-112.0259
G1X50.5843Y-112.0259
G1 Z0F20000
(Start Block)

G1X52.7483Y-110.4505
G1 Z3.0F20000
(Plotting speed under)
G1 F4000

G1X52.1861Y-108.5998
G1X51.6151Y-110.4505
G1X52.7483Y-110.4505
G1 Z0F20000
(Start Block)

G1X48.3107Y-110.1478
G1 Z3.0F20000
(Plotting speed under)
G1 F4000

G1X47.7975Y-110.3003
G1X46.7327Y-110.3158
G1X46.7327Y-112.0259
G1X46.1909Y-112.0259
G1X46.1909Y-107.7623
G1X47.9059Y-107.7977
G1X48.4009Y-107.9823
G1X48.7073Y-108.2400
G1X48.9434Y-108.6983
G1X48.9663Y-109.2767
G1X48.7682Y-109.7623
G1X48.3107Y-110.1478
G1 Z0F20000
(Start Block)

G1X47.8100Y-108.2360
G1 Z3.0F20000
(Plotting speed under)
G1 F4000

G1X46.7327Y-108.2074
G1X46.7327Y-109.8707
G1X47.8100Y-109.8433
G1X48.1113Y-109.7132
G1X48.3266Y-109.4880
G1X48.4353Y-109.1721
G1X48.3755Y-108.6993
G1X48.1125Y-108.3691
G1X47.8100Y-108.2360
G1 Z0F20000
(Start Block)

G1X72.0641Y-110.0551
G1 Z3.0F20000
(Plotting speed under)
G1 F4000

G1X70.2837Y-110.0551
G1X70.2837Y-111.5662
G1X72.3599Y-111.5662
G1X72.3599Y-112.0259
G1X69.7419Y-112.0259
G1X69.7419Y-107.7623
G1X72.3335Y-107.7623
G1X72.3335Y-108.2249
G1X70.2837Y-108.2249
G1X70.2837Y-109.5954
G1X72.0641Y-109.5954
G1X72.0641Y-110.0551
G1 Z0F20000
(Start Block)

G1X75.4647Y-112.0259
G1 Z3.0F20000
(Plotting speed under)
G1 F4000

G1X75.4647Y-108.2249
G1X74.1470Y-108.2249
G1X74.1470Y-107.7623
G1X77.3096Y-107.7623
G1X77.3096Y-108.2249
G1X75.9918Y-108.2249
G1X75.9918Y-112.0259
G1X75.4647Y-112.0259
G1 Z0F20000
(Start Block)

G1X79.7146Y-109.5954
G1 Z3.0F20000
(Plotting speed under)
G1 F4000

G1X81.4950Y-109.5954
G1X81.4950Y-110.0551
G1X79.7146Y-110.0551
G1X79.7146Y-111.5662
G1X81.7908Y-111.5662
G1X81.7908Y-112.0259
G1X79.1728Y-112.0259
G1X79.1728Y-107.7623
G1X81.7644Y-107.7623
G1X81.7644Y-108.2249
G1X79.7146Y-108.2249
G1X79.7146Y-109.5954
G1 Z0F20000
(Start Block)

G1X85.4931Y-109.7857
G1 Z3.0F20000
(Plotting speed under)
G1 F4000

G1X85.8503Y-109.5544
G1X86.0065Y-109.2742
G1X86.0302Y-108.9053
G1X85.9196Y-108.5812
G1X85.6977Y-108.3567
G1X85.3831Y-108.2334
G1X84.4242Y-108.2074
G1X84.4242Y-109.8414
G1X85.4931Y-109.7857
G1 Z0F20000
(Start Block)

G1X86.0042Y-110.0535
G1 Z3.0F20000
(Plotting speed under)
G1 F4000

G1X85.7830Y-110.1694
G1X86.6849Y-112.0259
G1X86.1139Y-112.0259
G1X85.2764Y-110.2865
G1X84.4242Y-110.2865
G1X84.4242Y-112.0259
G1X83.8854Y-112.0259
G1X83.8854Y-107.7623
G1X85.4816Y-107.7956
G1X85.9901Y-107.9705
G1X86.3030Y-108.2240
G1X86.5413Y-108.6860
G1X86.5551Y-109.3035
G1X86.3569Y-109.7359
G1X86.0042Y-110.0535
G1 Z0F20000
(Start Block)

G1X89.7264Y-107.7163
G1 Z3.0F20000
(Plotting speed under)
G1 F4000

G1X90.2538Y-107.7374
G1X90.8381Y-107.9914
G1X91.1881Y-108.3671
G1X91.3583Y-108.8743
G1X91.3652Y-108.9892
G1X90.8088Y-108.9892
G1X90.7181Y-108.6554
G1X90.5394Y-108.3948
G1X90.0517Y-108.1732
G1X89.4838Y-108.2652
G1X89.2561Y-108.4402
G1X89.1374Y-108.6492
G1X89.1504Y-109.0787
G1X89.3430Y-109.3218
G1X90.7655Y-109.9481
G1X91.1039Y-110.2253
G1X91.3213Y-110.5969
G1X91.3563Y-111.1603
G1X91.1804Y-111.5457
G1X90.7500Y-111.9021
G1X90.1576Y-112.0732
G1X89.5068Y-112.0283
G1X88.9973Y-111.8073
G1X88.6169Y-111.4327
G1X88.4249Y-110.9152
G1X88.4164Y-110.7960
G1X88.9698Y-110.7960
G1X89.2083Y-111.3338
G1X89.4777Y-111.5294
G1X89.8243Y-111.6189
G1X90.4555Y-111.5138
G1X90.7779Y-111.1617
G1X90.7714Y-110.7140
G1X90.5804Y-110.4573
G1X89.0747Y-109.7696
G1X88.8022Y-109.5354
G1X88.5855Y-109.1712
G1X88.5615Y-108.6554
G1X88.7284Y-108.2701
G1X89.1469Y-107.9005
G1X89.7264Y-107.7163
G1 Z0F20000
(Start Block)

G1X118.5420Y-116.2982
G1 Z3.0F20000
(Plotting speed under)
G1 F4000

G1X18.5419Y-116.2982
G1X18.5419Y-104.2981
G1X118.5420Y-104.2981
G1X118.5420Y-116.2982
G1 Z0F20000

G00 X0.0000 Y0.0000

