$H
G21
G17
G90
G1 Z0F20000
G1 F15000

(Start Layer)

(Start Block)


G1X53.9829Y-84.6510
G1Z5F20000
(Plotting speed under)
G1 F4000


G1X50.6432Y-72.4511

G1X50.0169Y-69.6228

G1X49.7160Y-67.4654

G1X49.6489Y-66.2112

G1X49.6864Y-64.9930

G1X49.8255Y-63.9921

G1X50.0737Y-63.1168

G1X50.3903Y-62.4696

G1X50.8141Y-61.9541

G1X51.3532Y-61.6025

G1X51.9779Y-61.4522

G1X52.6208Y-61.4949

G1X53.2957Y-61.7088

G1X53.9562Y-62.0574

G1X54.7521Y-62.6454

G1X56.1443Y-64.1221

G1X57.4497Y-66.0484

G1X58.6119Y-68.3276

G1X59.5815Y-70.8954

G1X60.3159Y-73.6531

G1X60.8002Y-76.4987

G1X61.0587Y-79.6349

G1X61.0588Y-82.8691

G1X60.7696Y-86.5407

G1X60.2846Y-89.6207

G1X59.5996Y-91.9567

G1X58.6178Y-94.0801

G1X58.0423Y-94.9794

G1X57.5017Y-95.6397

G1X56.9282Y-96.1387

G1X56.4453Y-96.3651

G1X55.9503Y-96.3392

G1X55.5801Y-96.0492

G1X55.2878Y-95.5500

G1X55.0155Y-94.7517

G1X53.4262Y-87.3766

G1X49.5802Y-72.6224

G1X48.9811Y-70.0215

G1X48.6177Y-67.9985

G1X48.4214Y-66.1599

G1X48.3753Y-64.5271

G1X48.4737Y-63.0842

G1X48.7200Y-61.8470

G1X49.0978Y-60.8740

G1X49.6386Y-60.1009

G1X50.3025Y-59.6025

G1X51.0934Y-59.3671

G1X51.8214Y-59.3775

G1X52.7053Y-59.6134

G1X53.5585Y-60.0335

G1X54.4369Y-60.6445

G1X55.2647Y-61.3933

G1X56.0861Y-62.2990

G1X56.8939Y-63.3588

G1X57.6985Y-64.5956

G1X59.0678Y-67.2608

G1X60.1498Y-70.1778

G1X60.9416Y-73.3091

G1X61.4377Y-76.6244

G1X61.6374Y-80.2023

G1X61.5249Y-83.9131

G1X61.0213Y-88.4324

G1X60.3481Y-91.9314

G1X59.9267Y-93.2868

G1X59.3874Y-94.6448

G1X58.7834Y-95.8765

G1X58.0867Y-97.0423

G1X57.3702Y-98.0199

G1X56.6185Y-98.8261

G1X55.8795Y-99.3737

G1X55.2967Y-99.5659

G1X54.9190Y-99.5075

G1X54.5951Y-99.2644

G1X54.3326Y-98.8244

G1X54.0963Y-98.0736

G1X53.3446Y-93.2523

G1X52.4619Y-88.7900

G1X51.2237Y-83.4849

G1X48.2628Y-71.7826

G1X47.6834Y-69.0593

G1X47.3537Y-66.9416

G1X47.1796Y-64.9174

G1X47.1620Y-63.0895

G1X47.2910Y-61.5705

G1X47.5746Y-60.2303

G1X48.0016Y-59.1591

G1X48.5935Y-58.3130

G1X49.3967Y-57.7029

G1X50.2605Y-57.4293

G1X51.1819Y-57.4203

G1X52.1640Y-57.6556

G1X53.1337Y-58.0934

G1X54.1375Y-58.7417

G1X55.1535Y-59.6103

G1X56.1374Y-60.6520

G1X57.0741Y-61.8461

G1X57.9394Y-63.1409

G1X58.7733Y-64.6175

G1X59.4806Y-66.0859

G1X60.1242Y-67.6758

G1X60.6848Y-69.3341

G1X61.1627Y-71.0798

G1X61.5628Y-72.9511

G1X62.0472Y-76.6330

G1X62.1595Y-78.5744

G1X62.1766Y-80.8031

G1X61.9468Y-84.7742

G1X61.6199Y-87.5301

G1X61.1503Y-90.5186

G1X60.7458Y-92.5936

G1X60.3817Y-93.9809

G1X59.8043Y-95.5973

G1X59.1366Y-97.0643

G1X58.3377Y-98.4954

G1X57.4821Y-99.7627

G1X56.5047Y-100.9486

G1X55.5989Y-101.8143

G1X54.7560Y-102.3831

G1X53.9990Y-102.5879

G1X53.6120Y-102.4717

G1X53.3635Y-102.2419

G1X53.1470Y-101.8193

G1X53.0057Y-101.3087

G1X52.4060Y-95.8252

G1X51.5289Y-90.6176

G1X50.1575Y-84.2555

G1X47.0301Y-71.2451

G1X46.4514Y-68.2591

G1X46.1368Y-65.8383

G1X45.9935Y-63.6088

G1X46.0195Y-61.5866

G1X46.2150Y-59.8830

G1X46.5568Y-58.5216

G1X47.0609Y-57.3981

G1X47.7534Y-56.5106

G1X48.5885Y-55.9241

G1X49.5897Y-55.6189

G1X50.6066Y-55.6027

G1X51.6859Y-55.8348

G1X52.7674Y-56.2838

G1X53.9788Y-57.0210

G1X55.0931Y-57.9321

G1X56.2364Y-59.0949

G1X57.2981Y-60.4131

G1X58.2784Y-61.8544

G1X59.1668Y-63.4123

G1X59.9695Y-65.0736

G1X60.6775Y-66.8438

G1X61.2829Y-68.6817

G1X61.7733Y-70.5492

G1X62.1762Y-72.5595

G1X62.4536Y-74.4752

G1X62.6411Y-76.6026

G1X62.7233Y-78.7378

G1X62.6914Y-80.9673

G1X62.3240Y-85.5933

G1X61.8726Y-88.7865

G1X61.1933Y-92.7400

G1X60.7827Y-94.6091

G1X60.3703Y-95.9706

G1X59.7136Y-97.6177

G1X58.8922Y-99.2463

G1X57.9397Y-100.7895

G1X56.9207Y-102.1668

G1X55.6868Y-103.5437

G1X54.5167Y-104.5772

G1X53.4809Y-105.2226

G1X52.6867Y-105.4270

G1X52.2991Y-105.3275

G1X52.0650Y-105.1272

G1X51.7683Y-104.3649

G1X51.6602Y-103.5224

G1X51.5988Y-101.2542

G1X51.3816Y-98.4354

G1X50.5662Y-92.6085

G1X49.1506Y-85.4439

G1X45.8888Y-71.0531

G1X45.2993Y-67.6918

G1X44.9809Y-64.7502

G1X44.8739Y-62.4100

G1X44.9399Y-60.2283

G1X45.1732Y-58.4807

G1X45.5756Y-57.0134

G1X46.1421Y-55.8388

G1X46.9125Y-54.9080

G1X47.8234Y-54.2930

G1X48.9021Y-53.9597

G1X50.1087Y-53.9229

G1X51.3807Y-54.1784

G1X52.6319Y-54.6824

G1X53.9103Y-55.4313

G1X55.1818Y-56.4370

G1X56.3736Y-57.6101

G1X57.5303Y-59.0072

G1X58.5976Y-60.5415

G1X59.6008Y-62.2819

G1X60.4960Y-64.1379

G1X61.2308Y-65.9992

G1X61.8801Y-68.0171

G1X62.3974Y-70.0722

G1X62.8046Y-72.2719

G1X63.0744Y-74.3889

G1X63.2259Y-76.6395

G1X63.2675Y-78.8637

G1X63.1854Y-81.1865

G1X62.9994Y-83.6111

G1X62.6560Y-86.4122

G1X61.3000Y-94.5413

G1X60.8848Y-96.3065

G1X60.3700Y-97.8411

G1X59.5849Y-99.6132

G1X58.6428Y-101.3009

G1X57.4836Y-103.0013

G1X56.1988Y-104.5678

G1X54.7745Y-106.0090

G1X53.3439Y-107.1686

G1X52.1087Y-107.8785

G1X51.5609Y-108.0531

G1X51.1628Y-108.0671

G1X50.8563Y-107.9704

G1X50.6197Y-107.7415

G1X50.3884Y-106.9495

G1X50.3361Y-106.1904

G1X50.3833Y-103.2924

G1X50.2434Y-100.5203

G1X49.9077Y-97.1951

G1X49.3545Y-93.3504

G1X48.0851Y-86.5394

G1X44.8014Y-71.0565

G1X44.1864Y-67.0966

G1X43.8700Y-63.4105

G1X43.8177Y-61.0782

G1X43.9249Y-58.9152

G1X44.2167Y-57.0537

G1X44.6624Y-55.5972

G1X45.2976Y-54.3823

G1X46.1302Y-53.4398

G1X47.1440Y-52.7874

G1X48.3046Y-52.4347

G1X49.5943Y-52.3713

G1X51.0616Y-52.6239

G1X52.4140Y-53.1231

G1X53.8833Y-53.9295

G1X55.3104Y-55.0138

G1X56.5755Y-56.2197

G1X57.8480Y-57.7266

G1X58.9686Y-59.3149

G1X60.0285Y-61.1367

G1X60.9755Y-63.0866

G1X61.7604Y-65.0745

G1X62.4695Y-67.3147

G1X62.9999Y-69.4891

G1X63.3985Y-71.7751

G1X63.6735Y-74.1768

G1X63.7930Y-76.5434

G1X63.7170Y-80.6095

G1X63.2155Y-85.4565

G1X61.5303Y-95.8789

G1X61.0926Y-97.7305

G1X60.4778Y-99.4579

G1X59.5959Y-101.3045

G1X58.4377Y-103.2102

G1X57.0404Y-105.0758

G1X55.5454Y-106.7344

G1X53.8004Y-108.3430

G1X52.1148Y-109.5905

G1X50.6170Y-110.3715

G1X50.0932Y-110.5118

G1X49.6209Y-110.5125

G1X49.3419Y-110.3978

G1X49.1577Y-110.1881

G1X48.9878Y-109.4468

G1X48.9747Y-108.5815

G1X49.1419Y-106.0785

G1X49.1082Y-103.2400

G1X48.8708Y-99.8316

G1X48.4113Y-95.9666

G1X47.2103Y-88.8154

G1X43.7586Y-71.2411

G1X43.1287Y-66.6022

G1X42.8250Y-62.1257

G1X42.8256Y-59.6650

G1X42.9792Y-57.5772

G1X43.3268Y-55.6920

G1X43.8345Y-54.2260

G1X44.5401Y-53.0082

G1X45.3805Y-52.1227

G1X46.4667Y-51.4436

G1X47.7169Y-51.0563

G1X49.1525Y-50.9560

G1X50.7354Y-51.1765

G1X52.1982Y-51.6519

G1X53.8117Y-52.4567

G1X55.2966Y-53.5080

G1X56.6674Y-54.7372

G1X57.9911Y-56.2357

G1X59.2593Y-57.9686

G1X60.4362Y-59.9513

G1X61.4605Y-62.0397

G1X62.2825Y-64.1136

G1X63.0110Y-66.4279

G1X63.5649Y-68.7130

G1X63.9720Y-71.1205

G1X64.2547Y-73.8485

G1X64.3495Y-76.3155

G1X64.2044Y-80.5871

G1X63.6500Y-85.3447

G1X62.4394Y-92.5698

G1X61.8086Y-97.3563

G1X61.3672Y-99.1577

G1X60.6748Y-100.9784

G1X59.6502Y-102.9581

G1X58.3583Y-104.9139

G1X56.7909Y-106.8492

G1X55.0006Y-108.6854

G1X52.9738Y-110.4104

G1X51.0109Y-111.7606

G1X49.3154Y-112.6038

G1X48.6856Y-112.7707

G1X48.1506Y-112.7778

G1X47.9051Y-112.6807

G1X47.7357Y-112.5007

G1X47.5952Y-111.8629

G1X47.6081Y-110.9573

G1X47.8710Y-108.4693

G1X47.9245Y-105.5953

G1X47.7674Y-102.1237

G1X47.3823Y-98.2747

G1X46.3971Y-91.7612

G1X43.6656Y-77.0136

G1X42.7637Y-71.6870

G1X42.1122Y-66.1432

G1X41.8372Y-60.9473

G1X41.8896Y-58.3025

G1X42.0854Y-56.3233

G1X42.4750Y-54.4796

G1X43.0195Y-53.0492

G1X43.7355Y-51.8845

G1X44.6932Y-50.9238

G1X45.8261Y-50.2410

G1X47.2249Y-49.8086

G1X48.8378Y-49.6763

G1X50.5476Y-49.8703

G1X52.2304Y-50.3638

G1X53.9236Y-51.1455

G1X55.4909Y-52.2036

G1X56.9608Y-53.4795

G1X58.3637Y-55.0438

G1X59.6497Y-56.7779

G1X60.8535Y-58.7800

G1X61.9735Y-61.0482

G1X62.8411Y-63.2409

G1X63.5825Y-65.6329

G1X64.1681Y-68.1155

G1X64.5545Y-70.5040

G1X64.8178Y-73.3273

G1X64.8995Y-76.0629

G1X64.7990Y-78.7934

G1X64.5541Y-81.7140

G1X63.9784Y-85.7654

G1X62.7988Y-92.8012

G1X62.3539Y-97.9664

G1X61.8900Y-100.1164

G1X61.0833Y-102.2076

G1X59.9521Y-104.2783

G1X58.4691Y-106.3838

G1X56.7205Y-108.4047

G1X54.6725Y-110.3734

G1X52.2751Y-112.2800

G1X49.9280Y-113.7821

G1X47.9978Y-114.6791

G1X47.2053Y-114.8656

G1X46.6873Y-114.8498

G1X46.3594Y-114.6238

G1X46.2422Y-114.1363

G1X46.2915Y-113.0451

G1X46.6206Y-110.5852

G1X46.7421Y-107.8129

G1X46.6597Y-104.3937

G1X46.3712Y-100.8823

G1X45.5108Y-94.5927

G1X42.8679Y-79.3116

G1X41.8017Y-72.3918

G1X41.1399Y-65.8520

G1X40.8939Y-59.9191

G1X40.9789Y-57.3138

G1X41.2065Y-55.3101

G1X41.6236Y-53.4922

G1X42.1930Y-52.0753

G1X43.0104Y-50.8235

G1X43.9605Y-49.9150

G1X45.2544Y-49.1600

G1X46.7295Y-48.7089

G1X48.4230Y-48.5292

G1X50.3523Y-48.6728

G1X52.0009Y-49.0617

G1X53.9846Y-49.8494

G1X55.5870Y-50.8508

G1X57.1501Y-52.1350

G1X58.5809Y-53.6706

G1X59.9807Y-55.5016

G1X61.2649Y-57.5935

G1X62.4803Y-60.0351

G1X63.3718Y-62.2731

G1X64.1564Y-64.8306

G1X64.7700Y-67.5102

G1X65.1548Y-70.0138

G1X65.3846Y-72.8710

G1X65.4385Y-75.9111

G1X65.2961Y-78.5813

G1X64.9491Y-81.9927

G1X63.5608Y-90.2040

G1X63.1666Y-93.0979

G1X63.0425Y-94.7479

G1X63.0391Y-98.1943

G1X62.9396Y-99.2924

G1X62.4881Y-101.2669

G1X61.6461Y-103.3357

G1X60.3735Y-105.5250

G1X58.7162Y-107.7289

G1X56.7754Y-109.8359

G1X54.4473Y-111.9419

G1X51.7252Y-113.9756

G1X49.1351Y-115.5391

G1X47.8783Y-116.1551

G1X46.8528Y-116.5569

G1X45.9594Y-116.7702

G1X45.3693Y-116.7619

G1X45.0603Y-116.5586

G1X44.9605Y-116.0569

G1X45.0675Y-114.8572

G1X45.4157Y-112.6085

G1X45.5909Y-109.9530

G1X45.5753Y-106.7061

G1X45.3518Y-103.3458

G1X44.7008Y-98.1070

G1X42.2021Y-82.9600

G1X40.9010Y-73.7253

G1X40.5257Y-70.1255

G1X40.2083Y-65.8758

G1X40.0243Y-61.9880

G1X39.9803Y-59.0638

G1X40.0968Y-56.3718

G1X40.3474Y-54.4094

G1X40.7897Y-52.6173

G1X41.4193Y-51.1447

G1X42.2906Y-49.9020

G1X43.3548Y-48.9518

G1X44.6937Y-48.2196

G1X46.2451Y-47.7523

G1X48.1789Y-47.5177

G1X50.3134Y-47.6106

G1X52.0111Y-47.9280

G1X54.1736Y-48.6597

G1X55.8134Y-49.6166

G1X57.4656Y-50.9236

G1X58.9229Y-52.4541

G1X60.3373Y-54.2660

G1X61.6679Y-56.3851

G1X62.9574Y-58.9468

G1X63.9265Y-61.3594

G1X64.7339Y-64.0212

G1X65.3527Y-66.7990

G1X65.7620Y-69.5915

G1X65.9549Y-72.5325

G1X65.9628Y-75.7206

G1X65.7817Y-78.4173

G1X65.3398Y-82.0632

G1X63.9346Y-90.0372

G1X63.6279Y-92.4458

G1X63.5249Y-94.8298

G1X63.8522Y-98.7729

G1X63.7826Y-100.1532

G1X63.3681Y-102.0182

G1X62.5227Y-104.0706

G1X61.1282Y-106.3943

G1X59.3077Y-108.7229

G1X57.1060Y-111.0157

G1X54.5634Y-113.2215

G1X51.5041Y-115.4117

G1X48.5621Y-117.1105

G1X47.1270Y-117.7894

G1X45.9196Y-118.2521

G1X44.9171Y-118.5036

G1X44.1913Y-118.5171

G1X43.8771Y-118.3273

G1X43.7841Y-117.9500

G1X44.3036Y-114.3775

G1X44.5092Y-111.8038

G1X44.5327Y-108.7852

G1X44.3663Y-105.7332

G1X43.7226Y-100.3923

G1X41.2350Y-85.2219

G1X40.1223Y-76.5447

G1X39.6786Y-72.0329

G1X39.3480Y-67.0349

G1X39.1322Y-62.1890

G1X39.0826Y-58.3707

G1X39.2188Y-55.6510

G1X39.4786Y-53.7044

G1X39.9531Y-51.8724

G1X40.5865Y-50.4327

G1X41.4282Y-49.2555

G1X42.5375Y-48.2564

G1X44.0500Y-47.4505

G1X45.5726Y-46.9765

G1X47.7773Y-46.6544

G1X50.2337Y-46.6573

G1X52.0906Y-46.8929

G1X54.3542Y-47.5040

G1X55.8730Y-48.2946

G1X57.5634Y-49.5312

G1X58.9416Y-50.8775

G1X60.4885Y-52.7527

G1X61.9098Y-54.8882

G1X63.2227Y-57.3922

G1X64.3364Y-60.0350

G1X65.1900Y-62.7238

G1X65.8817Y-65.7783

G1X66.3367Y-68.8793

G1X66.5135Y-71.7301

G1X66.4898Y-74.9574

G1X66.3564Y-77.2785

G1X66.0514Y-79.8249

G1X65.4848Y-83.4442

G1X64.3969Y-89.2179

G1X64.0196Y-92.2206

G1X63.9932Y-93.6966

G1X64.0908Y-95.2088

G1X64.8517Y-99.0543

G1X64.8727Y-100.6736

G1X64.7338Y-101.6051

G1X64.4728Y-102.5794

G1X63.6283Y-104.5945

G1X62.9097Y-105.8550

G1X62.0424Y-107.1499

G1X59.9495Y-109.7161

G1X57.4158Y-112.2349

G1X54.6421Y-114.5316

G1X51.1936Y-116.8822

G1X47.8199Y-118.7145

G1X46.2892Y-119.3908

G1X44.8962Y-119.8834

G1X43.6989Y-120.1382

G1X43.0621Y-120.0950

G1X42.7955Y-119.8722

G1X42.7454Y-119.5431

G1X43.3091Y-115.9597

G1X43.5205Y-113.5671

G1X43.5705Y-110.8023

G1X43.4289Y-107.8200

G1X42.7843Y-102.5777

G1X40.4469Y-89.1516

G1X39.4099Y-80.9275

G1X38.9163Y-75.6617

G1X38.6100Y-71.1391

G1X38.2698Y-63.4279

G1X38.1895Y-57.8215

G1X38.3367Y-55.0964

G1X38.6090Y-53.0735

G1X39.1078Y-51.2251

G1X39.7865Y-49.7412

G1X40.6692Y-48.5717

G1X41.8110Y-47.5961

G1X43.0853Y-46.9246

G1X44.8160Y-46.3522

G1X46.4055Y-46.0623

G1X48.0357Y-45.8858

G1X49.9009Y-45.8294

G1X51.6267Y-45.8820

G1X53.4088Y-46.1358

G1X54.4610Y-46.3686

G1X55.3546Y-46.7028

G1X56.3565Y-47.2572

G1X57.5617Y-48.0886

G1X58.7058Y-49.0778

G1X59.9140Y-50.3770

G1X61.0772Y-51.8336

G1X62.0869Y-53.3071

G1X62.9269Y-54.7545

G1X63.8697Y-56.6473

G1X64.6665Y-58.5125

G1X65.5746Y-61.1600

G1X66.2805Y-64.0468

G1X66.8054Y-67.2676

G1X67.0643Y-70.3889

G1X67.0355Y-73.9721

G1X66.7284Y-77.9793

G1X65.7480Y-83.7759

G1X64.7891Y-88.5478

G1X64.5108Y-90.5874

G1X64.3947Y-92.2148

G1X64.4347Y-93.5551

G1X64.6340Y-94.8433

G1X64.9172Y-96.0022

G1X66.0484Y-99.1862

G1X66.1737Y-99.8875

G1X66.2012Y-100.8538

G1X66.0103Y-102.1973

G1X65.5424Y-103.6402

G1X64.8629Y-105.0664

G1X63.8447Y-106.7380

G1X62.6005Y-108.4265

G1X61.1005Y-110.1851

G1X59.5699Y-111.7635

G1X57.7168Y-113.4617

G1X55.8066Y-115.0243

G1X53.8102Y-116.4714

G1X51.6052Y-117.8976

G1X49.5023Y-119.0849

G1X47.1162Y-120.2492

G1X45.0671Y-121.0657

G1X43.3460Y-121.5422

G1X42.6738Y-121.6235

G1X42.2478Y-121.5804

G1X41.9575Y-121.4035

G1X41.8683Y-121.0243

G1X42.4434Y-117.4707

G1X42.6534Y-115.1898

G1X42.7183Y-112.7118

G1X42.5900Y-109.8530

G1X42.3240Y-107.3338

G1X41.8395Y-104.2146

G1X40.1486Y-95.7805

G1X39.4231Y-91.6945

G1X38.9361Y-88.3030

G1X38.4994Y-84.4771

G1X38.0225Y-78.8429

G1X37.7003Y-73.3259

G1X37.3576Y-63.1603

G1X37.2952Y-57.2822

G1X37.4598Y-54.4895

G1X37.7423Y-52.4513

G1X38.2410Y-50.6632

G1X38.9407Y-49.1800

G1X39.7979Y-48.0550

G1X41.0533Y-47.0406

G1X42.3075Y-46.3970

G1X44.0781Y-45.8451

G1X45.3861Y-45.5892

G1X47.6315Y-45.3068

G1X51.8578Y-45.0664

G1X54.5143Y-45.2870

G1X55.3106Y-45.4796

G1X56.1151Y-45.8179

G1X57.4430Y-46.6057

G1X58.6671Y-47.5458

G1X59.6471Y-48.4829

G1X60.9210Y-49.9426

G1X62.0655Y-51.4663

G1X63.0397Y-52.9887

G1X63.9323Y-54.6562

G1X64.7935Y-56.5209

G1X66.0097Y-59.7983

G1X66.8451Y-63.1080

G1X67.4378Y-67.0446

G1X67.6562Y-70.8816

G1X67.5311Y-74.0614

G1X67.1366Y-78.0102

G1X66.7141Y-80.5189

G1X64.9981Y-88.8802

G1X64.7884Y-90.8499

G1X64.7908Y-92.6107

G1X64.9657Y-93.8863

G1X65.3705Y-95.1317

G1X65.8417Y-96.2064

G1X66.7954Y-97.7786

G1X67.4992Y-99.2924

G1X67.6868Y-100.0839

G1X67.7416Y-101.0608

G1X67.5358Y-102.3893

G1X67.0150Y-103.8721

G1X66.1693Y-105.5112

G1X64.9737Y-107.3508

G1X63.4816Y-109.2646

G1X61.8365Y-111.1131

G1X60.0223Y-112.9021

G1X58.0333Y-114.6572

G1X56.0294Y-116.2323

G1X53.7731Y-117.8050

G1X51.5604Y-119.1806

G1X49.2587Y-120.4233

G1X46.7460Y-121.5954

G1X44.5136Y-122.4365

G1X42.6606Y-122.9109

G1X41.9866Y-122.9750

G1X41.5610Y-122.9199

G1X41.2682Y-122.7374

G1X41.1744Y-122.3632

G1X41.7602Y-118.6637

G1X41.9678Y-116.0369

G1X41.9734Y-113.3480

G1X41.7271Y-110.2249

G1X41.4085Y-108.0179

G1X40.8681Y-105.1973

G1X39.0289Y-97.3282

G1X38.3036Y-93.6695

G1X37.7027Y-89.6598

G1X37.2235Y-84.8933

G1X36.9087Y-79.9573

G1X36.7184Y-75.2197

G1X36.3810Y-57.6483

G1X36.4723Y-55.1033

G1X36.7318Y-52.6140

G1X37.0701Y-51.0026

G1X37.6332Y-49.4764

G1X38.3678Y-48.2273

G1X39.2467Y-47.2617

G1X40.5129Y-46.4068

G1X41.9899Y-45.7745

G1X44.7935Y-45.1648

G1X52.3163Y-44.3068

G1X54.7058Y-44.2965

G1X56.0278Y-44.5494

G1X57.0643Y-45.0348

G1X58.1763Y-45.7297

G1X59.2416Y-46.5658

G1X60.2234Y-47.5130

G1X61.4372Y-48.9095

G1X62.5883Y-50.4375

G1X63.5748Y-51.9676

G1X64.3820Y-53.4541

G1X65.2707Y-55.3649

G1X66.0589Y-57.3423

G1X66.6850Y-59.2136

G1X67.1927Y-61.1072

G1X67.6016Y-63.1521

G1X67.9061Y-65.2785

G1X68.1153Y-67.5269

G1X68.2163Y-69.8245

G1X68.1090Y-73.0104

G1X67.6565Y-76.9895

G1X67.1493Y-80.1097

G1X66.0979Y-84.6491

G1X65.2744Y-88.7057

G1X65.0754Y-90.4423

G1X65.1184Y-92.0663

G1X65.3715Y-93.4451

G1X65.7670Y-94.5110

G1X66.8734Y-96.1925

G1X68.1917Y-97.6795

G1X68.9516Y-98.7726

G1X69.3443Y-99.6770

G1X69.4908Y-100.8286

G1X69.2908Y-102.1436

G1X68.7164Y-103.6990

G1X67.7069Y-105.5659

G1X66.3774Y-107.5466

G1X64.7111Y-109.6455

G1X62.9223Y-111.6355

G1X60.8324Y-113.6720

G1X58.6594Y-115.5663

G1X56.4763Y-117.2493

G1X54.0179Y-118.9294

G1X51.7697Y-120.2959

G1X49.3648Y-121.5630

G1X46.6545Y-122.7954

G1X44.3216Y-123.6470

G1X42.3141Y-124.1465

G1X41.6425Y-124.2123

G1X41.1300Y-124.1554

G1X40.7836Y-123.9457

G1X40.6809Y-123.5937

G1X41.2544Y-119.6853

G1X41.4144Y-117.2488

G1X41.3975Y-114.6317

G1X41.1066Y-111.6333

G1X40.7658Y-109.5413

G1X40.2178Y-107.0892

G1X37.8984Y-98.6605

G1X37.1614Y-95.4598

G1X36.4841Y-91.3959

G1X36.0220Y-86.6407

G1X35.6946Y-78.7510

G1X35.4670Y-57.8514

G1X35.5401Y-54.7406

G1X35.8792Y-51.7599

G1X36.1189Y-50.6392

G1X36.4385Y-49.6321

G1X36.8398Y-48.7425

G1X37.3117Y-47.9691

G1X37.8481Y-47.2971

G1X38.4820Y-46.6918

G1X39.1421Y-46.2432

G1X40.0400Y-45.7986

G1X41.2626Y-45.3523

G1X42.5567Y-45.0802

G1X49.2649Y-44.2802

G1X50.7684Y-44.0366

G1X53.2487Y-43.4968

G1X55.3761Y-43.3509

G1X56.0731Y-43.4235

G1X56.8101Y-43.6426

G1X57.8267Y-44.1478

G1X58.8682Y-44.8196

G1X60.5942Y-46.3144

G1X62.3755Y-48.3961

G1X63.9482Y-50.6649

G1X65.1617Y-52.8942

G1X66.4652Y-55.9507

G1X67.5001Y-59.1124

G1X68.1312Y-61.8898

G1X68.5596Y-65.0834

G1X68.7614Y-68.6344

G1X68.7034Y-71.8518

G1X68.3506Y-75.0396

G1X67.5948Y-79.4853

G1X66.1319Y-85.4156

G1X65.5515Y-88.3524

G1X65.3403Y-89.9772

G1X65.3421Y-91.3172

G1X65.4750Y-92.1818

G1X65.7302Y-93.0452

G1X66.1509Y-93.9836

G1X66.5391Y-94.5948

G1X67.0983Y-95.2084

G1X68.2960Y-96.2886

G1X69.9841Y-97.6122

G1X71.0022Y-98.7759

G1X71.2113Y-99.2140

G1X71.3691Y-99.8462

G1X71.3377Y-100.9798

G1X70.9132Y-102.4026

G1X70.0603Y-104.1637

G1X68.6926Y-106.3741

G1X67.1365Y-108.4833

G1X65.3544Y-110.6299

G1X63.5594Y-112.5492

G1X61.2686Y-114.7337

G1X59.0081Y-116.6592

G1X56.5807Y-118.4761

G1X54.0487Y-120.1614

G1X51.7611Y-121.5064

G1X49.2680Y-122.7763

G1X46.6255Y-123.9426

G1X44.1217Y-124.8205

G1X42.1289Y-125.2855

G1X41.4483Y-125.3412

G1X40.9250Y-125.2779

G1X40.5110Y-125.0225

G1X40.4012Y-124.6581

G1X40.9271Y-120.6006

G1X41.0384Y-118.2394

G1X40.9673Y-115.5128

G1X40.5996Y-112.6244

G1X40.1647Y-110.4394

G1X39.5912Y-108.3053

G1X38.8156Y-105.8164

G1X36.8788Y-100.1659

G1X36.1413Y-97.6102

G1X35.3450Y-93.7762

G1X34.8648Y-89.6291

G1X34.6495Y-86.0092

G1X34.5511Y-81.2524

G1X34.6481Y-67.6889

G1X34.5354Y-56.6002

G1X34.6304Y-53.7344

G1X34.9718Y-51.0920

G1X35.5008Y-49.1152

G1X35.8314Y-48.3635

G1X36.2665Y-47.6331

G1X36.8292Y-46.9310

G1X37.5317Y-46.2750

G1X38.1827Y-45.8231

G1X38.9132Y-45.4731

G1X40.1944Y-45.0635

G1X41.5862Y-44.7724

G1X47.0826Y-44.3666

G1X48.9052Y-44.1098

G1X51.1984Y-43.5995

G1X53.7983Y-42.6961

G1X55.3472Y-42.4275

G1X56.2367Y-42.3861

G1X56.9698Y-42.5053

G1X57.7046Y-42.7857

G1X58.6268Y-43.2748

G1X59.5969Y-43.9266

G1X61.2450Y-45.3910

G1X62.9505Y-47.4079

G1X64.4605Y-49.5775

G1X65.6759Y-51.7607

G1X66.8986Y-54.6029

G1X67.8888Y-57.5102

G1X68.6664Y-60.6432

G1X69.1180Y-63.8072

G1X69.3209Y-67.5944

G1X69.2301Y-71.4832

G1X68.9192Y-74.1854

G1X68.2809Y-77.5810

G1X67.5016Y-81.1558

G1X66.2953Y-85.4696

G1X65.9352Y-87.0688

G1X65.5776Y-89.5563

G1X65.5954Y-91.2504

G1X65.7643Y-92.0611

G1X66.1184Y-92.9155

G1X66.6465Y-93.7342

G1X67.3404Y-94.5370

G1X68.3554Y-95.2702

G1X71.7668Y-97.1319

G1X72.9100Y-98.0169

G1X73.1790Y-98.3956

G1X73.3675Y-98.9216

G1X73.4220Y-99.4035

G1X73.3746Y-99.9574

G1X72.8988Y-101.4918

G1X71.8807Y-103.5109

G1X70.3548Y-105.9616

G1X68.5433Y-108.4306

G1X66.6283Y-110.7717

G1X64.7362Y-112.8194

G1X62.3639Y-115.1269

G1X60.0318Y-117.1502

G1X57.5238Y-119.0606

G1X54.8222Y-120.8876

G1X52.4476Y-122.2998

G1X49.7755Y-123.6695

G1X46.9571Y-124.9144

G1X44.3122Y-125.8341

G1X42.2658Y-126.3049

G1X41.4588Y-126.3605

G1X40.9362Y-126.2815

G1X40.5103Y-126.0249

G1X40.3452Y-125.6040

G1X40.7941Y-121.2759

G1X40.8457Y-119.2249

G1X40.6888Y-116.1783

G1X40.2330Y-113.3942

G1X39.6509Y-111.0445

G1X39.0152Y-109.0945

G1X37.9594Y-106.3602

G1X35.8800Y-101.4359

G1X34.9874Y-98.9519

G1X34.1189Y-95.4543

G1X33.6184Y-91.8558

G1X33.3636Y-87.5526

G1X33.3394Y-82.3021

G1X33.6718Y-67.6978

G1X33.5937Y-54.7689

G1X33.6959Y-52.7111

G1X33.9766Y-50.6860

G1X34.5069Y-48.6598

G1X34.8538Y-47.8469

G1X35.2937Y-47.1082

G1X35.8248Y-46.4678

G1X36.4205Y-45.9333

G1X37.1515Y-45.4345

G1X37.8544Y-45.0801

G1X39.1271Y-44.7178

G1X40.9780Y-44.4449

G1X46.5628Y-44.3209

G1X48.6663Y-44.0755

G1X50.1411Y-43.7234

G1X51.5632Y-43.2553

G1X53.6388Y-42.1572

G1X54.3706Y-41.8503

G1X55.8823Y-41.4614

G1X56.8649Y-41.3853

G1X57.7121Y-41.5433

G1X58.6764Y-41.9621

G1X59.7046Y-42.5728

G1X60.7738Y-43.3826

G1X61.6841Y-44.2283

G1X62.6388Y-45.2923

G1X64.6948Y-48.0423

G1X66.1959Y-50.6201

G1X67.4529Y-53.5273

G1X68.6003Y-56.9957

G1X69.3811Y-60.3441

G1X69.7321Y-62.9297

G1X69.8912Y-65.7922

G1X69.8589Y-68.9772

G1X69.6324Y-72.2417

G1X69.3050Y-74.4476

G1X68.7332Y-77.0907

G1X67.5293Y-81.8849

G1X66.3302Y-85.8957

G1X65.9784Y-87.3532

G1X65.7809Y-88.7944

G1X65.7247Y-89.9586

G1X65.8007Y-90.9881

G1X65.9952Y-91.8296

G1X66.3270Y-92.5693

G1X66.8104Y-93.2223

G1X67.5458Y-93.9149

G1X68.5083Y-94.6082

G1X69.6304Y-95.1118

G1X73.6147Y-96.4139

G1X74.9477Y-97.0509

G1X75.2175Y-97.3012

G1X75.4182Y-97.6894

G1X75.4925Y-98.1240

G1X75.4456Y-98.6475

G1X75.2219Y-99.4590

G1X74.8471Y-100.3849

G1X73.5959Y-102.7517

G1X71.8440Y-105.5637

G1X69.8395Y-108.3361

G1X67.9293Y-110.7327

G1X65.9487Y-112.9313

G1X63.5166Y-115.3710

G1X61.2087Y-117.4346

G1X58.5916Y-119.4886

G1X55.8569Y-121.3933

G1X53.4401Y-122.8755

G1X50.6897Y-124.3257

G1X47.6593Y-125.6978

G1X44.9594Y-126.6638

G1X42.7212Y-127.2021

G1X41.8364Y-127.2707

G1X41.2674Y-127.1928

G1X40.9727Y-127.0673

G1X40.6867Y-126.8245

G1X40.5097Y-126.3295

G1X40.8389Y-121.8305

G1X40.8381Y-119.8390

G1X40.5524Y-116.6042

G1X39.9755Y-113.8357

G1X39.2655Y-111.5315

G1X38.4872Y-109.5570

G1X37.0560Y-106.5923

G1X35.3016Y-103.3196

G1X33.8085Y-100.0439

G1X33.2786Y-98.4437

G1X32.8534Y-96.8278

G1X32.5313Y-95.1910

G1X32.3092Y-93.5366

G1X32.0708Y-89.9592

G1X32.0320Y-86.0673

G1X32.6776Y-67.7234

G1X32.6189Y-53.6517

G1X32.7218Y-51.7621

G1X32.9489Y-50.1743

G1X33.4799Y-48.1575

G1X33.8380Y-47.3149

G1X34.2814Y-46.5557

G1X34.7490Y-45.9853

G1X35.3590Y-45.4537

G1X36.0328Y-45.0285

G1X36.8448Y-44.6490

G1X37.9639Y-44.3239

G1X39.3886Y-44.1823

G1X41.3448Y-44.1448

G1X44.1983Y-44.3436

G1X46.0528Y-44.3601

G1X47.4870Y-44.3024

G1X48.6849Y-44.1271

G1X50.2667Y-43.6816

G1X51.9611Y-42.9620

G1X52.6459Y-42.5422

G1X54.1894Y-41.3596

G1X54.8621Y-40.9760

G1X56.4339Y-40.4497

G1X57.5153Y-40.3570

G1X58.3722Y-40.5374

G1X59.3764Y-40.9884

G1X60.4948Y-41.6785

G1X61.5714Y-42.5305

G1X62.4836Y-43.4154

G1X63.4026Y-44.4784

G1X65.4787Y-47.3353

G1X66.9998Y-50.0265

G1X68.1833Y-52.8726

G1X69.2964Y-56.4080

G1X70.0747Y-59.9493

G1X70.4078Y-62.6406

G1X70.5090Y-65.5794

G1X70.3875Y-68.8599

G1X70.0462Y-72.3732

G1X69.7302Y-74.3485

G1X69.1977Y-76.6199

G1X66.0042Y-87.5883

G1X65.8552Y-88.6913

G1X65.8318Y-89.7243

G1X65.9268Y-90.6384

G1X66.1384Y-91.4501

G1X66.5528Y-92.3271

G1X67.0419Y-92.9371

G1X67.8436Y-93.5663

G1X68.8581Y-94.1194

G1X69.8862Y-94.5569

G1X70.7821Y-94.7961

G1X75.5744Y-95.5006

G1X76.9730Y-95.7981

G1X77.2800Y-95.9455

G1X77.4361Y-96.1191

G1X77.5503Y-96.4764

G1X77.5340Y-96.8302

G1X77.2876Y-97.6875

G1X76.8783Y-98.6644

G1X75.2741Y-101.6711

G1X73.4319Y-104.7158

G1X71.1553Y-107.9942

G1X69.2142Y-110.5282

G1X67.1745Y-112.8787

G1X64.8123Y-115.3522

G1X62.5035Y-117.5088

G1X59.8505Y-119.6821

G1X57.0689Y-121.7032

G1X54.5142Y-123.3349

G1X51.7599Y-124.8425

G1X48.5030Y-126.3673

G1X45.7780Y-127.3786

G1X43.3953Y-127.9814

G1X42.5734Y-128.0641

G1X41.8560Y-127.9950

G1X41.4728Y-127.8369

G1X41.1736Y-127.5886

G1X40.9976Y-127.3389

G1X40.8921Y-126.9645

G1X41.0578Y-122.1401

G1X41.0070Y-120.2963

G1X40.5607Y-116.8817

G1X40.2545Y-115.4878

G1X39.8186Y-114.0121

G1X38.9462Y-111.7292

G1X37.9764Y-109.7195

G1X36.2140Y-106.8112

G1X34.2609Y-103.9155

G1X32.6156Y-100.9716

G1X32.0817Y-99.6574

G1X31.5829Y-98.0750

G1X31.2280Y-96.5638

G1X30.9785Y-95.0257

G1X30.7349Y-91.9112

G1X30.6900Y-87.9749

G1X30.9236Y-82.2835

G1X31.3777Y-75.2192

G1X31.6266Y-69.0722

G1X31.7078Y-64.5693

G1X31.5708Y-57.7045

G1X31.5895Y-53.5316

G1X31.6731Y-51.2505

G1X31.8724Y-49.6059

G1X32.3979Y-47.6166

G1X33.1141Y-46.1481

G1X33.5861Y-45.5165

G1X34.0268Y-45.0837

G1X34.6053Y-44.6784

G1X35.3332Y-44.3253

G1X36.9051Y-43.8732

G1X38.1694Y-43.7671

G1X41.2748Y-43.9780

G1X44.9189Y-44.4609

G1X47.1529Y-44.4831

G1X48.7229Y-44.2914

G1X50.5139Y-43.7003

G1X52.3838Y-42.6962

G1X53.1824Y-42.0707

G1X54.7461Y-40.5139

G1X55.4510Y-40.0187

G1X57.0047Y-39.3994

G1X57.5820Y-39.2997

G1X58.1878Y-39.3038

G1X59.0564Y-39.5148

G1X60.1605Y-40.0368

G1X61.2737Y-40.7567

G1X62.3400Y-41.6336

G1X63.2403Y-42.5370

G1X64.1970Y-43.6823

G1X65.2977Y-45.1592

G1X66.2968Y-46.6661

G1X67.7910Y-49.3879

G1X68.9224Y-52.2017

G1X70.0230Y-55.9073

G1X70.7659Y-59.5529

G1X71.0757Y-62.2661

G1X71.1377Y-64.9871

G1X70.9629Y-68.1815

G1X70.5499Y-71.6842

G1X70.1349Y-74.1993

G1X69.6216Y-76.3115

G1X67.7295Y-82.0836

G1X66.0397Y-87.6668

G1X65.8878Y-88.5843

G1X65.8658Y-89.4584

G1X65.9721Y-90.3318

G1X66.2010Y-91.1046

G1X66.7504Y-92.0977

G1X67.5054Y-92.9013

G1X68.5018Y-93.4915

G1X69.9832Y-94.0167

G1X71.4731Y-94.3640

G1X72.7118Y-94.4752

G1X79.1746Y-94.3204

G1X79.5003Y-94.4744

G1X79.5317Y-94.8689

G1X79.1890Y-95.7831

G1X78.4973Y-97.2470

G1X75.9933Y-101.8385

G1X74.4758Y-104.3630

G1X72.1297Y-107.8816

G1X70.3193Y-110.3353

G1X68.1378Y-112.9491

G1X65.8592Y-115.4317

G1X63.7288Y-117.5064

G1X61.0257Y-119.8230

G1X58.1872Y-121.9756

G1X55.5737Y-123.7143

G1X52.7474Y-125.3203

G1X49.3572Y-126.9598

G1X46.6012Y-128.0139

G1X44.1447Y-128.6497

G1X43.2292Y-128.7331

G1X42.5801Y-128.6570

G1X42.2450Y-128.5254

G1X41.9097Y-128.2738

G1X41.6026Y-127.8646

G1X41.4741Y-127.4941

G1X41.4289Y-122.2484

G1X41.2920Y-120.2124

G1X40.6555Y-116.7979

G1X40.2426Y-115.3237

G1X39.7893Y-114.0615

G1X38.7497Y-111.8174

G1X37.5186Y-109.7226

G1X35.3817Y-106.9332

G1X33.1251Y-104.2916

G1X31.3946Y-101.7489

G1X30.8428Y-100.6329

G1X30.2810Y-99.1091

G1X29.8837Y-97.6374

G1X29.6050Y-96.1217

G1X29.3606Y-93.2549

G1X29.3357Y-89.2262

G1X29.7061Y-82.6677

G1X30.3100Y-75.2188

G1X30.5617Y-69.8838

G1X30.6962Y-63.6355

G1X30.5070Y-56.4552

G1X30.5218Y-53.1654

G1X30.6087Y-50.4314

G1X30.8184Y-48.6269

G1X31.2950Y-46.9053

G1X32.0358Y-45.4651

G1X32.9984Y-44.3975

G1X33.4818Y-44.0584

G1X34.1101Y-43.7614

G1X35.6145Y-43.4013

G1X37.4263Y-43.3010

G1X39.1275Y-43.5264

G1X44.9580Y-44.6759

G1X47.0837Y-44.7505

G1X48.7646Y-44.5534

G1X49.7050Y-44.2740

G1X50.6038Y-43.8769

G1X51.6549Y-43.2689

G1X52.6614Y-42.5562

G1X53.4871Y-41.8286

G1X55.1391Y-39.7963

G1X55.9721Y-39.0516

G1X56.7654Y-38.6203

G1X57.4986Y-38.3330

G1X58.1683Y-38.2030

G1X58.7747Y-38.2091

G1X59.6465Y-38.4247

G1X60.8099Y-38.9823

G1X61.9139Y-39.7072

G1X62.9717Y-40.5851

G1X63.9458Y-41.5760

G1X64.8592Y-42.6924

G1X66.0360Y-44.3087

G1X67.0670Y-45.9022

G1X68.5795Y-48.7219

G1X69.6732Y-51.5164

G1X70.7307Y-55.2919

G1X71.4550Y-59.1508

G1X71.7432Y-61.9869

G1X71.7786Y-64.4906

G1X71.5689Y-67.4757

G1X71.1187Y-70.7348

G1X70.3967Y-74.5092

G1X69.8985Y-76.4382

G1X69.2133Y-78.4765

G1X67.4895Y-83.0006

G1X66.1094Y-87.4851

G1X65.9172Y-88.4548

G1X65.8628Y-89.2694

G1X65.9415Y-90.0158

G1X66.1858Y-90.8104

G1X66.5164Y-91.4256

G1X67.0088Y-92.0425

G1X67.6027Y-92.5733

G1X68.2482Y-93.0046

G1X69.6664Y-93.5418

G1X71.5446Y-93.8793

G1X73.3844Y-94.0136

G1X75.0893Y-93.8917

G1X78.7770Y-93.2539

G1X80.6189Y-92.7738

G1X81.3084Y-92.4839

G1X81.4021Y-92.4918

G1X81.4266Y-92.6203

G1X76.5671Y-101.8789

G1X73.0268Y-107.6353

G1X71.3305Y-110.0368

G1X69.1235Y-112.8151

G1X67.0542Y-115.1881

G1X65.0000Y-117.2999

G1X62.2805Y-119.7589

G1X59.4138Y-122.0479

G1X56.7732Y-123.8959

G1X53.8989Y-125.6103

G1X50.5026Y-127.3298

G1X47.6595Y-128.4737

G1X45.1297Y-129.1606

G1X44.2013Y-129.2568

G1X43.5117Y-129.1853

G1X43.0807Y-129.0076

G1X42.7450Y-128.7308

G1X42.3723Y-128.1911

G1X42.2135Y-127.7582

G1X41.9371Y-122.2755

G1X41.6643Y-119.8452

G1X40.8651Y-116.6019

G1X40.3418Y-115.0793

G1X39.7876Y-113.7848

G1X38.5680Y-111.6127

G1X37.0302Y-109.4939

G1X34.4846Y-106.9157

G1X32.1016Y-104.7669

G1X30.2426Y-102.5586

G1X29.5980Y-101.4993

G1X29.0274Y-100.1875

G1X28.5841Y-98.7943

G1X28.2504Y-97.2414

G1X27.9771Y-94.4328

G1X27.9794Y-90.3160

G1X28.2980Y-85.3450

G1X29.2420Y-75.1764

G1X29.4834Y-70.7359

G1X29.6552Y-62.4599

G1X29.3804Y-53.5047

G1X29.4799Y-49.8425

G1X29.6961Y-47.7500

G1X29.9152Y-46.7676

G1X30.2031Y-45.9436

G1X30.5928Y-45.1619

G1X31.1146Y-44.4262

G1X31.7163Y-43.8283

G1X32.4677Y-43.3072

G1X33.1467Y-43.0139

G1X33.9022Y-42.8409

G1X35.5503Y-42.7594

G1X37.4511Y-42.9339

G1X44.0343Y-44.7820

G1X45.3792Y-45.0529

G1X46.5882Y-45.1219

G1X47.6990Y-45.0808

G1X48.6886Y-44.9275

G1X49.5617Y-44.6722

G1X50.4341Y-44.2778

G1X51.3603Y-43.7090

G1X52.3427Y-42.9610

G1X53.4283Y-41.9863

G1X54.2117Y-41.0713

G1X55.7469Y-38.8032

G1X56.4377Y-38.0793

G1X57.2635Y-37.5512

G1X57.9690Y-37.2339

G1X58.7077Y-37.0683

G1X59.3970Y-37.0785

G1X60.3191Y-37.3294

G1X61.4775Y-37.9055

G1X62.5770Y-38.6436

G1X63.7121Y-39.6075

G1X64.6811Y-40.6187

G1X65.5563Y-41.7142

G1X66.7418Y-43.3839

G1X67.8483Y-45.1352

G1X69.3698Y-48.0372

G1X70.4387Y-50.8203

G1X71.4498Y-54.6602

G1X72.1301Y-58.6350

G1X72.3909Y-61.5022

G1X72.4209Y-64.0957

G1X72.2065Y-66.7540

G1X71.7257Y-69.8292

G1X70.9406Y-73.4516

G1X70.0500Y-76.8138

G1X69.2562Y-78.9739

G1X67.2364Y-83.7143

G1X66.2114Y-87.0162

G1X65.9467Y-88.1929

G1X65.8570Y-89.0745

G1X65.9166Y-89.8828

G1X66.1256Y-90.5707

G1X66.5677Y-91.3130

G1X67.1811Y-91.9523

G1X67.9279Y-92.4891

G1X68.8684Y-92.9661

G1X69.6618Y-93.2426

G1X70.7006Y-93.4464

G1X73.3547Y-93.5827

G1X74.9675Y-93.5071

G1X76.0330Y-93.3663

G1X77.4027Y-93.0521

G1X79.0473Y-92.5477

G1X80.5821Y-92.0131

G1X81.6981Y-91.4866

G1X82.7065Y-90.8801

G1X83.1445Y-90.3242

G1X82.4873Y-91.1476

G1X81.9295Y-92.0623

G1X77.3340Y-101.2031

G1X75.2982Y-104.8332

G1X73.7076Y-107.4627

G1X72.1318Y-109.7833

G1X69.9749Y-112.6456

G1X68.0109Y-115.0113

G1X66.1417Y-117.0325

G1X63.5034Y-119.5543

G1X60.6368Y-121.9730

G1X57.9707Y-123.9417

G1X55.0967Y-125.7480

G1X51.7497Y-127.5314

G1X48.8903Y-128.7497

G1X47.4978Y-129.2061

G1X46.2710Y-129.5030

G1X45.3267Y-129.6146

G1X44.6126Y-129.5543

G1X44.1650Y-129.3830

G1X43.7567Y-129.0473

G1X43.4367Y-128.5860

G1X43.1334Y-127.9315

G1X42.9724Y-126.9788

G1X42.8248Y-124.2473

G1X42.4125Y-121.0048

G1X42.0944Y-119.2612

G1X41.6610Y-117.6902

G1X41.1156Y-116.1162

G1X40.4815Y-114.6018

G1X39.8114Y-113.2814

G1X38.4128Y-111.2081

G1X36.6205Y-109.2110

G1X35.0969Y-107.9740

G1X31.0192Y-105.1355

G1X29.9092Y-104.1347

G1X29.0263Y-103.2002

G1X28.2571Y-102.1172

G1X27.6784Y-100.9185

G1X27.1856Y-99.4666

G1X26.8469Y-97.9287

G1X26.6572Y-96.4376

G1X26.5749Y-94.7270

G1X26.6941Y-89.9558

G1X27.3712Y-82.4665

G1X28.1912Y-74.8438

G1X28.4889Y-69.2531

G1X28.5719Y-61.0426

G1X28.2114Y-52.9131

G1X28.2978Y-49.0622

G1X28.4792Y-47.1191

G1X28.7905Y-45.6476

G1X29.3022Y-44.4328

G1X29.9817Y-43.5164

G1X30.8845Y-42.7872

G1X32.0886Y-42.2386

G1X33.1831Y-42.0598

G1X34.5057Y-42.1085

G1X36.1978Y-42.3773

G1X37.5593Y-42.7144

G1X41.0269Y-44.0615

G1X44.8144Y-45.3698

G1X46.3494Y-45.5799

G1X48.1288Y-45.4732

G1X49.2876Y-45.1787

G1X50.2986Y-44.7315

G1X51.2501Y-44.1125

G1X52.3432Y-43.1929

G1X53.3891Y-42.1455

G1X54.3302Y-41.0623

G1X56.0750Y-38.1416

G1X56.6282Y-37.3609

G1X57.1910Y-36.8243

G1X58.1365Y-36.2235

G1X58.7583Y-35.9806

G1X59.3160Y-35.8785

G1X59.9055Y-35.8886

G1X60.4272Y-35.9927

G1X61.9175Y-36.6603

G1X63.5415Y-37.7873

G1X64.5029Y-38.6504

G1X65.3774Y-39.5855

G1X67.1810Y-42.0268

G1X69.0690Y-45.1305

G1X70.4960Y-48.1145

G1X71.3741Y-50.6359

G1X72.1647Y-53.9135

G1X72.7252Y-57.3751

G1X73.0251Y-60.7991

G1X73.0652Y-63.2198

G1X72.9446Y-65.3295

G1X72.6164Y-67.6967

G1X72.0884Y-70.2572

G1X71.1575Y-73.7865

G1X69.9397Y-77.7440

G1X69.0886Y-79.8016

G1X67.1660Y-83.8220

G1X66.5822Y-85.3576

G1X66.0840Y-87.1736

G1X65.8514Y-88.5028

G1X65.8565Y-89.5663

G1X66.0887Y-90.4324

G1X66.5423Y-91.1628

G1X67.3048Y-91.8619

G1X68.3698Y-92.4820

G1X69.5907Y-92.9428

G1X70.6989Y-93.2016

G1X71.9150Y-93.3102

G1X73.3717Y-93.2894

G1X75.0845Y-93.1345

G1X77.0551Y-92.8202

G1X78.3253Y-92.4987

G1X79.8510Y-91.9368

G1X81.6155Y-91.1014

G1X82.7672Y-90.4569

G1X83.7278Y-89.7004

G1X84.5769Y-88.7429

G1X84.6964Y-88.4773

G1X84.7325Y-88.1300

G1X84.6376Y-87.9306

G1X84.5241Y-87.9278

G1X84.0484Y-88.2929

G1X83.4226Y-89.0241

G1X82.8083Y-90.0189

G1X80.7886Y-94.1790

G1X78.0026Y-100.3231

G1X75.7907Y-104.5765

G1X74.0329Y-107.6083

G1X72.1981Y-110.3600

G1X70.2825Y-112.9771

G1X68.4118Y-115.2864

G1X66.5111Y-117.3766

G1X63.6658Y-120.1441

G1X60.6278Y-122.7243

G1X57.8641Y-124.7307

G1X54.7017Y-126.6724

G1X51.4693Y-128.3183

G1X49.9623Y-128.9363

G1X48.5510Y-129.4066

G1X47.3861Y-129.6855

G1X46.4179Y-129.7881

G1X45.7155Y-129.7067

G1X45.1257Y-129.4089

G1X44.5529Y-128.6675

G1X44.0499Y-127.4448

G1X43.5870Y-123.4397

G1X42.9455Y-120.0891

G1X42.4294Y-118.0771

G1X41.3420Y-115.3074

G1X39.9579Y-112.7659

G1X39.1874Y-111.6785

G1X38.3617Y-110.7242

G1X37.3475Y-109.7419

G1X36.1336Y-108.7428

G1X34.6411Y-107.8336

G1X29.9827Y-105.5115

G1X29.0110Y-104.8355

G1X27.9542Y-103.9362

G1X27.0868Y-102.9462

G1X26.4779Y-101.9065

G1X25.9321Y-100.5266

G1X25.5326Y-98.9427

G1X25.2993Y-97.3201

G1X25.2110Y-95.6665

G1X25.3951Y-90.5326

G1X25.6933Y-87.2424

G1X27.1107Y-74.7219

G1X27.4362Y-69.4899

G1X27.4911Y-65.0452

G1X27.4279Y-59.2792

G1X26.9847Y-51.4810

G1X27.0141Y-48.6037

G1X27.1992Y-46.4465

G1X27.5105Y-44.8341

G1X27.9856Y-43.5917

G1X28.6176Y-42.6954

G1X29.5497Y-41.9621

G1X30.7353Y-41.4757

G1X32.0588Y-41.2575

G1X33.5012Y-41.3763

G1X35.1541Y-41.7682

G1X37.2393Y-42.4503

G1X41.2741Y-44.4354

G1X44.5987Y-45.8100

G1X46.0883Y-46.1187

G1X47.0595Y-46.1180

G1X47.9329Y-46.0147

G1X49.1811Y-45.6727

G1X50.3128Y-45.1300

G1X51.2969Y-44.4334

G1X52.3832Y-43.4188

G1X53.6392Y-42.0042

G1X54.8330Y-40.4586

G1X56.5413Y-37.2405

G1X57.0950Y-36.3399

G1X57.5865Y-35.7747

G1X58.4074Y-35.1568

G1X59.0140Y-34.8454

G1X59.5545Y-34.6839

G1X60.1231Y-34.6316

G1X60.7286Y-34.6999

G1X61.3796Y-34.9002

G1X62.0881Y-35.2312

G1X63.7022Y-36.2653

G1X64.6363Y-37.0381

G1X65.5766Y-37.9623

G1X66.4229Y-38.9452

G1X67.2009Y-40.0065

G1X69.4015Y-43.5181

G1X70.3168Y-45.2491

G1X71.1165Y-46.9896

G1X72.1077Y-49.7339

G1X72.8072Y-52.6510

G1X73.3669Y-56.2529

G1X73.6573Y-59.8940

G1X73.6900Y-62.5576

G1X73.5651Y-64.9201

G1X73.2668Y-67.0723

G1X72.7522Y-69.4323

G1X71.6714Y-73.1179

G1X69.8035Y-78.4728

G1X68.8537Y-80.5722

G1X66.8842Y-84.3297

G1X66.2801Y-85.7885

G1X65.9236Y-87.1965

G1X65.7554Y-88.3937

G1X65.7919Y-89.4301

G1X66.0271Y-90.2539

G1X66.5779Y-91.1006

G1X67.4340Y-91.7927

G1X68.6676Y-92.4003

G1X70.1064Y-92.8419

G1X71.5205Y-93.0827

G1X72.8616Y-93.1354

G1X74.4718Y-93.0011

G1X76.3777Y-92.6756

G1X78.3977Y-92.1848

G1X80.1139Y-91.6326

G1X81.6348Y-90.9283

G1X83.1273Y-90.0223

G1X84.4952Y-89.0051

G1X85.2826Y-88.1946

G1X85.9970Y-86.9941

G1X86.2073Y-86.3918

G1X86.2162Y-86.0342

G1X86.1196Y-85.7226

G1X85.8755Y-85.4428

G1X85.6427Y-85.3826

G1X85.4067Y-85.4624

G1X84.5936Y-86.1164

G1X83.7216Y-87.2830

G1X83.0606Y-88.5335

G1X82.1843Y-90.4928

G1X78.6960Y-98.9727

G1X76.8082Y-102.9833

G1X75.3385Y-105.8235

G1X73.5152Y-108.8711

G1X71.3936Y-112.0264

G1X69.3736Y-114.6971

G1X67.2739Y-117.1316

G1X64.4171Y-120.0386

G1X61.5222Y-122.6061

G1X58.7630Y-124.6934

G1X55.7044Y-126.6534

G1X52.5978Y-128.2955

G1X51.0891Y-128.9323

G1X49.7704Y-129.3801

G1X48.5853Y-129.6615

G1X47.6561Y-129.7499

G1X46.9213Y-129.6508

G1X46.4268Y-129.4030

G1X46.1067Y-129.0964

G1X45.7974Y-128.6257

G1X45.1066Y-126.9662

G1X44.3487Y-122.3973

G1X43.5492Y-119.3037

G1X42.8637Y-117.1513

G1X42.3411Y-115.8745

G1X41.6378Y-114.4697

G1X40.8510Y-113.1369

G1X40.0097Y-111.9208

G1X39.0851Y-110.8048

G1X38.1011Y-109.8695

G1X36.9918Y-109.0315

G1X35.6081Y-108.1799

G1X34.1882Y-107.5652

G1X29.0220Y-105.8916

G1X28.1453Y-105.4621

G1X27.0933Y-104.7510

G1X26.0603Y-103.8290

G1X25.3213Y-102.8346

G1X24.7100Y-101.5075

G1X24.2781Y-100.0067

G1X24.0233Y-98.5151

G1X23.8855Y-96.8256

G1X23.8867Y-95.0152

G1X24.0054Y-92.7360

G1X24.3543Y-88.6147

G1X26.0488Y-74.2464

G1X26.2877Y-71.4328

G1X26.4009Y-68.9946

G1X26.4096Y-64.3477

G1X26.2002Y-57.1762

G1X25.6963Y-49.9641

G1X25.6666Y-47.6114

G1X25.8618Y-45.4913

G1X26.1656Y-43.9481

G1X26.6318Y-42.6844

G1X27.2761Y-41.7188

G1X27.7101Y-41.3216

G1X28.2040Y-41.0052

G1X28.8425Y-40.7298

G1X29.5329Y-40.5456

G1X31.2209Y-40.4127

G1X32.6888Y-40.6218

G1X34.5653Y-41.2325

G1X37.0861Y-42.3202

G1X38.2619Y-42.9653

G1X41.3160Y-44.8672

G1X44.2080Y-46.2603

G1X45.0413Y-46.5504

G1X45.8784Y-46.7180

G1X46.7234Y-46.7344

G1X47.6627Y-46.6187

G1X48.9807Y-46.2277

G1X50.1915Y-45.6083

G1X51.3049Y-44.7764

G1X52.4628Y-43.5926

G1X53.7918Y-41.9361

G1X55.2925Y-39.7985

G1X55.9065Y-38.6575

G1X57.0942Y-36.0864

G1X57.6121Y-35.1690

G1X58.0734Y-34.5814

G1X58.7563Y-34.0051

G1X59.3383Y-33.6494

G1X59.8536Y-33.4468

G1X60.3930Y-33.3481

G1X60.9646Y-33.3624

G1X61.5769Y-33.4986

G1X62.1862Y-33.7404

G1X63.8353Y-34.7122

G1X64.8934Y-35.5331

G1X65.8980Y-36.4674

G1X66.8169Y-37.4797

G1X67.6312Y-38.5362

G1X69.8899Y-42.1549

G1X71.6497Y-45.6517

G1X72.7285Y-48.4629

G1X73.4536Y-51.2424

G1X74.0012Y-54.7277

G1X74.2947Y-58.5558

G1X74.3243Y-61.4689

G1X74.1792Y-64.2770

G1X73.8979Y-66.5445

G1X73.4010Y-68.8091

G1X72.1453Y-72.7287

G1X69.5848Y-79.1646

G1X68.5997Y-81.2010

G1X66.5397Y-84.8557

G1X65.9700Y-86.1475

G1X65.7052Y-87.2195

G1X65.5943Y-88.3524

G1X65.6874Y-89.3404

G1X65.9540Y-90.1168

G1X66.5919Y-91.0036

G1X67.6135Y-91.7519

G1X69.0838Y-92.3544

G1X70.8450Y-92.7731

G1X72.4982Y-92.9571

G1X74.1440Y-92.9345

G1X75.8978Y-92.6626

G1X77.8615Y-92.1620

G1X80.1570Y-91.3882

G1X82.1881Y-90.5271

G1X83.5768Y-89.7245

G1X84.9080Y-88.7075

G1X86.2497Y-87.3766

G1X87.0040Y-86.3264

G1X87.2760Y-85.7077

G1X87.4668Y-85.0179

G1X87.5515Y-84.3251

G1X87.5147Y-83.7496

G1X87.3329Y-83.3475

G1X86.9532Y-82.9719

G1X86.5821Y-82.8193

G1X86.1439Y-82.8585

G1X85.6467Y-83.1390

G1X85.0893Y-83.6339

G1X84.0782Y-84.9814

G1X83.4415Y-86.2207

G1X82.6850Y-88.0566

G1X79.1159Y-97.7912

G1X77.3721Y-101.8700

G1X75.9576Y-104.8469

G1X74.1353Y-108.1224

G1X72.0416Y-111.4363

G1X70.0277Y-114.2422

G1X67.9141Y-116.8082

G1X65.1882Y-119.7152

G1X62.3568Y-122.3434

G1X59.6179Y-124.5030

G1X56.6867Y-126.4639

G1X53.7207Y-128.0858

G1X52.3078Y-128.6968

G1X51.0718Y-129.1240

G1X49.9429Y-129.3939

G1X49.0371Y-129.4814

G1X48.3359Y-129.4078

G1X47.7444Y-129.1402

G1X47.3588Y-128.7728

G1X47.0506Y-128.2984

G1X46.1968Y-126.2397

G1X45.8892Y-125.1125

G1X45.0196Y-120.9954

G1X44.1389Y-118.3260

G1X43.3231Y-116.2091

G1X42.6604Y-114.7798

G1X41.8990Y-113.4429

G1X41.0125Y-112.1362

G1X40.0677Y-110.9568

G1X39.0320Y-109.8774

G1X38.0524Y-109.0712

G1X36.9106Y-108.3712

G1X35.4726Y-107.7198

G1X33.8500Y-107.2125

G1X31.2590Y-106.8394

G1X28.1487Y-106.2544

G1X27.2054Y-105.9567

G1X26.3443Y-105.5144

G1X25.0681Y-104.6076

G1X24.1861Y-103.6359

G1X23.5431Y-102.4594

G1X23.0589Y-100.9721

G1X22.7742Y-99.4579

G1X22.6060Y-97.6768

G1X22.5852Y-96.0643

G1X22.6803Y-94.1057

G1X23.1329Y-89.1481

G1X24.0252Y-82.3601

G1X24.8980Y-74.5092

G1X25.2171Y-70.8641

G1X25.3589Y-67.8875

G1X25.3573Y-65.0373

G1X25.2290Y-61.4949

G1X24.8075Y-53.8149

G1X24.3160Y-47.9958

G1X24.2825Y-45.8962

G1X24.4654Y-44.2104

G1X24.8160Y-42.6944

G1X25.2925Y-41.5507

G1X25.9297Y-40.6515

G1X26.4220Y-40.2067

G1X26.9670Y-39.8886

G1X27.5857Y-39.6655

G1X28.3631Y-39.5158

G1X30.1606Y-39.5136

G1X31.2160Y-39.6692

G1X31.9980Y-39.8739

G1X34.1361Y-40.7636

G1X37.0648Y-42.3576

G1X38.2875Y-43.1599

G1X41.3227Y-45.4206

G1X43.6594Y-46.7031

G1X44.6691Y-47.1251

G1X45.4973Y-47.3373

G1X46.3481Y-47.3912

G1X47.2452Y-47.2784

G1X48.7030Y-46.8165

G1X50.0746Y-46.0611

G1X51.3346Y-45.0554

G1X52.4680Y-43.8123

G1X53.9019Y-41.8696

G1X55.7075Y-39.0708

G1X56.3570Y-37.8094

G1X57.9017Y-34.2906

G1X58.4599Y-33.4191

G1X59.0402Y-32.8491

G1X59.6131Y-32.4336

G1X60.1166Y-32.1807

G1X60.7307Y-32.0173

G1X61.2895Y-31.9991

G1X62.4213Y-32.2852

G1X63.9411Y-33.1254

G1X65.0346Y-33.9197

G1X66.1010Y-34.8476

G1X67.0973Y-35.8734

G1X68.0686Y-37.0597

G1X68.8910Y-38.2577

G1X70.1909Y-40.4179

G1X72.0673Y-44.0517

G1X73.3438Y-47.2078

G1X74.1693Y-50.0915

G1X74.7070Y-53.4344

G1X74.9736Y-57.2060

G1X74.9776Y-60.4511

G1X74.7848Y-63.6250

G1X74.3960Y-66.6007

G1X73.8728Y-68.8659

G1X73.2531Y-70.7928

G1X72.4056Y-72.9636

G1X69.1306Y-80.1488

G1X68.1742Y-81.9736

G1X66.2692Y-85.1583

G1X65.6953Y-86.3629

G1X65.4575Y-87.2131

G1X65.3854Y-88.1684

G1X65.4937Y-89.0678

G1X65.7856Y-89.8656

G1X66.0802Y-90.3419

G1X66.5230Y-90.8422

G1X67.6226Y-91.6155

G1X69.0717Y-92.1762

G1X70.9216Y-92.5804

G1X72.9757Y-92.7834

G1X75.0377Y-92.7406

G1X76.6807Y-92.4750

G1X78.6618Y-91.8908

G1X81.0617Y-90.9260

G1X83.4758Y-89.7168

G1X85.0994Y-88.7031

G1X86.3730Y-87.6097

G1X87.6291Y-86.1042

G1X88.5263Y-84.5323

G1X88.7230Y-83.8662

G1X88.8120Y-83.2069

G1X88.7073Y-81.8402

G1X88.4598Y-81.1476

G1X87.9747Y-80.6259

G1X87.3190Y-80.3198

G1X86.6229Y-80.2980

G1X86.0515Y-80.5513

G1X85.3763Y-81.1106

G1X84.7575Y-81.8363

G1X84.1575Y-82.7480

G1X83.5336Y-84.0000

G1X82.8870Y-85.7100

G1X79.4013Y-96.5277

G1X77.8068Y-100.6454

G1X76.4248Y-103.8164

G1X74.6168Y-107.3091

G1X72.4972Y-110.8634

G1X70.4827Y-113.7998

G1X68.2127Y-116.6564

G1X65.5947Y-119.5431

G1X62.9613Y-122.0686

G1X60.2328Y-124.2875

G1X57.3723Y-126.2569

G1X54.7048Y-127.7303

G1X53.4048Y-128.2886

G1X52.2721Y-128.6695

G1X51.2252Y-128.9027

G1X50.3716Y-128.9682

G1X49.6338Y-128.8773

G1X49.0661Y-128.6239

G1X48.6237Y-128.2143

G1X48.2707Y-127.6747

G1X47.2007Y-125.0794

G1X45.5899Y-119.4468

G1X43.9079Y-115.4696

G1X43.0190Y-113.7493

G1X42.1684Y-112.3682

G1X41.1157Y-110.9758

G1X39.9931Y-109.7578

G1X38.9126Y-108.7975

G1X37.8000Y-108.0185

G1X36.7658Y-107.5160

G1X35.5257Y-107.1221

G1X33.3689Y-106.7322

G1X30.1907Y-106.7719

G1X27.5288Y-106.5989

G1X26.4358Y-106.4316

G1X25.6096Y-106.1739

G1X24.2586Y-105.4185

G1X23.2131Y-104.4975

G1X22.4404Y-103.3652

G1X21.9072Y-101.9590

G1X21.6021Y-100.5302

G1X21.4123Y-98.8074

G1X21.3461Y-97.0291

G1X21.4189Y-95.0818

G1X22.0547Y-88.7856

G1X23.2687Y-79.6816

G1X24.0124Y-71.7325

G1X24.2752Y-66.4655

G1X24.2566Y-64.0118

G1X24.1221Y-61.2758

G1X22.8968Y-46.5541

G1X22.8303Y-44.2201

G1X22.9867Y-42.8219

G1X23.3134Y-41.5517

G1X23.7781Y-40.5041

G1X24.3784Y-39.6700

G1X24.8987Y-39.1925

G1X25.5619Y-38.7834

G1X26.2054Y-38.5568

G1X27.0316Y-38.4291

G1X28.0412Y-38.4273

G1X29.1074Y-38.5522

G1X30.2963Y-38.8109

G1X31.3694Y-39.1453

G1X32.4882Y-39.6408

G1X33.7319Y-40.3295

G1X37.1518Y-42.5970

G1X38.3357Y-43.5120

G1X41.0379Y-45.8989

G1X42.4638Y-46.8509

G1X43.7668Y-47.5387

G1X44.7638Y-47.9060

G1X45.7845Y-48.0546

G1X46.7110Y-47.9636

G1X48.2439Y-47.4612

G1X49.7393Y-46.6130

G1X51.2094Y-45.4082

G1X52.4526Y-44.0011

G1X54.0859Y-41.6136

G1X56.2390Y-37.9709

G1X56.8715Y-36.6605

G1X58.3296Y-33.0884

G1X58.8029Y-32.2442

G1X59.3173Y-31.6377

G1X60.3782Y-30.8716

G1X60.8901Y-30.6768

G1X61.4279Y-30.5925

G1X62.0000Y-30.6261

G1X62.6151Y-30.7850

G1X64.0104Y-31.4955

G1X65.2377Y-32.3450

G1X66.4131Y-33.3264

G1X67.4638Y-34.3624

G1X68.4987Y-35.5658

G1X69.3464Y-36.7322

G1X70.1908Y-38.1044

G1X72.3151Y-42.0835

G1X73.8415Y-45.6512

G1X74.4320Y-47.3772

G1X74.8929Y-49.0281

G1X75.4437Y-52.0962

G1X75.7030Y-55.7617

G1X75.6742Y-59.3057

G1X75.4124Y-62.8369

G1X74.9060Y-66.3665

G1X74.2669Y-69.1002

G1X73.3557Y-71.6233

G1X72.0143Y-74.5082

G1X68.2772Y-81.6558

G1X66.0900Y-85.2524

G1X65.4896Y-86.4071

G1X65.2269Y-87.1997

G1X65.1520Y-87.9601

G1X65.2698Y-88.8223

G1X65.5817Y-89.6080

G1X66.3474Y-90.5941

G1X66.9014Y-91.0459

G1X67.5466Y-91.4383

G1X68.9287Y-91.9873

G1X70.7572Y-92.3737

G1X73.1459Y-92.5920

G1X75.5537Y-92.5501

G1X77.6341Y-92.2572

G1X79.5231Y-91.6842

G1X81.7628Y-90.6815

G1X84.1793Y-89.3069

G1X86.4792Y-87.7148

G1X87.8198Y-86.4982

G1X88.9054Y-85.0497

G1X89.7236Y-83.3093

G1X89.9695Y-82.5098

G1X90.0689Y-81.8466

G1X90.0599Y-81.1811

G1X89.9379Y-80.4305

G1X89.5730Y-79.3864

G1X89.0174Y-78.5367

G1X88.2754Y-78.0503

G1X87.2696Y-77.8424

G1X86.4750Y-77.9683

G1X85.7674Y-78.3804

G1X84.9837Y-79.1700

G1X84.2317Y-80.2501

G1X83.4788Y-81.7069

G1X82.8565Y-83.4308

G1X80.1034Y-93.3934

G1X79.4238Y-95.6205

G1X77.9395Y-99.7945

G1X76.6336Y-102.9988

G1X74.7774Y-106.7839

G1X72.6278Y-110.5340

G1X70.5493Y-113.6362

G1X68.1141Y-116.7572

G1X65.6757Y-119.4929

G1X63.2625Y-121.8419

G1X60.5241Y-124.1062

G1X57.8703Y-125.9525

G1X55.5014Y-127.2310

G1X53.3781Y-127.9941

G1X52.5041Y-128.1617

G1X51.6996Y-128.2020

G1X50.9777Y-128.1021

G1X50.3855Y-127.8616

G1X49.7142Y-127.2279

G1X49.1595Y-126.2334

G1X47.7334Y-122.7297

G1X46.0106Y-117.7599

G1X44.4847Y-114.6227

G1X43.3379Y-112.6490

G1X42.1915Y-110.9615

G1X41.0896Y-109.6417

G1X39.8688Y-108.4684

G1X38.6992Y-107.5773

G1X37.4554Y-106.8555

G1X36.4800Y-106.4829

G1X35.4096Y-106.2727

G1X32.6450Y-106.2066

G1X29.3412Y-106.7501

G1X27.5190Y-106.8512

G1X25.7578Y-106.8311

G1X24.5107Y-106.6066

G1X23.2404Y-105.9991

G1X22.1064Y-105.0852

G1X21.3073Y-104.0158

G1X20.7614Y-102.7235

G1X20.4567Y-101.3973

G1X20.2691Y-99.7882

G1X20.1886Y-97.5361

G1X20.2455Y-95.6075

G1X21.0690Y-88.0600

G1X21.9893Y-81.7127

G1X22.3421Y-78.6927

G1X22.9089Y-71.1521

G1X23.1198Y-65.4283

G1X23.0958Y-62.8267

G1X22.9498Y-60.3026

G1X21.9145Y-50.8374

G1X21.3751Y-44.7776

G1X21.3107Y-42.6391

G1X21.4249Y-41.4389

G1X21.6972Y-40.3900

G1X22.1467Y-39.4074

G1X22.7323Y-38.6166

G1X23.3639Y-38.0630

G1X24.0839Y-37.6538

G1X24.9417Y-37.3710

G1X25.7787Y-37.2782

G1X26.8179Y-37.3299

G1X28.0421Y-37.5443

G1X29.4091Y-37.9293

G1X30.7466Y-38.4367

G1X31.7015Y-38.8956

G1X32.7945Y-39.5553

G1X35.3120Y-41.4263

G1X37.8980Y-43.5692

G1X40.6916Y-46.4165

G1X41.8757Y-47.3912

G1X43.1640Y-48.1195

G1X44.2717Y-48.5525

G1X45.2133Y-48.7026

G1X46.2132Y-48.6151

G1X47.0416Y-48.3704

G1X47.8530Y-48.0224

G1X49.5455Y-46.9905

G1X51.1439Y-45.6157

G1X52.5021Y-44.0284

G1X54.2629Y-41.2740

G1X56.7743Y-36.6657

G1X57.4386Y-35.1964

G1X58.7820Y-31.7037

G1X59.2289Y-30.8502

G1X59.6419Y-30.3010

G1X60.6923Y-29.4782

G1X61.1866Y-29.2611

G1X61.7040Y-29.1491

G1X62.2522Y-29.1490

G1X62.8390Y-29.2675

G1X64.0411Y-29.8153

G1X65.2861Y-30.6404

G1X66.5502Y-31.6435

G1X67.7286Y-32.7445

G1X68.8340Y-33.9573

G1X69.6906Y-35.0543

G1X70.4998Y-36.2647

G1X72.3592Y-39.6811

G1X73.3806Y-41.8288

G1X74.2305Y-43.8409

G1X74.9620Y-45.8393

G1X75.5253Y-47.6812

G1X75.9284Y-49.3346

G1X76.2207Y-50.9872

G1X76.4013Y-52.6967

G1X76.4938Y-54.6590

G1X76.4149Y-58.3621

G1X76.0343Y-62.3231

G1X75.3835Y-66.2051

G1X74.5314Y-69.5973

G1X73.6639Y-71.8398

G1X72.4520Y-74.2622

G1X69.0787Y-79.8787

G1X67.6353Y-82.5161

G1X65.3354Y-86.3638

G1X65.0366Y-87.1729

G1X64.9434Y-87.8784

G1X65.0427Y-88.5703

G1X65.3347Y-89.2836

G1X65.6812Y-89.8049

G1X66.1939Y-90.3573

G1X67.4504Y-91.2412

G1X69.0251Y-91.8825

G1X70.8093Y-92.2413

G1X73.4527Y-92.4230

G1X76.2761Y-92.3202

G1X78.8240Y-91.9406

G1X80.8169Y-91.3442

G1X82.9658Y-90.2954

G1X85.2366Y-88.8244

G1X87.5535Y-86.9795

G1X89.3449Y-85.2180

G1X90.3110Y-83.7954

G1X90.9138Y-82.3021

G1X91.1176Y-81.4081

G1X91.2345Y-80.4003

G1X91.2404Y-79.7442

G1X91.1185Y-79.0104

G1X90.6565Y-77.8105

G1X89.8766Y-76.6517

G1X89.0979Y-75.9733

G1X88.1552Y-75.6323

G1X87.0000Y-75.6058

G1X86.3885Y-75.7485

G1X85.9200Y-75.9535

G1X85.0651Y-76.6398

G1X84.1780Y-77.8191

G1X83.3299Y-79.4353

G1X82.6950Y-81.1154

G1X79.5359Y-94.0849

G1X78.1274Y-98.4547

G1X76.7173Y-102.1554

G1X74.8411Y-106.1653

G1X72.6864Y-110.0544

G1X70.4649Y-113.4335

G1X67.8521Y-116.8328

G1X65.5816Y-119.4020

G1X63.3432Y-121.5851

G1X60.7815Y-123.7300

G1X58.3470Y-125.4275

G1X56.3046Y-126.4821

G1X55.3250Y-126.8457

G1X54.3894Y-127.0898

G1X53.6024Y-127.1962

G1X52.8643Y-127.1894

G1X52.1818Y-127.0607

G1X51.5657Y-126.8028

G1X50.8909Y-126.2229

G1X50.2571Y-125.2239

G1X46.3719Y-116.2445

G1X45.6537Y-114.7822

G1X44.8810Y-113.4511

G1X43.4836Y-111.3170

G1X42.0732Y-109.4641

G1X40.8109Y-108.0906

G1X39.4505Y-106.9394

G1X38.2551Y-106.1775

G1X37.0666Y-105.6312

G1X35.9786Y-105.3182

G1X34.9956Y-105.2444

G1X33.9211Y-105.3396

G1X31.7388Y-105.7340

G1X28.7178Y-106.6739

G1X27.6425Y-106.9291

G1X25.2745Y-107.1587

G1X23.6634Y-107.0725

G1X23.0252Y-106.9141

G1X22.4397Y-106.6603

G1X21.8015Y-106.2766

G1X21.2070Y-105.8002

G1X20.3087Y-104.7309

G1X19.6594Y-103.3770

G1X19.3337Y-102.0466

G1X19.1529Y-100.4087

G1X19.0999Y-98.2394

G1X19.1757Y-95.6580

G1X19.5681Y-91.8018

G1X21.3919Y-77.9470

G1X21.6882Y-73.5890

G1X21.8769Y-68.1844

G1X21.8850Y-63.1903

G1X21.7099Y-59.2633

G1X21.3398Y-55.9494

G1X20.2297Y-48.3905

G1X19.7225Y-42.1488

G1X19.7529Y-40.5874

G1X19.9470Y-39.4031

G1X20.3456Y-38.3882

G1X20.9307Y-37.5573

G1X21.6685Y-36.9182

G1X22.5317Y-36.4650

G1X23.4928Y-36.1916

G1X24.5214Y-36.0951

G1X25.6450Y-36.1985

G1X26.8905Y-36.4799

G1X28.3010Y-36.9465

G1X29.8111Y-37.5916

G1X31.9417Y-38.7946

G1X34.1712Y-40.5921

G1X37.8384Y-44.1033

G1X40.4613Y-47.1629

G1X41.5060Y-48.1403

G1X42.5920Y-48.7769

G1X43.6841Y-49.1950

G1X44.6124Y-49.3298

G1X45.5957Y-49.2353

G1X46.4061Y-48.9882

G1X47.3643Y-48.5474

G1X49.2882Y-47.3010

G1X51.0757Y-45.7100

G1X52.6199Y-43.8681

G1X53.5139Y-42.4950

G1X54.4478Y-40.8607

G1X57.2636Y-35.3121

G1X57.9287Y-33.7826

G1X59.2481Y-30.1522

G1X59.6338Y-29.3721

G1X60.0764Y-28.7526

G1X60.9968Y-28.0156

G1X61.4778Y-27.7863

G1X61.9801Y-27.6570

G1X62.5108Y-27.6341

G1X63.0766Y-27.7238

G1X64.2282Y-28.2017

G1X65.4540Y-29.0066

G1X66.7833Y-30.0426

G1X68.0008Y-31.1425

G1X69.0947Y-32.2809

G1X70.0968Y-33.4859

G1X70.9833Y-34.7284

G1X72.5215Y-37.4622

G1X73.6128Y-39.7127

G1X74.6112Y-42.0110

G1X75.4655Y-44.2577

G1X76.1502Y-46.3810

G1X76.6836Y-48.4353

G1X77.0383Y-50.2866

G1X77.2419Y-52.0004

G1X77.3296Y-53.9144

G1X77.1847Y-57.7741

G1X76.6665Y-61.9480

G1X75.7980Y-66.2733

G1X74.6872Y-70.2141

G1X73.8402Y-72.2665

G1X72.6979Y-74.3950

G1X71.4344Y-76.3866

G1X68.2856Y-80.9698

G1X65.2951Y-86.1037

G1X64.9587Y-86.8923

G1X64.8027Y-87.6306

G1X64.8469Y-88.2735

G1X65.1177Y-88.9682

G1X65.4842Y-89.5058

G1X66.0395Y-90.0835

G1X66.7291Y-90.6200

G1X67.5354Y-91.1020

G1X69.3136Y-91.8172

G1X70.3570Y-92.0679

G1X71.3471Y-92.2061

G1X74.2185Y-92.2888

G1X77.4229Y-92.0379

G1X80.2941Y-91.5098

G1X82.6499Y-90.7467

G1X83.6513Y-90.2628

G1X84.7349Y-89.6169

G1X86.9834Y-87.9179

G1X89.1801Y-85.8117

G1X91.0601Y-83.5560

G1X91.8271Y-82.1951

G1X92.2791Y-80.6696

G1X92.3758Y-79.0493

G1X92.1457Y-77.3861

G1X91.6976Y-76.3179

G1X90.8764Y-75.1687

G1X89.8284Y-74.2008

G1X88.8125Y-73.6559

G1X87.6388Y-73.4900

G1X86.4132Y-73.6782

G1X85.3011Y-74.1907

G1X84.4138Y-75.0140

G1X83.8196Y-75.8691

G1X83.2830Y-76.8830

G1X82.7104Y-78.2360

G1X82.2391Y-79.6227

G1X79.6038Y-92.2634

G1X78.8538Y-95.0307

G1X77.6883Y-98.6310

G1X76.4914Y-101.7733

G1X75.1721Y-104.7079

G1X73.5743Y-107.8269

G1X71.8858Y-110.7093

G1X69.3046Y-114.4709

G1X66.5493Y-117.9048

G1X63.8915Y-120.6577

G1X60.9393Y-123.1964

G1X59.6383Y-124.1388

G1X58.4796Y-124.8542

G1X57.4219Y-125.3663

G1X56.3341Y-125.7515

G1X55.3003Y-125.9684

G1X54.3256Y-126.0041

G1X53.4151Y-125.8456

G1X52.6546Y-125.5263

G1X51.8779Y-124.9199

G1X51.1185Y-123.8339

G1X49.4357Y-120.2339

G1X46.8125Y-115.1391

G1X45.7671Y-113.2169

G1X44.8871Y-111.8076

G1X43.3382Y-109.7043

G1X41.7707Y-107.8736

G1X40.2942Y-106.4288

G1X38.8728Y-105.3572

G1X37.7703Y-104.7570

G1X36.6881Y-104.3582

G1X35.4405Y-104.1168

G1X34.4817Y-104.1247

G1X33.3534Y-104.3922

G1X30.6750Y-105.3918

G1X27.8845Y-106.6381

G1X26.6578Y-107.0849

G1X24.6585Y-107.4407

G1X22.9012Y-107.4970

G1X22.1341Y-107.3902

G1X21.5208Y-107.2043

G1X20.3655Y-106.4939

G1X19.3862Y-105.4228

G1X18.9565Y-104.7050

G1X18.6424Y-103.9928

G1X18.2631Y-102.6015

G1X18.0805Y-100.8782

G1X18.0636Y-98.7052

G1X18.2022Y-95.5073

G1X18.5248Y-92.1682

G1X20.4102Y-77.2319

G1X20.6523Y-74.0071

G1X20.7427Y-70.1984

G1X20.6413Y-63.4654

G1X20.2679Y-57.1869

G1X19.8074Y-53.6982

G1X18.4417Y-46.0859

G1X18.0650Y-41.6508

G1X18.0462Y-39.7572

G1X18.2061Y-38.3329

G1X18.5632Y-37.2208

G1X19.1491Y-36.3451

G1X19.9537Y-35.6801

G1X20.9309Y-35.2208

G1X22.0342Y-34.9626

G1X23.3271Y-34.9043

G1X24.4878Y-35.0465

G1X25.8122Y-35.4058

G1X27.3310Y-35.9899

G1X28.8777Y-36.7329

G1X30.2790Y-37.5301

G1X31.4744Y-38.3205

G1X32.3983Y-39.0565

G1X33.4511Y-40.0393

G1X37.7880Y-44.8456

G1X40.1144Y-47.9193

G1X41.0304Y-48.8788

G1X41.9271Y-49.4321

G1X42.9244Y-49.7979

G1X43.8533Y-49.9202

G1X44.8337Y-49.8182

G1X45.7842Y-49.5154

G1X46.7061Y-49.0642

G1X47.8010Y-48.3881

G1X48.9678Y-47.5283

G1X50.0796Y-46.5753

G1X51.0970Y-45.5728

G1X52.0680Y-44.4683

G1X52.8693Y-43.4035

G1X54.3430Y-40.9357

G1X56.1118Y-37.3519

G1X58.1521Y-32.9158

G1X59.7278Y-28.4191

G1X60.0583Y-27.7355

G1X60.4393Y-27.1794

G1X61.3627Y-26.4402

G1X62.3334Y-26.1035

G1X63.3202Y-26.1530

G1X64.4367Y-26.5823

G1X65.4041Y-27.1918

G1X66.9169Y-28.3549

G1X68.2218Y-29.5017

G1X69.3661Y-30.6432

G1X70.3653Y-31.7733

G1X71.3327Y-33.0259

G1X72.1772Y-34.2985

G1X72.8905Y-35.5664

G1X74.0788Y-38.0318

G1X75.1553Y-40.5328

G1X76.0692Y-42.9464

G1X76.8225Y-45.2670

G1X77.4247Y-47.5347

G1X77.8405Y-49.6041

G1X78.0933Y-51.5498

G1X78.1879Y-53.4997

G1X78.1435Y-55.3664

G1X77.9778Y-57.3976

G1X77.3002Y-61.7527

G1X76.1599Y-66.4857

G1X74.6818Y-71.0442

G1X73.8523Y-72.9053

G1X72.7373Y-74.8330

G1X71.3113Y-76.8789

G1X67.6910Y-81.5844

G1X65.5633Y-85.2339

G1X64.9871Y-86.4158

G1X64.7376Y-87.2961

G1X64.7471Y-88.0393

G1X65.0222Y-88.7616

G1X65.4419Y-89.3253

G1X66.1005Y-89.9383

G1X66.9375Y-90.5224

G1X67.9243Y-91.0557

G1X69.0322Y-91.5162

G1X70.1204Y-91.8530

G1X71.2635Y-92.0948

G1X72.3214Y-92.2176

G1X75.2304Y-92.1747

G1X78.5542Y-91.7569

G1X81.7194Y-91.0439

G1X84.3794Y-90.1099

G1X85.3813Y-89.6184

G1X86.3576Y-89.0146

G1X88.2853Y-87.4498

G1X90.2774Y-85.3100

G1X92.0236Y-82.9127

G1X93.0253Y-81.1294

G1X93.4633Y-79.7229

G1X93.5622Y-78.8886

G1X93.5541Y-78.0844

G1X93.4410Y-77.2223

G1X93.2182Y-76.3259

G1X92.6159Y-74.8316

G1X91.7218Y-73.6668

G1X91.0813Y-73.0778

G1X90.3042Y-72.5101

G1X89.5170Y-72.0680

G1X88.7711Y-71.7775

G1X88.1317Y-71.6559

G1X87.4455Y-71.6489

G1X86.0541Y-71.9532

G1X85.3007Y-72.2946

G1X84.6980Y-72.6795

G1X84.1918Y-73.1145

G1X83.7423Y-73.6419

G1X83.1988Y-74.5142

G1X82.6855Y-75.6253

G1X81.6632Y-78.7596

G1X81.3087Y-80.5405

G1X80.6414Y-84.9037

G1X79.7288Y-89.7274

G1X79.1375Y-92.4473

G1X78.4968Y-94.7996

G1X77.5923Y-97.6306

G1X76.6194Y-100.2738

G1X75.5940Y-102.7062

G1X74.2760Y-105.4794

G1X72.6543Y-108.4973

G1X70.9009Y-111.3415

G1X68.6827Y-114.5228

G1X66.5920Y-117.1600

G1X64.5625Y-119.3411

G1X62.1579Y-121.5630

G1X60.1273Y-123.1243

G1X58.3919Y-124.1038

G1X56.7637Y-124.5922

G1X55.9608Y-124.6696

G1X55.2845Y-124.6347

G1X54.5396Y-124.4757

G1X53.9108Y-124.2306

G1X53.2165Y-123.8274

G1X52.6127Y-123.3316

G1X52.0709Y-122.6847

G1X51.5667Y-121.9038

G1X49.4482Y-117.7875

G1X47.0793Y-113.8586

G1X45.5210Y-111.3784

G1X44.2772Y-109.6085

G1X42.5568Y-107.5619

G1X40.6856Y-105.6875

G1X38.9586Y-104.2904

G1X37.4190Y-103.4069

G1X36.5409Y-103.0905

G1X35.5970Y-102.9086

G1X34.6654Y-102.8798

G1X33.7389Y-102.9889

G1X32.5967Y-103.4337

G1X30.4636Y-104.7199

G1X27.1529Y-106.5668

G1X25.2352Y-107.4361

G1X23.6520Y-107.7777

G1X22.1710Y-107.8926

G1X20.9737Y-107.7794

G1X20.0155Y-107.4498

G1X19.4394Y-107.0702

G1X18.8587Y-106.5235

G1X18.3460Y-105.8508

G1X17.9522Y-105.1501

G1X17.5846Y-104.2493

G1X17.3295Y-103.3514

G1X17.0654Y-101.3140

G1X17.0874Y-98.7625

G1X17.4137Y-93.9634

G1X19.3822Y-76.4693

G1X19.6335Y-73.0429

G1X19.6976Y-69.9001

G1X19.6071Y-66.5456

G1X19.3806Y-62.6889

G1X18.5672Y-54.2030

G1X18.1302Y-51.4077

G1X16.7285Y-44.7917

G1X16.3455Y-42.3070

G1X16.2402Y-40.3952

G1X16.2447Y-38.7598

G1X16.3578Y-37.5388

G1X16.5978Y-36.4848

G1X17.1141Y-35.4022

G1X17.4549Y-34.9811

G1X17.9061Y-34.5931

G1X19.0440Y-34.0237

G1X20.4164Y-33.7260

G1X21.9287Y-33.6953

G1X23.5631Y-33.9455

G1X25.1482Y-34.4706

G1X26.8798Y-35.2747

G1X28.5550Y-36.2244

G1X30.2542Y-37.3523

G1X31.7027Y-38.4747

G1X32.8103Y-39.5366

G1X34.7144Y-41.8196

G1X37.9332Y-46.0896

G1X39.6805Y-48.6919

G1X40.4387Y-49.5593

G1X41.0316Y-49.9839

G1X41.7689Y-50.2815

G1X42.5543Y-50.4401

G1X43.3743Y-50.4415

G1X44.4394Y-50.2169

G1X45.4836Y-49.7840

G1X46.6694Y-49.0882

G1X48.0181Y-48.1196

G1X49.4644Y-46.9078

G1X50.7712Y-45.6471

G1X51.9552Y-44.3324

G1X52.9783Y-43.0067

G1X53.7437Y-41.8241

G1X54.5259Y-40.4163

G1X56.2698Y-36.7235

G1X58.6842Y-31.1169

G1X59.9010Y-27.3473

G1X60.2941Y-26.3384

G1X60.7697Y-25.5481

G1X61.3250Y-25.0428

G1X62.1568Y-24.6200

G1X63.0661Y-24.4970

G1X64.0791Y-24.7057

G1X65.1120Y-25.2100

G1X66.6384Y-26.3262

G1X68.5707Y-27.9913

G1X70.1209Y-29.5387

G1X71.4602Y-31.0946

G1X73.1052Y-33.4485

G1X74.3934Y-35.9232

G1X76.1603Y-40.1596

G1X77.5440Y-44.3044

G1X78.3956Y-47.7129

G1X78.9033Y-50.9127

G1X79.0442Y-53.6967

G1X78.8498Y-56.6535

G1X78.2609Y-60.2408

G1X77.2945Y-64.1386

G1X75.9853Y-68.2268

G1X74.4047Y-72.2842

G1X73.4476Y-74.1393

G1X72.1961Y-76.0211

G1X70.7718Y-77.8164

G1X67.6339Y-81.4233

G1X66.5252Y-82.9661

G1X65.3274Y-85.2269

G1X64.8281Y-86.4688

G1X64.6817Y-87.4563

G1X64.7420Y-87.9117

G1X64.9017Y-88.3513

G1X65.3449Y-88.9969

G1X65.9496Y-89.5590

G1X66.8366Y-90.1713

G1X67.8353Y-90.7136

G1X68.9739Y-91.2089

G1X70.2204Y-91.6327

G1X71.4306Y-91.9378

G1X72.6801Y-92.1437

G1X74.7316Y-92.2199

G1X77.3225Y-91.9527

G1X80.2267Y-91.3809

G1X83.1731Y-90.5470

G1X85.4345Y-89.6960

G1X87.3147Y-88.7651

G1X88.7067Y-87.8180

G1X90.0547Y-86.5811

G1X91.5803Y-84.7496

G1X92.9366Y-82.6404

G1X94.0713Y-80.3211

G1X94.4489Y-79.2972

G1X94.6317Y-78.5146

G1X94.7077Y-77.4312

G1X94.6002Y-76.3978

G1X94.3149Y-75.3309

G1X93.8618Y-74.2656

G1X93.1842Y-73.1048

G1X92.6451Y-72.4263

G1X91.8698Y-71.7338

G1X90.8805Y-71.0818

G1X89.8280Y-70.5704

G1X88.7943Y-70.2260

G1X87.9250Y-70.0790

G1X87.0548Y-70.1124

G1X86.0828Y-70.3507

G1X85.0542Y-70.8214

G1X84.1997Y-71.4056

G1X83.4080Y-72.1709

G1X82.8097Y-73.0466

G1X82.2866Y-74.1806

G1X81.7954Y-75.6697

G1X81.2145Y-77.9021

G1X80.9035Y-79.5654

G1X80.3305Y-84.1797

G1X79.8533Y-86.9801

G1X79.0981Y-90.8533

G1X78.3486Y-93.8282

G1X77.4381Y-96.6792

G1X76.3752Y-99.5101

G1X75.1644Y-102.3142

G1X73.7711Y-105.1851

G1X71.9047Y-108.5642

G1X69.8377Y-111.8078

G1X67.6367Y-114.9006

G1X65.6131Y-117.3413

G1X62.9708Y-119.9670

G1X60.6851Y-121.8316

G1X59.7357Y-122.4360

G1X58.9047Y-122.8443

G1X58.0271Y-123.1179

G1X57.2295Y-123.2352

G1X56.0872Y-123.1674

G1X54.9926Y-122.8194

G1X53.9258Y-122.2046

G1X52.8789Y-121.3289

G1X52.2765Y-120.6099

G1X51.6432Y-119.6757

G1X49.5347Y-115.9828

G1X48.6102Y-114.5121

G1X45.6163Y-110.3133

G1X43.6047Y-107.7311

G1X41.9250Y-105.8916

G1X40.0546Y-104.1685

G1X38.3243Y-102.8626

G1X36.7269Y-101.9724

G1X35.6774Y-101.6295

G1X34.7172Y-101.5315

G1X33.7043Y-101.6550

G1X32.5280Y-102.0272

G1X31.5225Y-102.6545

G1X29.0524Y-104.7384

G1X26.1140Y-106.7060

G1X24.2976Y-107.6894

G1X22.8074Y-108.1262

G1X21.7491Y-108.2683

G1X20.8001Y-108.2864

G1X19.8959Y-108.1790

G1X19.1618Y-107.9614

G1X18.5962Y-107.6645

G1X18.0269Y-107.1795

G1X17.5424Y-106.5791

G1X17.0833Y-105.7724

G1X16.6114Y-104.5177

G1X16.2612Y-102.9263

G1X16.1122Y-101.4482

G1X16.1163Y-99.7144

G1X16.7179Y-92.3080

G1X17.6186Y-84.0238

G1X18.3052Y-75.7124

G1X18.5559Y-71.2003

G1X18.5564Y-67.4188

G1X18.3725Y-64.3668

G1X18.0069Y-60.7614

G1X16.6103Y-50.9044

G1X16.0468Y-47.9604

G1X14.7107Y-42.3070

G1X14.3720Y-40.3322

G1X14.2882Y-39.1121

G1X14.3202Y-37.5852

G1X14.4654Y-36.3576

G1X14.7056Y-35.3852

G1X15.2827Y-34.1851

G1X16.0834Y-33.3471

G1X17.1629Y-32.7968

G1X18.6234Y-32.4959

G1X20.4073Y-32.4831

G1X22.2843Y-32.7827

G1X23.9244Y-33.3143

G1X25.7886Y-34.2307

G1X27.6532Y-35.3840

G1X29.4827Y-36.7091

G1X31.3087Y-38.2411

G1X32.5872Y-39.5305

G1X34.1222Y-41.5634

G1X38.9572Y-49.1475

G1X39.6826Y-50.0885

G1X40.1916Y-50.5050

G1X40.7853Y-50.7712

G1X41.5872Y-50.9203

G1X42.3565Y-50.9102

G1X43.4547Y-50.6782

G1X44.6386Y-50.1893

G1X45.9115Y-49.4355

G1X47.3779Y-48.3477

G1X49.0521Y-46.9134

G1X50.6347Y-45.3677

G1X52.0946Y-43.7331

G1X53.2961Y-42.1625

G1X54.5809Y-40.0544

G1X55.9031Y-37.2927

G1X59.1462Y-29.3082

G1X60.5536Y-24.8181

G1X60.9876Y-23.9822

G1X61.5086Y-23.4416

G1X62.3702Y-23.0083

G1X63.3268Y-22.8900

G1X64.3049Y-23.0887

G1X65.3962Y-23.6097

G1X66.6165Y-24.4802

G1X68.8716Y-26.4459

G1X70.5086Y-28.0596

G1X71.9683Y-29.7074

G1X73.6841Y-32.0457

G1X75.0536Y-34.4904

G1X76.7060Y-38.5040

G1X78.1100Y-42.7485

G1X79.0941Y-46.6628

G1X79.6777Y-50.1965

G1X79.8797Y-53.3243

G1X79.7077Y-56.2513

G1X79.0741Y-59.7922

G1X77.9936Y-63.6703

G1X76.4725Y-67.8875

G1X74.5257Y-72.3969

G1X73.4298Y-74.5313

G1X72.0412Y-76.5348

G1X70.5237Y-78.3057

G1X67.1951Y-81.7737

G1X66.0497Y-83.2600

G1X65.2166Y-84.9392

G1X64.7966Y-86.1662

G1X64.6995Y-87.2200

G1X64.9339Y-88.0752

G1X65.3816Y-88.7230

G1X66.0011Y-89.2859

G1X66.9122Y-89.8835

G1X68.0019Y-90.4459

G1X69.2776Y-90.9799

G1X70.6956Y-91.4534

G1X72.1012Y-91.8110

G1X73.4434Y-92.0481

G1X75.5873Y-92.1904

G1X77.5976Y-92.0132

G1X80.2939Y-91.4544

G1X83.1753Y-90.5888

G1X85.9090Y-89.5307

G1X88.3004Y-88.3650

G1X90.1989Y-87.1624

G1X91.5578Y-85.9550

G1X92.9843Y-84.1730

G1X94.1575Y-82.1378

G1X95.1048Y-79.8312

G1X95.7027Y-77.5160

G1X95.7691Y-76.4209

G1X95.6355Y-75.3671

G1X95.3008Y-74.2693

G1X94.8162Y-73.2508

G1X94.0588Y-72.0931

G1X93.1108Y-70.9901

G1X92.3446Y-70.3586

G1X91.4384Y-69.8252

G1X90.2434Y-69.3255

G1X89.0202Y-68.9915

G1X87.7730Y-68.8322

G1X86.7814Y-68.8875

G1X85.8440Y-69.1451

G1X84.8569Y-69.6307

G1X83.9460Y-70.2888

G1X83.0754Y-71.1556

G1X82.5070Y-71.9193

G1X82.0532Y-72.8005

G1X81.6640Y-73.8887

G1X81.3048Y-75.2853

G1X80.5922Y-78.9448

G1X79.8231Y-85.5309

G1X79.0609Y-89.4743

G1X78.2853Y-92.6371

G1X77.5651Y-94.9441

G1X76.6557Y-97.3854

G1X75.5439Y-99.9867

G1X74.2104Y-102.8039

G1X72.4977Y-106.0683

G1X70.7309Y-109.0436

G1X68.0837Y-113.0362

G1X65.9879Y-115.7709

G1X63.4865Y-118.3820

G1X61.2852Y-120.2913

G1X60.3918Y-120.9076

G1X59.5207Y-121.3809

G1X58.7597Y-121.6591

G1X58.0361Y-121.7837

G1X56.8409Y-121.7121

G1X55.6917Y-121.3138

G1X54.4691Y-120.5678

G1X53.0187Y-119.3549

G1X52.2820Y-118.5511

G1X51.4954Y-117.5084

G1X48.8587Y-113.4535

G1X47.7593Y-111.9002

G1X45.1298Y-108.6838

G1X42.8407Y-106.0920

G1X40.9296Y-104.1656

G1X38.9224Y-102.4715

G1X37.0526Y-101.2007

G1X35.4414Y-100.4238

G1X34.4938Y-100.1777

G1X33.6144Y-100.1701

G1X32.7304Y-100.4196

G1X31.6697Y-100.9871

G1X30.5835Y-101.8180

G1X28.5550Y-104.1162

G1X27.5452Y-105.0748

G1X24.5225Y-107.2967

G1X23.3604Y-107.9692

G1X22.3252Y-108.4053

G1X21.3842Y-108.6216

G1X20.3372Y-108.7198

G1X19.4039Y-108.6784

G1X18.5211Y-108.4975

G1X17.8110Y-108.2069

G1X17.2706Y-107.8431

G1X16.7672Y-107.3035

G1X16.3353Y-106.6059

G1X15.8630Y-105.4082

G1X15.5103Y-103.8673

G1X15.2764Y-101.8409

G1X15.2362Y-100.0596

G1X15.3890Y-97.5678

G1X16.6526Y-84.6058

G1X16.9523Y-80.7459

G1X17.3308Y-71.2888

G1X17.3482Y-68.1747

G1X17.2653Y-65.3729

G1X16.8946Y-61.2329

G1X16.1033Y-56.2633

G1X14.2068Y-46.5209

G1X12.7750Y-40.6534

G1X12.3839Y-38.6735

G1X12.2661Y-37.5354

G1X12.2777Y-36.5307

G1X12.4270Y-35.3493

G1X12.6705Y-34.4068

G1X12.9746Y-33.6674

G1X13.3093Y-33.0981

G1X14.1729Y-32.1819

G1X15.2774Y-31.5793

G1X16.7042Y-31.2768

G1X18.7556Y-31.2784

G1X20.8976Y-31.6285

G1X22.9200Y-32.2704

G1X24.7764Y-33.1986

G1X26.5239Y-34.3454

G1X28.3627Y-35.7698

G1X30.2616Y-37.4573

G1X31.9218Y-39.1463

G1X32.7916Y-40.2006

G1X33.6948Y-41.5581

G1X36.3509Y-46.5920

G1X38.6244Y-50.2351

G1X39.1517Y-50.7973

G1X39.7060Y-51.1323

G1X40.4193Y-51.2953

G1X41.2676Y-51.2838

G1X42.5537Y-50.9906

G1X43.8694Y-50.4260

G1X45.2765Y-49.5788

G1X46.7115Y-48.4886

G1X48.6875Y-46.7440

G1X50.5835Y-44.8444

G1X52.2257Y-42.9772

G1X53.6591Y-41.0889

G1X54.9700Y-38.9414

G1X56.2587Y-36.1702

G1X59.6268Y-27.2392

G1X60.8665Y-23.0668

G1X61.2534Y-22.2867

G1X61.7189Y-21.7770

G1X62.5825Y-21.3697

G1X63.5127Y-21.2725

G1X64.5558Y-21.4856

G1X65.7208Y-22.0409

G1X67.0169Y-22.9701

G1X69.0636Y-24.8078

G1X70.8336Y-26.5415

G1X72.4103Y-28.2770

G1X74.3937Y-30.8852

G1X75.2362Y-32.2315

G1X75.9447Y-33.5533

G1X77.3292Y-36.9239

G1X78.6360Y-40.9274

G1X79.7365Y-45.3104

G1X80.4210Y-49.3882

G1X80.6803Y-53.0591

G1X80.6503Y-54.7148

G1X80.5129Y-56.2655

G1X79.9285Y-59.3643

G1X78.9053Y-62.8040

G1X77.4473Y-66.5659

G1X75.5373Y-70.7012

G1X73.5144Y-74.6178

G1X72.2222Y-76.5473

G1X70.3968Y-78.6236

G1X66.7516Y-82.1316

G1X65.6887Y-83.4529

G1X65.0918Y-84.7408

G1X64.7841Y-85.8910

G1X64.7647Y-86.9051

G1X65.0122Y-87.7270

G1X65.4015Y-88.3273

G1X65.9681Y-88.8858

G1X66.7190Y-89.4106

G1X67.5891Y-89.8800

G1X70.2133Y-90.9293

G1X73.1296Y-91.6995

G1X75.5774Y-92.0464

G1X77.7857Y-92.0724

G1X79.7915Y-91.7834

G1X82.1670Y-91.1411

G1X85.1827Y-90.0132

G1X88.2291Y-88.5610

G1X90.8439Y-87.0035

G1X92.8079Y-85.4775

G1X94.1179Y-83.9860

G1X95.2285Y-82.1249

G1X96.0730Y-79.9773

G1X96.6127Y-77.6183

G1X96.7592Y-76.1853

G1X96.7371Y-75.1489

G1X96.5265Y-74.1365

G1X96.1095Y-73.0759

G1X95.4255Y-71.9145

G1X94.5372Y-70.8030

G1X93.4438Y-69.7492

G1X92.3868Y-68.9959

G1X91.1620Y-68.4533

G1X89.8223Y-68.0956

G1X88.3688Y-67.9146

G1X86.9414Y-67.9526

G1X85.9650Y-68.1640

G1X84.9910Y-68.6012

G1X84.0901Y-69.2246

G1X83.2073Y-70.0709

G1X82.5054Y-70.9569

G1X81.9488Y-71.8669

G1X81.5616Y-72.7959

G1X81.2245Y-74.0159

G1X80.3908Y-79.0556

G1X79.6840Y-85.5028

G1X79.1517Y-88.1582

G1X78.5213Y-90.7008

G1X77.8611Y-92.9104

G1X77.1571Y-94.8895

G1X76.3457Y-96.8257

G1X75.2738Y-99.0903

G1X73.0664Y-103.3691

G1X71.1195Y-106.7871

G1X68.0798Y-111.5285

G1X66.0925Y-114.2891

G1X65.1484Y-115.4076

G1X64.0176Y-116.5745

G1X61.6005Y-118.7783

G1X60.6930Y-119.4341

G1X59.8739Y-119.9050

G1X59.0698Y-120.2251

G1X58.3548Y-120.3604

G1X57.3198Y-120.2924

G1X56.2339Y-119.9106

G1X55.1583Y-119.2619

G1X53.8084Y-118.1783

G1X52.3646Y-116.8486

G1X51.3524Y-115.7224

G1X47.6113Y-110.7422

G1X46.3113Y-109.1413

G1X44.3302Y-107.0047

G1X42.2269Y-104.8859

G1X39.7550Y-102.6122

G1X37.6886Y-100.9857

G1X35.7156Y-99.7324

G1X34.0546Y-99.0134

G1X33.2436Y-98.8351

G1X32.5176Y-98.8376

G1X31.9086Y-99.0260

G1X31.3646Y-99.3686

G1X29.5952Y-101.0779

G1X27.4035Y-104.1636

G1X26.3457Y-105.3675

G1X23.8164Y-107.4039

G1X22.6476Y-108.1608

G1X21.5863Y-108.7087

G1X20.6704Y-109.0277

G1X19.7967Y-109.1645

G1X18.8613Y-109.1728

G1X17.9470Y-109.0327

G1X17.1846Y-108.7743

G1X16.4993Y-108.3816

G1X15.9196Y-107.8464

G1X15.5054Y-107.2336

G1X15.0549Y-106.1101

G1X14.7260Y-104.5434

G1X14.5328Y-102.4795

G1X14.4637Y-99.9069

G1X14.6272Y-96.9552

G1X15.3917Y-89.3852

G1X16.0930Y-79.3118

G1X16.1574Y-76.3848

G1X16.1277Y-71.1644

G1X15.8627Y-64.2510

G1X15.4485Y-59.9097

G1X14.8290Y-56.2301

G1X10.4105Y-37.3763

G1X10.2491Y-36.1644

G1X10.2201Y-35.2117

G1X10.3083Y-34.3682

G1X10.5195Y-33.5203

G1X10.7855Y-32.8456

G1X11.1783Y-32.1546

G1X11.5963Y-31.6234

G1X12.1549Y-31.1036

G1X12.7956Y-30.6810

G1X13.4199Y-30.3942

G1X14.2024Y-30.1648

G1X15.0084Y-30.0481

G1X16.0297Y-30.0214

G1X17.1667Y-30.0979

G1X19.6478Y-30.5520

G1X22.0699Y-31.3503

G1X24.1088Y-32.3766

G1X25.8435Y-33.5887

G1X27.7497Y-35.2114

G1X29.7207Y-37.1604

G1X31.5345Y-39.2036

G1X32.6231Y-40.6037

G1X33.4299Y-41.9331

G1X34.1958Y-43.5161

G1X35.9180Y-47.6098

G1X37.5413Y-50.2822

G1X38.1250Y-50.9925

G1X38.6599Y-51.3687

G1X39.3190Y-51.5548

G1X40.0556Y-51.5482

G1X41.4471Y-51.2298

G1X42.9461Y-50.5925

G1X44.5674Y-49.6326

G1X46.1553Y-48.4384

G1X48.2506Y-46.5336

G1X50.3601Y-44.3657

G1X52.3254Y-42.0920

G1X53.9374Y-39.9548

G1X55.3851Y-37.6211

G1X56.6164Y-34.9424

G1X57.4930Y-32.5957

G1X60.0623Y-25.0754

G1X61.1209Y-21.3735

G1X61.4954Y-20.5807

G1X61.9595Y-20.0736

G1X62.7822Y-19.7295

G1X63.8232Y-19.6763

G1X64.9224Y-19.9448

G1X66.1481Y-20.5546

G1X67.1764Y-21.2776

G1X68.1650Y-22.1313

G1X70.8479Y-24.7304

G1X72.7913Y-26.8168

G1X75.0460Y-29.6827

G1X75.9633Y-31.0839

G1X76.7459Y-32.4639

G1X77.9203Y-35.1327

G1X79.2435Y-39.1973

G1X80.4207Y-44.0198

G1X81.1666Y-48.6508

G1X81.3617Y-50.7426

G1X81.4487Y-52.7886

G1X81.4193Y-54.6656

G1X81.2670Y-56.4737

G1X80.7515Y-59.1618

G1X79.8552Y-62.0763

G1X78.5668Y-65.2537

G1X76.8977Y-68.6811

G1X73.2291Y-75.2146

G1X72.1568Y-76.8030

G1X70.5806Y-78.6054

G1X66.6095Y-82.2261

G1X65.9498Y-82.9275

G1X65.4801Y-83.5653

G1X65.0753Y-84.4691

G1X64.8489Y-85.5667

G1X64.8869Y-86.4810

G1X65.1571Y-87.3179

G1X65.4843Y-87.8588

G1X65.9975Y-88.4327

G1X66.6591Y-88.9603

G1X67.4692Y-89.4429

G1X69.6884Y-90.3651

G1X72.5291Y-91.1939

G1X75.3290Y-91.7284

G1X77.9936Y-91.9503

G1X80.2494Y-91.8467

G1X82.3124Y-91.4171

G1X85.1566Y-90.3927

G1X88.2794Y-88.8652

G1X91.3069Y-87.0126

G1X93.7698Y-85.1378

G1X95.2218Y-83.6975

G1X96.2800Y-82.1501

G1X97.0909Y-80.2880

G1X97.5968Y-78.1881

G1X97.7528Y-76.6427

G1X97.7373Y-75.0457

G1X97.5797Y-73.8354

G1X97.2228Y-72.7784

G1X96.5627Y-71.6002

G1X95.7132Y-70.5229

G1X94.5919Y-69.4378

G1X93.3491Y-68.5083

G1X92.2970Y-67.9236

G1X91.0259Y-67.5064

G1X89.5463Y-67.2782

G1X87.9615Y-67.2664

G1X86.6054Y-67.4517

G1X85.5680Y-67.7723

G1X84.5560Y-68.3476

G1X83.6540Y-69.1302

G1X82.9251Y-69.9881

G1X82.2914Y-70.9415

G1X81.7246Y-72.0188

G1X81.3590Y-73.0427

G1X80.9637Y-75.0562

G1X79.8675Y-84.4317

G1X79.4421Y-86.9192

G1X78.8353Y-89.2676

G1X78.0653Y-91.6564

G1X77.0613Y-94.2406

G1X76.1670Y-96.1532

G1X74.8796Y-98.5154

G1X70.7631Y-105.6120

G1X67.2856Y-111.0294

G1X65.6248Y-113.3771

G1X64.1838Y-115.0233

G1X62.5962Y-116.5419

G1X61.4305Y-117.5251

G1X60.5822Y-118.1219

G1X59.8138Y-118.5489

G1X59.0458Y-118.8436

G1X58.3674Y-118.9727

G1X57.4709Y-118.9227

G1X56.6035Y-118.6449

G1X55.6630Y-118.1248

G1X54.6350Y-117.3563

G1X50.9634Y-113.9557

G1X45.0982Y-107.2299

G1X43.6847Y-105.8078

G1X41.6139Y-103.9034

G1X38.8163Y-101.5476

G1X36.3963Y-99.7507

G1X34.1904Y-98.4171

G1X33.2573Y-97.9909

G1X32.4893Y-97.7406

G1X31.7100Y-97.6174

G1X31.0873Y-97.6518

G1X30.5965Y-97.8331

G1X30.1946Y-98.1480

G1X28.2992Y-100.8900

G1X26.4640Y-104.0349

G1X25.4269Y-105.5006

G1X24.6656Y-106.2915

G1X23.5454Y-107.2491

G1X22.3898Y-108.0986

G1X21.2878Y-108.7822

G1X20.2970Y-109.2722

G1X19.3695Y-109.5848

G1X18.4864Y-109.6923

G1X17.5940Y-109.6329

G1X16.6344Y-109.3719

G1X15.8384Y-108.9546

G1X15.1434Y-108.3581

G1X14.6391Y-107.6724

G1X14.2206Y-106.6935

G1X13.9560Y-105.4825

G1X13.8102Y-103.9734

G1X13.7642Y-101.9375

G1X13.8707Y-97.1660

G1X14.7338Y-87.2675

G1X15.1370Y-78.7540

G1X15.1204Y-73.4046

G1X14.7070Y-66.7735

G1X14.0147Y-60.1702

G1X13.1527Y-54.8068

G1X12.2323Y-51.0525

G1X9.8568Y-42.8717

G1X8.4578Y-36.5438

G1X8.2526Y-35.1849

G1X8.1866Y-34.1235

G1X8.2380Y-33.2349

G1X8.4169Y-32.4274

G1X8.7511Y-31.6498

G1X9.1672Y-31.0071

G1X9.6801Y-30.4359

G1X10.3621Y-29.8857

G1X11.1438Y-29.4413

G1X11.9126Y-29.1417

G1X12.8497Y-28.9196

G1X13.7375Y-28.8307

G1X14.7914Y-28.8522

G1X16.0309Y-28.9960

G1X18.8013Y-29.6323

G1X21.4643Y-30.6091

G1X23.7476Y-31.8102

G1X25.2923Y-32.9327

G1X27.0200Y-34.5099

G1X28.8254Y-36.4600

G1X30.6056Y-38.6550

G1X32.3773Y-41.1208

G1X33.1683Y-42.5236

G1X33.8965Y-44.2848

G1X35.1203Y-48.0041

G1X35.7314Y-49.2913

G1X36.6650Y-50.6461

G1X37.3127Y-51.3054

G1X38.0685Y-51.6479

G1X38.9489Y-51.6675

G1X40.4914Y-51.2679

G1X42.3108Y-50.4463

G1X44.2312Y-49.2760

G1X46.0272Y-47.9029

G1X47.9769Y-46.0778

G1X50.1797Y-43.7301

G1X52.2899Y-41.2194

G1X54.0732Y-38.8306

G1X55.8437Y-36.0118

G1X57.0358Y-33.4172

G1X58.0755Y-30.4365

G1X59.5895Y-25.3405

G1X60.5363Y-22.5709

G1X61.3395Y-19.7176

G1X61.7116Y-18.9010

G1X62.1280Y-18.4352

G1X62.4893Y-18.2343

G1X62.9435Y-18.1156

G1X64.0888Y-18.1126

G1X65.2486Y-18.4287

G1X66.5423Y-19.0822

G1X67.6447Y-19.8571

G1X68.7067Y-20.7782

G1X72.8314Y-25.0134

G1X75.4082Y-28.1359

G1X76.4724Y-29.6561

G1X77.3448Y-31.0727

G1X78.0825Y-32.4556

G1X78.7280Y-33.8945

G1X79.8326Y-37.1930

G1X80.5045Y-39.7250

G1X81.0759Y-42.3288

G1X81.5354Y-44.9316

G1X81.8876Y-47.5797

G1X82.1005Y-50.0122

G1X82.1919Y-52.4001

G1X82.1520Y-54.6058

G1X81.9857Y-56.6074

G1X81.5522Y-59.0249

G1X80.7638Y-61.6115

G1X79.6208Y-64.3666

G1X78.1145Y-67.3271

G1X75.7408Y-71.3347

G1X72.6756Y-76.1500

G1X71.9002Y-77.2436

G1X70.2401Y-79.0958

G1X66.6071Y-82.2850

G1X65.5416Y-83.4909

G1X65.1974Y-84.1970

G1X65.0358Y-85.1384

G1X65.1057Y-86.0121

G1X65.3885Y-86.8388

G1X65.7622Y-87.4612

G1X66.2623Y-88.0447

G1X66.9703Y-88.6496

G1X67.7241Y-89.1371

G1X69.5829Y-89.9629

G1X72.3170Y-90.7673

G1X75.5919Y-91.4180

G1X78.6708Y-91.7313

G1X81.3788Y-91.6998

G1X83.6800Y-91.3302

G1X84.8372Y-90.9769

G1X86.1306Y-90.4693

G1X88.8768Y-89.0781

G1X91.7370Y-87.2408

G1X94.3721Y-85.1762

G1X96.2187Y-83.4036

G1X97.4308Y-81.8572

G1X98.2463Y-80.1870

G1X98.7408Y-78.2526

G1X98.8706Y-76.8369

G1X98.8230Y-75.2856

G1X98.5796Y-73.6958

G1X98.2019Y-72.4254

G1X97.6289Y-71.3750

G1X96.7911Y-70.3163

G1X95.7147Y-69.2939

G1X94.5435Y-68.4218

G1X93.2828Y-67.6865

G1X92.0901Y-67.1908

G1X90.7879Y-66.9213

G1X89.4128Y-66.8552

G1X87.7396Y-67.0170

G1X86.2284Y-67.4043

G1X85.1557Y-67.8959

G1X84.1619Y-68.6668

G1X83.3758Y-69.5686

G1X82.7030Y-70.6060

G1X82.0444Y-71.9272

G1X81.5675Y-73.1948

G1X81.2028Y-75.0747

G1X80.8342Y-79.0029

G1X80.1652Y-84.1308

G1X79.6566Y-87.0113

G1X79.1670Y-88.7565

G1X78.4688Y-90.6772

G1X77.6199Y-92.6161

G1X76.5527Y-94.7534

G1X75.4420Y-96.6411

G1X72.8158Y-100.5448

G1X66.4433Y-110.5400

G1X64.7143Y-112.9828

G1X63.5056Y-114.2972

G1X62.1332Y-115.5223

G1X61.0352Y-116.3794

G1X59.5480Y-117.2357

G1X58.8318Y-117.4840

G1X58.1982Y-117.5976

G1X57.3009Y-117.5664

G1X56.4023Y-117.2921

G1X55.4231Y-116.7532

G1X54.2738Y-115.8848

G1X49.2089Y-111.2116

G1X42.8384Y-104.7748

G1X41.0036Y-103.1666

G1X38.8221Y-101.4261

G1X36.3606Y-99.6314

G1X34.1247Y-98.1830

G1X32.1305Y-97.1183

G1X30.7902Y-96.6493

G1X30.1372Y-96.5761

G1X29.6163Y-96.6343

G1X29.1243Y-96.8246

G1X28.7827Y-97.1316

G1X28.4058Y-97.8021

G1X27.5014Y-100.1231

G1X25.5701Y-103.8929

G1X24.7587Y-105.2946

G1X24.1633Y-106.1441

G1X23.5197Y-106.8765

G1X22.5146Y-107.7699

G1X21.4576Y-108.5550

G1X20.2478Y-109.2994

G1X19.0487Y-109.8676

G1X18.0208Y-110.1775

G1X17.2280Y-110.2389

G1X16.2426Y-110.0682

G1X15.3131Y-109.6403

G1X14.5538Y-109.0261

G1X13.9105Y-108.1955

G1X13.5018Y-107.3740

G1X13.1955Y-106.3485

G1X13.0382Y-105.2349

G1X12.9761Y-103.7825

G1X13.3211Y-95.1764

G1X13.8918Y-86.5807

G1X14.0525Y-82.7827

G1X14.0726Y-74.8083

G1X13.9430Y-71.7109

G1X13.7002Y-68.6684

G1X13.2490Y-64.8957

G1X12.5994Y-60.6281

G1X11.7898Y-56.1481

G1X10.9112Y-51.9587

G1X10.0703Y-48.7894

G1X7.6857Y-41.5254

G1X6.9279Y-38.6746

G1X6.4454Y-36.0586

G1X6.2094Y-34.3134

G1X6.1541Y-32.8605

G1X6.2797Y-31.7467

G1X6.5397Y-30.9109

G1X6.9281Y-30.2203

G1X7.4932Y-29.5659

G1X8.2785Y-28.9377

G1X9.2109Y-28.4206

G1X10.1654Y-28.0598

G1X11.3096Y-27.7976

G1X12.4153Y-27.6942

G1X13.4476Y-27.7209

G1X14.6877Y-27.8907

G1X17.5657Y-28.6361

G1X20.4590Y-29.7645

G1X23.1258Y-31.1860

G1X24.9931Y-32.5374

G1X26.8489Y-34.3696

G1X28.8449Y-36.8504

G1X30.9368Y-39.9402

G1X32.3813Y-42.3282

G1X32.9950Y-43.6240

G1X33.5421Y-45.2503

G1X34.4345Y-48.7358

G1X34.7485Y-49.5591

G1X35.0702Y-50.1096

G1X35.8416Y-51.0212

G1X36.4760Y-51.4802

G1X37.2813Y-51.6865

G1X38.1779Y-51.5977

G1X39.9724Y-50.9793

G1X42.1152Y-49.8847

G1X44.2437Y-48.5106

G1X46.2391Y-46.9401

G1X48.0135Y-45.2461

G1X50.1252Y-42.9244

G1X52.2394Y-40.3368

G1X54.1308Y-37.7618

G1X56.2736Y-34.3493

G1X56.9285Y-33.0659

G1X57.5193Y-31.6641

G1X58.5171Y-28.6381

G1X60.1735Y-22.4640

G1X61.5752Y-18.0176

G1X61.8091Y-17.4645

G1X62.0964Y-17.0328

G1X62.5286Y-16.6971

G1X63.0312Y-16.5494

G1X63.7958Y-16.5288

G1X64.6724Y-16.6707

G1X65.5639Y-16.9609

G1X66.4395Y-17.3708

G1X68.2477Y-18.5764

G1X69.6784Y-19.8610

G1X72.1446Y-22.4541

G1X74.0536Y-24.5707

G1X75.6261Y-26.4792

G1X76.9029Y-28.2044

G1X78.0414Y-29.9486

G1X78.9649Y-31.5902

G1X79.7681Y-33.3028

G1X80.4140Y-35.0555

G1X81.1220Y-37.5560

G1X81.7213Y-40.2225

G1X82.2037Y-42.9617

G1X82.5642Y-45.6958

G1X82.8082Y-48.4674

G1X82.9195Y-51.1154

G1X82.9004Y-53.5947

G1X82.6519Y-56.8212

G1X82.1580Y-59.5473

G1X81.2793Y-62.2379

G1X79.9794Y-65.0641

G1X78.7661Y-67.2337

G1X77.2842Y-69.5830

G1X71.6520Y-77.6465

G1X70.1002Y-79.3853

G1X66.7431Y-82.3458

G1X65.8277Y-83.3753

G1X65.4820Y-84.0805

G1X65.3841Y-84.8559

G1X65.5000Y-85.6597

G1X65.8546Y-86.5241

G1X66.3097Y-87.2045

G1X66.9773Y-87.9197

G1X67.7134Y-88.5167

G1X68.5679Y-89.0596

G1X70.4710Y-89.9046

G1X73.0567Y-90.6085

G1X76.6309Y-91.2466

G1X80.1343Y-91.5436

G1X83.1736Y-91.4678

G1X84.5092Y-91.2953

G1X85.7654Y-91.0214

G1X86.8376Y-90.6727

G1X88.0039Y-90.1747

G1X90.4696Y-88.7924

G1X93.0568Y-86.9346

G1X95.5701Y-84.7389

G1X97.5106Y-82.6963

G1X98.8855Y-80.8617

G1X99.3130Y-80.0570

G1X99.6338Y-79.2367

G1X99.8784Y-78.3038

G1X100.0122Y-77.3697

G1X100.0307Y-75.9373

G1X99.8429Y-74.4680

G1X99.4444Y-72.9409

G1X98.9071Y-71.5825

G1X98.3342Y-70.6834

G1X97.5108Y-69.7826

G1X96.4500Y-68.9148

G1X95.2852Y-68.1750

G1X93.9078Y-67.5009

G1X92.5082Y-67.0172

G1X91.3190Y-66.8197

G1X90.0582Y-66.8037

G1X88.4717Y-67.0073

G1X86.9818Y-67.4214

G1X85.7041Y-68.0055

G1X84.7385Y-68.7279

G1X83.9845Y-69.5945

G1X83.3042Y-70.6945

G1X82.6593Y-72.1071

G1X82.0497Y-73.8425

G1X81.6889Y-75.8070

G1X81.2784Y-80.6291

G1X80.3942Y-85.8575

G1X80.0283Y-87.4253

G1X79.6015Y-88.8164

G1X79.1028Y-90.0641

G1X78.4289Y-91.4404

G1X77.4183Y-93.1816

G1X75.8928Y-95.5227

G1X71.6489Y-100.8700

G1X65.4175Y-110.2282

G1X64.3348Y-111.7379

G1X63.5143Y-112.7032

G1X62.7212Y-113.4495

G1X61.1376Y-114.6278

G1X59.8985Y-115.3477

G1X58.5061Y-115.8412

G1X57.2406Y-115.9408

G1X55.9998Y-115.6769

G1X54.7455Y-115.0365

G1X52.9001Y-113.6386

G1X41.8957Y-103.9859

G1X38.7289Y-101.4271

G1X35.6880Y-99.2846

G1X32.8092Y-97.4876

G1X30.3715Y-96.2406

G1X29.5589Y-95.9212

G1X28.8866Y-95.7538

G1X28.3948Y-95.7377

G1X27.9574Y-95.8448

G1X27.4856Y-96.1328

G1X27.2194Y-96.4491

G1X26.9409Y-97.2032

G1X26.5844Y-99.1791

G1X26.3380Y-100.1251

G1X25.0415Y-103.0981

G1X24.1785Y-104.8496

G1X23.3666Y-106.2470

G1X22.5982Y-107.3079

G1X21.7970Y-108.1325

G1X20.6018Y-109.0656

G1X19.2691Y-109.8724

G1X17.9162Y-110.4729

G1X16.7445Y-110.7759

G1X15.8882Y-110.7920

G1X15.0428Y-110.5374

G1X14.2587Y-110.0312

G1X13.6252Y-109.3579

G1X13.0337Y-108.3865

G1X12.5719Y-107.1771

G1X12.2816Y-105.8654

G1X12.1687Y-104.4403

G1X12.2255Y-102.0294

G1X12.7247Y-94.9995

G1X13.0654Y-83.1044

G1X12.9620Y-76.4336

G1X12.5641Y-69.8587

G1X12.0232Y-65.2689

G1X11.2393Y-60.8335

G1X9.9875Y-55.3543

G1X8.0741Y-48.0049

G1 Z0F20000


G00 X0.0000 Y0.0000


