$H
G21
G17
G90
G1 Z0F20000
G1 F15000

(Start Layer)

(Start Block)


G1X59.5565Y-96.4752
G1Z5F20000
(Plotting speed under)
G1 F4000


G1X59.2955Y-94.9622

G1X58.7649Y-93.3164

G1X58.0041Y-91.6616

G1X57.0257Y-90.0058

G1X55.7563Y-88.2553

G1X53.1358Y-85.0443

G1X47.3631Y-77.4241

G1X40.4789Y-69.0443

G1X38.8783Y-66.9749

G1X37.8922Y-65.4808

G1X37.3021Y-64.2424

G1X37.1150Y-63.3699

G1X37.2630Y-62.5720

G1X37.6193Y-62.0516

G1X38.4568Y-61.3862

G1X39.3145Y-61.0009

G1X40.2078Y-60.7905

G1X41.3247Y-60.7235

G1X42.4703Y-60.8293

G1X43.7094Y-61.1042

G1X44.9242Y-61.5261

G1X46.0533Y-62.0404

G1X47.3299Y-62.7666

G1X48.4264Y-63.5116

G1X49.6050Y-64.4470

G1X50.7381Y-65.4800

G1X51.8009Y-66.5857

G1X53.9289Y-69.2059

G1X55.5468Y-71.6087

G1X56.6670Y-73.9834

G1X57.1224Y-75.2847

G1X57.5131Y-76.7233

G1X58.0375Y-79.7568

G1X58.1748Y-81.5876

G1X58.2000Y-83.4180

G1X58.1073Y-85.2463

G1X57.8854Y-87.3478

G1X57.1849Y-91.1187

G1X55.5669Y-97.5690

G1X55.3777Y-98.6376

G1X55.2945Y-99.7098

G1X55.4088Y-100.8030

G1X55.8592Y-101.7275

G1X56.1655Y-102.0323

G1X56.5987Y-102.3019

G1X57.1153Y-102.4669

G1X57.5440Y-102.4857

G1X58.0307Y-102.3793

G1X58.4114Y-102.1969

G1X58.8671Y-101.8272

G1X59.2017Y-101.4223

G1X59.7410Y-100.2341

G1X59.9502Y-98.9231

G1X59.8966Y-97.4769

G1X59.5760Y-95.8836

G1X58.9608Y-94.1548

G1X58.1411Y-92.5064

G1X57.2764Y-91.1148

G1X56.4245Y-89.9561

G1X53.3693Y-86.3924

G1X46.6097Y-77.7948

G1X43.7301Y-74.4147

G1X37.6647Y-67.7103

G1X35.8424Y-65.5374

G1X34.8526Y-64.1410

G1X34.2619Y-63.0168

G1X33.9917Y-62.1101

G1X34.0525Y-61.2846

G1X34.4336Y-60.5079

G1X35.2261Y-59.7327

G1X36.1880Y-59.1152

G1X37.3396Y-58.6785

G1X38.5558Y-58.4565

G1X39.8322Y-58.4161

G1X41.2888Y-58.5713

G1X42.6747Y-58.8957

G1X44.0363Y-59.3622

G1X45.4378Y-60.0005

G1X46.8942Y-60.8241

G1X48.2333Y-61.7394

G1X49.5983Y-62.8293

G1X50.8717Y-64.0069

G1X52.2146Y-65.4231

G1X53.4549Y-66.8972

G1X55.5393Y-69.8070

G1X56.0982Y-70.8004

G1X56.7536Y-72.2280

G1X57.2999Y-73.6918

G1X57.7443Y-75.2450

G1X58.0987Y-76.9133

G1X58.3466Y-78.6316

G1X58.4897Y-80.7587

G1X58.4708Y-83.1091

G1X58.2921Y-85.2242

G1X57.9368Y-87.5824

G1X57.5426Y-89.4277

G1X56.8950Y-91.8731

G1X54.8230Y-98.4284

G1X54.5129Y-99.7776

G1X54.3928Y-100.9016

G1X54.4203Y-101.6854

G1X54.5458Y-102.2696

G1X54.8005Y-102.8307

G1X55.2164Y-103.3889

G1X55.7194Y-103.7929

G1X56.2715Y-104.0685

G1X56.8667Y-104.2183

G1X57.4710Y-104.2215

G1X58.0835Y-104.0754

G1X58.5525Y-103.8426

G1X59.0227Y-103.4805

G1X59.4443Y-103.0058

G1X59.7920Y-102.4251

G1X60.0654Y-101.7601

G1X60.3303Y-100.3647

G1X60.2985Y-98.8134

G1X59.9337Y-97.0143

G1X59.2523Y-95.1907

G1X58.3436Y-93.4642

G1X57.5000Y-92.1801

G1X56.6975Y-91.1341

G1X53.2430Y-87.3304

G1X48.4430Y-81.3354

G1X45.0801Y-77.3347

G1X41.6503Y-73.5792

G1X34.7377Y-66.5616

G1X32.7837Y-64.4026

G1X31.7488Y-63.0333

G1X31.1465Y-61.9588

G1X30.8298Y-61.0051

G1X30.8305Y-60.1990

G1X31.2894Y-59.1698

G1X32.0360Y-58.3195

G1X33.1353Y-57.4570

G1X34.4884Y-56.7859

G1X35.8696Y-56.3944

G1X37.3039Y-56.2134

G1X38.8986Y-56.2412

G1X40.4360Y-56.4581

G1X42.0724Y-56.8756

G1X43.6049Y-57.4367

G1X45.3172Y-58.2514

G1X46.8894Y-59.1825

G1X48.4811Y-60.3118

G1X49.9631Y-61.5422

G1X51.4835Y-63.0078

G1X52.9768Y-64.6329

G1X54.1730Y-66.1118

G1X55.5017Y-67.9537

G1X56.1848Y-69.0866

G1X56.8238Y-70.4100

G1X57.4872Y-72.0905

G1X57.9959Y-73.7668

G1X58.4005Y-75.6156

G1X58.6813Y-77.5469

G1X58.8279Y-79.8841

G1X58.7735Y-82.3484

G1X58.5432Y-84.6781

G1X58.0932Y-87.1701

G1X57.5367Y-89.4382

G1X56.6863Y-92.1009

G1X54.0741Y-99.0244

G1X53.6254Y-100.6649

G1X53.4720Y-101.8602

G1X53.4953Y-102.6674

G1X53.6579Y-103.4132

G1X53.9740Y-104.0512

G1X54.5311Y-104.7397

G1X55.1800Y-105.2412

G1X55.9147Y-105.5955

G1X56.7421Y-105.7891

G1X57.4729Y-105.7815

G1X58.1041Y-105.6434

G1X58.6724Y-105.3879

G1X59.2454Y-104.9804

G1X59.6837Y-104.5265

G1X60.1067Y-103.8844

G1X60.4027Y-103.2374

G1X60.6051Y-102.5496

G1X60.7421Y-101.6638

G1X60.7151Y-100.0181

G1X60.3165Y-98.1304

G1X59.6130Y-96.3252

G1X58.5701Y-94.4446

G1X56.9961Y-92.3283

G1X52.9741Y-88.1586

G1X47.5598Y-81.5674

G1X43.4889Y-76.9442

G1X39.5437Y-72.9056

G1X32.0328Y-65.8791

G1X29.8341Y-63.6414

G1X28.8232Y-62.4083

G1X28.1543Y-61.3574

G1X27.7454Y-60.3511

G1X27.6424Y-59.4024

G1X27.7673Y-58.8996

G1X27.9910Y-58.4294

G1X28.4254Y-57.7262

G1X28.8958Y-57.1609

G1X30.2050Y-55.9828

G1X31.5913Y-55.1456

G1X33.0157Y-54.5844

G1X34.6726Y-54.2136

G1X36.4859Y-54.0910

G1X38.2577Y-54.1997

G1X40.0843Y-54.5325

G1X41.8542Y-55.0495

G1X43.7834Y-55.8304

G1X45.5891Y-56.7668

G1X47.3670Y-57.8980

G1X49.1438Y-59.2393

G1X50.8073Y-60.7216

G1X52.5889Y-62.5232

G1X53.9863Y-64.1358

G1X55.3714Y-65.9760

G1X56.2483Y-67.3344

G1X56.9026Y-68.6072

G1X57.6627Y-70.4370

G1X58.2676Y-72.3181

G1X58.7088Y-74.2556

G1X59.0211Y-76.3522

G1X59.1843Y-78.8760

G1X59.1083Y-81.4372

G1X58.8034Y-84.1600

G1X58.2900Y-86.6689

G1X57.6004Y-89.1701

G1X56.8462Y-91.3080

G1X55.8402Y-93.7953

G1X53.2564Y-99.6666

G1X52.7755Y-101.2608

G1X52.5898Y-102.4901

G1X52.6295Y-103.5165

G1X52.8402Y-104.3487

G1X53.2864Y-105.1466

G1X53.9560Y-105.9005

G1X54.7150Y-106.4777

G1X55.6430Y-106.9314

G1X56.6414Y-107.1788

G1X57.5458Y-107.1844

G1X58.2485Y-107.0465

G1X58.8895Y-106.7792

G1X59.4787Y-106.3947

G1X60.0035Y-105.8944

G1X60.4618Y-105.2473

G1X60.7887Y-104.5898

G1X61.0204Y-103.8818

G1X61.1742Y-103.0205

G1X61.1730Y-101.2659

G1X60.7652Y-99.3431

G1X60.0054Y-97.4523

G1X58.8677Y-95.5042

G1X58.0098Y-94.3523

G1X57.0082Y-93.1964

G1X53.5801Y-89.9471

G1X52.5531Y-88.8832

G1X46.5807Y-81.7647

G1X44.0918Y-78.9820

G1X41.9054Y-76.6821

G1X37.4636Y-72.4136

G1X30.0120Y-65.9679

G1X28.0596Y-64.2140

G1X26.9277Y-63.0888

G1X25.8568Y-61.8500

G1X25.1360Y-60.7749

G1X24.7065Y-59.7493

G1X24.5778Y-58.7101

G1X24.6768Y-58.2034

G1X24.8869Y-57.7259

G1X25.4892Y-56.7446

G1X26.0447Y-56.0257

G1X27.4831Y-54.6173

G1X28.9831Y-53.5957

G1X30.4966Y-52.8875

G1X32.3889Y-52.3435

G1X34.2869Y-52.1040

G1X36.1592Y-52.1023

G1X38.2426Y-52.3590

G1X40.1863Y-52.8136

G1X42.3332Y-53.5598

G1X44.3850Y-54.5042

G1X46.3941Y-55.6695

G1X48.4069Y-57.0730

G1X50.2088Y-58.5726

G1X52.2611Y-60.5222

G1X54.0210Y-62.4430

G1X55.6990Y-64.6581

G1X56.7657Y-66.3933

G1X57.6717Y-68.3618

G1X58.5095Y-70.7537

G1X59.0715Y-73.1129

G1X59.4426Y-75.8199

G1X59.5574Y-78.5559

G1X59.4431Y-80.7961

G1X59.1556Y-83.1105

G1X58.7767Y-85.0941

G1X58.1925Y-87.2548

G1X57.3797Y-89.6871

G1X56.6275Y-91.5319

G1X55.2778Y-94.4236

G1X53.2075Y-98.5002

G1X52.4390Y-100.2236

G1X51.8764Y-102.1908

G1X51.7849Y-103.0274

G1X51.8207Y-103.8637

G1X52.0467Y-104.8273

G1X52.4419Y-105.6357

G1X53.1597Y-106.5218

G1X54.0046Y-107.2701

G1X54.9670Y-107.8636

G1X55.9460Y-108.2508

G1X56.8650Y-108.4368

G1X57.8870Y-108.4265

G1X58.5889Y-108.2834

G1X59.2433Y-108.0151

G1X59.8657Y-107.6234

G1X60.4171Y-107.1173

G1X60.8823Y-106.4897

G1X61.2587Y-105.7626

G1X61.4972Y-105.0609

G1X61.6586Y-104.1881

G1X61.7106Y-103.2404

G1X61.6584Y-102.3870

G1X61.2157Y-100.4173

G1X60.4151Y-98.5258

G1X59.2107Y-96.5836

G1X58.2507Y-95.3831

G1X57.1351Y-94.1993

G1X53.9679Y-91.4768

G1X52.2856Y-89.8464

G1X45.5736Y-82.0032

G1X42.7892Y-78.9993

G1X40.3572Y-76.5536

G1X35.4182Y-72.0757

G1X27.3535Y-65.5742

G1X24.1502Y-62.7629

G1X23.0002Y-61.4845

G1X22.2480Y-60.3994

G1X21.8022Y-59.3470

G1X21.6644Y-58.3658

G1X21.7208Y-57.7970

G1X21.9210Y-57.2394

G1X23.1963Y-55.2549

G1X24.7092Y-53.5861

G1X26.3095Y-52.3203

G1X27.9482Y-51.4023

G1X29.9331Y-50.6801

G1X31.9356Y-50.2854

G1X34.0917Y-50.1477

G1X36.3739Y-50.3045

G1X38.5131Y-50.6896

G1X40.8979Y-51.3970

G1X43.1075Y-52.2959

G1X45.3929Y-53.5011

G1X47.6105Y-54.9290

G1X49.6310Y-56.5008

G1X51.8259Y-58.4660

G1X53.8762Y-60.5478

G1X55.5490Y-62.6673

G1X56.8662Y-64.7020

G1X57.8741Y-66.7955

G1X58.8015Y-69.3631

G1X59.4428Y-71.9619

G1X59.8314Y-74.8609

G1X59.9350Y-77.8139

G1X59.8041Y-80.0268

G1X59.4863Y-82.3312

G1X58.9813Y-84.7582

G1X58.3698Y-86.8357

G1X57.3989Y-89.4396

G1X56.4873Y-91.5124

G1X54.6814Y-94.9487

G1X52.9343Y-98.0216

G1X51.8034Y-100.3401

G1X51.4491Y-101.3279

G1X51.2031Y-102.3569

G1X51.1119Y-103.2296

G1X51.1463Y-104.0253

G1X51.4080Y-105.1260

G1X51.8856Y-106.1188

G1X52.7108Y-107.1485

G1X53.7598Y-108.0966

G1X54.8611Y-108.8107

G1X56.0821Y-109.3224

G1X57.1549Y-109.5506

G1X58.3808Y-109.5352

G1X59.0696Y-109.3864

G1X59.8030Y-109.0751

G1X60.4087Y-108.6840

G1X60.9421Y-108.1914

G1X61.4133Y-107.5571

G1X61.7958Y-106.8178

G1X62.0638Y-106.0019

G1X62.2042Y-105.1451

G1X62.1741Y-103.3743

G1X61.7062Y-101.4561

G1X60.8868Y-99.6142

G1X59.6020Y-97.6711

G1X58.6179Y-96.5168

G1X57.3861Y-95.3188

G1X54.6213Y-93.2567

G1X52.1351Y-90.9930

G1X44.5453Y-82.2832

G1X41.4932Y-79.0951

G1X38.7883Y-76.4849

G1X36.2914Y-74.2680

G1X33.4472Y-71.8941

G1X24.7703Y-65.3246

G1X22.7057Y-63.6623

G1X21.4853Y-62.5734

G1X20.4048Y-61.4137

G1X19.6319Y-60.3602

G1X19.1706Y-59.4161

G1X18.9551Y-58.3955

G1X18.9817Y-57.6086

G1X19.1515Y-56.9439

G1X20.2639Y-55.0719

G1X21.7158Y-53.1566

G1X22.6157Y-52.2058

G1X23.4748Y-51.4481

G1X25.2649Y-50.2169

G1X27.2362Y-49.2986

G1X29.2899Y-48.6974

G1X31.6613Y-48.3541

G1X34.0950Y-48.3465

G1X36.5583Y-48.6255

G1X39.1089Y-49.2273

G1X41.5534Y-50.0687

G1X44.0258Y-51.2166

G1X46.5074Y-52.6584

G1X48.6506Y-54.1711

G1X50.9631Y-56.0916

G1X53.2336Y-58.1857

G1X54.7795Y-59.9074

G1X56.5462Y-62.3578

G1X57.8405Y-64.7082

G1X58.9811Y-67.6272

G1X59.7563Y-70.5001

G1X60.1848Y-73.3799

G1X60.3256Y-76.5452

G1X60.2183Y-78.8553

G1X59.9061Y-81.1714

G1X59.3391Y-83.8103

G1X58.6170Y-86.2486

G1X57.6695Y-88.6372

G1X56.3431Y-91.4606

G1X52.3747Y-98.1339

G1X51.3395Y-100.1643

G1X50.9268Y-101.2381

G1X50.6855Y-102.2448

G1X50.5937Y-103.2584

G1X50.6534Y-104.1410

G1X51.0081Y-105.4144

G1X51.6237Y-106.5877

G1X52.5451Y-107.7139

G1X53.8525Y-108.8936

G1X55.1373Y-109.7323

G1X56.4611Y-110.2949

G1X57.7335Y-110.5585

G1X58.9953Y-110.5272

G1X59.6917Y-110.3657

G1X60.4345Y-110.0382

G1X61.0437Y-109.6334

G1X61.5753Y-109.1293

G1X62.0261Y-108.5066

G1X62.3904Y-107.7884

G1X62.6496Y-106.9996

G1X62.7801Y-106.2229

G1X62.7520Y-104.4506

G1X62.5836Y-103.5479

G1X62.2945Y-102.5944

G1X61.3915Y-100.6461

G1X60.1198Y-98.8369

G1X59.0325Y-97.6385

G1X57.8038Y-96.5468

G1X56.6742Y-95.6959

G1X54.4079Y-94.3322

G1X52.2001Y-92.4130

G1X50.6456Y-90.7874

G1X45.7738Y-85.1278

G1X43.5018Y-82.6038

G1X40.2580Y-79.3096

G1X37.2783Y-76.5340

G1X34.6329Y-74.2881

G1X31.5667Y-71.8513

G1X22.3684Y-65.2526

G1X19.1206Y-62.6363

G1X18.0884Y-61.5769

G1X17.2406Y-60.4754

G1X16.7183Y-59.4866

G1X16.4798Y-58.5686

G1X16.4556Y-57.8507

G1X16.5697Y-57.0466

G1X16.7422Y-56.4944

G1X17.0563Y-55.8719

G1X19.0509Y-52.8243

G1X20.1366Y-51.5074

G1X21.0676Y-50.5561

G1X22.9856Y-49.0465

G1X24.9241Y-47.9894

G1X26.9464Y-47.2410

G1X29.4349Y-46.7182

G1X31.9643Y-46.5545

G1X34.6792Y-46.7091

G1X37.3444Y-47.1934

G1X40.0626Y-47.9835

G1X42.6665Y-49.0478

G1X45.3620Y-50.4647

G1X47.7391Y-51.9921

G1X50.2190Y-53.9120

G1X53.0057Y-56.3441

G1X54.6731Y-58.0819

G1X56.5578Y-60.6175

G1X58.0007Y-63.1110

G1X59.2062Y-66.0610

G1X60.0775Y-69.1178

G1X60.5537Y-72.0062

G1X60.7236Y-75.2514

G1X60.6100Y-77.9610

G1X60.2980Y-80.2889

G1X59.6922Y-82.9762

G1X58.8429Y-85.7404

G1X57.7924Y-88.2475

G1X56.1578Y-91.4438

G1X51.9703Y-98.0170

G1X51.0681Y-99.7078

G1X50.6070Y-100.8460

G1X50.3433Y-101.8655

G1X50.2463Y-102.8915

G1X50.3312Y-103.9805

G1X50.7588Y-105.4264

G1X51.5631Y-106.8823

G1X52.6626Y-108.2180

G1X54.1093Y-109.5394

G1X55.5534Y-110.5167

G1X57.0442Y-111.1714

G1X58.3879Y-111.4531

G1X59.7088Y-111.4152

G1X60.3758Y-111.2554

G1X61.1130Y-110.9256

G1X61.7205Y-110.5168

G1X62.2504Y-110.0102

G1X62.7004Y-109.3765

G1X63.0543Y-108.6524

G1X63.2799Y-107.9582

G1X63.4167Y-107.1666

G1X63.4448Y-106.2861

G1X63.3648Y-105.3619

G1X63.1787Y-104.4392

G1X62.9097Y-103.6013

G1X61.9566Y-101.6588

G1X60.7476Y-100.0182

G1X59.4599Y-98.7009

G1X58.2563Y-97.7331

G1X56.5531Y-96.6268

G1X54.2740Y-95.5241

G1X53.3555Y-94.8461

G1X52.2810Y-93.9057

G1X50.2613Y-91.8470

G1X45.1770Y-85.9617

G1X42.4537Y-82.9689

G1X39.0194Y-79.5663

G1X35.6956Y-76.5703

G1X32.9933Y-74.3692

G1X29.7242Y-71.8826

G1X20.1914Y-65.3398

G1X17.0468Y-62.8786

G1X16.0072Y-61.8611

G1X15.1175Y-60.7451

G1X14.5479Y-59.7391

G1X14.2596Y-58.8509

G1X14.1952Y-58.1404

G1X14.2713Y-57.3370

G1X14.4860Y-56.4534

G1X14.7920Y-55.7306

G1X17.0032Y-52.1240

G1X18.0306Y-50.7534

G1X18.9560Y-49.6921

G1X20.9063Y-47.9646

G1X22.8829Y-46.7401

G1X24.8917Y-45.8685

G1X27.4820Y-45.1886

G1X28.8344Y-44.9861

G1X30.1448Y-44.8918

G1X33.0658Y-44.9377

G1X35.8810Y-45.3385

G1X38.8209Y-46.0810

G1X41.5823Y-47.1002

G1X44.5226Y-48.5351

G1X47.1307Y-50.1046

G1X49.7456Y-52.0245

G1X52.9414Y-54.7129

G1X54.6918Y-56.4586

G1X56.5978Y-58.9596

G1X58.1615Y-61.5635

G1X58.7892Y-62.8828

G1X59.3985Y-64.4264

G1X60.3919Y-67.7390

G1X60.9370Y-70.7561

G1X61.1304Y-73.8901

G1X61.0241Y-76.8439

G1X60.6779Y-79.5414

G1X60.0134Y-82.3435

G1X59.0230Y-85.3449

G1X57.8480Y-88.0188

G1X55.9410Y-91.4398

G1X51.9065Y-97.4385

G1X50.9997Y-98.9810

G1X50.4670Y-100.2484

G1X50.1692Y-101.3691

G1X50.0702Y-102.4366

G1X50.1714Y-103.5447

G1X50.6616Y-105.1780

G1X51.6121Y-106.8721

G1X52.8924Y-108.4853

G1X54.6245Y-110.1188

G1X56.1171Y-111.1785

G1X57.7918Y-111.9515

G1X59.1463Y-112.2470

G1X59.8892Y-112.2687

G1X60.6154Y-112.1902

G1X61.2917Y-112.0014

G1X61.9244Y-111.6937

G1X62.5173Y-111.2749

G1X63.0330Y-110.7600

G1X63.4218Y-110.1963

G1X63.7630Y-109.4761

G1X64.0048Y-108.6766

G1X64.1168Y-107.9450

G1X64.0380Y-106.2608

G1X63.8387Y-105.3332

G1X63.5492Y-104.4679

G1X62.6590Y-102.7456

G1X61.4334Y-101.1298

G1X60.1126Y-99.8712

G1X58.6473Y-98.7973

G1X56.4161Y-97.6095

G1X54.1159Y-96.7489

G1X53.4192Y-96.3119

G1X52.5706Y-95.6409

G1X51.3926Y-94.5456

G1X49.8567Y-92.9507

G1X46.4156Y-88.9158

G1X42.1194Y-84.1226

G1X39.8316Y-81.8060

G1X37.1814Y-79.3105

G1X33.6468Y-76.2694

G1X29.6017Y-73.1843

G1X26.3647Y-70.8977

G1X18.2575Y-65.5566

G1X15.8361Y-63.7364

G1X14.4259Y-62.4851

G1X13.4776Y-61.4106

G1X12.6937Y-60.1738

G1X12.2824Y-59.0369

G1X12.1999Y-58.2504

G1X12.2834Y-57.4542

G1X12.5999Y-56.2711

G1X12.9286Y-55.4475

G1X15.2719Y-51.3689

G1X16.3046Y-49.8701

G1X17.1922Y-48.7550

G1X19.0683Y-46.9180

G1X20.9739Y-45.5944

G1X23.0851Y-44.5530

G1X25.6477Y-43.7622

G1X26.9871Y-43.4984

G1X28.3311Y-43.3412

G1X31.4788Y-43.2664

G1X34.4147Y-43.5737

G1X37.5674Y-44.2578

G1X40.4750Y-45.2200

G1X43.6100Y-46.6372

G1X46.5144Y-48.2741

G1X49.3373Y-50.2411

G1X52.8695Y-53.1264

G1X54.7757Y-54.9594

G1X55.6451Y-55.9894

G1X56.6615Y-57.3749

G1X58.3066Y-60.0347

G1X59.0067Y-61.4310

G1X59.5946Y-62.8377

G1X60.6526Y-66.1734

G1X61.3112Y-69.4920

G1X61.5474Y-72.7066

G1X61.4440Y-75.7722

G1X61.0716Y-78.7359

G1X60.4902Y-81.2409

G1X59.5680Y-84.0196

G1X58.4717Y-86.6686

G1X57.1400Y-89.1351

G1X55.1386Y-92.3121

G1X52.0429Y-96.6459

G1X50.8474Y-98.6332

G1X50.3995Y-99.7545

G1X50.1434Y-100.8511

G1X50.0740Y-101.9280

G1X50.1932Y-103.0114

G1X50.4274Y-103.8913

G1X50.8364Y-104.9450

G1X51.8357Y-106.6783

G1X53.4553Y-108.7529

G1X55.4254Y-110.6684

G1X56.9921Y-111.8237

G1X58.6999Y-112.6439

G1X59.4735Y-112.8648

G1X60.1699Y-112.9613

G1X60.9984Y-112.9609

G1X61.6979Y-112.8517

G1X62.3403Y-112.6312

G1X62.9434Y-112.2906

G1X63.5011Y-111.8410

G1X63.9768Y-111.2998

G1X64.3247Y-110.7154

G1X64.5865Y-110.0702

G1X64.7923Y-109.2583

G1X64.8755Y-108.5168

G1X64.8563Y-107.7464

G1X64.7263Y-106.8644

G1X64.2082Y-105.1947

G1X63.3318Y-103.6146

G1X62.1114Y-102.0974

G1X60.7382Y-100.8853

G1X59.0493Y-99.7898

G1X58.0375Y-99.3235

G1X56.2513Y-98.6517

G1X53.9560Y-98.0224

G1X53.2494Y-97.6545

G1X52.3305Y-96.9717

G1X51.0846Y-95.8217

G1X49.3720Y-94.0323

G1X45.6991Y-89.6932

G1X41.4145Y-84.9193

G1X39.2528Y-82.7218

G1X36.5520Y-80.1909

G1X32.8084Y-76.9819

G1X28.9900Y-74.0957

G1X24.9672Y-71.2973

G1X16.6917Y-65.9553

G1X14.4076Y-64.2750

G1X12.8879Y-62.9432

G1X11.8347Y-61.7742

G1X11.0315Y-60.5004

G1X10.5725Y-59.2110

G1X10.4787Y-58.4555

G1X10.5508Y-57.6679

G1X10.8135Y-56.6854

G1X11.3379Y-55.2634

G1X13.7892Y-50.6386

G1X14.8078Y-49.0144

G1X15.6441Y-47.8540

G1X17.4970Y-45.8547

G1X19.3435Y-44.4473

G1X21.4146Y-43.3129

G1X23.9966Y-42.4077

G1X25.3939Y-42.0794

G1X26.7446Y-41.8740

G1X28.4562Y-41.7287

G1X30.1777Y-41.6931

G1X31.6499Y-41.7590

G1X33.2489Y-41.9371

G1X36.6182Y-42.5894

G1X39.6616Y-43.5222

G1X42.8910Y-44.9034

G1X46.0818Y-46.6171

G1X49.0542Y-48.5998

G1X52.7384Y-51.5398

G1X54.8423Y-53.4944

G1X55.7292Y-54.5020

G1X56.6255Y-55.6886

G1X58.4458Y-58.5430

G1X59.2154Y-60.0148

G1X59.8505Y-61.4473

G1X60.9110Y-64.6369

G1X61.6589Y-68.1219

G1X61.8708Y-69.8208

G1X61.9695Y-71.5115

G1X61.8955Y-74.4553

G1X61.5298Y-77.5448

G1X60.9946Y-80.0883

G1X60.1419Y-82.7274

G1X58.6557Y-86.2157

G1X57.5386Y-88.2895

G1X54.8465Y-92.3390

G1X52.3148Y-95.7140

G1X50.9300Y-98.0303

G1X50.5171Y-99.0472

G1X50.2754Y-100.1731

G1X50.2455Y-101.2880

G1X50.3929Y-102.3891

G1X50.6419Y-103.2569

G1X51.0820Y-104.3158

G1X51.6528Y-105.4128

G1X52.2987Y-106.4189

G1X54.3808Y-109.0681

G1X56.4809Y-111.1756

G1X58.0865Y-112.4141

G1X59.8322Y-113.2804

G1X60.5775Y-113.4946

G1X61.2629Y-113.5844

G1X62.0913Y-113.5688

G1X62.7874Y-113.4380

G1X63.4193Y-113.1880

G1X64.0069Y-112.8074

G1X64.5435Y-112.3097

G1X64.9321Y-111.8075

G1X65.2556Y-111.1881

G1X65.4750Y-110.5319

G1X65.6751Y-109.0602

G1X65.5027Y-107.5738

G1X64.9378Y-105.9068

G1X64.1397Y-104.5081

G1X62.9512Y-103.0932

G1X62.1371Y-102.3432

G1X61.3153Y-101.7340

G1X60.3484Y-101.1529

G1X59.2728Y-100.6301

G1X57.8306Y-100.1736

G1X53.7563Y-99.3349

G1X52.9471Y-98.9778

G1X52.0118Y-98.3139

G1X50.7984Y-97.1986

G1X48.8678Y-95.1576

G1X44.9711Y-90.5016

G1X40.8437Y-85.8897

G1X38.7462Y-83.7280

G1X36.1269Y-81.2642

G1X32.1351Y-77.8359

G1X28.4511Y-75.0372

G1X23.5636Y-71.6788

G1X15.5820Y-66.5743

G1X13.1985Y-64.8609

G1X11.5090Y-63.3594

G1X10.3802Y-62.0745

G1X9.6071Y-60.7962

G1X9.1594Y-59.4789

G1X9.0487Y-58.5380

G1X9.1375Y-57.6627

G1X9.3926Y-56.7867

G1X10.0595Y-55.0592

G1X12.5960Y-49.8446

G1X13.5922Y-48.0841

G1X14.3728Y-46.8891

G1X16.1114Y-44.8201

G1X16.8772Y-44.1155

G1X17.9606Y-43.2855

G1X18.9684Y-42.6291

G1X19.9926Y-42.0813

G1X22.5325Y-41.1038

G1X23.9119Y-40.7338

G1X25.2890Y-40.4802

G1X27.1746Y-40.2731

G1X28.9993Y-40.1944

G1X30.5858Y-40.2331

G1X32.1002Y-40.3701

G1X35.7279Y-40.9963

G1X38.8855Y-41.8941

G1X42.2454Y-43.2611

G1X45.8338Y-45.1201

G1X48.8946Y-47.0910

G1X52.4876Y-49.8997

G1X55.0224Y-52.2021

G1X56.7236Y-54.2323

G1X58.6372Y-57.1858

G1X59.4647Y-58.7304

G1X60.1595Y-60.2426

G1X60.7371Y-61.7632

G1X61.2599Y-63.4527

G1X61.7204Y-65.3178

G1X62.0585Y-67.1246

G1X62.2895Y-68.9336

G1X62.3992Y-70.6190

G1X62.3368Y-73.4501

G1X61.9811Y-76.4687

G1X61.3613Y-79.4509

G1X60.5599Y-81.9302

G1X59.2741Y-84.8939

G1X57.7289Y-87.8231

G1X56.6989Y-89.3873

G1X54.5467Y-92.3823

G1X52.3061Y-95.3238

G1X51.3166Y-97.0028

G1X50.8422Y-98.1005

G1X50.5723Y-99.1966

G1X50.5316Y-100.2927

G1X50.6904Y-101.3792

G1X50.9882Y-102.4418

G1X51.3616Y-103.3391

G1X52.7945Y-105.8039

G1X55.3937Y-109.1217

G1X57.5666Y-111.4415

G1X59.2169Y-112.8387

G1X60.0997Y-113.3782

G1X60.9589Y-113.7841

G1X61.7190Y-114.0248

G1X62.4058Y-114.1211

G1X63.1489Y-114.1054

G1X63.8676Y-113.9638

G1X64.4290Y-113.7350

G1X64.9817Y-113.3601

G1X65.4871Y-112.8646

G1X65.8587Y-112.3610

G1X66.1471Y-111.8026

G1X66.3463Y-111.1784

G1X66.5187Y-109.6577

G1X66.3444Y-108.2433

G1X65.7686Y-106.6463

G1X64.9505Y-105.2394

G1X63.8249Y-103.9517

G1X62.8991Y-103.1509

G1X61.9963Y-102.5244

G1X60.9951Y-101.9951

G1X59.9507Y-101.5770

G1X58.3963Y-101.1758

G1X56.2747Y-101.0306

G1X53.6307Y-100.7281

G1X52.7227Y-100.4122

G1X51.7297Y-99.7621

G1X50.4072Y-98.5490

G1X48.3428Y-96.3225

G1X44.2305Y-91.3353

G1X40.4003Y-87.0276

G1X38.1194Y-84.6418

G1X35.7162Y-82.3592

G1X31.6429Y-78.8409

G1X27.8599Y-75.9260

G1X22.0757Y-71.9839

G1X16.2208Y-68.2851

G1X13.5430Y-66.4628

G1X12.0140Y-65.3150

G1X10.4981Y-63.9393

G1X9.3072Y-62.5622

G1X8.5247Y-61.2696

G1X8.0515Y-59.8845

G1X7.9369Y-59.0917

G1X7.9333Y-58.2038

G1X8.0480Y-57.5313

G1X8.2942Y-56.7625

G1X11.5593Y-49.2295

G1X12.5917Y-47.1516

G1X13.3052Y-45.9270

G1X14.9546Y-43.7495

G1X15.7040Y-43.0029

G1X16.6619Y-42.2053

G1X17.6305Y-41.5155

G1X18.6237Y-40.9342

G1X21.0627Y-39.8992

G1X22.5382Y-39.4518

G1X23.9258Y-39.1541

G1X25.8990Y-38.8907

G1X27.7877Y-38.7652

G1X29.4566Y-38.7668

G1X31.0038Y-38.8723

G1X32.9310Y-39.1154

G1X34.8324Y-39.4598

G1X38.2384Y-40.3626

G1X41.6769Y-41.7053

G1X45.6157Y-43.6875

G1X48.9190Y-45.7506

G1X51.9423Y-48.0502

G1X53.9067Y-49.7263

G1X55.2566Y-51.0148

G1X57.0439Y-53.1217

G1X58.8889Y-55.9688

G1X59.7613Y-57.5803

G1X60.5042Y-59.1686

G1X61.1057Y-60.7001

G1X61.6140Y-62.3015

G1X62.0833Y-64.1571

G1X62.4493Y-66.0697

G1X62.7019Y-67.9983

G1X62.8277Y-69.8027

G1X62.7835Y-72.5244

G1X62.4376Y-75.4710

G1X61.7635Y-78.6738

G1X60.9315Y-81.3059

G1X59.6365Y-84.2067

G1X57.7876Y-87.5876

G1X56.5915Y-89.3330

G1X52.6047Y-94.6268

G1X51.8399Y-95.8407

G1X51.3060Y-97.0486

G1X51.0094Y-98.1868

G1X50.9405Y-99.2412

G1X51.0888Y-100.3118

G1X51.4199Y-101.3850

G1X51.9448Y-102.6115

G1X52.5316Y-103.6526

G1X53.3963Y-104.9512

G1X54.6130Y-106.6080

G1X57.0945Y-109.6239

G1X59.2629Y-112.0286

G1X60.7679Y-113.3701

G1X61.6548Y-113.9275

G1X62.4184Y-114.2922

G1X63.0822Y-114.5013

G1X63.7562Y-114.5837

G1X64.4735Y-114.5390

G1X65.0694Y-114.3934

G1X65.6126Y-114.1433

G1X66.0555Y-113.8099

G1X66.5171Y-113.3124

G1X66.8604Y-112.8024

G1X67.2954Y-111.6661

G1X67.4118Y-110.2097

G1X67.2118Y-108.7543

G1X66.6897Y-107.3665

G1X65.8345Y-105.9299

G1X64.7658Y-104.7055

G1X63.8011Y-103.9076

G1X62.7610Y-103.2365

G1X61.7589Y-102.7483

G1X60.5792Y-102.3619

G1X58.5775Y-102.0409

G1X55.8496Y-102.2933

G1X53.6313Y-102.2018

G1X52.4555Y-101.8895

G1X51.4013Y-101.2477

G1X50.0186Y-99.9790

G1X47.7967Y-97.5239

G1X43.5383Y-92.2626

G1X40.1120Y-88.3669

G1X37.6394Y-85.7288

G1X35.3811Y-83.5360

G1X31.3380Y-80.0019

G1X27.2166Y-76.7691

G1X20.6055Y-72.2701

G1X14.9702Y-68.6722

G1X11.1389Y-65.8658

G1X9.6742Y-64.5091

G1X8.4460Y-63.0244

G1X7.6463Y-61.6280

G1X7.2044Y-60.2550

G1X7.0970Y-59.4469

G1X7.0923Y-58.5387

G1X7.1822Y-57.7518

G1X7.3930Y-56.9947

G1X9.6165Y-51.6506

G1X11.0050Y-48.0558

G1X11.8379Y-46.1210

G1X12.4830Y-44.8737

G1X13.2703Y-43.6193

G1X13.9891Y-42.6548

G1X14.6206Y-41.9662

G1X15.6223Y-41.0602

G1X16.5825Y-40.3315

G1X17.4860Y-39.7703

G1X19.8841Y-38.6834

G1X21.4346Y-38.1784

G1X22.9225Y-37.8363

G1X24.8898Y-37.5482

G1X26.8812Y-37.3890

G1X28.5586Y-37.3676

G1X30.2342Y-37.4607

G1X32.2371Y-37.6945

G1X34.2261Y-38.0358

G1X36.0368Y-38.4448

G1X37.8244Y-38.9532

G1X41.1955Y-40.2342

G1X43.2375Y-41.1820

G1X45.3653Y-42.2861

G1X47.2166Y-43.3474

G1X49.0040Y-44.4892

G1X52.0270Y-46.7493

G1X53.9153Y-48.3721

G1X55.3538Y-49.7336

G1X57.2902Y-51.9585

G1X59.0705Y-54.6648

G1X59.9470Y-56.2490

G1X60.7509Y-57.9126

G1X61.4165Y-59.5308

G1X61.9629Y-61.1596

G1X62.4426Y-62.9859

G1X62.8204Y-64.8844

G1X63.0896Y-66.8156

G1X63.2435Y-68.7398

G1X63.2406Y-71.5347

G1X62.9119Y-74.4826

G1X62.2492Y-77.6391

G1X61.3172Y-80.6794

G1X59.9819Y-83.6253

G1X57.8347Y-87.3874

G1X56.8384Y-88.8298

G1X54.7734Y-91.4712

G1X53.1746Y-93.6713

G1X52.1616Y-95.2577

G1X51.7287Y-96.3482

G1X51.5193Y-97.3385

G1X51.4874Y-98.3125

G1X51.6354Y-99.3787

G1X51.9015Y-100.2205

G1X52.3726Y-101.2572

G1X53.0941Y-102.5514

G1X53.8079Y-103.6116

G1X55.8220Y-106.1890

G1X59.9392Y-111.2051

G1X61.5157Y-112.9772

G1X62.6939Y-114.0114

G1X64.0852Y-114.7670

G1X64.6404Y-114.9225

G1X65.2099Y-114.9655

G1X66.3132Y-114.7509

G1X66.7702Y-114.5224

G1X67.2178Y-114.1560

G1X67.6383Y-113.6320

G1X67.9499Y-113.0870

G1X68.3141Y-111.9438

G1X68.3505Y-110.6140

G1X68.1049Y-109.1715

G1X67.5962Y-107.8612

G1X66.6632Y-106.3942

G1X65.5691Y-105.1890

G1X64.6054Y-104.4356

G1X63.4396Y-103.7614

G1X62.2389Y-103.2670

G1X61.0545Y-102.9810

G1X59.8393Y-102.8665

G1X58.5323Y-102.8966

G1X57.7440Y-103.0506

G1X55.6860Y-103.6715

G1X53.9332Y-103.7568

G1X53.0607Y-103.6794

G1X52.3681Y-103.5042

G1X51.6553Y-103.1845

G1X51.0464Y-102.7854

G1X49.6309Y-101.4860

G1X47.2218Y-98.7483

G1X42.9031Y-93.2939

G1X39.9642Y-89.8972

G1X37.2760Y-86.9652

G1X34.9589Y-84.6505

G1X30.9334Y-81.0820

G1X26.3644Y-77.4545

G1X22.8814Y-75.0165

G1X13.9815Y-69.1437

G1X10.6782Y-66.6234

G1X9.1597Y-65.2028

G1X7.9781Y-63.7487

G1X7.1471Y-62.2860

G1X6.6391Y-60.7409

G1X6.5335Y-59.9446

G1X6.5254Y-59.0478

G1X6.6287Y-58.0552

G1X6.8201Y-57.1853

G1X8.5073Y-53.1025

G1X9.4043Y-50.6351

G1X11.0715Y-45.5912

G1X11.9696Y-43.5442

G1X12.5990Y-42.4132

G1X13.2259Y-41.4934

G1X14.7799Y-39.8720

G1X15.6281Y-39.1893

G1X16.5054Y-38.6121

G1X18.7573Y-37.5283

G1X20.3699Y-36.9636

G1X21.9483Y-36.5726

G1X24.0225Y-36.2466

G1X26.0164Y-36.0654

G1X27.8071Y-36.0224

G1X29.5278Y-36.1003

G1X31.6273Y-36.3310

G1X33.7283Y-36.6784

G1X35.6554Y-37.1022

G1X37.4589Y-37.6016

G1X39.1594Y-38.1821

G1X40.9511Y-38.9066

G1X43.0057Y-39.8536

G1X45.2430Y-41.0033

G1X47.4420Y-42.2450

G1X49.3192Y-43.4228

G1X50.8592Y-44.5031

G1X52.3432Y-45.6683

G1X55.5564Y-48.5987

G1X57.6144Y-50.9507

G1X59.3744Y-53.6027

G1X60.2947Y-55.2647

G1X61.1423Y-57.0194

G1X61.8501Y-58.7376

G1X62.4095Y-60.3849

G1X62.8657Y-62.1046

G1X63.2409Y-63.9792

G1X63.5096Y-65.8974

G1X63.6682Y-67.8216

G1X63.6792Y-70.8927

G1X63.3632Y-73.7478

G1X62.6728Y-76.9415

G1X61.6504Y-80.2151

G1X61.0354Y-81.6872

G1X60.2869Y-83.1833

G1X57.9472Y-87.1115

G1X56.8566Y-88.6789

G1X54.4919Y-91.6822

G1X52.7267Y-94.4270

G1X52.3370Y-95.3448

G1X52.1293Y-96.3122

G1X52.1117Y-97.3036

G1X52.2967Y-98.3905

G1X52.5996Y-99.3354

G1X53.0126Y-100.1964

G1X54.6695Y-102.6930

G1X60.0331Y-108.9274

G1X62.2058Y-111.8666

G1X63.6443Y-113.6569

G1X64.5890Y-114.5050

G1X65.7040Y-115.1218

G1X66.5332Y-115.2760

G1X67.5116Y-115.0755

G1X67.9717Y-114.8329

G1X68.3685Y-114.4945

G1X68.9562Y-113.5622

G1X69.3418Y-112.2472

G1X69.3343Y-110.9721

G1X69.0091Y-109.4569

G1X68.4385Y-108.0905

G1X67.5462Y-106.7846

G1X66.4053Y-105.5902

G1X65.3793Y-104.8106

G1X64.1071Y-104.1483

G1X62.7580Y-103.6970

G1X61.4884Y-103.4867

G1X59.9682Y-103.5254

G1X58.2585Y-103.8386

G1X57.5083Y-104.1206

G1X55.5556Y-105.0898

G1X54.9908Y-105.2611

G1X54.4199Y-105.3309

G1X53.3731Y-105.3526

G1X52.4103Y-105.2116

G1X51.5218Y-104.8901

G1X50.6495Y-104.3626

G1X49.5340Y-103.3730

G1X48.1000Y-101.7635

G1X45.8896Y-99.0923

G1X42.1755Y-94.2454

G1X40.0156Y-91.6938

G1X37.0522Y-88.3820

G1X34.4682Y-85.7234

G1X30.4747Y-82.1176

G1X25.4834Y-78.1122

G1X22.6721Y-76.0927

G1X13.4053Y-69.8128

G1X10.5757Y-67.5862

G1X8.8538Y-65.9294

G1X7.6704Y-64.4348

G1X6.8237Y-62.8614

G1X6.3020Y-61.0992

G1X6.2146Y-60.2963

G1X6.2312Y-59.3917

G1X6.6182Y-57.2123

G1X6.9560Y-56.2817

G1X7.9187Y-54.1516

G1X8.5648Y-52.3322

G1X9.3381Y-49.8090

G1X10.7831Y-44.2468

G1X11.1443Y-43.1917

G1X11.7467Y-41.8065

G1X12.2151Y-40.9150

G1X12.7281Y-40.1448

G1X13.4883Y-39.2600

G1X14.3166Y-38.4560

G1X15.8376Y-37.3533

G1X17.9822Y-36.3037

G1X19.6131Y-35.7199

G1X21.2194Y-35.3146

G1X23.4660Y-34.9575

G1X25.6567Y-34.7629

G1X27.5538Y-34.7283

G1X29.3457Y-34.8242

G1X31.5438Y-35.0820

G1X33.8454Y-35.4837

G1X35.8662Y-35.9505

G1X37.7506Y-36.4959

G1X39.4430Y-37.0974

G1X41.3296Y-37.8877

G1X43.5595Y-38.9519

G1X46.0237Y-40.2594

G1X48.4025Y-41.6367

G1X50.3240Y-42.8770

G1X51.7548Y-43.9173

G1X53.1446Y-45.0543

G1X54.8180Y-46.5807

G1X56.2204Y-47.9901

G1X58.3051Y-50.4807

G1X60.0234Y-53.1702

G1X60.9137Y-54.8442

G1X61.7306Y-56.6052

G1X62.4122Y-58.3258

G1X62.9528Y-59.9734

G1X63.3950Y-61.7039

G1X63.7309Y-63.4750

G1X63.9701Y-65.2892

G1X64.1164Y-67.2165

G1X64.1077Y-70.4874

G1X63.7799Y-73.3186

G1X63.0486Y-76.5153

G1X61.9266Y-79.9304

G1X60.9246Y-82.1748

G1X59.4755Y-84.6827

G1X57.3602Y-87.9281

G1X54.6540Y-91.4184

G1X53.5140Y-93.3302

G1X53.0731Y-94.3144

G1X52.8409Y-95.2014

G1X52.7936Y-96.1483

G1X52.9406Y-97.1009

G1X53.2135Y-97.9577

G1X53.6422Y-98.9209

G1X54.6079Y-100.4555

G1X56.7238Y-102.9915

G1X59.7431Y-106.0430

G1X62.0332Y-108.6515

G1X62.9916Y-109.9322

G1X64.3605Y-112.1663

G1X65.8062Y-114.2776

G1X66.5490Y-114.9500

G1X67.2815Y-115.3722

G1X67.9173Y-115.5188

G1X68.6517Y-115.3807

G1X69.4481Y-114.8790

G1X69.9734Y-114.0813

G1X70.3545Y-112.7513

G1X70.3818Y-111.4469

G1X70.0356Y-109.9589

G1X69.3730Y-108.4041

G1X68.5917Y-107.2402

G1X67.4606Y-106.0657

G1X66.1661Y-105.0894

G1X64.9274Y-104.4690

G1X63.4579Y-104.0480

G1X61.9745Y-103.8956

G1X61.1872Y-103.9368

G1X60.3012Y-104.0962

G1X58.2449Y-104.7773

G1X57.3473Y-105.2166

G1X55.3424Y-106.5481

G1X54.2793Y-106.9482

G1X53.1505Y-107.0273

G1X52.1055Y-106.8865

G1X51.1349Y-106.5328

G1X50.1460Y-105.9284

G1X49.0706Y-104.9561

G1X47.7716Y-103.4631

G1X45.2175Y-100.2706

G1X41.4766Y-95.2616

G1X39.3269Y-92.6710

G1X35.7557Y-88.6677

G1X32.5894Y-85.4683

G1X29.1368Y-82.4081

G1X24.7060Y-78.8439

G1X22.2580Y-77.0232

G1X17.3700Y-73.6537

G1X12.7207Y-70.3257

G1X10.9970Y-68.9492

G1X9.3359Y-67.3706

G1X7.8000Y-65.5176

G1X7.2454Y-64.6333

G1X6.8218Y-63.7641

G1X6.4840Y-62.8022

G1X6.2675Y-61.8435

G1X6.1495Y-60.7760

G1X6.1775Y-59.8707

G1X6.3699Y-58.6672

G1X6.8053Y-56.9926

G1X8.1357Y-53.8392

G1X8.8379Y-51.6009

G1X9.4631Y-49.0253

G1X10.5829Y-42.9590

G1X11.1142Y-41.2311

G1X11.6517Y-39.9156

G1X12.1698Y-39.0237

G1X12.8220Y-38.1876

G1X13.6139Y-37.3513

G1X14.3913Y-36.6952

G1X15.2075Y-36.1464

G1X16.2846Y-35.5676

G1X18.6243Y-34.6068

G1X20.4137Y-34.1213

G1X22.5849Y-33.7563

G1X24.9385Y-33.5246

G1X27.1399Y-33.4730

G1X29.1441Y-33.5845

G1X31.5299Y-33.8833

G1X33.9301Y-34.3256

G1X36.2448Y-34.8896

G1X38.2982Y-35.5212

G1X40.2663Y-36.2740

G1X42.4212Y-37.2478

G1X44.7874Y-38.4565

G1X47.7248Y-40.1087

G1X50.0550Y-41.5416

G1X51.8979Y-42.8294

G1X53.5882Y-44.2013

G1X56.2788Y-46.7966

G1X58.4391Y-49.3199

G1X60.0919Y-51.7717

G1X61.7469Y-54.9286

G1X63.0131Y-58.0668

G1X63.8909Y-61.1764

G1X64.4252Y-64.5580

G1X64.6059Y-68.0158

G1X64.4763Y-70.9650

G1X64.0922Y-73.5180

G1X63.3518Y-76.4165

G1X62.2509Y-79.5772

G1X61.3304Y-81.6641

G1X60.0680Y-83.8612

G1X57.5658Y-87.6455

G1X55.3078Y-90.6046

G1X54.5541Y-91.8081

G1X53.9875Y-93.0248

G1X53.6721Y-94.0548

G1X53.5760Y-95.0792

G1X53.6949Y-96.0132

G1X54.0013Y-96.9377

G1X54.4596Y-97.8648

G1X55.2725Y-99.1477

G1X55.9719Y-100.0360

G1X58.9273Y-103.0389

G1X62.3811Y-106.1259

G1X63.5339Y-107.3712

G1X64.4801Y-108.5366

G1X65.4752Y-110.0210

G1X67.2846Y-113.7808

G1X67.8893Y-114.7578

G1X68.3554Y-115.2116

G1X68.8843Y-115.5546

G1X69.3277Y-115.6911

G1X69.8207Y-115.6351

G1X70.3200Y-115.3855

G1X70.7818Y-114.9622

G1X71.0754Y-114.4861

G1X71.2868Y-113.8174

G1X71.4298Y-112.9354

G1X71.4446Y-111.9541

G1X71.3351Y-111.1791

G1X71.0643Y-110.2785

G1X70.2235Y-108.4929

G1X69.7027Y-107.6995

G1X69.1238Y-107.0063

G1X68.3819Y-106.3027

G1X67.5477Y-105.6593

G1X66.6639Y-105.1095

G1X65.8614Y-104.7222

G1X64.7185Y-104.3652

G1X63.4120Y-104.1916

G1X62.1042Y-104.2312

G1X60.8618Y-104.4857

G1X59.5679Y-105.0201

G1X57.6422Y-106.0712

G1X54.9029Y-108.1716

G1X54.2300Y-108.5307

G1X53.6196Y-108.6926

G1X52.5007Y-108.7387

G1X51.4642Y-108.5304

G1X50.4067Y-108.0584

G1X49.4055Y-107.3657

G1X48.4141Y-106.3986

G1X47.2123Y-104.9489

G1X44.6672Y-101.6475

G1X41.3350Y-97.0472

G1X39.6162Y-94.8332

G1X36.4549Y-91.1472

G1X33.4486Y-87.9041

G1X30.0779Y-84.6608

G1X25.7715Y-81.0323

G1X21.9019Y-77.9984

G1X16.5628Y-74.2007

G1X14.1005Y-72.3535

G1X10.7085Y-69.6146

G1X9.1445Y-68.0109

G1X7.9160Y-66.4001

G1X7.0227Y-64.7671

G1X6.5391Y-63.2735

G1X6.3259Y-61.3993

G1X6.3407Y-60.6071

G1X6.4648Y-59.7104

G1X7.2459Y-56.9512

G1X8.5518Y-53.7195

G1X9.1968Y-51.3848

G1X9.7440Y-48.3965

G1X10.4219Y-41.9856

G1X11.0959Y-39.2480

G1X11.4381Y-38.4150

G1X11.8468Y-37.7071

G1X12.5156Y-36.8113

G1X13.2471Y-36.0307

G1X14.7026Y-34.9334

G1X16.7587Y-33.9011

G1X18.5758Y-33.2488

G1X20.4281Y-32.8065

G1X23.0892Y-32.4290

G1X25.7251Y-32.2608

G1X27.8622Y-32.2954

G1X30.0450Y-32.5056

G1X32.5831Y-32.9125

G1X35.1977Y-33.4911

G1X37.4826Y-34.1382

G1X39.4737Y-34.8351

G1X41.5266Y-35.7115

G1X43.7357Y-36.8010

G1X46.7057Y-38.4437

G1X49.9948Y-40.4299

G1X52.0398Y-41.8207

G1X53.8181Y-43.2305

G1X56.4477Y-45.7679

G1X58.7343Y-48.4297

G1X60.4696Y-50.9552

G1X61.9975Y-53.8213

G1X63.3575Y-57.1011

G1X64.3052Y-60.3026

G1X64.8473Y-63.4460

G1X65.0702Y-66.9001

G1X64.9872Y-69.7996

G1X64.6800Y-72.3708

G1X64.0730Y-75.0025

G1X63.1208Y-77.9059

G1X61.9830Y-80.7002

G1X60.9168Y-82.7034

G1X57.6695Y-87.6066

G1X55.7482Y-90.2410

G1X55.1592Y-91.2312

G1X54.7463Y-92.2743

G1X54.5074Y-93.2626

G1X54.4567Y-94.2179

G1X54.5799Y-95.0898

G1X54.9012Y-96.0393

G1X55.4538Y-97.0511

G1X56.3048Y-98.2330

G1X57.4509Y-99.5598

G1X58.7651Y-100.7894

G1X61.4562Y-103.0333

G1X64.8583Y-105.6886

G1X66.4069Y-107.3122

G1X67.3146Y-108.5883

G1X68.0164Y-109.8700

G1X69.3384Y-114.0106

G1X69.6981Y-114.8605

G1X70.0132Y-115.2807

G1X70.4455Y-115.6486

G1X70.8943Y-115.8191

G1X71.2142Y-115.7767

G1X71.7062Y-115.4598

G1X72.1062Y-114.9795

G1X72.3485Y-114.4511

G1X72.4783Y-113.7270

G1X72.5164Y-112.6475

G1X72.4221Y-111.6669

G1X72.2118Y-110.7937

G1X71.8525Y-109.9142

G1X70.7631Y-108.0648

G1X70.1182Y-107.2498

G1X69.4930Y-106.6152

G1X68.7014Y-105.9801

G1X67.8216Y-105.4134

G1X66.8950Y-104.9414

G1X65.9630Y-104.5901

G1X64.8124Y-104.3496

G1X63.4991Y-104.3252

G1X62.1893Y-104.5307

G1X60.8667Y-104.9699

G1X59.5880Y-105.7130

G1X57.2222Y-107.4463

G1X54.5002Y-109.8193

G1X53.9317Y-110.1790

G1X53.3613Y-110.4076

G1X52.2628Y-110.5205

G1X51.2416Y-110.3527

G1X50.1122Y-109.8736

G1X48.9924Y-109.1161

G1X48.0318Y-108.1986

G1X46.8883Y-106.8047

G1X43.7617Y-102.5754

G1X40.4269Y-97.8484

G1X38.8778Y-95.8073

G1X36.0697Y-92.4696

G1X33.2557Y-89.3603

G1X30.0498Y-86.1313

G1X26.5538Y-83.0456

G1X21.0931Y-78.6356

G1X14.8764Y-74.0157

G1X12.3703Y-71.9569

G1X10.8146Y-70.5677

G1X9.4379Y-69.1213

G1X8.2688Y-67.5350

G1X7.4514Y-65.9949

G1X6.8911Y-64.3456

G1X6.7402Y-63.4330

G1X6.6885Y-62.4267

G1X6.7562Y-61.1317

G1X6.8946Y-60.2471

G1X7.9960Y-56.8618

G1X9.2117Y-53.6206

G1X9.5804Y-52.1630

G1X9.8868Y-50.4775

G1X10.1968Y-47.5609

G1X10.3811Y-40.9778

G1X10.6224Y-39.1847

G1X10.8748Y-38.0106

G1X11.1344Y-37.2637

G1X11.4981Y-36.5581

G1X12.0720Y-35.7077

G1X12.7024Y-34.9731

G1X13.9229Y-33.9607

G1X15.7339Y-32.9697

G1X17.6521Y-32.2121

G1X19.5607Y-31.7051

G1X22.1248Y-31.3116

G1X24.8062Y-31.1008

G1X27.0311Y-31.0931

G1X29.1679Y-31.2530

G1X31.8324Y-31.6561

G1X34.5292Y-32.2360

G1X36.9289Y-32.8938

G1X39.2393Y-33.6719

G1X41.1982Y-34.4822

G1X43.3235Y-35.5159

G1X46.3415Y-37.1924

G1X49.9949Y-39.4298

G1X52.2306Y-40.9321

G1X54.0770Y-42.3647

G1X56.5129Y-44.6817

G1X58.8673Y-47.3847

G1X60.7517Y-50.0459

G1X62.2415Y-52.7445

G1X63.6304Y-55.9685

G1X64.6674Y-59.2543

G1X65.2764Y-62.3790

G1X65.5457Y-65.7261

G1X65.5069Y-68.6707

G1X65.2245Y-71.5024

G1X64.7179Y-73.9374

G1X63.9248Y-76.5017

G1X62.6580Y-79.6952

G1X61.5694Y-81.9251

G1X60.5690Y-83.5410

G1X56.5164Y-89.5514

G1X55.9219Y-90.5817

G1X55.6165Y-91.3721

G1X55.4124Y-92.4041

G1X55.3966Y-93.2894

G1X55.5403Y-94.1604

G1X56.0062Y-95.3945

G1X56.6794Y-96.4712

G1X57.7919Y-97.7900

G1X59.2507Y-99.2228

G1X61.2778Y-100.8221

G1X67.5720Y-105.1568

G1X68.4060Y-105.8639

G1X69.1338Y-106.6787

G1X69.9516Y-107.9576

G1X70.6336Y-109.5628

G1X70.8324Y-110.4783

G1X71.3436Y-114.1938

G1X71.5364Y-114.9843

G1X71.7201Y-115.3457

G1X72.0264Y-115.7014

G1X72.3635Y-115.8870

G1X72.6063Y-115.8825

G1X72.9977Y-115.5762

G1X73.3749Y-115.0032

G1X73.5932Y-114.3339

G1X73.6362Y-113.7183

G1X73.5577Y-112.5125

G1X73.3394Y-111.3486

G1X73.0271Y-110.3965

G1X72.5801Y-109.5099

G1X71.2752Y-107.6600

G1X70.4872Y-106.8082

G1X69.7338Y-106.1510

G1X68.9013Y-105.5886

G1X67.8905Y-105.0595

G1X66.9296Y-104.6829

G1X65.9683Y-104.4258

G1X64.7311Y-104.3007

G1X63.4532Y-104.4389

G1X62.1930Y-104.8151

G1X60.8042Y-105.4788

G1X59.4359Y-106.5246

G1X54.4427Y-111.2143

G1X53.6472Y-111.8167

G1X53.0123Y-112.1432

G1X52.0525Y-112.3221

G1X50.9525Y-112.1973

G1X49.8463Y-111.7546

G1X48.7220Y-111.0183

G1X47.6407Y-110.0406

G1X46.4874Y-108.6304

G1X39.8083Y-99.0682

G1X38.1024Y-96.7514

G1X35.8201Y-93.9711

G1X33.2602Y-91.0646

G1X29.8250Y-87.4713

G1X26.8063Y-84.6674

G1X20.1848Y-79.1771

G1X14.4051Y-74.6849

G1X11.3799Y-71.9534

G1X9.8785Y-70.3492

G1X8.7954Y-68.8856

G1X7.9703Y-67.3122

G1X7.4381Y-65.6876

G1X7.2375Y-64.6224

G1X7.1876Y-63.6041

G1X7.2630Y-62.4967

G1X7.4839Y-61.1072

G1X7.8029Y-59.9695

G1X8.7107Y-57.6183

G1X9.8984Y-54.1773

G1X10.2696Y-52.5969

G1X10.5500Y-50.6954

G1X10.7111Y-48.7382

G1X10.7419Y-47.1175

G1X10.4331Y-39.8873

G1X10.5460Y-37.9468

G1X10.7029Y-36.8550

G1X11.1544Y-35.5557

G1X11.6235Y-34.7487

G1X12.1372Y-34.0577

G1X13.2664Y-32.9956

G1X14.7852Y-32.0805

G1X16.6815Y-31.2533

G1X18.7293Y-30.6443

G1X21.0509Y-30.2472

G1X23.8104Y-29.9904

G1X26.2997Y-29.9403

G1X28.6640Y-30.0792

G1X31.1847Y-30.4457

G1X33.8457Y-31.0102

G1X36.4502Y-31.7159

G1X38.9856Y-32.5559

G1X41.0444Y-33.3785

G1X43.1835Y-34.4071

G1X45.9721Y-35.9643

G1X49.3690Y-38.0838

G1X52.3012Y-40.0417

G1X54.4015Y-41.6417

G1X56.5970Y-43.6776

G1X59.0734Y-46.4899

G1X60.9858Y-49.1287

G1X62.5502Y-51.8491

G1X63.9978Y-55.1208

G1X65.0720Y-58.3978

G1X65.7357Y-61.5201

G1X66.0405Y-64.7350

G1X66.0381Y-67.6936

G1X65.7924Y-70.5637

G1X65.3898Y-72.8477

G1X64.6719Y-75.3609

G1X63.5464Y-78.3096

G1X62.1301Y-81.3817

G1X61.1296Y-83.0463

G1X58.8958Y-86.3410

G1X56.8261Y-89.8696

G1X56.5375Y-90.6225

G1X56.3868Y-91.4171

G1X56.3809Y-92.2972

G1X56.5293Y-93.1534

G1X57.0054Y-94.3741

G1X57.8100Y-95.6457

G1X58.8978Y-96.8533

G1X60.4763Y-98.2579

G1X61.9018Y-99.3660

G1X62.9771Y-100.0858

G1X70.3975Y-104.4263

G1X71.3523Y-105.1442

G1X72.0202Y-105.8654

G1X72.7251Y-107.1186

G1X73.2437Y-108.9058

G1X73.3493Y-110.0343

G1X73.2683Y-112.2699

G1X73.2997Y-114.9307

G1X73.3936Y-115.3545

G1X73.5734Y-115.6939

G1X73.7987Y-115.9001

G1X74.0263Y-115.9376

G1X74.3416Y-115.5917

G1X74.6547Y-114.8739

G1X74.7876Y-114.1479

G1X74.7658Y-113.5261

G1X74.5337Y-112.2091

G1X74.1891Y-110.9932

G1X73.7248Y-109.8825

G1X73.2017Y-109.0136

G1X72.4818Y-108.0698

G1X71.6327Y-107.1365

G1X70.7837Y-106.3499

G1X69.9067Y-105.6852

G1X68.9551Y-105.1422

G1X67.9921Y-104.7350

G1X66.9928Y-104.4361

G1X65.9936Y-104.2597

G1X64.7500Y-104.2371

G1X63.5350Y-104.4839

G1X62.2704Y-105.0229

G1X60.8584Y-105.9143

G1X59.6964Y-106.9181

G1X57.1908Y-109.8162

G1X54.7954Y-112.2079

G1X53.6928Y-113.1991

G1X52.7487Y-113.8235

G1X51.8718Y-114.1081

G1X50.8007Y-114.0923

G1X49.7380Y-113.7502

G1X48.5799Y-113.0542

G1X47.2966Y-111.9621

G1X46.2366Y-110.7159

G1X37.9080Y-98.4944

G1X35.8938Y-95.8944

G1X33.0866Y-92.6067

G1X29.5482Y-88.8006

G1X26.4094Y-85.7560

G1X19.0835Y-79.5310

G1X14.4200Y-75.7244

G1X12.2797Y-73.7400

G1X10.6735Y-72.0018

G1X9.4850Y-70.4328

G1X8.6606Y-68.9726

G1X8.1469Y-67.5225

G1X7.9356Y-66.4840

G1X7.8083Y-65.2435

G1X7.8396Y-64.2344

G1X8.0035Y-63.1417

G1X8.5452Y-61.0047

G1X9.7512Y-58.0172

G1X10.6778Y-55.1378

G1X11.0860Y-53.3134

G1X11.3559Y-51.0292

G1X11.4443Y-49.0554

G1X11.4179Y-47.3500

G1X11.0664Y-43.1162

G1X10.5627Y-39.0857

G1X10.5144Y-36.8384

G1X10.6034Y-35.6557

G1X10.9449Y-34.4627

G1X11.7246Y-33.0996

G1X12.5874Y-32.1544

G1X13.7786Y-31.3062

G1X15.6482Y-30.3890

G1X17.6516Y-29.7000

G1X19.6341Y-29.2676

G1X22.2419Y-28.9649

G1X25.1316Y-28.8309

G1X27.7807Y-28.9149

G1X30.0962Y-29.1853

G1X32.8367Y-29.7303

G1X35.5987Y-30.4609

G1X38.3443Y-31.3509

G1X40.9450Y-32.3594

G1X43.0947Y-33.3696

G1X45.5394Y-34.7261

G1X48.1973Y-36.3913

G1X52.1743Y-39.0877

G1X54.5620Y-40.8760

G1X56.8995Y-42.9814

G1X59.1947Y-45.5528

G1X61.2340Y-48.2977

G1X62.8976Y-51.0826

G1X64.3435Y-54.2439

G1X65.4677Y-57.5109

G1X66.1986Y-60.6567

G1X66.5523Y-63.7498

G1X66.5978Y-66.6253

G1X66.4068Y-69.4607

G1X66.0265Y-71.9975

G1X65.3937Y-74.4125

G1X64.2892Y-77.3992

G1X62.6743Y-80.9689

G1X61.7368Y-82.5871

G1X59.4466Y-86.0331

G1X57.8976Y-88.9858

G1X57.5732Y-89.8576

G1X57.4227Y-90.6369

G1X57.4251Y-91.3587

G1X57.5757Y-92.1876

G1X58.1410Y-93.5425

G1X59.0614Y-94.8748

G1X60.2464Y-96.1124

G1X61.9039Y-97.4408

G1X63.6666Y-98.6401

G1X65.3388Y-99.6370

G1X70.1082Y-101.8240

G1X73.2310Y-103.4385

G1X74.3346Y-104.1716

G1X75.0162Y-104.8757

G1X75.3742Y-105.4840

G1X75.6357Y-106.2294

G1X75.7953Y-107.1109

G1X75.8979Y-108.4111

G1X75.8293Y-109.6284

G1X75.4065Y-112.0661

G1X75.0359Y-114.9484

G1X75.0509Y-115.4669

G1X75.1368Y-115.7357

G1X75.2621Y-115.9091

G1X75.4635Y-115.9533

G1X75.6891Y-115.4593

G1X75.8829Y-114.5882

G1X75.9123Y-113.8467

G1X75.8139Y-113.1683

G1X75.4219Y-111.8102

G1X74.9344Y-110.5382

G1X74.3412Y-109.3703

G1X73.7452Y-108.5001

G1X72.9086Y-107.5507

G1X71.9232Y-106.6172

G1X70.9373Y-105.8318

G1X69.9304Y-105.1779

G1X69.0678Y-104.7539

G1X68.0782Y-104.4073

G1X67.0560Y-104.1788

G1X66.0330Y-104.0772

G1X64.7545Y-104.1493

G1X63.6691Y-104.4407

G1X62.5694Y-105.0057

G1X61.4316Y-105.8511

G1X60.2167Y-106.9607

G1X59.5965Y-107.6391

G1X57.2889Y-110.8376

G1X56.3823Y-111.9442

G1X54.1153Y-114.2150

G1X52.5937Y-115.4093

G1X51.5744Y-115.8717

G1X50.5417Y-115.9516

G1X49.4920Y-115.6893

G1X48.3641Y-115.0633

G1X46.7768Y-113.7145

G1X45.6361Y-112.3709

G1X37.4588Y-99.9504

G1X35.5874Y-97.4056

G1X33.0438Y-94.3250

G1X29.4680Y-90.3671

G1X25.9245Y-86.7855

G1X23.5892Y-84.6762

G1X14.6996Y-76.9995

G1X12.7051Y-75.1221

G1X11.2640Y-73.4902

G1X10.1733Y-72.0001

G1X9.3223Y-70.4946

G1X8.8104Y-69.1546

G1X8.6064Y-68.1596

G1X8.5209Y-67.0911

G1X8.5374Y-65.8347

G1X8.6726Y-64.8304

G1X9.4999Y-61.9959

G1X10.7941Y-58.8534

G1X11.4927Y-56.5770

G1X11.9925Y-54.2559

G1X12.2406Y-51.6882

G1X12.2733Y-49.1968

G1X12.1303Y-46.8868

G1X11.5776Y-42.6509

G1X10.7483Y-38.1076

G1X10.5355Y-35.7256

G1X10.5546Y-34.4500

G1X10.8095Y-33.3583

G1X11.4873Y-32.0275

G1X12.2427Y-31.1254

G1X13.2936Y-30.3120

G1X15.0419Y-29.4122

G1X17.0556Y-28.6794

G1X19.0873Y-28.2014

G1X21.3732Y-27.9203

G1X24.3272Y-27.7640

G1X27.2301Y-27.8245

G1X29.8894Y-28.1050

G1X32.4743Y-28.6198

G1X35.2954Y-29.3897

G1X38.2390Y-30.3787

G1X41.1479Y-31.5376

G1X43.5334Y-32.6645

G1X45.8014Y-33.9439

G1X48.2105Y-35.4881

G1X52.0724Y-38.2042

G1X54.6116Y-40.1116

G1X57.1066Y-42.2915

G1X59.2530Y-44.6194

G1X61.4460Y-47.4797

G1X63.2185Y-50.3290

G1X64.6835Y-53.3866

G1X65.8591Y-56.6122

G1X66.6610Y-59.7539

G1X67.0855Y-62.8113

G1X67.1829Y-65.5540

G1X67.0460Y-68.4024

G1X66.6584Y-71.3243

G1X66.1344Y-73.5386

G1X65.0555Y-76.5793

G1X63.2614Y-80.6006

G1X62.3360Y-82.2639

G1X60.1703Y-85.6243

G1X59.1334Y-87.8345

G1X58.7560Y-88.8778

G1X58.5692Y-89.7816

G1X58.5638Y-90.5940

G1X58.7250Y-91.3844

G1X58.9800Y-92.0573

G1X59.3845Y-92.8094

G1X60.4500Y-94.2013

G1X61.8193Y-95.5055

G1X63.6221Y-96.7882

G1X65.7116Y-98.0050

G1X68.1045Y-99.1995

G1X69.6832Y-99.8056

G1X73.4715Y-101.0504

G1X75.7779Y-102.0608

G1X77.1606Y-102.8324

G1X77.9704Y-103.6001

G1X78.3564Y-104.3315

G1X78.5382Y-105.1892

G1X78.5636Y-106.2235

G1X78.4450Y-107.8115

G1X78.1927Y-109.1914

G1X77.4206Y-111.9500

G1X76.6893Y-114.9886

G1X76.6202Y-115.7270

G1X76.6953Y-115.9321

G1X76.7967Y-115.9874

G1X76.8936Y-115.7457

G1X77.0043Y-114.2578

G1X76.9522Y-113.5476

G1X76.7786Y-112.7897

G1X76.2133Y-111.3546

G1X75.5325Y-109.9575

G1X74.8623Y-108.8478

G1X74.1558Y-107.9251

G1X73.2478Y-107.0154

G1X72.1978Y-106.1431

G1X71.0600Y-105.3520

G1X69.9899Y-104.7456

G1X69.0385Y-104.3352

G1X68.0607Y-104.0566

G1X67.0476Y-103.8986

G1X66.0370Y-103.8697

G1X64.8614Y-104.0104

G1X63.7685Y-104.3471

G1X62.8125Y-104.8840

G1X61.8544Y-105.6857

G1X60.8568Y-106.7495

G1X59.4452Y-108.4594

G1X57.0180Y-112.3223

G1X56.0694Y-113.6359

G1X54.3936Y-115.3779

G1X52.8364Y-116.7040

G1X51.5217Y-117.4851

G1X50.9641Y-117.6800

G1X50.4004Y-117.7664

G1X49.7921Y-117.7384

G1X49.1971Y-117.5958

G1X48.0300Y-117.0041

G1X46.4434Y-115.6595

G1X45.6620Y-114.8345

G1X44.9805Y-113.9630

G1X43.9966Y-112.4707

G1X41.5841Y-108.4802

G1X37.1214Y-101.6109

G1X35.0710Y-98.6945

G1X32.9449Y-96.0136

G1X29.4331Y-92.0139

G1X25.3607Y-87.7638

G1X23.1088Y-85.6488

G1X18.0472Y-81.1714

G1X14.4201Y-77.7976

G1X12.8215Y-76.1917

G1X11.6534Y-74.8058

G1X10.7094Y-73.4322

G1X9.9799Y-72.0541

G1X9.4468Y-70.6217

G1X9.2529Y-69.6863

G1X9.1989Y-68.7840

G1X9.2742Y-67.6156

G1X9.4796Y-66.2547

G1X9.9550Y-64.7121

G1X12.0450Y-59.3531

G1X12.7345Y-56.5839

G1X13.0720Y-54.1152

G1X13.1722Y-50.5231

G1X12.9211Y-47.0746

G1X12.1426Y-42.2550

G1X10.9857Y-37.2182

G1X10.6204Y-34.8120

G1X10.5343Y-33.7120

G1X10.6592Y-32.5063

G1X11.1721Y-31.2178

G1X11.8782Y-30.2102

G1X12.8266Y-29.3767

G1X14.4119Y-28.4968

G1X16.3133Y-27.7501

G1X18.2533Y-27.2304

G1X20.3257Y-26.9094

G1X23.4718Y-26.7267

G1X26.5265Y-26.7655

G1X29.3981Y-27.0262

G1X31.9588Y-27.4923

G1X34.7012Y-28.2401

G1X37.7222Y-29.2809

G1X40.8653Y-30.5636

G1X43.8166Y-31.9587

G1X45.9165Y-33.1367

G1X48.1563Y-34.5786

G1X53.9765Y-38.8792

G1X56.7513Y-41.1867

G1X58.9806Y-43.4112

G1X61.3581Y-46.3290

G1X63.3175Y-49.2586

G1X64.7766Y-52.0186

G1X66.1275Y-55.3585

G1X67.0723Y-58.5869

G1X67.6162Y-61.6609

G1X67.7938Y-64.3717

G1X67.7274Y-67.2416

G1X67.4183Y-70.1431

G1X66.9128Y-72.6874

G1X65.8543Y-75.8396

G1X63.8502Y-80.3900

G1X63.0047Y-81.9726

G1X61.1452Y-84.9709

G1X60.5718Y-86.1374

G1X60.0502Y-87.6745

G1X59.8181Y-88.7380

G1X59.7809Y-89.6629

G1X59.9496Y-90.5863

G1X60.2495Y-91.3309

G1X60.6553Y-92.0283

G1X61.8578Y-93.4833

G1X63.5251Y-94.9234

G1X65.3978Y-96.1199

G1X68.1123Y-97.4387

G1X71.2649Y-98.6792

G1X72.9412Y-99.1412

G1X76.6121Y-99.9028

G1X77.8445Y-100.2746

G1X79.8434Y-101.1827

G1X80.4421Y-101.6205

G1X80.8503Y-102.0772

G1X81.2035Y-102.7796

G1X81.3361Y-103.5744

G1X81.2886Y-104.6823

G1X81.0556Y-106.0880

G1X80.4773Y-108.4952

G1X78.1026Y-115.5057

G1X78.0453Y-115.8287

G1X78.1012Y-116.0206

G1X78.1515Y-115.8168

G1X77.9974Y-113.7586

G1X77.8313Y-112.9350

G1X77.5765Y-112.2067

G1X76.8335Y-110.7352

G1X76.0379Y-109.3987

G1X75.2298Y-108.2529

G1X74.4041Y-107.2953

G1X73.5236Y-106.4987

G1X72.3603Y-105.6405

G1X71.1852Y-104.9226

G1X69.9846Y-104.3274

G1X68.9964Y-103.9533

G1X68.0948Y-103.7284

G1X67.0773Y-103.6112

G1X66.0708Y-103.6325

G1X64.8048Y-103.8666

G1X63.7063Y-104.2887

G1X62.7728Y-104.8685

G1X61.9218Y-105.6791

G1X61.0124Y-106.8368

G1X59.1535Y-109.5598

G1X56.8223Y-113.7018

G1X55.8959Y-115.1640

G1X54.9204Y-116.3378

G1X53.4604Y-117.7037

G1X51.8260Y-118.8553

G1X51.0561Y-119.2336

G1X50.3083Y-119.4718

G1X49.6643Y-119.5470

G1X48.9850Y-119.4781

G1X48.3281Y-119.2681

G1X47.6865Y-118.9302

G1X46.8949Y-118.3477

G1X46.1018Y-117.6115

G1X44.9938Y-116.4070

G1X44.2842Y-115.4876

G1X43.2921Y-113.9383

G1X40.6105Y-109.3136

G1X36.7706Y-103.2878

G1X34.4272Y-99.8426

G1X32.3285Y-97.1056

G1X28.9160Y-93.1514

G1X24.4976Y-88.4617

G1X22.3200Y-86.3488

G1X17.3702Y-81.8251

G1X13.4308Y-77.8324

G1X12.3083Y-76.5179

G1X11.4686Y-75.3381

G1X10.8193Y-74.1792

G1X10.3364Y-72.9986

G1X10.0471Y-71.9569

G1X9.8856Y-71.0146

G1X9.8731Y-70.1819

G1X10.0042Y-69.1849

G1X10.5781Y-66.9687

G1X12.4679Y-62.3756

G1X13.0649Y-60.6105

G1X13.7558Y-57.3582

G1X14.0359Y-54.3046

G1X14.0692Y-52.2076

G1X14.0007Y-50.2172

G1X13.8333Y-48.2898

G1X13.5419Y-46.1951

G1X12.6857Y-41.7080

G1X11.2528Y-36.3376

G1X10.7259Y-33.7284

G1X10.5821Y-32.6445

G1X10.6178Y-31.5471

G1X10.9285Y-30.4972

G1X11.4497Y-29.5183

G1X12.1539Y-28.7093

G1X13.3460Y-27.8611

G1X15.3370Y-26.9598

G1X17.4188Y-26.3156

G1X19.6057Y-25.9037

G1X22.1519Y-25.7183

G1X25.3012Y-25.7186

G1X28.1968Y-25.9154

G1X30.8303Y-26.2896

G1X33.1296Y-26.8128

G1X35.5876Y-27.5845

G1X38.3970Y-28.6658

G1X41.3445Y-29.9790

G1X44.2539Y-31.4324

G1X46.3520Y-32.6148

G1X48.6112Y-34.0871

G1X51.0192Y-35.8535

G1X55.2771Y-39.2482

G1X57.9684Y-41.6395

G1X60.1995Y-44.0062

G1X62.4811Y-46.9249

G1X64.3447Y-49.8227

G1X65.8239Y-52.7895

G1X67.1262Y-56.2416

G1X67.6295Y-57.9903

G1X68.0058Y-59.6644

G1X68.3794Y-62.4289

G1X68.4634Y-65.3799

G1X68.2606Y-68.5557

G1X67.7902Y-71.5893

G1X67.0488Y-74.2048

G1X65.7823Y-77.3665

G1X64.1969Y-80.8812

G1X62.1185Y-84.5128

G1X61.5145Y-85.8817

G1X61.1760Y-87.2930

G1X61.0653Y-88.4712

G1X61.1783Y-89.4976

G1X61.5423Y-90.5113

G1X62.4373Y-91.8390

G1X63.8459Y-93.2278

G1X65.6938Y-94.5760

G1X67.6281Y-95.6274

G1X70.7894Y-96.8387

G1X74.6808Y-97.9484

G1X76.4419Y-98.2362

G1X80.0682Y-98.5497

G1X81.2816Y-98.8005

G1X82.3615Y-99.2337

G1X83.0354Y-99.6481

G1X83.5233Y-100.1545

G1X83.8490Y-100.7961

G1X84.0212Y-101.6413

G1X83.9523Y-102.8200

G1X83.6573Y-104.2660

G1X83.0230Y-106.5736

G1X82.3837Y-108.4180

G1X79.3552Y-116.0794

G1X78.8601Y-113.2764

G1X78.6272Y-112.4796

G1X78.2835Y-111.6750

G1X77.4607Y-110.3054

G1X76.5206Y-108.9518

G1X75.5738Y-107.7696

G1X74.6226Y-106.7660

G1X73.7058Y-105.9891

G1X72.6062Y-105.2469

G1X71.3066Y-104.5315

G1X70.0592Y-103.9824

G1X68.9287Y-103.6048

G1X67.8689Y-103.3796

G1X66.8679Y-103.3156

G1X65.9554Y-103.3858

G1X64.7895Y-103.6701

G1X63.6913Y-104.1660

G1X62.6064Y-104.9208

G1X61.8301Y-105.7406

G1X60.9911Y-106.9970

G1X58.7050Y-111.0560

G1X55.8936Y-116.3174

G1X54.9172Y-117.7414

G1X53.8854Y-118.8322

G1X52.9518Y-119.6217

G1X52.0690Y-120.2335

G1X51.0864Y-120.7649

G1X50.2055Y-121.0969

G1X49.3579Y-121.2638

G1X48.6209Y-121.2539

G1X47.8873Y-121.0707

G1X47.1839Y-120.7266

G1X46.4239Y-120.1767

G1X45.5964Y-119.3954

G1X44.4461Y-118.0878

G1X43.5415Y-116.9115

G1X42.4900Y-115.2187

G1X39.7151Y-110.2397

G1X37.0366Y-105.9540

G1X34.2108Y-101.6268

G1X31.8500Y-98.3867

G1X28.7567Y-94.6940

G1X24.4673Y-90.0427

G1X21.8551Y-87.3627

G1X16.7758Y-82.5361

G1X13.9602Y-79.4936

G1X12.6772Y-77.9191

G1X11.7717Y-76.5844

G1X11.1502Y-75.3527

G1X10.7516Y-74.0863

G1X10.5286Y-72.2667

G1X10.6543Y-71.0560

G1X11.4268Y-68.7099

G1X12.6750Y-65.9392

G1X13.7598Y-62.8590

G1X14.4532Y-59.6549

G1X14.7972Y-56.6955

G1X14.8861Y-53.9850

G1X14.8304Y-51.3974

G1X14.6476Y-49.1085

G1X14.2887Y-46.5188

G1X13.3197Y-41.6141

G1X11.5775Y-35.6342

G1X10.8072Y-32.4359

G1X10.6245Y-31.1047

G1X10.6533Y-30.3982

G1X10.7877Y-29.7923

G1X11.0814Y-29.0082

G1X11.4466Y-28.3639

G1X11.8641Y-27.8403

G1X12.3883Y-27.3534

G1X13.6940Y-26.5450

G1X16.1610Y-25.5846

G1X18.8852Y-24.9477

G1X21.4288Y-24.6954

G1X24.8607Y-24.7193

G1X28.5400Y-25.0212

G1X31.9031Y-25.5885

G1X34.7503Y-26.3679

G1X37.9481Y-27.6031

G1X41.8031Y-29.4416

G1X46.1911Y-31.8577

G1X48.8256Y-33.5474

G1X51.5032Y-35.5460

G1X56.2782Y-39.5251

G1X59.2037Y-42.2544

G1X61.6902Y-45.0547

G1X64.1162Y-48.3417

G1X65.3175Y-50.3088

G1X66.2773Y-52.1932

G1X67.3150Y-54.6616

G1X68.1264Y-57.0668

G1X68.6765Y-59.2461

G1X69.0100Y-61.2544

G1X69.1784Y-63.4207

G1X69.1829Y-65.6633

G1X69.0482Y-67.8112

G1X68.7758Y-70.0015

G1X68.4263Y-71.8458

G1X67.9405Y-73.5525

G1X67.1018Y-75.8001

G1X65.1651Y-80.3055

G1X63.1588Y-84.1463

G1X62.6184Y-85.5478

G1X62.4346Y-86.6934

G1X62.4078Y-87.6939

G1X62.5353Y-88.6424

G1X62.8030Y-89.4657

G1X63.2348Y-90.2730

G1X63.8100Y-91.0312

G1X64.5548Y-91.7890

G1X65.5343Y-92.6042

G1X66.6554Y-93.3873

G1X67.8789Y-94.1111

G1X69.1660Y-94.7486

G1X70.4278Y-95.2489

G1X71.9729Y-95.7210

G1X73.7233Y-96.1445

G1X78.0665Y-96.9059

G1X79.7998Y-97.0154

G1X83.7131Y-96.8880

G1X84.5515Y-97.0075

G1X85.3222Y-97.3145

G1X85.7312Y-97.5844

G1X86.0413Y-97.9048

G1X86.4156Y-98.7273

G1X86.5434Y-100.0099

G1X86.3173Y-101.6024

G1X85.6268Y-104.1031

G1X84.5292Y-107.2867

G1X81.3580Y-114.6312

G1X80.5511Y-116.1870

G1X79.5685Y-112.7057

G1X78.8374Y-111.0737

G1X77.9666Y-109.8206

G1X76.8917Y-108.4772

G1X75.8102Y-107.2867

G1X74.7335Y-106.2603

G1X73.7111Y-105.4511

G1X72.6850Y-104.8110

G1X71.4492Y-104.1893

G1X70.0579Y-103.6414

G1X68.7754Y-103.2736

G1X67.6542Y-103.0778

G1X66.6766Y-103.0387

G1X65.6858Y-103.1568

G1X64.5787Y-103.5029

G1X63.4687Y-104.1178

G1X62.4393Y-104.9685

G1X61.5877Y-105.9505

G1X60.9002Y-107.1293

G1X59.1662Y-110.9830

G1X56.2347Y-116.6768

G1X55.0260Y-118.7402

G1X53.9906Y-120.1114

G1X53.2395Y-120.8448

G1X52.4474Y-121.4762

G1X51.6260Y-122.0057

G1X50.7913Y-122.4258

G1X49.9592Y-122.7290

G1X49.1459Y-122.9078

G1X48.3672Y-122.9546

G1X47.7089Y-122.8769

G1X46.6938Y-122.4813

G1X45.5951Y-121.6579

G1X44.4490Y-120.4264

G1X42.9464Y-118.4886

G1X41.7272Y-116.5220

G1X38.7804Y-111.0640

G1X36.8916Y-107.9844

G1X33.4039Y-102.5748

G1X30.5845Y-98.6750

G1X28.0702Y-95.6499

G1X24.6975Y-91.9317

G1X21.4241Y-88.4425

G1X16.8868Y-83.9564

G1X15.2901Y-82.2410

G1X13.8743Y-80.5354

G1X12.8110Y-79.0855

G1X12.0015Y-77.7510

G1X11.5018Y-76.6436

G1X11.2693Y-75.7973

G1X11.1665Y-75.0072

G1X11.1634Y-73.9854

G1X11.2626Y-73.0098

G1X11.6127Y-71.9499

G1X13.4958Y-67.7911

G1X14.4351Y-64.7982

G1X14.8828Y-62.6754

G1X15.2623Y-60.2842

G1X15.4551Y-58.3538

G1X15.5580Y-56.0027

G1X15.5652Y-53.1872

G1X15.4269Y-50.5444

G1X15.1184Y-47.8687

G1X14.6147Y-44.8138

G1X13.7536Y-40.8393

G1X11.8820Y-34.8275

G1X10.9597Y-31.4329

G1X10.7163Y-30.1085

G1X10.7570Y-28.9874

G1X11.2037Y-27.7014

G1X11.8904Y-26.7164

G1X12.8421Y-25.9251

G1X14.5567Y-25.0826

G1X16.9608Y-24.3135

G1X19.4450Y-23.8368

G1X21.8714Y-23.6565

G1X25.1782Y-23.7708

G1X28.6979Y-24.1447

G1X31.9338Y-24.7305

G1X34.8824Y-25.5282

G1X37.5557Y-26.5568

G1X40.5305Y-28.0029

G1X43.8764Y-29.8888

G1X48.0374Y-32.4705

G1X50.0911Y-33.9018

G1X52.0987Y-35.4670

G1X58.0418Y-40.6516

G1X60.3079Y-42.8637

G1X62.2649Y-45.0652

G1X64.4203Y-47.8362

G1X66.0658Y-50.3610

G1X67.3426Y-52.8665

G1X68.5335Y-55.8280

G1X69.3213Y-58.4666

G1X69.7964Y-60.9810

G1X69.9814Y-63.2280

G1X69.9780Y-65.7698

G1X69.7748Y-68.4167

G1X69.3941Y-70.9450

G1X68.9206Y-72.8520

G1X68.1563Y-75.0245

G1X65.9575Y-80.3413

G1X64.3959Y-83.5989

G1X63.9271Y-84.8789

G1X63.7761Y-85.7945

G1X63.8138Y-87.0933

G1X64.0360Y-88.1288

G1X64.4558Y-89.1144

G1X64.9614Y-89.8892

G1X65.6255Y-90.6402

G1X66.4410Y-91.3565

G1X67.5137Y-92.1265

G1X68.7416Y-92.8662

G1X70.0770Y-93.5457

G1X71.4721Y-94.1353

G1X72.8476Y-94.5952

G1X74.4913Y-94.9675

G1X76.4845Y-95.2514

G1X78.8193Y-95.4474

G1X81.7944Y-95.5755

G1X83.2518Y-95.4903

G1X86.2261Y-94.9664

G1X87.2828Y-94.9062

G1X87.7379Y-95.0021

G1X88.2319Y-95.2679

G1X88.5226Y-95.5660

G1X88.7479Y-96.0153

G1X88.8885Y-97.2128

G1X88.7121Y-99.0961

G1X88.1767Y-101.2962

G1X87.2015Y-104.3428

G1X86.3388Y-106.6706

G1X85.0651Y-109.5957

G1X82.5722Y-114.9895

G1X82.1006Y-115.8590

G1X81.7238Y-116.3323

G1X81.6253Y-116.2927

G1X80.1490Y-112.1604

G1X79.2880Y-110.5118

G1X78.5018Y-109.4853

G1X77.3255Y-108.1712

G1X74.9967Y-105.9939

G1X73.9329Y-105.1823

G1X72.8850Y-104.5208

G1X71.6556Y-103.9204

G1X70.3491Y-103.4293

G1X68.9222Y-103.0435

G1X67.6405Y-102.8372

G1X66.4601Y-102.7958

G1X65.4694Y-102.9243

G1X64.3790Y-103.2999

G1X63.3273Y-103.9596

G1X62.2995Y-104.9443

G1X61.2836Y-106.2719

G1X60.5312Y-107.7842

G1X59.1583Y-111.5899

G1X58.3520Y-113.4364

G1X55.4277Y-119.0369

G1X54.3303Y-120.7839

G1X53.3848Y-121.9959

G1X52.6164Y-122.7361

G1X51.7998Y-123.3503

G1X50.8593Y-123.8874

G1X49.9050Y-124.2707

G1X48.9581Y-124.4995

G1X47.9508Y-124.5716

G1X47.0895Y-124.4730

G1X46.3145Y-124.2115

G1X45.4513Y-123.6718

G1X44.4967Y-122.7723

G1X43.4888Y-121.5438

G1X41.9914Y-119.4621

G1X40.8974Y-117.6393

G1X38.3783Y-112.8176

G1X37.0624Y-110.5097

G1X33.2417Y-104.4798

G1X30.0761Y-99.9493

G1X28.1078Y-97.4622

G1X25.6465Y-94.6371

G1X20.6208Y-89.1624

G1X16.5868Y-84.9850

G1X15.1079Y-83.3406

G1X13.9864Y-81.8999

G1X13.0792Y-80.5583

G1X12.4016Y-79.3449

G1X11.9008Y-78.1746

G1X11.6950Y-77.3685

G1X11.6376Y-76.6359

G1X11.8933Y-74.7458

G1X12.1264Y-74.0798

G1X12.9182Y-72.5655

G1X14.0329Y-69.9700

G1X14.6315Y-67.9390

G1X15.0991Y-65.8167

G1X15.8503Y-60.7969

G1X16.1119Y-55.6627

G1X16.0894Y-52.7516

G1X15.9063Y-50.0580

G1X15.4903Y-46.7728

G1X14.8889Y-43.3350

G1X14.1066Y-39.9735

G1X12.1735Y-34.0066

G1X11.0677Y-30.2158

G1X10.8121Y-28.9170

G1X10.8460Y-27.8195

G1X11.2522Y-26.6288

G1X11.9186Y-25.6504

G1X12.8410Y-24.8711

G1X13.5392Y-24.4703

G1X14.4473Y-24.0784

G1X16.8818Y-23.3245

G1X19.3661Y-22.8543

G1X21.8100Y-22.6618

G1X24.3979Y-22.7488

G1X27.6976Y-23.1170

G1X30.8504Y-23.6734

G1X33.8242Y-24.4036

G1X36.0007Y-25.1005

G1X37.8428Y-25.8415

G1X39.8451Y-26.8282

G1X42.1107Y-28.1232

G1X45.0885Y-30.0317

G1X49.6036Y-33.1482

G1X51.7007Y-34.7383

G1X53.8494Y-36.5471

G1X58.7167Y-40.9463

G1X61.0753Y-43.2214

G1X62.9864Y-45.3103

G1X65.5139Y-48.4397

G1X67.0801Y-50.7865

G1X68.3169Y-53.1878

G1X69.4907Y-56.0495

G1X70.3054Y-58.7967

G1X70.7040Y-61.0122

G1X70.8832Y-63.5569

G1X70.8307Y-66.3186

G1X70.5542Y-69.1518

G1X70.1415Y-71.4962

G1X69.5179Y-73.6084

G1X66.8775Y-80.3705

G1X65.6990Y-83.1224

G1X65.2784Y-84.4477

G1X65.1682Y-85.4742

G1X65.3030Y-86.5966

G1X65.6418Y-87.6914

G1X66.1948Y-88.7286

G1X66.8286Y-89.5448

G1X67.6277Y-90.3138

G1X68.5712Y-91.0147

G1X69.7633Y-91.7278

G1X71.2219Y-92.4486

G1X72.8033Y-93.0916

G1X74.3335Y-93.5901

G1X75.8492Y-93.9562

G1X77.5247Y-94.1716

G1X79.5440Y-94.2331

G1X81.8989Y-94.1473

G1X85.3050Y-93.8809

G1X86.7064Y-93.6179

G1X89.1046Y-92.8354

G1X89.8852Y-92.6826

G1X90.2676Y-92.7190

G1X90.5601Y-92.8601

G1X90.8119Y-93.1118

G1X90.9795Y-93.4444

G1X91.0932Y-94.0352

G1X91.0852Y-94.8709

G1X90.6922Y-97.5223

G1X89.9333Y-100.4668

G1X88.7936Y-103.9971

G1X87.7515Y-106.7221

G1X86.1849Y-110.2148

G1X83.8046Y-115.1812

G1X83.2932Y-116.0709

G1X82.8984Y-116.5219

G1X82.7477Y-116.5997

G1X82.6613Y-116.5360

G1X82.3730Y-115.6025

G1X80.8427Y-112.1325

G1X80.2367Y-110.9436

G1X79.6271Y-109.9808

G1X79.0009Y-109.2007

G1X77.8890Y-108.0547

G1X75.4062Y-105.9132

G1X74.1128Y-104.9813

G1X72.8346Y-104.1985

G1X71.7075Y-103.6533

G1X70.3880Y-103.1763

G1X68.9288Y-102.8118

G1X67.4960Y-102.6157

G1X66.1574Y-102.6021

G1X65.0578Y-102.7649

G1X63.9211Y-103.2104

G1X62.9548Y-103.9257

G1X62.0505Y-104.9704

G1X61.0858Y-106.4830

G1X60.6416Y-107.3138

G1X60.2448Y-108.2949

G1X58.8248Y-112.9947

G1X57.9873Y-115.1193

G1X56.5957Y-117.8514

G1X55.3066Y-120.1618

G1X54.1070Y-122.0556

G1X53.0659Y-123.4358

G1X52.3258Y-124.2228

G1X51.4798Y-124.9041

G1X50.5289Y-125.4642

G1X49.5588Y-125.8495

G1X48.5892Y-126.0677

G1X47.5462Y-126.1237

G1X46.5532Y-125.9968

G1X45.6687Y-125.7048

G1X44.7592Y-125.1311

G1X43.7828Y-124.1763

G1X42.7711Y-122.8750

G1X41.1532Y-120.4959

G1X39.9823Y-118.5117

G1X37.3985Y-113.4941

G1X36.0549Y-111.0992

G1X32.6535Y-105.7313

G1X29.5078Y-101.1742

G1X27.7483Y-98.8537

G1X25.7158Y-96.4256

G1X14.9419Y-84.4807

G1X14.0566Y-83.2976

G1X13.2959Y-82.0993

G1X12.7456Y-81.0296

G1X12.3098Y-79.9075

G1X12.0482Y-78.7365

G1X12.1553Y-77.6178

G1X12.5744Y-76.2270

G1X13.4471Y-74.6276

G1X14.1772Y-72.6676

G1X14.7599Y-70.4428

G1X15.2969Y-67.6888

G1X15.8718Y-64.0555

G1X16.1636Y-61.6412

G1X16.4076Y-57.9854

G1X16.5092Y-54.9620

G1X16.4606Y-52.1089

G1X16.2104Y-49.0373

G1X15.7441Y-45.4838

G1X15.1204Y-42.0062

G1X14.4004Y-39.0965

G1X12.4407Y-33.1628

G1X11.1992Y-29.0783

G1X10.9289Y-27.7979

G1X10.9609Y-26.6387

G1X11.3755Y-25.4822

G1X12.0433Y-24.5357

G1X12.9497Y-23.7872

G1X13.7331Y-23.3546

G1X14.5493Y-23.0195

G1X16.9849Y-22.3224

G1X19.5292Y-21.8766

G1X22.1649Y-21.6961

G1X24.3806Y-21.7782

G1X27.3979Y-22.1748

G1X30.4581Y-22.7749

G1X33.5175Y-23.5650

G1X35.8254Y-24.3069

G1X37.9278Y-25.1246

G1X39.6380Y-25.9335

G1X41.5112Y-26.9997

G1X43.4444Y-28.2597

G1X45.5730Y-29.7879

G1X52.7828Y-35.3981

G1X54.9062Y-37.2656

G1X61.9051Y-43.7193

G1X63.6035Y-45.4686

G1X66.2852Y-48.5335

G1X67.7626Y-50.5353

G1X68.9137Y-52.5387

G1X70.1513Y-55.2231

G1X71.0586Y-57.8337

G1X71.5663Y-60.0650

G1X71.8197Y-62.4002

G1X71.8518Y-65.1521

G1X71.6512Y-68.0361

G1X71.2665Y-70.6934

G1X70.7730Y-72.6286

G1X70.1480Y-74.4307

G1X68.5850Y-78.4338

G1X67.0683Y-82.7247

G1X66.7491Y-83.9192

G1X66.6653Y-84.9787

G1X66.8235Y-85.9465

G1X67.2423Y-87.0790

G1X67.8327Y-88.0761

G1X68.6187Y-89.0100

G1X69.5107Y-89.7967

G1X70.4992Y-90.4644

G1X71.7422Y-91.1143

G1X73.3930Y-91.7988

G1X75.1065Y-92.3630

G1X76.8798Y-92.8108

G1X78.5242Y-93.0937

G1X79.8119Y-93.2002

G1X81.2692Y-93.1652

G1X82.9951Y-92.9762

G1X85.0196Y-92.6252

G1X89.1614Y-91.7189

G1X90.1540Y-91.3311

G1X91.7655Y-90.5239

G1X92.2468Y-90.3793

G1X92.5302Y-90.4015

G1X92.7609Y-90.5517

G1X92.9434Y-90.8455

G1X93.0479Y-91.2477

G1X93.0800Y-92.0287

G1X92.9758Y-93.1046

G1X92.3222Y-96.5294

G1X91.3218Y-100.2942

G1X90.0536Y-104.2340

G1X88.8566Y-107.2698

G1X87.1114Y-111.0660

G1X84.8866Y-115.5757

G1X84.3820Y-116.4049

G1X83.9820Y-116.8322

G1X83.7305Y-116.9187

G1X83.6050Y-116.7970

G1X83.0599Y-115.2152

G1X81.1721Y-111.5535

G1X80.0567Y-109.7611

G1X79.3596Y-108.8872

G1X78.6585Y-108.1751

G1X76.2632Y-106.1919

G1X74.6793Y-105.0960

G1X73.0707Y-104.1365

G1X71.6966Y-103.4603

G1X70.4007Y-102.9843

G1X68.9117Y-102.6204

G1X67.4331Y-102.4356

G1X66.0264Y-102.4364

G1X64.7533Y-102.6294

G1X63.7900Y-102.9647

G1X62.9636Y-103.4902

G1X62.2286Y-104.2591

G1X61.5561Y-105.3066

G1X60.6392Y-107.2025

G1X60.0185Y-108.7021

G1X58.4941Y-114.4490

G1X57.5848Y-116.9377

G1X56.4214Y-119.1947

G1X55.0963Y-121.4610

G1X53.7779Y-123.4382

G1X52.5592Y-124.9890

G1X51.6099Y-125.9623

G1X50.6582Y-126.6763

G1X49.5887Y-127.2129

G1X48.4100Y-127.5345

G1X47.2459Y-127.6055

G1X46.0336Y-127.4291

G1X44.9287Y-127.0300

G1X43.9767Y-126.3944

G1X43.2835Y-125.7139

G1X42.4975Y-124.7348

G1X40.0728Y-121.0280

G1X39.0107Y-119.1733

G1X36.4140Y-114.1106

G1X35.0529Y-111.6597

G1X32.5102Y-107.6273

G1X29.7362Y-103.5312

G1X27.3908Y-100.3063

G1X25.4909Y-97.9218

G1X19.6981Y-91.4095

G1X14.9035Y-85.8223

G1X13.5198Y-83.8045

G1X13.0191Y-82.8019

G1X12.6696Y-81.8348

G1X12.4057Y-80.6925

G1X12.4123Y-79.8907

G1X12.9866Y-78.2386

G1X13.6929Y-76.8411

G1X14.0518Y-75.6014

G1X14.8904Y-71.3623

G1X15.9188Y-65.0761

G1X16.2327Y-62.5983

G1X16.5250Y-59.1987

G1X16.7656Y-54.2590

G1X16.6957Y-51.4369

G1X16.4022Y-47.8600

G1X15.9411Y-44.2840

G1X15.3518Y-40.9768

G1X14.6334Y-38.1889

G1X12.7013Y-32.3719

G1X11.3268Y-27.9183

G1X11.0560Y-26.6596

G1X11.0846Y-25.5226

G1X11.5008Y-24.4001

G1X12.1678Y-23.4741

G1X13.1434Y-22.6903

G1X14.3599Y-22.0956

G1X15.8754Y-21.6298

G1X17.9909Y-21.1777

G1X20.1586Y-20.8896

G1X22.0885Y-20.7798

G1X23.9992Y-20.8160

G1X25.7270Y-20.9862

G1X27.8031Y-21.3466

G1X30.4770Y-21.9629

G1X33.1796Y-22.7351

G1X35.8895Y-23.6631

G1X38.3063Y-24.6452

G1X40.2862Y-25.5951

G1X41.8728Y-26.5089

G1X43.6846Y-27.7390

G1X45.6056Y-29.2191

G1X54.1726Y-36.5739

G1X58.8198Y-40.8604

G1X63.3295Y-44.7958

G1X66.1381Y-47.5796

G1X67.8164Y-49.4001

G1X69.0345Y-51.0162

G1X70.3011Y-53.2262

G1X71.3469Y-55.4730

G1X72.1634Y-57.7969

G1X72.6808Y-60.1332

G1X72.9155Y-62.7417

G1X72.8889Y-65.7300

G1X72.5996Y-68.8953

G1X72.1288Y-71.4799

G1X71.5045Y-73.5048

G1X69.7293Y-78.3002

G1X68.5722Y-82.1723

G1X68.3013Y-83.4050

G1X68.2521Y-84.4858

G1X68.4414Y-85.4422

G1X68.9486Y-86.5738

G1X69.7050Y-87.6604

G1X70.6161Y-88.5989

G1X71.6242Y-89.3804

G1X72.7820Y-90.0581

G1X74.0192Y-90.5959

G1X75.7848Y-91.1721

G1X77.7446Y-91.6432

G1X79.6647Y-91.9605

G1X81.5361Y-92.1217

G1X82.8108Y-92.1226

G1X83.9469Y-92.0025

G1X85.3249Y-91.7214

G1X86.9112Y-91.2685

G1X91.9144Y-89.4805

G1X92.7177Y-89.0662

G1X94.2087Y-88.1037

G1X94.4874Y-88.1723

G1X94.6987Y-88.6114

G1X94.7668Y-89.4402

G1X94.6655Y-90.7712

G1X93.9735Y-94.6258

G1X92.8217Y-99.2863

G1X91.4452Y-103.8296

G1X90.3043Y-106.8578

G1X88.6359Y-110.5629

G1X86.0299Y-115.7951

G1X85.4872Y-116.7018

G1X85.0473Y-117.1930

G1X84.7328Y-117.3223

G1X84.5122Y-117.1799

G1X84.0802Y-115.7887

G1X83.6973Y-114.9431

G1X81.6220Y-111.4055

G1X80.4562Y-109.6651

G1X79.0118Y-107.9968

G1X77.0110Y-106.3841

G1X75.3267Y-105.2729

G1X73.4542Y-104.2121

G1X71.6989Y-103.3796

G1X70.1616Y-102.8119

G1X68.6842Y-102.4596

G1X67.1631Y-102.2905

G1X65.7112Y-102.3232

G1X64.4714Y-102.5343

G1X63.4575Y-102.8839

G1X62.5776Y-103.4062

G1X61.9218Y-104.0737

G1X61.4084Y-104.8954

G1X60.8738Y-106.1478

G1X59.6492Y-109.6908

G1X58.2191Y-115.6962

G1X57.3363Y-118.3980

G1X56.5434Y-120.0278

G1X55.3488Y-122.0692

G1X54.0482Y-123.9978

G1X52.7415Y-125.6785

G1X51.5695Y-126.9536

G1X50.5152Y-127.8640

G1X49.4154Y-128.5092

G1X48.3276Y-128.8730

G1X47.0514Y-128.9973

G1X45.8100Y-128.8326

G1X44.4550Y-128.3419

G1X43.3776Y-127.6620

G1X42.1625Y-126.3753

G1X40.7812Y-124.3314

G1X38.3525Y-120.2989

G1X35.3150Y-114.4602

G1X34.0068Y-112.1121

G1X32.0878Y-109.0590

G1X29.7325Y-105.5647

G1X27.1214Y-101.9185

G1X24.8529Y-98.9637

G1X18.7212Y-91.9561

G1X15.1105Y-87.5595

G1X13.6525Y-85.4671

G1X13.1864Y-84.5526

G1X12.9073Y-83.7706

G1X12.6932Y-82.7001

G1X12.6435Y-81.8998

G1X13.4892Y-79.5523

G1X13.6872Y-78.7863

G1X14.2782Y-74.5275

G1X15.8422Y-65.2974

G1X16.6561Y-58.2114

G1X16.8980Y-53.6811

G1X16.8123Y-50.4822

G1X16.5461Y-46.9206

G1X16.1328Y-43.4503

G1X15.6101Y-40.3522

G1X14.8673Y-37.4392

G1X12.8966Y-31.4557

G1X11.4631Y-26.7798

G1X11.1954Y-25.5244

G1X11.2164Y-24.4722

G1X11.6178Y-23.3909

G1X12.3273Y-22.4244

G1X13.2792Y-21.6691

G1X14.2259Y-21.1864

G1X15.3765Y-20.7930

G1X16.9487Y-20.4414

G1X18.6853Y-20.1637

G1X20.4398Y-19.9835

G1X22.2225Y-19.9041

G1X23.8669Y-19.9295

G1X25.5517Y-20.0639

G1X28.5025Y-20.6013

G1X32.2191Y-21.6729

G1X36.0417Y-23.0917

G1X39.6529Y-24.7337

G1X42.8533Y-26.5423

G1X44.2227Y-27.5114

G1X45.6267Y-28.6412

G1X47.8977Y-30.7058

G1X52.3299Y-35.0779

G1X58.4271Y-40.6726

G1X60.5606Y-42.4987

G1X64.8519Y-45.8234

G1X67.8189Y-48.4297

G1X69.1508Y-49.7628

G1X70.0520Y-50.8738

G1X70.8547Y-52.1094

G1X71.7468Y-53.6962

G1X72.5200Y-55.3257

G1X73.0771Y-56.7659

G1X73.5005Y-58.1691

G1X73.7910Y-59.5165

G1X73.9840Y-60.9993

G1X74.0937Y-63.0884

G1X74.0559Y-65.3631

G1X73.8660Y-67.8288

G1X73.5427Y-70.1906

G1X72.9006Y-72.6487

G1X70.9762Y-78.1636

G1X70.1284Y-81.6656

G1X69.9018Y-83.1984

G1X70.0075Y-84.5348

G1X70.4679Y-85.6720

G1X71.4311Y-87.0026

G1X72.6822Y-88.1639

G1X73.8293Y-88.9446

G1X75.0120Y-89.5524

G1X76.2255Y-90.0059

G1X77.6552Y-90.3820

G1X79.4653Y-90.7100

G1X81.4920Y-90.9304

G1X83.4082Y-91.0041

G1X85.1146Y-90.9391

G1X86.8882Y-90.6571

G1X88.8847Y-89.9541

G1X90.5012Y-89.1756

G1X94.5347Y-87.0112

G1X95.8324Y-85.9542

G1X95.9668Y-85.9500

G1X96.0641Y-86.1583

G1X96.1582Y-87.0395

G1X96.0783Y-88.5616

G1X95.8210Y-90.6302

G1X95.4224Y-92.9519

G1X94.2033Y-98.3072

G1X92.7387Y-103.4829

G1X91.5926Y-106.7004

G1X90.0016Y-110.3220

G1X87.0006Y-116.2841

G1X86.4706Y-117.1633

G1X86.0386Y-117.6445

G1X85.6172Y-117.7927

G1X85.3546Y-117.6083

G1X84.7842Y-115.8134

G1X84.3021Y-114.7689

G1X82.2749Y-111.6749

G1X81.0258Y-109.9251

G1X79.2282Y-107.8532

G1X78.4427Y-107.1401

G1X77.5103Y-106.4364

G1X75.7771Y-105.3365

G1X73.8738Y-104.3253

G1X71.8344Y-103.4209

G1X69.9887Y-102.7685

G1X68.5172Y-102.4026

G1X67.0583Y-102.2228

G1X65.6676Y-102.2346

G1X64.2819Y-102.4574

G1X63.1325Y-102.8554

G1X62.1472Y-103.4338

G1X61.4809Y-104.0679

G1X60.9578Y-104.9239

G1X60.4499Y-106.4065

G1X59.1082Y-111.6082

G1X57.9002Y-117.0493

G1X57.1138Y-119.6701

G1X56.5375Y-121.0401

G1X55.6924Y-122.5678

G1X54.6112Y-124.2144

G1X53.3394Y-125.8834

G1X51.8656Y-127.5328

G1X50.4840Y-128.7993

G1X49.3532Y-129.5803

G1X48.1522Y-130.0803

G1X46.8664Y-130.2629

G1X45.5165Y-130.1015

G1X44.1313Y-129.5899

G1X42.7809Y-128.7568

G1X41.5889Y-127.5325

G1X40.3169Y-125.6791

G1X37.3697Y-120.7114

G1X33.0692Y-112.7210

G1X31.6727Y-110.4669

G1X29.8082Y-107.6799

G1X26.9875Y-103.7169

G1X24.0024Y-99.7677

G1X22.0437Y-97.4081

G1X17.9246Y-92.7111

G1X15.4695Y-89.6249

G1X13.6972Y-87.0765

G1X13.2477Y-86.2396

G1X12.9768Y-85.4873

G1X12.7778Y-83.8051

G1X13.0421Y-82.8988

G1X13.1357Y-82.1868

G1X13.4607Y-77.3065

G1X14.2686Y-72.1887

G1X15.4737Y-66.0393

G1X16.2045Y-61.1284

G1X16.7342Y-56.7599

G1X16.9217Y-53.1361

G1X16.8617Y-49.7094

G1X16.6480Y-46.2102

G1X16.2858Y-42.7519

G1X15.8171Y-39.7474

G1X15.0919Y-36.8031

G1X13.0531Y-30.5025

G1X11.5954Y-25.6136

G1X11.3455Y-24.3685

G1X11.4038Y-23.2538

G1X11.8142Y-22.2885

G1X12.5473Y-21.3596

G1X13.5025Y-20.6327

G1X14.5344Y-20.1295

G1X15.6624Y-19.7680

G1X18.6910Y-19.2743

G1X22.3833Y-19.0704

G1X24.2026Y-19.1199

G1X25.9625Y-19.2750

G1X28.6200Y-19.7469

G1X31.5309Y-20.6239

G1X35.0154Y-22.0004

G1X38.5583Y-23.6852

G1X42.5022Y-25.9161

G1X44.1910Y-27.0274

G1X45.4611Y-27.9963

G1X46.8247Y-29.1979

G1X48.3341Y-30.7025

G1X53.6603Y-36.6127

G1X58.0981Y-40.7622

G1X61.0544Y-43.1500

G1X65.2623Y-45.8126

G1X68.4018Y-48.0661

G1X69.6491Y-49.0530

G1X70.6719Y-50.0421

G1X71.4090Y-50.9427

G1X72.3913Y-52.4189

G1X73.1691Y-53.7833

G1X73.8319Y-55.1619

G1X74.3660Y-56.5258

G1X74.7675Y-57.8510

G1X75.0339Y-59.0802

G1X75.2202Y-60.4662

G1X75.3399Y-62.5559

G1X75.3136Y-64.8412

G1X75.1412Y-67.3234

G1X74.8482Y-69.6893

G1X74.2487Y-72.1483

G1X72.3782Y-77.7786

G1X71.7725Y-80.9504

G1X71.6010Y-82.5323

G1X71.7169Y-83.8912

G1X72.1382Y-84.9907

G1X73.0661Y-86.2297

G1X74.3630Y-87.3890

G1X75.5794Y-88.1920

G1X76.8345Y-88.8229

G1X78.1789Y-89.3111

G1X79.5443Y-89.6255

G1X81.3876Y-89.8538

G1X83.4000Y-89.9394

G1X85.5570Y-89.8759

G1X87.5064Y-89.6703

G1X89.5610Y-89.2222

G1X90.4903Y-88.8506

G1X91.3955Y-88.3746

G1X92.8253Y-87.4371

G1X95.5569Y-85.3100

G1X96.6935Y-84.5459

G1X97.3198Y-83.9272

G1X97.2921Y-85.7250

G1X97.1446Y-87.8292

G1X96.5320Y-92.4773

G1X95.3472Y-97.9870

G1X93.8924Y-103.3901

G1X92.7144Y-106.8653

G1X91.1757Y-110.4435

G1X87.9634Y-116.7457

G1X87.3986Y-117.6973

G1X86.9934Y-118.1600

G1X86.5396Y-118.3284

G1X86.3480Y-118.2790

G1X86.1682Y-118.1156

G1X85.9499Y-117.6405

G1X85.3757Y-115.7533

G1X84.8569Y-114.6498

G1X81.8829Y-110.6040

G1X79.5690Y-107.9871

G1X78.4671Y-106.9740

G1X77.4151Y-106.1750

G1X75.7822Y-105.1911

G1X73.9597Y-104.2977

G1X71.8564Y-103.4530

G1X69.8023Y-102.7993

G1X68.1091Y-102.4075

G1X66.6898Y-102.2323

G1X65.2464Y-102.2472

G1X63.9304Y-102.4709

G1X62.7570Y-102.8973

G1X61.7415Y-103.5201

G1X60.9128Y-104.3193

G1X60.3860Y-105.2263

G1X59.9824Y-106.6682

G1X59.3016Y-110.8783

G1X57.7129Y-117.8119

G1X57.0402Y-120.2938

G1X56.4653Y-121.9305

G1X55.8288Y-123.3077

G1X54.9445Y-124.7597

G1X53.8964Y-126.1841

G1X52.3703Y-127.9138

G1X50.7076Y-129.4487

G1X49.1828Y-130.5384

G1X47.8105Y-131.1669

G1X47.1174Y-131.3230

G1X46.4346Y-131.3738

G1X45.1021Y-131.1942

G1X43.6389Y-130.6042

G1X42.1828Y-129.6544

G1X40.9905Y-128.4660

G1X39.6773Y-126.5857

G1X36.3070Y-120.8746

G1X32.1402Y-113.3200

G1X29.4386Y-109.1122

G1X26.5317Y-105.0497

G1X22.8937Y-100.2612

G1X21.0475Y-98.0103

G1X17.2528Y-93.6252

G1X15.6898Y-91.6460

G1X13.7750Y-88.8738

G1X13.2423Y-87.9500

G1X12.9317Y-87.1554

G1X12.7314Y-85.8828

G1X12.7111Y-84.9896

G1X12.4690Y-83.0576

G1X12.4158Y-80.6865

G1X12.5558Y-78.6728

G1X13.2876Y-74.1158

G1X14.8375Y-67.1569

G1X16.1695Y-59.7462

G1X16.7028Y-55.5844

G1X16.8698Y-51.8388

G1X16.8323Y-48.4035

G1X16.6555Y-44.9902

G1X16.3516Y-41.7725

G1X15.9368Y-38.9477

G1X15.2250Y-35.9866

G1X13.1427Y-29.4129

G1X11.7638Y-24.5617

G1X11.5187Y-23.3005

G1X11.5658Y-22.2574

G1X11.9211Y-21.3842

G1X12.6815Y-20.4202

G1X13.6832Y-19.6605

G1X14.5791Y-19.2129

G1X15.5184Y-18.8851

G1X17.7212Y-18.4730

G1X21.5943Y-18.2637

G1X25.3132Y-18.4298

G1X28.1301Y-18.8393

G1X30.5957Y-19.4624

G1X33.2571Y-20.4677

G1X36.1795Y-21.8588

G1X39.0548Y-23.4500

G1X41.9286Y-25.2387

G1X44.6414Y-27.1255

G1X46.7497Y-28.8006

G1X48.0905Y-30.0938

G1X49.4656Y-31.6218

G1X53.3684Y-36.6091

G1X54.5436Y-37.9947

G1X56.7911Y-40.2157

G1X58.7974Y-41.9311

G1X60.5202Y-43.1923

G1X61.8744Y-44.0556

G1X66.1711Y-46.0678

G1X69.6355Y-48.0207

G1X71.0508Y-48.9781

G1X72.1246Y-49.9557

G1X72.9247Y-50.9331

G1X73.8209Y-52.2303

G1X74.5650Y-53.5011

G1X75.1926Y-54.7822

G1X75.6958Y-56.0447

G1X76.0749Y-57.2650

G1X76.3460Y-58.4732

G1X76.5393Y-59.8613

G1X76.6640Y-61.8625

G1X76.6524Y-64.1699

G1X76.4991Y-66.6859

G1X76.2237Y-69.1711

G1X75.6657Y-71.6401

G1X74.2752Y-75.8695

G1X73.8470Y-77.3989

G1X73.4726Y-79.8941

G1X73.3322Y-81.6621

G1X73.4544Y-83.1613

G1X73.8798Y-84.3556

G1X74.7122Y-85.4762

G1X75.9617Y-86.5638

G1X77.2465Y-87.3881

G1X78.6914Y-88.0894

G1X80.1336Y-88.5927

G1X81.5961Y-88.9087

G1X83.1591Y-89.0401

G1X85.0139Y-89.0188

G1X87.0695Y-88.8377

G1X89.0923Y-88.5151

G1X90.5769Y-88.1748

G1X91.8896Y-87.7706

G1X92.7478Y-87.4016

G1X93.5393Y-86.9226

G1X94.9820Y-85.7299

G1X97.4981Y-83.0189

G1X98.5849Y-82.0688

G1X98.3246Y-83.2393

G1X97.9638Y-88.7924

G1X97.4522Y-92.8503

G1X96.3590Y-98.0931

G1X94.9537Y-103.4761

G1X93.7589Y-107.1599

G1X92.2327Y-110.7928

G1X90.8157Y-113.6707

G1X88.7928Y-117.4189

G1X88.2483Y-118.3353

G1X87.8769Y-118.7635

G1X87.6134Y-118.9064

G1X87.3918Y-118.9180

G1X87.1114Y-118.8116

G1X86.8983Y-118.5941

G1X86.6167Y-117.9745

G1X85.9370Y-115.8288

G1X85.4708Y-114.7898

G1X84.8024Y-113.7414

G1X83.2943Y-111.8885

G1X81.5994Y-109.9564

G1X80.0010Y-108.3150

G1X78.4714Y-106.9426

G1X77.0736Y-105.8953

G1X75.6084Y-105.0400

G1X73.8682Y-104.2410

G1X71.9185Y-103.5277

G1X69.8586Y-102.9393

G1X67.9156Y-102.5363

G1X66.2164Y-102.3381

G1X64.8227Y-102.3497

G1X63.5673Y-102.5546

G1X62.3801Y-102.9899

G1X61.2938Y-103.6991

G1X60.3972Y-104.6496

G1X59.8181Y-105.6597

G1X59.4533Y-107.2315

G1X59.1809Y-110.7149

G1X58.9562Y-112.3407

G1X57.1725Y-119.9410

G1X56.4991Y-122.1937

G1X55.7848Y-124.0673

G1X55.0876Y-125.4436

G1X54.1009Y-126.8959

G1X52.6466Y-128.5600

G1X50.8948Y-130.1227

G1X49.1356Y-131.3197

G1X47.4925Y-132.0741

G1X46.2092Y-132.3014

G1X44.8820Y-132.1605

G1X43.5155Y-131.6405

G1X42.0263Y-130.6925

G1X41.2224Y-130.0424

G1X40.5762Y-129.3986

G1X39.1541Y-127.4934

G1X35.1541Y-120.7965

G1X31.0176Y-113.5679

G1X29.7118Y-111.4817

G1X28.0985Y-109.1235

G1X25.4364Y-105.4967

G1X21.7437Y-100.7132

G1X16.2355Y-94.1456

G1X14.3789Y-91.6500

G1X12.8961Y-89.2121

G1X12.5903Y-88.2973

G1X12.1439Y-87.3313

G1X11.6278Y-85.7765

G1X11.3994Y-84.3083

G1X11.2940Y-82.2333

G1X11.3615Y-80.6455

G1X11.6032Y-78.6002

G1X12.3215Y-74.8134

G1X14.0446Y-68.1015

G1X15.8202Y-59.8392

G1X16.4723Y-55.6624

G1X16.7380Y-51.7316

G1X16.7792Y-48.1625

G1X16.6721Y-44.6232

G1X16.4261Y-41.2926

G1X16.0532Y-38.3686

G1X15.3863Y-35.3956

G1X13.2170Y-28.3504

G1X11.9300Y-23.4836

G1X11.7128Y-22.2982

G1X11.7402Y-21.3250

G1X12.0693Y-20.4438

G1X12.8492Y-19.4840

G1X13.8827Y-18.7153

G1X14.7348Y-18.2885

G1X15.6134Y-17.9714

G1X17.6892Y-17.5546

G1X20.6676Y-17.4360

G1X24.0931Y-17.5791

G1X27.2352Y-17.9623

G1X30.1147Y-18.5778

G1X32.5963Y-19.3858

G1X34.9254Y-20.4526

G1X37.9007Y-22.1629

G1X41.1523Y-24.3602

G1X44.5522Y-26.9606

G1X47.7476Y-29.6962

G1X49.0947Y-31.0752

G1X50.4258Y-32.6905

G1X53.9669Y-37.8209

G1X55.0606Y-39.2632

G1X56.6902Y-40.9593

G1X58.3637Y-42.3801

G1X60.0932Y-43.5316

G1X62.2512Y-44.6840

G1X63.5880Y-45.1621

G1X67.0441Y-46.1412

G1X70.8911Y-47.7349

G1X72.3690Y-48.5702

G1X73.5540Y-49.5735

G1X74.3798Y-50.5416

G1X75.2062Y-51.6868

G1X75.9297Y-52.8763

G1X76.5376Y-54.0737

G1X77.0634Y-55.3498

G1X77.4582Y-56.5888

G1X77.7332Y-57.7873

G1X77.9187Y-59.0658

G1X78.0589Y-61.1492

G1X78.0574Y-63.4502

G1X77.9144Y-66.0713

G1X77.6432Y-68.7505

G1X77.1323Y-71.1575

G1X75.7819Y-75.4607

G1X75.3928Y-76.9284

G1X75.1998Y-78.1263

G1X75.0619Y-80.4523

G1X75.1796Y-82.2390

G1X75.5821Y-83.5640

G1X75.9484Y-84.2110

G1X76.3715Y-84.7437

G1X77.5928Y-85.7977

G1X78.9265Y-86.6174

G1X80.4559Y-87.3232

G1X82.1029Y-87.8661

G1X83.6841Y-88.1838

G1X85.0412Y-88.2785

G1X86.6042Y-88.2033

G1X88.3927Y-87.9582

G1X90.3222Y-87.5479

G1X91.9751Y-87.0831

G1X93.5713Y-86.5172

G1X94.8362Y-85.9448

G1X95.6278Y-85.4331

G1X96.3389Y-84.7932

G1X96.9736Y-84.0697

G1X97.7294Y-83.0201

G1X99.1129Y-80.8062

G1X99.3843Y-80.4906

G1X99.7169Y-80.2678

G1X99.3950Y-81.2865

G1X99.1984Y-82.4085

G1X98.8111Y-89.3196

G1X98.3709Y-93.2176

G1X97.4152Y-97.9914

G1X96.0977Y-103.1926

G1X94.7376Y-107.5647

G1X93.3100Y-111.0816

G1X91.0878Y-115.4944

G1X89.2352Y-118.7399

G1X88.7268Y-119.4177

G1X88.4595Y-119.5648

G1X88.1684Y-119.5410

G1X87.8265Y-119.3411

G1X87.5815Y-119.0635

G1X87.2847Y-118.4457

G1X86.5388Y-116.2219

G1X86.0321Y-115.0195

G1X85.4005Y-113.9171

G1X84.5745Y-112.8761

G1X82.5546Y-110.7111

G1X80.4841Y-108.7248

G1X78.4910Y-107.0399

G1X76.7156Y-105.7638

G1X75.2884Y-104.9365

G1X73.6434Y-104.2080

G1X71.7750Y-103.5765

G1X69.8653Y-103.0910

G1X67.8055Y-102.7255

G1X65.8447Y-102.5422

G1X64.3302Y-102.5590

G1X62.9917Y-102.7810

G1X61.7912Y-103.2560

G1X60.8104Y-103.9694

G1X59.9528Y-104.9972

G1X59.2581Y-106.3190

G1X59.0515Y-107.1009

G1X58.9300Y-108.0543

G1X58.8294Y-111.7211

G1X58.6868Y-113.4290

G1X58.4832Y-114.6049

G1X57.7209Y-117.8022

G1X56.7729Y-121.3500

G1X55.8625Y-124.1077

G1X54.9266Y-126.2730

G1X53.9405Y-127.8851

G1X52.5556Y-129.4819

G1X50.9065Y-130.8815

G1X49.1058Y-132.0045

G1X47.3073Y-132.7587

G1X45.9291Y-133.0227

G1X44.6171Y-132.9058

G1X43.2729Y-132.4145

G1X41.8898Y-131.5556

G1X40.0996Y-130.0209

G1X38.7579Y-128.3732

G1X37.5791Y-126.5530

G1X30.1396Y-114.1991

G1X28.1004Y-111.0446

G1X25.9053Y-107.9956

G1X22.9976Y-104.2209

G1X19.7311Y-100.1029

G1X15.7653Y-95.3812

G1X14.4755Y-93.7364

G1X12.7576Y-91.2359

G1X11.3118Y-89.3467

G1X10.6880Y-88.0476

G1X10.3523Y-87.0261

G1X10.0805Y-85.2014

G1X9.9991Y-83.2657

G1X10.1164Y-81.3227

G1X10.4200Y-79.1213

G1X11.1807Y-75.5732

G1X13.1669Y-68.7283

G1X15.4099Y-59.7512

G1X16.1729Y-55.5776

G1X16.5459Y-51.3719

G1X16.6606Y-47.7800

G1X16.6232Y-44.1254

G1X16.4363Y-40.6925

G1X16.1066Y-37.6687

G1X15.7801Y-35.9340

G1X15.3064Y-34.0190

G1X13.1957Y-27.0044

G1X12.1084Y-22.4345

G1X11.9160Y-21.2229

G1X11.9695Y-20.2405

G1X12.3321Y-19.3626

G1X13.0861Y-18.5164

G1X14.1016Y-17.7954

G1X14.9263Y-17.3872

G1X15.8654Y-17.0483

G1X17.9535Y-16.6291

G1X20.0070Y-16.5450

G1X23.3000Y-16.7438

G1X26.6823Y-17.1876

G1X29.8323Y-17.8530

G1X32.6368Y-18.7171

G1X35.0838Y-19.7760

G1X36.4625Y-20.5477

G1X37.8673Y-21.4558

G1X41.0288Y-23.8532

G1X44.4764Y-26.8931

G1X48.3297Y-30.6744

G1X49.8786Y-32.3339

G1X51.1459Y-33.9718

G1X52.2811Y-35.6946

G1X54.4309Y-39.2932

G1X55.3515Y-40.6263

G1X56.5081Y-41.8952

G1X57.7930Y-42.9849

G1X58.6992Y-43.5871

G1X59.6780Y-44.1095

G1X62.5348Y-45.2430

G1X64.0025Y-45.5562

G1X67.9060Y-46.0514

G1X72.0556Y-47.1885

G1X72.9840Y-47.5605

G1X73.7821Y-47.9872

G1X74.4523Y-48.4610

G1X75.1034Y-49.0662

G1X75.9248Y-50.0017

G1X76.6607Y-50.9983

G1X77.3503Y-52.1052

G1X77.9737Y-53.3098

G1X78.4730Y-54.4975

G1X78.8832Y-55.7479

G1X79.1691Y-56.9514

G1X79.3601Y-58.2187

G1X79.5090Y-60.2951

G1X79.5161Y-62.7067

G1X79.3787Y-65.4482

G1X79.1106Y-68.3296

G1X78.6296Y-70.7356

G1X77.0109Y-76.3202

G1X76.8005Y-77.6150

G1X76.7523Y-79.0542

G1X76.8754Y-81.1492

G1X77.0477Y-82.0017

G1X77.3172Y-82.7966

G1X77.6525Y-83.4538

G1X78.0906Y-84.0636

G1X78.6252Y-84.6088

G1X79.2707Y-85.1128

G1X80.6349Y-85.9181

G1X82.1477Y-86.5769

G1X83.7958Y-87.0949

G1X85.4945Y-87.4288

G1X86.8535Y-87.5345

G1X88.1740Y-87.4671

G1X89.7592Y-87.1938

G1X91.5291Y-86.7192

G1X93.3920Y-86.0656

G1X95.2194Y-85.2729

G1X96.7692Y-84.4449

G1X97.7874Y-83.7187

G1X98.4476Y-82.9760

G1X98.9860Y-82.1316

G1X99.5588Y-80.9216

G1X100.3587Y-78.7824

G1X100.5111Y-78.5352

G1X100.6579Y-78.4847

G1X100.1755Y-80.7083

G1X99.9817Y-82.1725

G1X99.6772Y-89.5716

G1X99.3246Y-93.3758

G1X98.5817Y-97.4219

G1X97.4230Y-102.2062

G1X95.8156Y-107.6020

G1X95.1100Y-109.5854

G1X94.3021Y-111.5356

G1X93.2413Y-113.7829

G1X92.0488Y-116.0399

G1X90.0437Y-119.4047

G1X89.5141Y-120.1384

G1X89.2596Y-120.2763

G1X88.9794Y-120.2186

G1X88.5494Y-119.8878

G1X88.2226Y-119.4981

G1X87.8486Y-118.7341

G1X86.9363Y-116.2616

G1X86.3773Y-114.9992

G1X85.6486Y-113.7418

G1X84.8734Y-112.7515

G1X83.0869Y-110.9758

G1X80.9968Y-109.1394

G1X78.8558Y-107.4602

G1X76.7387Y-106.0060

G1X75.0970Y-105.0505

G1X73.5970Y-104.3541

G1X71.9499Y-103.7848

G1X70.1286Y-103.3293

G1X67.9894Y-102.9805

G1X65.8708Y-102.8190

G1X64.0186Y-102.8531

G1X62.5100Y-103.0821

G1X61.2725Y-103.5585

G1X60.2642Y-104.3417

G1X59.4986Y-105.4026

G1X58.7714Y-107.0231

G1X58.5706Y-107.7839

G1X58.4561Y-108.7130

G1X58.4263Y-113.8187

G1X58.2941Y-115.2887

G1X58.0596Y-116.5482

G1X56.9498Y-120.7411

G1X55.8020Y-124.2603

G1X54.6528Y-127.0078

G1X53.5089Y-128.9815

G1X52.3324Y-130.3468

G1X50.8208Y-131.5865

G1X49.1187Y-132.5606

G1X47.2537Y-133.2452

G1X45.7680Y-133.5122

G1X44.4550Y-133.4381

G1X43.1169Y-133.0001

G1X41.6589Y-132.1361

G1X40.6504Y-131.3409

G1X39.5034Y-130.2934

G1X38.0827Y-128.6382

G1X36.7728Y-126.7131

G1X28.8102Y-114.0893

G1X26.3714Y-110.4987

G1X21.9937Y-104.8245

G1X12.8864Y-93.7424

G1X12.3058Y-93.1313

G1X10.8206Y-91.9384

G1X10.2490Y-91.3494

G1X9.4706Y-89.9233

G1X8.9324Y-88.3212

G1X8.6370Y-86.3311

G1X8.5651Y-84.2622

G1X8.7380Y-81.9856

G1X9.1124Y-79.6391

G1X9.9573Y-76.1474

G1X12.1645Y-69.3300

G1X14.9321Y-59.6058

G1X15.8260Y-55.3253

G1X16.2954Y-51.0466

G1X16.4878Y-47.3488

G1X16.5217Y-43.5897

G1X16.3968Y-40.0603

G1X16.1213Y-36.9627

G1X15.8029Y-35.1017

G1X15.3492Y-33.1710

G1X13.1923Y-25.7675

G1X12.3149Y-21.5092

G1X12.1438Y-20.2722

G1X12.2006Y-19.2819

G1X12.5504Y-18.4113

G1X13.2157Y-17.6713

G1X14.2377Y-16.9499

G1X15.9041Y-16.2192

G1X17.8525Y-15.7721

G1X19.9938Y-15.6370

G1X22.1962Y-15.8048

G1X25.8635Y-16.3920

G1X29.5108Y-17.2528

G1X32.8187Y-18.3201

G1X35.6752Y-19.5552

G1X37.7836Y-20.7641

G1X39.8995Y-22.3562

G1X42.2111Y-24.4793

G1X44.7944Y-27.2203

G1X47.1188Y-29.9256

G1X50.8870Y-34.5194

G1X52.3401Y-36.6866

G1X54.4280Y-40.4695

G1X55.1990Y-41.7146

G1X56.1112Y-42.8281

G1X57.3138Y-43.8400

G1X58.2817Y-44.4161

G1X59.4351Y-44.8925

G1X62.7876Y-45.6962

G1X64.3630Y-45.8306

G1X68.7545Y-45.8036

G1X73.2518Y-46.4700

G1X74.3054Y-46.7814

G1X75.1250Y-47.1472

G1X75.8952Y-47.6420

G1X76.6440Y-48.3148

G1X77.4802Y-49.2492

G1X78.2229Y-50.2539

G1X78.9135Y-51.3753

G1X79.4882Y-52.5012

G1X79.9873Y-53.7021

G1X80.3959Y-54.9664

G1X80.6730Y-56.1497

G1X80.8603Y-57.4120

G1X81.0068Y-59.4833

G1X81.0140Y-62.0012

G1X80.8763Y-64.8536

G1X80.5975Y-68.0339

G1X80.1246Y-70.4660

G1X78.6790Y-75.6235

G1X78.4652Y-76.7793

G1X78.3915Y-77.7802

G1X78.5335Y-80.0452

G1X78.7196Y-81.0363

G1X78.9722Y-81.8663

G1X79.3186Y-82.6347

G1X79.7155Y-83.2637

G1X80.2055Y-83.8399

G1X80.7974Y-84.3614

G1 Z0F20000


G00 X0.0000 Y0.0000


