$H
G21
G17
G90
G1 Z0F20000
G1 F15000

(Start Layer)

(Start Block)


G1X53.6798Y-61.4850
G1Z5F20000
(Plotting speed under)
G1 F4000


G1X27.3734Y-82.8037

G1X20.5023Y-123.5576

G1X32.1721Y-182.8524

G1X43.2657Y-241.5712

G1X28.5504Y-274.4809

G1X18.7703Y-312.3258

G1X23.7758Y-364.9564

G1 Z0F20000

(Start Block)


G1X53.7295Y-60.4764
G1Z5F20000
(Plotting speed under)
G1 F4000


G1X28.3384Y-82.7104

G1X21.3630Y-123.3600

G1X33.5184Y-183.1404

G1X43.7178Y-240.9649

G1X29.3435Y-274.2157

G1X20.4171Y-312.9143

G1X24.9556Y-365.0778

G1 Z0F20000

(Start Block)


G1X53.7792Y-59.4678
G1Z5F20000
(Plotting speed under)
G1 F4000


G1X29.3034Y-82.6170

G1X22.2237Y-123.1623

G1X34.8647Y-183.4284

G1X44.1698Y-240.3586

G1X30.1367Y-273.9505

G1X22.0639Y-313.5028

G1X26.1352Y-365.1991

G1 Z0F20000

(Start Block)


G1X53.8290Y-58.4592
G1Z5F20000
(Plotting speed under)
G1 F4000


G1X30.2683Y-82.5236

G1X23.0844Y-122.9647

G1X36.2110Y-183.7163

G1X44.6218Y-239.7523

G1X30.9298Y-273.6853

G1X23.7108Y-314.0913

G1X27.3149Y-365.3205

G1 Z0F20000

(Start Block)


G1X53.8787Y-57.4505
G1Z5F20000
(Plotting speed under)
G1 F4000


G1X31.2333Y-82.4303

G1X23.9451Y-122.7671

G1X37.5573Y-184.0043

G1X45.0739Y-239.1460

G1X31.7230Y-273.4201

G1X25.3576Y-314.6798

G1X28.4946Y-365.4419

G1 Z0F20000

(Start Block)


G1X53.9284Y-56.4419
G1Z5F20000
(Plotting speed under)
G1 F4000


G1X32.1983Y-82.3369

G1X24.8058Y-122.5694

G1X38.9036Y-184.2923

G1X45.5259Y-238.5397

G1X32.5161Y-273.1549

G1X27.0044Y-315.2683

G1X29.6743Y-365.5632

G1 Z0F20000

(Start Block)


G1X53.9781Y-55.4333
G1Z5F20000
(Plotting speed under)
G1 F4000


G1X33.1633Y-82.2436

G1X25.6665Y-122.3718

G1X40.2499Y-184.5803

G1X45.9780Y-237.9334

G1X33.3092Y-272.8897

G1X28.6513Y-315.8568

G1X30.8540Y-365.6846

G1 Z0F20000

(Start Block)


G1X54.0278Y-54.4247
G1Z5F20000
(Plotting speed under)
G1 F4000


G1X34.1283Y-82.1502

G1X26.5272Y-122.1741

G1X41.5962Y-184.8682

G1X46.4300Y-237.3271

G1X34.1024Y-272.6245

G1X30.2981Y-316.4453

G1X32.0337Y-365.8059

G1 Z0F20000

(Start Block)


G1X54.0775Y-53.4161
G1Z5F20000
(Plotting speed under)
G1 F4000


G1X35.0932Y-82.0568

G1X27.3879Y-121.9765

G1X42.9425Y-185.1562

G1X46.8820Y-236.7208

G1X34.8955Y-272.3593

G1X31.9449Y-317.0338

G1X33.2134Y-365.9273

G1 Z0F20000

(Start Block)


G1X54.1272Y-52.4075
G1Z5F20000
(Plotting speed under)
G1 F4000


G1X36.0582Y-81.9635

G1X28.2486Y-121.7789

G1X44.2888Y-185.4442

G1X47.3341Y-236.1145

G1X35.6887Y-272.0941

G1X33.5918Y-317.6223

G1X34.3931Y-366.0486

G1 Z0F20000

(Start Block)


G1X54.1770Y-51.3988
G1Z5F20000
(Plotting speed under)
G1 F4000


G1X37.0232Y-81.8701

G1X29.1093Y-121.5812

G1X45.6351Y-185.7321

G1X47.7861Y-235.5082

G1X36.4818Y-271.8289

G1X35.2386Y-318.2107

G1X35.5728Y-366.1700

G1 Z0F20000

(Start Block)


G1X54.2267Y-50.3902
G1Z5F20000
(Plotting speed under)
G1 F4000


G1X37.9881Y-81.7767

G1X29.9700Y-121.3836

G1X46.9814Y-186.0201

G1X48.2381Y-234.9019

G1X37.2749Y-271.5637

G1X36.8854Y-318.7993

G1X36.7525Y-366.2914

G1 Z0F20000

(Start Block)


G1X54.2764Y-49.3816
G1Z5F20000
(Plotting speed under)
G1 F4000


G1X38.9531Y-81.6834

G1X30.8307Y-121.1860

G1X48.3277Y-186.3081

G1X48.6902Y-234.2956

G1X38.0681Y-271.2986

G1X38.5322Y-319.3878

G1X37.9322Y-366.4127

G1 Z0F20000

(Start Block)


G1X54.3261Y-48.3730
G1Z5F20000
(Plotting speed under)
G1 F4000


G1X39.9181Y-81.5900

G1X31.6914Y-120.9883

G1X49.6740Y-186.5961

G1X49.1422Y-233.6893

G1X38.8612Y-271.0334

G1X40.1791Y-319.9762

G1X39.1119Y-366.5341

G1 Z0F20000

(Start Block)


G1X54.3758Y-47.3644
G1Z5F20000
(Plotting speed under)
G1 F4000


G1X40.8830Y-81.4966

G1X32.5521Y-120.7907

G1X51.0203Y-186.8840

G1X49.5942Y-233.0830

G1X39.6544Y-270.7682

G1X41.8259Y-320.5648

G1X40.2916Y-366.6555

G1 Z0F20000

(Start Block)


G1X54.4255Y-46.3557
G1Z5F20000
(Plotting speed under)
G1 F4000


G1X41.8480Y-81.4033

G1X33.4128Y-120.5930

G1X52.3666Y-187.1720

G1X50.0463Y-232.4767

G1X40.4475Y-270.5030

G1X43.4727Y-321.1532

G1X41.4713Y-366.7768

G1 Z0F20000

(Start Block)


G1X54.4752Y-45.3471
G1Z5F20000
(Plotting speed under)
G1 F4000


G1X42.8130Y-81.3099

G1X34.2735Y-120.3954

G1X53.7129Y-187.4600

G1X50.4983Y-231.8704

G1X41.2407Y-270.2378

G1X45.1196Y-321.7417

G1X42.6510Y-366.8982

G1 Z0F20000

(Start Block)


G1X54.5249Y-44.3385
G1Z5F20000
(Plotting speed under)
G1 F4000


G1X43.7780Y-81.2166

G1X35.1341Y-120.1978

G1X55.0592Y-187.7479

G1X50.9503Y-231.2641

G1X42.0338Y-269.9726

G1X46.7664Y-322.3302

G1X43.8307Y-367.0195

G1 Z0F20000

(Start Block)


G1X54.5747Y-43.3299
G1Z5F20000
(Plotting speed under)
G1 F4000


G1X44.7429Y-81.1232

G1X35.9949Y-120.0001

G1X56.4055Y-188.0359

G1X51.4024Y-230.6578

G1X42.8269Y-269.7074

G1X48.4132Y-322.9187

G1X45.0104Y-367.1409

G1 Z0F20000

(Start Block)


G1X54.6244Y-42.3212
G1Z5F20000
(Plotting speed under)
G1 F4000


G1X36.8556Y-119.8025

G1X57.7519Y-188.3239

G1X51.8544Y-230.0515

G1X43.6201Y-269.4422

G1X50.0600Y-323.5072

G1X46.1901Y-367.2623

G1 Z0F20000

(Start Block)


G1X54.6741Y-41.3126
G1Z5F20000
(Plotting speed under)
G1 F4000


G1X46.6729Y-80.9365

G1X37.7162Y-119.6049

G1X59.0982Y-188.6118

G1X52.3064Y-229.4452

G1X44.4132Y-269.1770

G1X51.7069Y-324.0957

G1X47.3698Y-367.3836

G1 Z0F20000

(Start Block)


G1X54.7238Y-40.3040
G1Z5F20000
(Plotting speed under)
G1 F4000


G1X47.6379Y-80.8431

G1X38.5770Y-119.4072

G1X60.4445Y-188.8998

G1X52.7584Y-228.8389

G1X45.2064Y-268.9118

G1X53.3537Y-324.6842

G1X48.5494Y-367.5050

G1 Z0F20000

(Start Block)


G1X54.7735Y-39.2954
G1Z5F20000
(Plotting speed under)
G1 F4000


G1X48.6028Y-80.7497

G1X39.4376Y-119.2096

G1X61.7908Y-189.1878

G1X53.2105Y-228.2326

G1X45.9995Y-268.6466

G1X55.0006Y-325.2727

G1X49.7291Y-367.6264

G1 Z0F20000

(Start Block)


G1X54.8232Y-38.2868
G1Z5F20000
(Plotting speed under)
G1 F4000


G1X49.5678Y-80.6564

G1X40.2983Y-119.0119

G1X63.1371Y-189.4758

G1X53.6625Y-227.6263

G1X46.7926Y-268.3814

G1X56.6474Y-325.8612

G1X50.9088Y-367.7477

G1 Z0F20000

(Start Block)


G1X54.8729Y-37.2781
G1Z5F20000
(Plotting speed under)
G1 F4000


G1X50.5328Y-80.5630

G1X41.1590Y-118.8143

G1X64.4834Y-189.7637

G1X54.1145Y-227.0200

G1X47.5858Y-268.1162

G1X58.2942Y-326.4497

G1X52.0885Y-367.8691

G1 Z0F20000

(Start Block)


G1X54.9227Y-36.2695
G1Z5F20000
(Plotting speed under)
G1 F4000


G1X51.4977Y-80.4697

G1X42.0197Y-118.6167

G1X65.8297Y-190.0517

G1X54.5666Y-226.4137

G1X48.3789Y-267.8510

G1X59.9410Y-327.0382

G1X53.2682Y-367.9905

G1 Z0F20000

(Start Block)


G1X54.9724Y-35.2609
G1Z5F20000
(Plotting speed under)
G1 F4000


G1X52.4627Y-80.3763

G1X42.8804Y-118.4190

G1X67.1760Y-190.3397

G1X55.0186Y-225.8074

G1X49.1721Y-267.5858

G1X61.5879Y-327.6267

G1X54.4479Y-368.1118

G1 Z0F20000

(Start Block)


G1X55.0221Y-34.2523
G1Z5F20000
(Plotting speed under)
G1 F4000


G1X53.4277Y-80.2829

G1X43.7411Y-118.2214

G1X68.5223Y-190.6277

G1X55.4706Y-225.2010

G1X49.9652Y-267.3206

G1X63.2347Y-328.2152

G1X55.6276Y-368.2332

G1 Z0F20000

(Start Block)


G1X55.0718Y-33.2437
G1Z5F20000
(Plotting speed under)
G1 F4000


G1X54.3927Y-80.1896

G1X44.6018Y-118.0238

G1X69.8686Y-190.9156

G1X55.9227Y-224.5948

G1X50.7584Y-267.0555

G1X64.8815Y-328.8037

G1X56.8073Y-368.3545

G1 Z0F20000

(Start Block)


G1X55.1215Y-32.2351
G1Z5F20000
(Plotting speed under)
G1 F4000


G1X55.3576Y-80.0962

G1X45.4625Y-117.8261

G1X71.2149Y-191.2036

G1X56.3747Y-223.9885

G1X51.5515Y-266.7903

G1X66.5284Y-329.3922

G1X57.9870Y-368.4759

G1 Z0F20000

(Start Block)


G1X55.1712Y-31.2264
G1Z5F20000
(Plotting speed under)
G1 F4000


G1X56.3226Y-80.0028

G1X46.3232Y-117.6285

G1X72.5612Y-191.4916

G1X56.8267Y-223.3821

G1X52.3446Y-266.5251

G1X68.1752Y-329.9807

G1X59.1667Y-368.5972

G1 Z0F20000

(Start Block)


G1X55.2210Y-30.2178
G1Z5F20000
(Plotting speed under)
G1 F4000


G1X57.2876Y-79.9095

G1X47.1839Y-117.4309

G1X73.9076Y-191.7795

G1X57.2788Y-222.7758

G1X53.1378Y-266.2599

G1X69.8220Y-330.5692

G1X60.3464Y-368.7186

G1 Z0F20000

(Start Block)


G1X55.2707Y-29.2092
G1Z5F20000
(Plotting speed under)
G1 F4000


G1X58.2526Y-79.8161

G1X48.0446Y-117.2332

G1X75.2539Y-192.0675

G1X57.7308Y-222.1696

G1X53.9309Y-265.9947

G1X71.4688Y-331.1577

G1X61.5261Y-368.8400

G1 Z0F20000

(Start Block)


G1X55.3204Y-28.2006
G1Z5F20000
(Plotting speed under)
G1 F4000


G1X59.2175Y-79.7228

G1X48.9053Y-117.0356

G1X76.6002Y-192.3555

G1X58.1829Y-221.5633

G1X54.7241Y-265.7295

G1X73.1157Y-331.7462

G1X62.7058Y-368.9613

G1 Z0F20000

(Start Block)


G1X55.3701Y-27.1920
G1Z5F20000
(Plotting speed under)
G1 F4000


G1X60.1825Y-79.6294

G1X49.7660Y-116.8379

G1X77.9465Y-192.6434

G1X58.6349Y-220.9569

G1X55.5172Y-265.4643

G1X74.7625Y-332.3347

G1X63.8855Y-369.0827

G1 Z0F20000

(Start Block)


G1X55.4198Y-26.1833
G1Z5F20000
(Plotting speed under)
G1 F4000


G1X61.1475Y-79.5360

G1X50.6267Y-116.6403

G1X79.2928Y-192.9314

G1X59.0869Y-220.3506

G1X56.3103Y-265.1991

G1X76.4094Y-332.9232

G1X65.0652Y-369.2040

G1 Z0F20000

(Start Block)


G1X55.4695Y-25.1747
G1Z5F20000
(Plotting speed under)
G1 F4000


G1X62.1125Y-79.4427

G1X51.4874Y-116.4427

G1X80.6391Y-193.2194

G1X59.5390Y-219.7443

G1X57.1035Y-264.9339

G1X78.0562Y-333.5117

G1X66.2448Y-369.3254

G1 Z0F20000

(Start Block)


G1X55.5192Y-24.1661
G1Z5F20000
(Plotting speed under)
G1 F4000


G1X63.0774Y-79.3493

G1X52.3481Y-116.2450

G1X81.9854Y-193.5074

G1X59.9910Y-219.1380

G1X57.8966Y-264.6687

G1X79.7030Y-334.1002

G1X67.4245Y-369.4468

G1 Z0F20000

(Start Block)


G1X55.5690Y-23.1575
G1Z5F20000
(Plotting speed under)
G1 F4000


G1X64.0424Y-79.2560

G1X53.2088Y-116.0474

G1X83.3317Y-193.7953

G1X60.4430Y-218.5317

G1X58.6898Y-264.4035

G1X81.3498Y-334.6887

G1X68.6042Y-369.5681

G1 Z0F20000

(Start Block)


G1X55.6187Y-22.1488
G1Z5F20000
(Plotting speed under)
G1 F4000


G1X65.0074Y-79.1626

G1X54.0695Y-115.8498

G1X84.6780Y-194.0833

G1X60.8951Y-217.9254

G1X59.4829Y-264.1383

G1X82.9967Y-335.2771

G1X69.7839Y-369.6895

G1 Z0F20000

(Start Block)


G1X55.6684Y-21.1402
G1Z5F20000
(Plotting speed under)
G1 F4000


G1X65.9723Y-79.0692

G1X54.9302Y-115.6521

G1X86.0243Y-194.3713

G1X61.3471Y-217.3191

G1X60.2761Y-263.8731

G1X84.6435Y-335.8657

G1X70.9636Y-369.8108

G1 Z0F20000

(Start Block)


G1X55.7181Y-20.1316
G1Z5F20000
(Plotting speed under)
G1 F4000


G1X66.9373Y-78.9759

G1X55.7909Y-115.4545

G1X87.3706Y-194.6592

G1X61.7991Y-216.7128

G1X61.0692Y-263.6080

G1X86.2903Y-336.4541

G1X72.1433Y-369.9322

G1 Z0F20000

(Start Block)


G1X55.7678Y-19.1230
G1Z5F20000
(Plotting speed under)
G1 F4000


G1X67.9023Y-78.8825

G1X56.6516Y-115.2568

G1X88.7169Y-194.9472

G1X62.2511Y-216.1065

G1X61.8623Y-263.3428

G1X87.9371Y-337.0426

G1X73.3230Y-370.0536

G1 Z0F20000

(Start Block)


G1X55.8175Y-18.1143
G1Z5F20000
(Plotting speed under)
G1 F4000


G1X68.8672Y-78.7891

G1X57.5123Y-115.0592

G1X90.0632Y-195.2352

G1X62.7032Y-215.5002

G1X62.6555Y-263.0776

G1X89.5840Y-337.6311

G1X74.5027Y-370.1749

G1 Z0F20000

(Start Block)


G1X55.8672Y-17.1057
G1Z5F20000
(Plotting speed under)
G1 F4000


G1X69.8322Y-78.6958

G1X58.3730Y-114.8616

G1X91.4095Y-195.5232

G1X63.1552Y-214.8939

G1X63.4486Y-262.8124

G1X91.2308Y-338.2196

G1X75.6824Y-370.2963

G1 Z0F20000

(Start Block)


G1X55.9169Y-16.0971
G1Z5F20000
(Plotting speed under)
G1 F4000


G1X70.7972Y-78.6024

G1X59.2337Y-114.6639

G1X92.7558Y-195.8111

G1X63.6072Y-214.2876

G1X64.2418Y-262.5472

G1X92.8776Y-338.8081

G1X76.8621Y-370.4177

G1 Z0F20000

(Start Block)


G1X57.5274Y-16.6493
G1Z5F20000
(Plotting speed under)
G1 F4000


G1X71.6317Y-78.3786

G1X61.1664Y-115.5383

G1X93.6397Y-195.6367

G1X65.1476Y-214.7697

G1X65.5472Y-262.7943

G1X93.8415Y-338.7137

G1X77.5841Y-370.0812

G1 Z0F20000

(Start Block)


G1X59.1379Y-17.2014
G1Z5F20000
(Plotting speed under)
G1 F4000


G1X72.4662Y-78.1548

G1X63.0991Y-116.4127

G1X94.5236Y-195.4622

G1X66.6880Y-215.2517

G1X66.8526Y-263.0414

G1X94.8054Y-338.6192

G1X78.3060Y-369.7448

G1 Z0F20000

(Start Block)


G1X60.7484Y-17.7536
G1Z5F20000
(Plotting speed under)
G1 F4000


G1X73.3007Y-77.9309

G1X65.0317Y-117.2870

G1X95.4074Y-195.2877

G1X68.2284Y-215.7338

G1X68.1580Y-263.2884

G1X95.7693Y-338.5247

G1X79.0279Y-369.4084

G1 Z0F20000

(Start Block)


G1X62.3589Y-18.3057
G1Z5F20000
(Plotting speed under)
G1 F4000


G1X74.1353Y-77.7071

G1X66.9644Y-118.1613

G1X96.2913Y-195.1133

G1X69.7688Y-216.2158

G1X69.4634Y-263.5355

G1X96.7331Y-338.4303

G1X79.7498Y-369.0720

G1 Z0F20000

(Start Block)


G1X63.9694Y-18.8579
G1Z5F20000
(Plotting speed under)
G1 F4000


G1X74.9698Y-77.4833

G1X68.8971Y-119.0357

G1X97.1752Y-194.9388

G1X71.3092Y-216.6979

G1X70.7688Y-263.7826

G1X97.6970Y-338.3358

G1X80.4718Y-368.7356

G1 Z0F20000

(Start Block)


G1X65.5799Y-19.4101
G1Z5F20000
(Plotting speed under)
G1 F4000


G1X75.8043Y-77.2595

G1X70.8298Y-119.9101

G1X98.0590Y-194.7643

G1X72.8496Y-217.1799

G1X72.0742Y-264.0297

G1X98.6609Y-338.2413

G1X81.1937Y-368.3992

G1 Z0F20000

(Start Block)


G1X67.1904Y-19.9622
G1Z5F20000
(Plotting speed under)
G1 F4000


G1X76.6388Y-77.0356

G1X72.7625Y-120.7844

G1X98.9429Y-194.5899

G1X74.3900Y-217.6620

G1X73.3796Y-264.2767

G1X99.6248Y-338.1469

G1X81.9156Y-368.0628

G1 Z0F20000

(Start Block)


G1X68.8009Y-20.5144
G1Z5F20000
(Plotting speed under)
G1 F4000


G1X77.4733Y-76.8118

G1X74.6952Y-121.6588

G1X99.8268Y-194.4154

G1X75.9304Y-218.1440

G1X74.6851Y-264.5238

G1X100.5886Y-338.0524

G1X82.6375Y-367.7264

G1 Z0F20000

(Start Block)


G1X70.4114Y-21.0665
G1Z5F20000
(Plotting speed under)
G1 F4000


G1X78.3078Y-76.5880

G1X76.6279Y-122.5331

G1X100.7106Y-194.2409

G1X77.4708Y-218.6261

G1X75.9905Y-264.7709

G1X101.5525Y-337.9580

G1X83.3595Y-367.3900

G1 Z0F20000

(Start Block)


G1X72.0219Y-21.6187
G1Z5F20000
(Plotting speed under)
G1 F4000


G1X79.1423Y-76.3642

G1X78.5605Y-123.4075

G1X101.5945Y-194.0665

G1X79.0112Y-219.1082

G1X77.2959Y-265.0179

G1X102.5164Y-337.8635

G1X84.0814Y-367.0536

G1 Z0F20000

(Start Block)


G1X73.6324Y-22.1709
G1Z5F20000
(Plotting speed under)
G1 F4000


G1X79.9768Y-76.1404

G1X80.4932Y-124.2818

G1X102.4784Y-193.8920

G1X80.5515Y-219.5902

G1X78.6013Y-265.2650

G1X103.4803Y-337.7691

G1X84.8033Y-366.7171

G1 Z0F20000

(Start Block)


G1X75.2429Y-22.7230
G1Z5F20000
(Plotting speed under)
G1 F4000


G1X80.8113Y-75.9165

G1X82.4259Y-125.1562

G1X103.3623Y-193.7176

G1X82.0919Y-220.0723

G1X79.9067Y-265.5121

G1X104.4441Y-337.6746

G1X85.5252Y-366.3807

G1 Z0F20000

(Start Block)


G1X76.8534Y-23.2752
G1Z5F20000
(Plotting speed under)
G1 F4000


G1X81.6458Y-75.6927

G1X84.3586Y-126.0305

G1X104.2461Y-193.5431

G1X83.6323Y-220.5544

G1X81.2121Y-265.7592

G1X105.4080Y-337.5801

G1X86.2472Y-366.0443

G1 Z0F20000

(Start Block)


G1X78.4639Y-23.8273
G1Z5F20000
(Plotting speed under)
G1 F4000


G1X82.4803Y-75.4689

G1X86.2913Y-126.9049

G1X105.1300Y-193.3686

G1X85.1727Y-221.0364

G1X82.5175Y-266.0062

G1X106.3719Y-337.4857

G1X86.9691Y-365.7079

G1 Z0F20000

(Start Block)


G1X80.0744Y-24.3795
G1Z5F20000
(Plotting speed under)
G1 F4000


G1X83.3148Y-75.2451

G1X88.2240Y-127.7792

G1X106.0139Y-193.1942

G1X86.7131Y-221.5184

G1X83.8229Y-266.2533

G1X107.3357Y-337.3912

G1X87.6910Y-365.3715

G1 Z0F20000

(Start Block)


G1X81.6849Y-24.9317
G1Z5F20000
(Plotting speed under)
G1 F4000


G1X84.1493Y-75.0212

G1X90.1567Y-128.6536

G1X106.8977Y-193.0197

G1X88.2535Y-222.0005

G1X85.1283Y-266.5004

G1X108.2996Y-337.2968

G1X88.4129Y-365.0351

G1 Z0F20000

(Start Block)


G1X83.2953Y-25.4838
G1Z5F20000
(Plotting speed under)
G1 F4000


G1X84.9839Y-74.7974

G1X92.0893Y-129.5279

G1X107.7816Y-192.8452

G1X89.7939Y-222.4826

G1X86.4337Y-266.7475

G1X109.2635Y-337.2023

G1X89.1349Y-364.6987

G1 Z0F20000

(Start Block)


G1X84.9058Y-26.0360
G1Z5F20000
(Plotting speed under)
G1 F4000


G1X85.8184Y-74.5736

G1X94.0220Y-130.4023

G1X108.6655Y-192.6708

G1X91.3343Y-222.9646

G1X87.7391Y-266.9945

G1X110.2274Y-337.1078

G1X89.8568Y-364.3623

G1 Z0F20000

(Start Block)


G1X86.5163Y-26.5882
G1Z5F20000
(Plotting speed under)
G1 F4000


G1X86.6529Y-74.3498

G1X95.9547Y-131.2766

G1X109.5493Y-192.4963

G1X92.8746Y-223.4467

G1X89.0446Y-267.2416

G1X111.1912Y-337.0134

G1X90.5787Y-364.0259

G1 Z0F20000

(Start Block)


G1X88.1268Y-27.1403
G1Z5F20000
(Plotting speed under)
G1 F4000


G1X87.4874Y-74.1259

G1X97.8874Y-132.1510

G1X110.4332Y-192.3218

G1X94.4150Y-223.9287

G1X90.3500Y-267.4887

G1X112.1551Y-336.9189

G1X91.3006Y-363.6895

G1 Z0F20000

(Start Block)


G1X89.7373Y-27.6925
G1Z5F20000
(Plotting speed under)
G1 F4000


G1X88.3219Y-73.9021

G1X111.3171Y-192.1474

G1X95.9554Y-224.4108

G1X91.6554Y-267.7358

G1X113.1190Y-336.8244

G1X92.0226Y-363.3531

G1 Z0F20000

(Start Block)


G1X91.3478Y-28.2446
G1Z5F20000
(Plotting speed under)
G1 F4000


G1X89.1564Y-73.6783

G1X101.7528Y-133.8997

G1X112.2009Y-191.9729

G1X97.4958Y-224.8928

G1X92.9608Y-267.9828

G1X114.0829Y-336.7300

G1X92.7445Y-363.0167

G1 Z0F20000

(Start Block)


G1X92.9583Y-28.7968
G1Z5F20000
(Plotting speed under)
G1 F4000


G1X89.9909Y-73.4544

G1X103.6854Y-134.7740

G1X113.0848Y-191.7984

G1X99.0362Y-225.3749

G1X94.2662Y-268.2299

G1X115.0467Y-336.6355

G1X93.4664Y-362.6803

G1 Z0F20000

(Start Block)


G1X94.5688Y-29.3489
G1Z5F20000
(Plotting speed under)
G1 F4000


G1X90.8254Y-73.2306

G1X105.6181Y-135.6484

G1X113.9687Y-191.6240

G1X100.5766Y-225.8569

G1X95.5716Y-268.4770

G1X116.0106Y-336.5411

G1X94.1884Y-362.3438

G1 Z0F20000

(Start Block)


G1X96.1793Y-29.9011
G1Z5F20000
(Plotting speed under)
G1 F4000


G1X91.6599Y-73.0068

G1X107.5508Y-136.5227

G1X114.8525Y-191.4495

G1X102.1170Y-226.3390

G1X96.8770Y-268.7240

G1X116.9745Y-336.4466

G1X94.9103Y-362.0074

G1 Z0F20000

(Start Block)


G1X97.7898Y-30.4533
G1Z5F20000
(Plotting speed under)
G1 F4000


G1X92.4944Y-72.7829

G1X109.4835Y-137.3971

G1X115.7364Y-191.2750

G1X103.6574Y-226.8211

G1X98.1824Y-268.9711

G1X117.9383Y-336.3521

G1X95.6322Y-361.6710

G1 Z0F20000

(Start Block)


G1X99.4003Y-31.0054
G1Z5F20000
(Plotting speed under)
G1 F4000


G1X93.3290Y-72.5591

G1X111.4162Y-138.2714

G1X116.6203Y-191.1006

G1X105.1978Y-227.3031

G1X99.4878Y-269.2182

G1X118.9022Y-336.2577

G1X96.3541Y-361.3346

G1 Z0F20000

(Start Block)


G1X101.0108Y-31.5576
G1Z5F20000
(Plotting speed under)
G1 F4000


G1X94.1635Y-72.3353

G1X113.3489Y-139.1458

G1X117.5041Y-190.9261

G1X106.7381Y-227.7852

G1X100.7932Y-269.4653

G1X119.8661Y-336.1632

G1X97.0761Y-360.9982

G1 Z0F20000

(Start Block)


G1X102.6213Y-32.1097
G1Z5F20000
(Plotting speed under)
G1 F4000


G1X94.9980Y-72.1115

G1X115.2816Y-140.0201

G1X118.3880Y-190.7516

G1X108.2785Y-228.2672

G1X102.0986Y-269.7124

G1X120.8300Y-336.0687

G1X97.7980Y-360.6618

G1 Z0F20000

(Start Block)


G1X104.2318Y-32.6619
G1Z5F20000
(Plotting speed under)
G1 F4000


G1X95.8325Y-71.8876

G1X117.2142Y-140.8945

G1X119.2719Y-190.5772

G1X109.8189Y-228.7493

G1X103.4040Y-269.9594

G1X121.7938Y-335.9743

G1X98.5199Y-360.3254

G1 Z0F20000

(Start Block)


G1X105.8423Y-33.2141
G1Z5F20000
(Plotting speed under)
G1 F4000


G1X96.6670Y-71.6638

G1X119.1469Y-141.7688

G1X120.1557Y-190.4027

G1X111.3593Y-229.2313

G1X104.7094Y-270.2065

G1X122.7577Y-335.8798

G1X99.2418Y-359.9890

G1 Z0F20000

(Start Block)


G1X107.4527Y-33.7662
G1Z5F20000
(Plotting speed under)
G1 F4000


G1X97.5015Y-71.4400

G1X121.0796Y-142.6432

G1X121.0396Y-190.2283

G1X112.8997Y-229.7134

G1X106.0149Y-270.4536

G1X123.7216Y-335.7854

G1X99.9638Y-359.6526

G1 Z0F20000

(Start Block)


G1X109.0632Y-34.3184
G1Z5F20000
(Plotting speed under)
G1 F4000


G1X98.3360Y-71.2162

G1X123.0123Y-143.5175

G1X121.9235Y-190.0538

G1X114.4401Y-230.1954

G1X107.3203Y-270.7007

G1X124.6855Y-335.6909

G1X100.6857Y-359.3162

G1 Z0F20000

(Start Block)


G1X110.6737Y-34.8705
G1Z5F20000
(Plotting speed under)
G1 F4000


G1X99.1705Y-70.9924

G1X124.9450Y-144.3919

G1X122.8074Y-189.8793

G1X115.9805Y-230.6775

G1X108.6257Y-270.9477

G1X125.6494Y-335.5965

G1X101.4076Y-358.9798

G1 Z0F20000

(Start Block)


G1X112.2842Y-35.4227
G1Z5F20000
(Plotting speed under)
G1 F4000


G1X100.0050Y-70.7685

G1X126.8777Y-145.2663

G1X123.6913Y-189.7049

G1X117.5209Y-231.1595

G1X109.9311Y-271.1948

G1X126.6132Y-335.5020

G1X102.1295Y-358.6434

G1 Z0F20000

(Start Block)


G1X113.8947Y-35.9749
G1Z5F20000
(Plotting speed under)
G1 F4000


G1X100.8395Y-70.5447

G1X128.8104Y-146.1406

G1X124.5751Y-189.5304

G1X119.0612Y-231.6416

G1X111.2365Y-271.4419

G1X127.5771Y-335.4075

G1X102.8515Y-358.3070

G1 Z0F20000

(Start Block)


G1X115.5052Y-36.5270
G1Z5F20000
(Plotting speed under)
G1 F4000


G1X101.6740Y-70.3209

G1X130.7431Y-147.0149

G1X125.4590Y-189.3559

G1X120.6016Y-232.1237

G1X112.5419Y-271.6890

G1X128.5410Y-335.3131

G1X103.5734Y-357.9705

G1 Z0F20000

(Start Block)


G1X117.1157Y-37.0792
G1Z5F20000
(Plotting speed under)
G1 F4000


G1X102.5086Y-70.0971

G1X132.6757Y-147.8893

G1X126.3429Y-189.1815

G1X122.1420Y-232.6057

G1X113.8473Y-271.9360

G1X129.5049Y-335.2186

G1X104.2953Y-357.6341

G1 Z0F20000

(Start Block)


G1X118.7262Y-37.6313
G1Z5F20000
(Plotting speed under)
G1 F4000


G1X103.3431Y-69.8732

G1X134.6084Y-148.7636

G1X127.2267Y-189.0070

G1X123.6824Y-233.0878

G1X115.1527Y-272.1831

G1X130.4687Y-335.1242

G1X105.0173Y-357.2977

G1 Z0F20000

(Start Block)


G1X120.3367Y-38.1835
G1Z5F20000
(Plotting speed under)
G1 F4000


G1X104.1776Y-69.6494

G1X136.5411Y-149.6380

G1X128.1106Y-188.8325

G1X125.2228Y-233.5698

G1X116.4581Y-272.4302

G1X131.4326Y-335.0297

G1X105.7392Y-356.9613

G1 Z0F20000

(Start Block)


G1X121.9472Y-38.7357
G1Z5F20000
(Plotting speed under)
G1 F4000


G1X105.0121Y-69.4256

G1X138.4738Y-150.5123

G1X128.9945Y-188.6581

G1X126.7632Y-234.0519

G1X117.7635Y-272.6773

G1X132.3965Y-334.9352

G1X106.4611Y-356.6249

G1 Z0F20000

(Start Block)


G1X123.5577Y-39.2878
G1Z5F20000
(Plotting speed under)
G1 F4000


G1X105.8466Y-69.2018

G1X140.4065Y-151.3867

G1X129.8783Y-188.4836

G1X128.3036Y-234.5339

G1X119.0689Y-272.9243

G1X133.3603Y-334.8408

G1X107.1830Y-356.2885

G1 Z0F20000

(Start Block)


G1X125.1682Y-39.8400
G1Z5F20000
(Plotting speed under)
G1 F4000


G1X106.6811Y-68.9779

G1X142.3392Y-152.2610

G1X130.7622Y-188.3091

G1X129.8440Y-235.0160

G1X120.3743Y-273.1714

G1X134.3242Y-334.7463

G1X107.9049Y-355.9521

G1 Z0F20000

(Start Block)


G1X126.7787Y-40.3921
G1Z5F20000
(Plotting speed under)
G1 F4000


G1X107.5156Y-68.7541

G1X144.2718Y-153.1354

G1X131.6461Y-188.1347

G1X131.3844Y-235.4980

G1X121.6797Y-273.4185

G1X135.2881Y-334.6518

G1X108.6269Y-355.6157

G1 Z0F20000

(Start Block)


G1X128.3892Y-40.9443
G1Z5F20000
(Plotting speed under)
G1 F4000


G1X108.3501Y-68.5303

G1X146.2045Y-154.0097

G1X132.5299Y-187.9602

G1X132.9248Y-235.9801

G1X122.9852Y-273.6655

G1X136.2520Y-334.5574

G1X109.3488Y-355.2793

G1 Z0F20000

(Start Block)


G1X129.5502Y-41.0470
G1Z5F20000
(Plotting speed under)
G1 F4000


G1X109.4962Y-68.6180

G1X146.6244Y-153.3713

G1X133.6067Y-187.9787

G1X133.8718Y-235.8687

G1X124.2601Y-273.8821

G1X137.4330Y-334.6801

G1X111.1627Y-356.0348

G1 Z0F20000

(Start Block)


G1X130.7112Y-41.1496
G1Z5F20000
(Plotting speed under)
G1 F4000


G1X110.6422Y-68.7057

G1X147.0443Y-152.7329

G1X134.6835Y-187.9971

G1X134.8187Y-235.7574

G1X125.5349Y-274.0986

G1X138.6140Y-334.8027

G1X112.9765Y-356.7903

G1 Z0F20000

(Start Block)


G1X131.8722Y-41.2523
G1Z5F20000
(Plotting speed under)
G1 F4000


G1X111.7883Y-68.7935

G1X147.4643Y-152.0945

G1X135.7603Y-188.0156

G1X135.7657Y-235.6461

G1X126.8098Y-274.3152

G1X139.7950Y-334.9254

G1X114.7903Y-357.5458

G1 Z0F20000

(Start Block)


G1X133.0332Y-41.3550
G1Z5F20000
(Plotting speed under)
G1 F4000


G1X112.9344Y-68.8812

G1X147.8841Y-151.4560

G1X136.8371Y-188.0341

G1X136.7127Y-235.5347

G1X128.0847Y-274.5317

G1X140.9760Y-335.0481

G1X116.6042Y-358.3013

G1 Z0F20000

(Start Block)


G1X134.1942Y-41.4576
G1Z5F20000
(Plotting speed under)
G1 F4000


G1X114.0804Y-68.9689

G1X148.3040Y-150.8176

G1X137.9140Y-188.0525

G1X137.6597Y-235.4234

G1X129.3596Y-274.7483

G1X142.1570Y-335.1708

G1X118.4180Y-359.0568

G1 Z0F20000

(Start Block)


G1X135.3552Y-41.5603
G1Z5F20000
(Plotting speed under)
G1 F4000


G1X115.2265Y-69.0566

G1X148.7240Y-150.1792

G1X138.9908Y-188.0710

G1X138.6067Y-235.3120

G1X130.6345Y-274.9648

G1X143.3380Y-335.2935

G1X120.2319Y-359.8123

G1 Z0F20000

(Start Block)


G1X136.5162Y-41.6630
G1Z5F20000
(Plotting speed under)
G1 F4000


G1X116.3725Y-69.1444

G1X149.1439Y-149.5407

G1X140.0676Y-188.0895

G1X139.5537Y-235.2007

G1X131.9094Y-275.1814

G1X144.5191Y-335.4162

G1X122.0457Y-360.5679

G1 Z0F20000

(Start Block)


G1X137.6772Y-41.7656
G1Z5F20000
(Plotting speed under)
G1 F4000


G1X117.5186Y-69.2321

G1X149.5637Y-148.9023

G1X141.1444Y-188.1080

G1X140.5007Y-235.0894

G1X133.1842Y-275.3979

G1X145.7001Y-335.5388

G1X123.8596Y-361.3233

G1 Z0F20000

(Start Block)


G1X138.8382Y-41.8683
G1Z5F20000
(Plotting speed under)
G1 F4000


G1X118.6647Y-69.3198

G1X149.9837Y-148.2639

G1X142.2212Y-188.1264

G1X141.4477Y-234.9780

G1X134.4591Y-275.6145

G1X146.8811Y-335.6615

G1X125.6734Y-362.0789

G1 Z0F20000

(Start Block)


G1X139.9992Y-41.9710
G1Z5F20000
(Plotting speed under)
G1 F4000


G1X119.8107Y-69.4075

G1X150.4036Y-147.6254

G1X143.2980Y-188.1449

G1X142.3947Y-234.8667

G1X135.7340Y-275.8310

G1X148.0621Y-335.7842

G1X127.4873Y-362.8344

G1 Z0F20000

(Start Block)


G1X141.1602Y-42.0736
G1Z5F20000
(Plotting speed under)
G1 F4000


G1X120.9568Y-69.4953

G1X150.8235Y-146.9870

G1X144.3748Y-188.1634

G1X143.3417Y-234.7553

G1X137.0089Y-276.0476

G1X149.2431Y-335.9069

G1X129.3011Y-363.5899

G1 Z0F20000

(Start Block)


G1X142.3212Y-42.1763
G1Z5F20000
(Plotting speed under)
G1 F4000


G1X122.1029Y-69.5830

G1X151.2434Y-146.3486

G1X145.4516Y-188.1818

G1X144.2887Y-234.6440

G1X138.2838Y-276.2641

G1X150.4241Y-336.0295

G1X131.1150Y-364.3454

G1 Z0F20000

(Start Block)


G1X143.4822Y-42.2790
G1Z5F20000
(Plotting speed under)
G1 F4000


G1X123.2489Y-69.6707

G1X151.6633Y-145.7101

G1X146.5284Y-188.2003

G1X145.2357Y-234.5326

G1X139.5587Y-276.4807

G1X151.6051Y-336.1522

G1X132.9288Y-365.1009

G1 Z0F20000

(Start Block)


G1X144.6432Y-42.3816
G1Z5F20000
(Plotting speed under)
G1 F4000


G1X124.3950Y-69.7585

G1X152.0832Y-145.0717

G1X147.6052Y-188.2188

G1X146.1826Y-234.4213

G1X140.8335Y-276.6972

G1X152.7862Y-336.2749

G1X134.7426Y-365.8564

G1 Z0F20000

(Start Block)


G1X145.8042Y-42.4843
G1Z5F20000
(Plotting speed under)
G1 F4000


G1X125.5411Y-69.8462

G1X152.5031Y-144.4333

G1X148.6820Y-188.2373

G1X147.1296Y-234.3099

G1X142.1084Y-276.9138

G1X153.9672Y-336.3976

G1X136.5565Y-366.6119

G1 Z0F20000

(Start Block)


G1X146.9652Y-42.5870
G1Z5F20000
(Plotting speed under)
G1 F4000


G1X126.6871Y-69.9339

G1X152.9230Y-143.7948

G1X149.7588Y-188.2557

G1X148.0766Y-234.1986

G1X143.3833Y-277.1303

G1X155.1482Y-336.5203

G1X138.3703Y-367.3674

G1 Z0F20000

(Start Block)


G1X148.1262Y-42.6896
G1Z5F20000
(Plotting speed under)
G1 F4000


G1X127.8332Y-70.0216

G1X153.3429Y-143.1564

G1X150.8356Y-188.2742

G1X149.0236Y-234.0873

G1X144.6582Y-277.3469

G1X156.3292Y-336.6429

G1X140.1842Y-368.1230

G1 Z0F20000

(Start Block)


G1X149.2872Y-42.7923
G1Z5F20000
(Plotting speed under)
G1 F4000


G1X128.9793Y-70.1094

G1X153.7628Y-142.5180

G1X149.9706Y-233.9759

G1X145.9331Y-277.5634

G1X157.5102Y-336.7656

G1X141.9980Y-368.8785

G1 Z0F20000

(Start Block)


G1X150.4482Y-42.8950
G1Z5F20000
(Plotting speed under)
G1 F4000


G1X130.1253Y-70.1971

G1X154.1827Y-141.8796

G1X152.9892Y-188.3111

G1X150.9176Y-233.8646

G1X147.2079Y-277.7800

G1X158.6912Y-336.8883

G1X143.8118Y-369.6340

G1 Z0F20000

(Start Block)


G1X151.6092Y-42.9976
G1Z5F20000
(Plotting speed under)
G1 F4000


G1X131.2714Y-70.2848

G1X154.6026Y-141.2411

G1X154.0660Y-188.3296

G1X151.8646Y-233.7532

G1X148.4828Y-277.9965

G1X159.8722Y-337.0110

G1X145.6257Y-370.3895

G1 Z0F20000

(Start Block)


G1X152.7702Y-43.1003
G1Z5F20000
(Plotting speed under)
G1 F4000


G1X132.4174Y-70.3726

G1X155.0225Y-140.6027

G1X155.1428Y-188.3481

G1X152.8116Y-233.6419

G1X149.7577Y-278.2131

G1X161.0533Y-337.1337

G1X147.4395Y-371.1450

G1 Z0F20000

(Start Block)


G1X153.9312Y-43.2030
G1Z5F20000
(Plotting speed under)
G1 F4000


G1X133.5635Y-70.4603

G1X155.4424Y-139.9643

G1X156.2196Y-188.3665

G1X153.7586Y-233.5306

G1X151.0326Y-278.4296

G1X162.2343Y-337.2564

G1X149.2534Y-371.9005

G1 Z0F20000

(Start Block)


G1X155.0922Y-43.3056
G1Z5F20000
(Plotting speed under)
G1 F4000


G1X134.7096Y-70.5480

G1X155.8623Y-139.3258

G1X157.2964Y-188.3850

G1X154.7056Y-233.4192

G1X152.3075Y-278.6462

G1X163.4153Y-337.3790

G1X151.0672Y-372.6560

G1 Z0F20000

(Start Block)


G1X156.2532Y-43.4083
G1Z5F20000
(Plotting speed under)
G1 F4000


G1X135.8556Y-70.6357

G1X156.2822Y-138.6874

G1X158.3732Y-188.4035

G1X155.6526Y-233.3079

G1X153.5823Y-278.8627

G1X164.5963Y-337.5017

G1X152.8810Y-373.4115

G1 Z0F20000

(Start Block)


G1X157.4142Y-43.5110
G1Z5F20000
(Plotting speed under)
G1 F4000


G1X137.0017Y-70.7235

G1X156.7021Y-138.0490

G1X159.4500Y-188.4219

G1X156.5996Y-233.1965

G1X154.8572Y-279.0793

G1X165.7773Y-337.6244

G1X154.6949Y-374.1670

G1 Z0F20000

(Start Block)


G1X158.5752Y-43.6136
G1Z5F20000
(Plotting speed under)
G1 F4000


G1X138.1477Y-70.8112

G1X157.1220Y-137.4106

G1X160.5268Y-188.4404

G1X157.5465Y-233.0852

G1X156.1321Y-279.2958

G1X166.9583Y-337.7471

G1X156.5087Y-374.9225

G1 Z0F20000

(Start Block)


G1X159.7362Y-43.7163
G1Z5F20000
(Plotting speed under)
G1 F4000


G1X139.2938Y-70.8989

G1X157.5419Y-136.7721

G1X161.6036Y-188.4589

G1X158.4935Y-232.9738

G1X157.4070Y-279.5124

G1X168.1393Y-337.8697

G1X158.3226Y-375.6780

G1 Z0F20000

(Start Block)


G1X160.8972Y-43.8190
G1Z5F20000
(Plotting speed under)
G1 F4000


G1X140.4399Y-70.9867

G1X157.9618Y-136.1337

G1X162.6804Y-188.4773

G1X159.4405Y-232.8625

G1X158.6819Y-279.7289

G1X169.3204Y-337.9924

G1X160.1364Y-376.4335

G1 Z0F20000

(Start Block)


G1X162.0582Y-43.9217
G1Z5F20000
(Plotting speed under)
G1 F4000


G1X141.5859Y-71.0744

G1X158.3817Y-135.4953

G1X163.7572Y-188.4958

G1X160.3875Y-232.7511

G1X159.9568Y-279.9455

G1X170.5014Y-338.1151

G1X161.9503Y-377.1891

G1 Z0F20000

(Start Block)


G1X163.2192Y-44.0243
G1Z5F20000
(Plotting speed under)
G1 F4000


G1X142.7320Y-71.1621

G1X158.8016Y-134.8568

G1X164.8340Y-188.5143

G1X161.3345Y-232.6398

G1X161.2316Y-280.1620

G1X171.6824Y-338.2378

G1X163.7641Y-377.9446

G1 Z0F20000

(Start Block)


G1X164.3802Y-44.1270
G1Z5F20000
(Plotting speed under)
G1 F4000


G1X143.8781Y-71.2498

G1X159.2215Y-134.2184

G1X165.9108Y-188.5327

G1X162.2815Y-232.5285

G1X162.5065Y-280.3786

G1X172.8634Y-338.3605

G1X165.5780Y-378.7001

G1 Z0F20000

(Start Block)


G1X165.5412Y-44.2297
G1Z5F20000
(Plotting speed under)
G1 F4000


G1X145.0241Y-71.3376

G1X159.6414Y-133.5800

G1X166.9876Y-188.5512

G1X163.2285Y-232.4171

G1X163.7814Y-280.5951

G1X174.0444Y-338.4831

G1X167.3918Y-379.4556

G1 Z0F20000

(Start Block)


G1X166.7022Y-44.3323
G1Z5F20000
(Plotting speed under)
G1 F4000


G1X146.1702Y-71.4253

G1X160.0614Y-132.9416

G1X168.0644Y-188.5697

G1X164.1755Y-232.3058

G1X165.0563Y-280.8117

G1X175.2254Y-338.6058

G1X169.2056Y-380.2111

G1 Z0F20000

(Start Block)


G1X167.8632Y-44.4350
G1Z5F20000
(Plotting speed under)
G1 F4000


G1X147.3162Y-71.5130

G1X160.4813Y-132.3031

G1X169.1412Y-188.5881

G1X165.1225Y-232.1944

G1X166.3312Y-281.0282

G1X176.4065Y-338.7285

G1X171.0195Y-380.9666

G1 Z0F20000

(Start Block)


G1X169.0242Y-44.5377
G1Z5F20000
(Plotting speed under)
G1 F4000


G1X148.4623Y-71.6007

G1X160.9011Y-131.6647

G1X170.2180Y-188.6066

G1X166.0695Y-232.0831

G1X167.6061Y-281.2447

G1X177.5875Y-338.8512

G1X172.8334Y-381.7221

G1 Z0F20000

(Start Block)


G1X170.1852Y-44.6403
G1Z5F20000
(Plotting speed under)
G1 F4000


G1X149.6084Y-71.6885

G1X161.3211Y-131.0263

G1X171.2948Y-188.6251

G1X167.0165Y-231.9718

G1X168.8809Y-281.4613

G1X178.7685Y-338.9739

G1X174.6472Y-382.4776

G1 Z0F20000

(Start Block)


G1X171.3462Y-44.7430
G1Z5F20000
(Plotting speed under)
G1 F4000


G1X150.7544Y-71.7762

G1X161.7410Y-130.3878

G1X172.3717Y-188.6435

G1X167.9634Y-231.8604

G1X170.1558Y-281.6778

G1X179.9495Y-339.0965

G1X176.4610Y-383.2331

G1 Z0F20000

(Start Block)


G1X172.5073Y-44.8457
G1Z5F20000
(Plotting speed under)
G1 F4000


G1X151.9005Y-71.8639

G1X162.1609Y-129.7494

G1X173.4485Y-188.6620

G1X168.9104Y-231.7491

G1X171.4307Y-281.8944

G1X181.1305Y-339.2192

G1X178.2749Y-383.9886

G1 Z0F20000

(Start Block)


G1X173.6683Y-44.9483
G1Z5F20000
(Plotting speed under)
G1 F4000


G1X153.0465Y-71.9517

G1X162.5808Y-129.1110

G1X174.5253Y-188.6805

G1X169.8574Y-231.6377

G1X172.7056Y-282.1109

G1X182.3115Y-339.3419

G1X180.0887Y-384.7441

G1 Z0F20000

(Start Block)


G1X174.8293Y-45.0510
G1Z5F20000
(Plotting speed under)
G1 F4000


G1X154.1926Y-72.0394

G1X163.0007Y-128.4725

G1X175.6021Y-188.6990

G1X170.8044Y-231.5264

G1X173.9805Y-282.3275

G1X183.4925Y-339.4646

G1X181.9026Y-385.4997

G1 Z0F20000

(Start Block)


G1X175.9903Y-45.1537
G1Z5F20000
(Plotting speed under)
G1 F4000


G1X155.3387Y-72.1271

G1X163.4206Y-127.8341

G1X176.6789Y-188.7174

G1X171.7514Y-231.4150

G1X175.2554Y-282.5440

G1X184.6736Y-339.5873

G1X183.7164Y-386.2552

G1 Z0F20000

(Start Block)


G1X177.1513Y-45.2563
G1Z5F20000
(Plotting speed under)
G1 F4000


G1X156.4847Y-72.2148

G1X163.8405Y-127.1957

G1X177.7557Y-188.7359

G1X172.6984Y-231.3037

G1X176.5303Y-282.7606

G1X185.8546Y-339.7099

G1X185.5302Y-387.0107

G1 Z0F20000

(Start Block)


G1X178.3123Y-45.3590
G1Z5F20000
(Plotting speed under)
G1 F4000


G1X157.6308Y-72.3026

G1X164.2604Y-126.5572

G1X178.8325Y-188.7544

G1X173.6454Y-231.1924

G1X177.8051Y-282.9771

G1X187.0356Y-339.8326

G1X187.3441Y-387.7662

G1 Z0F20000

(Start Block)


G1X179.4733Y-45.4617
G1Z5F20000
(Plotting speed under)
G1 F4000


G1X158.7769Y-72.3903

G1X164.6803Y-125.9188

G1X179.9093Y-188.7728

G1X174.5924Y-231.0810

G1X179.0800Y-283.1937

G1X188.2166Y-339.9553

G1X189.1579Y-388.5217

G1 Z0F20000

(Start Block)


G1X180.6343Y-45.5643
G1Z5F20000
(Plotting speed under)
G1 F4000


G1X159.9229Y-72.4780

G1X165.1002Y-125.2804

G1X180.9861Y-188.7913

G1X175.5394Y-230.9697

G1X180.3549Y-283.4102

G1X189.3976Y-340.0780

G1X190.9718Y-389.2772

G1 Z0F20000

(Start Block)


G1X181.2950Y-45.1668
G1Z5F20000
(Plotting speed under)
G1 F4000


G1X161.7145Y-73.2113

G1X166.2441Y-125.3659

G1X181.9722Y-188.7191

G1X176.2332Y-230.6052

G1X181.5785Y-283.5754

G1X190.3588Y-339.9809

G1X191.4387Y-388.6857

G1 Z0F20000

(Start Block)


G1X181.9558Y-44.7692
G1Z5F20000
(Plotting speed under)
G1 F4000


G1X163.5062Y-73.9446

G1X167.3879Y-125.4515

G1X182.9584Y-188.6469

G1X176.9270Y-230.2406

G1X182.8020Y-283.7406

G1X191.3201Y-339.8838

G1X191.9056Y-388.0943

G1 Z0F20000

(Start Block)


G1X182.6166Y-44.3716
G1Z5F20000
(Plotting speed under)
G1 F4000


G1X165.2978Y-74.6779

G1X168.5318Y-125.5370

G1X183.9446Y-188.5748

G1X177.6209Y-229.8762

G1X184.0255Y-283.9058

G1X192.2813Y-339.7866

G1X192.3725Y-387.5029

G1 Z0F20000

(Start Block)


G1X183.2773Y-43.9741
G1Z5F20000
(Plotting speed under)
G1 F4000


G1X167.0894Y-75.4112

G1X169.6757Y-125.6225

G1X184.9307Y-188.5026

G1X178.3147Y-229.5116

G1X185.2491Y-284.0711

G1X193.2425Y-339.6895

G1X192.8393Y-386.9114

G1 Z0F20000

(Start Block)


G1X183.9381Y-43.5765
G1Z5F20000
(Plotting speed under)
G1 F4000


G1X168.8810Y-76.1445

G1X170.8196Y-125.7081

G1X185.9169Y-188.4304

G1X179.0086Y-229.1471

G1X186.4726Y-284.2363

G1X194.2037Y-339.5924

G1X193.3062Y-386.3200

G1 Z0F20000

(Start Block)


G1X184.5989Y-43.1789
G1Z5F20000
(Plotting speed under)
G1 F4000


G1X170.6726Y-76.8777

G1X171.9635Y-125.7936

G1X186.9030Y-188.3582

G1X179.7024Y-228.7826

G1X187.6962Y-284.4015

G1X195.1649Y-339.4953

G1X193.7731Y-385.7286

G1 Z0F20000

(Start Block)


G1X185.2597Y-42.7814
G1Z5F20000
(Plotting speed under)
G1 F4000


G1X172.4643Y-77.6110

G1X173.1073Y-125.8792

G1X187.8892Y-188.2861

G1X180.3962Y-228.4181

G1X188.9197Y-284.5667

G1X196.1262Y-339.3982

G1X194.2400Y-385.1371

G1 Z0F20000

(Start Block)


G1X185.9204Y-42.3838
G1Z5F20000
(Plotting speed under)
G1 F4000


G1X174.2559Y-78.3443

G1X174.2512Y-125.9647

G1X188.8753Y-188.2139

G1X181.0900Y-228.0536

G1X190.1433Y-284.7319

G1X197.0874Y-339.3011

G1X194.7069Y-384.5457

G1 Z0F20000

(Start Block)


G1X186.5812Y-41.9862
G1Z5F20000
(Plotting speed under)
G1 F4000


G1X176.0475Y-79.0776

G1X175.3951Y-126.0502

G1X189.8615Y-188.1417

G1X181.7839Y-227.6891

G1X191.3669Y-284.8972

G1X198.0486Y-339.2040

G1X195.1738Y-383.9542

G1 Z0F20000

(Start Block)


G1X187.2420Y-41.5887
G1Z5F20000
(Plotting speed under)
G1 F4000


G1X177.8391Y-79.8109

G1X176.5390Y-126.1358

G1X190.8477Y-188.0695

G1X182.4777Y-227.3246

G1X192.5904Y-285.0624

G1X199.0098Y-339.1069

G1X195.6407Y-383.3628

G1 Z0F20000

(Start Block)


G1X187.9027Y-41.1911
G1Z5F20000
(Plotting speed under)
G1 F4000


G1X179.6307Y-80.5442

G1X177.6828Y-126.2213

G1X191.8338Y-187.9974

G1X183.1715Y-226.9601

G1X193.8139Y-285.2276

G1X199.9711Y-339.0098

G1X196.1076Y-382.7713

G1 Z0F20000

(Start Block)


G1X188.5635Y-40.7936
G1Z5F20000
(Plotting speed under)
G1 F4000


G1X181.4224Y-81.2775

G1X178.8267Y-126.3069

G1X192.8200Y-187.9252

G1X183.8654Y-226.5956

G1X195.0375Y-285.3928

G1X200.9323Y-338.9127

G1X196.5745Y-382.1799

G1 Z0F20000

(Start Block)


G1X189.2243Y-40.3960
G1Z5F20000
(Plotting speed under)
G1 F4000


G1X183.2140Y-82.0107

G1X179.9706Y-126.3924

G1X193.8061Y-187.8530

G1X184.5592Y-226.2311

G1X196.2610Y-285.5580

G1X201.8935Y-338.8156

G1X197.0414Y-381.5885

G1 Z0F20000

(Start Block)


G1X189.8851Y-39.9984
G1Z5F20000
(Plotting speed under)
G1 F4000


G1X185.0056Y-82.7440

G1X181.1145Y-126.4779

G1X194.7923Y-187.7808

G1X185.2530Y-225.8666

G1X197.4846Y-285.7232

G1X202.8547Y-338.7184

G1X197.5083Y-380.9970

G1 Z0F20000

(Start Block)


G1X190.5458Y-39.6009
G1Z5F20000
(Plotting speed under)
G1 F4000


G1X186.7972Y-83.4773

G1X182.2583Y-126.5635

G1X195.7784Y-187.7086

G1X185.9468Y-225.5021

G1X198.7081Y-285.8885

G1X203.8160Y-338.6213

G1X197.9751Y-380.4056

G1 Z0F20000

(Start Block)


G1X191.2066Y-39.2033
G1Z5F20000
(Plotting speed under)
G1 F4000


G1X188.5889Y-84.2106

G1X183.4022Y-126.6490

G1X196.7646Y-187.6365

G1X186.6407Y-225.1376

G1X199.9317Y-286.0537

G1X204.7772Y-338.5242

G1X198.4421Y-379.8141

G1 Z0F20000

(Start Block)


G1X191.8674Y-38.8057
G1Z5F20000
(Plotting speed under)
G1 F4000


G1X190.3805Y-84.9439

G1X184.5461Y-126.7346

G1X197.7507Y-187.5643

G1X187.3345Y-224.7731

G1X201.1552Y-286.2189

G1X205.7384Y-338.4271

G1X198.9089Y-379.2227

G1 Z0F20000

(Start Block)


G1X192.5281Y-38.4082
G1Z5F20000
(Plotting speed under)
G1 F4000


G1X192.1721Y-85.6772

G1X185.6899Y-126.8201

G1X198.7369Y-187.4921

G1X188.0283Y-224.4086

G1X202.3788Y-286.3841

G1X206.6996Y-338.3300

G1X199.3758Y-378.6312

G1 Z0F20000

(Start Block)


G1X193.1889Y-38.0106
G1Z5F20000
(Plotting speed under)
G1 F4000


G1X193.9637Y-86.4105

G1X186.8338Y-126.9056

G1X199.7231Y-187.4199

G1X188.7222Y-224.0441

G1X203.6023Y-286.5493

G1X207.6609Y-338.2329

G1X199.8427Y-378.0398

G1 Z0F20000

(Start Block)


G1X193.8497Y-37.6131
G1Z5F20000
(Plotting speed under)
G1 F4000


G1X195.7553Y-87.1437

G1X187.9777Y-126.9912

G1X200.7092Y-187.3477

G1X189.4160Y-223.6796

G1X204.8259Y-286.7145

G1X208.6221Y-338.1358

G1X200.3096Y-377.4484

G1 Z0F20000

(Start Block)


G1X194.5104Y-37.2155
G1Z5F20000
(Plotting speed under)
G1 F4000


G1X197.5469Y-87.8770

G1X189.1216Y-127.0767

G1X201.6954Y-187.2756

G1X190.1098Y-223.3151

G1X206.0494Y-286.8797

G1X209.5833Y-338.0387

G1X200.7765Y-376.8569

G1 Z0F20000

(Start Block)


G1X195.1712Y-36.8179
G1Z5F20000
(Plotting speed under)
G1 F4000


G1X199.3386Y-88.6103

G1X190.2654Y-127.1623

G1X202.6815Y-187.2034

G1X190.8036Y-222.9506

G1X207.2730Y-287.0449

G1X210.5446Y-337.9416

G1X201.2434Y-376.2655

G1 Z0F20000

(Start Block)


G1X195.8320Y-36.4204
G1Z5F20000
(Plotting speed under)
G1 F4000


G1X201.1302Y-89.3436

G1X191.4093Y-127.2478

G1X203.6677Y-187.1312

G1X191.4975Y-222.5860

G1X208.4965Y-287.2102

G1X211.5058Y-337.8445

G1X201.7103Y-375.6740

G1 Z0F20000

(Start Block)


G1X196.4928Y-36.0228
G1Z5F20000
(Plotting speed under)
G1 F4000


G1X202.9218Y-90.0769

G1X192.5532Y-127.3333

G1X204.6538Y-187.0590

G1X192.1913Y-222.2215

G1X209.7201Y-287.3754

G1X212.4670Y-337.7474

G1X202.1772Y-375.0826

G1 Z0F20000

(Start Block)


G1X197.1535Y-35.6252
G1Z5F20000
(Plotting speed under)
G1 F4000


G1X204.7134Y-90.8102

G1X193.6971Y-127.4189

G1X205.6400Y-186.9869

G1X192.8851Y-221.8570

G1X210.9436Y-287.5406

G1X213.4282Y-337.6503

G1X202.6441Y-374.4911

G1 Z0F20000

(Start Block)


G1X197.8143Y-35.2277
G1Z5F20000
(Plotting speed under)
G1 F4000


G1X206.5050Y-91.5435

G1X194.8409Y-127.5044

G1X206.6261Y-186.9147

G1X193.5790Y-221.4925

G1X212.1672Y-287.7058

G1X214.3895Y-337.5531

G1X203.1110Y-373.8997

G1 Z0F20000

(Start Block)


G1X198.4751Y-34.8301
G1Z5F20000
(Plotting speed under)
G1 F4000


G1X208.2966Y-92.2767

G1X195.9848Y-127.5900

G1X207.6123Y-186.8425

G1X194.2728Y-221.1280

G1X213.3907Y-287.8710

G1X215.3507Y-337.4560

G1X203.5779Y-373.3083

G1 Z0F20000

(Start Block)


G1X199.1358Y-34.4325
G1Z5F20000
(Plotting speed under)
G1 F4000


G1X210.0883Y-93.0100

G1X197.1287Y-127.6755

G1X208.5985Y-186.7703

G1X194.9666Y-220.7635

G1X214.6143Y-288.0362

G1X216.3119Y-337.3589

G1X204.0447Y-372.7168

G1 Z0F20000

(Start Block)


G1X199.7966Y-34.0350
G1Z5F20000
(Plotting speed under)
G1 F4000


G1X211.8799Y-93.7433

G1X198.2726Y-127.7610

G1X209.5846Y-186.6982

G1X195.6604Y-220.3990

G1X215.8378Y-288.2015

G1X217.2731Y-337.2618

G1X204.5117Y-372.1254

G1 Z0F20000

(Start Block)


G1X200.4574Y-33.6374
G1Z5F20000
(Plotting speed under)
G1 F4000


G1X213.6715Y-94.4766

G1X199.4164Y-127.8466

G1X210.5708Y-186.6260

G1X196.3543Y-220.0345

G1X217.0614Y-288.3667

G1X218.2344Y-337.1647

G1X204.9785Y-371.5339

G1 Z0F20000

(Start Block)


G1X201.1182Y-33.2399
G1Z5F20000
(Plotting speed under)
G1 F4000


G1X215.4631Y-95.2099

G1X200.5603Y-127.9321

G1X211.5570Y-186.5538

G1X197.0481Y-219.6700

G1X218.2849Y-288.5319

G1X219.1956Y-337.0676

G1X205.4454Y-370.9425

G1 Z0F20000

(Start Block)


G1X201.7789Y-32.8423
G1Z5F20000
(Plotting speed under)
G1 F4000


G1X217.2548Y-95.9432

G1X201.7042Y-128.0177

G1X212.5431Y-186.4816

G1X197.7419Y-219.3055

G1X219.5085Y-288.6971

G1X220.1568Y-336.9705

G1X205.9123Y-370.3511

G1 Z0F20000

(Start Block)


G1X202.4397Y-32.4447
G1Z5F20000
(Plotting speed under)
G1 F4000


G1X219.0464Y-96.6765

G1X202.8481Y-128.1032

G1X213.5293Y-186.4095

G1X198.4358Y-218.9410

G1X220.7320Y-288.8623

G1X221.1181Y-336.8734

G1X206.3792Y-369.7596

G1 Z0F20000

(Start Block)


G1X203.1005Y-32.0472
G1Z5F20000
(Plotting speed under)
G1 F4000


G1X220.8380Y-97.4097

G1X203.9919Y-128.1887

G1X214.5154Y-186.3373

G1X199.1296Y-218.5765

G1X221.9556Y-289.0275

G1X222.0793Y-336.7763

G1X206.8461Y-369.1682

G1 Z0F20000

(Start Block)


G1X203.7612Y-31.6496
G1Z5F20000
(Plotting speed under)
G1 F4000


G1X222.6296Y-98.1430

G1X205.1358Y-128.2743

G1X215.5016Y-186.2651

G1X199.8234Y-218.2120

G1X223.1792Y-289.1928

G1X223.0405Y-336.6792

G1X207.3130Y-368.5767

G1 Z0F20000

(Start Block)


G1X204.4220Y-31.2520
G1Z5F20000
(Plotting speed under)
G1 F4000


G1X224.4213Y-98.8763

G1X206.2797Y-128.3598

G1X216.4877Y-186.1929

G1X200.5172Y-217.8475

G1X224.4027Y-289.3580

G1X224.0017Y-336.5821

G1X207.7799Y-367.9853

G1 Z0F20000

(Start Block)


G1X205.0828Y-30.8545
G1Z5F20000
(Plotting speed under)
G1 F4000


G1X226.2129Y-99.6096

G1X207.4235Y-128.4454

G1X217.4739Y-186.1207

G1X201.2111Y-217.4829

G1X225.6263Y-289.5232

G1X224.9630Y-336.4850

G1X208.2468Y-367.3938

G1 Z0F20000

(Start Block)


G1X205.7436Y-30.4569
G1Z5F20000
(Plotting speed under)
G1 F4000


G1X228.0045Y-100.3429

G1X208.5674Y-128.5309

G1X218.4600Y-186.0486

G1X201.9049Y-217.1184

G1X226.8498Y-289.6884

G1X225.9242Y-336.3878

G1X208.7137Y-366.8024

G1 Z0F20000

(Start Block)


G1X206.4043Y-30.0594
G1Z5F20000
(Plotting speed under)
G1 F4000


G1X229.7961Y-101.0762

G1X209.7113Y-128.6164

G1X219.4462Y-185.9764

G1X202.5987Y-216.7539

G1X228.0733Y-289.8536

G1X226.8854Y-336.2907

G1X209.1806Y-366.2109

G1 Z0F20000

(Start Block)


G1X207.0651Y-29.6618
G1Z5F20000
(Plotting speed under)
G1 F4000


G1X231.5877Y-101.8094

G1X210.8552Y-128.7020

G1X220.4324Y-185.9042

G1X203.2926Y-216.3894

G1X229.2969Y-290.0188

G1X227.8466Y-336.1936

G1X209.6475Y-365.6195

G1 Z0F20000

(Start Block)


G1X207.7259Y-29.2642
G1Z5F20000
(Plotting speed under)
G1 F4000


G1X233.3793Y-102.5427

G1X211.9990Y-128.7875

G1X221.4185Y-185.8320

G1X203.9864Y-216.0249

G1X230.5204Y-290.1840

G1X228.8078Y-336.0965

G1X210.1143Y-365.0280

G1 Z0F20000

(Start Block)


G1X208.3866Y-28.8667
G1Z5F20000
(Plotting speed under)
G1 F4000


G1X235.1710Y-103.2760

G1X213.1429Y-128.8731

G1X222.4047Y-185.7599

G1X204.6802Y-215.6604

G1X231.7440Y-290.3493

G1X229.7691Y-335.9994

G1X210.5812Y-364.4366

G1 Z0F20000

(Start Block)


G1X209.0474Y-28.4691
G1Z5F20000
(Plotting speed under)
G1 F4000


G1X236.9626Y-104.0093

G1X214.2868Y-128.9586

G1X223.3908Y-185.6877

G1X205.3740Y-215.2959

G1X232.9675Y-290.5145

G1X230.7303Y-335.9023

G1X211.0481Y-363.8452

G1 Z0F20000

(Start Block)


G1X209.7082Y-28.0715
G1Z5F20000
(Plotting speed under)
G1 F4000


G1X238.7542Y-104.7426

G1X215.4307Y-129.0441

G1X224.3770Y-185.6155

G1X206.0679Y-214.9314

G1X234.1911Y-290.6797

G1X231.6915Y-335.8052

G1X211.5150Y-363.2537

G1 Z0F20000

(Start Block)


G1X210.3689Y-27.6740
G1Z5F20000
(Plotting speed under)
G1 F4000


G1X240.5458Y-105.4759

G1X216.5745Y-129.1297

G1X225.3632Y-185.5433

G1X206.7617Y-214.5669

G1X235.4146Y-290.8449

G1X232.6527Y-335.7081

G1X211.9819Y-362.6623

G1 Z0F20000

(Start Block)


G1X211.3324Y-27.5791
G1Z5F20000
(Plotting speed under)
G1 F4000


G1X240.9245Y-104.7962

G1X217.5221Y-129.0189

G1X226.3647Y-185.4865

G1X208.2421Y-214.9890

G1X236.3844Y-290.7564

G1X233.4310Y-335.4280

G1X213.0621Y-362.6842

G1 Z0F20000

(Start Block)


G1X212.2958Y-27.4842
G1Z5F20000
(Plotting speed under)
G1 F4000


G1X241.3031Y-104.1165

G1X218.4697Y-128.9081

G1X227.3662Y-185.4297

G1X209.7226Y-215.4112

G1X237.3542Y-290.6678

G1X234.2092Y-335.1479

G1X214.1423Y-362.7060

G1 Z0F20000

(Start Block)


G1X213.2593Y-27.3893
G1Z5F20000
(Plotting speed under)
G1 F4000


G1X241.6818Y-103.4368

G1X219.4172Y-128.7974

G1X228.3677Y-185.3729

G1X211.2031Y-215.8333

G1X238.3240Y-290.5793

G1X234.9874Y-334.8677

G1X215.2225Y-362.7279

G1 Z0F20000

(Start Block)


G1X214.2227Y-27.2944
G1Z5F20000
(Plotting speed under)
G1 F4000


G1X242.0604Y-102.7571

G1X220.3648Y-128.6866

G1X229.3693Y-185.3161

G1X212.6835Y-216.2554

G1X239.2938Y-290.4907

G1X235.7657Y-334.5876

G1X216.3027Y-362.7498

G1 Z0F20000

(Start Block)


G1X215.1861Y-27.1995
G1Z5F20000
(Plotting speed under)
G1 F4000


G1X242.4391Y-102.0774

G1X221.3124Y-128.5758

G1X230.3708Y-185.2593

G1X214.1640Y-216.6776

G1X240.2636Y-290.4022

G1X236.5439Y-334.3075

G1X217.3829Y-362.7716

G1 Z0F20000

(Start Block)


G1X216.1496Y-27.1046
G1Z5F20000
(Plotting speed under)
G1 F4000


G1X242.8177Y-101.3978

G1X222.2599Y-128.4650

G1X231.3723Y-185.2025

G1X215.6445Y-217.0997

G1X241.2334Y-290.3136

G1X237.3221Y-334.0274

G1X218.4631Y-362.7935

G1 Z0F20000

(Start Block)


G1X217.1130Y-27.0097
G1Z5F20000
(Plotting speed under)
G1 F4000


G1X243.1963Y-100.7181

G1X223.2075Y-128.3543

G1X232.3739Y-185.1457

G1X217.1250Y-217.5218

G1X242.2032Y-290.2251

G1X238.1003Y-333.7473

G1X219.5433Y-362.8154

G1 Z0F20000

(Start Block)


G1X218.0764Y-26.9148
G1Z5F20000
(Plotting speed under)
G1 F4000


G1X243.5750Y-100.0384

G1X224.1551Y-128.2435

G1X233.3754Y-185.0889

G1X218.6054Y-217.9439

G1X243.1730Y-290.1366

G1X238.8785Y-333.4672

G1X220.6236Y-362.8372

G1 Z0F20000

(Start Block)


G1X219.0398Y-26.8199
G1Z5F20000
(Plotting speed under)
G1 F4000


G1X243.9537Y-99.3587

G1X225.1026Y-128.1327

G1X234.3769Y-185.0321

G1X220.0859Y-218.3661

G1X244.1427Y-290.0480

G1X239.6567Y-333.1871

G1X221.7038Y-362.8591

G1 Z0F20000

(Start Block)


G1X220.0033Y-26.7250
G1Z5F20000
(Plotting speed under)
G1 F4000


G1X244.3323Y-98.6790

G1X226.0502Y-128.0220

G1X235.3785Y-184.9753

G1X221.5664Y-218.7882

G1X245.1125Y-289.9595

G1X240.4350Y-332.9070

G1X222.7840Y-362.8810

G1 Z0F20000

(Start Block)


G1X220.9668Y-26.6301
G1Z5F20000
(Plotting speed under)
G1 F4000


G1X244.7110Y-97.9993

G1X226.9978Y-127.9112

G1X236.3800Y-184.9185

G1X223.0468Y-219.2103

G1X246.0823Y-289.8709

G1X241.2132Y-332.6269

G1X223.8642Y-362.9028

G1 Z0F20000

(Start Block)


G1X221.9302Y-26.5352
G1Z5F20000
(Plotting speed under)
G1 F4000


G1X245.0896Y-97.3196

G1X227.9453Y-127.8004

G1X237.3815Y-184.8617

G1X224.5273Y-219.6325

G1X247.0521Y-289.7824

G1X241.9914Y-332.3467

G1X224.9444Y-362.9247

G1 Z0F20000

(Start Block)


G1X222.8936Y-26.4403
G1Z5F20000
(Plotting speed under)
G1 F4000


G1X245.4682Y-96.6400

G1X228.8929Y-127.6897

G1X238.3831Y-184.8049

G1X226.0078Y-220.0546

G1X248.0219Y-289.6938

G1X242.7697Y-332.0666

G1X226.0246Y-362.9466

G1 Z0F20000

(Start Block)


G1X223.8570Y-26.3454
G1Z5F20000
(Plotting speed under)
G1 F4000


G1X245.8469Y-95.9603

G1X229.8404Y-127.5789

G1X239.3846Y-184.7481

G1X227.4882Y-220.4767

G1X248.9917Y-289.6053

G1X243.5479Y-331.7865

G1X227.1048Y-362.9684

G1 Z0F20000

(Start Block)


G1X224.8205Y-26.2505
G1Z5F20000
(Plotting speed under)
G1 F4000


G1X246.2255Y-95.2806

G1X230.7880Y-127.4681

G1X240.3861Y-184.6913

G1X228.9687Y-220.8989

G1X249.9615Y-289.5167

G1X244.3261Y-331.5064

G1X228.1850Y-362.9903

G1 Z0F20000

(Start Block)


G1X225.7839Y-26.1556
G1Z5F20000
(Plotting speed under)
G1 F4000


G1X246.6042Y-94.6009

G1X231.7356Y-127.3573

G1X241.3877Y-184.6345

G1X230.4492Y-221.3210

G1X250.9313Y-289.4282

G1X245.1043Y-331.2263

G1X229.2652Y-363.0122

G1 Z0F20000

(Start Block)


G1X226.7474Y-26.0607
G1Z5F20000
(Plotting speed under)
G1 F4000


G1X246.9828Y-93.9212

G1X232.6831Y-127.2466

G1X242.3892Y-184.5777

G1X231.9296Y-221.7432

G1X251.9011Y-289.3397

G1X245.8825Y-330.9462

G1X230.3454Y-363.0341

G1 Z0F20000

(Start Block)


G1X227.7108Y-25.9658
G1Z5F20000
(Plotting speed under)
G1 F4000


G1X247.3615Y-93.2415

G1X233.6307Y-127.1358

G1X243.3907Y-184.5209

G1X233.4101Y-222.1653

G1X252.8708Y-289.2511

G1X246.6608Y-330.6661

G1X231.4256Y-363.0559

G1 Z0F20000

(Start Block)


G1X228.6742Y-25.8709
G1Z5F20000
(Plotting speed under)
G1 F4000


G1X247.7401Y-92.5618

G1X234.5783Y-127.0250

G1X244.3922Y-184.4641

G1X234.8905Y-222.5874

G1X253.8406Y-289.1625

G1X247.4390Y-330.3860

G1X232.5058Y-363.0778

G1 Z0F20000

(Start Block)


G1X229.6377Y-25.7760
G1Z5F20000
(Plotting speed under)
G1 F4000


G1X248.1188Y-91.8821

G1X235.5258Y-126.9142

G1X245.3938Y-184.4072

G1X236.3710Y-223.0096

G1X254.8104Y-289.0740

G1X248.2172Y-330.1059

G1X233.5860Y-363.0997

G1 Z0F20000

(Start Block)


G1X230.6011Y-25.6811
G1Z5F20000
(Plotting speed under)
G1 F4000


G1X248.4974Y-91.2025

G1X236.4734Y-126.8035

G1X246.3953Y-184.3505

G1X237.8515Y-223.4317

G1X255.7802Y-288.9855

G1X248.9954Y-329.8257

G1X234.6662Y-363.1215

G1 Z0F20000

(Start Block)


G1X231.5645Y-25.5862
G1Z5F20000
(Plotting speed under)
G1 F4000


G1X248.8761Y-90.5228

G1X237.4209Y-126.6927

G1X247.3968Y-184.2937

G1X239.3319Y-223.8538

G1X256.7500Y-288.8969

G1X249.7737Y-329.5456

G1X235.7464Y-363.1434

G1 Z0F20000

(Start Block)


G1X232.5279Y-25.4913
G1Z5F20000
(Plotting speed under)
G1 F4000


G1X249.2547Y-89.8431

G1X238.3685Y-126.5819

G1X248.3984Y-184.2369

G1X240.8124Y-224.2760

G1X257.7198Y-288.8084

G1X250.5519Y-329.2655

G1X236.8266Y-363.1653

G1 Z0F20000

(Start Block)


G1X233.4914Y-25.3964
G1Z5F20000
(Plotting speed under)
G1 F4000


G1X249.6333Y-89.1634

G1X239.3160Y-126.4711

G1X249.3999Y-184.1801

G1X242.2929Y-224.6981

G1X258.6896Y-288.7198

G1X251.3301Y-328.9854

G1X237.9068Y-363.1871

G1 Z0F20000

(Start Block)


G1X234.4548Y-25.3015
G1Z5F20000
(Plotting speed under)
G1 F4000


G1X250.0120Y-88.4837

G1X240.2636Y-126.3604

G1X250.4014Y-184.1232

G1X243.7734Y-225.1202

G1X259.6594Y-288.6313

G1X252.1083Y-328.7053

G1X238.9870Y-363.2090

G1 Z0F20000

(Start Block)


G1X235.4183Y-25.2066
G1Z5F20000
(Plotting speed under)
G1 F4000


G1X250.3907Y-87.8040

G1X241.2112Y-126.2496

G1X251.4030Y-184.0664

G1X245.2538Y-225.5423

G1X260.6291Y-288.5427

G1X252.8865Y-328.4252

G1X240.0672Y-363.2309

G1 Z0F20000

(Start Block)


G1X236.3817Y-25.1117
G1Z5F20000
(Plotting speed under)
G1 F4000


G1X250.7693Y-87.1243

G1X242.1587Y-126.1388

G1X252.4045Y-184.0096

G1X246.7343Y-225.9645

G1X261.5989Y-288.4542

G1X253.6648Y-328.1451

G1X241.1474Y-363.2527

G1 Z0F20000

(Start Block)


G1X237.3451Y-25.0168
G1Z5F20000
(Plotting speed under)
G1 F4000


G1X251.1480Y-86.4447

G1X243.1063Y-126.0281

G1X253.4060Y-183.9528

G1X248.2147Y-226.3866

G1X262.5687Y-288.3656

G1X254.4430Y-327.8650

G1X242.2276Y-363.2746

G1 Z0F20000

(Start Block)


G1X238.3085Y-24.9219
G1Z5F20000
(Plotting speed under)
G1 F4000


G1X251.5266Y-85.7650

G1X244.0539Y-125.9173

G1X254.4075Y-183.8960

G1X249.6952Y-226.8087

G1X263.5385Y-288.2771

G1X255.2212Y-327.5849

G1X243.3078Y-363.2965

G1 Z0F20000

(Start Block)


G1X239.2720Y-24.8270
G1Z5F20000
(Plotting speed under)
G1 F4000


G1X251.9052Y-85.0853

G1X245.0014Y-125.8065

G1X255.4091Y-183.8392

G1X251.1757Y-227.2309

G1X264.5083Y-288.1886

G1X255.9994Y-327.3047

G1X244.3880Y-363.3183

G1 Z0F20000

(Start Block)


G1X240.2354Y-24.7321
G1Z5F20000
(Plotting speed under)
G1 F4000


G1X252.2839Y-84.4056

G1X245.9490Y-125.6958

G1X256.4106Y-183.7824

G1X252.6561Y-227.6530

G1X265.4781Y-288.1000

G1X256.7777Y-327.0246

G1X245.4682Y-363.3402

G1 Z0F20000

(Start Block)


G1X241.1988Y-24.6372
G1Z5F20000
(Plotting speed under)
G1 F4000


G1X252.6625Y-83.7259

G1X246.8965Y-125.5850

G1X257.4122Y-183.7256

G1X254.1366Y-228.0751

G1X266.4479Y-288.0115

G1X257.5559Y-326.7445

G1X246.5484Y-363.3621

G1 Z0F20000

(Start Block)


G1X242.1623Y-24.5423
G1Z5F20000
(Plotting speed under)
G1 F4000


G1X253.0412Y-83.0462

G1X247.8441Y-125.4742

G1X258.4137Y-183.6688

G1X255.6171Y-228.4973

G1X267.4177Y-287.9229

G1X258.3341Y-326.4644

G1X247.6286Y-363.3839

G1 Z0F20000

(Start Block)


G1X243.1257Y-24.4473
G1Z5F20000
(Plotting speed under)
G1 F4000


G1X253.4198Y-82.3665

G1X248.7917Y-125.3634

G1X259.4152Y-183.6120

G1X257.0975Y-228.9194

G1X268.3875Y-287.8344

G1X259.1123Y-326.1843

G1X248.7088Y-363.4058

G1 Z0F20000

(Start Block)


G1X244.0892Y-24.3524
G1Z5F20000
(Plotting speed under)
G1 F4000


G1X253.7985Y-81.6868

G1X249.7392Y-125.2527

G1X260.4167Y-183.5552

G1X258.5780Y-229.3415

G1X269.3573Y-287.7458

G1X259.8905Y-325.9042

G1X249.7890Y-363.4277

G1 Z0F20000

(Start Block)


G1X245.0526Y-24.2575
G1Z5F20000
(Plotting speed under)
G1 F4000


G1X254.1771Y-81.0072

G1X250.6868Y-125.1419

G1X261.4183Y-183.4984

G1X260.0585Y-229.7637

G1X270.3271Y-287.6573

G1X260.6688Y-325.6241

G1X250.8692Y-363.4496

G1 Z0F20000

(Start Block)


G1X246.0160Y-24.1626
G1Z5F20000
(Plotting speed under)
G1 F4000


G1X254.5558Y-80.3275

G1X251.6344Y-125.0311

G1X262.4198Y-183.4416

G1X261.5389Y-230.1858

G1X271.2969Y-287.5687

G1X261.4470Y-325.3440

G1X251.9494Y-363.4714

G1 Z0F20000

(Start Block)


G1X246.9794Y-24.0677
G1Z5F20000
(Plotting speed under)
G1 F4000


G1X254.9344Y-79.6478

G1X252.5819Y-124.9203

G1X263.4213Y-183.3848

G1X263.0194Y-230.6079

G1X272.2666Y-287.4802

G1X262.2252Y-325.0638

G1X253.0296Y-363.4933

G1 Z0F20000

(Start Block)


G1X247.9429Y-23.9729
G1Z5F20000
(Plotting speed under)
G1 F4000


G1X255.3131Y-78.9681

G1X253.5295Y-124.8096

G1X264.4229Y-183.3280

G1X264.4999Y-231.0301

G1X273.2364Y-287.3917

G1X263.0034Y-324.7837

G1X254.1098Y-363.5152

G1 Z0F20000

(Start Block)


G1X248.9063Y-23.8779
G1Z5F20000
(Plotting speed under)
G1 F4000


G1X255.6917Y-78.2884

G1X254.4770Y-124.6988

G1X265.4244Y-183.2712

G1X265.9803Y-231.4522

G1X274.2062Y-287.3031

G1X263.7817Y-324.5036

G1X255.1900Y-363.5370

G1 Z0F20000

(Start Block)


G1X249.8698Y-23.7830
G1Z5F20000
(Plotting speed under)
G1 F4000


G1X256.0704Y-77.6087

G1X255.4246Y-124.5880

G1X266.4259Y-183.2144

G1X267.4608Y-231.8743

G1X275.1760Y-287.2145

G1X264.5599Y-324.2235

G1X256.2702Y-363.5589

G1 Z0F20000

(Start Block)


G1X250.8332Y-23.6881
G1Z5F20000
(Plotting speed under)
G1 F4000


G1X256.4490Y-76.9290

G1X256.3722Y-124.4772

G1X267.4275Y-183.1576

G1X268.9412Y-232.2964

G1X276.1458Y-287.1260

G1X265.3381Y-323.9434

G1X257.3505Y-363.5808

G1 Z0F20000

(Start Block)


G1X251.7966Y-23.5932
G1Z5F20000
(Plotting speed under)
G1 F4000


G1X256.8277Y-76.2494

G1X257.3197Y-124.3665

G1X268.4290Y-183.1008

G1X270.4217Y-232.7186

G1X277.1156Y-287.0375

G1X266.1163Y-323.6633

G1X258.4306Y-363.6026

G1 Z0F20000

(Start Block)


G1X252.7601Y-23.4983
G1Z5F20000
(Plotting speed under)
G1 F4000


G1X257.2063Y-75.5697

G1X258.2673Y-124.2557

G1X269.4305Y-183.0440

G1X271.9022Y-233.1407

G1X278.0854Y-286.9489

G1X266.8945Y-323.3832

G1X259.5109Y-363.6245

G1 Z0F20000

(Start Block)


G1X253.7235Y-23.4034
G1Z5F20000
(Plotting speed under)
G1 F4000


G1X257.5850Y-74.8900

G1X259.2148Y-124.1449

G1X270.4321Y-182.9872

G1X273.3827Y-233.5628

G1X279.0552Y-286.8604

G1X267.6728Y-323.1031

G1X260.5910Y-363.6464

G1 Z0F20000


G00 X0.0000 Y0.0000


