$H
G21
G17
G90
G1 Z0F20000
G1 F15000

(Start Layer)

(Start Block)


G1X251.7296Y-88.6929
G1Z5F20000
(Plotting speed under)
G1 F4000


G1X248.7417Y-88.8476

G1X245.6885Y-89.2748

G1X242.6426Y-89.9672

G1X239.9514Y-90.8461

G1X237.5753Y-91.9152

G1X235.1067Y-93.3372

G1X232.9483Y-94.8806

G1X230.9474Y-96.6387

G1X229.2056Y-98.5294

G1X227.7878Y-100.4784

G1X226.6953Y-102.5304

G1X225.9830Y-104.5655

G1X225.5841Y-106.7817

G1X225.5378Y-109.0902

G1X225.8322Y-111.2252

G1X226.4925Y-113.3547

G1X227.5607Y-115.5035

G1X229.0202Y-117.6313

G1X230.9879Y-119.9216

G1X233.2798Y-122.1244

G1X235.7980Y-124.1630

G1X238.5451Y-126.0555

G1X241.4246Y-127.7165

G1X244.6533Y-129.2946

G1X248.2000Y-130.7579

G1X251.7517Y-131.9606

G1X255.2557Y-132.8732

G1X258.6974Y-133.4918

G1X261.8079Y-133.7666

G1X264.5360Y-133.7127

G1X267.0009Y-133.3494

G1X269.2758Y-132.6564

G1X270.7638Y-131.9524

G1X272.0653Y-131.1191

G1X273.2662Y-130.1126

G1X274.3683Y-128.9108

G1X275.2395Y-127.6527

G1X275.9824Y-126.2203

G1X276.5872Y-124.6189

G1X277.0516Y-122.8617

G1X277.4222Y-120.6706

G1X277.6548Y-118.1880

G1X277.7899Y-115.2912

G1X277.7061Y-112.9248

G1X277.4373Y-110.6293

G1X276.9917Y-108.3350

G1X276.3463Y-105.9723

G1X275.5629Y-103.7670

G1X274.7994Y-102.0087

G1X273.9483Y-100.3554

G1X273.0698Y-98.9745

G1X272.0320Y-97.6065

G1X270.7195Y-96.1284

G1X269.2856Y-94.7426

G1X267.7710Y-93.4896

G1X266.2989Y-92.4613

G1X264.9072Y-91.6635

G1X263.3599Y-90.9604

G1X261.5806Y-90.3112

G1X259.6986Y-89.7631

G1X257.6589Y-89.3017

G1X255.6138Y-88.9652

G1X253.6188Y-88.7601

G1X251.7296Y-88.6929

G1 Z0F20000

(Start Block)


G1X251.3307Y-99.3408
G1Z5F20000
(Plotting speed under)
G1 F4000


G1X253.3906Y-99.5608

G1X255.1457Y-100.0030

G1X256.7099Y-100.6762

G1X258.1420Y-101.6300

G1X259.3299Y-102.7985

G1X260.3052Y-104.1930

G1X261.0797Y-105.8414

G1X261.6049Y-107.6218

G1X261.9417Y-109.8924

G1X261.9915Y-112.3871

G1X261.7098Y-115.0980

G1X261.4425Y-116.2907

G1X261.1226Y-117.2862

G1X260.3314Y-118.8925

G1X259.8383Y-119.5719

G1X259.2128Y-120.2301

G1X258.5945Y-120.7216

G1X257.9182Y-121.1259

G1X257.1845Y-121.4438

G1X256.3283Y-121.6908

G1X255.2769Y-121.8485

G1X254.0488Y-121.8739

G1X252.8336Y-121.7685

G1X251.4300Y-121.5206

G1X249.8596Y-121.1172

G1X248.4118Y-120.6362

G1X247.0816Y-120.0808

G1X245.7840Y-119.4043

G1X244.7638Y-118.7505

G1X243.7956Y-117.9987

G1X242.9744Y-117.2248

G1X242.1922Y-116.3179

G1X241.5788Y-115.4295

G1X241.0230Y-114.3997

G1X240.5925Y-113.3254

G1X240.3013Y-112.2880

G1X240.0860Y-110.9900

G1X240.0115Y-109.6061

G1X240.0778Y-108.1676

G1X240.2790Y-106.8211

G1X240.5845Y-105.6703

G1X241.0458Y-104.5199

G1X241.6050Y-103.5266

G1X242.2596Y-102.6517

G1X243.0961Y-101.8000

G1X243.9762Y-101.1179

G1X244.9652Y-100.5344

G1X246.0855Y-100.0474

G1X247.2514Y-99.6955

G1X248.5139Y-99.4575

G1X249.8735Y-99.3379

G1X251.3307Y-99.3408

G1 Z0F20000

(Start Block)


G1X243.6825Y-136.0812
G1Z5F20000
(Plotting speed under)
G1 F4000


G1X240.9796Y-136.1340

G1X238.5306Y-136.5371

G1X237.4542Y-136.8657

G1X236.3803Y-137.3052

G1X234.2614Y-138.4786

G1X232.2512Y-140.0482

G1X231.3232Y-140.9612

G1X230.3832Y-142.0365

G1X229.5063Y-143.2049

G1X228.6940Y-144.4634

G1X227.4921Y-146.8440

G1X226.5476Y-149.6176

G1X225.9086Y-152.6726

G1X225.5127Y-156.3594

G1X225.3856Y-160.4905

G1X225.6258Y-163.5625

G1X226.1975Y-166.7378

G1X227.0464Y-169.7623

G1X228.2072Y-172.7733

G1X229.5224Y-175.3913

G1X231.2575Y-178.1039

G1X233.3509Y-180.8027

G1X235.6337Y-183.2803

G1X237.7718Y-185.2375

G1X240.3343Y-187.1965

G1X243.2527Y-189.1021

G1X246.4061Y-190.8718

G1X249.6485Y-192.4101

G1X252.6739Y-193.5613

G1X255.9101Y-194.4783

G1X259.0871Y-195.0782

G1X261.9262Y-195.3233

G1X264.5087Y-195.2293

G1X266.9691Y-194.7879

G1X269.2347Y-194.0022

G1X270.8002Y-193.1835

G1X272.2463Y-192.1656

G1X273.5689Y-190.9461

G1X274.6844Y-189.5998

G1X275.5822Y-188.1300

G1X276.2793Y-186.5694

G1X276.8546Y-184.7473

G1X277.2845Y-182.6767

G1X277.5916Y-180.0964

G1X277.7672Y-176.9000

G1X277.7177Y-174.6593

G1X277.4931Y-172.3956

G1X277.0441Y-169.8290

G1X276.3775Y-167.1788

G1X275.4917Y-164.4742

G1X274.4303Y-161.8423

G1X273.2173Y-159.3077

G1X271.7721Y-156.6539

G1X270.2360Y-154.1556

G1X268.6264Y-151.8336

G1X266.9594Y-149.7032

G1X265.2501Y-147.7750

G1X263.5839Y-146.1207

G1X261.4368Y-144.2331

G1X259.0812Y-142.3694

G1X256.7692Y-140.7541

G1X254.4426Y-139.3473

G1X252.1175Y-138.1651

G1X249.9024Y-137.2512

G1X248.0986Y-136.7068

G1X245.8968Y-136.2848

G1X243.6825Y-136.0812

G1 Z0F20000

(Start Block)


G1X246.8493Y-149.4375
G1Z5F20000
(Plotting speed under)
G1 F4000


G1X247.8863Y-149.5343

G1X248.8908Y-149.7400

G1X251.1032Y-150.5091

G1X253.1308Y-151.5964

G1X255.0342Y-153.0490

G1X256.6817Y-154.7737

G1X258.1066Y-156.7765

G1X259.2874Y-159.0292

G1X260.1878Y-161.4225

G1X260.9210Y-164.4205

G1X261.3272Y-167.7709

G1X261.4065Y-169.6017

G1X261.3828Y-171.3051

G1X261.2719Y-172.8687

G1X261.0567Y-174.3894

G1X260.7896Y-175.5784

G1X260.4184Y-176.7254

G1X259.9995Y-177.6617

G1X259.4942Y-178.5026

G1X258.9158Y-179.2174

G1X258.2649Y-179.8068

G1X257.5422Y-180.2714

G1X256.6560Y-180.6423

G1X255.7178Y-180.8547

G1X254.6429Y-180.9208

G1X253.4838Y-180.8266

G1X252.2411Y-180.5751

G1X250.8013Y-180.1285

G1X249.2910Y-179.5112

G1X247.9296Y-178.8106

G1X246.7518Y-178.0649

G1X245.7372Y-177.2914

G1X244.7979Y-176.4379

G1X243.8707Y-175.4305

G1X243.0907Y-174.4186

G1X242.3378Y-173.2452

G1X241.7192Y-172.0765

G1X241.1777Y-170.8299

G1X240.7130Y-169.5042

G1X240.2760Y-167.8810

G1X239.9318Y-166.0594

G1X239.7071Y-164.1249

G1X239.6015Y-162.0758

G1X239.6168Y-159.9762

G1X239.7498Y-158.1251

G1X239.9987Y-156.4454

G1X240.3881Y-154.8533

G1X240.8530Y-153.5746

G1X241.4039Y-152.4884

G1X242.1151Y-151.4858

G1X242.8684Y-150.7365

G1X243.7193Y-150.1518

G1X244.6850Y-149.7292

G1X245.7716Y-149.4869

G1X246.8493Y-149.4375

G1 Z0F20000

(Start Block)


G1X215.7654Y-132.1259
G1Z5F20000
(Plotting speed under)
G1 F4000


G1X207.6883Y-132.1357

G1X196.7231Y-169.2798

G1X196.3061Y-169.3072

G1X185.3455Y-133.2421

G1X176.9596Y-134.2646

G1X172.8887Y-134.9141

G1X168.9346Y-135.6503

G1X186.5971Y-185.7997

G1X196.4552Y-184.8622

G1X206.4367Y-184.2536

G1X219.0864Y-146.8272

G1X223.8321Y-132.4897

G1X220.0018Y-132.2522

G1X215.7654Y-132.1259

G1 Z0F20000

(Start Block)


G1X163.7964Y-136.7706
G1Z5F20000
(Plotting speed under)
G1 F4000


G1X156.4638Y-138.8191

G1X149.2128Y-141.1466

G1X149.2128Y-168.9398

G1X148.8185Y-169.0803

G1X144.3959Y-164.1688

G1X139.7932Y-159.2972

G1X135.1461Y-154.6072

G1X130.3121Y-149.9528

G1X117.8823Y-156.4015

G1X117.8053Y-212.3283

G1X132.4070Y-202.8188

G1X132.4572Y-174.4180

G1X132.7698Y-174.2407

G1X137.7347Y-178.9194

G1X142.4860Y-183.6373

G1X147.1117Y-188.4786

G1X151.6255Y-193.4592

G1X157.7241Y-191.6095

G1X163.8057Y-190.0217

G1X163.7964Y-136.7706

G1 Z0F20000

(Start Block)


G1X163.7468Y-89.4096
G1Z5F20000
(Plotting speed under)
G1 F4000


G1X149.2035Y-89.4458

G1X149.2128Y-112.8857

G1X148.8045Y-112.9540

G1X146.5319Y-110.6643

G1X144.2715Y-108.2417

G1X139.7179Y-102.9197

G1X135.0069Y-96.8257

G1X129.7545Y-89.4685

G1X117.4064Y-89.4959

G1X117.8415Y-148.2795

G1X132.4525Y-141.0194

G1X132.1895Y-114.0831

G1X132.5021Y-114.0149

G1X135.1978Y-116.8607

G1X138.2443Y-119.9123

G1X151.6255Y-132.7569

G1X157.6331Y-130.9392

G1X163.8010Y-129.4243

G1X163.7468Y-89.4096

G1 Z0F20000

(Start Block)


G1X168.8710Y-89.3915
G1Z5F20000
(Plotting speed under)
G1 F4000


G1X170.9490Y-94.4229

G1X173.4782Y-99.8797

G1X176.1197Y-105.1538

G1X183.0270Y-118.4680

G1X186.5924Y-125.8958

G1X196.3075Y-125.2519

G1X206.4367Y-124.8349

G1X208.2280Y-120.9007

G1X210.3236Y-116.6888

G1X217.6015Y-103.1582

G1X220.0770Y-98.3691

G1X222.2691Y-93.7557

G1X224.1085Y-89.3915

G1X207.6883Y-89.4184

G1X205.4380Y-95.4847

G1X202.5911Y-102.0616

G1X196.7190Y-114.2371

G1X196.3014Y-114.2552

G1X192.7026Y-107.0652

G1X189.8149Y-100.8481

G1X187.3539Y-94.9731

G1X185.3000Y-89.3915

G1X168.8710Y-89.3915

G1 Z0F20000

(Start Block)


G1X110.5360Y-159.8793
G1Z5F20000
(Plotting speed under)
G1 F4000


G1X105.3932Y-161.8470

G1X100.4874Y-163.4010

G1X95.7486Y-164.5635

G1X91.1143Y-165.3562

G1X86.4327Y-165.8063

G1X81.6470Y-165.9139

G1X76.7008Y-165.6795

G1X71.5373Y-165.1033

G1X71.5962Y-223.6150

G1X74.2182Y-224.1387

G1X76.7559Y-224.5364

G1X79.2183Y-224.8098

G1X81.6146Y-224.9609

G1X83.9538Y-224.9915

G1X86.2449Y-224.9035

G1X88.4969Y-224.6988

G1X90.8111Y-224.3636

G1X93.1029Y-223.9058

G1X95.3826Y-223.3276

G1X97.6604Y-222.6312

G1X100.0383Y-221.7837

G1X102.4368Y-220.8130

G1X104.9615Y-219.6771

G1X110.3639Y-216.9172

G1X110.3773Y-204.6461

G1X106.8768Y-206.4201

G1X103.6928Y-207.9064

G1X100.6920Y-209.1674

G1X97.7539Y-210.2506

G1X94.8543Y-211.1602

G1X91.9740Y-211.9020

G1X89.0985Y-212.4825

G1X86.1121Y-212.9221

G1X86.1121Y-202.5424

G1X88.6550Y-202.3108

G1X91.1395Y-201.9265

G1X93.6698Y-201.3803

G1X96.3437Y-200.6429

G1X99.0688Y-199.7372

G1X101.8532Y-198.6716

G1X104.8914Y-197.3772

G1X108.4726Y-195.7263

G1X108.4865Y-183.3412

G1X108.4865Y-182.9384

G1X104.6690Y-184.5586

G1X101.4029Y-185.8247

G1X98.2980Y-186.8843

G1X95.4394Y-187.7077

G1X93.0215Y-188.2746

G1X90.6624Y-188.7034

G1X88.3608Y-188.9969

G1X86.1163Y-189.1603

G1X86.1163Y-178.8255

G1X89.0945Y-178.4990

G1X91.9833Y-178.0452

G1X94.8967Y-177.4479

G1X97.8474Y-176.7008

G1X100.7590Y-175.8284

G1X103.8396Y-174.7700

G1X107.0203Y-173.5483

G1X110.5226Y-172.0781

G1X110.5360Y-159.8793

G1 Z0F20000

(Start Block)


G1X110.4864Y-224.7033
G1Z5F20000
(Plotting speed under)
G1 F4000


G1X104.9891Y-227.5085

G1X102.4649Y-228.6418

G1X100.0663Y-229.6107

G1X97.6877Y-230.4571

G1X95.4088Y-231.1531

G1X93.1277Y-231.7312

G1X90.8342Y-232.1892

G1X88.5183Y-232.5249

G1X86.2646Y-232.7301

G1X83.9718Y-232.8186

G1X81.6311Y-232.7885

G1X79.2335Y-232.6377

G1X76.7700Y-232.3643

G1X74.2318Y-231.9664

G1X71.6097Y-231.4419

G1X71.6463Y-281.0746

G1X76.6706Y-281.7314

G1X81.5013Y-282.0432

G1X86.1948Y-282.0126

G1X90.8938Y-281.6360

G1X95.6449Y-280.9001

G1X100.4048Y-279.8173

G1X105.3248Y-278.3641

G1X110.5680Y-276.4903

G1X110.5272Y-265.0124

G1X107.0984Y-266.3783

G1X103.8969Y-267.5435

G1X100.7976Y-268.5506

G1X97.8709Y-269.3786

G1X94.9087Y-270.0857

G1X91.9888Y-270.6491

G1X89.0989Y-271.0752

G1X86.1256Y-271.3795

G1X86.1256Y-263.0627

G1X88.6702Y-262.8770

G1X91.1649Y-262.5502

G1X93.7138Y-262.0746

G1X96.4160Y-261.4237

G1X99.1780Y-260.6166

G1X102.0076Y-259.6603

G1X108.5682Y-257.0723

G1X108.5315Y-245.9893

G1X104.9353Y-247.6063

G1X101.8859Y-248.8725

G1X99.0929Y-249.9142

G1X96.3610Y-250.7988

G1X93.6822Y-251.5184

G1X91.1489Y-252.0511

G1X88.6632Y-252.4256

G1X86.1209Y-252.6509

G1X86.1209Y-244.3703

G1X89.0963Y-243.9368

G1X92.0615Y-243.3436

G1X94.9337Y-242.6101

G1X97.8278Y-241.7121

G1X100.7620Y-240.6440

G1X103.7595Y-239.4012

G1X106.9398Y-237.9364

G1X110.5272Y-236.1397

G1X110.4864Y-224.7033

G1 Z0F20000

(Start Block)


G1X110.6311Y-283.7685
G1Z5F20000
(Plotting speed under)
G1 F4000


G1X105.2597Y-285.6469

G1X100.2317Y-287.1126

G1X95.3744Y-288.2077

G1X90.7188Y-288.9265

G1X86.0191Y-289.3050

G1X81.3198Y-289.3330

G1X76.5772Y-289.0197

G1X71.6463Y-288.3574

G1X71.5781Y-327.2160

G1X110.0869Y-327.2383

G1X110.1825Y-317.0440

G1X97.6543Y-317.4347

G1X91.8423Y-317.4742

G1X86.1209Y-317.4115

G1X86.1209Y-311.3167

G1X91.5418Y-311.2729

G1X97.0595Y-311.0306

G1X102.6665Y-310.5923

G1X108.3547Y-309.9613

G1X108.4410Y-301.2000

G1X102.7544Y-302.4404

G1X97.1107Y-303.3879

G1X91.5275Y-304.0331

G1X86.1209Y-304.3652

G1X86.1209Y-298.6560

G1X91.9504Y-297.9487

G1X97.8345Y-296.8875

G1X103.9364Y-295.4439

G1X110.5360Y-293.5452

G1X110.6311Y-283.7685

G1 Z0F20000

(Start Block)


G1X163.2026Y-260.4872
G1Z5F20000
(Plotting speed under)
G1 F4000


G1X156.1783Y-262.9569

G1X149.2221Y-265.6068

G1X149.2128Y-298.2658

G1X148.8092Y-298.3340

G1X145.9511Y-293.8497

G1X143.3913Y-290.0255

G1X140.9616Y-286.6091

G1X138.6045Y-283.5166

G1X136.5840Y-281.0465

G1X134.6089Y-278.7933

G1X132.5464Y-276.6069

G1X130.4614Y-274.5629

G1X123.8131Y-277.8522

G1X118.0094Y-280.5852

G1X117.4105Y-327.2336

G1X131.9538Y-327.2021

G1X132.3166Y-299.0234

G1X132.6292Y-298.9459

G1X136.0570Y-303.5026

G1X139.6537Y-308.6775

G1X151.6069Y-327.1659

G1X163.7375Y-327.1339

G1X163.2026Y-260.4872

G1 Z0F20000

(Start Block)


G1X211.7227Y-251.7565
G1Z5F20000
(Plotting speed under)
G1 F4000


G1X207.6563Y-251.9301

G1X205.7002Y-260.7204

G1X203.6780Y-270.5200

G1X196.6373Y-307.0772

G1X196.2151Y-307.0859

G1X191.5529Y-283.9244

G1X189.4748Y-274.0240

G1X187.1562Y-263.8747

G1X184.8556Y-254.8596

G1X176.5203Y-256.7002

G1X168.2767Y-258.9183

G1X170.5676Y-266.5876

G1X172.9435Y-275.1653

G1X175.3397Y-284.3584

G1X182.1281Y-311.2165

G1X184.3908Y-319.6178

G1X186.5475Y-327.1163

G1X206.4321Y-327.1431

G1X209.2107Y-317.4392

G1X211.9426Y-306.4781

G1X214.3629Y-295.6385

G1X220.2208Y-267.9195

G1X222.0530Y-259.9268

G1X223.8362Y-252.7507

G1X220.8432Y-252.2827

G1X217.8439Y-251.9637

G1X214.8375Y-251.7894

G1X211.7227Y-251.7565

G1 Z0F20000

(Start Block)


G1X240.4233Y-258.7602
G1Z5F20000
(Plotting speed under)
G1 F4000


G1X239.2580Y-258.8833

G1X238.1503Y-259.1098

G1X237.1933Y-259.4175

G1X236.2438Y-259.8377

G1X235.2711Y-260.3956

G1X234.3696Y-261.0431

G1X232.6952Y-262.6368

G1X231.8021Y-263.7313

G1X230.9937Y-264.8920

G1X229.4159Y-267.6703

G1X228.0607Y-270.6523

G1X227.0418Y-273.8341

G1X226.2802Y-277.4816

G1X225.7870Y-281.5453

G1X225.5339Y-286.2358

G1X225.5008Y-291.9495

G1X225.6707Y-296.5961

G1X226.0536Y-300.8116

G1X226.6627Y-304.7128

G1X227.5140Y-308.3477

G1X228.3962Y-311.1185

G1X229.4106Y-313.6135

G1X230.6001Y-315.9313

G1X231.9440Y-318.0542

G1X233.4804Y-320.0396

G1X235.2056Y-321.8541

G1X237.0359Y-323.4043

G1X238.9122Y-324.6624

G1X241.0998Y-325.7431

G1X243.6153Y-326.6425

G1X246.3511Y-327.3263

G1X249.1692Y-327.7573

G1X251.6304Y-327.8959

G1X253.9884Y-327.7787

G1X256.7051Y-327.3860

G1X259.3558Y-326.7683

G1X261.9096Y-325.9372

G1X264.1530Y-324.9566

G1X266.0936Y-323.8149

G1X268.0166Y-322.3628

G1X270.1660Y-320.3705

G1X272.1048Y-318.1820

G1X273.6678Y-316.0087

G1X274.9029Y-313.7750

G1X275.9345Y-311.2568

G1X276.7207Y-308.5527

G1X277.3044Y-305.4933

G1X277.6564Y-302.2161

G1X277.7701Y-299.2738

G1X277.6410Y-296.6255

G1X277.2337Y-293.7670

G1X276.5674Y-290.9261

G1X275.6264Y-288.0410

G1X274.4080Y-285.1556

G1X272.8720Y-282.2230

G1X271.0885Y-279.3190

G1X269.0581Y-276.4553

G1X266.8459Y-273.7284

G1X264.3974Y-271.0761

G1X261.8550Y-268.6535

G1X259.0522Y-266.3310

G1X256.0097Y-264.1484

G1X252.8476Y-262.2005

G1X249.6376Y-260.5293

G1X247.4375Y-259.6921

G1X245.0613Y-259.0969

G1X242.6786Y-258.7791

G1X240.4233Y-258.7602

G1 Z0F20000

(Start Block)


G1X247.0818Y-275.1633
G1Z5F20000
(Plotting speed under)
G1 F4000


G1X248.1203Y-275.2071

G1X249.3362Y-275.4371

G1X250.6848Y-275.8720

G1X251.9674Y-276.4416

G1X253.0966Y-277.0831

G1X254.2452Y-277.8913

G1X255.2479Y-278.7476

G1X256.2577Y-279.7801

G1X257.1748Y-280.8964

G1X258.0039Y-282.0895

G1X258.7576Y-283.3741

G1X259.4353Y-284.7502

G1X260.0359Y-286.2177

G1X260.5764Y-287.8356

G1X261.3560Y-291.1586

G1X261.6609Y-293.2548

G1X261.8487Y-295.3635

G1X261.9238Y-297.0189

G1X261.9104Y-299.7797

G1X261.7867Y-301.6802

G1X261.5630Y-303.4357

G1X261.2188Y-305.1349

G1X260.7855Y-306.6200

G1X260.2530Y-307.9666

G1X259.6232Y-309.1659

G1X258.8965Y-310.2191

G1X258.0737Y-311.1275

G1X257.1480Y-311.8969

G1X256.1690Y-312.4909

G1X255.0128Y-312.9715

G1X253.8576Y-313.2627

G1X252.7246Y-313.3994

G1X251.5209Y-313.4101

G1X250.2489Y-313.2889

G1X249.0589Y-313.0382

G1X247.9392Y-312.6543

G1X246.9746Y-312.1827

G1X246.0689Y-311.5942

G1X245.2220Y-310.8864

G1X244.4343Y-310.0582

G1X243.7099Y-309.1126

G1X243.0485Y-308.0479

G1X242.4502Y-306.8625

G1X241.9147Y-305.5546

G1X241.4420Y-304.1226

G1X240.6956Y-300.8997

G1X240.3663Y-298.6869

G1X240.1272Y-296.1928

G1X239.9945Y-293.5133

G1X239.9689Y-290.7967

G1X240.0465Y-288.3445

G1X240.2350Y-285.9866

G1X240.5176Y-283.9342

G1X240.8998Y-282.0866

G1X241.3602Y-280.5107

G1X241.9045Y-279.1466

G1X242.5877Y-277.9008

G1X243.3126Y-276.9510

G1X244.1246Y-276.2003

G1X244.9927Y-275.6654

G1X245.9432Y-275.3215

G1X247.0818Y-275.1633

G1 Z0F20000

(Start Block)


G1X245.7444Y-210.9894
G1Z5F20000
(Plotting speed under)
G1 F4000


G1X246.7205Y-210.9651

G1X247.7665Y-211.0783

G1X248.8827Y-211.3308

G1X249.9588Y-211.6828

G1X251.1595Y-212.1835

G1X252.3312Y-212.7850

G1X254.3971Y-214.1807

G1X256.1454Y-215.8076

G1X257.6659Y-217.7110

G1X258.9705Y-219.9287

G1X259.9645Y-222.2944

G1X260.4260Y-223.7796

G1X260.7798Y-225.2644

G1X261.0595Y-226.9089

G1X261.2319Y-228.5186

G1X261.3053Y-232.1009

G1X261.2024Y-233.7457

G1X260.9952Y-235.3491

G1X260.7346Y-236.6063

G1X260.3701Y-237.8231

G1X259.9538Y-238.8262

G1X259.4363Y-239.7494

G1X258.8666Y-240.5048

G1X258.2269Y-241.1317

G1X257.5178Y-241.6306

G1X256.6497Y-242.0355

G1X255.7458Y-242.2753

G1X254.7118Y-242.3708

G1X253.6023Y-242.3044

G1X252.4181Y-242.0786

G1X251.1600Y-241.6960

G1X249.7482Y-241.1229

G1X248.4411Y-240.4679

G1X247.1432Y-239.6761

G1X246.1027Y-238.9138

G1X245.1389Y-238.0801

G1X244.2504Y-237.1745

G1X243.3761Y-236.1212

G1X242.6449Y-235.0750

G1X241.9437Y-233.8738

G1X241.3716Y-232.6881

G1X240.8395Y-231.3346

G1X240.3555Y-229.7512

G1X239.9824Y-228.0775

G1X239.7202Y-226.3125

G1X239.5693Y-224.4546

G1X239.5314Y-222.3908

G1X239.6149Y-220.3905

G1X239.8172Y-218.5769

G1X240.1163Y-217.0410

G1X240.4927Y-215.7518

G1X240.9726Y-214.5874

G1X241.5663Y-213.5508

G1X242.1926Y-212.7555

G1X242.9766Y-212.0446

G1X243.7757Y-211.5494

G1X244.7550Y-211.1719

G1X245.7444Y-210.9894

G1 Z0F20000

(Start Block)


G1X240.9075Y-197.4626
G1Z5F20000
(Plotting speed under)
G1 F4000


G1X238.5326Y-197.7536

G1X236.3360Y-198.3993

G1X234.2898Y-199.3728

G1X232.3417Y-200.7151

G1X230.5910Y-202.3779

G1X228.9837Y-204.4366

G1X227.7518Y-206.5804

G1X226.8160Y-208.9196

G1X226.1076Y-211.6387

G1X225.6361Y-214.8075

G1X225.3653Y-219.0354

G1X225.4554Y-222.0969

G1X225.8655Y-225.1887

G1X226.5987Y-228.3559

G1X227.6204Y-231.4404

G1X228.8931Y-234.3575

G1X230.5008Y-237.2200

G1X232.4849Y-240.1171

G1X234.7570Y-242.9132

G1X237.1402Y-245.3848

G1X239.7127Y-247.6047

G1X242.5427Y-249.6718

G1X245.7731Y-251.6958

G1X249.3937Y-253.6736

G1X251.8566Y-254.8028

G1X254.6520Y-255.7525

G1X257.5928Y-256.4448

G1X260.4394Y-256.8235

G1X262.8835Y-256.8847

G1X265.2643Y-256.6494

G1X267.5376Y-256.1030

G1X269.5589Y-255.2896

G1X271.1738Y-254.3573

G1X272.6585Y-253.2111

G1X274.0114Y-251.8385

G1X275.0405Y-250.4309

G1X275.8977Y-248.8279

G1X276.5772Y-247.0405

G1X277.0825Y-245.0885

G1X277.4523Y-242.8033

G1X277.6830Y-240.1408

G1X277.7689Y-237.3400

G1X277.6217Y-234.8831

G1X277.2728Y-232.4076

G1X276.6879Y-229.7387

G1X275.8743Y-227.0048

G1X274.8721Y-224.3358

G1X273.6600Y-221.6730

G1X272.2489Y-219.0010

G1X270.7392Y-216.4836

G1X269.0906Y-214.0604

G1X267.3708Y-211.8378

G1X265.7320Y-209.9723

G1X263.9983Y-208.2388

G1X261.6943Y-206.2081

G1X259.4443Y-204.4383

G1X257.1328Y-202.8337

G1X254.7094Y-201.3589

G1X251.8449Y-199.8402

G1X249.5051Y-198.7805

G1X247.5457Y-198.1619

G1X245.3372Y-197.7064

G1X243.0601Y-197.4682

G1X240.9075Y-197.4626

G1 Z0F20000

(Start Block)


G1X215.8264Y-191.9446
G1Z5F20000
(Plotting speed under)
G1 F4000


G1X212.0113Y-191.8967

G1X207.6883Y-191.9627

G1X196.5464Y-229.1067

G1X196.1200Y-229.1568

G1X190.4573Y-210.7889

G1X185.3093Y-193.7274

G1X177.0709Y-195.0133

G1X168.8937Y-196.6425

G1X178.2858Y-223.8832

G1X186.1165Y-246.1620

G1X191.2715Y-245.3242

G1X196.3200Y-244.6269

G1X201.3842Y-244.0538

G1X206.3866Y-243.6133

G1X211.7684Y-227.7792

G1X223.9406Y-192.5657

G1X220.0369Y-192.1628

G1X215.8264Y-191.9446

G1 Z0F20000

(Start Block)


G1X163.7649Y-197.8440
G1Z5F20000
(Plotting speed under)
G1 F4000


G1X156.5143Y-199.8515

G1X149.2221Y-202.0706

G1X149.2221Y-231.1743

G1X148.8319Y-231.3288

G1X143.3513Y-224.9477

G1X138.0106Y-219.2848

G1X134.1332Y-215.5346

G1X130.2351Y-212.0695

G1X117.8141Y-220.1868

G1X118.0544Y-273.1299

G1X124.4284Y-269.9763

G1X132.6975Y-265.6931

G1X132.5523Y-236.7930

G1X132.8649Y-236.6163

G1X136.7688Y-240.3694

G1X140.9344Y-244.6985

G1X145.3677Y-249.5991

G1X151.4803Y-256.6327

G1X157.2951Y-254.2965

G1X163.1752Y-252.2200

G1X163.7649Y-197.8440

G1 Z0F20000

(Start Block)


G1X33.0466Y-217.4205
G1Z5F20000
(Plotting speed under)
G1 F4000


G1X31.4991Y-217.5868

G1X30.0638Y-217.9057

G1X28.7409Y-218.3735

G1X27.5309Y-218.9866

G1X26.4340Y-219.7411

G1X25.3847Y-220.7022

G1X24.5573Y-221.7115

G1X23.8746Y-222.8318

G1X23.3010Y-224.1529

G1X22.8895Y-225.5948

G1X22.6391Y-227.1531

G1X22.5489Y-228.8235

G1X22.6150Y-230.4722

G1X22.8469Y-232.1523

G1X23.2449Y-233.7726

G1X23.8088Y-235.3345

G1X24.8868Y-237.4433

G1X26.2943Y-239.4432

G1X28.2125Y-241.5438

G1X30.5244Y-243.6072

G1X33.0766Y-245.5350

G1X36.2448Y-247.6546

G1X45.9578Y-253.5198

G1X47.7087Y-254.7541

G1X49.0994Y-255.9011

G1X50.2674Y-257.1270

G1X50.9899Y-258.2644

G1X51.3786Y-259.4910

G1X51.4110Y-260.0708

G1X51.3443Y-260.6106

G1X50.9852Y-261.4391

G1X50.3830Y-262.0341

G1X49.6413Y-262.3762

G1X48.5876Y-262.5434

G1X47.4649Y-262.4997

G1X46.1212Y-262.2456

G1X44.4613Y-261.7361

G1X42.8625Y-261.0920

G1X41.1553Y-260.2088

G1X39.7127Y-259.2458

G1X38.3725Y-258.0896

G1X37.3030Y-256.8737

G1X36.4428Y-255.5485

G1X35.8226Y-254.1803

G1X35.3885Y-252.6189

G1X35.1958Y-251.0594

G1X27.1802Y-248.5391

G1X24.0928Y-247.7000

G1X21.1656Y-247.0141

G1X21.3077Y-249.8012

G1X21.7369Y-252.5230

G1X22.4205Y-254.9830

G1X23.4105Y-257.3758

G1X24.5859Y-259.4619

G1X26.0518Y-261.5184

G1X27.7385Y-263.4440

G1X29.7153Y-265.3130

G1X31.9132Y-267.0566

G1X34.3097Y-268.6705

G1X37.0285Y-270.2353

G1X39.8699Y-271.6379

G1X43.0247Y-272.9552

G1X46.2681Y-274.0606

G1X49.3530Y-274.8951

G1X52.2054Y-275.4254

G1X54.7343Y-275.6327

G1X56.9636Y-275.5355

G1X58.9813Y-275.1555

G1X60.8473Y-274.4636

G1X61.7612Y-273.9589

G1X62.6674Y-273.3104

G1X63.4791Y-272.5616

G1X64.1910Y-271.7149

G1X64.7488Y-270.8546

G1X65.2528Y-269.8268

G1X65.6463Y-268.7080

G1X65.9087Y-267.6048

G1X66.0866Y-266.3187

G1X66.1500Y-264.9490

G1X66.0996Y-263.6090

G1X65.9231Y-262.2006

G1X65.6236Y-260.8123

G1X65.2051Y-259.4456

G1X64.7089Y-258.2023

G1X64.1015Y-256.9794

G1X62.7949Y-254.9036

G1X61.1602Y-252.8577

G1X59.1653Y-250.8026

G1X56.7958Y-248.7184

G1X54.5724Y-246.9967

G1X52.0752Y-245.2562

G1X42.9608Y-239.5345

G1X41.4553Y-238.4399

G1X40.1854Y-237.3660

G1X39.0170Y-236.1177

G1X38.2725Y-234.9350

G1X37.9110Y-233.7259

G1X37.9193Y-232.5580

G1X38.1701Y-231.7772

G1X38.6419Y-231.1870

G1X39.2571Y-230.8466

G1X40.0723Y-230.6898

G1X41.0729Y-230.7183

G1X42.2192Y-230.9503

G1X43.5567Y-231.3909

G1X45.0010Y-232.0022

G1X46.3841Y-232.7204

G1X47.6763Y-233.5599

G1X48.7049Y-234.4064

G1X49.6167Y-235.3781

G1X50.4026Y-236.4980

G1X50.9915Y-237.6732

G1X51.3592Y-238.8074

G1X51.5711Y-240.0988

G1X58.7784Y-242.9259

G1X65.3971Y-245.3274

G1X65.2571Y-243.1834

G1X64.8671Y-241.0650

G1X64.2272Y-238.9667

G1X63.3374Y-236.8832

G1X62.3315Y-235.0312

G1X61.1268Y-233.1929

G1X59.7458Y-231.4005

G1X58.1945Y-229.6519

G1X56.4007Y-227.8719

G1X54.5569Y-226.2472

G1X52.6520Y-224.7748

G1X50.5362Y-223.3295

G1X48.2474Y-221.9516

G1X45.9256Y-220.7319

G1X43.5705Y-219.6764

G1X41.1462Y-218.7645

G1X38.9272Y-218.1012

G1X36.8080Y-217.6516

G1X34.8800Y-217.4304

G1X33.0466Y-217.4205

G1 Z0F20000

(Start Block)


G1X35.7023Y-278.0402
G1Z5F20000
(Plotting speed under)
G1 F4000


G1X33.8349Y-278.0930

G1X32.1394Y-278.3148

G1X30.4831Y-278.7171

G1X28.9679Y-279.2887

G1X27.5942Y-280.0276

G1X26.3626Y-280.9316

G1X25.2744Y-281.9979

G1X24.4159Y-283.1223

G1X23.6799Y-284.4529

G1X23.1277Y-285.9119

G1X22.7576Y-287.4926

G1X22.5679Y-289.1879

G1X22.5606Y-291.0561

G1X22.7434Y-292.8324

G1X23.1132Y-294.5167

G1X23.7069Y-296.1956

G1X24.7659Y-298.1778

G1X26.0910Y-299.8950

G1X27.7888Y-301.5015

G1X29.8969Y-303.0444

G1X32.4998Y-304.5428

G1X35.3126Y-305.7947

G1X36.9885Y-306.3777

G1X45.2131Y-308.8744

G1X47.1237Y-309.5692

G1X48.6331Y-310.2476

G1X49.9664Y-311.0735

G1X50.8036Y-311.9420

G1X51.0889Y-312.4785

G1X51.2204Y-312.9475

G1X51.2506Y-313.4328

G1X51.1523Y-314.0054

G1X50.7516Y-314.7994

G1X50.0773Y-315.4833

G1X49.1744Y-316.0180

G1X48.0204Y-316.4229

G1X46.7007Y-316.6703

G1X45.1582Y-316.7616

G1X43.3481Y-316.6885

G1X41.7911Y-316.4768

G1X40.2906Y-316.0957

G1X38.9634Y-315.5541

G1X37.8999Y-314.9155

G1X36.9318Y-314.0772

G1X36.1575Y-313.0906

G1X35.5943Y-311.9827

G1X35.2254Y-310.7413

G1X35.0506Y-309.3716

G1X27.8561Y-308.7831

G1X21.1517Y-308.3603

G1X21.2768Y-310.9545

G1X21.6300Y-313.3591

G1X22.2108Y-315.5717

G1X22.9791Y-317.5062

G1X23.9060Y-319.1850

G1X25.1168Y-320.8338

G1X26.4603Y-322.2552

G1X28.0551Y-323.5679

G1X29.7493Y-324.6477

G1X31.7123Y-325.6031

G1X33.9148Y-326.4013

G1X36.2006Y-327.0058

G1X38.9345Y-327.4846

G1X41.7451Y-327.7479

G1X44.8473Y-327.8152

G1X47.9268Y-327.6734

G1X50.6887Y-327.3429

G1X53.2470Y-326.8274

G1X55.6849Y-326.1029

G1X57.8843Y-325.2044

G1X59.1046Y-324.5776

G1X60.3144Y-323.8404

G1X61.4160Y-323.0421

G1X62.4091Y-322.1866

G1X63.2937Y-321.2776

G1X64.0648Y-320.3199

G1X64.7302Y-319.2898

G1X65.2245Y-318.3077

G1X65.6359Y-317.1978

G1X65.9120Y-316.0502

G1X66.0509Y-314.8678

G1X66.0542Y-313.7448

G1X65.9418Y-312.7361

G1X65.6923Y-311.6713

G1X65.3151Y-310.6512

G1X64.7905Y-309.6362

G1X63.6309Y-308.0783

G1X62.0939Y-306.5993

G1X60.1690Y-305.1676

G1X57.8260Y-303.7558

G1X55.4964Y-302.5578

G1X52.8083Y-301.3565

G1X43.3427Y-297.6880

G1X41.7804Y-296.9465

G1X40.3953Y-296.1420

G1X39.0934Y-295.1255

G1X38.3014Y-294.1396

G1X38.0458Y-293.5883

G1X37.9141Y-293.0797

G1X37.8681Y-292.4570

G1X37.9245Y-291.9119

G1X38.1607Y-291.2243

G1X38.5925Y-290.6565

G1X39.1909Y-290.2587

G1X39.9858Y-290.0062

G1X40.9473Y-289.9032

G1X42.0043Y-289.9575

G1X43.2335Y-290.1606

G1X44.6248Y-290.5104

G1X46.0628Y-290.9858

G1X47.4158Y-291.5753

G1X48.5664Y-292.2414

G1X49.5156Y-292.9806

G1X50.3552Y-293.8869

G1X50.9560Y-294.8156

G1X51.3565Y-295.8030

G1X51.5530Y-296.8509

G1X58.8914Y-298.4893

G1X65.3837Y-299.7577

G1X65.3089Y-298.5434

G1X65.0935Y-297.3333

G1X64.7375Y-296.1242

G1X64.2410Y-294.9129

G1X63.4369Y-293.4140

G1X62.4098Y-291.8857

G1X61.1891Y-290.3671

G1X59.8545Y-288.9449

G1X58.2723Y-287.4801

G1X56.5931Y-286.1153

G1X54.6817Y-284.7415

G1X52.7521Y-283.5218

G1X50.6918Y-282.3803

G1X48.4996Y-281.3253

G1X46.2742Y-280.4028

G1X43.9146Y-279.5706

G1X41.7320Y-278.9353

G1X39.6356Y-278.4661

G1X37.6257Y-278.1666

G1X35.7023Y-278.0402

G1 Z0F20000

(Start Block)


G1X35.3224Y-155.4114
G1Z5F20000
(Plotting speed under)
G1 F4000


G1X33.4853Y-155.4818

G1X31.8027Y-155.7191

G1X30.2506Y-156.1105

G1X28.8291Y-156.6533

G1X27.5377Y-157.3460

G1X26.3759Y-158.1869

G1X25.2788Y-159.2454

G1X24.4182Y-160.3558

G1X23.7210Y-161.5866

G1X23.1540Y-163.0305

G1X22.7861Y-164.5037

G1X22.5662Y-166.1990

G1X22.5219Y-167.9667

G1X22.6554Y-169.7891

G1X22.9486Y-171.4472

G1X23.4365Y-173.1387

G1X24.4171Y-175.3832

G1X25.8117Y-177.5950

G1X27.6616Y-179.7819

G1X29.9133Y-181.9265

G1X32.3358Y-183.8707

G1X35.4569Y-186.0732

G1X37.8081Y-187.6322

G1X43.2525Y-190.9564

G1X45.5787Y-192.4869

G1X47.4471Y-193.8798

G1X48.9240Y-195.1886

G1X50.0907Y-196.5275

G1X50.8582Y-197.8906

G1X51.0862Y-198.5686

G1X51.2075Y-199.2437

G1X51.2130Y-199.9671

G1X51.0978Y-200.5939

G1X50.7154Y-201.3830

G1X50.1229Y-201.9500

G1X49.3562Y-202.2851

G1X48.3937Y-202.4138

G1X47.2866Y-202.3357

G1X45.9782Y-202.0324

G1X44.4831Y-201.5050

G1X42.8698Y-200.7798

G1X41.1707Y-199.8201

G1X39.5800Y-198.6758

G1X38.2855Y-197.4872

G1X37.1791Y-196.1742

G1X36.2889Y-194.7567

G1X35.6447Y-193.2970

G1X35.1943Y-191.6448

G1X34.9917Y-189.9902

G1X27.1321Y-187.3103

G1X24.0660Y-186.3948

G1X21.1564Y-185.6369

G1X21.2682Y-188.1113

G1X21.6017Y-190.5636

G1X22.1567Y-192.8884

G1X22.9334Y-195.0904

G1X23.9785Y-197.2588

G1X25.3592Y-199.4677

G1X26.9736Y-201.5536

G1X28.8148Y-203.5279

G1X30.9565Y-205.4693

G1X33.3789Y-207.3545

G1X36.1275Y-209.2165

G1X39.0218Y-210.9365

G1X42.3448Y-212.6590

G1X45.7299Y-214.1609

G1X48.9762Y-215.3717

G1X51.8772Y-216.2019

G1X54.3688Y-216.6495

G1X56.6000Y-216.7608

G1X58.6543Y-216.5423

G1X60.4685Y-215.9946

G1X61.4908Y-215.4804

G1X62.4178Y-214.8369

G1X63.3146Y-213.9947

G1X64.0208Y-213.1082

G1X64.6546Y-212.0422

G1X65.1394Y-210.9348

G1X65.5484Y-209.6189

G1X65.8215Y-208.2851

G1X65.9994Y-206.7313

G1X66.0543Y-204.9576

G1X65.9735Y-203.2437

G1X65.7634Y-201.5514

G1X65.4285Y-199.8858

G1X64.9731Y-198.2564

G1X64.3916Y-196.6794

G1X63.7206Y-195.2230

G1X62.3735Y-192.9120

G1X60.6877Y-190.6499

G1X58.7013Y-188.4959

G1X56.3295Y-186.3487

G1X54.4701Y-184.8889

G1X52.3402Y-183.3938

G1X50.1037Y-181.9782

G1X43.0265Y-177.7833

G1X41.1876Y-176.5071

G1X39.7789Y-175.3299

G1X38.7493Y-174.2222

G1X38.0450Y-173.1177

G1X37.6657Y-171.9552

G1X37.6179Y-170.8188

G1X37.8286Y-169.8912

G1X38.2323Y-169.2252

G1X38.8022Y-168.7688

G1X39.6732Y-168.4660

G1X40.7100Y-168.3773

G1X41.8745Y-168.4967

G1X43.2439Y-168.8213

G1X44.8287Y-169.3588

G1X46.3156Y-170.0298

G1X47.5215Y-170.7484

G1X48.5511Y-171.5575

G1X49.4132Y-172.4695

G1X50.1530Y-173.5380

G1X50.7161Y-174.6882

G1X51.1027Y-175.9212

G1X51.3396Y-177.3610

G1X59.3791Y-179.9699

G1X65.2840Y-181.6506

G1X65.1658Y-179.3867

G1X64.8437Y-177.1978

G1X64.3173Y-175.0829

G1X63.5861Y-173.0410

G1X62.7431Y-171.2471

G1X61.7581Y-169.5524

G1X60.6361Y-167.9471

G1X59.3758Y-166.4238

G1X57.9776Y-164.9781

G1X56.3614Y-163.5390

G1X54.6733Y-162.2340

G1X52.8354Y-161.0027

G1X50.7934Y-159.8271

G1X48.6257Y-158.7623

G1X46.3333Y-157.8076

G1X43.9123Y-156.9607

G1X41.5847Y-156.2946

G1X39.3623Y-155.8124

G1X37.2452Y-155.5168

G1X35.3224Y-155.4114

G1 Z0F20000

(Start Block)


G1X44.1612Y-88.7068
G1Z5F20000
(Plotting speed under)
G1 F4000


G1X41.6771Y-88.7943

G1X39.3080Y-89.0560

G1X37.0545Y-89.4913

G1X34.8269Y-90.1295

G1X32.7967Y-90.9231

G1X30.8006Y-91.9354

G1X29.0838Y-93.0437

G1X27.5461Y-94.2917

G1X26.1872Y-95.6785

G1X25.0009Y-97.2125

G1X24.1012Y-98.7315

G1X23.3700Y-100.4336

G1X22.8607Y-102.2383

G1X22.5705Y-104.1465

G1X22.4992Y-106.2698

G1X22.6567Y-108.2628

G1X22.9372Y-109.7509

G1X23.3551Y-111.1660

G1X23.9099Y-112.5105

G1X24.6521Y-113.8695

G1X25.4885Y-115.0754

G1X26.4606Y-116.2178

G1X27.6346Y-117.3754

G1X29.0041Y-118.5451

G1X31.3368Y-120.2334

G1X33.8213Y-121.7226

G1X36.1702Y-122.8883

G1X42.4763Y-125.5577

G1X45.0881Y-126.7674

G1X47.4762Y-128.1413

G1X48.4108Y-128.8185

G1X49.2213Y-129.5278

G1X49.8708Y-130.2438

G1X50.3262Y-130.9086

G1X50.7196Y-131.7276

G1X50.9490Y-132.4894

G1X51.0637Y-133.3739

G1X51.0239Y-134.2345

G1X50.8655Y-134.9468

G1X50.5498Y-135.6758

G1X49.8955Y-136.5109

G1X49.0827Y-137.0643

G1X48.0630Y-137.4140

G1X46.7923Y-137.5478

G1X45.2905Y-137.4265

G1X43.5073Y-137.0344

G1X41.8150Y-136.4556

G1X40.2896Y-135.7158

G1X39.0747Y-134.9264

G1X38.0489Y-134.0704

G1X37.1001Y-133.0416

G1X36.3640Y-131.9853

G1X35.7783Y-130.8592

G1X35.3120Y-129.5727

G1X35.0047Y-128.1835

G1X34.8558Y-126.6896

G1X27.6668Y-125.3159

G1X21.1383Y-124.2137

G1X21.2589Y-126.8119

G1X21.5994Y-129.2632

G1X22.1883Y-131.6681

G1X23.0167Y-133.9296

G1X24.0874Y-136.0601

G1X25.4106Y-138.1091

G1X27.0097Y-140.1048

G1X28.8301Y-141.9657

G1X30.8658Y-143.6950

G1X33.1669Y-145.3294

G1X35.9351Y-146.9620

G1X38.9721Y-148.4481

G1X42.0682Y-149.6885

G1X45.1236Y-150.6505

G1X48.2754Y-151.4008

G1X51.2069Y-151.8292

G1X53.8187Y-151.9126

G1X56.1198Y-151.6648

G1X57.7569Y-151.2496

G1X59.1633Y-150.6878

G1X60.4451Y-149.9578

G1X61.6022Y-149.0587

G1X62.6342Y-147.9893

G1X63.5886Y-146.6715

G1X64.3681Y-145.2079

G1X64.9673Y-143.6574

G1X65.4721Y-141.7522

G1X65.7925Y-139.7688

G1X65.9600Y-137.5035

G1X65.9502Y-135.1795

G1X65.7686Y-132.9388

G1X65.4038Y-130.6715

G1X64.8875Y-128.5696

G1X64.2319Y-126.6625

G1X63.1270Y-124.3204

G1X61.6890Y-122.0720

G1X60.0404Y-120.1215

G1X58.0985Y-118.3333

G1X55.6060Y-116.5481

G1X52.6731Y-114.9564

G1X49.9505Y-113.8116

G1X43.0101Y-111.3307

G1X41.4381Y-110.6220

G1X40.1535Y-109.8860

G1X38.8556Y-108.8406

G1X38.0653Y-107.7638

G1X37.8321Y-107.2112

G1X37.6709Y-106.5104

G1X37.6282Y-105.7670

G1X37.6965Y-105.0157

G1X37.9911Y-104.0316

G1X38.5099Y-103.1974

G1X39.2103Y-102.5625

G1X40.1322Y-102.0565

G1X41.1951Y-101.7113

G1X42.4398Y-101.5245

G1X44.0080Y-101.4946

G1X45.5365Y-101.6315

G1X46.8823Y-101.9327

G1X47.9590Y-102.3595

G1X48.8761Y-102.9315

G1X49.6520Y-103.6687

G1X50.3070Y-104.5814

G1X50.8045Y-105.6306

G1X51.1451Y-106.8166

G1X51.3380Y-108.2560

G1X65.2705Y-109.0948

G1X65.1526Y-106.4367

G1X64.7971Y-103.8517

G1X64.3944Y-102.1070

G1X63.8689Y-100.4599

G1X63.2207Y-98.9108

G1X62.4165Y-97.4032

G1X61.5137Y-96.0449

G1X60.5025Y-94.8074

G1X59.3829Y-93.6870

G1X58.0749Y-92.6209

G1X56.7323Y-91.7305

G1X55.2105Y-90.9118

G1X53.6781Y-90.2565

G1X51.9671Y-89.6927

G1X50.1600Y-89.2580

G1X48.2567Y-88.9503

G1X46.2572Y-88.7673

G1X44.1612Y-88.7068

G1 Z0F20000

(Start Block)


G1X71.5735Y-89.4913
G1Z5F20000
(Plotting speed under)
G1 F4000


G1X71.5373Y-156.7911

G1X76.5946Y-157.3714

G1X81.4352Y-157.6118

G1X86.1156Y-157.5172

G1X90.7869Y-157.0797

G1X95.5044Y-156.2835

G1X100.2359Y-155.1392

G1X105.1426Y-153.6188

G1X110.4001Y-151.6669

G1X110.3319Y-138.2894

G1X103.7696Y-140.2944

G1X97.7027Y-141.8210

G1X91.8425Y-142.9426

G1X86.1209Y-143.6767

G1X86.1209Y-131.2247

G1X91.5193Y-130.8690

G1X96.9907Y-130.1907

G1X102.6173Y-129.1824

G1X108.3775Y-127.8461

G1X108.3139Y-113.5979

G1X102.5390Y-114.2864

G1X96.9428Y-114.7615

G1X91.4341Y-115.0294

G1X86.1209Y-115.0851

G1X86.1209Y-102.9913

G1X91.7371Y-103.0432

G1X97.6433Y-102.9860

G1X103.7473Y-102.8194

G1X110.2595Y-102.5375

G1X110.1867Y-89.5094

G1X71.5735Y-89.4913

G1 Z0F20000


G00 X0.0000 Y0.0000


