$H
G21
G17
G90
G1 Z0F20000
G1 F15000
(Start Layer)
(Start Block)

G1X104.9073Y-26.4583
G1 Z3.0F20000
G1 F8000

G1X104.9073Y-270.4043
G1 Z0F20000
(Start Block)

G1X124.0599Y-256.3518
G1 Z3.0F20000
G1 F8000

G1X125.4803Y-255.4898
G1X128.0724Y-253.7260
G1X129.3452Y-253.0711
G1X130.2035Y-252.8040
G1X131.1289Y-252.6547
G1X132.2423Y-252.6166
G1X133.4124Y-252.7024
G1X134.6828Y-252.9230
G1X135.8959Y-253.2655
G1X137.1230Y-253.7568
G1X138.2239Y-254.3325
G1X139.9193Y-255.5104
G1X142.6127Y-258.0229
G1X143.6068Y-258.6851
G1X144.8473Y-259.0420
G1X146.5435Y-259.0979
G1X147.8663Y-258.9664
G1X149.2957Y-258.6944
G1X150.6334Y-258.3169
G1X151.8974Y-257.8402
G1X154.1114Y-256.6769
G1X156.9871Y-254.6060
G1X158.0643Y-253.9368
G1X159.3339Y-253.3878
G1X160.8189Y-253.0404
G1X162.6511Y-252.8935
G1X164.8734Y-252.9509
G1X167.2581Y-253.1815
G1X172.1584Y-253.8371
G1X174.2853Y-253.9519
G1X176.1476Y-253.7496
G1X179.4421Y-252.5934
G1X180.5097Y-252.3527
G1X181.7830Y-252.1937
G1X183.5251Y-252.1324
G1X185.4740Y-252.2041
G1X187.5022Y-252.4068
G1X189.4650Y-252.7288
G1 Z0F20000
(Start Block)

G1X124.0978Y-252.4818
G1 Z3.0F20000
G1 F8000

G1X127.2530Y-250.1928
G1X128.6416Y-249.4699
G1X129.6081Y-249.2021
G1X130.6148Y-249.0783
G1X131.8295Y-249.0708
G1X133.1589Y-249.1933
G1X134.4963Y-249.4404
G1X135.7291Y-249.7894
G1X136.9615Y-250.2782
G1X138.0689Y-250.8515
G1X139.7606Y-252.0120
G1X142.4167Y-254.4528
G1X143.4271Y-255.1438
G1X144.0240Y-255.3790
G1X144.6876Y-255.5265
G1X146.2289Y-255.5958
G1X147.5863Y-255.4705
G1X148.9492Y-255.2147
G1X150.2734Y-254.8441
G1X151.5072Y-254.3800
G1X152.7053Y-253.8055
G1X153.9104Y-253.0883
G1X156.6584Y-251.0153
G1X157.4795Y-250.4860
G1X158.6623Y-249.9815
G1X159.9784Y-249.7013
G1X161.8637Y-249.6037
G1X164.0808Y-249.7409
G1X166.5093Y-250.0769
G1X171.5162Y-250.9709
G1X173.8442Y-251.1607
G1X175.0950Y-251.0853
G1X176.1765Y-250.8661
G1X176.9783Y-250.5730
G1X178.5285Y-249.7840
G1X179.5367Y-249.3622
G1X180.6919Y-249.0432
G1X181.8674Y-248.8765
G1X183.6834Y-248.8215
G1X185.8424Y-248.9606
G1X187.8678Y-249.2586
G1X189.8729Y-249.7198
G1 Z0F20000
(Start Block)

G1X124.0882Y-249.7253
G1 Z3.0F20000
G1 F8000

G1X126.7484Y-247.9083
G1X127.5377Y-247.5063
G1X128.3891Y-247.2039
G1X129.3697Y-247.0058
G1X130.5523Y-246.9242
G1X131.8682Y-246.9761
G1X133.1608Y-247.1438
G1X134.5287Y-247.4434
G1X135.7265Y-247.8186
G1X136.8336Y-248.2861
G1X137.8110Y-248.8150
G1X139.4741Y-250.0050
G1X141.9793Y-252.4053
G1X142.8481Y-253.0152
G1X143.4164Y-253.2502
G1X144.0532Y-253.4004
G1X145.6768Y-253.4853
G1X147.0821Y-253.3706
G1X148.6053Y-253.1040
G1X149.9646Y-252.7409
G1X151.3290Y-252.2426
G1X152.6200Y-251.6292
G1X153.8068Y-250.9261
G1X157.3264Y-248.3578
G1X158.3646Y-247.9073
G1X159.5807Y-247.6437
G1X161.4972Y-247.5722
G1X163.7290Y-247.7826
G1X166.0564Y-248.2065
G1X171.1999Y-249.3887
G1X172.5171Y-249.5856
G1X173.7653Y-249.6570
G1X175.1446Y-249.5579
G1X176.3728Y-249.2639
G1X177.2151Y-248.9099
G1X178.9694Y-247.8922
G1X179.9806Y-247.3965
G1X181.0341Y-247.0394
G1X182.1998Y-246.8242
G1X184.0006Y-246.7449
G1X186.0450Y-246.8913
G1X188.1571Y-247.2510
G1X190.1331Y-247.7814
G1 Z0F20000
(Start Block)

G1X124.0562Y-248.2937
G1 Z3.0F20000
G1 F8000

G1X126.4358Y-246.7808
G1X127.2859Y-246.3942
G1X128.1714Y-246.1220
G1X129.2309Y-245.9474
G1X130.4532Y-245.8978
G1X131.8333Y-245.9851
G1X133.1653Y-246.1900
G1X134.4508Y-246.4989
G1X135.7191Y-246.9213
G1X136.7885Y-247.3940
G1X137.7277Y-247.9251
G1X139.2305Y-249.0386
G1X141.6066Y-251.3895
G1X142.4767Y-252.0178
G1X143.5899Y-252.3786
G1X145.2550Y-252.4764
G1X146.7929Y-252.3633
G1X148.3526Y-252.1075
G1X149.8796Y-251.7148
G1X151.2426Y-251.2276
G1X152.5631Y-250.6129
G1X153.7861Y-249.9002
G1X157.2804Y-247.3767
G1X158.3375Y-246.9155
G1X159.4659Y-246.6700
G1X161.3261Y-246.6050
G1X163.5591Y-246.8448
G1X165.8759Y-247.3181
G1X171.0459Y-248.6453
G1X172.4432Y-248.8737
G1X173.6672Y-248.9486
G1X175.1231Y-248.8391
G1X176.4929Y-248.4877
G1X177.4217Y-248.0659
G1X180.2619Y-246.4302
G1X181.3244Y-246.0430
G1X182.4740Y-245.8114
G1X184.1553Y-245.7207
G1X186.1780Y-245.8622
G1X188.2683Y-246.2306
G1X190.2214Y-246.7759
G1 Z0F20000
(Start Block)

G1X123.9972Y-246.8320
G1 Z3.0F20000
G1 F8000

G1X126.1599Y-245.5997
G1X127.1344Y-245.2312
G1X128.0447Y-245.0150
G1X129.2012Y-244.8878
G1X130.3922Y-244.8875
G1X131.6924Y-245.0054
G1X133.0724Y-245.2499
G1X134.3447Y-245.5849
G1X135.5234Y-245.9987
G1X136.5548Y-246.4579
G1X137.5478Y-247.0276
G1X139.0195Y-248.1579
G1X141.1991Y-250.4052
G1X141.9771Y-250.9967
G1X143.0794Y-251.3698
G1X144.7777Y-251.4758
G1X146.4480Y-251.3703
G1X148.0463Y-251.1333
G1X149.6178Y-250.7607
G1X151.1177Y-250.2539
G1X152.4761Y-249.6451
G1X153.7365Y-248.9341
G1X157.3426Y-246.3979
G1X158.3263Y-245.9738
G1X159.4714Y-245.7253
G1X161.2621Y-245.6742
G1X163.3825Y-245.9262
G1X165.6775Y-246.4374
G1X170.8526Y-247.8911
G1X172.3737Y-248.1546
G1X173.6399Y-248.2260
G1X175.1086Y-248.0988
G1X176.5131Y-247.7233
G1X177.5717Y-247.2259
G1X180.5251Y-245.4596
G1X181.5955Y-245.0412
G1X182.7256Y-244.7912
G1X184.3489Y-244.6845
G1X186.2761Y-244.8092
G1X188.3398Y-245.1710
G1X190.2709Y-245.7144
G1 Z0F20000
(Start Block)

G1X123.9049Y-245.3477
G1 Z3.0F20000
G1 F8000

G1X125.9388Y-244.3592
G1X126.9332Y-244.0639
G1X127.9504Y-243.8931
G1X129.0520Y-243.8295
G1X130.3198Y-243.8782
G1X131.6362Y-244.0434
G1X132.9663Y-244.3201
G1X135.3772Y-245.1203
G1X136.3953Y-245.5905
G1X137.3656Y-246.1604
G1X138.7300Y-247.2391
G1X140.7703Y-249.4281
G1X141.5523Y-250.0320
G1X142.6388Y-250.3729
G1X144.3602Y-250.4648
G1X146.0444Y-250.3756
G1X147.7998Y-250.1462
G1X149.4107Y-249.7956
G1X150.9535Y-249.3089
G1X152.3558Y-248.7151
G1X153.6617Y-248.0132
G1X157.4120Y-245.4711
G1X158.4237Y-245.0481
G1X159.4822Y-244.8221
G1X161.1952Y-244.7726
G1X163.3009Y-245.0392
G1X165.5643Y-245.5797
G1X170.6271Y-247.0945
G1X172.0909Y-247.3661
G1X173.4633Y-247.4526
G1X175.0629Y-247.3073
G1X176.6038Y-246.8732
G1X177.6956Y-246.3395
G1X180.8613Y-244.4034
G1X181.8294Y-244.0079
G1X182.9356Y-243.7392
G1X184.5445Y-243.6120
G1X186.3514Y-243.7132
G1X188.3591Y-244.0488
G1X190.2731Y-244.5717
G1 Z0F20000
(Start Block)

G1X124.0999Y-251.1221
G1 Z3.0F20000
G1 F8000

G1X126.9842Y-249.0615
G1X127.7855Y-248.6151
G1X128.5046Y-248.3256
G1X129.5027Y-248.0847
G1X130.5617Y-247.9815
G1X131.8235Y-247.9987
G1X133.1862Y-248.1476
G1X134.5378Y-248.4199
G1X135.7577Y-248.7835
G1X136.8847Y-249.2435
G1X137.9708Y-249.8162
G1X139.6126Y-250.9608
G1X142.2223Y-253.3959
G1X143.2133Y-254.0760
G1X143.8022Y-254.3065
G1X144.4597Y-254.4510
G1X146.0368Y-254.5192
G1X147.4166Y-254.3932
G1X148.8037Y-254.1366
G1X150.1418Y-253.7672
G1X151.4718Y-253.2682
G1X152.6992Y-252.6746
G1X153.8209Y-252.0054
G1X156.5637Y-249.9341
G1X157.3913Y-249.3950
G1X158.5103Y-248.9181
G1X159.7153Y-248.6599
G1X161.5787Y-248.5694
G1X163.8999Y-248.7463
G1X166.2268Y-249.1163
G1X171.3178Y-250.1504
G1X172.6500Y-250.3269
G1X173.8201Y-250.3849
G1X175.0772Y-250.3046
G1X176.2839Y-250.0404
G1X177.1019Y-249.7163
G1X178.7857Y-248.7955
G1X179.8007Y-248.3414
G1X180.8529Y-248.0249
G1X182.0245Y-247.8375
G1X183.8370Y-247.7744
G1X185.8933Y-247.9155
G1X188.0189Y-248.2542
G1X190.0136Y-248.7552
G1 Z0F20000
(Start Block)

G1X124.0878Y-253.8048
G1 Z3.0F20000
G1 F8000

G1X127.5441Y-251.3233
G1X128.9083Y-250.6051
G1X129.7569Y-250.3568
G1X130.8293Y-250.2116
G1X132.0043Y-250.1991
G1X133.1999Y-250.3013
G1X134.5204Y-250.5339
G1X135.7484Y-250.8736
G1X136.9922Y-251.3585
G1X138.1112Y-251.9289
G1X139.8324Y-253.0953
G1X142.6084Y-255.6264
G1X143.5802Y-256.2746
G1X144.1821Y-256.5076
G1X144.8508Y-256.6531
G1X146.4635Y-256.7140
G1X147.8026Y-256.5797
G1X149.1443Y-256.3192
G1X150.4651Y-255.9406
G1X151.6935Y-255.4699
G1X152.8825Y-254.8913
G1X153.9881Y-254.2316
G1X156.6773Y-252.2193
G1X157.5923Y-251.6268
G1X158.7854Y-251.1051
G1X160.1634Y-250.7925
G1X162.0212Y-250.6686
G1X164.2800Y-250.7701
G1X166.6929Y-251.0578
G1X171.6048Y-251.8368
G1X173.9733Y-252.0051
G1X175.1048Y-251.9373
G1X176.1737Y-251.7324
G1X179.4118Y-250.3934
G1X180.5707Y-250.1015
G1X181.7474Y-249.9478
G1X183.5583Y-249.8940
G1X185.7048Y-250.0143
G1X187.7198Y-250.2789
G1X189.7237Y-250.6942
G1 Z0F20000
(Start Block)

G1X124.0742Y-255.0934
G1 Z3.0F20000
G1 F8000

G1X127.8163Y-252.4980
G1X129.1081Y-251.8157
G1X129.9548Y-251.5553
G1X130.9995Y-251.4006
G1X132.1464Y-251.3788
G1X133.3180Y-251.4738
G1X134.6071Y-251.6994
G1X135.8355Y-252.0421
G1X137.0777Y-252.5316
G1X138.1930Y-253.1058
G1X139.9133Y-254.2829
G1X142.6132Y-256.7651
G1X143.6723Y-257.4711
G1X144.9301Y-257.8299
G1X146.5326Y-257.8844
G1X147.8602Y-257.7517
G1X149.1918Y-257.4968
G1X150.5153Y-257.1230
G1X151.7479Y-256.6576
G1X152.9423Y-256.0848
G1X154.0553Y-255.4306
G1X156.8998Y-253.3385
G1X157.8189Y-252.7625
G1X159.0483Y-252.2302
G1X160.4784Y-251.9019
G1X162.3217Y-251.7655
G1X164.6132Y-251.8450
G1X167.0125Y-252.1010
G1X171.9179Y-252.8022
G1X174.1136Y-252.9325
G1X175.1289Y-252.8738
G1X176.0893Y-252.7089
G1X179.3415Y-251.4790
G1X180.5058Y-251.2035
G1X181.6813Y-251.0553
G1X183.4787Y-250.9964
G1X185.4997Y-251.0874
G1X187.5922Y-251.3258
G1X189.5818Y-251.6933
G1 Z0F20000
(Start Block)

G1X123.7753Y-243.8507
G1 Z3.0F20000
G1 F8000

G1X124.8183Y-243.3875
G1X125.7738Y-243.0716
G1X126.7724Y-242.8609
G1X127.8412Y-242.7543
G1X129.0478Y-242.7528
G1X130.2215Y-242.8503
G1X131.4934Y-243.0532
G1X132.8294Y-243.3724
G1X135.2049Y-244.2282
G1X136.3832Y-244.8067
G1X137.2139Y-245.3163
G1X138.5026Y-246.3737
G1X140.3592Y-248.4508
G1X141.0303Y-248.9968
G1X141.5045Y-249.2049
G1X142.0608Y-249.3334
G1X143.9030Y-249.4304
G1X145.8314Y-249.3448
G1X147.6198Y-249.1371
G1X149.3780Y-248.7826
G1X150.9339Y-248.3150
G1X152.3382Y-247.7467
G1X153.6496Y-247.0737
G1X157.4783Y-244.5903
G1X158.4154Y-244.1976
G1X159.4878Y-243.9555
G1X161.1173Y-243.8935
G1X163.0929Y-244.1334
G1X165.3193Y-244.6683
G1X170.4650Y-246.2426
G1X172.0220Y-246.5221
G1X173.4760Y-246.5892
G1X175.1120Y-246.4062
G1X176.6844Y-245.9331
G1X177.8022Y-245.3682
G1X180.9752Y-243.3679
G1X182.0092Y-242.9129
G1X182.9866Y-242.6466
G1X184.5592Y-242.4794
G1X186.3297Y-242.5447
G1X188.3101Y-242.8413
G1X190.2145Y-243.3247
G1 Z0F20000
(Start Block)

G1X123.6070Y-242.3529
G1 Z3.0F20000
G1 F8000

G1X125.5478Y-241.7765
G1X126.5892Y-241.6332
G1X127.7080Y-241.5877
G1X130.0852Y-241.7819
G1X132.5475Y-242.3417
G1X134.9023Y-243.2353
G1X137.0411Y-244.4177
G1X138.2424Y-245.4203
G1X140.0067Y-247.4641
G1X140.6288Y-247.9769
G1X141.6062Y-248.2784
G1X143.5706Y-248.3625
G1X145.7168Y-248.2840
G1X147.5290Y-248.0983
G1X149.2216Y-247.7907
G1X150.8061Y-247.3550
G1X152.2505Y-246.8118
G1X153.6137Y-246.1551
G1X157.6087Y-243.7074
G1X158.6059Y-243.3144
G1X159.5892Y-243.1004
G1X161.2229Y-243.0350
G1X163.0742Y-243.2546
G1X165.1578Y-243.7442
G1X170.3082Y-245.2839
G1X171.8562Y-245.5475
G1X173.4270Y-245.6018
G1X175.1826Y-245.3740
G1X176.7740Y-244.8629
G1X177.8651Y-244.2943
G1X181.0818Y-242.2059
G1X182.0086Y-241.7656
G1X182.9972Y-241.4621
G1X184.4864Y-241.2647
G1X186.2152Y-241.2875
G1X188.1684Y-241.5307
G1X190.0703Y-241.9557
G1 Z0F20000
(Start Block)

G1X123.4027Y-240.8670
G1 Z3.0F20000
G1 F8000

G1X125.3987Y-240.4491
G1X127.4888Y-240.3811
G1X129.9421Y-240.6591
G1X132.3183Y-241.2544
G1X134.6667Y-242.1869
G1X136.9436Y-243.4766
G1X138.0886Y-244.4529
G1X139.7898Y-246.4886
G1X140.3746Y-246.9509
G1X141.3264Y-247.2014
G1X143.3970Y-247.2612
G1X145.6265Y-247.1983
G1X147.5533Y-247.0266
G1X149.2594Y-246.7394
G1X150.8648Y-246.3236
G1X152.3354Y-245.7969
G1X153.6546Y-245.1928
G1X157.7394Y-242.8401
G1X158.6713Y-242.4828
G1X159.6695Y-242.2564
G1X161.2696Y-242.1673
G1X163.0297Y-242.3427
G1X165.0799Y-242.7824
G1X170.2905Y-244.2075
G1X171.8468Y-244.4305
G1X173.4284Y-244.4510
G1X175.1913Y-244.1945
G1X176.8850Y-243.6188
G1X177.9501Y-243.0369
G1X181.2057Y-240.8522
G1X182.1175Y-240.4167
G1X182.9703Y-240.1514
G1X184.2929Y-239.9519
G1X185.9723Y-239.9320
G1X187.8954Y-240.1112
G1X189.7985Y-240.4593
G1 Z0F20000
(Start Block)

G1X123.1799Y-239.4184
G1 Z3.0F20000
G1 F8000

G1X125.2378Y-239.1286
G1X127.4112Y-239.1518
G1X129.7344Y-239.4688
G1X132.0367Y-240.0684
G1X134.4985Y-241.0634
G1X136.8849Y-242.4315
G1X137.9713Y-243.3598
G1X139.6037Y-245.3507
G1X140.2343Y-245.8621
G1X140.6864Y-246.0151
G1X141.2819Y-246.0947
G1X143.6460Y-246.1299
G1X145.7499Y-246.0734
G1X147.6768Y-245.9111
G1X149.3743Y-245.6350
G1X150.9945Y-245.2265
G1X152.3794Y-244.7465
G1X153.7329Y-244.1498
G1X157.7512Y-241.9365
G1X158.7199Y-241.5685
G1X159.7139Y-241.3365
G1X161.1991Y-241.2247
G1X162.9601Y-241.3588
G1X164.8887Y-241.7262
G1X170.2854Y-243.0802
G1X171.9636Y-243.2810
G1X173.5406Y-243.2645
G1X175.3093Y-242.9722
G1X176.9814Y-242.3729
G1X178.3733Y-241.5553
G1X181.2294Y-239.5437
G1X181.9996Y-239.1434
G1X182.8047Y-238.8578
G1X184.0353Y-238.6295
G1X185.6595Y-238.5599
G1X187.4966Y-238.6621
G1X189.4071Y-238.9185
G1 Z0F20000
(Start Block)

G1X123.9890Y-227.3059
G1 Z3.0F20000
G1 F8000

G1X127.5208Y-226.4830
G1X129.5517Y-226.1641
G1X131.7323Y-226.1034
G1X133.7575Y-226.3491
G1X135.5821Y-226.8592
G1X137.1612Y-227.5873
G1X138.6819Y-228.5557
G1X141.1330Y-230.4295
G1X142.1093Y-230.9870
G1X143.5082Y-231.3895
G1X145.1895Y-231.4773
G1X147.6187Y-231.2043
G1X150.0311Y-230.5665
G1X151.3258Y-230.0621
G1X152.6572Y-229.4108
G1X156.1557Y-227.1915
G1X157.1442Y-226.6897
G1X157.8511Y-226.4573
G1X158.6949Y-226.2961
G1X160.5079Y-226.2535
G1X162.7550Y-226.5792
G1X165.0543Y-227.2306
G1X167.1782Y-228.0779
G1X170.8192Y-229.8043
G1X172.1928Y-230.3139
G1X173.7265Y-230.6334
G1X175.2298Y-230.6830
G1X176.2847Y-230.5762
G1X177.3878Y-230.3427
G1X178.3684Y-230.0204
G1X179.4011Y-229.5632
G1X180.5666Y-228.8945
G1X181.7669Y-228.0118
G1X182.7154Y-227.1537
G1X184.3968Y-225.4212
G1X185.0757Y-224.8939
G1X185.5607Y-224.6521
G1X186.2129Y-224.4611
G1X187.8484Y-224.2998
G1 Z0F20000
(Start Block)

G1X124.0995Y-226.0529
G1 Z3.0F20000
G1 F8000

G1X128.4434Y-224.7808
G1X130.0485Y-224.4066
G1X131.9306Y-224.2089
G1X133.7874Y-224.3273
G1X135.4651Y-224.7347
G1X137.0059Y-225.4190
G1X138.5004Y-226.3556
G1X140.9513Y-228.2042
G1X142.0168Y-228.7956
G1X142.7396Y-229.0391
G1X143.5157Y-229.1865
G1X145.4144Y-229.2413
G1X146.7914Y-229.1115
G1X148.1477Y-228.8744
G1X149.5446Y-228.5177
G1X150.8537Y-228.0717
G1X152.8801Y-227.1478
G1X156.2740Y-225.1175
G1X157.5505Y-224.5481
G1X159.0314Y-224.2113
G1X160.8002Y-224.1393
G1X162.8874Y-224.3623
G1X165.2575Y-224.9079
G1X167.3644Y-225.5997
G1X171.0937Y-227.0378
G1X172.6688Y-227.5199
G1X174.1723Y-227.7828
G1X175.6776Y-227.8169
G1X176.7259Y-227.7013
G1X177.7556Y-227.4700
G1X178.7419Y-227.1250
G1X179.8111Y-226.6187
G1X181.5723Y-225.4834
G1X184.2525Y-223.2764
G1X185.2341Y-222.7192
G1X186.6084Y-222.3621
G1X188.5064Y-222.2640
G1 Z0F20000
(Start Block)

G1X124.0668Y-225.3450
G1 Z3.0F20000
G1 F8000

G1X128.7525Y-223.9331
G1X130.2708Y-223.5517
G1X132.0433Y-223.3253
G1X133.7744Y-223.3969
G1X135.4314Y-223.7741
G1X136.8459Y-224.3898
G1X138.3617Y-225.3397
G1X140.8372Y-227.2252
G1X141.8761Y-227.7913
G1X142.5877Y-228.0222
G1X143.4557Y-228.1733
G1X145.5705Y-228.1987
G1X148.0871Y-227.8604
G1X150.5224Y-227.1982
G1X152.9877Y-226.1481
G1X156.1372Y-224.3522
G1X157.1133Y-223.8767
G1X158.4897Y-223.4372
G1X160.0245Y-223.2139
G1X162.2060Y-223.2482
G1X164.7271Y-223.6401
G1X167.1455Y-224.2705
G1X171.4955Y-225.6638
G1X173.2393Y-226.0774
G1X175.0300Y-226.2576
G1X176.7937Y-226.1357
G1X178.3707Y-225.7341
G1X179.9453Y-225.0162
G1X181.3224Y-224.1494
G1X183.7269Y-222.3406
G1X184.8334Y-221.7314
G1X185.6259Y-221.4754
G1X186.5107Y-221.3223
G1X188.7920Y-221.2726
G1 Z0F20000
(Start Block)

G1X124.0110Y-224.5269
G1 Z3.0F20000
G1 F8000

G1X130.4698Y-222.7002
G1X132.2604Y-222.4721
G1X133.8682Y-222.5383
G1X135.4425Y-222.8962
G1X136.7770Y-223.4832
G1X138.2284Y-224.4127
G1X140.5713Y-226.2461
G1X141.6584Y-226.8401
G1X142.4563Y-227.0778
G1X143.3038Y-227.2034
G1X145.5255Y-227.2105
G1X148.2354Y-226.8539
G1X150.8295Y-226.1601
G1X153.1422Y-225.2095
G1X157.0284Y-223.1859
G1X158.2755Y-222.7468
G1X159.5874Y-222.4572
G1X161.6220Y-222.3057
G1X164.0244Y-222.4677
G1X166.6177Y-222.9259
G1X172.6813Y-224.3717
G1X174.3775Y-224.5783
G1X176.0176Y-224.5689
G1X177.6559Y-224.3020
G1X179.1924Y-223.7481
G1X180.6218Y-222.9686
G1X183.3864Y-221.1131
G1X184.6451Y-220.5418
G1X185.4928Y-220.3332
G1X186.5024Y-220.2148
G1X189.0069Y-220.2633
G1 Z0F20000
(Start Block)

G1X123.9278Y-222.5604
G1 Z3.0F20000
G1 F8000

G1X130.5779Y-221.1228
G1X132.1864Y-220.9655
G1X133.7144Y-221.0277
G1X135.2182Y-221.3524
G1X136.4765Y-221.8962
G1X137.7630Y-222.7514
G1X139.7857Y-224.4223
G1X140.7801Y-224.9641
G1X141.5758Y-225.1731
G1X142.5769Y-225.2829
G1X145.6615Y-225.2419
G1X148.4237Y-224.9191
G1X150.9077Y-224.3530
G1X153.1308Y-223.5873
G1X157.5416Y-221.6905
G1X159.3330Y-221.1385
G1X161.0017Y-220.7889
G1X162.9346Y-220.5791
G1X165.0124Y-220.5454
G1X167.2188Y-220.6633
G1X172.6184Y-221.1421
G1X174.2417Y-221.1796
G1X175.6273Y-221.1068
G1X177.1113Y-220.8778
G1X178.3264Y-220.5256
G1X179.5582Y-219.9725
G1X182.0854Y-218.5971
G1X183.5946Y-218.0750
G1X184.7317Y-217.9002
G1X186.0362Y-217.8473
G1X187.6279Y-217.9195
G1X189.1964Y-218.1076
G1 Z0F20000
(Start Block)

G1X123.8478Y-221.6544
G1 Z3.0F20000
G1 F8000

G1X130.5396Y-220.5629
G1X132.2015Y-220.4497
G1X133.5869Y-220.5216
G1X134.9480Y-220.7977
G1X136.1282Y-221.2693
G1X137.2597Y-221.9852
G1X139.1729Y-223.4992
G1X140.2229Y-224.0105
G1X141.1293Y-224.1882
G1X142.2708Y-224.2618
G1X145.9540Y-224.1740
G1X148.6176Y-223.8641
G1X151.0571Y-223.3253
G1X153.2271Y-222.6089
G1X157.8172Y-220.7599
G1X159.8357Y-220.1581
G1X161.7121Y-219.7622
G1X163.5320Y-219.5319
G1X165.4811Y-219.4260
G1X172.4541Y-219.5594
G1X174.9831Y-219.4541
G1X176.5539Y-219.2256
G1X177.8437Y-218.8895
G1X178.8439Y-218.4976
G1X181.4831Y-217.2601
G1X183.1439Y-216.8060
G1X184.4834Y-216.6726
G1X185.9894Y-216.6728
G1X187.6744Y-216.8037
G1X189.3086Y-217.0504
G1 Z0F20000
(Start Block)

G1X123.9690Y-223.5590
G1 Z3.0F20000
G1 F8000

G1X130.5321Y-221.8616
G1X132.2305Y-221.6572
G1X133.8483Y-221.7198
G1X135.3913Y-222.0686
G1X136.7050Y-222.6538
G1X138.0659Y-223.5541
G1X140.2411Y-225.3223
G1X141.2832Y-225.9017
G1X142.0169Y-226.1184
G1X143.0055Y-226.2547
G1X145.5706Y-226.2408
G1X148.2846Y-225.9049
G1X150.8445Y-225.2770
G1X153.1339Y-224.4186
G1X157.1562Y-222.5068
G1X158.6134Y-222.0150
G1X160.1444Y-221.6734
G1X162.1830Y-221.4785
G1X164.4808Y-221.5365
G1X166.8209Y-221.8054
G1X172.7341Y-222.7638
G1X174.4625Y-222.8851
G1X175.9055Y-222.8417
G1X177.5055Y-222.5868
G1X178.8763Y-222.1268
G1X180.2370Y-221.4321
G1X182.7666Y-219.8877
G1X184.1522Y-219.3317
G1X185.1419Y-219.1347
G1X186.3507Y-219.0452
G1X189.1216Y-219.1979
G1 Z0F20000
(Start Block)

G1X123.7244Y-220.8074
G1 Z3.0F20000
G1 F8000

G1X130.5285Y-220.0884
G1X131.9816Y-220.0318
G1X133.2400Y-220.0957
G1X134.5634Y-220.3292
G1X135.6899Y-220.7240
G1X136.6708Y-221.2812
G1X138.5080Y-222.5748
G1X139.5434Y-222.9937
G1X140.4174Y-223.1256
G1X141.8011Y-223.1810
G1X146.1330Y-223.0731
G1X148.8126Y-222.7614
G1X151.1995Y-222.2358
G1X153.2030Y-221.5900
G1X156.6018Y-220.2149
G1X158.3120Y-219.6258
G1X160.5302Y-218.9925
G1X162.6326Y-218.5662
G1X165.8172Y-218.2242
G1X172.4880Y-218.0307
G1X175.1934Y-217.7824
G1X177.5234Y-217.2537
G1X181.0809Y-215.8807
G1X182.9457Y-215.5344
G1X184.3865Y-215.4709
G1X186.0926Y-215.5360
G1X187.7643Y-215.7192
G1X189.4510Y-216.0271
G1 Z0F20000
(Start Block)

G1X123.5562Y-219.9882
G1 Z3.0F20000
G1 F8000

G1X125.6669Y-219.9418
G1X130.4862Y-219.6353
G1X132.7516Y-219.6741
G1X134.0495Y-219.8599
G1X135.1415Y-220.1726
G1X135.9561Y-220.5492
G1X137.7290Y-221.5785
G1X138.8753Y-221.9417
G1X139.9169Y-222.0383
G1X141.9070Y-222.0626
G1X146.4000Y-221.9378
G1X148.9096Y-221.6359
G1X151.2273Y-221.1240
G1X153.1514Y-220.5097
G1X156.5820Y-219.1358
G1X158.7175Y-218.4101
G1X161.0240Y-217.7676
G1X163.3124Y-217.3127
G1X166.0279Y-216.9853
G1X172.0555Y-216.6035
G1X174.6083Y-216.3153
G1X176.7981Y-215.8375
G1X180.1822Y-214.6827
G1X182.1189Y-214.3516
G1X183.8483Y-214.2929
G1X185.8439Y-214.3964
G1X187.7811Y-214.6485
G1X189.6157Y-215.0383
G1 Z0F20000
(Start Block)

G1X123.3477Y-219.1695
G1 Z3.0F20000
G1 F8000

G1X125.7271Y-219.2427
G1X130.8974Y-219.1380
G1X132.9038Y-219.2475
G1X134.5656Y-219.5656
G1X137.1459Y-220.6232
G1X138.5855Y-220.8844
G1X143.5822Y-220.9136
G1X146.3883Y-220.8019
G1X148.8941Y-220.4970
G1X151.3375Y-219.9435
G1X153.2615Y-219.3114
G1X157.7839Y-217.5350
G1X159.8352Y-216.8916
G1X161.7218Y-216.4171
G1X165.2180Y-215.8417
G1X171.6420Y-215.2775
G1X174.0518Y-214.9661
G1X175.9149Y-214.5732
G1X178.8933Y-213.6173
G1X180.3833Y-213.2888
G1X182.5498Y-213.1248
G1X185.0045Y-213.2160
G1X187.5359Y-213.5510
G1X189.7942Y-214.0843
G1 Z0F20000
(Start Block)

G1X123.1097Y-218.3294
G1 Z3.0F20000
G1 F8000

G1X125.4905Y-218.5132
G1X130.6724Y-218.5435
G1X132.6499Y-218.6483
G1X134.3037Y-218.9171
G1X136.6228Y-219.5992
G1X137.8096Y-219.7479
G1X143.4509Y-219.7693
G1X146.2281Y-219.6604
G1X148.8592Y-219.3334
G1X151.3092Y-218.7617
G1X153.3271Y-218.0773
G1X157.5934Y-216.3435
G1X159.5380Y-215.7171
G1X161.3720Y-215.2452
G1X164.7491Y-214.6718
G1X171.0394Y-214.0726
G1X173.4381Y-213.7511
G1X175.3929Y-213.3370
G1X178.1750Y-212.4514
G1X179.6699Y-212.1308
G1X182.0715Y-211.9705
G1X184.8049Y-212.1055
G1X187.5136Y-212.5133
G1X189.9775Y-213.1641
G1 Z0F20000
(Start Block)

G1X122.8572Y-217.4526
G1 Z3.0F20000
G1 F8000

G1X125.6596Y-217.7380
G1X132.5079Y-217.8978
G1X133.8706Y-218.0623
G1X135.9780Y-218.4877
G1X137.2337Y-218.6072
G1X143.0886Y-218.6235
G1X145.9549Y-218.5128
G1X148.6861Y-218.1688
G1X151.2346Y-217.5581
G1X153.3359Y-216.8195
G1X157.5164Y-215.0510
G1X159.2407Y-214.4831
G1X160.9039Y-214.0517
G1X164.1664Y-213.5104
G1X170.4726Y-212.9561
G1X172.9867Y-212.6277
G1X174.9444Y-212.2127
G1X177.7448Y-211.2940
G1X179.2464Y-210.9801
G1X181.7415Y-210.8416
G1X184.7500Y-211.0328
G1X187.5128Y-211.5053
G1X190.1568Y-212.2756
G1 Z0F20000
(Start Block)

G1X124.0790Y-226.6922
G1 Z3.0F20000
G1 F8000

G1X127.9974Y-225.6378
G1X129.8069Y-225.2746
G1X131.8182Y-225.1339
G1X133.7075Y-225.3002
G1X135.5134Y-225.7640
G1X137.0789Y-226.4690
G1X138.5942Y-227.4199
G1X141.1123Y-229.3160
G1X142.0917Y-229.8604
G1X142.8183Y-230.1132
G1X143.5964Y-230.2667
G1X145.3908Y-230.3285
G1X146.7698Y-230.2014
G1X148.2265Y-229.9394
G1X149.6179Y-229.5682
G1X150.9178Y-229.1063
G1X152.8286Y-228.2046
G1X156.2764Y-226.0643
G1X157.4815Y-225.5183
G1X158.9537Y-225.2010
G1X160.6381Y-225.1637
G1X162.8649Y-225.4567
G1X165.1595Y-226.0593
G1X167.2723Y-226.8391
G1X171.0067Y-228.4669
G1X172.4236Y-228.9530
G1X173.9927Y-229.2572
G1X175.4912Y-229.2956
G1X176.6634Y-229.1613
G1X177.8131Y-228.8851
G1X178.9412Y-228.4618
G1X179.9930Y-227.9337
G1X181.6756Y-226.7999
G1X184.2705Y-224.4441
G1X185.2768Y-223.7673
G1X186.5254Y-223.3931
G1X188.1811Y-223.2670
G1 Z0F20000
(Start Block)

G1X123.8294Y-227.9339
G1 Z3.0F20000
G1 F8000

G1X127.1208Y-227.3124
G1X129.2903Y-227.0808
G1X131.5422Y-227.1081
G1X133.7654Y-227.4403
G1X135.5720Y-227.9780
G1X137.2538Y-228.7702
G1X138.7758Y-229.7678
G1X141.1146Y-231.6054
G1X142.0755Y-232.1716
G1X143.3407Y-232.5603
G1X145.0264Y-232.6740
G1X146.2109Y-232.6004
G1X147.5619Y-232.4055
G1X149.9911Y-231.7713
G1X151.3967Y-231.2216
G1X152.7345Y-230.5570
G1X156.1583Y-228.3479
G1X157.1431Y-227.8334
G1X157.8479Y-227.5972
G1X158.6920Y-227.4372
G1X160.5134Y-227.4101
G1X162.6640Y-227.7442
G1X164.9812Y-228.4322
G1X167.0818Y-229.3127
G1X170.6455Y-231.0872
G1X171.9895Y-231.6056
G1X173.5011Y-231.9286
G1X175.0154Y-231.9807
G1X176.1887Y-231.8583
G1X177.3127Y-231.6125
G1X178.4105Y-231.2399
G1X179.5559Y-230.7070
G1X180.8136Y-229.9351
G1X181.9327Y-229.0514
G1X182.9397Y-228.0628
G1X184.3626Y-226.4622
G1X184.9528Y-225.9563
G1X185.3974Y-225.7124
G1X186.0003Y-225.5239
G1X187.5399Y-225.3681
G1 Z0F20000
(Start Block)

G1X123.6148Y-228.6091
G1 Z3.0F20000
G1 F8000

G1X126.6994Y-228.1655
G1X129.1459Y-228.0285
G1X131.5849Y-228.1724
G1X133.8576Y-228.5968
G1X135.6824Y-229.1909
G1X137.3543Y-230.0131
G1X138.5955Y-230.8418
G1X140.8718Y-232.6951
G1X141.8039Y-233.3108
G1X142.7953Y-233.6981
G1X143.8443Y-233.8759
G1X145.2125Y-233.9037
G1X146.8031Y-233.7600
G1X148.4714Y-233.4459
G1X150.0048Y-233.0062
G1X151.4312Y-232.4525
G1X152.7888Y-231.7799
G1X156.9732Y-229.1396
G1X158.1894Y-228.7320
G1X159.5047Y-228.5875
G1X161.4998Y-228.7351
G1X163.7616Y-229.2619
G1X166.3775Y-230.2573
G1X170.1079Y-232.1374
G1X171.3443Y-232.6713
G1X173.0121Y-233.1079
G1X174.6532Y-233.2056
G1X175.8277Y-233.1044
G1X177.0805Y-232.8483
G1X178.3073Y-232.4376
G1X179.4646Y-231.8960
G1X180.7326Y-231.1097
G1X181.8472Y-230.2144
G1X182.8409Y-229.2110
G1X184.2652Y-227.5161
G1X184.8428Y-226.9982
G1X185.2921Y-226.7567
G1X185.8043Y-226.6050
G1X187.2836Y-226.4684
G1 Z0F20000
(Start Block)

G1X123.3702Y-229.3540
G1 Z3.0F20000
G1 F8000

G1X126.3790Y-229.0468
G1X128.8654Y-229.0133
G1X131.3251Y-229.2343
G1X133.6699Y-229.7176
G1X135.6074Y-230.3714
G1X137.3655Y-231.2530
G1X138.7574Y-232.2297
G1X140.9700Y-234.1128
G1X141.8671Y-234.6791
G1X142.4412Y-234.9076
G1X143.1838Y-235.0808
G1X144.9270Y-235.1765
G1X146.3115Y-235.0804
G1X147.8030Y-234.8534
G1X149.2411Y-234.5143
G1X150.5819Y-234.0805
G1X151.9383Y-233.5121
G1X153.1959Y-232.8568
G1X157.0207Y-230.4244
G1X158.1411Y-230.0226
G1X159.4490Y-229.8495
G1X160.6046Y-229.8779
G1X161.7674Y-230.0296
G1X164.2756Y-230.6819
G1X166.5857Y-231.6174
G1X170.4537Y-233.5412
G1X171.9827Y-234.0824
G1X172.9916Y-234.2803
G1X173.9721Y-234.3556
G1X174.9716Y-234.3277
G1X176.0776Y-234.1841
G1X177.2825Y-233.8920
G1X178.4442Y-233.4633
G1X179.4980Y-232.9412
G1X180.5778Y-232.2574
G1X182.1366Y-230.9315
G1X184.1488Y-228.5593
G1X184.8077Y-228.0004
G1X185.6425Y-227.7056
G1X187.1020Y-227.5922
G1 Z0F20000
(Start Block)

G1X123.1249Y-230.1797
G1 Z3.0F20000
G1 F8000

G1X125.9564Y-229.9809
G1X128.5468Y-230.0256
G1X131.1503Y-230.3303
G1X133.4970Y-230.8660
G1X135.5443Y-231.5901
G1X137.2866Y-232.4787
G1X138.4901Y-233.3312
G1X140.7621Y-235.3523
G1X141.6336Y-235.9445
G1X142.8639Y-236.3468
G1X144.6950Y-236.4607
G1X146.1842Y-236.3671
G1X147.6866Y-236.1536
G1X149.1532Y-235.8280
G1X150.5152Y-235.4088
G1X151.8468Y-234.8764
G1X153.2137Y-234.1898
G1X157.1797Y-231.7129
G1X158.3180Y-231.3145
G1X159.6369Y-231.1477
G1X160.6740Y-231.1731
G1X161.8277Y-231.3200
G1X164.1998Y-231.9254
G1X166.3876Y-232.7847
G1X170.1511Y-234.5948
G1X171.7928Y-235.1686
G1X172.8088Y-235.3649
G1X173.7912Y-235.4406
G1X174.8239Y-235.4113
G1X175.9548Y-235.2619
G1X177.0812Y-234.9891
G1X178.2304Y-234.5705
G1X179.2759Y-234.0577
G1X180.3491Y-233.3845
G1X181.9527Y-232.0260
G1X183.9467Y-229.6814
G1X184.5749Y-229.1459
G1X185.5297Y-228.8242
G1X187.0109Y-228.7304
G1 Z0F20000
(Start Block)

G1X122.9070Y-231.0881
G1 Z3.0F20000
G1 F8000

G1X125.6698Y-230.9600
G1X128.3543Y-231.0756
G1X130.9483Y-231.4404
G1X133.3354Y-232.0347
G1X135.4883Y-232.8380
G1X137.2981Y-233.7933
G1X138.6993Y-234.8599
G1X140.6936Y-236.7488
G1X141.4341Y-237.2556
G1X141.9780Y-237.4826
G1X142.7241Y-237.6526
G1X144.5254Y-237.7427
G1X146.1235Y-237.6465
G1X147.7406Y-237.4258
G1X149.2253Y-237.1053
G1X150.6132Y-236.6892
G1X151.9775Y-236.1545
G1X153.2684Y-235.5212
G1X157.3427Y-233.0393
G1X158.5013Y-232.6426
G1X159.7161Y-232.4820
G1X161.6790Y-232.5986
G1X164.0170Y-233.1439
G1X166.1892Y-233.9469
G1X170.0570Y-235.6942
G1X171.7318Y-236.2328
G1X172.6607Y-236.3990
G1X173.6502Y-236.4710
G1X174.7183Y-236.4363
G1X175.7735Y-236.2944
G1X176.8963Y-236.0243
G1X178.0486Y-235.6041
G1X179.0745Y-235.0995
G1X180.1286Y-234.4385
G1X181.6846Y-233.1354
G1X183.6612Y-230.8815
G1X184.3597Y-230.3008
G1X184.8142Y-230.0998
G1X185.3695Y-229.9741
G1X187.0207Y-229.8777
G1 Z0F20000
(Start Block)

G1X122.7400Y-232.0751
G1 Z3.0F20000
G1 F8000

G1X125.4224Y-231.9901
G1X128.0780Y-232.1462
G1X130.6550Y-232.5456
G1X133.0755Y-233.1824
G1X135.3353Y-234.0589
G1X137.2157Y-235.0706
G1X138.3210Y-235.9137
G1X140.3685Y-237.9469
G1X141.2090Y-238.5645
G1X142.3449Y-238.9143
G1X144.2085Y-239.0129
G1X145.8243Y-238.9350
G1X147.5634Y-238.7289
G1X149.1703Y-238.4106
G1X150.6967Y-237.9741
G1X152.0960Y-237.4404
G1X153.4191Y-236.8055
G1X157.5014Y-234.3877
G1X158.5728Y-234.0172
G1X159.7912Y-233.8358
G1X161.7384Y-233.9236
G1X163.9390Y-234.3999
G1X165.9907Y-235.1038
G1X169.8764Y-236.7235
G1X171.5897Y-237.2346
G1X173.5342Y-237.4556
G1X174.5338Y-237.4208
G1X175.6193Y-237.2742
G1X176.7239Y-237.0056
G1X177.7599Y-236.6312
G1X178.7973Y-236.1278
G1X179.7567Y-235.5392
G1X181.2079Y-234.3815
G1X183.3667Y-232.0745
G1X184.1608Y-231.4641
G1X184.6425Y-231.2683
G1X185.2632Y-231.1369
G1X187.1355Y-231.0353
G1 Z0F20000
(Start Block)

G1X122.6405Y-233.1345
G1 Z3.0F20000
G1 F8000

G1X125.2413Y-233.0689
G1X127.8983Y-233.2523
G1X130.4752Y-233.6848
G1X132.8163Y-234.3317
G1X135.0832Y-235.2370
G1X137.1289Y-236.3543
G1X138.2767Y-237.2639
G1X140.1891Y-239.2749
G1X140.9717Y-239.8590
G1X141.4647Y-240.0507
G1X142.1642Y-240.1863
G1X144.0213Y-240.2574
G1X145.9181Y-240.1693
G1X147.5853Y-239.9822
G1X149.2139Y-239.6778
G1X150.6749Y-239.2810
G1X152.1133Y-238.7585
G1X153.4740Y-238.1309
G1X157.6185Y-235.7526
G1X158.7410Y-235.3689
G1X159.9685Y-235.1847
G1X161.7883Y-235.2461
G1X163.8572Y-235.6500
G1X165.8916Y-236.2895
G1X169.6991Y-237.7326
G1X171.4540Y-238.2090
G1X173.4275Y-238.4066
G1X175.4340Y-238.2231
G1X177.3688Y-237.6607
G1X178.3722Y-237.1923
G1X179.3277Y-236.6281
G1X180.7520Y-235.5450
G1X182.9717Y-233.3402
G1X183.8540Y-232.6949
G1X184.4306Y-232.4679
G1X185.0871Y-232.3309
G1X187.3536Y-232.2120
G1 Z0F20000
(Start Block)

G1X122.9683Y-238.0305
G1 Z3.0F20000
G1 F8000

G1X125.0867Y-237.8354
G1X127.4366Y-237.9306
G1X129.8073Y-238.3045
G1X132.0344Y-238.9175
G1X134.5039Y-239.9397
G1X136.8820Y-241.3129
G1X137.9630Y-242.2371
G1X139.5877Y-244.2158
G1X140.2164Y-244.7225
G1X140.6673Y-244.8734
G1X141.2611Y-244.9514
G1X143.7274Y-244.9849
G1X145.8188Y-244.9282
G1X147.6335Y-244.7795
G1X149.3277Y-244.5137
G1X150.8468Y-244.1465
G1X152.2381Y-243.6862
G1X153.5954Y-243.1122
G1X157.9495Y-240.7953
G1X159.0513Y-240.4237
G1X160.2959Y-240.2088
G1X161.8642Y-240.1879
G1X163.6821Y-240.4110
G1X165.3943Y-240.7819
G1X169.1658Y-241.7773
G1X170.9288Y-242.1107
G1X172.7422Y-242.2302
G1X174.4432Y-242.0889
G1X176.0317Y-241.7016
G1X177.4249Y-241.1051
G1X178.8421Y-240.2081
G1X181.4250Y-238.2912
G1X182.1581Y-237.8785
G1X182.8225Y-237.6133
G1X183.9767Y-237.3536
G1X185.2992Y-237.2473
G1X187.0077Y-237.2681
G1X188.9629Y-237.4316
G1 Z0F20000
(Start Block)

G1X122.7915Y-236.7084
G1 Z3.0F20000
G1 F8000

G1X124.9617Y-236.5783
G1X127.3595Y-236.7100
G1X129.7621Y-237.1021
G1X131.9961Y-237.7185
G1X134.4923Y-238.7441
G1X136.8876Y-240.1110
G1X137.9830Y-241.0323
G1X139.7211Y-243.0984
G1X140.2970Y-243.5440
G1X140.7547Y-243.7039
G1X141.3530Y-243.7899
G1X143.8213Y-243.8298
G1X145.9070Y-243.7644
G1X147.7129Y-243.6051
G1X149.3961Y-243.3300
G1X150.9030Y-242.9561
G1X152.2819Y-242.4920
G1X153.6264Y-241.9171
G1X157.9488Y-239.6183
G1X159.0487Y-239.2544
G1X160.2937Y-239.0485
G1X161.9645Y-239.0473
G1X163.7851Y-239.2994
G1X165.4945Y-239.6966
G1X169.2539Y-240.7462
G1X171.0005Y-241.0965
G1X172.9200Y-241.2290
G1X174.7001Y-241.0671
G1X176.2809Y-240.6618
G1X177.7695Y-239.9941
G1X179.2352Y-239.0389
G1X181.8500Y-236.9891
G1X183.0149Y-236.3763
G1X183.9650Y-236.1186
G1X185.1694Y-235.9772
G1X186.7528Y-235.9451
G1X188.5007Y-236.0195
G1 Z0F20000
(Start Block)

G1X122.6696Y-235.4524
G1 Z3.0F20000
G1 F8000

G1X125.0455Y-235.3641
G1X127.5260Y-235.5338
G1X129.9250Y-235.9423
G1X132.2388Y-236.5919
G1X134.6647Y-237.5925
G1X136.9444Y-238.8794
G1X138.0974Y-239.8397
G1X139.8465Y-241.8600
G1X140.4508Y-242.3309
G1X140.8900Y-242.4992
G1X141.5305Y-242.6085
G1X143.7905Y-242.6625
G1X145.8814Y-242.5892
G1X147.6768Y-242.4198
G1X149.2540Y-242.1565
G1X150.8386Y-241.7593
G1X152.2958Y-241.2578
G1X153.6105Y-240.6828
G1X157.8468Y-238.3886
G1X158.9225Y-238.0246
G1X160.1627Y-237.8165
G1X161.8512Y-237.8217
G1X163.7809Y-238.1139
G1X165.5938Y-238.5756
G1X169.3363Y-239.7225
G1X171.1657Y-240.1255
G1X173.0715Y-240.2729
G1X174.9298Y-240.1045
G1X176.6875Y-239.6282
G1X178.2908Y-238.8513
G1X179.8151Y-237.8044
G1X182.2907Y-235.7174
G1X183.2556Y-235.1556
G1X184.0413Y-234.9016
G1X185.0192Y-234.7459
G1X188.0575Y-234.6863
G1 Z0F20000
(Start Block)

G1X122.6168Y-234.2612
G1 Z3.0F20000
G1 F8000

G1X125.1154Y-234.1942
G1X127.7051Y-234.3810
G1X130.1973Y-234.8102
G1X132.5546Y-235.4759
G1X134.9266Y-236.4508
G1X137.0377Y-237.6294
G1X138.2247Y-238.6029
G1X140.0093Y-240.5827
G1X140.6528Y-241.0852
G1X141.1106Y-241.2732
G1X141.7672Y-241.4026
G1X143.8320Y-241.4740
G1X145.8259Y-241.3959
G1X147.6078Y-241.2153
G1X149.1706Y-240.9436
G1X150.7334Y-240.5408
G1X152.1670Y-240.0386
G1X153.5326Y-239.4300
G1X157.7381Y-237.0917
G1X158.8950Y-236.7029
G1X160.1307Y-236.5153
G1X161.8262Y-236.5510
G1X163.8731Y-236.9089
G1X165.6931Y-237.4260
G1X169.5202Y-238.7296
G1X171.3153Y-239.1680
G1X173.2000Y-239.3389
G1X175.1352Y-239.1720
G1X176.0979Y-238.9531
G1X177.0816Y-238.6235
G1X178.8094Y-237.7425
G1X180.3965Y-236.5864
G1X182.7470Y-234.4372
G1X183.6064Y-233.9000
G1X184.2314Y-233.6789
G1X185.0885Y-233.5224
G1X187.6666Y-233.4228
G1 Z0F20000
(Start Block)

G1X122.6079Y-216.5306
G1 Z3.0F20000
G1 F8000

G1X123.9461Y-216.7455
G1X125.6016Y-216.8743
G1X132.6581Y-217.0102
G1X136.9134Y-217.4613
G1X142.7182Y-217.4735
G1X145.5669Y-217.3591
G1X148.3678Y-217.0069
G1X150.9996Y-216.3719
G1X153.2770Y-215.5503
G1X157.4385Y-213.7111
G1X158.8419Y-213.2332
G1X160.3175Y-212.8426
G1X161.8906Y-212.5450
G1X163.5796Y-212.3332
G1X169.9328Y-211.9108
G1X172.5841Y-211.6053
G1X174.7645Y-211.1456
G1X177.5103Y-210.1833
G1X179.0166Y-209.8637
G1X181.6407Y-209.7477
G1X184.7362Y-209.9947
G1X187.6299Y-210.5557
G1X190.3239Y-211.4150
G1 Z0F20000
(Start Block)

G1X122.6915Y-203.8475
G1 Z3.0F20000
G1 F8000

G1X125.1821Y-203.7139
G1X127.9055Y-203.1819
G1X130.4646Y-202.3446
G1X134.8145Y-200.5064
G1X135.7667Y-200.2411
G1X136.7930Y-200.1224
G1X138.0577Y-200.1737
G1X139.4731Y-200.4068
G1X141.0742Y-200.8233
G1X145.9095Y-202.3132
G1X147.5086Y-202.6138
G1X149.1742Y-202.7481
G1X151.1095Y-202.6881
G1X153.1350Y-202.4013
G1X155.2092Y-201.8804
G1X158.1475Y-200.8472
G1X159.0747Y-200.6612
G1X160.1145Y-200.5821
G1X161.3902Y-200.6367
G1X162.8131Y-200.8449
G1X167.4541Y-201.9834
G1X169.1857Y-202.3175
G1X170.9701Y-202.4742
G1X172.6846Y-202.4146
G1X174.2753Y-202.1636
G1X175.8393Y-201.7117
G1X176.9677Y-201.2314
G1X178.6729Y-200.2961
G1X179.6079Y-199.9243
G1X180.5953Y-199.6882
G1X181.7241Y-199.5830
G1X183.3164Y-199.6561
G1X185.0722Y-199.9475
G1X190.7320Y-201.5275
G1 Z0F20000
(Start Block)

G1X123.0268Y-198.9324
G1 Z3.0F20000
G1 F8000

G1X125.3569Y-198.7471
G1X127.8141Y-198.2007
G1X130.2725Y-197.3232
G1X134.3650Y-195.4602
G1X135.4385Y-195.1385
G1X136.4474Y-195.0156
G1X138.0526Y-195.0763
G1X139.8046Y-195.3507
G1X141.8584Y-195.8581
G1X147.7031Y-197.5823
G1X149.6392Y-197.9343
G1X151.6454Y-198.0900
G1X154.2434Y-197.9922
G1X158.0633Y-197.3770
G1X159.9669Y-197.2608
G1X162.2461Y-197.3862
G1X167.9870Y-198.0666
G1X171.2442Y-198.1324
G1X173.0044Y-197.9929
G1X174.8219Y-197.7042
G1X176.4489Y-197.3060
G1X179.2849Y-196.4094
G1X181.5411Y-196.0432
G1X184.3191Y-195.9984
G1X190.7997Y-196.4104
G1 Z0F20000
(Start Block)

G1X123.0492Y-196.6144
G1 Z3.0F20000
G1 F8000

G1X125.3484Y-196.4798
G1X127.7536Y-196.0103
G1X130.1065Y-195.2709
G1X134.3158Y-193.5915
G1X135.4109Y-193.2959
G1X136.3209Y-193.1875
G1X138.1455Y-193.2170
G1X140.3587Y-193.4422
G1X148.2918Y-194.8863
G1X151.6362Y-195.3012
G1X154.4774Y-195.3983
G1X157.9206Y-195.2160
G1X159.6597Y-195.2105
G1X166.2992Y-195.6759
G1X168.9136Y-195.7734
G1X171.0975Y-195.7413
G1X173.2527Y-195.5962
G1X175.4497Y-195.3291
G1X178.6990Y-194.7531
G1X180.4303Y-194.5248
G1X187.9085Y-194.0392
G1X190.8057Y-193.7414
G1 Z0F20000
(Start Block)

G1X123.0373Y-195.4812
G1 Z3.0F20000
G1 F8000

G1X125.3073Y-195.3825
G1X127.6910Y-194.9633
G1X130.0436Y-194.2870
G1X134.3247Y-192.7280
G1X135.3272Y-192.4765
G1X136.2459Y-192.3668
G1X138.5641Y-192.3925
G1X141.3541Y-192.5818
G1X150.1691Y-193.6392
G1X153.3344Y-193.9282
G1X158.8498Y-194.0618
G1X165.1827Y-194.4418
G1X168.5007Y-194.5271
G1X173.1971Y-194.3520
G1X179.0539Y-193.7799
G1X184.7052Y-193.3375
G1X187.8219Y-192.9677
G1X190.7982Y-192.4393
G1 Z0F20000
(Start Block)

G1X123.0147Y-194.3595
G1 Z3.0F20000
G1 F8000

G1X125.1457Y-194.3081
G1X127.6144Y-193.9307
G1X129.9646Y-193.3200
G1X134.3123Y-191.8898
G1X135.3165Y-191.6641
G1X136.1448Y-191.5726
G1X141.5878Y-191.5892
G1X145.5226Y-191.7231
G1X161.0062Y-193.0366
G1X164.4074Y-193.2161
G1X167.5174Y-193.2544
G1X180.4006Y-192.7834
G1X183.0293Y-192.6155
G1X186.9036Y-192.0870
G1X190.7886Y-191.1752
G1 Z0F20000
(Start Block)

G1X122.9853Y-193.2447
G1 Z3.0F20000
G1 F8000

G1X125.0873Y-193.2259
G1X127.5308Y-192.8996
G1X129.8757Y-192.3521
G1X134.1736Y-191.0761
G1X136.0138Y-190.7763
G1X138.7969Y-190.7307
G1X144.9463Y-190.3907
G1X147.9572Y-190.3739
G1X151.8893Y-190.6405
G1X158.7786Y-191.6317
G1X162.3785Y-191.9352
G1X166.4816Y-191.9765
G1X174.9802Y-191.6699
G1X180.5919Y-191.8537
G1X183.1576Y-191.7073
G1X185.6397Y-191.3494
G1X188.1116Y-190.7824
G1X190.7813Y-189.9583
G1 Z0F20000
(Start Block)

G1X122.9534Y-192.1318
G1 Z3.0F20000
G1 F8000

G1X125.1353Y-192.1339
G1X127.5498Y-191.8411
G1X129.4807Y-191.4408
G1X133.5918Y-190.3326
G1X135.1511Y-190.0181
G1X138.9503Y-189.8504
G1X144.7108Y-189.0949
G1X147.2430Y-188.8746
G1X149.7891Y-188.8571
G1X152.2867Y-189.0641
G1X154.6705Y-189.4578
G1X158.7021Y-190.3483
G1X161.6100Y-190.6767
G1X165.2366Y-190.7127
G1X171.7037Y-190.3567
G1X174.1162Y-190.3055
G1X176.2856Y-190.4194
G1X179.2744Y-190.8200
G1X180.9820Y-190.8914
G1X183.2843Y-190.7625
G1X185.6958Y-190.3736
G1X188.1007Y-189.7443
G1X190.7794Y-188.7953
G1 Z0F20000
(Start Block)

G1X123.0469Y-197.7636
G1 Z3.0F20000
G1 F8000

G1X125.3574Y-197.6000
G1X127.7963Y-197.0851
G1X130.1503Y-196.2905
G1X134.3889Y-194.4721
G1X135.4790Y-194.1672
G1X136.4967Y-194.0571
G1X138.0968Y-194.1084
G1X139.8279Y-194.3319
G1X141.9615Y-194.7698
G1X148.2118Y-196.3055
G1X150.4023Y-196.6373
G1X152.5432Y-196.7693
G1X154.7050Y-196.7096
G1X157.9296Y-196.3366
G1X159.8051Y-196.2681
G1X161.9686Y-196.3781
G1X167.7542Y-196.9224
G1X171.2608Y-196.9553
G1X173.0149Y-196.8252
G1X174.8129Y-196.5796
G1X179.1550Y-195.5706
G1X181.2703Y-195.2599
G1X183.6255Y-195.1309
G1X190.8071Y-195.0699
G1 Z0F20000
(Start Block)

G1X122.9854Y-200.1238
G1 Z3.0F20000
G1 F8000

G1X125.4271Y-199.9141
G1X127.9059Y-199.3385
G1X130.2727Y-198.4687
G1X134.4470Y-196.5118
G1X135.5281Y-196.1875
G1X136.5364Y-196.0725
G1X138.0302Y-196.1433
G1X139.6915Y-196.4305
G1X141.7585Y-196.9962
G1X147.2136Y-198.7982
G1X149.1233Y-199.1870
G1X151.0047Y-199.3485
G1X152.4529Y-199.3328
G1X154.0177Y-199.1926
G1X155.6344Y-198.9209
G1X158.1119Y-198.3541
G1X160.1376Y-198.1866
G1X162.4196Y-198.3301
G1X168.4609Y-199.1926
G1X170.2667Y-199.2815
G1X172.0699Y-199.2201
G1X173.8667Y-198.9952
G1X175.4981Y-198.6342
G1X176.8071Y-198.2190
G1X178.6939Y-197.4624
G1X179.7858Y-197.1382
G1X180.9463Y-196.9249
G1X182.0947Y-196.8304
G1X184.8358Y-196.9425
G1X190.7836Y-197.7462
G1 Z0F20000
(Start Block)

G1X122.9187Y-201.3398
G1 Z3.0F20000
G1 F8000

G1X125.3615Y-201.1389
G1X127.8550Y-200.5723
G1X130.3455Y-199.6618
G1X134.4587Y-197.7207
G1X135.5419Y-197.3847
G1X136.5490Y-197.2602
G1X137.9397Y-197.3204
G1X139.6000Y-197.6142
G1X141.5621Y-198.1731
G1X146.8447Y-199.9989
G1X148.6365Y-200.3789
G1X150.3999Y-200.5395
G1X152.0356Y-200.5147
G1X153.7224Y-200.3340
G1X155.4674Y-199.9912
G1X158.1687Y-199.2548
G1X160.1899Y-199.0466
G1X162.5927Y-199.2203
G1X166.9861Y-200.0225
G1X168.7289Y-200.2668
G1X170.5280Y-200.3727
G1X172.3001Y-200.3049
G1X173.9992Y-200.0661
G1X175.5966Y-199.6685
G1X176.8370Y-199.2228
G1X178.7943Y-198.3257
G1X179.7812Y-198.0005
G1X180.7954Y-197.7934
G1X181.9363Y-197.6937
G1X183.3983Y-197.7274
G1X185.0158Y-197.9175
G1X190.7623Y-199.0583
G1 Z0F20000
(Start Block)

G1X122.8224Y-202.5813
G1 Z3.0F20000
G1 F8000

G1X125.2505Y-202.4095
G1X127.8600Y-201.8498
G1X130.3818Y-200.9622
G1X134.7113Y-198.9955
G1X135.7012Y-198.7100
G1X136.7172Y-198.5972
G1X138.0911Y-198.6696
G1X139.5319Y-198.9294
G1X141.3702Y-199.4481
G1X146.3790Y-201.1513
G1X148.0667Y-201.5078
G1X149.8307Y-201.6691
G1X151.6585Y-201.6265
G1X153.4656Y-201.3987
G1X155.4383Y-200.9506
G1X158.2201Y-200.0767
G1X159.2292Y-199.9039
G1X160.2260Y-199.8427
G1X161.3813Y-199.8864
G1X162.7549Y-200.0613
G1X167.2731Y-201.0274
G1X169.0091Y-201.3109
G1X170.8030Y-201.4346
G1X172.5423Y-201.3620
G1X174.1377Y-201.1174
G1X175.7213Y-200.6858
G1X176.9534Y-200.1926
G1X178.6866Y-199.3022
G1X179.6381Y-198.9447
G1X180.6369Y-198.7141
G1X181.7698Y-198.6061
G1X183.2536Y-198.6532
G1X184.9915Y-198.9022
G1X190.7423Y-200.3263
G1 Z0F20000
(Start Block)

G1X122.5205Y-205.1357
G1 Z3.0F20000
G1 F8000

G1X123.7945Y-205.1487
G1X125.0953Y-205.0606
G1X127.8576Y-204.6050
G1X130.4703Y-203.8604
G1X134.9077Y-202.2117
G1X135.9125Y-201.9631
G1X136.8396Y-201.8644
G1X138.1135Y-201.9008
G1X139.6125Y-202.1202
G1X144.1354Y-203.2523
G1X145.8511Y-203.5946
G1X147.3888Y-203.7680
G1X149.0423Y-203.8018
G1X150.9000Y-203.6596
G1X152.7212Y-203.3456
G1X154.9877Y-202.7164
G1X158.2457Y-201.4913
G1X159.3809Y-201.3018
G1X160.5858Y-201.2825
G1X161.7931Y-201.4039
G1X163.2059Y-201.6757
G1X169.0364Y-203.2478
G1X170.5739Y-203.4679
G1X172.0104Y-203.5138
G1X173.5538Y-203.3807
G1X175.0530Y-203.0600
G1X176.6977Y-202.4547
G1X178.5710Y-201.4172
G1X179.4834Y-201.0294
G1X180.7948Y-200.7202
G1X182.1618Y-200.6456
G1X183.7055Y-200.7736
G1X185.3687Y-201.0880
G1X190.7390Y-202.6373
G1 Z0F20000
(Start Block)

G1X122.3331Y-206.4210
G1 Z3.0F20000
G1 F8000

G1X124.8016Y-206.4302
G1X127.7249Y-206.0663
G1X130.3376Y-205.4614
G1X134.8891Y-204.0645
G1X136.6561Y-203.7798
G1X137.8135Y-203.7831
G1X139.0637Y-203.9021
G1X143.4419Y-204.6900
G1X145.4075Y-204.9390
G1X147.4226Y-205.0074
G1X149.4789Y-204.8707
G1X151.1888Y-204.6022
G1X152.9221Y-204.1874
G1X154.9435Y-203.5208
G1X157.8545Y-202.3183
G1X158.7390Y-202.1112
G1X159.6449Y-202.0253
G1X161.0142Y-202.0771
G1X162.5535Y-202.3206
G1X164.2939Y-202.7551
G1X168.6747Y-204.0579
G1X170.0961Y-204.3432
G1X171.3251Y-204.4707
G1X173.1940Y-204.4269
G1X175.0907Y-204.0706
G1X176.7132Y-203.4756
G1X178.4632Y-202.4933
G1X179.3503Y-202.0981
G1X180.4290Y-201.8054
G1X181.5466Y-201.6830
G1X183.1536Y-201.7383
G1X185.0276Y-202.0398
G1X186.7999Y-202.4842
G1X190.7596Y-203.6623
G1 Z0F20000
(Start Block)

G1X122.1668Y-207.6775
G1 Z3.0F20000
G1 F8000

G1X124.6197Y-207.7547
G1X127.5588Y-207.4947
G1X130.1729Y-207.0259
G1X134.6193Y-205.9546
G1X136.3074Y-205.7278
G1X138.4818Y-205.7906
G1X142.4030Y-206.2821
G1X144.2775Y-206.4340
G1X146.3588Y-206.4391
G1X148.3499Y-206.2696
G1X150.3133Y-205.9339
G1X152.2183Y-205.4442
G1X154.4480Y-204.6618
G1X157.6948Y-203.2491
G1X158.5631Y-203.0270
G1X159.5729Y-202.9203
G1X160.9432Y-202.9641
G1X162.6004Y-203.2150
G1X164.3671Y-203.6405
G1X168.8518Y-204.9246
G1X170.1847Y-205.1866
G1X171.4234Y-205.3179
G1X173.2875Y-205.2780
G1X175.0507Y-204.9528
G1X176.7087Y-204.3460
G1X178.4181Y-203.3692
G1X179.2806Y-202.9844
G1X180.3416Y-202.7007
G1X181.4523Y-202.5831
G1X183.1676Y-202.6510
G1X185.1717Y-202.9885
G1X187.0755Y-203.4847
G1X190.7828Y-204.6321
G1 Z0F20000
(Start Block)

G1X122.0358Y-208.9029
G1 Z3.0F20000
G1 F8000

G1X124.3278Y-209.0388
G1X127.1834Y-208.8895
G1X129.8523Y-208.5469
G1X134.2216Y-207.7674
G1X135.7193Y-207.6130
G1X137.5223Y-207.6381
G1X143.1071Y-208.0542
G1X145.1398Y-208.0189
G1X147.1807Y-207.8274
G1X149.4074Y-207.4322
G1X151.5102Y-206.8678
G1X153.9284Y-205.9765
G1X157.5610Y-204.3204
G1X158.5274Y-204.0573
G1X159.5298Y-203.9397
G1X160.8937Y-203.9603
G1X162.3413Y-204.1381
G1X164.2251Y-204.5280
G1X169.2399Y-205.7973
G1X170.8271Y-206.0348
G1X172.3216Y-206.0956
G1X173.9853Y-205.9443
G1X175.6142Y-205.5392
G1X176.8971Y-204.9986
G1X178.5553Y-204.0348
G1X179.5670Y-203.6543
G1X180.8494Y-203.4310
G1X182.2973Y-203.4156
G1X183.9783Y-203.6047
G1X185.8207Y-203.9926
G1X190.8013Y-205.5543
G1 Z0F20000
(Start Block)

G1X121.9514Y-210.0968
G1 Z3.0F20000
G1 F8000

G1X123.9086Y-210.2710
G1X126.6726Y-210.2189
G1X129.0166Y-210.0307
G1X133.5303Y-209.4728
G1X135.0353Y-209.3594
G1X142.0289Y-209.6803
G1X144.1914Y-209.6155
G1X146.2348Y-209.4145
G1X148.6041Y-208.9949
G1X150.9137Y-208.3683
G1X153.4374Y-207.4118
G1X157.4555Y-205.5091
G1X158.5253Y-205.1973
G1X159.7474Y-205.0477
G1X160.9737Y-205.0532
G1X162.4123Y-205.1942
G1X164.1867Y-205.5000
G1X169.2654Y-206.5769
G1X170.8775Y-206.7702
G1X172.3807Y-206.8005
G1X174.0287Y-206.6279
G1X175.5145Y-206.2517
G1X176.7452Y-205.7395
G1X178.4001Y-204.7821
G1X179.3777Y-204.4267
G1X180.5307Y-204.2284
G1X181.9855Y-204.2016
G1X183.7906Y-204.3905
G1X185.8585Y-204.8213
G1X187.8904Y-205.4174
G1X190.8074Y-206.4371
G1 Z0F20000
(Start Block)

G1X122.3790Y-215.5607
G1 Z3.0F20000
G1 F8000

G1X123.5808Y-215.7727
G1X125.1630Y-215.9059
G1X132.3271Y-215.9684
G1X137.3045Y-216.3173
G1X142.9988Y-216.3004
G1X146.3651Y-216.0729
G1X148.8425Y-215.6631
G1X151.2076Y-215.0172
G1X153.4166Y-214.1642
G1X157.2516Y-212.3827
G1X158.5363Y-211.9255
G1X159.8377Y-211.5774
G1X161.2936Y-211.3130
G1X162.9866Y-211.1335
G1X169.5215Y-210.9118
G1X172.3236Y-210.6581
G1X173.7195Y-210.4111
G1X174.9415Y-210.0989
G1X177.8813Y-208.9991
G1X179.6304Y-208.7244
G1X182.2469Y-208.7260
G1X185.1900Y-209.0672
G1X187.8532Y-209.6727
G1X190.4719Y-210.5767
G1 Z0F20000
(Start Block)

G1X122.1860Y-214.5446
G1 Z3.0F20000
G1 F8000

G1X123.4624Y-214.7643
G1X125.1234Y-214.8818
G1X132.5950Y-214.8568
G1X138.2133Y-215.1550
G1X142.7191Y-215.1155
G1X145.9325Y-214.8809
G1X148.5238Y-214.4507
G1X151.0304Y-213.7581
G1X153.2436Y-212.8890
G1X157.2543Y-210.9663
G1X158.3511Y-210.5682
G1X159.5739Y-210.2490
G1X161.0261Y-210.0178
G1X162.6151Y-209.9012
G1X169.3465Y-209.9516
G1X172.3012Y-209.7661
G1X173.7207Y-209.5299
G1X174.9661Y-209.2089
G1X178.0257Y-207.9750
G1X179.7064Y-207.7075
G1X182.2672Y-207.7290
G1X185.1259Y-208.0996
G1X187.8753Y-208.7709
G1X190.5952Y-209.7538
G1 Z0F20000
(Start Block)

G1X122.0408Y-213.4861
G1 Z3.0F20000
G1 F8000

G1X123.3024Y-213.6922
G1X124.9743Y-213.7928
G1X133.0554Y-213.6601
G1X139.2828Y-213.9431
G1X142.5444Y-213.8874
G1X145.3875Y-213.6697
G1X148.2515Y-213.1988
G1X150.8689Y-212.4708
G1X153.1768Y-211.5534
G1X157.2402Y-209.5617
G1X158.2038Y-209.2073
G1X159.3031Y-208.9277
G1X160.7540Y-208.7273
G1X162.3564Y-208.6657
G1X169.2893Y-209.0417
G1X170.9110Y-209.0433
G1X172.3934Y-208.9421
G1X173.6188Y-208.7600
G1X174.7993Y-208.4779
G1X176.0028Y-208.0516
G1X178.0179Y-207.0913
G1X178.9042Y-206.8688
G1X179.9453Y-206.7462
G1X182.4324Y-206.7930
G1X185.1813Y-207.1944
G1X187.8423Y-207.8850
G1X190.6904Y-208.9377
G1 Z0F20000
(Start Block)

G1X121.9219Y-211.2593
G1 Z3.0F20000
G1 F8000

G1X123.4686Y-211.4463
G1X125.4910Y-211.4861
G1X128.2824Y-211.3784
G1X134.1355Y-210.9433
G1X140.7534Y-211.2209
G1X142.8102Y-211.1799
G1X144.8961Y-211.0210
G1X147.8939Y-210.5522
G1X150.7425Y-209.7837
G1X153.2914Y-208.7831
G1X157.2785Y-206.8324
G1X158.1196Y-206.5359
G1X158.9881Y-206.3420
G1X160.4495Y-206.2138
G1X162.1934Y-206.2800
G1X164.0517Y-206.5095
G1X169.3587Y-207.3754
G1X171.0022Y-207.5033
G1X172.5071Y-207.4824
G1X173.8879Y-207.3159
G1X175.2399Y-206.9861
G1X176.5181Y-206.4805
G1X178.4936Y-205.4126
G1X179.4421Y-205.1430
G1X180.4961Y-205.0100
G1X182.6762Y-205.0671
G1X185.1678Y-205.4745
G1X187.6745Y-206.1612
G1X190.7942Y-207.2891
G1 Z0F20000
(Start Block)

G1X121.9515Y-212.3898
G1 Z3.0F20000
G1 F8000

G1X123.4551Y-212.5983
G1X125.5998Y-212.6651
G1X133.6125Y-212.3639
G1X138.5045Y-212.6099
G1X140.9686Y-212.6356
G1X145.0618Y-212.3864
G1X148.0685Y-211.8942
G1X150.7518Y-211.1500
G1X153.1900Y-210.1797
G1X157.3081Y-208.1501
G1X159.0319Y-207.6318
G1X160.4828Y-207.4562
G1X162.2013Y-207.4499
G1X169.3248Y-208.1860
G1X170.9713Y-208.2503
G1X172.4686Y-208.1879
G1X173.8274Y-208.0009
G1X175.0340Y-207.7048
G1X176.2692Y-207.2386
G1X178.2541Y-206.2200
G1X179.1597Y-205.9774
G1X180.2183Y-205.8492
G1X182.6125Y-205.9119
G1X185.2336Y-206.3300
G1X187.8188Y-207.0314
G1X190.7563Y-208.1194
G1 Z0F20000
(Start Block)

G1X183.8138Y-54.9901
G1 Z3.0F20000
G1 F8000

G1X182.8869Y-64.8780
G1X179.1425Y-75.4859
G1X130.9901Y-53.2974
G1X136.6401Y-34.8356
G1X138.8343Y-31.8002
G1X141.3205Y-29.1346
G1X144.6591Y-26.4478
G1X150.2149Y-23.6356
G1X183.8139Y-56.3161
G1X182.8862Y-66.2045
G1X179.1406Y-76.8123
G1X130.9904Y-54.6155
G1X136.6427Y-36.1543
G1X138.8376Y-33.1189
G1X141.3246Y-30.4535
G1X144.6640Y-27.7673
G1X150.2208Y-24.9564
G1X183.8140Y-57.6480
G1X182.8842Y-67.5367
G1X179.1362Y-78.1437
G1X130.9911Y-55.9275
G1X136.6482Y-37.4682
G1X138.8443Y-34.4333
G1X141.3323Y-31.7687
G1X144.6730Y-29.0838
G1X150.2311Y-26.2756
G1X183.8142Y-58.9861
G1X182.8810Y-68.8748
G1X179.1290Y-79.4800
G1X130.9922Y-57.2336
G1X136.6566Y-38.7774
G1X138.8542Y-35.7436
G1X141.3438Y-33.0803
G1X144.6860Y-30.3975
G1X150.2458Y-27.5931
G1X183.8146Y-60.3301
G1X182.8766Y-70.2187
G1X179.1193Y-80.8213
G1X130.9936Y-58.5337
G1X136.6679Y-40.0819
G1X138.8675Y-37.0497
G1X141.3590Y-34.3882
G1X144.7031Y-31.7083
G1X150.2650Y-28.9091
G1X183.8150Y-61.6801
G1X182.8710Y-71.5683
G1X179.1069Y-82.1675
G1X130.9955Y-59.8278
G1X136.6820Y-41.3818
G1X138.8840Y-38.3515
G1X141.3777Y-35.6926
G1X144.7242Y-33.0162
G1X150.2887Y-30.2234
G1X183.8154Y-63.0361
G1X182.8641Y-72.9236
G1X179.0918Y-83.5185
G1X130.9977Y-61.1160
G1X136.6990Y-42.6770
G1X138.9039Y-39.6493
G1X141.4002Y-36.9934
G1X144.7494Y-34.3214
G1X150.3166Y-31.5363
G1X183.8159Y-64.3979
G1X182.8560Y-74.2846
G1X179.0743Y-84.8744
G1X131.0004Y-62.3984
G1X136.7189Y-43.9677
G1X138.9270Y-40.9431
G1X141.4262Y-38.2908
G1X144.7785Y-35.6239
G1X150.3490Y-32.8476
G1X183.8164Y-65.7656
G1X182.8466Y-75.6512
G1X179.0540Y-86.2349
G1X131.0035Y-63.6750
G1X136.7415Y-45.2540
G1X138.9533Y-42.2328
G1X141.4559Y-39.5847
G1X144.8115Y-36.9236
G1X150.3856Y-34.1575
G1X183.8170Y-67.1390
G1X182.8360Y-77.0233
G1X179.0313Y-87.6002
G1X131.0071Y-64.9459
G1X136.7670Y-46.5357
G1X138.9828Y-43.5186
G1X141.4890Y-40.8752
G1X144.8484Y-38.2207
G1X150.4265Y-35.4660
G1X183.8175Y-68.5181
G1X182.8242Y-78.4009
G1X179.0059Y-88.9700
G1X131.0110Y-66.2112
G1X136.7953Y-47.8132
G1X139.0155Y-44.8006
G1X141.5257Y-42.1624
G1X144.8892Y-39.5152
G1X150.4715Y-36.7730
G1X183.8180Y-69.9028
G1X182.8111Y-79.7838
G1X178.9781Y-90.3444
G1X131.0155Y-67.4709
G1X136.8263Y-49.0864
G1X139.0513Y-46.0788
G1X141.5659Y-43.4464
G1X144.9337Y-40.8072
G1X150.5207Y-38.0787
G1X183.8185Y-71.2930
G1X182.7968Y-81.1720
G1X178.9477Y-91.7231
G1X131.0204Y-68.7252
G1X136.8600Y-50.3554
G1X139.0902Y-47.3533
G1X141.6094Y-44.7273
G1X144.9821Y-42.0968
G1X150.5740Y-39.3832
G1X183.8189Y-72.6886
G1X182.7813Y-82.5653
G1X178.9148Y-93.1062
G1X131.0259Y-69.9742
G1X136.8964Y-51.6204
G1X139.1321Y-48.6243
G1X141.6564Y-46.0051
G1X145.0340Y-43.3841
G1X150.6312Y-40.6865
G1X183.8192Y-74.0896
G1X182.7644Y-83.9636
G1X178.8795Y-94.4934
G1X131.0318Y-71.2179
G1X136.9355Y-52.8815
G1X139.1772Y-49.8917
G1X141.7066Y-47.2800
G1X145.0896Y-44.6690
G1X150.6923Y-41.9886
G1X183.8193Y-75.4956
G1X182.7464Y-85.3668
G1X178.8418Y-95.8848
G1X131.0384Y-72.4565
G1X136.9773Y-54.1387
G1X139.2251Y-51.1558
G1X141.7601Y-48.5519
G1X145.1487Y-45.9519
G1X150.7572Y-43.2897
G1X183.8193Y-76.9068
G1X182.7271Y-86.7748
G1X178.8017Y-97.2800
G1X131.0454Y-73.6902
G1X137.0216Y-55.3922
G1X139.2759Y-52.4167
G1X141.8168Y-49.8212
G1X145.2113Y-47.2326
G1X150.8259Y-44.5897
G1X183.8192Y-78.3228
G1X182.7065Y-88.1874
G1X178.7592Y-98.6791
G1X131.0531Y-74.9191
G1X137.0684Y-56.6421
G1X139.3297Y-53.6744
G1X141.8767Y-51.0878
G1X145.2773Y-48.5113
G1X150.8982Y-45.8888
G1X183.8187Y-79.7437
G1X182.6847Y-89.6046
G1X178.7143Y-100.0819
G1X131.0613Y-76.1433
G1X137.1177Y-57.8886
G1X139.3862Y-54.9291
G1X141.9396Y-52.3519
G1X145.3466Y-49.7881
G1X150.9741Y-47.1870
G1X183.8181Y-81.1691
G1X182.6616Y-91.0260
G1X178.6672Y-101.4882
G1X131.0702Y-77.3629
G1X137.1695Y-59.1318
G1X139.4454Y-56.1809
G1X142.0054Y-53.6136
G1X145.4191Y-51.0632
G1X151.0533Y-48.4845
G1X183.8171Y-82.5990
G1X182.6373Y-92.4517
G1X178.6179Y-102.8979
G1X131.0797Y-78.5782
G1X137.2237Y-60.3718
G1X139.5073Y-57.4300
G1X142.0742Y-54.8731
G1X145.4947Y-52.3366
G1X151.1359Y-49.7812
G1X183.8159Y-84.0333
G1X182.6117Y-93.8813
G1X178.5664Y-104.3109
G1X131.0898Y-79.7893
G1X137.2802Y-61.6088
G1X139.5718Y-58.6765
G1X142.1458Y-56.1303
G1X145.5734Y-53.6084
G1X151.2217Y-51.0773
G1X183.8143Y-85.4717
G1X182.5850Y-95.3148
G1X178.5128Y-105.7269
G1X131.1006Y-80.9963
G1X137.3390Y-62.8429
G1X139.6389Y-59.9205
G1X142.2201Y-57.3856
G1X145.6549Y-54.8788
G1X151.3106Y-52.3729
G1X183.8124Y-86.9141
G1X182.5570Y-96.7520
G1X178.4571Y-107.1459
G1X131.1121Y-82.1994
G1X137.4000Y-64.0744
G1X139.7084Y-61.1623
G1X142.2970Y-58.6389
G1X145.7394Y-56.1478
G1X151.4024Y-53.6680
G1X183.8100Y-88.3604
G1X182.5278Y-98.1926
G1X178.3993Y-108.5676
G1X131.1243Y-83.3989
G1X137.4632Y-65.3033
G1X139.7802Y-62.4018
G1X142.3765Y-59.8906
G1X145.8264Y-57.4157
G1X151.4971Y-54.9627
G1X183.8072Y-89.8102
G1X182.4974Y-99.6366
G1X178.3396Y-109.9919
G1X131.1372Y-84.5949
G1X137.5284Y-66.5298
G1X139.8543Y-63.6394
G1X142.4585Y-61.1406
G1X145.9161Y-58.6824
G1X151.5945Y-56.2571
G1X183.8040Y-91.2635
G1X182.4658Y-101.0837
G1X178.2780Y-111.4187
G1X131.1509Y-85.7875
G1X137.5957Y-67.7541
G1X139.9307Y-64.8750
G1X142.5428Y-62.3891
G1X146.0083Y-59.9481
G1X151.6945Y-57.5512
G1X183.8003Y-92.7201
G1X182.4330Y-102.5338
G1X178.2145Y-112.8477
G1X131.1652Y-86.9771
G1X137.6649Y-68.9763
G1X140.0091Y-66.1090
G1X142.6293Y-63.6363
G1X146.1029Y-61.2129
G1X151.7969Y-58.8453
G1X183.7961Y-94.1798
G1 Z0F20000
(Start Block)

G1X78.9059Y-56.4321
G1 Z3.0F20000
G1 F8000

G1X72.7943Y-77.8238
G1X65.0054Y-86.2385
G1X36.9499Y-83.9638
G1X35.0569Y-82.1393
G1X26.5362Y-63.2753
G1X25.9954Y-56.5261
G1X26.1578Y-52.8151
G1X49.3217Y-22.5991
G1X51.3187Y-22.5213
G1X78.9059Y-57.7580
G1X72.7925Y-79.1495
G1X65.0025Y-87.5634
G1X36.9469Y-85.2839
G1X35.0538Y-83.4586
G1X26.5352Y-64.5923
G1X25.9953Y-57.8424
G1X26.1584Y-54.1308
G1X49.3278Y-23.9211
G1X51.3252Y-23.8438
G1X78.9058Y-59.0900
G1X72.7877Y-80.4799
G1X64.9956Y-88.8912
G1X36.9401Y-86.6004
G1X35.0471Y-84.7740
G1X26.5334Y-65.9034
G1X25.9953Y-59.1526
G1X26.1595Y-55.4405
G1X49.3384Y-25.2424
G1X51.3364Y-25.1661
G1X78.9055Y-60.4281
G1X72.7800Y-81.8148
G1X64.9845Y-90.2219
G1X36.9295Y-87.9134
G1X35.0370Y-86.0854
G1X26.5306Y-67.2085
G1X25.9953Y-60.4568
G1X26.1612Y-56.7443
G1X49.3536Y-26.5630
G1X51.3522Y-26.4882
G1X78.9051Y-61.7721
G1X72.7693Y-83.1545
G1X64.9694Y-91.5553
G1X36.9153Y-89.2229
G1X35.0234Y-87.3928
G1X26.5269Y-68.5078
G1X25.9953Y-61.7550
G1X26.1634Y-58.0420
G1X49.3734Y-27.8829
G1X51.3725Y-27.8100
G1X78.9046Y-63.1221
G1X72.7556Y-84.4986
G1X64.9502Y-92.8916
G1X36.8973Y-90.5288
G1X35.0063Y-88.6963
G1X26.5223Y-69.8012
G1X25.9954Y-63.0473
G1X26.1661Y-59.3339
G1X49.3977Y-29.2021
G1X51.3975Y-29.1316
G1X78.9040Y-64.4781
G1X72.7390Y-85.8473
G1X64.9270Y-94.2307
G1X36.8756Y-91.8312
G1X34.9858Y-89.9958
G1X26.5168Y-71.0889
G1X25.9954Y-64.3336
G1X26.1693Y-60.6199
G1X49.4266Y-30.5207
G1X51.4269Y-30.4530
G1X78.9033Y-65.8399
G1X72.7195Y-87.2005
G1X64.8998Y-95.5725
G1X36.8503Y-93.1302
G1X34.9620Y-91.2915
G1X26.5104Y-72.3708
G1X25.9955Y-65.6141
G1X26.1732Y-61.9000
G1X49.4599Y-31.8386
G1X51.4609Y-31.7742
G1X78.9024Y-67.2075
G1X72.6971Y-88.5582
G1X64.8686Y-96.9170
G1X36.8215Y-94.4256
G1X34.9349Y-92.5833
G1X26.5033Y-73.6470
G1X25.9957Y-66.8888
G1X26.1775Y-63.1745
G1X49.4976Y-33.1560
G1X51.4993Y-33.0953
G1X78.9013Y-68.5810
G1X72.6717Y-89.9201
G1X64.8335Y-98.2641
G1X36.7891Y-95.7177
G1X34.9044Y-93.8712
G1X26.4953Y-74.9175
G1X25.9960Y-68.1578
G1X26.1825Y-64.4433
G1X49.5397Y-34.4728
G1X51.5421Y-34.4163
G1X78.9000Y-69.9601
G1X72.6436Y-91.2864
G1X64.7945Y-99.6138
G1X36.7532Y-97.0063
G1X34.8708Y-95.1553
G1X26.4866Y-76.1826
G1X25.9963Y-69.4211
G1X26.1880Y-65.7065
G1X49.5861Y-35.7891
G1X51.5891Y-35.7371
G1X78.8986Y-71.3447
G1X72.6125Y-92.6569
G1X64.7517Y-100.9660
G1X36.7139Y-98.2915
G1X34.8341Y-96.4356
G1X26.4771Y-77.4421
G1X25.9968Y-70.6790
G1X26.1941Y-66.9643
G1X49.6368Y-37.1049
G1X51.6405Y-37.0579
G1X78.8968Y-72.7349
G1X72.5787Y-94.0314
G1X64.7051Y-102.3206
G1X36.6713Y-99.5733
G1X34.7942Y-97.7122
G1X26.4669Y-78.6963
G1X25.9974Y-71.9313
G1X26.2009Y-68.2166
G1X49.6916Y-38.4202
G1X51.6960Y-38.3787
G1X78.8949Y-74.1305
G1X72.5421Y-95.4100
G1X64.6548Y-103.6776
G1X36.6255Y-100.8519
G1X34.7514Y-98.9851
G1X26.4560Y-79.9451
G1X25.9982Y-73.1783
G1X26.2083Y-69.4637
G1X49.7504Y-39.7352
G1X51.7555Y-39.6995
G1X78.8927Y-75.5313
G1X72.5027Y-96.7925
G1X64.6008Y-105.0369
G1X36.5765Y-102.1271
G1X34.7057Y-100.2544
G1X26.4446Y-81.1888
G1X25.9992Y-74.4202
G1X26.2163Y-70.7057
G1X49.8133Y-41.0498
G1X51.8191Y-41.0203
G1X78.8901Y-76.9374
G1X72.4607Y-98.1787
G1X64.5432Y-106.3984
G1X36.5245Y-103.3991
G1X34.6571Y-101.5201
G1X26.4326Y-82.4275
G1X26.0004Y-75.6569
G1X26.2250Y-71.9427
G1X49.8800Y-42.3642
G1X51.8865Y-42.3413
G1X78.8873Y-78.3484
G1X72.4159Y-99.5686
G1X64.4821Y-107.7620
G1X36.4694Y-104.6680
G1X34.6059Y-102.7823
G1X26.4201Y-83.6612
G1X26.0019Y-76.8886
G1X26.2344Y-73.1747
G1X49.9506Y-43.6783
G1X51.9578Y-43.6623
G1X78.8841Y-79.7644
G1X72.3686Y-100.9621
G1X64.4176Y-109.1276
G1X36.4115Y-105.9336
G1X34.5519Y-104.0410
G1X26.4070Y-84.8901
G1X26.0037Y-78.1156
G1X26.2444Y-74.4020
G1X50.0249Y-44.9921
G1X52.0327Y-44.9836
G1X78.8805Y-81.1851
G1X72.3187Y-102.3590
G1X64.3497Y-110.4951
G1X36.3508Y-107.1962
G1X34.4955Y-105.2963
G1X26.3936Y-86.1143
G1X26.0057Y-79.3378
G1X26.2552Y-75.6248
G1X50.1027Y-46.3059
G1X52.1113Y-46.3050
G1X78.8766Y-82.6104
G1X72.2663Y-103.7591
G1X64.2786Y-111.8644
G1X36.2875Y-108.4558
G1X34.4366Y-106.5482
G1X26.3798Y-87.3340
G1X26.0081Y-80.5555
G1X26.2667Y-76.8430
G1X50.1841Y-47.6195
G1X52.1932Y-47.6267
G1X78.8722Y-84.0402
G1X72.2114Y-105.1624
G1X64.2043Y-113.2354
G1X36.2216Y-109.7124
G1X34.3754Y-107.7969
G1X26.3656Y-88.5492
G1X26.0109Y-81.7689
G1X26.2789Y-78.0570
G1X50.2688Y-48.9331
G1X52.2786Y-48.9487
G1X78.8673Y-85.4743
G1X72.1541Y-106.5687
G1X64.1269Y-114.6079
G1X36.1532Y-110.9660
G1X34.3120Y-109.0425
G1X26.3512Y-89.7602
G1X26.0140Y-82.9780
G1X26.2919Y-79.2669
G1X50.3567Y-50.2468
G1X52.3671Y-50.2710
G1X78.8620Y-86.9125
G1X72.0944Y-107.9778
G1X64.0465Y-115.9820
G1X36.0826Y-112.2169
G1X34.2465Y-110.2850
G1X26.3366Y-90.9672
G1X26.0176Y-84.1830
G1X26.3056Y-80.4728
G1X50.4478Y-51.5605
G1X52.4588Y-51.5938
G1X78.8562Y-88.3547
G1X72.0325Y-109.3896
G1X63.9633Y-117.3574
G1X36.0098Y-113.4650
G1X34.1791Y-111.5244
G1X26.3218Y-92.1702
G1X26.0216Y-85.3842
G1X26.3201Y-81.6750
G1X50.5418Y-52.8743
G1X52.5533Y-52.9169
G1X78.8499Y-89.8007
G1X71.9684Y-110.8039
G1X63.8773Y-118.7341
G1X35.9349Y-114.7104
G1X34.1098Y-112.7609
G1X26.3069Y-93.3694
G1X26.0260Y-86.5817
G1X26.3354Y-82.8736
G1X50.6387Y-54.1883
G1X52.6508Y-54.2406
G1X78.8430Y-91.2503
G1X71.9021Y-112.2206
G1X63.7886Y-120.1120
G1X35.8580Y-115.9531
G1X34.0387Y-113.9947
G1X26.2919Y-94.5650
G1X26.0310Y-87.7757
G1X26.3515Y-84.0688
G1X50.7383Y-55.5026
G1X52.7509Y-55.5647
G1X78.8356Y-92.7034
G1X71.8337Y-113.6395
G1X63.6973Y-121.4908
G1X35.7794Y-117.1934
G1X33.9661Y-115.2257
G1X26.2769Y-95.7573
G1X26.0365Y-88.9664
G1X26.3684Y-85.2607
G1X50.8405Y-56.8171
G1X52.8535Y-56.8894
G1X78.8276Y-94.1596
G1X71.7634Y-115.0604
G1X63.6037Y-122.8706
G1X35.6991Y-118.4312
G1X33.8919Y-116.4540
G1X26.2620Y-96.9462
G1X26.0425Y-90.1539
G1X26.3861Y-86.4497
G1X50.9452Y-58.1320
G1X52.9585Y-58.2146
G1X78.8189Y-95.6189
G1 Z0F20000
(Start Block)

G1X26.4583Y-148.4313
G1 Z3.0F20000
G1 F8000

G1X183.3563Y-148.4313
G1 Z0F20000
(Start Block)

G1X16.8557Y-187.0680
G1 Z3.0F20000
G1 F8000

G1X18.9040Y-187.0540
G1X21.1874Y-187.2468
G1X23.1554Y-187.5933
G1X25.0696Y-188.1300
G1X26.4556Y-188.6657
G1X27.8557Y-189.3512
G1X29.2123Y-190.1594
G1X31.3342Y-191.5756
G1X32.9570Y-192.4559
G1X34.6654Y-193.1747
G1X36.2973Y-193.6195
G1X38.0224Y-193.8764
G1X40.0931Y-193.9967
G1X48.6605Y-193.8923
G1X50.0348Y-194.0126
G1X51.8466Y-194.3147
G1X53.1134Y-194.3958
G1X54.8205Y-194.3726
G1X56.7241Y-194.2223
G1X58.6060Y-193.9596
G1X60.5457Y-193.5681
G1X63.7367Y-192.6496
G1X68.9072Y-190.7406
G1X70.7309Y-190.2751
G1X72.0979Y-190.1428
G1X74.5512Y-190.2654
G1X76.6165Y-190.1539
G1X78.7484Y-189.8502
G1X83.3917Y-188.9880
G1X85.5397Y-188.6976
G1 Z0F20000
(Start Block)

G1X18.0336Y-194.6549
G1 Z3.0F20000
G1 F8000

G1X19.5735Y-194.6141
G1X21.1985Y-194.7664
G1X22.8742Y-195.0934
G1X24.4602Y-195.5637
G1X25.7401Y-196.0693
G1X26.9645Y-196.6693
G1X28.2315Y-197.4162
G1X30.9257Y-199.1956
G1X34.4330Y-200.9236
G1X35.3068Y-201.2568
G1X36.2162Y-201.4900
G1X38.3853Y-201.7187
G1X41.0929Y-201.7309
G1X43.9746Y-201.5887
G1X50.6165Y-200.8147
G1X52.5647Y-200.6565
G1X60.1057Y-200.4393
G1X63.4439Y-200.2333
G1X65.9126Y-199.9583
G1X68.3055Y-199.5761
G1X70.6893Y-199.0792
G1X74.1489Y-198.2226
G1X76.2555Y-197.8733
G1X79.0007Y-197.6607
G1X86.1692Y-197.4524
G1 Z0F20000
(Start Block)

G1X18.0827Y-195.8442
G1 Z3.0F20000
G1 F8000

G1X19.5046Y-195.7862
G1X21.2144Y-195.9278
G1X22.8733Y-196.2389
G1X24.5462Y-196.7241
G1X25.8188Y-197.2189
G1X27.0382Y-197.8040
G1X30.8709Y-200.1608
G1X34.7284Y-202.0552
G1X36.3333Y-202.5763
G1X38.4111Y-202.8168
G1X41.2638Y-202.8201
G1X44.3187Y-202.6154
G1X46.9617Y-202.2732
G1X51.4352Y-201.5065
G1X53.6888Y-201.2783
G1X56.0828Y-201.2120
G1X62.5134Y-201.2929
G1X66.2213Y-201.0869
G1X69.5520Y-200.6025
G1X71.3954Y-200.1911
G1X74.4482Y-199.3557
G1X76.9177Y-198.9957
G1X79.3501Y-198.9159
G1X86.1821Y-199.0211
G1 Z0F20000
(Start Block)

G1X18.0624Y-196.9729
G1 Z3.0F20000
G1 F8000

G1X19.5671Y-196.9019
G1X21.2584Y-197.0345
G1X22.9502Y-197.3407
G1X24.6734Y-197.8281
G1X27.1722Y-198.8814
G1X30.8759Y-201.0493
G1X35.1974Y-203.1558
G1X36.7525Y-203.6436
G1X38.6546Y-203.8662
G1X41.5528Y-203.8503
G1X44.6583Y-203.5686
G1X47.3291Y-203.1185
G1X52.0179Y-202.0768
G1X54.2412Y-201.8017
G1X56.8628Y-201.7850
G1X63.5865Y-202.2132
G1X65.5458Y-202.2015
G1X67.4035Y-202.0781
G1X70.2950Y-201.6353
G1X71.8161Y-201.2612
G1X74.4518Y-200.4656
G1X76.6862Y-200.1324
G1X79.2342Y-200.1171
G1X84.0788Y-200.4843
G1X86.1552Y-200.5610
G1 Z0F20000
(Start Block)

G1X19.2243Y-213.5685
G1 Z3.0F20000
G1 F8000

G1X21.4216Y-213.5601
G1X23.5333Y-213.3392
G1X25.4346Y-212.9700
G1X29.3249Y-212.0102
G1X31.5711Y-211.6594
G1X34.1696Y-211.4608
G1X36.8663Y-211.4709
G1X40.0213Y-211.7217
G1X43.1842Y-212.2411
G1X45.5178Y-212.8062
G1X50.2817Y-214.2517
G1X52.0225Y-214.6627
G1X54.5665Y-214.9569
G1X56.6511Y-215.0196
G1X59.0793Y-214.8070
G1X61.4497Y-214.2550
G1X63.7340Y-213.3725
G1X67.4176Y-211.5033
G1X68.3853Y-211.1899
G1X69.5343Y-211.0087
G1X73.9794Y-210.9130
G1X78.4793Y-211.0956
G1X81.9297Y-211.5387
G1X85.2043Y-212.3189
G1 Z0F20000
(Start Block)

G1X19.4563Y-215.7323
G1 Z3.0F20000
G1 F8000

G1X21.5458Y-215.7861
G1X23.7132Y-215.5088
G1X25.8884Y-214.9004
G1X29.0609Y-213.6411
G1X30.2479Y-213.2449
G1X32.7916Y-212.7036
G1X35.2118Y-212.4765
G1X36.9931Y-212.4650
G1X38.9637Y-212.5658
G1X40.8407Y-212.7676
G1X42.5693Y-213.0528
G1X44.2556Y-213.4319
G1X46.0220Y-213.9410
G1X50.6150Y-215.6339
G1X51.9350Y-216.0455
G1X54.2067Y-216.4547
G1X56.3912Y-216.6171
G1X57.7691Y-216.5751
G1X59.0730Y-216.4238
G1X60.3737Y-216.1612
G1X61.6500Y-215.7912
G1X63.9646Y-214.8215
G1X67.6107Y-212.7802
G1X68.5855Y-212.4280
G1X69.5501Y-212.2483
G1X73.6163Y-212.0900
G1X78.3797Y-212.2084
G1X81.7969Y-212.5559
G1X84.9429Y-213.1846
G1 Z0F20000
(Start Block)

G1X19.4171Y-217.9748
G1 Z3.0F20000
G1 F8000

G1X20.5547Y-218.0856
G1X21.7825Y-218.0680
G1X23.0001Y-217.9166
G1X24.2253Y-217.6369
G1X26.4952Y-216.7966
G1X29.6920Y-215.0989
G1X30.7458Y-214.6344
G1X33.2217Y-213.8589
G1X34.2879Y-213.6616
G1X35.5146Y-213.5434
G1X37.3809Y-213.5117
G1X39.3898Y-213.6124
G1X41.3167Y-213.8306
G1X43.1438Y-214.1614
G1X44.8997Y-214.6092
G1X46.6199Y-215.1818
G1X50.9369Y-217.0473
G1X52.1294Y-217.4869
G1X54.6140Y-218.0286
G1X56.7778Y-218.2057
G1X58.0955Y-218.1580
G1X59.4188Y-217.9907
G1X60.7491Y-217.7022
G1X62.0611Y-217.2971
G1X64.3990Y-216.2631
G1X68.0400Y-214.1256
G1X68.9416Y-213.7715
G1X69.8349Y-213.5740
G1X73.8699Y-213.3298
G1X78.0585Y-213.3514
G1X81.6469Y-213.6203
G1X84.7203Y-214.1286
G1 Z0F20000
(Start Block)

G1X19.0848Y-220.1808
G1 Z3.0F20000
G1 F8000

G1X20.3997Y-220.3321
G1X21.7097Y-220.2943
G1X23.1000Y-220.0828
G1X24.5783Y-219.6839
G1X25.7337Y-219.2491
G1X26.9382Y-218.6769
G1X30.5444Y-216.4353
G1X32.6414Y-215.4319
G1X34.1574Y-214.8930
G1X35.8568Y-214.6355
G1X37.7193Y-214.5916
G1X39.8900Y-214.7053
G1X41.7977Y-214.9386
G1X43.6933Y-215.3156
G1X45.4316Y-215.8102
G1X47.0557Y-216.4152
G1X51.2408Y-218.4618
G1X52.3062Y-218.8997
G1X54.7624Y-219.5356
G1X55.9851Y-219.7049
G1X57.1240Y-219.7626
G1X58.3802Y-219.7169
G1X59.7224Y-219.5472
G1X61.0847Y-219.2511
G1X62.4384Y-218.8328
G1X64.8841Y-217.7508
G1X68.6335Y-215.5679
G1X69.5063Y-215.2204
G1X70.3474Y-215.0190
G1X74.7755Y-214.6383
G1X77.8365Y-214.5587
G1X81.3501Y-214.7194
G1X84.5586Y-215.1452
G1 Z0F20000
(Start Block)

G1X18.7937Y-211.5681
G1 Z3.0F20000
G1 F8000

G1X22.9512Y-211.3857
G1X31.0064Y-210.5234
G1X33.5551Y-210.4413
G1X36.1417Y-210.5039
G1X39.1956Y-210.7548
G1X42.1280Y-211.1788
G1X44.7660Y-211.7084
G1X49.6344Y-212.8623
G1X51.2850Y-213.1671
G1X53.4967Y-213.3647
G1X55.9375Y-213.4472
G1X58.5836Y-213.2947
G1X61.1532Y-212.8117
G1X63.5286Y-212.0296
G1X67.5958Y-210.2548
G1X68.7048Y-209.9638
G1X69.9159Y-209.8181
G1X74.6449Y-209.7830
G1X78.7197Y-210.0385
G1X82.1303Y-210.5919
G1X83.8316Y-211.0183
G1X85.4776Y-211.5332
G1 Z0F20000
(Start Block)

G1X18.2614Y-209.7704
G1 Z3.0F20000
G1 F8000

G1X30.4780Y-209.4150
G1X34.2364Y-209.4956
G1X36.9625Y-209.7115
G1X39.7615Y-210.0512
G1X47.6576Y-211.3992
G1X50.0354Y-211.7317
G1X52.0522Y-211.8738
G1X56.2276Y-211.9053
G1X59.0823Y-211.7197
G1X61.7188Y-211.2536
G1X63.9546Y-210.5985
G1X67.6118Y-209.2232
G1X68.9890Y-208.8593
G1X70.7171Y-208.6643
G1X73.4085Y-208.6420
G1X76.9755Y-208.8135
G1X80.0190Y-209.2083
G1X82.9043Y-209.8709
G1X85.7341Y-210.8225
G1 Z0F20000
(Start Block)

G1X17.7229Y-208.1718
G1 Z3.0F20000
G1 F8000

G1X20.2497Y-208.0796
G1X22.9583Y-208.0873
G1X32.3716Y-208.4512
G1X36.3657Y-208.8800
G1X45.6772Y-210.2676
G1X48.3252Y-210.4952
G1X50.8549Y-210.5535
G1X57.6430Y-210.3880
G1X60.5757Y-210.1480
G1X62.2084Y-209.8865
G1X63.8728Y-209.5107
G1X68.2722Y-208.1462
G1X69.6883Y-207.7885
G1X71.2657Y-207.5874
G1X73.7473Y-207.5759
G1X77.0735Y-207.8029
G1X80.1116Y-208.2900
G1X82.9444Y-209.0454
G1X85.9469Y-210.1720
G1 Z0F20000
(Start Block)

G1X18.5027Y-222.2357
G1 Z3.0F20000
G1 F8000

G1X19.9744Y-222.4036
G1X21.6073Y-222.3188
G1X23.3817Y-221.9948
G1X25.1183Y-221.4616
G1X26.4357Y-220.9039
G1X27.7678Y-220.1911
G1X30.8854Y-218.0610
G1X33.6602Y-216.4323
G1X34.7698Y-215.9911
G1X36.0982Y-215.7570
G1X37.9015Y-215.6941
G1X40.1319Y-215.8033
G1X42.1317Y-216.0529
G1X44.0356Y-216.4512
G1X45.7084Y-216.9555
G1X47.4145Y-217.6391
G1X48.8628Y-218.3573
G1X51.4339Y-219.7918
G1X52.5686Y-220.2887
G1X53.9362Y-220.7362
G1X55.1143Y-221.0232
G1X56.3161Y-221.2028
G1X57.4460Y-221.2668
G1X58.7388Y-221.2242
G1X60.0980Y-221.0568
G1X61.4891Y-220.7630
G1X62.8816Y-220.3464
G1X65.3287Y-219.3119
G1X69.1723Y-217.2000
G1X70.0179Y-216.8602
G1X70.9132Y-216.6308
G1X76.1697Y-215.9831
G1X78.2641Y-215.8438
G1X81.4612Y-215.9029
G1X84.4738Y-216.2288
G1 Z0F20000
(Start Block)

G1X17.7727Y-224.0607
G1 Z3.0F20000
G1 F8000

G1X19.3976Y-224.2149
G1X21.4829Y-224.0784
G1X23.5367Y-223.6955
G1X25.5556Y-223.0641
G1X27.0342Y-222.4126
G1X28.4939Y-221.5885
G1X34.4135Y-217.4843
G1X35.3665Y-217.0832
G1X36.4603Y-216.8813
G1X38.3260Y-216.8154
G1X40.5230Y-216.9306
G1X42.5007Y-217.1890
G1X44.3894Y-217.6029
G1X45.9915Y-218.1083
G1X47.5325Y-218.7469
G1X49.0202Y-219.5134
G1X51.7201Y-221.0992
G1X53.2729Y-221.7691
G1X54.5266Y-222.1925
G1X55.6803Y-222.4753
G1X56.8685Y-222.6475
G1X57.9957Y-222.7048
G1X59.2955Y-222.6569
G1X60.6709Y-222.4879
G1X61.9764Y-222.2233
G1X63.3593Y-221.8357
G1X65.7293Y-220.9186
G1X69.6933Y-218.9649
G1X71.3618Y-218.4322
G1X73.6078Y-218.1749
G1X77.0519Y-217.4366
G1X78.8707Y-217.1922
G1X81.6237Y-217.1376
G1X84.4752Y-217.3763
G1 Z0F20000
(Start Block)

G1X17.0301Y-225.6360
G1 Z3.0F20000
G1 F8000

G1X19.0281Y-225.7508
G1X21.6747Y-225.5572
G1X24.0052Y-225.1188
G1X26.0597Y-224.4656
G1X27.7282Y-223.7076
G1X29.3386Y-222.7557
G1X32.4785Y-220.5979
G1X35.0144Y-218.5587
G1X35.8307Y-218.1999
G1X36.8280Y-218.0090
G1X38.6674Y-217.9432
G1X40.8858Y-218.0632
G1X42.9257Y-218.3403
G1X44.7413Y-218.7537
G1X46.2612Y-219.2446
G1X47.8157Y-219.9031
G1X49.2516Y-220.6585
G1X52.0122Y-222.3006
G1X54.0100Y-223.1640
G1X55.1343Y-223.5497
G1X56.2692Y-223.8317
G1X57.4448Y-224.0034
G1X58.5662Y-224.0629
G1X60.9228Y-223.9127
G1X63.3820Y-223.4232
G1X65.8765Y-222.6157
G1X69.5421Y-221.0580
G1X70.8107Y-220.5939
G1X71.9842Y-220.3183
G1X73.4340Y-220.1870
G1X74.3952Y-220.0156
G1X78.7697Y-218.7362
G1X80.0812Y-218.5278
G1X81.4610Y-218.4400
G1X82.9993Y-218.4621
G1X84.5652Y-218.5899
G1 Z0F20000
(Start Block)

G1X17.2545Y-206.7404
G1 Z3.0F20000
G1 F8000

G1X19.8633Y-206.6565
G1X22.7980Y-206.7324
G1X31.4392Y-207.4529
G1X34.6013Y-207.8841
G1X42.2472Y-209.2659
G1X44.4919Y-209.5055
G1X46.7257Y-209.5851
G1X49.2529Y-209.4885
G1X53.5456Y-209.1005
G1X59.2952Y-208.9832
G1X61.9989Y-208.7912
G1X63.7393Y-208.5479
G1X65.4045Y-208.2139
G1X71.0810Y-206.6927
G1X72.3722Y-206.5761
G1X74.1146Y-206.5919
G1X77.1443Y-206.8624
G1X80.1345Y-207.4311
G1X82.9761Y-208.2885
G1X86.0958Y-209.5577
G1 Z0F20000
(Start Block)

G1X17.9589Y-198.0321
G1 Z3.0F20000
G1 F8000

G1X19.4398Y-197.9473
G1X21.2153Y-198.0673
G1X23.0204Y-198.3749
G1X24.8337Y-198.8685
G1X27.3607Y-199.8941
G1X30.9417Y-201.8631
G1X32.7651Y-202.6726
G1X35.6498Y-204.1365
G1X37.1631Y-204.6165
G1X38.8909Y-204.8388
G1X41.7096Y-204.8168
G1X44.8413Y-204.4615
G1X47.6203Y-203.8788
G1X52.4126Y-202.5535
G1X54.6897Y-202.2375
G1X57.2092Y-202.2831
G1X63.0827Y-203.0046
G1X66.0225Y-203.1471
G1X67.9913Y-203.0493
G1X69.8964Y-202.7855
G1X71.7329Y-202.3521
G1X74.4627Y-201.4688
G1X76.5701Y-201.1618
G1X79.2343Y-201.2348
G1X84.0491Y-201.8649
G1X86.1021Y-202.0426
G1 Z0F20000
(Start Block)

G1X17.7529Y-199.0209
G1 Z3.0F20000
G1 F8000

G1X19.3057Y-198.9283
G1X21.1694Y-199.0418
G1X23.0947Y-199.3480
G1X25.0168Y-199.8448
G1X27.6890Y-200.8823
G1X30.8890Y-202.5213
G1X32.9003Y-203.3852
G1X36.1624Y-205.0257
G1X37.6426Y-205.4985
G1X39.3004Y-205.7257
G1X42.0336Y-205.6870
G1X45.0459Y-205.2674
G1X47.7555Y-204.5898
G1X52.5828Y-203.0036
G1X53.7039Y-202.7718
G1X54.9046Y-202.6544
G1X56.2939Y-202.6611
G1X57.7876Y-202.7979
G1X64.3641Y-203.8649
G1X67.1934Y-203.9869
G1X68.9323Y-203.8601
G1X70.6196Y-203.5718
G1X72.1107Y-203.1631
G1X73.9720Y-202.4826
G1X74.9634Y-202.2355
G1X76.0976Y-202.0904
G1X77.2541Y-202.0685
G1X79.5312Y-202.2904
G1X84.1370Y-203.1705
G1X86.0443Y-203.4365
G1 Z0F20000
(Start Block)

G1X17.4176Y-199.9509
G1 Z3.0F20000
G1 F8000

G1X19.1059Y-199.8603
G1X21.2067Y-199.9829
G1X23.2373Y-200.2856
G1X25.2141Y-200.7649
G1X26.6646Y-201.2432
G1X28.1538Y-201.8468
G1X31.0785Y-203.2161
G1X33.1400Y-204.0559
G1X36.8184Y-205.8573
G1X38.2732Y-206.3013
G1X39.7410Y-206.5061
G1X42.2619Y-206.4682
G1X45.1273Y-206.0183
G1X47.8479Y-205.2476
G1X52.5315Y-203.5078
G1X53.6315Y-203.2545
G1X54.8949Y-203.1258
G1X56.1699Y-203.1360
G1X57.4864Y-203.2564
G1X64.1823Y-204.4789
G1X65.7578Y-204.6542
G1X67.3478Y-204.7048
G1X69.0666Y-204.5951
G1X70.7209Y-204.3100
G1X72.0671Y-203.9299
G1X73.8642Y-203.2355
G1X74.7993Y-202.9923
G1X75.9374Y-202.8548
G1X77.0960Y-202.8583
G1X79.6194Y-203.2084
G1X84.2429Y-204.3657
G1X86.0073Y-204.7137
G1 Z0F20000
(Start Block)

G1X17.9251Y-193.4186
G1 Z3.0F20000
G1 F8000

G1X19.3711Y-193.3848
G1X21.0145Y-193.5325
G1X22.7159Y-193.8557
G1X24.3214Y-194.3235
G1X25.6194Y-194.8310
G1X26.9547Y-195.4886
G1X28.2301Y-196.2547
G1X30.9128Y-198.0841
G1X34.2141Y-199.7256
G1X35.1654Y-200.0893
G1X36.1032Y-200.3306
G1X38.5862Y-200.5818
G1X43.3562Y-200.5152
G1X50.4104Y-199.9253
G1X57.3700Y-199.6651
G1X61.1115Y-199.3925
G1X63.7501Y-199.0753
G1X66.3013Y-198.6570
G1X73.4527Y-197.0887
G1X75.6602Y-196.7097
G1X78.7627Y-196.3797
G1X86.1124Y-195.8831
G1 Z0F20000
(Start Block)

G1X17.7661Y-192.1513
G1 Z3.0F20000
G1 F8000

G1X19.3224Y-192.1283
G1X20.9807Y-192.2847
G1X22.7012Y-192.6119
G1X24.3357Y-193.0873
G1X25.6565Y-193.6045
G1X27.0119Y-194.2758
G1X28.4160Y-195.1347
G1X31.0262Y-196.9446
G1X34.1561Y-198.5051
G1X35.2024Y-198.8944
G1X36.1887Y-199.1398
G1X37.3625Y-199.3076
G1X38.9145Y-199.4037
G1X43.3173Y-199.3554
G1X49.5554Y-198.9612
G1X55.7285Y-198.8106
G1X59.3450Y-198.5281
G1X61.8993Y-198.1966
G1X64.4032Y-197.7559
G1X71.2394Y-196.1591
G1X73.2695Y-195.7676
G1X77.9458Y-195.1501
G1X86.0170Y-194.3379
G1 Z0F20000
(Start Block)

G1X17.5664Y-190.8691
G1 Z3.0F20000
G1 F8000

G1X19.1220Y-190.8485
G1X20.8994Y-191.0093
G1X22.6393Y-191.3295
G1X24.3077Y-191.8009
G1X25.7808Y-192.3719
G1X27.1398Y-193.0472
G1X28.5744Y-193.9283
G1X31.0703Y-195.6746
G1X34.1547Y-197.2230
G1X35.3392Y-197.6493
G1X36.4692Y-197.9142
G1X37.8046Y-198.0885
G1X39.3644Y-198.1760
G1X42.8534Y-198.1562
G1X49.1807Y-197.8633
G1X54.1392Y-197.8663
G1X58.4301Y-197.5509
G1X60.8910Y-197.2036
G1X63.3726Y-196.7202
G1X70.0566Y-194.9592
G1X71.9835Y-194.5407
G1X85.8954Y-192.8363
G1 Z0F20000
(Start Block)

G1X17.3378Y-189.5871
G1 Z3.0F20000
G1 F8000

G1X18.9926Y-189.5692
G1X20.8880Y-189.7358
G1X22.6413Y-190.0476
G1X24.3051Y-190.5014
G1X25.8348Y-191.0773
G1X27.2470Y-191.7662
G1X28.6180Y-192.5924
G1X31.2282Y-194.3978
G1X34.1930Y-195.8815
G1X35.4316Y-196.3153
G1X36.6097Y-196.5891
G1X38.1066Y-196.7852
G1X39.8107Y-196.8784
G1X42.5483Y-196.8744
G1X48.6705Y-196.6627
G1X53.6198Y-196.7921
G1X57.7883Y-196.4990
G1X60.3068Y-196.1216
G1X62.8504Y-195.5752
G1X65.1217Y-194.9528
G1X69.3847Y-193.6305
G1X71.2929Y-193.1705
G1X72.3972Y-193.0146
G1X74.8208Y-192.8798
G1X76.8832Y-192.6679
G1X85.7640Y-191.3915
G1 Z0F20000
(Start Block)

G1X17.0951Y-188.3173
G1 Z3.0F20000
G1 F8000

G1X18.8415Y-188.2986
G1X20.7406Y-188.4488
G1X22.6146Y-188.7569
G1X24.3930Y-189.2212
G1X25.9579Y-189.7952
G1X27.4427Y-190.5068
G1X28.8309Y-191.3327
G1X31.3943Y-193.0706
G1X32.9409Y-193.8958
G1X34.2507Y-194.4856
G1X35.4423Y-194.8915
G1X36.7879Y-195.1976
G1X38.2812Y-195.3902
G1X40.1082Y-195.4893
G1X48.3102Y-195.3385
G1X49.7427Y-195.3929
G1X51.7540Y-195.5951
G1X53.3058Y-195.6359
G1X55.2386Y-195.5686
G1X57.3183Y-195.3792
G1X59.8642Y-194.9834
G1X62.4451Y-194.3868
G1X64.7371Y-193.6957
G1X69.0065Y-192.2239
G1X70.8837Y-191.7391
G1X72.2566Y-191.5683
G1X74.6881Y-191.5630
G1X76.7491Y-191.3965
G1X85.6402Y-190.0109
G1 Z0F20000
(Start Block)

G1X17.0496Y-200.9082
G1 Z3.0F20000
G1 F8000

G1X18.9461Y-200.8286
G1X21.2219Y-200.9500
G1X23.3512Y-201.2346
G1X25.4799Y-201.7064
G1X27.7838Y-202.4483
G1X32.8704Y-204.4394
G1X37.4431Y-206.5364
G1X38.8251Y-206.9474
G1X40.2956Y-207.1604
G1X42.5847Y-207.1304
G1X45.1675Y-206.7093
G1X47.7644Y-205.9410
G1X52.4456Y-204.1217
G1X53.6731Y-203.8457
G1X54.9233Y-203.7368
G1X57.5183Y-203.8806
G1X64.1624Y-205.0375
G1X65.8790Y-205.2206
G1X67.3786Y-205.2630
G1X69.0809Y-205.1509
G1X70.6928Y-204.8655
G1X72.0818Y-204.4563
G1X73.6993Y-203.8016
G1X74.5696Y-203.5727
G1X75.5775Y-203.4549
G1X76.7734Y-203.4702
G1X78.2132Y-203.6498
G1X79.7735Y-203.9881
G1X84.4902Y-205.4328
G1X86.0168Y-205.8281
G1 Z0F20000
(Start Block)

G1X16.9078Y-205.4333
G1 Z3.0F20000
G1 F8000

G1X18.9168Y-205.3606
G1X21.2012Y-205.4038
G1X23.6112Y-205.5579
G1X25.9658Y-205.8136
G1X32.9438Y-206.8447
G1X40.8727Y-208.6490
G1X42.6881Y-208.8903
G1X44.4816Y-208.9757
G1X47.4749Y-208.7820
G1X52.3850Y-207.9469
G1X53.7234Y-207.8020
G1X55.7838Y-207.7392
G1X61.2472Y-207.7917
G1X64.2995Y-207.6083
G1X65.9301Y-207.3824
G1X67.5922Y-207.0472
G1X71.9713Y-205.8169
G1X73.0533Y-205.7108
G1X74.4641Y-205.7235
G1X77.3421Y-206.0353
G1X80.1667Y-206.6564
G1X82.8823Y-207.5540
G1X86.1715Y-208.9473
G1 Z0F20000
(Start Block)

G1X16.7109Y-204.2122
G1 Z3.0F20000
G1 F8000

G1X18.7862Y-204.1457
G1X21.3380Y-204.2205
G1X23.6755Y-204.4146
G1X25.8931Y-204.7226
G1X32.8640Y-206.1225
G1X39.7263Y-208.1032
G1X41.1245Y-208.3663
G1X42.5030Y-208.5070
G1X44.3564Y-208.5027
G1X46.2741Y-208.2832
G1X48.1582Y-207.8927
G1X52.0602Y-206.8697
G1X53.9320Y-206.5957
G1X56.3990Y-206.5590
G1X62.9489Y-206.8778
G1X64.6780Y-206.8522
G1X66.3716Y-206.7231
G1X67.7979Y-206.5183
G1X69.2719Y-206.2033
G1X72.6795Y-205.1260
G1X74.2165Y-204.9863
G1X76.8185Y-205.1990
G1X79.6657Y-205.8120
G1X82.3790Y-206.7135
G1X86.1783Y-208.3045
G1 Z0F20000
(Start Block)

G1X16.7921Y-201.9485
G1 Z3.0F20000
G1 F8000

G1X18.8738Y-201.8792
G1X21.3429Y-201.9959
G1X23.5384Y-202.2563
G1X25.6724Y-202.6767
G1X27.7801Y-203.2634
G1X32.7768Y-204.9125
G1X38.2488Y-207.1452
G1X39.6140Y-207.5022
G1X41.0311Y-207.6871
G1X43.2713Y-207.6409
G1X45.6292Y-207.2343
G1X47.8980Y-206.5580
G1X52.0494Y-204.9812
G1X52.9203Y-204.7463
G1X53.9168Y-204.5884
G1X55.2850Y-204.5214
G1X56.9140Y-204.5970
G1X63.9402Y-205.5739
G1X65.6832Y-205.7133
G1X67.1890Y-205.7256
G1X68.6907Y-205.6145
G1X70.1762Y-205.3632
G1X71.6175Y-204.9626
G1X73.6769Y-204.1610
G1X74.4157Y-204.0057
G1X75.3057Y-203.9329
G1X77.2563Y-204.0643
G1X79.4217Y-204.5164
G1X81.3574Y-205.1097
G1X86.0693Y-206.7773
G1 Z0F20000
(Start Block)

G1X16.6737Y-203.0529
G1 Z3.0F20000
G1 F8000

G1X18.8481Y-202.9884
G1X21.3732Y-203.0867
G1X23.6039Y-203.3105
G1X25.8035Y-203.6797
G1X32.8414Y-205.4904
G1X38.8805Y-207.6126
G1X40.3189Y-207.9449
G1X41.6648Y-208.1089
G1X43.7384Y-208.0895
G1X45.9012Y-207.7647
G1X47.9572Y-207.2206
G1X51.8814Y-205.9060
G1X53.6240Y-205.5532
G1X54.8669Y-205.4706
G1X56.4316Y-205.4956
G1X63.3712Y-206.1546
G1X65.0395Y-206.2270
G1X66.6550Y-206.1958
G1X68.1321Y-206.0580
G1X69.5726Y-205.8057
G1X71.1568Y-205.3724
G1X73.1752Y-204.6150
G1X74.7648Y-204.4150
G1X76.9919Y-204.5843
G1X79.5007Y-205.1305
G1X81.8772Y-205.9088
G1X86.1345Y-207.5924
G1 Z0F20000
(Start Block)

G1X16.4123Y-227.0012
G1 Z3.0F20000
G1 F8000

G1X19.0043Y-227.0644
G1X21.8934Y-226.8689
G1X24.2724Y-226.4464
G1X26.3441Y-225.8087
G1X27.6662Y-225.2418
G1X28.8896Y-224.5931
G1X32.1474Y-222.4791
G1X33.1618Y-221.7094
G1X34.8420Y-220.1326
G1X35.4683Y-219.6559
G1X36.2649Y-219.3026
G1X37.1824Y-219.1320
G1X39.0055Y-219.0710
G1X41.2300Y-219.1924
G1X43.2353Y-219.4645
G1X45.0663Y-219.8805
G1X46.5955Y-220.3756
G1X48.0626Y-220.9931
G1X49.3578Y-221.6581
G1X52.1271Y-223.2609
G1X54.8794Y-224.4718
G1X57.0123Y-225.0981
G1X58.0712Y-225.2592
G1X59.2956Y-225.3339
G1X61.8427Y-225.1818
G1X64.5618Y-224.6557
G1X66.4970Y-224.0900
G1X71.0990Y-222.5278
G1X72.2233Y-222.2983
G1X73.9294Y-222.1398
G1X75.0247Y-221.8888
G1X78.7671Y-220.4605
G1X80.2029Y-220.0492
G1X82.3253Y-219.7962
G1X84.7386Y-219.8768
G1 Z0F20000
(Start Block)

G1X19.4757Y-241.3984
G1 Z3.0F20000
G1 F8000

G1X21.4231Y-240.9370
G1X23.2484Y-240.7219
G1X24.9887Y-240.7424
G1X26.8057Y-240.9953
G1X28.9009Y-241.5665
G1X31.1331Y-242.4798
G1X32.4796Y-243.1922
G1X34.5646Y-244.6115
G1X35.3674Y-244.9941
G1X36.8702Y-245.2972
G1X39.2066Y-245.3554
G1X41.3670Y-245.2578
G1X43.3885Y-245.0390
G1X45.3068Y-244.6855
G1X47.1064Y-244.2022
G1X49.0637Y-243.5010
G1X53.2089Y-241.7389
G1X57.5143Y-239.5623
G1X58.6873Y-239.1696
G1X59.8242Y-238.9644
G1X61.1585Y-238.9109
G1X62.5273Y-239.0210
G1X64.0043Y-239.2971
G1X65.5302Y-239.7450
G1X66.8403Y-240.2665
G1X68.1821Y-240.9408
G1X72.0970Y-243.3916
G1X72.9401Y-243.7090
G1X73.9901Y-243.8580
G1X75.0262Y-243.8441
G1X76.2193Y-243.7043
G1X78.7625Y-243.0985
G1X80.8504Y-242.3499
G1X84.5454Y-240.7220
G1X86.0077Y-240.1676
G1 Z0F20000
(Start Block)

G1X19.3718Y-241.5832
G1 Z3.0F20000
G1 F8000

G1X21.2145Y-241.1452
G1X23.0062Y-240.9807
G1X24.8788Y-241.0753
G1X26.8823Y-241.4460
G1X29.2947Y-242.2389
G1X31.7816Y-243.4194
G1X33.0020Y-244.2149
G1X34.8076Y-245.7028
G1X35.5473Y-246.1375
G1X36.1563Y-246.3393
G1X36.8339Y-246.4549
G1X38.8709Y-246.5347
G1X41.3294Y-246.4454
G1X43.4769Y-246.2183
G1X45.4173Y-245.8528
G1X47.3568Y-245.3042
G1X49.3850Y-244.5202
G1X53.2575Y-242.7323
G1X57.5448Y-240.1980
G1X58.6252Y-239.7948
G1X59.7230Y-239.5814
G1X61.0462Y-239.5164
G1X62.5754Y-239.6215
G1X64.2457Y-239.9092
G1X65.7994Y-240.3309
G1X67.2338Y-240.8590
G1X68.6101Y-241.4997
G1X72.7456Y-243.8770
G1X73.6642Y-244.1875
G1X74.6425Y-244.3237
G1X76.4683Y-244.2421
G1X78.7379Y-243.7692
G1X80.4617Y-243.2230
G1X84.3704Y-241.7186
G1X85.9756Y-241.2122
G1 Z0F20000
(Start Block)

G1X19.3416Y-241.2553
G1 Z3.0F20000
G1 F8000

G1X21.4177Y-240.8086
G1X23.2330Y-240.5629
G1X24.9087Y-240.5027
G1X26.6350Y-240.6282
G1X28.4393Y-240.9670
G1X30.3684Y-241.5562
G1X31.9389Y-242.1948
G1X34.3874Y-243.4676
G1X35.5234Y-243.8572
G1X36.5107Y-244.0297
G1X37.7628Y-244.1162
G1X40.9452Y-244.0418
G1X43.8959Y-243.6910
G1X46.5689Y-243.0850
G1X49.0471Y-242.2515
G1X57.4696Y-238.8702
G1X59.2688Y-238.4524
G1X61.0325Y-238.3704
G1X63.1390Y-238.6373
G1X65.3187Y-239.2860
G1X66.4428Y-239.7726
G1X67.6157Y-240.3987
G1X70.5550Y-242.3850
G1X71.4381Y-242.8892
G1X72.4839Y-243.2252
G1X73.8757Y-243.2984
G1X75.0746Y-243.2002
G1X76.4348Y-242.9754
G1X79.0805Y-242.2519
G1X81.3294Y-241.3601
G1X86.0420Y-239.1415
G1 Z0F20000
(Start Block)

G1X19.0902Y-241.9085
G1 Z3.0F20000
G1 F8000

G1X20.9626Y-241.5110
G1X22.8723Y-241.4165
G1X24.9948Y-241.6159
G1X27.1665Y-242.1051
G1X29.4896Y-242.9394
G1X32.0447Y-244.2086
G1X33.3350Y-245.1178
G1X35.2012Y-246.8107
G1X35.9264Y-247.2664
G1X37.0686Y-247.5712
G1X38.7889Y-247.6619
G1X41.2812Y-247.5796
G1X43.4329Y-247.3486
G1X45.4927Y-246.9437
G1X47.4384Y-246.3596
G1X49.4609Y-245.5248
G1X53.2265Y-243.6472
G1X54.2694Y-243.0169
G1X56.3921Y-241.4969
G1X57.3495Y-240.9127
G1X58.3398Y-240.5195
G1X59.4544Y-240.3028
G1X60.8517Y-240.2386
G1X62.5512Y-240.3445
G1X64.2194Y-240.5984
G1X65.9247Y-241.0089
G1X67.3426Y-241.4757
G1X68.8130Y-242.0885
G1X73.1550Y-244.3362
G1X74.1336Y-244.6420
G1X75.1382Y-244.7839
G1X76.8042Y-244.7427
G1X78.6647Y-244.4247
G1X80.5158Y-243.9224
G1X84.3329Y-242.6918
G1X85.9544Y-242.2963
G1 Z0F20000
(Start Block)

G1X18.9685Y-241.0472
G1 Z3.0F20000
G1 F8000

G1X21.5656Y-240.5911
G1X23.4378Y-240.3561
G1X25.2058Y-240.2584
G1X26.9270Y-240.3101
G1X28.5934Y-240.5150
G1X30.1834Y-240.8587
G1X31.6105Y-241.2892
G1X34.2254Y-242.2563
G1X35.6714Y-242.6076
G1X37.9407Y-242.8044
G1X40.8071Y-242.7184
G1X43.6973Y-242.3605
G1X46.4370Y-241.7439
G1X48.4205Y-241.1206
G1X51.8583Y-239.8614
G1X57.1346Y-238.1809
G1X58.7939Y-237.8805
G1X60.3792Y-237.8173
G1X62.4325Y-238.0562
G1X64.5228Y-238.6572
G1X65.6342Y-239.1290
G1X66.7719Y-239.7299
G1X69.7629Y-241.7510
G1X70.5690Y-242.1960
G1X71.6561Y-242.5265
G1X73.1913Y-242.5852
G1X74.5738Y-242.4695
G1X76.0523Y-242.2341
G1X77.5883Y-241.8758
G1X79.0285Y-241.4319
G1X81.4709Y-240.4347
G1X86.0723Y-238.1153
G1 Z0F20000
(Start Block)

G1X18.7374Y-242.4413
G1 Z3.0F20000
G1 F8000

G1X20.6784Y-242.1062
G1X22.8258Y-242.0832
G1X25.2080Y-242.3796
G1X27.5601Y-242.9674
G1X29.9696Y-243.8814
G1X32.3698Y-245.0974
G1X33.6747Y-246.0502
G1X35.5646Y-247.7880
G1X36.3206Y-248.2827
G1X37.3743Y-248.6035
G1X38.9775Y-248.7221
G1X41.2457Y-248.6462
G1X43.4922Y-248.3810
G1X45.4398Y-247.9665
G1X47.3540Y-247.3564
G1X49.3912Y-246.4599
G1X53.2081Y-244.4077
G1X56.9201Y-241.7633
G1X57.9288Y-241.3554
G1X58.9918Y-241.1602
G1X60.5555Y-241.0963
G1X62.3528Y-241.1931
G1X64.1326Y-241.4267
G1X65.9023Y-241.8019
G1X67.3803Y-242.2366
G1X68.8223Y-242.7748
G1X73.3764Y-244.8960
G1X74.3522Y-245.1832
G1X75.3771Y-245.3377
G1X76.9148Y-245.3444
G1X78.6256Y-245.1259
G1X83.9779Y-243.8073
G1X85.9545Y-243.4430
G1 Z0F20000
(Start Block)

G1X18.3823Y-243.1453
G1 Z3.0F20000
G1 F8000

G1X20.4218Y-242.8723
G1X22.8050Y-242.9029
G1X25.3275Y-243.2384
G1X27.8646Y-243.8718
G1X30.2436Y-244.7498
G1X32.5913Y-245.8869
G1X33.9679Y-246.8477
G1X36.0979Y-248.6690
G1X36.8772Y-249.1548
G1X37.9898Y-249.5126
G1X39.4085Y-249.6462
G1X41.3602Y-249.5806
G1X43.4536Y-249.3052
G1X45.3678Y-248.8612
G1X47.2018Y-248.2348
G1X49.2040Y-247.2974
G1X53.1283Y-245.0486
G1X56.4144Y-242.6604
G1X57.2654Y-242.3125
G1X58.3090Y-242.1170
G1X59.9765Y-242.0425
G1X61.9761Y-242.1176
G1X63.8721Y-242.3155
G1X65.7955Y-242.6606
G1X67.2675Y-243.0379
G1X68.8176Y-243.5490
G1X73.5539Y-245.5173
G1X74.5660Y-245.7889
G1X75.6607Y-245.9501
G1X77.0337Y-245.9860
G1X78.6542Y-245.8495
G1X83.8450Y-244.8872
G1X85.9649Y-244.6198
G1 Z0F20000
(Start Block)

G1X19.1547Y-254.6663
G1 Z3.0F20000
G1 F8000

G1X20.6252Y-254.5852
G1X22.0368Y-254.3882
G1X27.1821Y-253.1077
G1X29.4217Y-252.8092
G1X36.5330Y-252.5700
G1X40.5509Y-252.5365
G1X44.7177Y-252.6364
G1X51.8985Y-252.9796
G1X53.4107Y-252.8667
G1X56.3979Y-252.3952
G1X58.0569Y-252.2294
G1X60.8139Y-252.1560
G1X64.6906Y-252.1951
G1X68.2833Y-252.4231
G1X71.5036Y-252.9182
G1X73.1209Y-253.3041
G1X74.8000Y-253.8129
G1X79.7921Y-255.7055
G1X81.6168Y-256.2770
G1X83.8482Y-256.6532
G1X86.1653Y-256.6437
G1 Z0F20000
(Start Block)

G1X19.4126Y-256.6893
G1 Z3.0F20000
G1 F8000

G1X21.2475Y-256.5934
G1X23.0161Y-256.2513
G1X24.6760Y-255.7258
G1X27.6470Y-254.5610
G1X28.9305Y-254.2061
G1X34.8640Y-253.5993
G1X38.4508Y-253.4641
G1X42.6825Y-253.5356
G1X45.7818Y-253.7229
G1X51.2858Y-254.2728
G1X52.6046Y-254.3263
G1X54.4259Y-254.2010
G1X57.6881Y-253.6754
G1X59.3146Y-253.4921
G1X61.4685Y-253.3933
G1X64.1815Y-253.4012
G1X68.1398Y-253.6390
G1X71.4997Y-254.1790
G1X73.2277Y-254.6329
G1X74.8882Y-255.2013
G1X79.8296Y-257.3694
G1X81.5130Y-257.9654
G1X82.6283Y-258.2193
G1X83.7579Y-258.3510
G1X84.8795Y-258.3654
G1X86.0929Y-258.2667
G1 Z0F20000
(Start Block)

G1X18.7750Y-252.8151
G1 Z3.0F20000
G1 F8000

G1X21.0736Y-252.6277
G1X26.0646Y-251.8447
G1X28.4467Y-251.6313
G1X38.9136Y-251.7734
G1X51.1078Y-251.7622
G1X52.4896Y-251.6616
G1X55.3473Y-251.1856
G1X56.9415Y-251.0317
G1X65.2101Y-251.0342
G1X68.4702Y-251.2593
G1X71.4019Y-251.7004
G1X74.4715Y-252.4464
G1X79.6090Y-254.1217
G1X81.5918Y-254.6629
G1X83.8657Y-255.0230
G1X86.1827Y-255.0734
G1 Z0F20000
(Start Block)

G1X18.3637Y-251.1509
G1 Z3.0F20000
G1 F8000

G1X24.8834Y-250.5795
G1X27.9556Y-250.4673
G1X30.3750Y-250.5561
G1X38.3377Y-251.1741
G1X42.4127Y-251.2347
G1X51.4422Y-250.6063
G1X54.7202Y-250.0066
G1X55.9842Y-249.8733
G1X65.2463Y-249.8805
G1X68.4795Y-250.1163
G1X71.7433Y-250.6309
G1X74.4391Y-251.2621
G1X79.6385Y-252.7271
G1X81.8446Y-253.2134
G1X83.9710Y-253.4885
G1X86.1633Y-253.5668
G1 Z0F20000
(Start Block)

G1X17.9989Y-249.6589
G1 Z3.0F20000
G1 F8000

G1X23.6684Y-249.3194
G1X28.1308Y-249.3693
G1X31.5984Y-249.7012
G1X38.6922Y-250.7858
G1X40.4611Y-250.9364
G1X42.0802Y-250.9646
G1X43.7661Y-250.8661
G1X45.4848Y-250.6350
G1X49.3569Y-249.8649
G1X51.8379Y-249.4947
G1X54.0681Y-248.9297
G1X55.1297Y-248.7544
G1X56.5102Y-248.6955
G1X64.9987Y-248.7317
G1X67.8932Y-248.9411
G1X70.7143Y-249.3609
G1X73.4161Y-249.9277
G1X78.8269Y-251.2582
G1X81.1671Y-251.7138
G1X83.5195Y-252.0016
G1X86.1241Y-252.1282
G1 Z0F20000
(Start Block)

G1X17.7367Y-248.3101
G1 Z3.0F20000
G1 F8000

G1X20.4742Y-248.1318
G1X23.1357Y-248.0825
G1X25.8515Y-248.1621
G1X28.4078Y-248.3642
G1X30.4676Y-248.6303
G1X32.2682Y-248.9619
G1X39.0901Y-250.6110
G1X40.7318Y-250.8363
G1X42.2153Y-250.8914
G1X43.9248Y-250.7601
G1X45.6820Y-250.4109
G1X49.9195Y-249.0249
G1X51.9349Y-248.5347
G1X53.9230Y-247.8605
G1X54.9168Y-247.6333
G1X56.3735Y-247.5490
G1X64.4458Y-247.5835
G1X66.9444Y-247.7550
G1X69.4690Y-248.1086
G1X77.0842Y-249.7778
G1X79.8848Y-250.2813
G1X82.6621Y-250.5892
G1X86.0791Y-250.7564
G1 Z0F20000
(Start Block)

G1X18.0461Y-243.9665
G1 Z3.0F20000
G1 F8000

G1X20.3061Y-243.7394
G1X22.9146Y-243.8088
G1X25.5416Y-244.1504
G1X28.1802Y-244.7685
G1X30.5672Y-245.5780
G1X32.7268Y-246.5302
G1X34.0599Y-247.3489
G1X36.5430Y-249.2044
G1X37.5166Y-249.7823
G1X38.6592Y-250.1747
G1X40.1228Y-250.3447
G1X41.7861Y-250.2847
G1X43.5195Y-250.0318
G1X45.2631Y-249.5979
G1X46.8637Y-249.0294
G1X48.8503Y-248.0728
G1X53.0181Y-245.6096
G1X55.8079Y-243.6248
G1X56.6017Y-243.3052
G1X57.6270Y-243.1240
G1X59.3843Y-243.0523
G1X61.7831Y-243.1107
G1X63.8862Y-243.2837
G1X65.7007Y-243.5542
G1X67.2092Y-243.8804
G1X68.7948Y-244.3301
G1X73.7581Y-246.1184
G1X74.9060Y-246.3905
G1X76.0219Y-246.5467
G1X77.3530Y-246.6072
G1X78.8509Y-246.5465
G1X83.9340Y-245.9370
G1X85.9732Y-245.7912
G1 Z0F20000
(Start Block)

G1X18.4078Y-240.6886
G1 Z3.0F20000
G1 F8000

G1X23.8760Y-239.9995
G1X25.7338Y-239.8728
G1X27.4451Y-239.8592
G1X30.1915Y-240.1159
G1X33.9687Y-240.9713
G1X35.8314Y-241.2643
G1X38.0932Y-241.3808
G1X40.6853Y-241.2715
G1X43.1468Y-240.9660
G1X45.6134Y-240.4598
G1X47.6333Y-239.8979
G1X51.7880Y-238.5507
G1X55.5972Y-237.6072
G1X57.5276Y-237.2771
G1X59.3658Y-237.1890
G1X60.5200Y-237.2638
G1X61.7374Y-237.4547
G1X62.9517Y-237.7620
G1X64.1375Y-238.1790
G1X65.9824Y-239.0741
G1X68.8753Y-240.9490
G1X69.9366Y-241.4560
G1X71.1793Y-241.7095
G1X72.8342Y-241.7075
G1X74.5142Y-241.5530
G1X76.0879Y-241.2968
G1X77.6538Y-240.9274
G1X79.1140Y-240.4714
G1X81.7545Y-239.3580
G1X86.0954Y-237.0724
G1 Z0F20000
(Start Block)

G1X17.7424Y-240.1338
G1 Z3.0F20000
G1 F8000

G1X25.3145Y-239.3587
G1X28.1233Y-239.1902
G1X30.2324Y-239.2468
G1X33.8017Y-239.6740
G1X35.8486Y-239.8213
G1X38.0673Y-239.8348
G1X40.2939Y-239.7003
G1X42.5781Y-239.4149
G1X44.8954Y-238.9758
G1X52.2231Y-237.0698
G1X55.4876Y-236.5586
G1X57.9103Y-236.4226
G1X59.1727Y-236.4875
G1X60.4716Y-236.6643
G1X61.6612Y-236.9298
G1X62.9176Y-237.3234
G1X64.7611Y-238.1256
G1X67.9515Y-239.9991
G1X69.0918Y-240.4846
G1X70.5772Y-240.7301
G1X72.7318Y-240.6980
G1X74.3801Y-240.5477
G1X76.0110Y-240.2916
G1X77.5438Y-239.9399
G1X79.0606Y-239.4737
G1X81.6938Y-238.3651
G1X86.1100Y-235.9989
G1 Z0F20000
(Start Block)

G1X17.7807Y-244.9021
G1 Z3.0F20000
G1 F8000

G1X20.1581Y-244.7111
G1X22.9666Y-244.7815
G1X25.7650Y-245.1031
G1X28.4777Y-245.6641
G1X31.0461Y-246.4304
G1X32.7822Y-247.1109
G1X34.4066Y-247.9681
G1X37.1654Y-249.6812
G1X38.2965Y-250.2417
G1X39.5628Y-250.6221
G1X40.8459Y-250.7659
G1X42.1660Y-250.7274
G1X43.6312Y-250.5160
G1X45.0574Y-250.1609
G1X46.4980Y-249.6548
G1X48.8248Y-248.5103
G1X51.2534Y-247.0108
G1X53.0437Y-246.0622
G1X55.1289Y-244.6741
G1X55.9762Y-244.3426
G1X56.9673Y-244.1868
G1X58.9425Y-244.1284
G1X61.8299Y-244.1703
G1X63.9074Y-244.2973
G1X65.7935Y-244.5247
G1X68.9370Y-245.1987
G1X74.0117Y-246.7643
G1X75.2837Y-247.0361
G1X76.6248Y-247.2174
G1X79.3577Y-247.2978
G1X85.9857Y-246.9759
G1 Z0F20000
(Start Block)

G1X17.6266Y-245.9416
G1 Z3.0F20000
G1 F8000

G1X20.2352Y-245.7681
G1X23.0948Y-245.8231
G1X25.9067Y-246.0843
G1X28.6934Y-246.5579
G1X31.1622Y-247.1636
G1X32.8527Y-247.7272
G1X34.4762Y-248.4245
G1X37.5081Y-249.9140
G1X38.7954Y-250.4369
G1X40.0785Y-250.7796
G1X41.4119Y-250.9275
G1X42.5128Y-250.9051
G1X43.6586Y-250.7611
G1X44.8342Y-250.4978
G1X46.1188Y-250.0832
G1X47.9636Y-249.2623
G1X50.8228Y-247.6424
G1X52.6326Y-246.8209
G1X54.5879Y-245.7144
G1X55.4217Y-245.4224
G1X56.3728Y-245.2923
G1X61.8299Y-245.2716
G1X65.0985Y-245.4491
G1X68.4702Y-245.9744
G1X74.0568Y-247.4377
G1X76.7934Y-247.9497
G1X79.9841Y-248.1884
G1X86.0067Y-248.1899
G1 Z0F20000
(Start Block)

G1X17.6091Y-247.0766
G1 Z3.0F20000
G1 F8000

G1X20.2265Y-246.9098
G1X23.1043Y-246.9185
G1X25.9890Y-247.1041
G1X28.6897Y-247.4472
G1X30.9214Y-247.8653
G1X32.6373Y-248.3079
G1X39.0314Y-250.5123
G1X40.4285Y-250.8060
G1X41.6929Y-250.9219
G1X43.6877Y-250.8057
G1X45.6783Y-250.3485
G1X47.2034Y-249.7889
G1X50.3694Y-248.3014
G1X52.3165Y-247.6124
G1X54.2080Y-246.7618
G1X55.0275Y-246.5250
G1X56.1245Y-246.4132
G1X62.8385Y-246.4144
G1X66.0836Y-246.5998
G1X69.1400Y-247.0583
G1X75.1078Y-248.4449
G1X77.9299Y-248.9562
G1X81.2254Y-249.2830
G1X86.0382Y-249.4464
G1 Z0F20000
(Start Block)

G1X17.0609Y-239.3805
G1 Z3.0F20000
G1 F8000

G1X21.1268Y-239.1064
G1X28.9207Y-238.2929
G1X34.9408Y-238.3340
G1X39.0112Y-238.0865
G1X43.3695Y-237.4526
G1X51.2372Y-235.8047
G1X53.6393Y-235.5441
G1X55.8372Y-235.4590
G1X57.3447Y-235.5184
G1X58.6859Y-235.6696
G1X60.0645Y-235.9311
G1X61.4576Y-236.3127
G1X63.4516Y-237.0779
G1X66.9984Y-238.9181
G1X68.3695Y-239.4293
G1X70.1343Y-239.6610
G1X72.8103Y-239.6029
G1X74.5223Y-239.4394
G1X76.0780Y-239.1882
G1X77.6523Y-238.8186
G1X79.0961Y-238.3659
G1X81.6717Y-237.2704
G1X86.1158Y-234.8832
G1 Z0F20000
(Start Block)

G1X16.4377Y-238.4597
G1 Z3.0F20000
G1 F8000

G1X21.6375Y-238.2060
G1X29.4425Y-237.2311
G1X35.0208Y-236.8291
G1X38.9209Y-236.2683
G1X47.9620Y-234.6460
G1X50.6269Y-234.3461
G1X53.1704Y-234.2477
G1X54.9103Y-234.3030
G1X56.5022Y-234.4577
G1X58.0834Y-234.7220
G1X59.6165Y-235.0919
G1X61.8610Y-235.8464
G1X66.1215Y-237.7778
G1X67.7835Y-238.3095
G1X69.9396Y-238.5393
G1X72.7605Y-238.4698
G1X74.4187Y-238.3100
G1X75.9836Y-238.0560
G1X77.5740Y-237.6793
G1X79.0274Y-237.2185
G1X81.5191Y-236.1545
G1X86.1122Y-233.7171
G1 Z0F20000
(Start Block)

G1X15.9232Y-237.4192
G1 Z3.0F20000
G1 F8000

G1X20.6552Y-237.2996
G1X24.6712Y-236.9055
G1X29.5300Y-236.0977
G1X32.2873Y-235.7578
G1X34.1852Y-235.4380
G1X41.4970Y-233.6955
G1X43.9102Y-233.2091
G1X46.5506Y-232.8775
G1X49.2009Y-232.7702
G1X53.6072Y-232.9646
G1X55.3089Y-233.1977
G1X57.0912Y-233.5668
G1X59.8703Y-234.3953
G1X65.0971Y-236.5074
G1X67.2108Y-237.1117
G1X69.7063Y-237.3703
G1X72.5914Y-237.3067
G1X74.2721Y-237.1378
G1X75.8303Y-236.8775
G1X77.3066Y-236.5238
G1X78.7550Y-236.0658
G1X81.1805Y-235.0401
G1X84.7869Y-233.1033
G1X86.0973Y-232.4954
G1 Z0F20000
(Start Block)

G1X16.0365Y-228.2295
G1 Z3.0F20000
G1 F8000

G1X19.2273Y-228.2580
G1X22.0380Y-228.0874
G1X24.3486Y-227.7046
G1X26.5781Y-227.0420
G1X27.8329Y-226.5170
G1X29.0244Y-225.9067
G1X32.3671Y-223.8231
G1X33.4073Y-223.0071
G1X35.1478Y-221.2717
G1X35.7679Y-220.7686
G1X36.5420Y-220.4157
G1X37.4993Y-220.2440
G1X39.4190Y-220.1928
G1X41.7407Y-220.3267
G1X43.6977Y-220.5964
G1X45.5390Y-221.0155
G1X46.9696Y-221.4712
G1X48.3445Y-222.0273
G1X52.2325Y-224.0445
G1X56.0039Y-225.7043
G1X58.1377Y-226.2997
G1X60.3168Y-226.5110
G1X62.2699Y-226.4366
G1X64.3255Y-226.1565
G1X66.5393Y-225.6712
G1X71.1859Y-224.4142
G1X74.5639Y-223.9604
G1X76.2696Y-223.4056
G1X79.7869Y-221.8629
G1X81.2602Y-221.4299
G1X82.9753Y-221.2114
G1X84.9816Y-221.2487
G1 Z0F20000
(Start Block)

G1X15.7983Y-229.4092
G1 Z3.0F20000
G1 F8000

G1X19.5992Y-229.4154
G1X22.1320Y-229.2686
G1X24.5472Y-228.8822
G1X26.6946Y-228.2611
G1X29.0931Y-227.1961
G1X32.5034Y-225.1932
G1X33.6468Y-224.3051
G1X35.5279Y-222.4166
G1X36.2241Y-221.8713
G1X36.9125Y-221.5730
G1X37.9286Y-221.3946
G1X39.8466Y-221.3482
G1X42.1515Y-221.4835
G1X44.1373Y-221.7567
G1X45.9590Y-222.1650
G1X47.3724Y-222.6014
G1X48.8257Y-223.1650
G1X52.0915Y-224.7119
G1X57.1373Y-226.9105
G1X59.1685Y-227.4650
G1X61.3379Y-227.6880
G1X63.0121Y-227.6597
G1X64.9215Y-227.4724
G1X71.1743Y-226.2888
G1X74.3208Y-225.9432
G1X75.3465Y-225.6728
G1X76.4547Y-225.2701
G1X80.0236Y-223.6010
G1X81.4673Y-223.0636
G1X83.2971Y-222.7121
G1X85.2439Y-222.6851
G1 Z0F20000
(Start Block)

G1X15.5577Y-230.5750
G1 Z3.0F20000
G1 F8000

G1X19.9158Y-230.5676
G1X22.3589Y-230.4298
G1X24.7519Y-230.0563
G1X26.8974Y-229.4555
G1X29.2291Y-228.4772
G1X32.6744Y-226.6331
G1X33.9914Y-225.6609
G1X36.0669Y-223.6927
G1X36.7773Y-223.1636
G1X37.6168Y-222.8113
G1X38.7186Y-222.6278
G1X40.5254Y-222.5892
G1X42.5547Y-222.7177
G1X44.4459Y-222.9791
G1X46.3329Y-223.3955
G1X49.2613Y-224.3823
G1X58.2295Y-228.2053
G1X60.2491Y-228.7331
G1X62.5159Y-228.9647
G1X65.7583Y-228.8535
G1X70.8934Y-228.2244
G1X73.3476Y-228.0647
G1X74.3014Y-227.9140
G1X75.5004Y-227.5925
G1X76.8386Y-227.0970
G1X80.7735Y-225.1899
G1X82.0679Y-224.6613
G1X83.6987Y-224.2588
G1X85.4779Y-224.1456
G1 Z0F20000
(Start Block)

G1X15.3569Y-231.7268
G1 Z3.0F20000
G1 F8000

G1X20.0973Y-231.7179
G1X22.4185Y-231.5978
G1X24.7754Y-231.2586
G1X27.0024Y-230.6798
G1X29.3460Y-229.7790
G1X32.9101Y-228.0839
G1X34.2462Y-227.1911
G1X36.6219Y-225.1829
G1X37.5741Y-224.5389
G1X38.5022Y-224.1773
G1X39.6853Y-223.9806
G1X41.2839Y-223.9418
G1X43.1000Y-224.0629
G1X44.8696Y-224.3139
G1X46.7168Y-224.7187
G1X48.8582Y-225.3741
G1X53.3906Y-227.0669
G1X57.6983Y-228.9489
G1X59.2872Y-229.5516
G1X61.4873Y-230.0932
G1X63.9560Y-230.3314
G1X66.3947Y-230.3238
G1X72.7899Y-230.0228
G1X74.3480Y-229.7918
G1X75.8842Y-229.3656
G1X77.4097Y-228.7862
G1X81.5728Y-226.7254
G1X82.8093Y-226.1935
G1X84.2553Y-225.7810
G1X85.6733Y-225.6124
G1 Z0F20000
(Start Block)

G1X15.2309Y-232.8717
G1 Z3.0F20000
G1 F8000

G1X20.1544Y-232.8658
G1X22.3353Y-232.7647
G1X24.7454Y-232.4521
G1X27.0283Y-231.9131
G1X29.0709Y-231.2256
G1X32.6232Y-229.8185
G1X34.5022Y-228.7690
G1X37.2724Y-226.7737
G1X38.1965Y-226.2050
G1X39.4207Y-225.7221
G1X40.8117Y-225.4868
G1X42.2529Y-225.4503
G1X43.8555Y-225.5594
G1X45.5116Y-225.7988
G1X47.2387Y-226.1727
G1X49.0703Y-226.6955
G1X53.6890Y-228.2186
G1X58.7588Y-230.3498
G1X60.6086Y-231.0080
G1X63.0800Y-231.5502
G1X66.0715Y-231.7991
G1X72.1974Y-231.8250
G1X73.3769Y-231.7087
G1X74.7603Y-231.4390
G1X76.4315Y-230.9553
G1X78.0718Y-230.3231
G1X83.4926Y-227.6700
G1X84.6441Y-227.2904
G1X85.8263Y-227.0675
G1 Z0F20000
(Start Block)

G1X15.5439Y-236.3083
G1 Z3.0F20000
G1 F8000

G1X21.4238Y-236.1949
G1X23.6521Y-235.9958
G1X25.9162Y-235.6590
G1X33.5163Y-234.0885
G1X35.6039Y-233.4587
G1X40.0155Y-231.9200
G1X41.8681Y-231.4016
G1X43.8687Y-231.0504
G1X46.0306Y-230.9238
G1X47.7860Y-230.9818
G1X49.8260Y-231.1784
G1X53.0874Y-231.6136
G1X55.0090Y-231.9978
G1X58.2008Y-232.9516
G1X63.9416Y-235.1508
G1X66.2951Y-235.7803
G1X67.7773Y-236.0049
G1X69.3641Y-236.1328
G1X70.7169Y-236.1719
G1X72.3070Y-236.1053
G1X73.8752Y-235.9458
G1X75.4122Y-235.6891
G1X76.9618Y-235.3171
G1X78.3847Y-234.8655
G1X80.6219Y-233.9326
G1X84.5809Y-231.8493
G1X86.0675Y-231.2160
G1 Z0F20000
(Start Block)

G1X15.3071Y-235.1662
G1 Z3.0F20000
G1 F8000

G1X19.5455Y-235.1564
G1X21.8897Y-235.0658
G1X24.3044Y-234.8179
G1X26.6470Y-234.3938
G1X32.9056Y-232.7706
G1X35.0027Y-231.9750
G1X38.6612Y-230.2697
G1X39.9916Y-229.7261
G1X41.6516Y-229.2507
G1X43.2709Y-229.0239
G1X45.0428Y-228.9975
G1X47.0224Y-229.1715
G1X48.9543Y-229.4903
G1X52.7593Y-230.2815
G1X54.3010Y-230.6611
G1X55.9048Y-231.1621
G1X61.5669Y-233.3574
G1X63.8642Y-234.0772
G1X65.2906Y-234.3873
G1X66.8754Y-234.6198
G1X70.7309Y-234.8723
G1X72.2567Y-234.8151
G1X74.0221Y-234.6035
G1X75.6450Y-234.2817
G1X77.3356Y-233.8061
G1X79.7322Y-232.8703
G1X84.1733Y-230.5897
G1X86.0171Y-229.8807
G1 Z0F20000
(Start Block)

G1X15.2074Y-234.0175
G1 Z3.0F20000
G1 F8000

G1X19.8993Y-234.0135
G1X22.2459Y-233.9157
G1X24.5719Y-233.6450
G1X26.9039Y-233.1595
G1X32.6767Y-231.3397
G1X34.7339Y-230.3808
G1X37.8855Y-228.5172
G1X39.1081Y-227.8888
G1X40.5298Y-227.4042
G1X42.0741Y-227.1676
G1X43.5401Y-227.1417
G1X45.2456Y-227.2787
G1X47.0831Y-227.5799
G1X49.0970Y-228.0546
G1X54.1998Y-229.4927
G1X60.3833Y-231.9560
G1X63.0748Y-232.7513
G1X64.5916Y-233.0253
G1X66.2120Y-233.2106
G1X70.7487Y-233.4294
G1X72.0964Y-233.4150
G1X73.6715Y-233.2323
G1X75.2067Y-232.9227
G1X76.7829Y-232.4745
G1X79.3987Y-231.4343
G1X83.9300Y-229.1406
G1X84.9776Y-228.7435
G1X85.9391Y-228.4947
G1 Z0F20000

G00 X0.0000 Y0.0000

