M3
G21
G17
G90
(Start Layer)
(Start Block)


G00 Z6.0000
G00 X10.5833 Y279.2732
(G4 P0.1)
G01 Z-0.125000 F800.000000

G01 X15.2130 Y273.0197 Z-0.125000 F800.000000
G01 X19.3813 Y267.8647 Z-0.125000 F800.000000
G01 X23.0711 Y263.8277 Z-0.125000 F800.000000
G01 X27.0009 Y260.0957 Z-0.125000 F800.000000
G01 X29.5670 Y257.9030 Z-0.125000 F800.000000
G01 X32.7247 Y255.3575 Z-0.125000 F800.000000
G01 X44.0251 Y246.4867 Z-0.125000 F800.000000
G01 X49.4110 Y242.3659 Z-0.125000 F800.000000
G01 X52.5332 Y240.0923 Z-0.125000 F800.000000
G01 X55.2672 Y238.2297 Z-0.125000 F800.000000
G01 X57.8091 Y236.6516 Z-0.125000 F800.000000
G01 X60.1875 Y235.3380 Z-0.125000 F800.000000
G01 X62.7826 Y234.0983 Z-0.125000 F800.000000
G01 X65.4988 Y233.0101 Z-0.125000 F800.000000
G01 X68.4296 Y232.0420 Z-0.125000 F800.000000
G01 X71.7673 Y231.1278 Z-0.125000 F800.000000
G01 X75.8035 Y230.1808 Z-0.125000 F800.000000
G01 X87.6303 Y227.6188 Z-0.125000 F800.000000
G01 X101.2185 Y224.4756 Z-0.125000 F800.000000
G01 X106.9168 Y222.9755 Z-0.125000 F800.000000
G01 X116.9163 Y220.0663 Z-0.125000 F800.000000
G01 X120.5537 Y219.1403 Z-0.125000 F800.000000
G01 X122.9202 Y218.6475 Z-0.125000 F800.000000
G01 X125.1090 Y218.2956 Z-0.125000 F800.000000
G01 X127.1466 Y218.0748 Z-0.125000 F800.000000
G01 X129.1868 Y217.9694 Z-0.125000 F800.000000
G01 X132.3612 Y218.0527 Z-0.125000 F800.000000
G01 X135.5008 Y218.4364 Z-0.125000 F800.000000
G01 X138.7532 Y219.1359 Z-0.125000 F800.000000
G01 X142.1802 Y220.1798 Z-0.125000 F800.000000
G01 X145.2850 Y221.4165 Z-0.125000 F800.000000
G01 X148.1588 Y222.8614 Z-0.125000 F800.000000
G01 X150.8784 Y224.5493 Z-0.125000 F800.000000
G01 X153.4960 Y226.5162 Z-0.125000 F800.000000
G01 X156.4352 Y229.1600 Z-0.125000 F800.000000
G01 X159.5664 Y232.4345 Z-0.125000 F800.000000
G01 X167.5545 Y241.5632 Z-0.125000 F800.000000
G01 X175.8548 Y250.8740 Z-0.125000 F800.000000
G01 X182.8811 Y258.9624 Z-0.125000 F800.000000
G01 X186.2268 Y262.6643 Z-0.125000 F800.000000
G01 X191.4379 Y268.0701 Z-0.125000 F800.000000
G01 X198.3917 Y274.8662 Z-0.125000 F800.000000
G00 Z6.0000

G4 P0.5
(Start Block)


G00 Z6.0000
G00 X10.5833 Y274.5107
(G4 P0.1)
G01 Z-0.125000 F800.000000

G01 X14.5294 Y269.5341 Z-0.125000 F800.000000
G01 X18.1093 Y265.4110 Z-0.125000 F800.000000
G01 X21.4561 Y261.9794 Z-0.125000 F800.000000
G01 X25.1075 Y258.6809 Z-0.125000 F800.000000
G01 X29.3965 Y255.2127 Z-0.125000 F800.000000
G01 X50.0155 Y239.2932 Z-0.125000 F800.000000
G01 X54.6709 Y235.9780 Z-0.125000 F800.000000
G01 X58.7255 Y233.5031 Z-0.125000 F800.000000
G01 X60.7325 Y232.4589 Z-0.125000 F800.000000
G01 X62.8524 Y231.4884 Z-0.125000 F800.000000
G01 X64.9872 Y230.6383 Z-0.125000 F800.000000
G01 X67.3287 Y229.8303 Z-0.125000 F800.000000
G01 X71.4456 Y228.6271 Z-0.125000 F800.000000
G01 X80.5861 Y226.2693 Z-0.125000 F800.000000
G01 X85.1986 Y224.9892 Z-0.125000 F800.000000
G01 X90.3865 Y223.3855 Z-0.125000 F800.000000
G01 X97.3199 Y221.0588 Z-0.125000 F800.000000
G01 X101.8962 Y219.3862 Z-0.125000 F800.000000
G01 X106.0651 Y217.6939 Z-0.125000 F800.000000
G01 X109.9261 Y215.9801 Z-0.125000 F800.000000
G01 X118.3015 Y212.0802 Z-0.125000 F800.000000
G01 X122.2709 Y210.4211 Z-0.125000 F800.000000
G01 X124.6118 Y209.6068 Z-0.125000 F800.000000
G01 X126.7704 Y209.0028 Z-0.125000 F800.000000
G01 X128.8413 Y208.5754 Z-0.125000 F800.000000
G01 X130.9764 Y208.3020 Z-0.125000 F800.000000
G01 X132.5631 Y208.2107 Z-0.125000 F800.000000
G01 X134.2639 Y208.2171 Z-0.125000 F800.000000
G01 X135.9638 Y208.3266 Z-0.125000 F800.000000
G01 X137.7600 Y208.5460 Z-0.125000 F800.000000
G01 X141.5082 Y209.2988 Z-0.125000 F800.000000
G01 X145.5267 Y210.4759 Z-0.125000 F800.000000
G01 X149.6093 Y212.0318 Z-0.125000 F800.000000
G01 X153.4565 Y213.8484 Z-0.125000 F800.000000
G01 X157.0600 Y215.9164 Z-0.125000 F800.000000
G01 X160.4521 Y218.2519 Z-0.125000 F800.000000
G01 X163.0479 Y220.3184 Z-0.125000 F800.000000
G01 X165.6767 Y222.6493 Z-0.125000 F800.000000
G01 X168.4938 Y225.3822 Z-0.125000 F800.000000
G01 X171.6283 Y228.6470 Z-0.125000 F800.000000
G01 X186.5892 Y245.1685 Z-0.125000 F800.000000
G01 X191.5953 Y250.9036 Z-0.125000 F800.000000
G01 X197.9026 Y258.3441 Z-0.125000 F800.000000
G00 Z6.0000

G4 P0.5
(Start Block)


G00 Z6.0000
G00 X10.5833 Y266.5732
(G4 P0.1)
G01 Z-0.125000 F800.000000

G01 X13.2715 Y263.7414 Z-0.125000 F800.000000
G01 X15.9298 Y261.1520 Z-0.125000 F800.000000
G01 X18.5564 Y258.8124 Z-0.125000 F800.000000
G01 X21.3050 Y256.5756 Z-0.125000 F800.000000
G01 X24.5777 Y254.1170 Z-0.125000 F800.000000
G01 X36.9139 Y245.1991 Z-0.125000 F800.000000
G01 X50.7847 Y234.5762 Z-0.125000 F800.000000
G01 X53.7662 Y232.4802 Z-0.125000 F800.000000
G01 X56.5865 Y230.7046 Z-0.125000 F800.000000
G01 X60.2113 Y228.7710 Z-0.125000 F800.000000
G01 X63.9825 Y227.1563 Z-0.125000 F800.000000
G01 X67.6888 Y225.8671 Z-0.125000 F800.000000
G01 X76.8950 Y223.0794 Z-0.125000 F800.000000
G01 X81.4863 Y221.5568 Z-0.125000 F800.000000
G01 X86.4424 Y219.6525 Z-0.125000 F800.000000
G01 X91.6550 Y217.3409 Z-0.125000 F800.000000
G01 X98.2756 Y214.0896 Z-0.125000 F800.000000
G01 X103.7960 Y211.0573 Z-0.125000 F800.000000
G01 X108.6052 Y208.1205 Z-0.125000 F800.000000
G01 X118.0712 Y201.9815 Z-0.125000 F800.000000
G01 X121.6647 Y199.8525 Z-0.125000 F800.000000
G01 X123.6716 Y198.8069 Z-0.125000 F800.000000
G01 X125.6953 Y197.8818 Z-0.125000 F800.000000
G01 X127.6377 Y197.1253 Z-0.125000 F800.000000
G01 X129.5932 Y196.4963 Z-0.125000 F800.000000
G01 X132.5454 Y195.7919 Z-0.125000 F800.000000
G01 X135.5552 Y195.3548 Z-0.125000 F800.000000
G01 X138.8416 Y195.1568 Z-0.125000 F800.000000
G01 X142.3565 Y195.2031 Z-0.125000 F800.000000
G01 X146.0952 Y195.4888 Z-0.125000 F800.000000
G01 X150.0822 Y196.0153 Z-0.125000 F800.000000
G01 X154.5266 Y196.8106 Z-0.125000 F800.000000
G01 X159.4542 Y197.8812 Z-0.125000 F800.000000
G01 X164.9603 Y199.2701 Z-0.125000 F800.000000
G01 X170.8435 Y200.9675 Z-0.125000 F800.000000
G01 X176.6118 Y202.8293 Z-0.125000 F800.000000
G01 X182.0672 Y204.7948 Z-0.125000 F800.000000
G01 X187.0135 Y206.7871 Z-0.125000 F800.000000
G01 X191.1587 Y208.6701 Z-0.125000 F800.000000
G01 X194.5947 Y210.4900 Z-0.125000 F800.000000
G01 X197.7941 Y212.4848 Z-0.125000 F800.000000
G00 Z6.0000

G4 P0.5
(Start Block)


G00 Z6.0000
G00 X10.5833 Y264.9857
(G4 P0.1)
G01 Z-0.125000 F800.000000

G01 X13.0670 Y262.4842 Z-0.125000 F800.000000
G01 X15.5112 Y260.1979 Z-0.125000 F800.000000
G01 X17.9131 Y258.1269 Z-0.125000 F800.000000
G01 X20.5100 Y256.0648 Z-0.125000 F800.000000
G01 X23.5452 Y253.8278 Z-0.125000 F800.000000
G01 X31.6333 Y248.1399 Z-0.125000 F800.000000
G01 X36.5672 Y244.5699 Z-0.125000 F800.000000
G01 X50.8568 Y233.6840 Z-0.125000 F800.000000
G01 X53.6448 Y231.7386 Z-0.125000 F800.000000
G01 X56.1831 Y230.1405 Z-0.125000 F800.000000
G01 X59.8054 Y228.1908 Z-0.125000 F800.000000
G01 X63.5742 Y226.5562 Z-0.125000 F800.000000
G01 X67.1807 Y225.2777 Z-0.125000 F800.000000
G01 X76.2839 Y222.4627 Z-0.125000 F800.000000
G01 X80.7745 Y220.9409 Z-0.125000 F800.000000
G01 X85.6288 Y219.0328 Z-0.125000 F800.000000
G01 X90.6405 Y216.7470 Z-0.125000 F800.000000
G01 X97.5312 Y213.2303 Z-0.125000 F800.000000
G01 X103.2255 Y209.9909 Z-0.125000 F800.000000
G01 X108.1128 Y206.9053 Z-0.125000 F800.000000
G01 X117.5437 Y200.5814 Z-0.125000 F800.000000
G01 X121.2196 Y198.3262 Z-0.125000 F800.000000
G01 X123.3164 Y197.1938 Z-0.125000 F800.000000
G01 X125.3354 Y196.2335 Z-0.125000 F800.000000
G01 X127.3708 Y195.4029 Z-0.125000 F800.000000
G01 X129.3228 Y194.7373 Z-0.125000 F800.000000
G01 X132.0732 Y194.0097 Z-0.125000 F800.000000
G01 X134.8947 Y193.4997 Z-0.125000 F800.000000
G01 X137.8381 Y193.1911 Z-0.125000 F800.000000
G01 X141.1257 Y193.0691 Z-0.125000 F800.000000
G01 X144.5271 Y193.1437 Z-0.125000 F800.000000
G01 X148.1526 Y193.4172 Z-0.125000 F800.000000
G01 X151.9996 Y193.8895 Z-0.125000 F800.000000
G01 X156.1369 Y194.5608 Z-0.125000 F800.000000
G01 X161.9582 Y195.7110 Z-0.125000 F800.000000
G01 X168.1621 Y197.1371 Z-0.125000 F800.000000
G01 X175.6330 Y199.0468 Z-0.125000 F800.000000
G01 X182.3043 Y200.9250 Z-0.125000 F800.000000
G01 X187.5883 Y202.5789 Z-0.125000 F800.000000
G01 X191.5843 Y203.9998 Z-0.125000 F800.000000
G01 X194.9710 Y205.4312 Z-0.125000 F800.000000
G01 X198.1299 Y207.0369 Z-0.125000 F800.000000
G00 Z6.0000

G4 P0.5
(Start Block)


G00 Z6.0000
G00 X10.5833 Y255.4607
(G4 P0.1)
G01 Z-0.125000 F800.000000

G01 X13.6216 Y253.2390 Z-0.125000 F800.000000
G01 X16.9954 Y250.9881 Z-0.125000 F800.000000
G01 X29.7233 Y243.1994 Z-0.125000 F800.000000
G01 X35.0717 Y239.7686 Z-0.125000 F800.000000
G01 X39.8165 Y236.4865 Z-0.125000 F800.000000
G01 X49.1821 Y229.6616 Z-0.125000 F800.000000
G01 X51.7644 Y227.9234 Z-0.125000 F800.000000
G01 X54.1200 Y226.4736 Z-0.125000 F800.000000
G01 X57.4553 Y224.6698 Z-0.125000 F800.000000
G01 X61.0217 Y223.0470 Z-0.125000 F800.000000
G01 X64.7150 Y221.6337 Z-0.125000 F800.000000
G01 X73.0151 Y218.8438 Z-0.125000 F800.000000
G01 X77.1037 Y217.3414 Z-0.125000 F800.000000
G01 X81.5533 Y215.4466 Z-0.125000 F800.000000
G01 X85.8660 Y213.2915 Z-0.125000 F800.000000
G01 X91.5519 Y210.0016 Z-0.125000 F800.000000
G01 X99.1540 Y205.1366 Z-0.125000 F800.000000
G01 X104.4555 Y201.4611 Z-0.125000 F800.000000
G01 X113.7338 Y194.6707 Z-0.125000 F800.000000
G01 X117.9874 Y191.8186 Z-0.125000 F800.000000
G01 X120.5385 Y190.2929 Z-0.125000 F800.000000
G01 X123.0191 Y188.9715 Z-0.125000 F800.000000
G01 X125.5222 Y187.8079 Z-0.125000 F800.000000
G01 X128.0452 Y186.8052 Z-0.125000 F800.000000
G01 X130.3889 Y186.0191 Z-0.125000 F800.000000
G01 X132.8420 Y185.3354 Z-0.125000 F800.000000
G01 X135.3045 Y184.7793 Z-0.125000 F800.000000
G01 X137.9714 Y184.3072 Z-0.125000 F800.000000
G01 X140.7991 Y183.9332 Z-0.125000 F800.000000
G01 X143.7437 Y183.6637 Z-0.125000 F800.000000
G01 X146.6907 Y183.5109 Z-0.125000 F800.000000
G01 X149.7522 Y183.4702 Z-0.125000 F800.000000
G01 X153.1536 Y183.5540 Z-0.125000 F800.000000
G01 X156.8936 Y183.7787 Z-0.125000 F800.000000
G01 X175.0116 Y185.5455 Z-0.125000 F800.000000
G01 X180.3373 Y185.9208 Z-0.125000 F800.000000
G01 X192.0114 Y186.5757 Z-0.125000 F800.000000
G01 X198.2401 Y187.1534 Z-0.125000 F800.000000
G00 Z6.0000

G4 P0.5
(Start Block)


G00 Z6.0000
G00 X10.5833 Y253.8732
(G4 P0.1)
G01 Z-0.125000 F800.000000

G01 X13.5580 Y251.8018 Z-0.125000 F800.000000
G01 X16.9366 Y249.6388 Z-0.125000 F800.000000
G01 X29.3269 Y242.3095 Z-0.125000 F800.000000
G01 X34.6921 Y238.9716 Z-0.125000 F800.000000
G01 X39.5019 Y235.7218 Z-0.125000 F800.000000
G01 X49.0532 Y228.8799 Z-0.125000 F800.000000
G01 X51.5157 Y227.2500 Z-0.125000 F800.000000
G01 X53.7798 Y225.8732 Z-0.125000 F800.000000
G01 X57.2123 Y224.0307 Z-0.125000 F800.000000
G01 X60.6827 Y222.4545 Z-0.125000 F800.000000
G01 X64.3752 Y221.0336 Z-0.125000 F800.000000
G01 X72.5755 Y218.2541 Z-0.125000 F800.000000
G01 X76.6627 Y216.7388 Z-0.125000 F800.000000
G01 X81.0137 Y214.8705 Z-0.125000 F800.000000
G01 X85.2287 Y212.7496 Z-0.125000 F800.000000
G01 X90.8152 Y209.4875 Z-0.125000 F800.000000
G01 X98.5010 Y204.5066 Z-0.125000 F800.000000
G01 X103.7986 Y200.8118 Z-0.125000 F800.000000
G01 X113.1517 Y193.9266 Z-0.125000 F800.000000
G01 X117.5065 Y190.9919 Z-0.125000 F800.000000
G01 X120.1507 Y189.4019 Z-0.125000 F800.000000
G01 X122.7256 Y188.0221 Z-0.125000 F800.000000
G01 X125.3240 Y186.8063 Z-0.125000 F800.000000
G01 X127.9432 Y185.7577 Z-0.125000 F800.000000
G01 X130.2860 Y184.9629 Z-0.125000 F800.000000
G01 X132.6398 Y184.2913 Z-0.125000 F800.000000
G01 X135.1008 Y183.7136 Z-0.125000 F800.000000
G01 X137.6675 Y183.2319 Z-0.125000 F800.000000
G01 X140.4373 Y182.8311 Z-0.125000 F800.000000
G01 X143.3808 Y182.5214 Z-0.125000 F800.000000
G01 X146.2138 Y182.3308 Z-0.125000 F800.000000
G01 X149.1615 Y182.2398 Z-0.125000 F800.000000
G01 X153.0168 Y182.2725 Z-0.125000 F800.000000
G01 X157.2109 Y182.4718 Z-0.125000 F800.000000
G01 X170.8041 Y183.6160 Z-0.125000 F800.000000
G01 X176.4702 Y183.9917 Z-0.125000 F800.000000
G01 X192.5695 Y184.5034 Z-0.125000 F800.000000
G01 X198.3499 Y184.8232 Z-0.125000 F800.000000
G00 Z6.0000

G4 P0.5
(Start Block)


G00 Z6.0000
G00 X10.5833 Y237.9982
(G4 P0.1)
G01 Z-0.125000 F800.000000

G01 X16.0303 Y235.9524 Z-0.125000 F800.000000
G01 X27.5364 Y231.9126 Z-0.125000 F800.000000
G01 X32.2933 Y230.0405 Z-0.125000 F800.000000
G01 X35.0913 Y228.7877 Z-0.125000 F800.000000
G01 X37.9699 Y227.3744 Z-0.125000 F800.000000
G01 X49.5018 Y221.1433 Z-0.125000 F800.000000
G01 X54.9710 Y218.4587 Z-0.125000 F800.000000
G01 X57.6773 Y217.2877 Z-0.125000 F800.000000
G01 X60.5897 Y216.1404 Z-0.125000 F800.000000
G01 X69.4610 Y213.0061 Z-0.125000 F800.000000
G01 X72.6700 Y211.7924 Z-0.125000 F800.000000
G01 X76.1521 Y210.3079 Z-0.125000 F800.000000
G01 X79.5121 Y208.6713 Z-0.125000 F800.000000
G01 X82.2735 Y207.1624 Z-0.125000 F800.000000
G01 X85.1076 Y205.4642 Z-0.125000 F800.000000
G01 X88.2011 Y203.4622 Z-0.125000 F800.000000
G01 X91.6263 Y201.1137 Z-0.125000 F800.000000
G01 X98.3665 Y196.2213 Z-0.125000 F800.000000
G01 X109.1225 Y187.9082 Z-0.125000 F800.000000
G01 X114.0449 Y184.4567 Z-0.125000 F800.000000
G01 X117.4321 Y182.3416 Z-0.125000 F800.000000
G01 X120.7566 Y180.4691 Z-0.125000 F800.000000
G01 X123.9197 Y178.8912 Z-0.125000 F800.000000
G01 X127.0136 Y177.5611 Z-0.125000 F800.000000
G01 X129.9358 Y176.5058 Z-0.125000 F800.000000
G01 X132.8754 Y175.6341 Z-0.125000 F800.000000
G01 X135.9265 Y174.9101 Z-0.125000 F800.000000
G01 X139.2833 Y174.2867 Z-0.125000 F800.000000
G01 X145.5318 Y173.4453 Z-0.125000 F800.000000
G01 X157.1955 Y172.3130 Z-0.125000 F800.000000
G01 X162.0624 Y171.7618 Z-0.125000 F800.000000
G01 X167.3056 Y171.0131 Z-0.125000 F800.000000
G01 X172.7385 Y170.0553 Z-0.125000 F800.000000
G01 X181.4177 Y168.2797 Z-0.125000 F800.000000
G01 X189.6938 Y166.4446 Z-0.125000 F800.000000
G01 X194.3119 Y165.2371 Z-0.125000 F800.000000
G01 X198.3198 Y163.9395 Z-0.125000 F800.000000
G00 Z6.0000

G4 P0.5
(Start Block)


G00 Z6.0000
G00 X10.5833 Y236.4107
(G4 P0.1)
G01 Z-0.125000 F800.000000

G01 X15.8514 Y234.5880 Z-0.125000 F800.000000
G01 X27.5804 Y230.7683 Z-0.125000 F800.000000
G01 X32.8337 Y228.8047 Z-0.125000 F800.000000
G01 X35.6364 Y227.5898 Z-0.125000 F800.000000
G01 X38.5206 Y226.2167 Z-0.125000 F800.000000
G01 X49.7934 Y220.3155 Z-0.125000 F800.000000
G01 X55.0796 Y217.7887 Z-0.125000 F800.000000
G01 X60.5081 Y215.5802 Z-0.125000 F800.000000
G01 X72.1998 Y211.3829 Z-0.125000 F800.000000
G01 X75.5869 Y209.9536 Z-0.125000 F800.000000
G01 X78.8538 Y208.3843 Z-0.125000 F800.000000
G01 X81.7133 Y206.8417 Z-0.125000 F800.000000
G01 X84.5498 Y205.1577 Z-0.125000 F800.000000
G01 X87.6455 Y203.1678 Z-0.125000 F800.000000
G01 X91.0612 Y200.8305 Z-0.125000 F800.000000
G01 X97.9615 Y195.7985 Z-0.125000 F800.000000
G01 X108.8709 Y187.3166 Z-0.125000 F800.000000
G01 X113.9359 Y183.7545 Z-0.125000 F800.000000
G01 X117.3223 Y181.6344 Z-0.125000 F800.000000
G01 X120.6451 Y179.7517 Z-0.125000 F800.000000
G01 X123.8068 Y178.1639 Z-0.125000 F800.000000
G01 X126.8027 Y176.8655 Z-0.125000 F800.000000
G01 X129.5286 Y175.8649 Z-0.125000 F800.000000
G01 X132.2700 Y175.0268 Z-0.125000 F800.000000
G01 X135.1221 Y174.3176 Z-0.125000 F800.000000
G01 X138.1807 Y173.7117 Z-0.125000 F800.000000
G01 X144.1438 Y172.8420 Z-0.125000 F800.000000
G01 X155.1246 Y171.6593 Z-0.125000 F800.000000
G01 X159.7633 Y171.0814 Z-0.125000 F800.000000
G01 X164.8056 Y170.2899 Z-0.125000 F800.000000
G01 X169.8384 Y169.3111 Z-0.125000 F800.000000
G01 X178.1107 Y167.4154 Z-0.125000 F800.000000
G01 X189.4226 Y164.6284 Z-0.125000 F800.000000
G01 X194.2249 Y163.2156 Z-0.125000 F800.000000
G01 X198.3130 Y161.7103 Z-0.125000 F800.000000
G00 Z6.0000

G4 P0.5
(Start Block)


G00 Z6.0000
G00 X10.5833 Y233.2357
(G4 P0.1)
G01 Z-0.125000 F800.000000

G01 X27.7558 Y228.4456 Z-0.125000 F800.000000
G01 X30.9849 Y227.4348 Z-0.125000 F800.000000
G01 X33.9083 Y226.3900 Z-0.125000 F800.000000
G01 X36.7205 Y225.2541 Z-0.125000 F800.000000
G01 X39.6151 Y223.9595 Z-0.125000 F800.000000
G01 X50.2649 Y218.7225 Z-0.125000 F800.000000
G01 X55.1809 Y216.4854 Z-0.125000 F800.000000
G01 X60.3246 Y214.4459 Z-0.125000 F800.000000
G01 X71.3366 Y210.5148 Z-0.125000 F800.000000
G01 X74.6297 Y209.1495 Z-0.125000 F800.000000
G01 X77.8047 Y207.6569 Z-0.125000 F800.000000
G01 X80.7639 Y206.0924 Z-0.125000 F800.000000
G01 X83.6989 Y204.3756 Z-0.125000 F800.000000
G01 X86.8914 Y202.3416 Z-0.125000 F800.000000
G01 X90.2451 Y200.0470 Z-0.125000 F800.000000
G01 X97.1355 Y194.9685 Z-0.125000 F800.000000
G01 X108.3488 Y186.1362 Z-0.125000 F800.000000
G01 X110.9753 Y184.2089 Z-0.125000 F800.000000
G01 X113.6030 Y182.4034 Z-0.125000 F800.000000
G01 X116.9853 Y180.2604 Z-0.125000 F800.000000
G01 X120.3033 Y178.3485 Z-0.125000 F800.000000
G01 X123.3654 Y176.7825 Z-0.125000 F800.000000
G01 X126.3583 Y175.4599 Z-0.125000 F800.000000
G01 X128.7894 Y174.5423 Z-0.125000 F800.000000
G01 X131.2340 Y173.7577 Z-0.125000 F800.000000
G01 X133.7876 Y173.0753 Z-0.125000 F800.000000
G01 X136.5469 Y172.4745 Z-0.125000 F800.000000
G01 X141.9125 Y171.6003 Z-0.125000 F800.000000
G01 X152.2089 Y170.3337 Z-0.125000 F800.000000
G01 X156.6322 Y169.6984 Z-0.125000 F800.000000
G01 X161.3717 Y168.8267 Z-0.125000 F800.000000
G01 X165.9990 Y167.7498 Z-0.125000 F800.000000
G01 X172.4742 Y165.9283 Z-0.125000 F800.000000
G01 X188.8238 Y160.9060 Z-0.125000 F800.000000
G01 X193.8860 Y159.0499 Z-0.125000 F800.000000
G01 X196.1082 Y158.0813 Z-0.125000 F800.000000
G01 X198.2194 Y157.0465 Z-0.125000 F800.000000
G00 Z6.0000

G4 P0.5
(Start Block)


G00 Z6.0000
G00 X10.5833 Y223.7107
(G4 P0.1)
G01 Z-0.125000 F800.000000

G01 X28.5864 Y221.0917 Z-0.125000 F800.000000
G01 X32.4346 Y220.3368 Z-0.125000 F800.000000
G01 X36.1690 Y219.3697 Z-0.125000 F800.000000
G01 X38.8107 Y218.5404 Z-0.125000 F800.000000
G01 X41.7348 Y217.5021 Z-0.125000 F800.000000
G01 X55.4160 Y212.0488 Z-0.125000 F800.000000
G01 X59.5052 Y210.5512 Z-0.125000 F800.000000
G01 X68.5768 Y207.4002 Z-0.125000 F800.000000
G01 X73.7176 Y205.3364 Z-0.125000 F800.000000
G01 X77.0840 Y203.7463 Z-0.125000 F800.000000
G01 X80.3270 Y202.0132 Z-0.125000 F800.000000
G01 X83.5386 Y200.0872 Z-0.125000 F800.000000
G01 X86.8201 Y197.9045 Z-0.125000 F800.000000
G01 X90.1908 Y195.4615 Z-0.125000 F800.000000
G01 X93.8563 Y192.6213 Z-0.125000 F800.000000
G01 X105.1353 Y183.2451 Z-0.125000 F800.000000
G01 X109.9337 Y179.4887 Z-0.125000 F800.000000
G01 X112.8139 Y177.4166 Z-0.125000 F800.000000
G01 X115.5657 Y175.5856 Z-0.125000 F800.000000
G01 X118.3951 Y173.8607 Z-0.125000 F800.000000
G01 X121.0598 Y172.3947 Z-0.125000 F800.000000
G01 X123.7483 Y171.0891 Z-0.125000 F800.000000
G01 X126.3622 Y169.9951 Z-0.125000 F800.000000
G01 X128.9944 Y169.0666 Z-0.125000 F800.000000
G01 X131.7397 Y168.2719 Z-0.125000 F800.000000
G01 X134.2991 Y167.6714 Z-0.125000 F800.000000
G01 X137.1617 Y167.1294 Z-0.125000 F800.000000
G01 X147.5486 Y165.6305 Z-0.125000 F800.000000
G01 X152.0908 Y164.8006 Z-0.125000 F800.000000
G01 X154.5514 Y164.2162 Z-0.125000 F800.000000
G01 X156.9054 Y163.5463 Z-0.125000 F800.000000
G01 X159.2492 Y162.7627 Z-0.125000 F800.000000
G01 X161.6785 Y161.8270 Z-0.125000 F800.000000
G01 X165.3466 Y160.2006 Z-0.125000 F800.000000
G01 X169.6602 Y158.0502 Z-0.125000 F800.000000
G01 X179.2021 Y152.9739 Z-0.125000 F800.000000
G01 X185.1942 Y149.6527 Z-0.125000 F800.000000
G01 X188.7846 Y147.5049 Z-0.125000 F800.000000
G01 X191.8960 Y145.4742 Z-0.125000 F800.000000
G01 X194.9425 Y143.2921 Z-0.125000 F800.000000
G01 X197.9502 Y140.9300 Z-0.125000 F800.000000
G00 Z6.0000

G4 P0.5
(Start Block)


G00 Z6.0000
G00 X10.5833 Y220.5356
(G4 P0.1)
G01 Z-0.125000 F800.000000

G01 X16.3521 Y219.7795 Z-0.125000 F800.000000
G01 X29.3673 Y218.2761 Z-0.125000 F800.000000
G01 X33.4457 Y217.5655 Z-0.125000 F800.000000
G01 X37.2838 Y216.6495 Z-0.125000 F800.000000
G01 X40.2241 Y215.7859 Z-0.125000 F800.000000
G01 X43.3494 Y214.7411 Z-0.125000 F800.000000
G01 X56.3864 Y209.8741 Z-0.125000 F800.000000
G01 X67.8987 Y205.8972 Z-0.125000 F800.000000
G01 X71.3012 Y204.6018 Z-0.125000 F800.000000
G01 X74.4915 Y203.2270 Z-0.125000 F800.000000
G01 X77.6588 Y201.6794 Z-0.125000 F800.000000
G01 X80.7975 Y199.9399 Z-0.125000 F800.000000
G01 X83.8095 Y198.0659 Z-0.125000 F800.000000
G01 X86.9746 Y195.8879 Z-0.125000 F800.000000
G01 X90.1674 Y193.5004 Z-0.125000 F800.000000
G01 X93.5736 Y190.7835 Z-0.125000 F800.000000
G01 X104.3224 Y181.6149 Z-0.125000 F800.000000
G01 X109.0171 Y177.8241 Z-0.125000 F800.000000
G01 X111.6379 Y175.8700 Z-0.125000 F800.000000
G01 X114.1390 Y174.1374 Z-0.125000 F800.000000
G01 X116.6740 Y172.5205 Z-0.125000 F800.000000
G01 X119.2312 Y171.0307 Z-0.125000 F800.000000
G01 X122.0029 Y169.5900 Z-0.125000 F800.000000
G01 X124.7034 Y168.3733 Z-0.125000 F800.000000
G01 X127.4253 Y167.3361 Z-0.125000 F800.000000
G01 X130.2629 Y166.4481 Z-0.125000 F800.000000
G01 X132.9175 Y165.7778 Z-0.125000 F800.000000
G01 X135.8768 Y165.1812 Z-0.125000 F800.000000
G01 X146.5584 Y163.5938 Z-0.125000 F800.000000
G01 X151.0981 Y162.7189 Z-0.125000 F800.000000
G01 X153.6535 Y162.0612 Z-0.125000 F800.000000
G01 X156.0995 Y161.2925 Z-0.125000 F800.000000
G01 X158.5315 Y160.3829 Z-0.125000 F800.000000
G01 X160.9478 Y159.3366 Z-0.125000 F800.000000
G01 X164.9722 Y157.3192 Z-0.125000 F800.000000
G01 X169.8145 Y154.5787 Z-0.125000 F800.000000
G01 X177.2662 Y150.0405 Z-0.125000 F800.000000
G01 X183.8367 Y145.8398 Z-0.125000 F800.000000
G01 X187.7684 Y143.1411 Z-0.125000 F800.000000
G01 X191.3717 Y140.4529 Z-0.125000 F800.000000
G01 X194.7660 Y137.6850 Z-0.125000 F800.000000
G01 X198.1093 Y134.7087 Z-0.125000 F800.000000
G00 Z6.0000

G4 P0.5
(Start Block)


G00 Z6.0000
G00 X10.5833 Y214.1856
(G4 P0.1)
G01 Z-0.125000 F800.000000

G01 X17.4883 Y213.4281 Z-0.125000 F800.000000
G01 X27.9117 Y212.6327 Z-0.125000 F800.000000
G01 X31.4220 Y212.2901 Z-0.125000 F800.000000
G01 X35.7460 Y211.6615 Z-0.125000 F800.000000
G01 X39.9859 Y210.7781 Z-0.125000 F800.000000
G01 X43.4248 Y209.8773 Z-0.125000 F800.000000
G01 X47.1466 Y208.7523 Z-0.125000 F800.000000
G01 X66.0949 Y202.4322 Z-0.125000 F800.000000
G01 X71.0573 Y200.5869 Z-0.125000 F800.000000
G01 X75.2992 Y198.6636 Z-0.125000 F800.000000
G01 X77.9708 Y197.2423 Z-0.125000 F800.000000
G01 X80.6163 Y195.6598 Z-0.125000 F800.000000
G01 X83.3266 Y193.8568 Z-0.125000 F800.000000
G01 X86.0376 Y191.8808 Z-0.125000 F800.000000
G01 X89.0441 Y189.5133 Z-0.125000 F800.000000
G01 X92.2612 Y186.8114 Z-0.125000 F800.000000
G01 X103.3869 Y176.8166 Z-0.125000 F800.000000
G01 X108.1265 Y172.8091 Z-0.125000 F800.000000
G01 X110.7362 Y170.8038 Z-0.125000 F800.000000
G01 X113.3265 Y168.9877 Z-0.125000 F800.000000
G01 X115.9575 Y167.3233 Z-0.125000 F800.000000
G01 X118.6148 Y165.8114 Z-0.125000 F800.000000
G01 X121.3926 Y164.4115 Z-0.125000 F800.000000
G01 X124.1951 Y163.1955 Z-0.125000 F800.000000
G01 X127.0192 Y162.1683 Z-0.125000 F800.000000
G01 X129.8606 Y161.3229 Z-0.125000 F800.000000
G01 X132.3202 Y160.7251 Z-0.125000 F800.000000
G01 X135.0825 Y160.1735 Z-0.125000 F800.000000
G01 X146.4495 Y158.3291 Z-0.125000 F800.000000
G01 X149.3058 Y157.6812 Z-0.125000 F800.000000
G01 X151.9529 Y156.9144 Z-0.125000 F800.000000
G01 X154.7770 Y155.8875 Z-0.125000 F800.000000
G01 X157.5755 Y154.6410 Z-0.125000 F800.000000
G01 X160.4402 Y153.1333 Z-0.125000 F800.000000
G01 X163.4619 Y151.3149 Z-0.125000 F800.000000
G01 X167.9468 Y148.2650 Z-0.125000 F800.000000
G01 X173.2648 Y144.2699 Z-0.125000 F800.000000
G01 X179.6651 Y139.1309 Z-0.125000 F800.000000
G01 X185.1978 Y134.4017 Z-0.125000 F800.000000
G01 X189.2303 Y130.6830 Z-0.125000 F800.000000
G01 X192.7046 Y127.1716 Z-0.125000 F800.000000
G01 X195.7625 Y123.7272 Z-0.125000 F800.000000
G01 X198.5834 Y120.1419 Z-0.125000 F800.000000
G00 Z6.0000

G4 P0.5
(Start Block)


G00 Z6.0000
G00 X10.5833 Y212.5981
(G4 P0.1)
G01 Z-0.125000 F800.000000

G01 X17.7156 Y211.8455 Z-0.125000 F800.000000
G01 X28.2539 Y211.1196 Z-0.125000 F800.000000
G01 X31.8782 Y210.7915 Z-0.125000 F800.000000
G01 X36.3446 Y210.1698 Z-0.125000 F800.000000
G01 X40.6845 Y209.2907 Z-0.125000 F800.000000
G01 X44.1250 Y208.4108 Z-0.125000 F800.000000
G01 X47.8487 Y207.3087 Z-0.125000 F800.000000
G01 X65.6332 Y201.4661 Z-0.125000 F800.000000
G01 X70.7904 Y199.5507 Z-0.125000 F800.000000
G01 X75.2215 Y197.5126 Z-0.125000 F800.000000
G01 X77.7937 Y196.1163 Z-0.125000 F800.000000
G01 X80.4344 Y194.5062 Z-0.125000 F800.000000
G01 X83.0770 Y192.7166 Z-0.125000 F800.000000
G01 X85.7821 Y190.7127 Z-0.125000 F800.000000
G01 X88.7816 Y188.3146 Z-0.125000 F800.000000
G01 X91.9910 Y185.5810 Z-0.125000 F800.000000
G01 X103.0906 Y175.4854 Z-0.125000 F800.000000
G01 X107.6589 Y171.5703 Z-0.125000 F800.000000
G01 X110.2639 Y169.5442 Z-0.125000 F800.000000
G01 X112.7374 Y167.7912 Z-0.125000 F800.000000
G01 X115.2401 Y166.1892 Z-0.125000 F800.000000
G01 X117.8949 Y164.6616 Z-0.125000 F800.000000
G01 X120.7659 Y163.1962 Z-0.125000 F800.000000
G01 X123.5661 Y161.9620 Z-0.125000 F800.000000
G01 X126.3879 Y160.9133 Z-0.125000 F800.000000
G01 X129.3254 Y160.0173 Z-0.125000 F800.000000
G01 X131.8824 Y159.3806 Z-0.125000 F800.000000
G01 X134.6438 Y158.8138 Z-0.125000 F800.000000
G01 X146.0077 Y156.9029 Z-0.125000 F800.000000
G01 X148.7645 Y156.2629 Z-0.125000 F800.000000
G01 X151.4103 Y155.4813 Z-0.125000 F800.000000
G01 X154.2320 Y154.4319 Z-0.125000 F800.000000
G01 X157.0267 Y153.1553 Z-0.125000 F800.000000
G01 X159.8854 Y151.6085 Z-0.125000 F800.000000
G01 X162.8981 Y149.7388 Z-0.125000 F800.000000
G01 X167.4139 Y146.5490 Z-0.125000 F800.000000
G01 X172.6146 Y142.4553 Z-0.125000 F800.000000
G01 X179.0397 Y137.0140 Z-0.125000 F800.000000
G01 X184.9146 Y131.7090 Z-0.125000 F800.000000
G01 X188.8176 Y127.8791 Z-0.125000 F800.000000
G01 X192.1732 Y124.2420 Z-0.125000 F800.000000
G01 X195.2339 Y120.5270 Z-0.125000 F800.000000
G01 X198.0511 Y116.6752 Z-0.125000 F800.000000
G00 Z6.0000

G4 P0.5
(Start Block)


G00 Z6.0000
G00 X10.5833 Y211.0106
(G4 P0.1)
G01 Z-0.125000 F800.000000

G01 X17.8298 Y210.2807 Z-0.125000 F800.000000
G01 X28.5963 Y209.6220 Z-0.125000 F800.000000
G01 X32.3344 Y209.3093 Z-0.125000 F800.000000
G01 X36.8444 Y208.7105 Z-0.125000 F800.000000
G01 X41.2845 Y207.8384 Z-0.125000 F800.000000
G01 X44.8246 Y206.9516 Z-0.125000 F800.000000
G01 X48.5496 Y205.8654 Z-0.125000 F800.000000
G01 X65.3632 Y200.4114 Z-0.125000 F800.000000
G01 X70.6161 Y198.4446 Z-0.125000 F800.000000
G01 X72.9326 Y197.4162 Z-0.125000 F800.000000
G01 X75.2335 Y196.2713 Z-0.125000 F800.000000
G01 X77.7996 Y194.8361 Z-0.125000 F800.000000
G01 X80.3392 Y193.2450 Z-0.125000 F800.000000
G01 X82.9024 Y191.4699 Z-0.125000 F800.000000
G01 X85.5190 Y189.4965 Z-0.125000 F800.000000
G01 X88.5116 Y187.0680 Z-0.125000 F800.000000
G01 X91.7933 Y184.2340 Z-0.125000 F800.000000
G01 X102.7885 Y174.1151 Z-0.125000 F800.000000
G01 X107.1060 Y170.3638 Z-0.125000 F800.000000
G01 X109.6238 Y168.3750 Z-0.125000 F800.000000
G01 X112.0099 Y166.6565 Z-0.125000 F800.000000
G01 X114.4249 Y165.0852 Z-0.125000 F800.000000
G01 X116.9812 Y163.5905 Z-0.125000 F800.000000
G01 X119.8479 Y162.0957 Z-0.125000 F800.000000
G01 X122.7405 Y160.7860 Z-0.125000 F800.000000
G01 X125.6562 Y159.6695 Z-0.125000 F800.000000
G01 X128.5909 Y158.7419 Z-0.125000 F800.000000
G01 X131.1458 Y158.0768 Z-0.125000 F800.000000
G01 X134.0041 Y157.4608 Z-0.125000 F800.000000
G01 X145.5606 Y155.4161 Z-0.125000 F800.000000
G01 X148.4135 Y154.7190 Z-0.125000 F800.000000
G01 X150.9583 Y153.9313 Z-0.125000 F800.000000
G01 X153.7755 Y152.8413 Z-0.125000 F800.000000
G01 X156.6598 Y151.4700 Z-0.125000 F800.000000
G01 X159.5093 Y149.8652 Z-0.125000 F800.000000
G01 X162.5203 Y147.9226 Z-0.125000 F800.000000
G01 X167.1132 Y144.5349 Z-0.125000 F800.000000
G01 X172.2731 Y140.2650 Z-0.125000 F800.000000
G01 X178.8731 Y134.3555 Z-0.125000 F800.000000
G01 X184.5999 Y128.8654 Z-0.125000 F800.000000
G01 X188.3633 Y124.9013 Z-0.125000 F800.000000
G01 X191.7929 Y120.8882 Z-0.125000 F800.000000
G01 X194.9106 Y116.8017 Z-0.125000 F800.000000
G01 X198.0976 Y112.1435 Z-0.125000 F800.000000
G00 Z6.0000

G4 P0.5
(Start Block)


G00 Z6.0000
G00 X10.5833 Y199.8981
(G4 P0.1)
G01 Z-0.125000 F800.000000

G01 X17.1598 Y199.7971 Z-0.125000 F800.000000
G01 X28.7251 Y200.0410 Z-0.125000 F800.000000
G01 X33.2607 Y200.0120 Z-0.125000 F800.000000
G01 X38.6998 Y199.6558 Z-0.125000 F800.000000
G01 X44.1981 Y198.8930 Z-0.125000 F800.000000
G01 X48.6387 Y198.0269 Z-0.125000 F800.000000
G01 X54.1529 Y196.7541 Z-0.125000 F800.000000
G01 X58.9680 Y195.5014 Z-0.125000 F800.000000
G01 X62.8854 Y194.3150 Z-0.125000 F800.000000
G01 X66.0998 Y193.1533 Z-0.125000 F800.000000
G01 X69.0003 Y191.9065 Z-0.125000 F800.000000
G01 X71.8734 Y190.4559 Z-0.125000 F800.000000
G01 X74.7144 Y188.7988 Z-0.125000 F800.000000
G01 X77.1688 Y187.1881 Z-0.125000 F800.000000
G01 X79.6373 Y185.4111 Z-0.125000 F800.000000
G01 X82.2426 Y183.3860 Z-0.125000 F800.000000
G01 X85.0645 Y181.0508 Z-0.125000 F800.000000
G01 X88.3408 Y178.1948 Z-0.125000 F800.000000
G01 X91.5871 Y175.2219 Z-0.125000 F800.000000
G01 X100.3449 Y166.6947 Z-0.125000 F800.000000
G01 X103.5024 Y163.7583 Z-0.125000 F800.000000
G01 X107.2082 Y160.6788 Z-0.125000 F800.000000
G01 X110.7971 Y158.1505 Z-0.125000 F800.000000
G01 X113.2510 Y156.6662 Z-0.125000 F800.000000
G01 X115.9209 Y155.2333 Z-0.125000 F800.000000
G01 X118.9946 Y153.7485 Z-0.125000 F800.000000
G01 X122.1834 Y152.3627 Z-0.125000 F800.000000
G01 X127.6307 Y150.3209 Z-0.125000 F800.000000
G01 X139.4532 Y146.4259 Z-0.125000 F800.000000
G01 X142.4638 Y145.2505 Z-0.125000 F800.000000
G01 X145.2597 Y143.9833 Z-0.125000 F800.000000
G01 X148.7880 Y142.0929 Z-0.125000 F800.000000
G01 X152.2445 Y139.9107 Z-0.125000 F800.000000
G01 X155.8631 Y137.2961 Z-0.125000 F800.000000
G01 X159.5029 Y134.3440 Z-0.125000 F800.000000
G01 X163.3839 Y130.7975 Z-0.125000 F800.000000
G01 X167.0889 Y126.9425 Z-0.125000 F800.000000
G01 X171.0627 Y122.3183 Z-0.125000 F800.000000
G01 X175.1875 Y117.0423 Z-0.125000 F800.000000
G01 X182.7244 Y106.6628 Z-0.125000 F800.000000
G01 X187.0774 Y100.4146 Z-0.125000 F800.000000
G01 X190.3090 Y95.4507 Z-0.125000 F800.000000
G01 X198.0846 Y82.9945 Z-0.125000 F800.000000
G00 Z6.0000

G4 P0.5
(Start Block)


G00 Z6.0000
G00 X10.5833 Y187.1981
(G4 P0.1)
G01 Z-0.125000 F800.000000

G01 X26.7898 Y189.9187 Z-0.125000 F800.000000
G01 X35.4397 Y191.1337 Z-0.125000 F800.000000
G01 X39.1765 Y191.4991 Z-0.125000 F800.000000
G01 X42.6899 Y191.7083 Z-0.125000 F800.000000
G01 X46.0914 Y191.7662 Z-0.125000 F800.000000
G01 X49.4927 Y191.6691 Z-0.125000 F800.000000
G01 X53.0045 Y191.3855 Z-0.125000 F800.000000
G01 X56.3117 Y190.9203 Z-0.125000 F800.000000
G01 X59.4670 Y190.2646 Z-0.125000 F800.000000
G01 X62.4099 Y189.4328 Z-0.125000 F800.000000
G01 X65.2338 Y188.4052 Z-0.125000 F800.000000
G01 X68.0310 Y187.1476 Z-0.125000 F800.000000
G01 X70.8924 Y185.6182 Z-0.125000 F800.000000
G01 X73.8146 Y183.8273 Z-0.125000 F800.000000
G01 X76.4347 Y182.0430 Z-0.125000 F800.000000
G01 X79.2235 Y179.9866 Z-0.125000 F800.000000
G01 X82.1490 Y177.6837 Z-0.125000 F800.000000
G01 X85.1271 Y175.1938 Z-0.125000 F800.000000
G01 X90.6016 Y170.2351 Z-0.125000 F800.000000
G01 X98.4068 Y162.5704 Z-0.125000 F800.000000
G01 X101.0831 Y160.0460 Z-0.125000 F800.000000
G01 X104.2070 Y157.3608 Z-0.125000 F800.000000
G01 X107.2338 Y155.0857 Z-0.125000 F800.000000
G01 X111.2485 Y152.5181 Z-0.125000 F800.000000
G01 X116.1072 Y149.8816 Z-0.125000 F800.000000
G01 X121.9653 Y147.0426 Z-0.125000 F800.000000
G01 X134.2130 Y141.5150 Z-0.125000 F800.000000
G01 X137.5657 Y139.8263 Z-0.125000 F800.000000
G01 X140.6059 Y138.1183 Z-0.125000 F800.000000
G01 X144.7455 Y135.4681 Z-0.125000 F800.000000
G01 X149.2674 Y132.1926 Z-0.125000 F800.000000
G01 X153.6420 Y128.6796 Z-0.125000 F800.000000
G01 X157.4573 Y125.2573 Z-0.125000 F800.000000
G01 X159.5610 Y123.1747 Z-0.125000 F800.000000
G01 X161.5359 Y121.0655 Z-0.125000 F800.000000
G01 X163.5630 Y118.7336 Z-0.125000 F800.000000
G01 X165.6172 Y116.2051 Z-0.125000 F800.000000
G01 X171.1042 Y108.8781 Z-0.125000 F800.000000
G01 X177.6177 Y99.6778 Z-0.125000 F800.000000
G01 X180.4764 Y95.3520 Z-0.125000 F800.000000
G01 X183.1502 Y91.0338 Z-0.125000 F800.000000
G01 X192.5121 Y74.8168 Z-0.125000 F800.000000
G01 X198.2878 Y65.2526 Z-0.125000 F800.000000
G00 Z6.0000

G4 P0.5
(Start Block)


G00 Z6.0000
G00 X10.5833 Y177.6731
(G4 P0.1)
G01 Z-0.125000 F800.000000

G01 X23.6214 Y181.4733 Z-0.125000 F800.000000
G01 X37.8746 Y185.1219 Z-0.125000 F800.000000
G01 X41.7171 Y185.9738 Z-0.125000 F800.000000
G01 X44.9756 Y186.5697 Z-0.125000 F800.000000
G01 X48.0009 Y186.9785 Z-0.125000 F800.000000
G01 X50.8331 Y187.1994 Z-0.125000 F800.000000
G01 X53.7811 Y187.2206 Z-0.125000 F800.000000
G01 X56.6134 Y187.0091 Z-0.125000 F800.000000
G01 X59.3386 Y186.5683 Z-0.125000 F800.000000
G01 X61.9930 Y185.8978 Z-0.125000 F800.000000
G01 X64.6269 Y184.9868 Z-0.125000 F800.000000
G01 X67.2348 Y183.8452 Z-0.125000 F800.000000
G01 X70.1001 Y182.3411 Z-0.125000 F800.000000
G01 X73.1223 Y180.5256 Z-0.125000 F800.000000
G01 X75.8027 Y178.7500 Z-0.125000 F800.000000
G01 X78.6020 Y176.7437 Z-0.125000 F800.000000
G01 X81.3744 Y174.6111 Z-0.125000 F800.000000
G01 X84.2000 Y172.2917 Z-0.125000 F800.000000
G01 X89.4507 Y167.6035 Z-0.125000 F800.000000
G01 X99.7296 Y157.7582 Z-0.125000 F800.000000
G01 X102.6968 Y155.2241 Z-0.125000 F800.000000
G01 X105.6375 Y152.9911 Z-0.125000 F800.000000
G01 X109.2618 Y150.5823 Z-0.125000 F800.000000
G01 X113.5235 Y148.0981 Z-0.125000 F800.000000
G01 X119.2495 Y145.0581 Z-0.125000 F800.000000
G01 X131.8868 Y138.6391 Z-0.125000 F800.000000
G01 X135.5970 Y136.5883 Z-0.125000 F800.000000
G01 X138.9965 Y134.5430 Z-0.125000 F800.000000
G01 X143.6784 Y131.4203 Z-0.125000 F800.000000
G01 X148.4342 Y127.9053 Z-0.125000 F800.000000
G01 X152.6363 Y124.4773 Z-0.125000 F800.000000
G01 X156.2789 Y121.1448 Z-0.125000 F800.000000
G01 X158.2872 Y119.1136 Z-0.125000 F800.000000
G01 X160.2748 Y116.9466 Z-0.125000 F800.000000
G01 X164.3404 Y112.0400 Z-0.125000 F800.000000
G01 X170.2870 Y104.1293 Z-0.125000 F800.000000
G01 X175.7209 Y96.3960 Z-0.125000 F800.000000
G01 X178.2299 Y92.5486 Z-0.125000 F800.000000
G01 X180.6767 Y88.5641 Z-0.125000 F800.000000
G01 X191.2942 Y70.1204 Z-0.125000 F800.000000
G01 X195.1073 Y63.7333 Z-0.125000 F800.000000
G01 X198.2177 Y58.7097 Z-0.125000 F800.000000
G00 Z6.0000

G4 P0.5
(Start Block)


G00 Z6.0000
G00 X10.5833 Y174.4981
(G4 P0.1)
G01 Z-0.125000 F800.000000

G01 X23.5814 Y178.7485 Z-0.125000 F800.000000
G01 X38.5844 Y183.0670 Z-0.125000 F800.000000
G01 X42.4175 Y184.0553 Z-0.125000 F800.000000
G01 X45.5707 Y184.7478 Z-0.125000 F800.000000
G01 X48.5772 Y185.2600 Z-0.125000 F800.000000
G01 X51.1807 Y185.5452 Z-0.125000 F800.000000
G01 X54.0148 Y185.6432 Z-0.125000 F800.000000
G01 X56.7348 Y185.4979 Z-0.125000 F800.000000
G01 X59.3347 Y185.1191 Z-0.125000 F800.000000
G01 X61.9911 Y184.4760 Z-0.125000 F800.000000
G01 X64.5290 Y183.6151 Z-0.125000 F800.000000
G01 X67.1386 Y182.4870 Z-0.125000 F800.000000
G01 X69.9109 Y181.0503 Z-0.125000 F800.000000
G01 X73.0319 Y179.2034 Z-0.125000 F800.000000
G01 X75.7160 Y177.4471 Z-0.125000 F800.000000
G01 X78.4366 Y175.5176 Z-0.125000 F800.000000
G01 X81.1312 Y173.4645 Z-0.125000 F800.000000
G01 X83.8799 Y171.2278 Z-0.125000 F800.000000
G01 X88.9798 Y166.7141 Z-0.125000 F800.000000
G01 X99.2001 Y157.0165 Z-0.125000 F800.000000
G01 X102.1696 Y154.4919 Z-0.125000 F800.000000
G01 X105.1923 Y152.1980 Z-0.125000 F800.000000
G01 X108.7624 Y149.8115 Z-0.125000 F800.000000
G01 X112.8283 Y147.3998 Z-0.125000 F800.000000
G01 X118.4478 Y144.3389 Z-0.125000 F800.000000
G01 X131.4392 Y137.5303 Z-0.125000 F800.000000
G01 X135.3319 Y135.3257 Z-0.125000 F800.000000
G01 X138.9147 Y133.1348 Z-0.125000 F800.000000
G01 X143.5930 Y129.9933 Z-0.125000 F800.000000
G01 X148.3480 Y126.4744 Z-0.125000 F800.000000
G01 X152.3876 Y123.1745 Z-0.125000 F800.000000
G01 X155.9495 Y119.9086 Z-0.125000 F800.000000
G01 X157.9104 Y117.9216 Z-0.125000 F800.000000
G01 X159.8975 Y115.7530 Z-0.125000 F800.000000
G01 X164.0308 Y110.7688 Z-0.125000 F800.000000
G01 X169.8566 Y103.0524 Z-0.125000 F800.000000
G01 X175.0914 Y95.6092 Z-0.125000 F800.000000
G01 X177.5451 Y91.8483 Z-0.125000 F800.000000
G01 X179.9929 Y87.8658 Z-0.125000 F800.000000
G01 X191.0420 Y68.7062 Z-0.125000 F800.000000
G01 X195.0198 Y62.0566 Z-0.125000 F800.000000
G01 X198.0849 Y57.1415 Z-0.125000 F800.000000
G00 Z6.0000

G4 P0.5
(Start Block)


G00 Z6.0000
G00 X10.5833 Y172.9106
(G4 P0.1)
G01 Z-0.125000 F800.000000

G01 X23.6584 Y177.4075 Z-0.125000 F800.000000
G01 X38.6433 Y181.9406 Z-0.125000 F800.000000
G01 X42.4714 Y182.9955 Z-0.125000 F800.000000
G01 X45.7191 Y183.7703 Z-0.125000 F800.000000
G01 X48.6804 Y184.3302 Z-0.125000 F800.000000
G01 X51.3531 Y184.6669 Z-0.125000 F800.000000
G01 X54.0734 Y184.7983 Z-0.125000 F800.000000
G01 X56.7939 Y184.6839 Z-0.125000 F800.000000
G01 X59.3804 Y184.3266 Z-0.125000 F800.000000
G01 X61.9395 Y183.7228 Z-0.125000 F800.000000
G01 X64.4786 Y182.8756 Z-0.125000 F800.000000
G01 X67.0896 Y181.7584 Z-0.125000 F800.000000
G01 X69.8637 Y180.3336 Z-0.125000 F800.000000
G01 X72.9872 Y178.5016 Z-0.125000 F800.000000
G01 X75.5904 Y176.8124 Z-0.125000 F800.000000
G01 X78.3137 Y174.8958 Z-0.125000 F800.000000
G01 X81.0105 Y172.8533 Z-0.125000 F800.000000
G01 X83.7612 Y170.6252 Z-0.125000 F800.000000
G01 X88.7855 Y166.1980 Z-0.125000 F800.000000
G01 X98.9394 Y156.6198 Z-0.125000 F800.000000
G01 X101.9106 Y154.1025 Z-0.125000 F800.000000
G01 X104.9336 Y151.8096 Z-0.125000 F800.000000
G01 X108.4711 Y149.4363 Z-0.125000 F800.000000
G01 X112.5340 Y147.0066 Z-0.125000 F800.000000
G01 X118.1483 Y143.9129 Z-0.125000 F800.000000
G01 X131.2216 Y136.9641 Z-0.125000 F800.000000
G01 X135.2060 Y134.6864 Z-0.125000 F800.000000
G01 X138.8815 Y132.4281 Z-0.125000 F800.000000
G01 X143.5590 Y129.2828 Z-0.125000 F800.000000
G01 X148.2331 Y125.8293 Z-0.125000 F800.000000
G01 X152.2733 Y122.5324 Z-0.125000 F800.000000
G01 X155.7562 Y119.3397 Z-0.125000 F800.000000
G01 X157.7329 Y117.3376 Z-0.125000 F800.000000
G01 X159.7201 Y115.1693 Z-0.125000 F800.000000
G01 X163.9210 Y110.1075 Z-0.125000 F800.000000
G01 X169.6855 Y102.4861 Z-0.125000 F800.000000
G01 X174.8174 Y95.1909 Z-0.125000 F800.000000
G01 X177.2707 Y91.4290 Z-0.125000 F800.000000
G01 X179.6643 Y87.5353 Z-0.125000 F800.000000
G01 X190.9310 Y68.0212 Z-0.125000 F800.000000
G01 X194.9646 Y61.2861 Z-0.125000 F800.000000
G01 X198.0352 Y56.3830 Z-0.125000 F800.000000
G00 Z6.0000

G4 P0.5
(Start Block)


G00 Z6.0000
G00 X10.5833 Y171.3231
(G4 P0.1)
G01 Z-0.125000 F800.000000

G01 X23.8326 Y176.0946 Z-0.125000 F800.000000
G01 X38.4080 Y180.7094 Z-0.125000 F800.000000
G01 X42.5252 Y181.9101 Z-0.125000 F800.000000
G01 X45.8674 Y182.7634 Z-0.125000 F800.000000
G01 X48.8260 Y183.3719 Z-0.125000 F800.000000
G01 X51.5255 Y183.7513 Z-0.125000 F800.000000
G01 X54.2453 Y183.9128 Z-0.125000 F800.000000
G01 X56.8526 Y183.8270 Z-0.125000 F800.000000
G01 X59.4258 Y183.4914 Z-0.125000 F800.000000
G01 X61.9857 Y182.8999 Z-0.125000 F800.000000
G01 X64.5255 Y182.0596 Z-0.125000 F800.000000
G01 X67.1372 Y180.9483 Z-0.125000 F800.000000
G01 X70.0078 Y179.4801 Z-0.125000 F800.000000
G01 X73.1320 Y177.6522 Z-0.125000 F800.000000
G01 X75.7149 Y175.9791 Z-0.125000 F800.000000
G01 X78.3563 Y174.1244 Z-0.125000 F800.000000
G01 X80.9727 Y172.1494 Z-0.125000 F800.000000
G01 X83.6443 Y169.9944 Z-0.125000 F800.000000
G01 X88.5933 Y165.6555 Z-0.125000 F800.000000
G01 X98.6824 Y156.2031 Z-0.125000 F800.000000
G01 X101.6559 Y153.6949 Z-0.125000 F800.000000
G01 X104.6795 Y151.4047 Z-0.125000 F800.000000
G01 X108.1847 Y149.0462 Z-0.125000 F800.000000
G01 X112.2447 Y146.5996 Z-0.125000 F800.000000
G01 X117.8539 Y143.4735 Z-0.125000 F800.000000
G01 X131.1996 Y136.2826 Z-0.125000 F800.000000
G01 X135.2753 Y133.9286 Z-0.125000 F800.000000
G01 X139.0425 Y131.5984 Z-0.125000 F800.000000
G01 X143.7798 Y128.3983 Z-0.125000 F800.000000
G01 X148.3702 Y124.9977 Z-0.125000 F800.000000
G01 X152.2471 Y121.8252 Z-0.125000 F800.000000
G01 X155.7275 Y118.6229 Z-0.125000 F800.000000
G01 X157.7019 Y116.6134 Z-0.125000 F800.000000
G01 X159.6869 Y114.4380 Z-0.125000 F800.000000
G01 X163.8860 Y109.3709 Z-0.125000 F800.000000
G01 X169.5875 Y101.8396 Z-0.125000 F800.000000
G01 X174.6090 Y94.6960 Z-0.125000 F800.000000
G01 X176.9505 Y91.1047 Z-0.125000 F800.000000
G01 X179.2375 Y87.3927 Z-0.125000 F800.000000
G01 X191.3651 Y66.4423 Z-0.125000 F800.000000
G01 X195.4098 Y59.7305 Z-0.125000 F800.000000
G01 X198.6108 Y54.6980 Z-0.125000 F800.000000
G00 Z6.0000

G4 P0.5
(Start Block)


G00 Z6.0000
G00 X10.5833 Y168.1481
(G4 P0.1)
G01 Z-0.125000 F800.000000

G01 X24.1792 Y173.4607 Z-0.125000 F800.000000
G01 X36.9603 Y177.8698 Z-0.125000 F800.000000
G01 X41.8492 Y179.4418 Z-0.125000 F800.000000
G01 X45.6734 Y180.5435 Z-0.125000 F800.000000
G01 X48.9211 Y181.3168 Z-0.125000 F800.000000
G01 X51.7584 Y181.7953 Z-0.125000 F800.000000
G01 X54.3636 Y182.0132 Z-0.125000 F800.000000
G01 X56.9713 Y181.9820 Z-0.125000 F800.000000
G01 X59.5175 Y181.6901 Z-0.125000 F800.000000
G01 X61.9811 Y181.1545 Z-0.125000 F800.000000
G01 X64.5239 Y180.3459 Z-0.125000 F800.000000
G01 X67.2356 Y179.2211 Z-0.125000 F800.000000
G01 X70.1098 Y177.7777 Z-0.125000 F800.000000
G01 X73.1437 Y176.0311 Z-0.125000 F800.000000
G01 X75.6785 Y174.4136 Z-0.125000 F800.000000
G01 X78.2006 Y172.6679 Z-0.125000 F800.000000
G01 X80.7400 Y170.7773 Z-0.125000 F800.000000
G01 X83.3360 Y168.7108 Z-0.125000 F800.000000
G01 X88.0580 Y164.6314 Z-0.125000 F800.000000
G01 X98.2614 Y155.2383 Z-0.125000 F800.000000
G01 X101.2420 Y152.7596 Z-0.125000 F800.000000
G01 X104.2691 Y150.4858 Z-0.125000 F800.000000
G01 X107.7223 Y148.1607 Z-0.125000 F800.000000
G01 X111.8725 Y145.6330 Z-0.125000 F800.000000
G01 X117.5675 Y142.3969 Z-0.125000 F800.000000
G01 X131.2691 Y134.8379 Z-0.125000 F800.000000
G01 X135.5290 Y132.3420 Z-0.125000 F800.000000
G01 X139.2931 Y129.9941 Z-0.125000 F800.000000
G01 X143.9984 Y126.8104 Z-0.125000 F800.000000
G01 X148.4257 Y123.5355 Z-0.125000 F800.000000
G01 X152.1406 Y120.4931 Z-0.125000 F800.000000
G01 X155.4621 Y117.4336 Z-0.125000 F800.000000
G01 X157.4596 Y115.3998 Z-0.125000 F800.000000
G01 X159.4444 Y113.2241 Z-0.125000 F800.000000
G01 X163.7135 Y108.0859 Z-0.125000 F800.000000
G01 X169.1634 Y100.9168 Z-0.125000 F800.000000
G01 X174.0510 Y93.9788 Z-0.125000 F800.000000
G01 X176.6689 Y89.9545 Z-0.125000 F800.000000
G01 X179.2728 Y85.6915 Z-0.125000 F800.000000
G01 X188.2623 Y70.1110 Z-0.125000 F800.000000
G01 X193.0224 Y62.0638 Z-0.125000 F800.000000
G01 X195.9045 Y57.3715 Z-0.125000 F800.000000
G01 X198.5725 Y53.2487 Z-0.125000 F800.000000
G00 Z6.0000

G4 P0.5
(Start Block)


G00 Z6.0000
G00 X10.5833 Y166.5606
(G4 P0.1)
G01 Z-0.125000 F800.000000

G01 X24.3518 Y172.1381 Z-0.125000 F800.000000
G01 X29.3153 Y173.9756 Z-0.125000 F800.000000
G01 X36.1409 Y176.3726 Z-0.125000 F800.000000
G01 X41.4145 Y178.1387 Z-0.125000 F800.000000
G01 X45.4299 Y179.3541 Z-0.125000 F800.000000
G01 X48.8710 Y180.2235 Z-0.125000 F800.000000
G01 X51.8193 Y180.7587 Z-0.125000 F800.000000
G01 X54.4238 Y181.0049 Z-0.125000 F800.000000
G01 X57.0315 Y180.9984 Z-0.125000 F800.000000
G01 X59.5642 Y180.7282 Z-0.125000 F800.000000
G01 X62.0288 Y180.2093 Z-0.125000 F800.000000
G01 X64.5730 Y179.4162 Z-0.125000 F800.000000
G01 X67.2865 Y178.3062 Z-0.125000 F800.000000
G01 X70.1627 Y176.8771 Z-0.125000 F800.000000
G01 X73.1988 Y175.1440 Z-0.125000 F800.000000
G01 X75.6418 Y173.5978 Z-0.125000 F800.000000
G01 X78.0839 Y171.9231 Z-0.125000 F800.000000
G01 X80.6264 Y170.0467 Z-0.125000 F800.000000
G01 X83.1444 Y168.0588 Z-0.125000 F800.000000
G01 X87.8734 Y164.0075 Z-0.125000 F800.000000
G01 X98.0176 Y154.7630 Z-0.125000 F800.000000
G01 X101.0019 Y152.2993 Z-0.125000 F800.000000
G01 X104.0307 Y150.0333 Z-0.125000 F800.000000
G01 X107.5463 Y147.6676 Z-0.125000 F800.000000
G01 X111.7895 Y145.0750 Z-0.125000 F800.000000
G01 X117.6704 Y141.7066 Z-0.125000 F800.000000
G01 X131.4562 Y134.0262 Z-0.125000 F800.000000
G01 X135.7141 Y131.5186 Z-0.125000 F800.000000
G01 X139.4772 Y129.1649 Z-0.125000 F800.000000
G01 X144.1618 Y125.9954 Z-0.125000 F800.000000
G01 X148.4259 Y122.8454 Z-0.125000 F800.000000
G01 X152.0606 Y119.8715 Z-0.125000 F800.000000
G01 X155.3037 Y116.8877 Z-0.125000 F800.000000
G01 X157.2483 Y114.9135 Z-0.125000 F800.000000
G01 X159.2352 Y112.7441 Z-0.125000 F800.000000
G01 X163.5756 Y107.5393 Z-0.125000 F800.000000
G01 X168.9650 Y100.4673 Z-0.125000 F800.000000
G01 X173.7576 Y93.6741 Z-0.125000 F800.000000
G01 X176.3770 Y89.6534 Z-0.125000 F800.000000
G01 X178.9824 Y85.3935 Z-0.125000 F800.000000
G01 X188.1377 Y69.5526 Z-0.125000 F800.000000
G01 X192.9538 Y61.4201 Z-0.125000 F800.000000
G01 X195.8954 Y56.6502 Z-0.125000 F800.000000
G01 X198.5703 Y52.5430 Z-0.125000 F800.000000
G00 Z6.0000

G4 P0.5
(Start Block)


G00 Z6.0000
G00 X10.5833 Y164.9731
(G4 P0.1)
G01 Z-0.125000 F800.000000

G01 X24.5243 Y170.8105 Z-0.125000 F800.000000
G01 X29.3830 Y172.6807 Z-0.125000 F800.000000
G01 X35.4208 Y174.8789 Z-0.125000 F800.000000
G01 X41.0786 Y176.8413 Z-0.125000 F800.000000
G01 X45.2854 Y178.1665 Z-0.125000 F800.000000
G01 X48.8217 Y179.1047 Z-0.125000 F800.000000
G01 X51.8809 Y179.6948 Z-0.125000 F800.000000
G01 X54.4847 Y179.9656 Z-0.125000 F800.000000
G01 X57.0924 Y179.9816 Z-0.125000 F800.000000
G01 X59.5833 Y179.7371 Z-0.125000 F800.000000
G01 X62.0772 Y179.2318 Z-0.125000 F800.000000
G01 X64.6228 Y178.4551 Z-0.125000 F800.000000
G01 X67.3382 Y177.3609 Z-0.125000 F800.000000
G01 X70.2166 Y175.9474 Z-0.125000 F800.000000
G01 X73.2551 Y174.2292 Z-0.125000 F800.000000
G01 X75.6064 Y172.7547 Z-0.125000 F800.000000
G01 X78.0510 Y171.0931 Z-0.125000 F800.000000
G01 X82.9545 Y167.3819 Z-0.125000 F800.000000
G01 X87.6115 Y163.4328 Z-0.125000 F800.000000
G01 X97.7779 Y154.2733 Z-0.125000 F800.000000
G01 X100.8475 Y151.7630 Z-0.125000 F800.000000
G01 X103.8795 Y149.5116 Z-0.125000 F800.000000
G01 X107.4693 Y147.1051 Z-0.125000 F800.000000
G01 X111.8063 Y144.4520 Z-0.125000 F800.000000
G01 X117.8732 Y140.9528 Z-0.125000 F800.000000
G01 X131.9343 Y133.0514 Z-0.125000 F800.000000
G01 X136.0008 Y130.6428 Z-0.125000 F800.000000
G01 X139.6690 Y128.3436 Z-0.125000 F800.000000
G01 X144.2509 Y125.2490 Z-0.125000 F800.000000
G01 X148.4345 Y122.1660 Z-0.125000 F800.000000
G01 X151.9889 Y119.2607 Z-0.125000 F800.000000
G01 X155.1538 Y116.3528 Z-0.125000 F800.000000
G01 X157.1147 Y114.3657 Z-0.125000 F800.000000
G01 X159.1025 Y112.1993 Z-0.125000 F800.000000
G01 X163.4465 Y107.0048 Z-0.125000 F800.000000
G01 X168.7752 Y100.0293 Z-0.125000 F800.000000
G01 X173.5291 Y93.2972 Z-0.125000 F800.000000
G01 X176.0938 Y89.3640 Z-0.125000 F800.000000
G01 X178.7545 Y85.0177 Z-0.125000 F800.000000
G01 X187.9694 Y69.0986 Z-0.125000 F800.000000
G01 X192.8408 Y60.8796 Z-0.125000 F800.000000
G01 X195.7862 Y56.1177 Z-0.125000 F800.000000
G01 X198.5785 Y51.8530 Z-0.125000 F800.000000
G00 Z6.0000

G4 P0.5
(Start Block)


G00 Z6.0000
G00 X10.5833 Y163.3856
(G4 P0.1)
G01 Z-0.125000 F800.000000

G01 X24.8906 Y169.5570 Z-0.125000 F800.000000
G01 X29.4509 Y171.3757 Z-0.125000 F800.000000
G01 X34.9946 Y173.4636 Z-0.125000 F800.000000
G01 X40.7439 Y175.5199 Z-0.125000 F800.000000
G01 X45.1421 Y176.9545 Z-0.125000 F800.000000
G01 X48.8717 Y177.9838 Z-0.125000 F800.000000
G01 X51.9434 Y178.6050 Z-0.125000 F800.000000
G01 X54.6598 Y178.9059 Z-0.125000 F800.000000
G01 X57.1541 Y178.9362 Z-0.125000 F800.000000
G01 X59.6455 Y178.7105 Z-0.125000 F800.000000
G01 X62.2247 Y178.2011 Z-0.125000 F800.000000
G01 X64.7710 Y177.4319 Z-0.125000 F800.000000
G01 X67.4873 Y176.3458 Z-0.125000 F800.000000
G01 X70.3671 Y174.9421 Z-0.125000 F800.000000
G01 X73.4072 Y173.2341 Z-0.125000 F800.000000
G01 X75.7597 Y171.7662 Z-0.125000 F800.000000
G01 X78.1022 Y170.1827 Z-0.125000 F800.000000
G01 X82.8474 Y166.6188 Z-0.125000 F800.000000
G01 X87.3519 Y162.8390 Z-0.125000 F800.000000
G01 X97.5422 Y153.7727 Z-0.125000 F800.000000
G01 X100.6163 Y151.2815 Z-0.125000 F800.000000
G01 X103.6506 Y149.0408 Z-0.125000 F800.000000
G01 X107.3033 Y146.5965 Z-0.125000 F800.000000
G01 X111.8280 Y143.8229 Z-0.125000 F800.000000
G01 X118.1758 Y140.1383 Z-0.125000 F800.000000
G01 X132.3243 Y132.1363 Z-0.125000 F800.000000
G01 X136.3892 Y129.7182 Z-0.125000 F800.000000
G01 X139.9626 Y127.4735 Z-0.125000 F800.000000
G01 X144.5134 Y124.4000 Z-0.125000 F800.000000
G01 X148.5326 Y121.4370 Z-0.125000 F800.000000
G01 X152.0054 Y118.5939 Z-0.125000 F800.000000
G01 X155.0902 Y115.7551 Z-0.125000 F800.000000
G01 X157.0586 Y113.7589 Z-0.125000 F800.000000
G01 X159.0462 Y111.5920 Z-0.125000 F800.000000
G01 X163.3918 Y106.4021 Z-0.125000 F800.000000
G01 X168.6577 Y99.5177 Z-0.125000 F800.000000
G01 X173.3089 Y92.9338 Z-0.125000 F800.000000
G01 X175.8738 Y89.0013 Z-0.125000 F800.000000
G01 X178.5351 Y84.6560 Z-0.125000 F800.000000
G01 X187.8631 Y68.5686 Z-0.125000 F800.000000
G01 X192.7369 Y60.3545 Z-0.125000 F800.000000
G01 X195.7416 Y55.5147 Z-0.125000 F800.000000
G01 X198.5965 Y51.1803 Z-0.125000 F800.000000
G00 Z6.0000

G4 P0.5
(Start Block)


G00 Z6.0000
G00 X10.5833 Y153.8606
(G4 P0.1)
G01 Z-0.125000 F800.000000

G01 X15.8793 Y156.3162 Z-0.125000 F800.000000
G01 X27.8593 Y162.3056 Z-0.125000 F800.000000
G01 X35.2858 Y165.6507 Z-0.125000 F800.000000
G01 X40.3273 Y167.6961 Z-0.125000 F800.000000
G01 X45.0003 Y169.4107 Z-0.125000 F800.000000
G01 X48.9122 Y170.6592 Z-0.125000 F800.000000
G01 X52.1574 Y171.4676 Z-0.125000 F800.000000
G01 X54.9536 Y171.9085 Z-0.125000 F800.000000
G01 X57.5601 Y172.0574 Z-0.125000 F800.000000
G01 X60.0537 Y171.9398 Z-0.125000 F800.000000
G01 X62.6526 Y171.5403 Z-0.125000 F800.000000
G01 X65.3057 Y170.8521 Z-0.125000 F800.000000
G01 X68.1311 Y169.8387 Z-0.125000 F800.000000
G01 X71.1223 Y168.5031 Z-0.125000 F800.000000
G01 X74.2745 Y166.8514 Z-0.125000 F800.000000
G01 X78.2363 Y164.4412 Z-0.125000 F800.000000
G01 X82.4289 Y161.5177 Z-0.125000 F800.000000
G01 X86.3431 Y158.5083 Z-0.125000 F800.000000
G01 X96.5501 Y150.3073 Z-0.125000 F800.000000
G01 X99.5791 Y148.0413 Z-0.125000 F800.000000
G01 X102.7183 Y145.8513 Z-0.125000 F800.000000
G01 X108.0230 Y142.4365 Z-0.125000 F800.000000
G01 X116.1377 Y137.5119 Z-0.125000 F800.000000
G01 X121.7249 Y134.2512 Z-0.125000 F800.000000
G01 X134.6350 Y126.9241 Z-0.125000 F800.000000
G01 X141.4303 Y122.8110 Z-0.125000 F800.000000
G01 X145.1908 Y120.3178 Z-0.125000 F800.000000
G01 X148.4787 Y117.9316 Z-0.125000 F800.000000
G01 X151.4737 Y115.5142 Z-0.125000 F800.000000
G01 X154.2519 Y113.0041 Z-0.125000 F800.000000
G01 X158.1985 Y108.9447 Z-0.125000 F800.000000
G01 X162.4380 Y103.9961 Z-0.125000 F800.000000
G01 X167.4073 Y97.6130 Z-0.125000 F800.000000
G01 X171.8645 Y91.3768 Z-0.125000 F800.000000
G01 X174.4942 Y87.3795 Z-0.125000 F800.000000
G01 X177.3269 Y82.7865 Z-0.125000 F800.000000
G01 X187.8217 Y64.8886 Z-0.125000 F800.000000
G01 X191.9068 Y58.0590 Z-0.125000 F800.000000
G01 X195.0977 Y53.0041 Z-0.125000 F800.000000
G01 X198.2614 Y48.3120 Z-0.125000 F800.000000
G00 Z6.0000

G4 P0.5
(Start Block)


G00 Z6.0000
G00 X10.5833 Y130.0481
(G4 P0.1)
G01 Z-0.125000 F800.000000

G01 X16.4737 Y131.6565 Z-0.125000 F800.000000
G01 X21.6660 Y133.2105 Z-0.125000 F800.000000
G01 X26.3551 Y134.7650 Z-0.125000 F800.000000
G01 X30.1474 Y136.1993 Z-0.125000 F800.000000
G01 X33.4326 Y137.6289 Z-0.125000 F800.000000
G01 X36.6946 Y139.2334 Z-0.125000 F800.000000
G01 X47.3474 Y145.1367 Z-0.125000 F800.000000
G01 X51.1750 Y147.0934 Z-0.125000 F800.000000
G01 X53.2993 Y148.0304 Z-0.125000 F800.000000
G01 X55.3417 Y148.7985 Z-0.125000 F800.000000
G01 X57.2999 Y149.3973 Z-0.125000 F800.000000
G01 X59.1703 Y149.8348 Z-0.125000 F800.000000
G01 X61.9681 Y150.2373 Z-0.125000 F800.000000
G01 X64.8021 Y150.3414 Z-0.125000 F800.000000
G01 X67.6350 Y150.1612 Z-0.125000 F800.000000
G01 X70.7564 Y149.6760 Z-0.125000 F800.000000
G01 X73.9058 Y148.9284 Z-0.125000 F800.000000
G01 X77.2320 Y147.8804 Z-0.125000 F800.000000
G01 X80.7295 Y146.5279 Z-0.125000 F800.000000
G01 X84.5888 Y144.8015 Z-0.125000 F800.000000
G01 X90.6283 Y141.7943 Z-0.125000 F800.000000
G01 X98.9313 Y137.3881 Z-0.125000 F800.000000
G01 X104.6396 Y134.2344 Z-0.125000 F800.000000
G01 X116.0301 Y127.7641 Z-0.125000 F800.000000
G01 X121.9343 Y124.5403 Z-0.125000 F800.000000
G01 X127.5708 Y121.5901 Z-0.125000 F800.000000
G01 X137.2415 Y116.6869 Z-0.125000 F800.000000
G01 X141.1498 Y114.5807 Z-0.125000 F800.000000
G01 X144.4573 Y112.6068 Z-0.125000 F800.000000
G01 X147.3923 Y110.6326 Z-0.125000 F800.000000
G01 X150.1685 Y108.5181 Z-0.125000 F800.000000
G01 X152.8914 Y106.1749 Z-0.125000 F800.000000
G01 X156.6053 Y102.5238 Z-0.125000 F800.000000
G01 X160.4180 Y98.2601 Z-0.125000 F800.000000
G01 X164.6483 Y93.0110 Z-0.125000 F800.000000
G01 X168.5289 Y87.7206 Z-0.125000 F800.000000
G01 X171.6298 Y83.0973 Z-0.125000 F800.000000
G01 X175.5946 Y76.8302 Z-0.125000 F800.000000
G01 X180.4292 Y68.9392 Z-0.125000 F800.000000
G01 X187.1016 Y57.8110 Z-0.125000 F800.000000
G01 X189.8902 Y53.3285 Z-0.125000 F800.000000
G01 X193.7607 Y47.4828 Z-0.125000 F800.000000
G01 X198.0251 Y41.4846 Z-0.125000 F800.000000
G00 Z6.0000

G4 P0.5
(Start Block)


G00 Z6.0000
G00 X10.5833 Y126.8731
(G4 P0.1)
G01 Z-0.125000 F800.000000

G01 X17.0738 Y128.4957 Z-0.125000 F800.000000
G01 X22.5698 Y130.0180 Z-0.125000 F800.000000
G01 X27.2670 Y131.4839 Z-0.125000 F800.000000
G01 X31.1619 Y132.9056 Z-0.125000 F800.000000
G01 X34.6429 Y134.3982 Z-0.125000 F800.000000
G01 X38.0960 Y136.1025 Z-0.125000 F800.000000
G01 X41.3334 Y137.8727 Z-0.125000 F800.000000
G01 X48.8252 Y142.1743 Z-0.125000 F800.000000
G01 X52.5549 Y144.0966 Z-0.125000 F800.000000
G01 X54.6802 Y145.0248 Z-0.125000 F800.000000
G01 X56.7247 Y145.7736 Z-0.125000 F800.000000
G01 X58.6851 Y146.3462 Z-0.125000 F800.000000
G01 X60.6562 Y146.7722 Z-0.125000 F800.000000
G01 X63.5554 Y147.1252 Z-0.125000 F800.000000
G01 X66.6165 Y147.1611 Z-0.125000 F800.000000
G01 X69.7875 Y146.8754 Z-0.125000 F800.000000
G01 X73.1314 Y146.2802 Z-0.125000 F800.000000
G01 X76.4729 Y145.4180 Z-0.125000 F800.000000
G01 X80.0873 Y144.2211 Z-0.125000 F800.000000
G01 X83.9704 Y142.6910 Z-0.125000 F800.000000
G01 X88.5074 Y140.6798 Z-0.125000 F800.000000
G01 X93.7931 Y138.1477 Z-0.125000 F800.000000
G01 X99.4419 Y135.2809 Z-0.125000 F800.000000
G01 X104.4970 Y132.5766 Z-0.125000 F800.000000
G01 X115.6227 Y126.3918 Z-0.125000 F800.000000
G01 X121.2460 Y123.3555 Z-0.125000 F800.000000
G01 X127.2703 Y120.2433 Z-0.125000 F800.000000
G01 X137.2424 Y115.2922 Z-0.125000 F800.000000
G01 X141.0600 Y113.2679 Z-0.125000 F800.000000
G01 X144.3707 Y111.3123 Z-0.125000 F800.000000
G01 X147.3381 Y109.3245 Z-0.125000 F800.000000
G01 X150.1952 Y107.1444 Z-0.125000 F800.000000
G01 X152.9156 Y104.7909 Z-0.125000 F800.000000
G01 X156.5024 Y101.2546 Z-0.125000 F800.000000
G01 X160.2473 Y97.0675 Z-0.125000 F800.000000
G01 X164.2149 Y92.1516 Z-0.125000 F800.000000
G01 X167.9761 Y87.0354 Z-0.125000 F800.000000
G01 X171.3054 Y82.0828 Z-0.125000 F800.000000
G01 X175.6107 Y75.3156 Z-0.125000 F800.000000
G01 X180.2969 Y67.7218 Z-0.125000 F800.000000
G01 X186.7688 Y56.9835 Z-0.125000 F800.000000
G01 X189.5670 Y52.5218 Z-0.125000 F800.000000
G01 X193.6776 Y46.3739 Z-0.125000 F800.000000
G01 X198.2465 Y40.0111 Z-0.125000 F800.000000
G00 Z6.0000

G4 P0.5
(Start Block)


G00 Z6.0000
G00 X10.5833 Y122.1105
(G4 P0.1)
G01 Z-0.125000 F800.000000

G01 X17.6755 Y123.7094 Z-0.125000 F800.000000
G01 X23.3786 Y125.1438 Z-0.125000 F800.000000
G01 X27.9870 Y126.4742 Z-0.125000 F800.000000
G01 X31.9867 Y127.8574 Z-0.125000 F800.000000
G01 X35.6673 Y129.3823 Z-0.125000 F800.000000
G01 X39.4128 Y131.1951 Z-0.125000 F800.000000
G01 X42.9383 Y133.1055 Z-0.125000 F800.000000
G01 X50.4303 Y137.4059 Z-0.125000 F800.000000
G01 X54.1636 Y139.3035 Z-0.125000 F800.000000
G01 X56.2921 Y140.2056 Z-0.125000 F800.000000
G01 X58.4378 Y140.9531 Z-0.125000 F800.000000
G01 X60.4999 Y141.5072 Z-0.125000 F800.000000
G01 X62.5728 Y141.8988 Z-0.125000 F800.000000
G01 X65.6302 Y142.1832 Z-0.125000 F800.000000
G01 X68.9181 Y142.1369 Z-0.125000 F800.000000
G01 X72.4837 Y141.7507 Z-0.125000 F800.000000
G01 X76.1354 Y141.0515 Z-0.125000 F800.000000
G01 X79.9661 Y140.0328 Z-0.125000 F800.000000
G01 X84.1673 Y138.6476 Z-0.125000 F800.000000
G01 X88.9300 Y136.8266 Z-0.125000 F800.000000
G01 X94.0564 Y134.6404 Z-0.125000 F800.000000
G01 X98.5811 Y132.5345 Z-0.125000 F800.000000
G01 X103.2778 Y130.1900 Z-0.125000 F800.000000
G01 X117.6846 Y122.5157 Z-0.125000 F800.000000
G01 X123.4209 Y119.5438 Z-0.125000 F800.000000
G01 X136.7684 Y113.0658 Z-0.125000 F800.000000
G01 X140.8797 Y110.9389 Z-0.125000 F800.000000
G01 X144.1935 Y109.0020 Z-0.125000 F800.000000
G01 X147.2134 Y106.9823 Z-0.125000 F800.000000
G01 X150.0687 Y104.7944 Z-0.125000 F800.000000
G01 X152.8652 Y102.3562 Z-0.125000 F800.000000
G01 X156.2687 Y98.9821 Z-0.125000 F800.000000
G01 X159.7420 Y95.1023 Z-0.125000 F800.000000
G01 X163.3823 Y90.6052 Z-0.125000 F800.000000
G01 X166.9142 Y85.8163 Z-0.125000 F800.000000
G01 X170.6273 Y80.3364 Z-0.125000 F800.000000
G01 X175.6794 Y72.5065 Z-0.125000 F800.000000
G01 X179.7902 Y65.9361 Z-0.125000 F800.000000
G01 X185.9674 Y55.7955 Z-0.125000 F800.000000
G01 X188.8914 Y51.1943 Z-0.125000 F800.000000
G01 X193.1651 Y44.8881 Z-0.125000 F800.000000
G01 X197.9510 Y38.2799 Z-0.125000 F800.000000
G00 Z6.0000

G4 P0.5
(Start Block)


G00 Z6.0000
G00 X10.5833 Y118.9355
(G4 P0.1)
G01 Z-0.125000 F800.000000

G01 X18.0743 Y120.5486 Z-0.125000 F800.000000
G01 X23.7816 Y121.9224 Z-0.125000 F800.000000
G01 X28.3935 Y123.2097 Z-0.125000 F800.000000
G01 X32.2990 Y124.5259 Z-0.125000 F800.000000
G01 X35.9835 Y126.0167 Z-0.125000 F800.000000
G01 X39.7342 Y127.7920 Z-0.125000 F800.000000
G01 X43.3608 Y129.7164 Z-0.125000 F800.000000
G01 X50.9612 Y133.9881 Z-0.125000 F800.000000
G01 X54.7953 Y135.8985 Z-0.125000 F800.000000
G01 X57.0233 Y136.8194 Z-0.125000 F800.000000
G01 X59.1711 Y137.5449 Z-0.125000 F800.000000
G01 X61.3332 Y138.1024 Z-0.125000 F800.000000
G01 X63.4072 Y138.4726 Z-0.125000 F800.000000
G01 X66.6919 Y138.7451 Z-0.125000 F800.000000
G01 X70.0932 Y138.6737 Z-0.125000 F800.000000
G01 X73.8145 Y138.2711 Z-0.125000 F800.000000
G01 X77.6645 Y137.5506 Z-0.125000 F800.000000
G01 X81.8906 Y136.4627 Z-0.125000 F800.000000
G01 X86.4875 Y135.0006 Z-0.125000 F800.000000
G01 X91.3536 Y133.1999 Z-0.125000 F800.000000
G01 X96.3883 Y131.0959 Z-0.125000 F800.000000
G01 X100.4355 Y129.2432 Z-0.125000 F800.000000
G01 X104.8504 Y127.0830 Z-0.125000 F800.000000
G01 X123.5940 Y117.4100 Z-0.125000 F800.000000
G01 X136.2843 Y111.3668 Z-0.125000 F800.000000
G01 X140.5910 Y109.1690 Z-0.125000 F800.000000
G01 X143.9065 Y107.2426 Z-0.125000 F800.000000
G01 X146.9786 Y105.1902 Z-0.125000 F800.000000
G01 X149.9138 Y102.9318 Z-0.125000 F800.000000
G01 X152.7071 Y100.4809 Z-0.125000 F800.000000
G01 X155.9296 Y97.2779 Z-0.125000 F800.000000
G01 X159.2677 Y93.5530 Z-0.125000 F800.000000
G01 X162.6447 Y89.3871 Z-0.125000 F800.000000
G01 X165.9868 Y84.8669 Z-0.125000 F800.000000
G01 X170.0316 Y78.9539 Z-0.125000 F800.000000
G01 X175.5048 Y70.5953 Z-0.125000 F800.000000
G01 X179.2508 Y64.6796 Z-0.125000 F800.000000
G01 X185.4020 Y54.6882 Z-0.125000 F800.000000
G01 X188.5090 Y49.8655 Z-0.125000 F800.000000
G01 X193.1252 Y43.1523 Z-0.125000 F800.000000
G01 X198.1887 Y36.2484 Z-0.125000 F800.000000
G00 Z6.0000

G4 P0.5
(Start Block)


G00 Z6.0000
G00 X10.5833 Y117.3480
(G4 P0.1)
G01 Z-0.125000 F800.000000

G01 X18.0760 Y118.9332 Z-0.125000 F800.000000
G01 X23.7852 Y120.2803 Z-0.125000 F800.000000
G01 X28.3989 Y121.5446 Z-0.125000 F800.000000
G01 X32.3063 Y122.8402 Z-0.125000 F800.000000
G01 X35.9933 Y124.3099 Z-0.125000 F800.000000
G01 X39.7471 Y126.0622 Z-0.125000 F800.000000
G01 X43.3771 Y127.9639 Z-0.125000 F800.000000
G01 X51.1750 Y132.2958 Z-0.125000 F800.000000
G01 X55.0129 Y134.1796 Z-0.125000 F800.000000
G01 X57.2422 Y135.0890 Z-0.125000 F800.000000
G01 X59.4888 Y135.8355 Z-0.125000 F800.000000
G01 X61.6518 Y136.3810 Z-0.125000 F800.000000
G01 X63.7687 Y136.7487 Z-0.125000 F800.000000
G01 X67.0536 Y137.0121 Z-0.125000 F800.000000
G01 X70.6815 Y136.9312 Z-0.125000 F800.000000
G01 X74.5301 Y136.5121 Z-0.125000 F800.000000
G01 X78.4791 Y135.7782 Z-0.125000 F800.000000
G01 X82.8048 Y134.6816 Z-0.125000 F800.000000
G01 X87.5016 Y133.2118 Z-0.125000 F800.000000
G01 X92.4672 Y131.3956 Z-0.125000 F800.000000
G01 X97.5036 Y129.3065 Z-0.125000 F800.000000
G01 X104.5303 Y126.0291 Z-0.125000 F800.000000
G01 X122.6194 Y116.8020 Z-0.125000 F800.000000
G01 X136.0819 Y110.4155 Z-0.125000 F800.000000
G01 X140.2944 Y108.2773 Z-0.125000 F800.000000
G01 X143.7059 Y106.3031 Z-0.125000 F800.000000
G01 X146.7268 Y104.2891 Z-0.125000 F800.000000
G01 X149.6631 Y102.0357 Z-0.125000 F800.000000
G01 X152.5364 Y99.5157 Z-0.125000 F800.000000
G01 X155.7118 Y96.3577 Z-0.125000 F800.000000
G01 X158.9819 Y92.7092 Z-0.125000 F800.000000
G01 X162.2267 Y88.7072 Z-0.125000 F800.000000
G01 X165.5054 Y84.2759 Z-0.125000 F800.000000
G01 X169.7747 Y78.0680 Z-0.125000 F800.000000
G01 X175.3232 Y69.6687 Z-0.125000 F800.000000
G01 X178.8596 Y64.1247 Z-0.125000 F800.000000
G01 X185.0278 Y54.1699 Z-0.125000 F800.000000
G01 X188.2548 Y49.1954 Z-0.125000 F800.000000
G01 X193.2272 Y42.0207 Z-0.125000 F800.000000
G01 X198.3048 Y35.1534 Z-0.125000 F800.000000
G00 Z6.0000

G4 P0.5
(Start Block)


G00 Z6.0000
G00 X10.5833 Y112.5855
(G4 P0.1)
G01 Z-0.125000 F800.000000

G01 X18.3745 Y114.1877 Z-0.125000 F800.000000
G01 X23.9880 Y115.4708 Z-0.125000 F800.000000
G01 X28.5063 Y116.6724 Z-0.125000 F800.000000
G01 X32.4170 Y117.9332 Z-0.125000 F800.000000
G01 X36.1083 Y119.3652 Z-0.125000 F800.000000
G01 X39.8679 Y121.0728 Z-0.125000 F800.000000
G01 X43.5052 Y122.9256 Z-0.125000 F800.000000
G01 X51.4156 Y127.1991 Z-0.125000 F800.000000
G01 X55.3568 Y129.0777 Z-0.125000 F800.000000
G01 X57.6865 Y129.9967 Z-0.125000 F800.000000
G01 X59.9354 Y130.7192 Z-0.125000 F800.000000
G01 X62.1980 Y131.2719 Z-0.125000 F800.000000
G01 X64.3859 Y131.6405 Z-0.125000 F800.000000
G01 X67.8976 Y131.9160 Z-0.125000 F800.000000
G01 X71.8658 Y131.8437 Z-0.125000 F800.000000
G01 X75.9419 Y131.4386 Z-0.125000 F800.000000
G01 X80.3171 Y130.6854 Z-0.125000 F800.000000
G01 X85.0413 Y129.5639 Z-0.125000 F800.000000
G01 X89.9411 Y128.1154 Z-0.125000 F800.000000
G01 X94.9144 Y126.3746 Z-0.125000 F800.000000
G01 X100.0546 Y124.3047 Z-0.125000 F800.000000
G01 X107.3789 Y120.9590 Z-0.125000 F800.000000
G01 X122.6257 Y113.3978 Z-0.125000 F800.000000
G01 X135.1346 Y107.5255 Z-0.125000 F800.000000
G01 X139.3491 Y105.4015 Z-0.125000 F800.000000
G01 X142.7623 Y103.4377 Z-0.125000 F800.000000
G01 X145.9086 Y101.3449 Z-0.125000 F800.000000
G01 X148.9253 Y99.0238 Z-0.125000 F800.000000
G01 X151.7964 Y96.4950 Z-0.125000 F800.000000
G01 X154.7765 Y93.5276 Z-0.125000 F800.000000
G01 X157.7758 Y90.1886 Z-0.125000 F800.000000
G01 X160.6915 Y86.6008 Z-0.125000 F800.000000
G01 X163.8487 Y82.3613 Z-0.125000 F800.000000
G01 X169.0494 Y74.9670 Z-0.125000 F800.000000
G01 X174.4390 Y67.0597 Z-0.125000 F800.000000
G01 X177.5650 Y62.2799 Z-0.125000 F800.000000
G01 X183.9623 Y52.2036 Z-0.125000 F800.000000
G01 X187.5593 Y46.7975 Z-0.125000 F800.000000
G01 X193.3647 Y38.5961 Z-0.125000 F800.000000
G01 X197.9657 Y32.5223 Z-0.125000 F800.000000
G00 Z6.0000

G4 P0.5
(Start Block)


G00 Z6.0000
G00 X10.5833 Y110.9980
(G4 P0.1)
G01 Z-0.125000 F800.000000

G01 X18.4734 Y112.6159 Z-0.125000 F800.000000
G01 X24.0872 Y113.8943 Z-0.125000 F800.000000
G01 X28.5077 Y115.0647 Z-0.125000 F800.000000
G01 X32.4191 Y116.3177 Z-0.125000 F800.000000
G01 X36.1114 Y117.7407 Z-0.125000 F800.000000
G01 X39.9686 Y119.4832 Z-0.125000 F800.000000
G01 X43.6071 Y121.3273 Z-0.125000 F800.000000
G01 X51.4264 Y125.5226 Z-0.125000 F800.000000
G01 X55.4654 Y127.4348 Z-0.125000 F800.000000
G01 X57.7958 Y128.3470 Z-0.125000 F800.000000
G01 X60.0450 Y129.0655 Z-0.125000 F800.000000
G01 X62.3077 Y129.6175 Z-0.125000 F800.000000
G01 X64.6228 Y130.0058 Z-0.125000 F800.000000
G01 X68.2478 Y130.2852 Z-0.125000 F800.000000
G01 X72.3294 Y130.2136 Z-0.125000 F800.000000
G01 X76.5190 Y129.8064 Z-0.125000 F800.000000
G01 X80.9233 Y129.0658 Z-0.125000 F800.000000
G01 X85.7477 Y127.9459 Z-0.125000 F800.000000
G01 X90.6494 Y126.5218 Z-0.125000 F800.000000
G01 X95.6247 Y124.8005 Z-0.125000 F800.000000
G01 X100.7666 Y122.7456 Z-0.125000 F800.000000
G01 X108.2858 Y119.3281 Z-0.125000 F800.000000
G01 X122.6758 Y112.2385 Z-0.125000 F800.000000
G01 X134.8002 Y106.5505 Z-0.125000 F800.000000
G01 X139.0145 Y104.4241 Z-0.125000 F800.000000
G01 X142.4271 Y102.4568 Z-0.125000 F800.000000
G01 X145.6140 Y100.3316 Z-0.125000 F800.000000
G01 X148.6293 Y98.0046 Z-0.125000 F800.000000
G01 X151.4992 Y95.4707 Z-0.125000 F800.000000
G01 X154.4390 Y92.5375 Z-0.125000 F800.000000
G01 X157.3018 Y89.3495 Z-0.125000 F800.000000
G01 X160.0862 Y85.9281 Z-0.125000 F800.000000
G01 X163.2483 Y81.7014 Z-0.125000 F800.000000
G01 X168.9501 Y73.6679 Z-0.125000 F800.000000
G01 X174.0488 Y66.2690 Z-0.125000 F800.000000
G01 X177.0745 Y61.6858 Z-0.125000 F800.000000
G01 X183.6630 Y51.4063 Z-0.125000 F800.000000
G01 X187.5005 Y45.6988 Z-0.125000 F800.000000
G01 X193.5012 Y37.2871 Z-0.125000 F800.000000
G01 X198.0583 Y31.3548 Z-0.125000 F800.000000
G00 Z6.0000

G4 P0.5
(Start Block)


G00 Z6.0000
G00 X10.5833 Y106.2355
(G4 P0.1)
G01 Z-0.125000 F800.000000

G01 X18.1767 Y107.8059 Z-0.125000 F800.000000
G01 X24.0856 Y109.1571 Z-0.125000 F800.000000
G01 X28.5065 Y110.3231 Z-0.125000 F800.000000
G01 X32.4188 Y111.5664 Z-0.125000 F800.000000
G01 X36.1126 Y112.9753 Z-0.125000 F800.000000
G01 X39.8764 Y114.6514 Z-0.125000 F800.000000
G01 X43.6147 Y116.5161 Z-0.125000 F800.000000
G01 X51.6344 Y120.7496 Z-0.125000 F800.000000
G01 X55.7742 Y122.6733 Z-0.125000 F800.000000
G01 X58.2037 Y123.6053 Z-0.125000 F800.000000
G01 X60.5523 Y124.3384 Z-0.125000 F800.000000
G01 X62.8156 Y124.8808 Z-0.125000 F800.000000
G01 X65.2013 Y125.2810 Z-0.125000 F800.000000
G01 X69.0526 Y125.5953 Z-0.125000 F800.000000
G01 X73.3611 Y125.5693 Z-0.125000 F800.000000
G01 X77.8921 Y125.1936 Z-0.125000 F800.000000
G01 X82.5255 Y124.4864 Z-0.125000 F800.000000
G01 X87.4533 Y123.4198 Z-0.125000 F800.000000
G01 X92.3602 Y122.0604 Z-0.125000 F800.000000
G01 X97.2427 Y120.4212 Z-0.125000 F800.000000
G01 X102.3891 Y118.4061 Z-0.125000 F800.000000
G01 X106.1581 Y116.7707 Z-0.125000 F800.000000
G01 X110.2992 Y114.8553 Z-0.125000 F800.000000
G01 X123.4521 Y108.4511 Z-0.125000 F800.000000
G01 X133.8491 Y103.6098 Z-0.125000 F800.000000
G01 X137.5831 Y101.7155 Z-0.125000 F800.000000
G01 X141.0899 Y99.6900 Z-0.125000 F800.000000
G01 X144.2663 Y97.5709 Z-0.125000 F800.000000
G01 X147.3634 Y95.1826 Z-0.125000 F800.000000
G01 X150.3121 Y92.5745 Z-0.125000 F800.000000
G01 X153.0186 Y89.8742 Z-0.125000 F800.000000
G01 X155.6793 Y86.9212 Z-0.125000 F800.000000
G01 X158.4009 Y83.5914 Z-0.125000 F800.000000
G01 X161.5792 Y79.4070 Z-0.125000 F800.000000
G01 X168.5621 Y69.8717 Z-0.125000 F800.000000
G01 X172.6565 Y64.1233 Z-0.125000 F800.000000
G01 X175.7172 Y59.6220 Z-0.125000 F800.000000
G01 X183.0606 Y48.5111 Z-0.125000 F800.000000
G01 X188.1726 Y41.1666 Z-0.125000 F800.000000
G01 X193.6843 Y33.6498 Z-0.125000 F800.000000
G01 X196.0442 Y30.6425 Z-0.125000 F800.000000
G01 X198.3125 Y27.9132 Z-0.125000 F800.000000
G00 Z6.0000

G4 P0.5
(Start Block)


G00 Z6.0000
G00 X10.5833 Y104.6480
(G4 P0.1)
G01 Z-0.125000 F800.000000

G01 X17.7814 Y106.1505 Z-0.125000 F800.000000
G01 X23.9845 Y107.5887 Z-0.125000 F800.000000
G01 X28.5029 Y108.7892 Z-0.125000 F800.000000
G01 X32.4151 Y110.0337 Z-0.125000 F800.000000
G01 X36.1091 Y111.4416 Z-0.125000 F800.000000
G01 X39.8732 Y113.1149 Z-0.125000 F800.000000
G01 X43.6121 Y114.9750 Z-0.125000 F800.000000
G01 X51.6338 Y119.1961 Z-0.125000 F800.000000
G01 X55.7737 Y121.1184 Z-0.125000 F800.000000
G01 X58.2030 Y122.0534 Z-0.125000 F800.000000
G01 X60.5509 Y122.7930 Z-0.125000 F800.000000
G01 X62.9122 Y123.3655 Z-0.125000 F800.000000
G01 X65.3117 Y123.7747 Z-0.125000 F800.000000
G01 X69.2759 Y124.1126 Z-0.125000 F800.000000
G01 X73.6979 Y124.1058 Z-0.125000 F800.000000
G01 X78.2294 Y123.7543 Z-0.125000 F800.000000
G01 X82.9205 Y123.0655 Z-0.125000 F800.000000
G01 X87.7514 Y122.0484 Z-0.125000 F800.000000
G01 X92.6604 Y120.7150 Z-0.125000 F800.000000
G01 X97.5447 Y119.0951 Z-0.125000 F800.000000
G01 X102.6928 Y117.0952 Z-0.125000 F800.000000
G01 X106.3664 Y115.5112 Z-0.125000 F800.000000
G01 X110.5087 Y113.6047 Z-0.125000 F800.000000
G01 X122.7997 Y107.6369 Z-0.125000 F800.000000
G01 X133.1997 Y102.8186 Z-0.125000 F800.000000
G01 X137.0303 Y100.8814 Z-0.125000 F800.000000
G01 X140.5373 Y98.8572 Z-0.125000 F800.000000
G01 X143.7761 Y96.6973 Z-0.125000 F800.000000
G01 X146.8734 Y94.3095 Z-0.125000 F800.000000
G01 X149.8224 Y91.7031 Z-0.125000 F800.000000
G01 X152.5062 Y89.0278 Z-0.125000 F800.000000
G01 X155.0995 Y86.1534 Z-0.125000 F800.000000
G01 X157.7582 Y82.9145 Z-0.125000 F800.000000
G01 X161.0090 Y78.6650 Z-0.125000 F800.000000
G01 X168.2764 Y68.8521 Z-0.125000 F800.000000
G01 X172.1609 Y63.4571 Z-0.125000 F800.000000
G01 X175.2508 Y58.9596 Z-0.125000 F800.000000
G01 X183.0190 Y47.3300 Z-0.125000 F800.000000
G01 X188.9689 Y38.8822 Z-0.125000 F800.000000
G01 X193.9326 Y32.2267 Z-0.125000 F800.000000
G01 X198.3905 Y26.8156 Z-0.125000 F800.000000
G00 Z6.0000

G4 P0.5
(Start Block)


G00 Z6.0000
G00 X10.5833 Y103.0605
(G4 P0.1)
G01 Z-0.125000 F800.000000

G01 X17.2874 Y104.4760 Z-0.125000 F800.000000
G01 X23.6855 Y105.9882 Z-0.125000 F800.000000
G01 X28.4975 Y107.2816 Z-0.125000 F800.000000
G01 X32.5070 Y108.5635 Z-0.125000 F800.000000
G01 X36.2005 Y109.9749 Z-0.125000 F800.000000
G01 X39.9641 Y111.6524 Z-0.125000 F800.000000
G01 X43.6073 Y113.4640 Z-0.125000 F800.000000
G01 X51.6304 Y117.6760 Z-0.125000 F800.000000
G01 X55.7704 Y119.5977 Z-0.125000 F800.000000
G01 X58.1993 Y120.5360 Z-0.125000 F800.000000
G01 X60.6447 Y121.3096 Z-0.125000 F800.000000
G01 X63.0058 Y121.8853 Z-0.125000 F800.000000
G01 X65.4191 Y122.3036 Z-0.125000 F800.000000
G01 X69.3828 Y122.6606 Z-0.125000 F800.000000
G01 X73.9182 Y122.6821 Z-0.125000 F800.000000
G01 X78.4504 Y122.3606 Z-0.125000 F800.000000
G01 X83.1146 Y121.7093 Z-0.125000 F800.000000
G01 X87.9474 Y120.7248 Z-0.125000 F800.000000
G01 X92.8585 Y119.4185 Z-0.125000 F800.000000
G01 X97.7447 Y117.8191 Z-0.125000 F800.000000
G01 X102.7977 Y115.8748 Z-0.125000 F800.000000
G01 X106.3760 Y114.3444 Z-0.125000 F800.000000
G01 X110.3272 Y112.5385 Z-0.125000 F800.000000
G01 X122.0459 Y106.8778 Z-0.125000 F800.000000
G01 X132.6429 Y102.0035 Z-0.125000 F800.000000
G01 X136.4741 Y100.0710 Z-0.125000 F800.000000
G01 X139.9813 Y98.0478 Z-0.125000 F800.000000
G01 X143.2822 Y95.8455 Z-0.125000 F800.000000
G01 X146.3794 Y93.4570 Z-0.125000 F800.000000
G01 X149.3286 Y90.8512 Z-0.125000 F800.000000
G01 X151.9201 Y88.2729 Z-0.125000 F800.000000
G01 X154.5153 Y85.4044 Z-0.125000 F800.000000
G01 X157.1771 Y82.1744 Z-0.125000 F800.000000
G01 X160.4352 Y77.9443 Z-0.125000 F800.000000
G01 X167.9239 Y67.9447 Z-0.125000 F800.000000
G01 X171.6950 Y62.7615 Z-0.125000 F800.000000
G01 X174.8362 Y58.2337 Z-0.125000 F800.000000
G01 X182.8033 Y46.4216 Z-0.125000 F800.000000
G01 X189.1899 Y37.4215 Z-0.125000 F800.000000
G01 X194.0494 Y31.0037 Z-0.125000 F800.000000
G01 X198.4668 Y25.7489 Z-0.125000 F800.000000
G00 Z6.0000

G4 P0.5
(Start Block)


G00 Z6.0000
G00 X10.5833 Y95.1230
(G4 P0.1)
G01 Z-0.125000 F800.000000

G01 X15.4082 Y96.2374 Z-0.125000 F800.000000
G01 X20.7093 Y97.6865 Z-0.125000 F800.000000
G01 X28.0533 Y99.9265 Z-0.125000 F800.000000
G01 X33.8146 Y101.8619 Z-0.125000 F800.000000
G01 X37.8972 Y103.4201 Z-0.125000 F800.000000
G01 X41.6660 Y105.0567 Z-0.125000 F800.000000
G01 X45.1236 Y106.7291 Z-0.125000 F800.000000
G01 X52.2990 Y110.4097 Z-0.125000 F800.000000
G01 X56.2520 Y112.2002 Z-0.125000 F800.000000
G01 X58.5853 Y113.0870 Z-0.125000 F800.000000
G01 X60.9328 Y113.8315 Z-0.125000 F800.000000
G01 X63.1940 Y114.4039 Z-0.125000 F800.000000
G01 X65.5628 Y114.8560 Z-0.125000 F800.000000
G01 X69.7077 Y115.3292 Z-0.125000 F800.000000
G01 X74.2424 Y115.4895 Z-0.125000 F800.000000
G01 X78.7769 Y115.3220 Z-0.125000 F800.000000
G01 X83.3052 Y114.8440 Z-0.125000 F800.000000
G01 X87.9487 Y114.0471 Z-0.125000 F800.000000
G01 X92.6728 Y112.9255 Z-0.125000 F800.000000
G01 X97.3737 Y111.5015 Z-0.125000 F800.000000
G01 X102.1448 Y109.7597 Z-0.125000 F800.000000
G01 X106.3103 Y108.0382 Z-0.125000 F800.000000
G01 X117.1316 Y103.3214 Z-0.125000 F800.000000
G01 X127.8848 Y98.8795 Z-0.125000 F800.000000
G01 X132.9871 Y96.5073 Z-0.125000 F800.000000
G01 X136.5066 Y94.5602 Z-0.125000 F800.000000
G01 X139.7974 Y92.4283 Z-0.125000 F800.000000
G01 X143.0711 Y89.9760 Z-0.125000 F800.000000
G01 X146.1944 Y87.2879 Z-0.125000 F800.000000
G01 X148.6207 Y84.9367 Z-0.125000 F800.000000
G01 X150.9544 Y82.4399 Z-0.125000 F800.000000
G01 X153.3782 Y79.6155 Z-0.125000 F800.000000
G01 X156.3515 Y75.9209 Z-0.125000 F800.000000
G01 X165.7343 Y63.9977 Z-0.125000 F800.000000
G01 X169.5651 Y58.9695 Z-0.125000 F800.000000
G01 X172.9486 Y54.3031 Z-0.125000 F800.000000
G01 X182.7486 Y40.4188 Z-0.125000 F800.000000
G01 X188.3957 Y32.7457 Z-0.125000 F800.000000
G01 X190.8884 Y29.5757 Z-0.125000 F800.000000
G01 X193.3581 Y26.6093 Z-0.125000 F800.000000
G01 X195.8036 Y23.8505 Z-0.125000 F800.000000
G01 X198.2221 Y21.2992 Z-0.125000 F800.000000
G00 Z6.0000

G4 P0.5
(Start Block)


G00 Z6.0000
G00 X10.5833 Y93.5355
(G4 P0.1)
G01 Z-0.125000 F800.000000

G01 X15.1110 Y94.6072 Z-0.125000 F800.000000
G01 X20.1145 Y96.0159 Z-0.125000 F800.000000
G01 X27.6476 Y98.3915 Z-0.125000 F800.000000
G01 X34.1881 Y100.6100 Z-0.125000 F800.000000
G01 X38.3697 Y102.1892 Z-0.125000 F800.000000
G01 X42.2392 Y103.8342 Z-0.125000 F800.000000
G01 X45.7021 Y105.4683 Z-0.125000 F800.000000
G01 X52.7937 Y109.0184 Z-0.125000 F800.000000
G01 X56.5581 Y110.6889 Z-0.125000 F800.000000
G01 X58.8932 Y111.5586 Z-0.125000 F800.000000
G01 X61.1442 Y112.2582 Z-0.125000 F800.000000
G01 X63.4061 Y112.8211 Z-0.125000 F800.000000
G01 X65.6764 Y113.2502 Z-0.125000 F800.000000
G01 X69.8354 Y113.7283 Z-0.125000 F800.000000
G01 X74.3699 Y113.8987 Z-0.125000 F800.000000
G01 X78.9046 Y113.7432 Z-0.125000 F800.000000
G01 X83.5463 Y113.2606 Z-0.125000 F800.000000
G01 X88.1615 Y112.4693 Z-0.125000 F800.000000
G01 X92.7873 Y111.3709 Z-0.125000 F800.000000
G01 X97.3902 Y109.9768 Z-0.125000 F800.000000
G01 X102.3566 Y108.1680 Z-0.125000 F800.000000
G01 X115.3358 Y102.7899 Z-0.125000 F800.000000
G01 X126.8855 Y98.2135 Z-0.125000 F800.000000
G01 X129.6890 Y97.0046 Z-0.125000 F800.000000
G01 X132.1891 Y95.8183 Z-0.125000 F800.000000
G01 X135.7135 Y93.9025 Z-0.125000 F800.000000
G01 X139.1014 Y91.7283 Z-0.125000 F800.000000
G01 X142.3772 Y89.2856 Z-0.125000 F800.000000
G01 X145.5828 Y86.5380 Z-0.125000 F800.000000
G01 X147.8553 Y84.3480 Z-0.125000 F800.000000
G01 X150.1327 Y81.9331 Z-0.125000 F800.000000
G01 X152.4955 Y79.2061 Z-0.125000 F800.000000
G01 X155.2786 Y75.7804 Z-0.125000 F800.000000
G01 X165.2762 Y63.1734 Z-0.125000 F800.000000
G01 X169.1175 Y58.1732 Z-0.125000 F800.000000
G01 X172.5749 Y53.4443 Z-0.125000 F800.000000
G01 X183.0385 Y38.7414 Z-0.125000 F800.000000
G01 X188.0628 Y31.9894 Z-0.125000 F800.000000
G01 X190.6978 Y28.6833 Z-0.125000 F800.000000
G01 X193.2472 Y25.6746 Z-0.125000 F800.000000
G01 X195.7741 Y22.8812 Z-0.125000 F800.000000
G01 X198.3452 Y20.2323 Z-0.125000 F800.000000
G00 Z6.0000

G4 P0.5
(Start Block)


G00 Z6.0000
G00 X10.5833 Y82.4230
(G4 P0.1)
G01 Z-0.125000 F800.000000

G01 X14.5971 Y83.6572 Z-0.125000 F800.000000
G01 X18.4018 Y84.9743 Z-0.125000 F800.000000
G01 X29.7627 Y89.4252 Z-0.125000 F800.000000
G01 X34.2411 Y91.0673 Z-0.125000 F800.000000
G01 X38.2461 Y92.3981 Z-0.125000 F800.000000
G01 X48.9110 Y95.7472 Z-0.125000 F800.000000
G01 X61.0063 Y99.9495 Z-0.125000 F800.000000
G01 X64.3386 Y100.9280 Z-0.125000 F800.000000
G01 X67.4885 Y101.6707 Z-0.125000 F800.000000
G01 X70.6493 Y102.2285 Z-0.125000 F800.000000
G01 X73.9167 Y102.6184 Z-0.125000 F800.000000
G01 X78.1103 Y102.8399 Z-0.125000 F800.000000
G01 X82.4187 Y102.7480 Z-0.125000 F800.000000
G01 X86.8352 Y102.3363 Z-0.125000 F800.000000
G01 X91.3541 Y101.6121 Z-0.125000 F800.000000
G01 X96.7727 Y100.4085 Z-0.125000 F800.000000
G01 X107.8757 Y97.5007 Z-0.125000 F800.000000
G01 X118.4011 Y94.9121 Z-0.125000 F800.000000
G01 X122.2284 Y93.8495 Z-0.125000 F800.000000
G01 X125.4533 Y92.7928 Z-0.125000 F800.000000
G01 X128.2695 Y91.6925 Z-0.125000 F800.000000
G01 X130.8693 Y90.4881 Z-0.125000 F800.000000
G01 X133.4406 Y89.0862 Z-0.125000 F800.000000
G01 X135.8835 Y87.5400 Z-0.125000 F800.000000
G01 X138.3509 Y85.7580 Z-0.125000 F800.000000
G01 X140.8568 Y83.7177 Z-0.125000 F800.000000
G01 X143.2348 Y81.5533 Z-0.125000 F800.000000
G01 X145.5297 Y79.2313 Z-0.125000 F800.000000
G01 X147.5104 Y77.0423 Z-0.125000 F800.000000
G01 X149.7227 Y74.4245 Z-0.125000 F800.000000
G01 X165.7436 Y54.6435 Z-0.125000 F800.000000
G01 X170.2318 Y48.7849 Z-0.125000 F800.000000
G01 X180.9050 Y34.3626 Z-0.125000 F800.000000
G01 X185.6280 Y28.3573 Z-0.125000 F800.000000
G01 X188.7914 Y24.6666 Z-0.125000 F800.000000
G01 X191.9536 Y21.2598 Z-0.125000 F800.000000
G01 X195.2086 Y18.0297 Z-0.125000 F800.000000
G01 X198.4597 Y15.0758 Z-0.125000 F800.000000
G00 Z6.0000

G4 P0.5
(Start Block)


G00 Z6.0000
G00 X10.5833 Y80.8355
(G4 P0.1)
G01 Z-0.125000 F800.000000

G01 X14.6905 Y82.1511 Z-0.125000 F800.000000
G01 X18.5894 Y83.5341 Z-0.125000 F800.000000
G01 X30.0376 Y88.1094 Z-0.125000 F800.000000
G01 X34.8067 Y89.8719 Z-0.125000 F800.000000
G01 X39.2047 Y91.3078 Z-0.125000 F800.000000
G01 X50.5660 Y94.7415 Z-0.125000 F800.000000
G01 X61.8890 Y98.5912 Z-0.125000 F800.000000
G01 X65.2201 Y99.5843 Z-0.125000 F800.000000
G01 X68.3680 Y100.3560 Z-0.125000 F800.000000
G01 X71.5269 Y100.9511 Z-0.125000 F800.000000
G01 X74.6940 Y101.3654 Z-0.125000 F800.000000
G01 X78.7735 Y101.6237 Z-0.125000 F800.000000
G01 X82.8553 Y101.5780 Z-0.125000 F800.000000
G01 X87.0466 Y101.2337 Z-0.125000 F800.000000
G01 X91.4407 Y100.5821 Z-0.125000 F800.000000
G01 X96.5682 Y99.5165 Z-0.125000 F800.000000
G01 X107.3896 Y96.8667 Z-0.125000 F800.000000
G01 X117.9264 Y94.4452 Z-0.125000 F800.000000
G01 X121.8559 Y93.4076 Z-0.125000 F800.000000
G01 X125.1815 Y92.3518 Z-0.125000 F800.000000
G01 X127.9999 Y91.2712 Z-0.125000 F800.000000
G01 X130.6016 Y90.0804 Z-0.125000 F800.000000
G01 X133.0796 Y88.7435 Z-0.125000 F800.000000
G01 X135.5250 Y87.2109 Z-0.125000 F800.000000
G01 X138.0353 Y85.4077 Z-0.125000 F800.000000
G01 X140.4613 Y83.4377 Z-0.125000 F800.000000
G01 X142.8408 Y81.2787 Z-0.125000 F800.000000
G01 X145.1752 Y78.9200 Z-0.125000 F800.000000
G01 X147.1559 Y76.7312 Z-0.125000 F800.000000
G01 X149.3679 Y74.1127 Z-0.125000 F800.000000
G01 X156.1017 Y65.7220 Z-0.125000 F800.000000
G01 X165.5919 Y54.0994 Z-0.125000 F800.000000
G01 X170.0838 Y48.2506 Z-0.125000 F800.000000
G01 X180.5122 Y34.2077 Z-0.125000 F800.000000
G01 X185.1731 Y28.2953 Z-0.125000 F800.000000
G01 X188.2696 Y24.6843 Z-0.125000 F800.000000
G01 X191.3620 Y21.3482 Z-0.125000 F800.000000
G01 X194.5445 Y18.1791 Z-0.125000 F800.000000
G01 X197.7917 Y15.2101 Z-0.125000 F800.000000
G00 Z6.0000

G4 P0.5
(Start Block)


G00 Z6.0000
G00 X10.5833 Y68.1355
(G4 P0.1)
G01 Z-0.125000 F800.000000

G01 X14.4586 Y69.7338 Z-0.125000 F800.000000
G01 X24.2788 Y73.4598 Z-0.125000 F800.000000
G01 X38.1556 Y78.9780 Z-0.125000 F800.000000
G01 X43.3240 Y80.7863 Z-0.125000 F800.000000
G01 X53.0041 Y83.8987 Z-0.125000 F800.000000
G01 X57.0964 Y85.3657 Z-0.125000 F800.000000
G01 X61.0719 Y86.9750 Z-0.125000 F800.000000
G01 X68.7039 Y90.3092 Z-0.125000 F800.000000
G01 X71.7121 Y91.5060 Z-0.125000 F800.000000
G01 X75.6202 Y92.7933 Z-0.125000 F800.000000
G01 X79.3600 Y93.6803 Z-0.125000 F800.000000
G01 X82.5671 Y94.1589 Z-0.125000 F800.000000
G01 X85.9662 Y94.3965 Z-0.125000 F800.000000
G01 X89.4812 Y94.3847 Z-0.125000 F800.000000
G01 X93.4473 Y94.1192 Z-0.125000 F800.000000
G01 X97.6350 Y93.6425 Z-0.125000 F800.000000
G01 X115.3084 Y91.3084 Z-0.125000 F800.000000
G01 X119.6537 Y90.5268 Z-0.125000 F800.000000
G01 X123.4880 Y89.5579 Z-0.125000 F800.000000
G01 X126.1251 Y88.6800 Z-0.125000 F800.000000
G01 X128.5477 Y87.6865 Z-0.125000 F800.000000
G01 X130.9454 Y86.5018 Z-0.125000 F800.000000
G01 X133.3120 Y85.1162 Z-0.125000 F800.000000
G01 X135.5593 Y83.5866 Z-0.125000 F800.000000
G01 X137.8381 Y81.8115 Z-0.125000 F800.000000
G01 X140.1508 Y79.7733 Z-0.125000 F800.000000
G01 X142.3819 Y77.5777 Z-0.125000 F800.000000
G01 X144.4415 Y75.3473 Z-0.125000 F800.000000
G01 X146.5934 Y72.8286 Z-0.125000 F800.000000
G01 X154.5095 Y62.9407 Z-0.125000 F800.000000
G01 X164.2324 Y51.1702 Z-0.125000 F800.000000
G01 X168.5589 Y45.6564 Z-0.125000 F800.000000
G01 X178.2970 Y32.8692 Z-0.125000 F800.000000
G01 X183.1301 Y26.9042 Z-0.125000 F800.000000
G01 X186.6641 Y22.9246 Z-0.125000 F800.000000
G01 X190.2398 Y19.2445 Z-0.125000 F800.000000
G01 X193.9424 Y15.7668 Z-0.125000 F800.000000
G01 X197.7912 Y12.4771 Z-0.125000 F800.000000
G00 Z6.0000

G4 P0.5
(Start Block)


G00 Z6.0000
G00 X10.5833 Y61.7855
(G4 P0.1)
G01 Z-0.125000 F800.000000

G01 X16.4804 Y64.3258 Z-0.125000 F800.000000
G01 X27.7579 Y68.6162 Z-0.125000 F800.000000
G01 X40.7581 Y73.8161 Z-0.125000 F800.000000
G01 X53.7985 Y78.6514 Z-0.125000 F800.000000
G01 X57.5857 Y80.1329 Z-0.125000 F800.000000
G01 X62.0304 Y82.0673 Z-0.125000 F800.000000
G01 X70.8660 Y86.3460 Z-0.125000 F800.000000
G01 X74.7291 Y88.0425 Z-0.125000 F800.000000
G01 X78.0407 Y89.2401 Z-0.125000 F800.000000
G01 X81.1811 Y90.1105 Z-0.125000 F800.000000
G01 X84.3391 Y90.7172 Z-0.125000 F800.000000
G01 X87.6215 Y91.0809 Z-0.125000 F800.000000
G01 X91.1358 Y91.2131 Z-0.125000 F800.000000
G01 X95.1041 Y91.1199 Z-0.125000 F800.000000
G01 X107.7944 Y90.1963 Z-0.125000 F800.000000
G01 X114.0238 Y89.6421 Z-0.125000 F800.000000
G01 X118.6314 Y88.9977 Z-0.125000 F800.000000
G01 X122.5724 Y88.1276 Z-0.125000 F800.000000
G01 X125.1181 Y87.3504 Z-0.125000 F800.000000
G01 X127.5474 Y86.4166 Z-0.125000 F800.000000
G01 X129.9521 Y85.2822 Z-0.125000 F800.000000
G01 X132.2309 Y83.9935 Z-0.125000 F800.000000
G01 X134.4950 Y82.4902 Z-0.125000 F800.000000
G01 X136.6976 Y80.8021 Z-0.125000 F800.000000
G01 X138.8559 Y78.9249 Z-0.125000 F800.000000
G01 X141.0455 Y76.7941 Z-0.125000 F800.000000
G01 X143.1173 Y74.5701 Z-0.125000 F800.000000
G01 X145.3388 Y71.9799 Z-0.125000 F800.000000
G01 X153.7134 Y61.5064 Z-0.125000 F800.000000
G01 X163.7174 Y49.4558 Z-0.125000 F800.000000
G01 X167.7957 Y44.3147 Z-0.125000 F800.000000
G01 X177.1241 Y32.2437 Z-0.125000 F800.000000
G01 X181.9099 Y26.4139 Z-0.125000 F800.000000
G01 X185.5234 Y22.3939 Z-0.125000 F800.000000
G01 X189.1568 Y18.7048 Z-0.125000 F800.000000
G01 X192.9495 Y15.1955 Z-0.125000 F800.000000
G01 X196.9689 Y11.8103 Z-0.125000 F800.000000
G00 Z6.0000

G4 P0.5
(Start Block)


G00 Z6.0000
G00 X10.5833 Y49.0855
(G4 P0.1)
G01 Z-0.125000 F800.000000

G01 X15.7178 Y51.2052 Z-0.125000 F800.000000
G01 X25.5272 Y55.0296 Z-0.125000 F800.000000
G01 X30.6599 Y57.1649 Z-0.125000 F800.000000
G01 X50.3487 Y65.9261 Z-0.125000 F800.000000
G01 X65.7261 Y72.5016 Z-0.125000 F800.000000
G01 X79.3907 Y78.9065 Z-0.125000 F800.000000
G01 X82.7818 Y80.3019 Z-0.125000 F800.000000
G01 X85.9029 Y81.3879 Z-0.125000 F800.000000
G01 X89.5346 Y82.3860 Z-0.125000 F800.000000
G01 X93.3822 Y83.1502 Z-0.125000 F800.000000
G01 X97.6660 Y83.7176 Z-0.125000 F800.000000
G01 X102.6504 Y84.1277 Z-0.125000 F800.000000
G01 X108.2051 Y84.3672 Z-0.125000 F800.000000
G01 X112.8540 Y84.3507 Z-0.125000 F800.000000
G01 X116.7064 Y84.0839 Z-0.125000 F800.000000
G01 X120.2373 Y83.5341 Z-0.125000 F800.000000
G01 X122.5984 Y82.9585 Z-0.125000 F800.000000
G01 X124.9437 Y82.1912 Z-0.125000 F800.000000
G01 X127.1702 Y81.2586 Z-0.125000 F800.000000
G01 X129.2742 Y80.1750 Z-0.125000 F800.000000
G01 X131.4196 Y78.8500 Z-0.125000 F800.000000
G01 X133.4745 Y77.3591 Z-0.125000 F800.000000
G01 X135.4874 Y75.6800 Z-0.125000 F800.000000
G01 X137.5337 Y73.7496 Z-0.125000 F800.000000
G01 X139.7004 Y71.4707 Z-0.125000 F800.000000
G01 X141.9967 Y68.8247 Z-0.125000 F800.000000
G01 X151.6548 Y56.8699 Z-0.125000 F800.000000
G01 X162.7883 Y43.7161 Z-0.125000 F800.000000
G01 X173.4108 Y30.7226 Z-0.125000 F800.000000
G01 X177.7782 Y25.5962 Z-0.125000 F800.000000
G01 X181.4287 Y21.6280 Z-0.125000 F800.000000
G01 X185.0073 Y18.0615 Z-0.125000 F800.000000
G01 X188.7333 Y14.6720 Z-0.125000 F800.000000
G01 X192.6812 Y11.3917 Z-0.125000 F800.000000
G00 Z6.0000

G4 P0.5
(Start Block)


G00 Z6.0000
G00 X10.5833 Y47.4980
(G4 P0.1)
G01 Z-0.125000 F800.000000

G01 X15.4311 Y49.4646 Z-0.125000 F800.000000
G01 X25.0512 Y53.1692 Z-0.125000 F800.000000
G01 X30.1853 Y55.2914 Z-0.125000 F800.000000
G01 X51.1142 Y64.7244 Z-0.125000 F800.000000
G01 X67.4564 Y71.7319 Z-0.125000 F800.000000
G01 X79.9735 Y77.5424 Z-0.125000 F800.000000
G01 X83.4608 Y78.9839 Z-0.125000 F800.000000
G01 X86.6778 Y80.1206 Z-0.125000 F800.000000
G01 X90.4053 Y81.1753 Z-0.125000 F800.000000
G01 X94.2503 Y81.9831 Z-0.125000 F800.000000
G01 X98.4326 Y82.6004 Z-0.125000 F800.000000
G01 X103.3017 Y83.0783 Z-0.125000 F800.000000
G01 X108.4020 Y83.3621 Z-0.125000 F800.000000
G01 X112.7108 Y83.3867 Z-0.125000 F800.000000
G01 X116.4505 Y83.1576 Z-0.125000 F800.000000
G01 X119.8131 Y82.6626 Z-0.125000 F800.000000
G01 X122.1756 Y82.1082 Z-0.125000 F800.000000
G01 X124.5226 Y81.3585 Z-0.125000 F800.000000
G01 X126.7506 Y80.4390 Z-0.125000 F800.000000
G01 X128.8559 Y79.3641 Z-0.125000 F800.000000
G01 X130.9296 Y78.0930 Z-0.125000 F800.000000
G01 X132.9354 Y76.6503 Z-0.125000 F800.000000
G01 X134.9507 Y74.9817 Z-0.125000 F800.000000
G01 X136.9993 Y73.0594 Z-0.125000 F800.000000
G01 X139.1453 Y70.8128 Z-0.125000 F800.000000
G01 X141.3778 Y68.2557 Z-0.125000 F800.000000
G01 X151.5838 Y55.6989 Z-0.125000 F800.000000
G01 X162.6677 Y42.6758 Z-0.125000 F800.000000
G01 X172.7902 Y30.4211 Z-0.125000 F800.000000
G01 X176.8964 Y25.6325 Z-0.125000 F800.000000
G01 X180.3939 Y21.8282 Z-0.125000 F800.000000
G01 X183.8670 Y18.3472 Z-0.125000 F800.000000
G01 X187.5079 Y15.0074 Z-0.125000 F800.000000
G01 X191.2885 Y11.8350 Z-0.125000 F800.000000
G00 Z6.0000

G4 P0.5
(Start Block)


G00 Z6.0000
G00 X10.5833 Y44.3230
(G4 P0.1)
G01 Z-0.125000 F800.000000

G01 X24.4872 Y49.5983 Z-0.125000 F800.000000
G01 X29.9153 Y51.8123 Z-0.125000 F800.000000
G01 X34.9325 Y54.0568 Z-0.125000 F800.000000
G01 X47.0493 Y59.8020 Z-0.125000 F800.000000
G01 X53.6997 Y62.8348 Z-0.125000 F800.000000
G01 X69.2698 Y69.4987 Z-0.125000 F800.000000
G01 X81.9003 Y75.2245 Z-0.125000 F800.000000
G01 X85.0985 Y76.5333 Z-0.125000 F800.000000
G01 X88.1182 Y77.6237 Z-0.125000 F800.000000
G01 X91.8402 Y78.7444 Z-0.125000 F800.000000
G01 X95.6793 Y79.6470 Z-0.125000 F800.000000
G01 X99.8421 Y80.3784 Z-0.125000 F800.000000
G01 X104.3676 Y80.9412 Z-0.125000 F800.000000
G01 X108.6729 Y81.2677 Z-0.125000 F800.000000
G01 X112.5279 Y81.3459 Z-0.125000 F800.000000
G01 X116.0415 Y81.1693 Z-0.125000 F800.000000
G01 X119.1512 Y80.7447 Z-0.125000 F800.000000
G01 X121.4170 Y80.2395 Z-0.125000 F800.000000
G01 X123.6685 Y79.5474 Z-0.125000 F800.000000
G01 X125.8029 Y78.6949 Z-0.125000 F800.000000
G01 X127.9118 Y77.6451 Z-0.125000 F800.000000
G01 X129.8951 Y76.4543 Z-0.125000 F800.000000
G01 X131.9259 Y75.0184 Z-0.125000 F800.000000
G01 X133.8652 Y73.4360 Z-0.125000 F800.000000
G01 X135.8414 Y71.6116 Z-0.125000 F800.000000
G01 X137.9576 Y69.4343 Z-0.125000 F800.000000
G01 X140.2681 Y66.8314 Z-0.125000 F800.000000
G01 X151.7227 Y52.9657 Z-0.125000 F800.000000
G01 X162.9834 Y39.9117 Z-0.125000 F800.000000
G01 X172.1684 Y29.0452 Z-0.125000 F800.000000
G01 X175.6232 Y25.1070 Z-0.125000 F800.000000
G01 X179.1956 Y21.2813 Z-0.125000 F800.000000
G01 X182.6246 Y17.8909 Z-0.125000 F800.000000
G01 X186.1940 Y14.6528 Z-0.125000 F800.000000
G01 X189.9811 Y11.5080 Z-0.125000 F800.000000
G00 Z6.0000

G4 P0.5
(Start Block)


G00 Z6.0000
G00 X10.5833 Y37.9730
(G4 P0.1)
G01 Z-0.125000 F800.000000

G01 X24.2259 Y42.8503 Z-0.125000 F800.000000
G01 X27.6261 Y44.1681 Z-0.125000 F800.000000
G01 X30.8196 Y45.5158 Z-0.125000 F800.000000
G01 X36.3033 Y48.0963 Z-0.125000 F800.000000
G01 X49.0189 Y54.6824 Z-0.125000 F800.000000
G01 X56.5090 Y58.3160 Z-0.125000 F800.000000
G01 X72.4397 Y65.3558 Z-0.125000 F800.000000
G01 X83.5305 Y70.3593 Z-0.125000 F800.000000
G01 X87.0141 Y71.8326 Z-0.125000 F800.000000
G01 X90.1234 Y73.0311 Z-0.125000 F800.000000
G01 X93.7361 Y74.2470 Z-0.125000 F800.000000
G01 X97.2683 Y75.2364 Z-0.125000 F800.000000
G01 X100.9130 Y76.0549 Z-0.125000 F800.000000
G01 X104.6113 Y76.6828 Z-0.125000 F800.000000
G01 X108.2331 Y77.0912 Z-0.125000 F800.000000
G01 X111.5201 Y77.2555 Z-0.125000 F800.000000
G01 X114.5813 Y77.1889 Z-0.125000 F800.000000
G01 X117.4115 Y76.8927 Z-0.125000 F800.000000
G01 X119.7237 Y76.4497 Z-0.125000 F800.000000
G01 X121.8825 Y75.8491 Z-0.125000 F800.000000
G01 X124.0233 Y75.0548 Z-0.125000 F800.000000
G01 X126.0438 Y74.1062 Z-0.125000 F800.000000
G01 X128.0360 Y72.9684 Z-0.125000 F800.000000
G01 X130.0873 Y71.5765 Z-0.125000 F800.000000
G01 X132.0377 Y70.0426 Z-0.125000 F800.000000
G01 X134.1066 Y68.1975 Z-0.125000 F800.000000
G01 X136.5178 Y65.7925 Z-0.125000 F800.000000
G01 X139.1913 Y62.8797 Z-0.125000 F800.000000
G01 X152.5305 Y47.3675 Z-0.125000 F800.000000
G01 X173.0904 Y24.3611 Z-0.125000 F800.000000
G01 X176.5458 Y20.7512 Z-0.125000 F800.000000
G01 X179.8296 Y17.5524 Z-0.125000 F800.000000
G01 X183.1654 Y14.5471 Z-0.125000 F800.000000
G01 X186.6302 Y11.6695 Z-0.125000 F800.000000
G00 Z6.0000

G4 P0.5
(Start Block)


G00 Z6.0000
G00 X10.5833 Y36.3855
(G4 P0.1)
G01 Z-0.125000 F800.000000

G01 X24.3291 Y41.2413 Z-0.125000 F800.000000
G01 X27.9234 Y42.6359 Z-0.125000 F800.000000
G01 X31.2122 Y44.0368 Z-0.125000 F800.000000
G01 X36.6905 Y46.6570 Z-0.125000 F800.000000
G01 X49.4811 Y53.4297 Z-0.125000 F800.000000
G01 X57.0583 Y57.1729 Z-0.125000 F800.000000
G01 X83.5814 Y69.1250 Z-0.125000 F800.000000
G01 X87.2561 Y70.6997 Z-0.125000 F800.000000
G01 X90.4603 Y71.9565 Z-0.125000 F800.000000
G01 X93.9725 Y73.1690 Z-0.125000 F800.000000
G01 X97.5019 Y74.1932 Z-0.125000 F800.000000
G01 X101.0458 Y75.0238 Z-0.125000 F800.000000
G01 X104.6013 Y75.6593 Z-0.125000 F800.000000
G01 X108.0524 Y76.0757 Z-0.125000 F800.000000
G01 X111.2258 Y76.2575 Z-0.125000 F800.000000
G01 X114.1737 Y76.2163 Z-0.125000 F800.000000
G01 X116.9904 Y75.9454 Z-0.125000 F800.000000
G01 X119.2614 Y75.5308 Z-0.125000 F800.000000
G01 X121.5196 Y74.9197 Z-0.125000 F800.000000
G01 X123.6615 Y74.1360 Z-0.125000 F800.000000
G01 X125.6833 Y73.1971 Z-0.125000 F800.000000
G01 X127.6771 Y72.0689 Z-0.125000 F800.000000
G01 X129.6791 Y70.7252 Z-0.125000 F800.000000
G01 X131.7139 Y69.1410 Z-0.125000 F800.000000
G01 X133.7863 Y67.3095 Z-0.125000 F800.000000
G01 X136.2808 Y64.8464 Z-0.125000 F800.000000
G01 X139.1145 Y61.7931 Z-0.125000 F800.000000
G01 X152.8295 Y46.0066 Z-0.125000 F800.000000
G01 X172.6274 Y24.0862 Z-0.125000 F800.000000
G01 X176.0353 Y20.5538 Z-0.125000 F800.000000
G01 X179.3233 Y17.3700 Z-0.125000 F800.000000
G01 X182.5823 Y14.4463 Z-0.125000 F800.000000
G01 X185.9676 Y11.6401 Z-0.125000 F800.000000
G00 Z6.0000

G4 P0.5
(Start Block)


G00 Z6.0000
G00 X10.5833 Y34.7980
(G4 P0.1)
G01 Z-0.125000 F800.000000

G01 X24.2363 Y39.5727 Z-0.125000 F800.000000
G01 X28.0251 Y41.0405 Z-0.125000 F800.000000
G01 X31.5063 Y42.5331 Z-0.125000 F800.000000
G01 X37.0753 Y45.2375 Z-0.125000 F800.000000
G01 X49.9407 Y52.1950 Z-0.125000 F800.000000
G01 X57.7007 Y56.0964 Z-0.125000 F800.000000
G01 X83.4339 Y67.8416 Z-0.125000 F800.000000
G01 X87.2989 Y69.5241 Z-0.125000 F800.000000
G01 X90.6944 Y70.8825 Z-0.125000 F800.000000
G01 X94.2038 Y72.1232 Z-0.125000 F800.000000
G01 X97.6324 Y73.1511 Z-0.125000 F800.000000
G01 X101.0755 Y73.9930 Z-0.125000 F800.000000
G01 X104.5306 Y74.6427 Z-0.125000 F800.000000
G01 X107.8676 Y75.0720 Z-0.125000 F800.000000
G01 X110.9272 Y75.2697 Z-0.125000 F800.000000
G01 X113.8752 Y75.2478 Z-0.125000 F800.000000
G01 X116.5933 Y75.0049 Z-0.125000 F800.000000
G01 X118.8934 Y74.6020 Z-0.125000 F800.000000
G01 X121.0549 Y74.0356 Z-0.125000 F800.000000
G01 X123.1991 Y73.2742 Z-0.125000 F800.000000
G01 X125.3195 Y72.3085 Z-0.125000 F800.000000
G01 X127.3154 Y71.1932 Z-0.125000 F800.000000
G01 X129.3510 Y69.8418 Z-0.125000 F800.000000
G01 X131.3890 Y68.2717 Z-0.125000 F800.000000
G01 X133.4658 Y66.4581 Z-0.125000 F800.000000
G01 X136.0457 Y63.9442 Z-0.125000 F800.000000
G01 X139.0413 Y60.7561 Z-0.125000 F800.000000
G01 X153.1333 Y44.7001 Z-0.125000 F800.000000
G01 X172.1636 Y23.8499 Z-0.125000 F800.000000
G01 X175.5233 Y20.3928 Z-0.125000 F800.000000
G01 X178.7360 Y17.2956 Z-0.125000 F800.000000
G01 X181.9965 Y14.3777 Z-0.125000 F800.000000
G01 X185.3017 Y11.6407 Z-0.125000 F800.000000
G00 Z6.0000

G4 P0.5
(Start Block)


G00 Z6.0000
G00 X10.5833 Y31.6230
(G4 P0.1)
G01 Z-0.125000 F800.000000

G01 X17.8093 Y34.0517 Z-0.125000 F800.000000
G01 X23.6573 Y36.1308 Z-0.125000 F800.000000
G01 X28.1246 Y37.8750 Z-0.125000 F800.000000
G01 X32.0855 Y39.6049 Z-0.125000 F800.000000
G01 X37.9309 Y42.5315 Z-0.125000 F800.000000
G01 X50.8522 Y49.7895 Z-0.125000 F800.000000
G01 X58.6883 Y53.8723 Z-0.125000 F800.000000
G01 X63.8761 Y56.3715 Z-0.125000 F800.000000
G01 X82.6449 Y65.1404 Z-0.125000 F800.000000
G01 X87.1784 Y67.1790 Z-0.125000 F800.000000
G01 X90.8583 Y68.7107 Z-0.125000 F800.000000
G01 X94.3613 Y70.0126 Z-0.125000 F800.000000
G01 X97.6862 Y71.0760 Z-0.125000 F800.000000
G01 X100.9277 Y71.9365 Z-0.125000 F800.000000
G01 X104.1816 Y72.6146 Z-0.125000 F800.000000
G01 X107.3749 Y73.0845 Z-0.125000 F800.000000
G01 X110.3202 Y73.3236 Z-0.125000 F800.000000
G01 X113.1548 Y73.3482 Z-0.125000 F800.000000
G01 X115.7607 Y73.1615 Z-0.125000 F800.000000
G01 X118.0488 Y72.8057 Z-0.125000 F800.000000
G01 X120.3115 Y72.2540 Z-0.125000 F800.000000
G01 X122.4590 Y71.5273 Z-0.125000 F800.000000
G01 X124.5841 Y70.5973 Z-0.125000 F800.000000
G01 X126.6802 Y69.4622 Z-0.125000 F800.000000
G01 X128.7735 Y68.1064 Z-0.125000 F800.000000
G01 X130.8997 Y66.5046 Z-0.125000 F800.000000
G01 X133.0650 Y64.6557 Z-0.125000 F800.000000
G01 X135.8931 Y61.9629 Z-0.125000 F800.000000
G01 X138.9733 Y58.7531 Z-0.125000 F800.000000
G01 X153.7534 Y42.2440 Z-0.125000 F800.000000
G01 X171.3166 Y23.3986 Z-0.125000 F800.000000
G01 X174.6492 Y20.0202 Z-0.125000 F800.000000
G01 X177.7117 Y17.0976 Z-0.125000 F800.000000
G01 X180.8158 Y14.3324 Z-0.125000 F800.000000
G01 X183.9597 Y11.7285 Z-0.125000 F800.000000
G00 Z6.0000

G4 P0.5

G00 Z5.0000
M5
G00 X0.0000 Y0.0000
M2
