$H
G21
G17
G90
G1 Z0F20000
G1 F15000
(Start Layer)
(Start Block)

G1X37.1079Y-41.2358
G1Z5.0F20000
(Plotting speed under)
G1 F8000

G1X39.9386Y-91.6916
G1X47.0604Y-146.4385
G1X18.9630Y-165.9662
G1X50.6735Y-245.3016
G1X24.3988Y-266.6520
G1X41.1519Y-331.0301
G1X21.8054Y-359.3088
G1 Z0F20000
(Start Block)

G1X37.9528Y-41.0225
G1Z5.0F20000
(Plotting speed under)
G1 F8000

G1X40.7096Y-91.4042
G1X47.4002Y-145.7200
G1X20.7339Y-166.6787
G1X51.4089Y-244.9788
G1X25.4564Y-266.6512
G1X42.3187Y-331.1386
G1X23.6422Y-360.0872
G1 Z0F20000
(Start Block)

G1X38.7978Y-40.8090
G1Z5.0F20000
(Plotting speed under)
G1 F8000

G1X41.4805Y-91.1168
G1X47.7401Y-145.0015
G1X22.5048Y-167.3912
G1X52.1444Y-244.6559
G1X26.5140Y-266.6505
G1X43.4855Y-331.2471
G1X25.4791Y-360.8657
G1 Z0F20000
(Start Block)

G1X39.6427Y-40.5956
G1Z5.0F20000
(Plotting speed under)
G1 F8000

G1X42.2515Y-90.8295
G1X48.0799Y-144.2830
G1X24.2757Y-168.1038
G1X52.8799Y-244.3331
G1X27.5715Y-266.6497
G1X44.6523Y-331.3556
G1X27.3159Y-361.6442
G1 Z0F20000
(Start Block)

G1X40.4876Y-40.3822
G1Z5.0F20000
(Plotting speed under)
G1 F8000

G1X43.0224Y-90.5421
G1X48.4198Y-143.5645
G1X26.0466Y-168.8164
G1X53.6154Y-244.0102
G1X28.6291Y-266.6489
G1X45.8191Y-331.4641
G1X29.1527Y-362.4227
G1 Z0F20000
(Start Block)

G1X41.3325Y-40.1688
G1Z5.0F20000
(Plotting speed under)
G1 F8000

G1X43.7934Y-90.2547
G1X48.7596Y-142.8460
G1X27.8175Y-169.5289
G1X54.3509Y-243.6874
G1X29.6866Y-266.6482
G1X46.9860Y-331.5726
G1X30.9895Y-363.2011
G1 Z0F20000
(Start Block)

G1X42.1775Y-39.9554
G1Z5.0F20000
(Plotting speed under)
G1 F8000

G1X44.5643Y-89.9673
G1X49.0994Y-142.1275
G1X29.5884Y-170.2415
G1X55.0864Y-243.3645
G1X30.7442Y-266.6474
G1X48.1528Y-331.6811
G1X32.8263Y-363.9796
G1 Z0F20000
(Start Block)

G1X43.0224Y-39.7420
G1Z5.0F20000
(Plotting speed under)
G1 F8000

G1X45.3353Y-89.6799
G1X49.4393Y-141.4090
G1X31.3593Y-170.9541
G1X55.8219Y-243.0417
G1X31.8018Y-266.6466
G1X49.3196Y-331.7896
G1X34.6631Y-364.7581
G1 Z0F20000
(Start Block)

G1X43.8673Y-39.5286
G1Z5.0F20000
(Plotting speed under)
G1 F8000

G1X46.1062Y-89.3925
G1X49.7791Y-140.6905
G1X33.1302Y-171.6666
G1X56.5574Y-242.7189
G1X32.8593Y-266.6459
G1X50.4864Y-331.8980
G1X36.5000Y-365.5366
G1 Z0F20000
(Start Block)

G1X44.7122Y-39.3152
G1Z5.0F20000
(Plotting speed under)
G1 F8000

G1X46.8772Y-89.1052
G1X50.1190Y-139.9720
G1X34.9011Y-172.3792
G1X57.2929Y-242.3960
G1X33.9169Y-266.6451
G1X51.6533Y-332.0065
G1X38.3368Y-366.3151
G1 Z0F20000
(Start Block)

G1X45.5571Y-39.1018
G1Z5.0F20000
(Plotting speed under)
G1 F8000

G1X47.6481Y-88.8178
G1X50.4588Y-139.2535
G1X36.6720Y-173.0918
G1X58.0283Y-242.0732
G1X34.9745Y-266.6443
G1X52.8201Y-332.1150
G1X40.1736Y-367.0935
G1 Z0F20000
(Start Block)

G1X46.4021Y-38.8883
G1Z5.0F20000
(Plotting speed under)
G1 F8000

G1X48.4190Y-88.5304
G1X50.7987Y-138.5351
G1X38.4429Y-173.8043
G1X58.7638Y-241.7503
G1X36.0320Y-266.6435
G1X53.9869Y-332.2235
G1X42.0104Y-367.8720
G1 Z0F20000
(Start Block)

G1X47.2470Y-38.6750
G1Z5.0F20000
(Plotting speed under)
G1 F8000

G1X51.1385Y-137.8166
G1X40.2138Y-174.5169
G1X59.4993Y-241.4275
G1X37.0896Y-266.6428
G1X55.1537Y-332.3320
G1X43.8472Y-368.6505
G1 Z0F20000
(Start Block)

G1X48.0919Y-38.4615
G1Z5.0F20000
(Plotting speed under)
G1 F8000

G1X49.9610Y-87.9556
G1X51.4783Y-137.0981
G1X41.9846Y-175.2294
G1X60.2348Y-241.1046
G1X38.1471Y-266.6420
G1X56.3206Y-332.4405
G1X45.6840Y-369.4290
G1 Z0F20000
(Start Block)

G1X48.9369Y-38.2481
G1Z5.0F20000
(Plotting speed under)
G1 F8000

G1X50.7319Y-87.6682
G1X51.8182Y-136.3796
G1X43.7555Y-175.9420
G1X60.9703Y-240.7818
G1X39.2047Y-266.6412
G1X57.4874Y-332.5490
G1X47.5208Y-370.2075
G1 Z0F20000
(Start Block)

G1X49.7818Y-38.0347
G1Z5.0F20000
(Plotting speed under)
G1 F8000

G1X51.5028Y-87.3808
G1X52.1580Y-135.6611
G1X45.5264Y-176.6545
G1X61.7058Y-240.4589
G1X40.2623Y-266.6405
G1X58.6542Y-332.6575
G1X49.3577Y-370.9860
G1 Z0F20000
(Start Block)

G1X50.6267Y-37.8213
G1Z5.0F20000
(Plotting speed under)
G1 F8000

G1X52.2738Y-87.0935
G1X52.4979Y-134.9426
G1X47.2973Y-177.3671
G1X62.4413Y-240.1361
G1X41.3198Y-266.6397
G1X59.8211Y-332.7660
G1X51.1945Y-371.7644
G1 Z0F20000
(Start Block)

G1X51.4716Y-37.6079
G1Z5.0F20000
(Plotting speed under)
G1 F8000

G1X53.0448Y-86.8061
G1X52.8377Y-134.2241
G1X49.0682Y-178.0796
G1X63.1767Y-239.8132
G1X42.3774Y-266.6389
G1X60.9879Y-332.8745
G1X53.0313Y-372.5429
G1 Z0F20000
(Start Block)

G1X52.3166Y-37.3945
G1Z5.0F20000
(Plotting speed under)
G1 F8000

G1X53.8157Y-86.5187
G1X53.1776Y-133.5056
G1X50.8391Y-178.7922
G1X63.9122Y-239.4904
G1X43.4350Y-266.6382
G1X62.1547Y-332.9830
G1X54.8681Y-373.3214
G1 Z0F20000
(Start Block)

G1X53.1615Y-37.1811
G1Z5.0F20000
(Plotting speed under)
G1 F8000

G1X54.5866Y-86.2313
G1X53.5174Y-132.7871
G1X52.6100Y-179.5048
G1X64.6477Y-239.1675
G1X44.4925Y-266.6374
G1X63.3215Y-333.0914
G1X56.7049Y-374.0999
G1 Z0F20000
(Start Block)

G1X54.0064Y-36.9677
G1Z5.0F20000
(Plotting speed under)
G1 F8000

G1X55.3576Y-85.9439
G1X53.8572Y-132.0686
G1X54.3809Y-180.2173
G1X65.3832Y-238.8447
G1X45.5501Y-266.6366
G1X64.4883Y-333.1999
G1X58.5417Y-374.8784
G1 Z0F20000
(Start Block)

G1X54.8513Y-36.7543
G1Z5.0F20000
(Plotting speed under)
G1 F8000

G1X56.1286Y-85.6565
G1X54.1971Y-131.3501
G1X56.1518Y-180.9299
G1X66.1187Y-238.5218
G1X46.6076Y-266.6358
G1X65.6552Y-333.3084
G1X60.3785Y-375.6569
G1 Z0F20000
(Start Block)

G1X55.6963Y-36.5409
G1Z5.0F20000
(Plotting speed under)
G1 F8000

G1X56.8995Y-85.3692
G1X54.5369Y-130.6316
G1X57.9227Y-181.6424
G1X66.8542Y-238.1990
G1X47.6652Y-266.6351
G1X66.8220Y-333.4169
G1X62.2153Y-376.4353
G1 Z0F20000
(Start Block)

G1X56.5412Y-36.3275
G1Z5.0F20000
(Plotting speed under)
G1 F8000

G1X57.6704Y-85.0818
G1X54.8768Y-129.9132
G1X59.6936Y-182.3550
G1X67.5897Y-237.8762
G1X48.7228Y-266.6343
G1X67.9888Y-333.5254
G1X64.0522Y-377.2138
G1 Z0F20000
(Start Block)

G1X57.3861Y-36.1141
G1Z5.0F20000
(Plotting speed under)
G1 F8000

G1X58.4414Y-84.7944
G1X55.2166Y-129.1947
G1X61.4644Y-183.0675
G1X68.3252Y-237.5533
G1X49.7803Y-266.6335
G1X69.1556Y-333.6339
G1X65.8890Y-377.9923
G1 Z0F20000
(Start Block)

G1X58.2310Y-35.9006
G1Z5.0F20000
(Plotting speed under)
G1 F8000

G1X59.2124Y-84.5070
G1X55.5565Y-128.4762
G1X63.2353Y-183.7801
G1X69.0607Y-237.2305
G1X50.8379Y-266.6328
G1X70.3225Y-333.7424
G1X67.7258Y-378.7708
G1 Z0F20000
(Start Block)

G1X59.0760Y-35.6872
G1Z5.0F20000
(Plotting speed under)
G1 F8000

G1X59.9833Y-84.2196
G1X55.8963Y-127.7577
G1X65.0062Y-184.4927
G1X69.7961Y-236.9076
G1X51.8955Y-266.6320
G1X71.4893Y-333.8509
G1X69.5626Y-379.5493
G1 Z0F20000
(Start Block)

G1X59.9209Y-35.4738
G1Z5.0F20000
(Plotting speed under)
G1 F8000

G1X60.7542Y-83.9322
G1X56.2361Y-127.0392
G1X66.7771Y-185.2052
G1X70.5316Y-236.5848
G1X52.9530Y-266.6312
G1X72.6561Y-333.9594
G1X71.3994Y-380.3277
G1 Z0F20000
(Start Block)

G1X60.7658Y-35.2604
G1Z5.0F20000
(Plotting speed under)
G1 F8000

G1X61.5252Y-83.6448
G1X56.5760Y-126.3207
G1X68.5480Y-185.9178
G1X71.2671Y-236.2619
G1X54.0106Y-266.6305
G1X73.8230Y-334.0679
G1X73.2362Y-381.1062
G1 Z0F20000
(Start Block)

G1X61.6107Y-35.0470
G1Z5.0F20000
(Plotting speed under)
G1 F8000

G1X62.2962Y-83.3575
G1X56.9158Y-125.6022
G1X70.3189Y-186.6303
G1X72.0026Y-235.9391
G1X55.0682Y-266.6297
G1X74.9898Y-334.1764
G1X75.0731Y-381.8847
G1 Z0F20000
(Start Block)

G1X62.4557Y-34.8336
G1Z5.0F20000
(Plotting speed under)
G1 F8000

G1X63.0671Y-83.0701
G1X57.2557Y-124.8837
G1X72.0898Y-187.3429
G1X72.7381Y-235.6162
G1X56.1257Y-266.6289
G1X76.1566Y-334.2848
G1X76.9099Y-382.6632
G1 Z0F20000
(Start Block)

G1X63.3006Y-34.6202
G1Z5.0F20000
(Plotting speed under)
G1 F8000

G1X63.8380Y-82.7827
G1X57.5955Y-124.1652
G1X73.8607Y-188.0554
G1X73.4736Y-235.2934
G1X57.1833Y-266.6281
G1X77.3234Y-334.3934
G1X78.7467Y-383.4416
G1 Z0F20000
(Start Block)

G1X64.1455Y-34.4068
G1Z5.0F20000
(Plotting speed under)
G1 F8000

G1X64.6090Y-82.4953
G1X57.9354Y-123.4467
G1X75.6316Y-188.7680
G1X74.2091Y-234.9706
G1X58.2409Y-266.6274
G1X78.4903Y-334.5018
G1X80.5835Y-384.2201
G1 Z0F20000
(Start Block)

G1X64.9905Y-34.1934
G1Z5.0F20000
(Plotting speed under)
G1 F8000

G1X65.3800Y-82.2079
G1X58.2752Y-122.7282
G1X77.4025Y-189.4806
G1X74.9446Y-234.6477
G1X59.2984Y-266.6266
G1X79.6571Y-334.6103
G1X82.4203Y-384.9986
G1 Z0F20000
(Start Block)

G1X65.8354Y-33.9800
G1Z5.0F20000
(Plotting speed under)
G1 F8000

G1X66.1509Y-81.9205
G1X58.6150Y-122.0097
G1X79.1734Y-190.1931
G1X75.6801Y-234.3249
G1X60.3560Y-266.6258
G1X80.8239Y-334.7188
G1X84.2571Y-385.7771
G1 Z0F20000
(Start Block)

G1X66.6803Y-33.7666
G1Z5.0F20000
(Plotting speed under)
G1 F8000

G1X66.9218Y-81.6332
G1X58.9549Y-121.2912
G1X80.9443Y-190.9057
G1X76.4156Y-234.0020
G1X61.4136Y-266.6251
G1X81.9907Y-334.8273
G1X86.0940Y-386.5556
G1 Z0F20000
(Start Block)

G1X67.5252Y-33.5532
G1Z5.0F20000
(Plotting speed under)
G1 F8000

G1X67.6928Y-81.3458
G1X59.2947Y-120.5727
G1X82.7152Y-191.6182
G1X77.1511Y-233.6792
G1X62.4711Y-266.6243
G1X83.1576Y-334.9358
G1X87.9308Y-387.3341
G1 Z0F20000
(Start Block)

G1X68.3701Y-33.3397
G1Z5.0F20000
(Plotting speed under)
G1 F8000

G1X68.4638Y-81.0584
G1X59.6346Y-119.8543
G1X84.4861Y-192.3308
G1X77.8865Y-233.3563
G1X63.5287Y-266.6235
G1X84.3244Y-335.0443
G1X89.7676Y-388.1125
G1 Z0F20000
(Start Block)

G1X69.2151Y-33.1263
G1Z5.0F20000
(Plotting speed under)
G1 F8000

G1X69.2347Y-80.7710
G1X59.9744Y-119.1357
G1X86.2569Y-193.0433
G1X78.6220Y-233.0335
G1X64.5862Y-266.6227
G1X85.4912Y-335.1528
G1X91.6044Y-388.8910
G1 Z0F20000
(Start Block)

G1X70.0600Y-32.9129
G1Z5.0F20000
(Plotting speed under)
G1 F8000

G1X70.0056Y-80.4836
G1X60.3142Y-118.4172
G1X88.0278Y-193.7559
G1X79.3575Y-232.7106
G1X65.6438Y-266.6220
G1X86.6580Y-335.2613
G1X93.4412Y-389.6695
G1 Z0F20000
(Start Block)

G1X70.9049Y-32.6995
G1Z5.0F20000
(Plotting speed under)
G1 F8000

G1X70.7766Y-80.1962
G1X60.6541Y-117.6988
G1X89.7987Y-194.4685
G1X80.0930Y-232.3878
G1X66.7014Y-266.6212
G1X87.8249Y-335.3697
G1X95.2780Y-390.4480
G1 Z0F20000
(Start Block)

G1X71.7499Y-32.4861
G1Z5.0F20000
(Plotting speed under)
G1 F8000

G1X71.5475Y-79.9088
G1X60.9939Y-116.9803
G1X91.5696Y-195.1810
G1X80.8285Y-232.0649
G1X67.7589Y-266.6204
G1X88.9917Y-335.4782
G1X97.1148Y-391.2265
G1 Z0F20000
(Start Block)

G1X72.5948Y-32.2727
G1Z5.0F20000
(Plotting speed under)
G1 F8000

G1X72.3185Y-79.6215
G1X61.3338Y-116.2618
G1X93.3405Y-195.8936
G1X81.5640Y-231.7421
G1X68.8165Y-266.6197
G1X90.1585Y-335.5867
G1X98.9517Y-392.0049
G1 Z0F20000
(Start Block)

G1X73.4397Y-32.0593
G1Z5.0F20000
(Plotting speed under)
G1 F8000

G1X73.0894Y-79.3341
G1X61.6736Y-115.5433
G1X95.1114Y-196.6061
G1X82.2995Y-231.4193
G1X69.8741Y-266.6189
G1X91.3253Y-335.6952
G1X100.7885Y-392.7834
G1 Z0F20000
(Start Block)

G1X74.2847Y-31.8459
G1Z5.0F20000
(Plotting speed under)
G1 F8000

G1X73.8604Y-79.0467
G1X62.0135Y-114.8248
G1X96.8823Y-197.3187
G1X83.0350Y-231.0964
G1X70.9316Y-266.6181
G1X92.4922Y-335.8037
G1X102.6253Y-393.5619
G1 Z0F20000
(Start Block)

G1X75.1296Y-31.6325
G1Z5.0F20000
(Plotting speed under)
G1 F8000

G1X74.6314Y-78.7593
G1X62.3533Y-114.1063
G1X98.6532Y-198.0312
G1X83.7705Y-230.7736
G1X71.9892Y-266.6174
G1X93.6590Y-335.9122
G1X104.4621Y-394.3404
G1 Z0F20000
(Start Block)

G1X76.3008Y-31.7454
G1Z5.0F20000
(Plotting speed under)
G1 F8000

G1X75.5492Y-78.6188
G1X64.0367Y-114.7314
G1X99.2708Y-197.5906
G1X84.8424Y-230.7871
G1X73.4177Y-266.9876
G1X94.1868Y-335.3817
G1X105.0005Y-393.8204
G1 Z0F20000
(Start Block)

G1X77.4720Y-31.8583
G1Z5.0F20000
(Plotting speed under)
G1 F8000

G1X76.4671Y-78.4784
G1X65.7202Y-115.3565
G1X99.8885Y-197.1499
G1X85.9143Y-230.8007
G1X74.8463Y-267.3578
G1X94.7146Y-334.8512
G1X105.5388Y-393.3004
G1 Z0F20000
(Start Block)

G1X78.6433Y-31.9712
G1Z5.0F20000
(Plotting speed under)
G1 F8000

G1X77.3849Y-78.3379
G1X67.4036Y-115.9816
G1X100.5062Y-196.7092
G1X86.9862Y-230.8143
G1X76.2748Y-267.7280
G1X95.2425Y-334.3207
G1X106.0772Y-392.7804
G1 Z0F20000
(Start Block)

G1X79.8145Y-32.0841
G1Z5.0F20000
(Plotting speed under)
G1 F8000

G1X78.3028Y-78.1974
G1X69.0870Y-116.6067
G1X101.1239Y-196.2686
G1X88.0581Y-230.8279
G1X77.7034Y-268.0982
G1X95.7703Y-333.7902
G1X106.6155Y-392.2605
G1 Z0F20000
(Start Block)

G1X80.9857Y-32.1970
G1Z5.0F20000
(Plotting speed under)
G1 F8000

G1X79.2206Y-78.0569
G1X70.7705Y-117.2318
G1X101.7416Y-195.8279
G1X89.1300Y-230.8415
G1X79.1319Y-268.4684
G1X96.2981Y-333.2597
G1X107.1539Y-391.7405
G1 Z0F20000
(Start Block)

G1X82.1569Y-32.3098
G1Z5.0F20000
(Plotting speed under)
G1 F8000

G1X80.1385Y-77.9164
G1X72.4539Y-117.8569
G1X102.3592Y-195.3873
G1X90.2019Y-230.8550
G1X80.5605Y-268.8386
G1X96.8259Y-332.7291
G1X107.6922Y-391.2205
G1 Z0F20000
(Start Block)

G1X83.3282Y-32.4227
G1Z5.0F20000
(Plotting speed under)
G1 F8000

G1X81.0564Y-77.7760
G1X74.1374Y-118.4820
G1X102.9769Y-194.9466
G1X91.2738Y-230.8686
G1X81.9890Y-269.2088
G1X97.3538Y-332.1987
G1X108.2306Y-390.7005
G1 Z0F20000
(Start Block)

G1X84.4994Y-32.5356
G1Z5.0F20000
(Plotting speed under)
G1 F8000

G1X81.9742Y-77.6355
G1X75.8208Y-119.1071
G1X103.5946Y-194.5059
G1X92.3457Y-230.8822
G1X83.4175Y-269.5790
G1X97.8816Y-331.6681
G1X108.7689Y-390.1805
G1 Z0F20000
(Start Block)

G1X85.6706Y-32.6485
G1Z5.0F20000
(Plotting speed under)
G1 F8000

G1X82.8921Y-77.4950
G1X77.5043Y-119.7322
G1X104.2122Y-194.0653
G1X93.4177Y-230.8958
G1X84.8461Y-269.9492
G1X98.4094Y-331.1376
G1X109.3073Y-389.6606
G1 Z0F20000
(Start Block)

G1X86.8418Y-32.7614
G1Z5.0F20000
(Plotting speed under)
G1 F8000

G1X83.8099Y-77.3545
G1X79.1877Y-120.3573
G1X104.8299Y-193.6246
G1X94.4896Y-230.9094
G1X86.2746Y-270.3194
G1X98.9372Y-330.6071
G1X109.8456Y-389.1406
G1 Z0F20000
(Start Block)

G1X88.0131Y-32.8743
G1Z5.0F20000
(Plotting speed under)
G1 F8000

G1X84.7278Y-77.2141
G1X80.8711Y-120.9824
G1X105.4476Y-193.1840
G1X95.5615Y-230.9229
G1X87.7032Y-270.6896
G1X99.4651Y-330.0766
G1X110.3840Y-388.6206
G1 Z0F20000
(Start Block)

G1X89.1843Y-32.9872
G1Z5.0F20000
(Plotting speed under)
G1 F8000

G1X85.6456Y-77.0736
G1X82.5545Y-121.6075
G1X106.0653Y-192.7433
G1X96.6334Y-230.9365
G1X89.1317Y-271.0598
G1X110.9223Y-388.1006
G1 Z0F20000
(Start Block)

G1X90.3555Y-33.1001
G1Z5.0F20000
(Plotting speed under)
G1 F8000

G1X86.5635Y-76.9331
G1X84.2380Y-122.2326
G1X106.6829Y-192.3027
G1X97.7053Y-230.9501
G1X90.5602Y-271.4300
G1X100.5207Y-329.0156
G1X111.4607Y-387.5806
G1 Z0F20000
(Start Block)

G1X91.5267Y-33.2130
G1Z5.0F20000
(Plotting speed under)
G1 F8000

G1X87.4814Y-76.7926
G1X85.9214Y-122.8577
G1X107.3006Y-191.8620
G1X98.7772Y-230.9637
G1X91.9888Y-271.8003
G1X101.0485Y-328.4851
G1X111.9991Y-387.0606
G1 Z0F20000
(Start Block)

G1X92.6980Y-33.3258
G1Z5.0F20000
(Plotting speed under)
G1 F8000

G1X88.3992Y-76.6521
G1X87.6049Y-123.4829
G1X107.9183Y-191.4213
G1X99.8491Y-230.9772
G1X93.4173Y-272.1705
G1X101.5763Y-327.9546
G1X112.5374Y-386.5407
G1 Z0F20000
(Start Block)

G1X93.8692Y-33.4387
G1Z5.0F20000
(Plotting speed under)
G1 F8000

G1X89.3171Y-76.5117
G1X89.2883Y-124.1080
G1X108.5360Y-190.9807
G1X100.9211Y-230.9908
G1X94.8458Y-272.5407
G1X102.1042Y-327.4241
G1X113.0758Y-386.0207
G1 Z0F20000
(Start Block)

G1X95.0404Y-33.5516
G1Z5.0F20000
(Plotting speed under)
G1 F8000

G1X90.2349Y-76.3712
G1X90.9717Y-124.7330
G1X109.1536Y-190.5400
G1X101.9930Y-231.0044
G1X96.2744Y-272.9109
G1X102.6320Y-326.8935
G1X113.6141Y-385.5007
G1 Z0F20000
(Start Block)

G1X96.2117Y-33.6645
G1Z5.0F20000
(Plotting speed under)
G1 F8000

G1X91.1528Y-76.2307
G1X92.6551Y-125.3581
G1X109.7713Y-190.0993
G1X103.0649Y-231.0180
G1X97.7029Y-273.2811
G1X103.1598Y-326.3631
G1X114.1525Y-384.9807
G1 Z0F20000
(Start Block)

G1X97.3829Y-33.7774
G1Z5.0F20000
(Plotting speed under)
G1 F8000

G1X92.0706Y-76.0902
G1X94.3386Y-125.9832
G1X110.3890Y-189.6587
G1X104.1368Y-231.0316
G1X99.1315Y-273.6513
G1X103.6876Y-325.8325
G1X114.6908Y-384.4607
G1 Z0F20000
(Start Block)

G1X98.5541Y-33.8903
G1Z5.0F20000
(Plotting speed under)
G1 F8000

G1X92.9885Y-75.9497
G1X96.0220Y-126.6084
G1X111.0067Y-189.2180
G1X105.2087Y-231.0451
G1X100.5600Y-274.0215
G1X104.2155Y-325.3020
G1X115.2292Y-383.9408
G1 Z0F20000
(Start Block)

G1X99.7253Y-34.0032
G1Z5.0F20000
(Plotting speed under)
G1 F8000

G1X93.9063Y-75.8093
G1X97.7055Y-127.2335
G1X111.6243Y-188.7774
G1X106.2806Y-231.0587
G1X101.9886Y-274.3917
G1X104.7433Y-324.7715
G1X115.7675Y-383.4208
G1 Z0F20000
(Start Block)

G1X100.8966Y-34.1161
G1Z5.0F20000
(Plotting speed under)
G1 F8000

G1X94.8242Y-75.6688
G1X99.3889Y-127.8586
G1X112.2420Y-188.3367
G1X107.3525Y-231.0723
G1X103.4171Y-274.7619
G1X105.2711Y-324.2410
G1X116.3059Y-382.9008
G1 Z0F20000
(Start Block)

G1X102.0678Y-34.2290
G1Z5.0F20000
(Plotting speed under)
G1 F8000

G1X95.7420Y-75.5283
G1X101.0723Y-128.4837
G1X112.8597Y-187.8960
G1X108.4244Y-231.0859
G1X104.8456Y-275.1321
G1X105.7990Y-323.7105
G1X116.8442Y-382.3808
G1 Z0F20000
(Start Block)

G1X103.2390Y-34.3419
G1Z5.0F20000
(Plotting speed under)
G1 F8000

G1X96.6599Y-75.3878
G1X102.7558Y-129.1087
G1X113.4773Y-187.4554
G1X109.4964Y-231.0995
G1X106.2742Y-275.5023
G1X106.3268Y-323.1800
G1X117.3826Y-381.8608
G1 Z0F20000
(Start Block)

G1X104.4102Y-34.4548
G1Z5.0F20000
(Plotting speed under)
G1 F8000

G1X97.5778Y-75.2474
G1X104.4392Y-129.7339
G1X114.0950Y-187.0147
G1X110.5683Y-231.1130
G1X107.7027Y-275.8725
G1X106.8546Y-322.6495
G1X117.9209Y-381.3409
G1 Z0F20000
(Start Block)

G1X105.5815Y-34.5677
G1Z5.0F20000
(Plotting speed under)
G1 F8000

G1X98.4956Y-75.1069
G1X106.1226Y-130.3590
G1X114.7127Y-186.5741
G1X111.6402Y-231.1266
G1X109.1313Y-276.2427
G1X107.3824Y-322.1190
G1X118.4593Y-380.8209
G1 Z0F20000
(Start Block)

G1X106.7527Y-34.6805
G1Z5.0F20000
(Plotting speed under)
G1 F8000

G1X99.4135Y-74.9664
G1X107.8061Y-130.9841
G1X115.3304Y-186.1334
G1X112.7121Y-231.1402
G1X110.5598Y-276.6129
G1X107.9103Y-321.5885
G1X118.9977Y-380.3009
G1 Z0F20000
(Start Block)

G1X107.9239Y-34.7934
G1Z5.0F20000
(Plotting speed under)
G1 F8000

G1X100.3313Y-74.8259
G1X109.4895Y-131.6092
G1X115.9480Y-185.6928
G1X113.7840Y-231.1538
G1X111.9883Y-276.9832
G1X108.4381Y-321.0579
G1X119.5360Y-379.7809
G1 Z0F20000
(Start Block)

G1X109.0951Y-34.9063
G1Z5.0F20000
(Plotting speed under)
G1 F8000

G1X101.2492Y-74.6855
G1X111.1729Y-132.2343
G1X116.5657Y-185.2521
G1X114.8559Y-231.1674
G1X113.4169Y-277.3534
G1X108.9659Y-320.5274
G1X120.0744Y-379.2609
G1 Z0F20000
(Start Block)

G1X110.2664Y-35.0192
G1Z5.0F20000
(Plotting speed under)
G1 F8000

G1X102.1670Y-74.5450
G1X112.8564Y-132.8594
G1X117.1834Y-184.8114
G1X115.9278Y-231.1809
G1X114.8454Y-277.7236
G1X109.4937Y-319.9969
G1X120.6127Y-378.7410
G1 Z0F20000
(Start Block)

G1X111.4376Y-35.1321
G1Z5.0F20000
(Plotting speed under)
G1 F8000

G1X103.0849Y-74.4045
G1X114.5398Y-133.4845
G1X117.8011Y-184.3708
G1X116.2740Y-278.0938
G1X110.0216Y-319.4664
G1X121.1511Y-378.2210
G1 Z0F20000
(Start Block)

G1X112.6088Y-35.2450
G1Z5.0F20000
(Plotting speed under)
G1 F8000

G1X104.0027Y-74.2640
G1X116.2232Y-134.1096
G1X118.4187Y-183.9301
G1X117.7025Y-278.4640
G1X110.5494Y-318.9359
G1X121.6894Y-377.7010
G1 Z0F20000
(Start Block)

G1X113.7800Y-35.3579
G1Z5.0F20000
(Plotting speed under)
G1 F8000

G1X104.9206Y-74.1235
G1X117.9067Y-134.7347
G1X119.0364Y-183.4894
G1X119.1436Y-231.2216
G1X119.1310Y-278.8342
G1X111.0772Y-318.4054
G1X122.2278Y-377.1810
G1 Z0F20000
(Start Block)

G1X114.9513Y-35.4708
G1Z5.0F20000
(Plotting speed under)
G1 F8000

G1X105.8385Y-73.9831
G1X119.5901Y-135.3598
G1X119.6541Y-183.0488
G1X120.2155Y-231.2352
G1X120.5596Y-279.2044
G1X111.6050Y-317.8749
G1X122.7662Y-376.6610
G1 Z0F20000
(Start Block)

G1X116.1225Y-35.5837
G1Z5.0F20000
(Plotting speed under)
G1 F8000

G1X106.7563Y-73.8426
G1X121.2736Y-135.9849
G1X120.2718Y-182.6081
G1X121.2874Y-231.2488
G1X121.9881Y-279.5746
G1X112.1329Y-317.3444
G1X123.3045Y-376.1411
G1 Z0F20000
(Start Block)

G1X117.2937Y-35.6966
G1Z5.0F20000
(Plotting speed under)
G1 F8000

G1X107.6742Y-73.7021
G1X122.9570Y-136.6100
G1X120.8894Y-182.1675
G1X122.3593Y-231.2624
G1X123.4167Y-279.9448
G1X112.6607Y-316.8138
G1X123.8429Y-375.6211
G1 Z0F20000
(Start Block)

G1X118.4649Y-35.8095
G1Z5.0F20000
(Plotting speed under)
G1 F8000

G1X108.5920Y-73.5616
G1X124.6404Y-137.2351
G1X121.5071Y-181.7268
G1X123.4312Y-231.2760
G1X124.8452Y-280.3150
G1X113.1885Y-316.2834
G1X124.3812Y-375.1011
G1 Z0F20000
(Start Block)

G1X119.6362Y-35.9224
G1Z5.0F20000
(Plotting speed under)
G1 F8000

G1X109.5099Y-73.4211
G1X126.3239Y-137.8602
G1X122.1248Y-181.2861
G1X124.5031Y-231.2895
G1X126.2738Y-280.6852
G1X113.7163Y-315.7528
G1X124.9196Y-374.5811
G1 Z0F20000
(Start Block)

G1X120.8074Y-36.0353
G1Z5.0F20000
(Plotting speed under)
G1 F8000

G1X110.4278Y-73.2807
G1X128.0073Y-138.4853
G1X122.7425Y-180.8455
G1X125.5751Y-231.3031
G1X127.7023Y-281.0554
G1X114.2442Y-315.2223
G1X125.4579Y-374.0612
G1 Z0F20000
(Start Block)

G1X121.9786Y-36.1481
G1Z5.0F20000
(Plotting speed under)
G1 F8000

G1X111.3456Y-73.1402
G1X129.6908Y-139.1104
G1X123.3601Y-180.4048
G1X126.6470Y-231.3167
G1X129.1309Y-281.4256
G1X114.7720Y-314.6918
G1X125.9963Y-373.5412
G1 Z0F20000
(Start Block)

G1X123.1498Y-36.2610
G1Z5.0F20000
(Plotting speed under)
G1 F8000

G1X112.2635Y-72.9997
G1X131.3742Y-139.7355
G1X123.9778Y-179.9642
G1X127.7189Y-231.3303
G1X130.5594Y-281.7958
G1X115.2998Y-314.1613
G1X126.5346Y-373.0212
G1 Z0F20000
(Start Block)

G1X124.3211Y-36.3739
G1Z5.0F20000
(Plotting speed under)
G1 F8000

G1X113.1813Y-72.8592
G1X133.0576Y-140.3606
G1X124.5955Y-179.5235
G1X128.7908Y-231.3439
G1X131.9879Y-282.1661
G1X115.8276Y-313.6308
G1X127.0730Y-372.5012
G1 Z0F20000
(Start Block)

G1X125.4923Y-36.4868
G1Z5.0F20000
(Plotting speed under)
G1 F8000

G1X114.0992Y-72.7187
G1X134.7411Y-140.9857
G1X125.2132Y-179.0828
G1X129.8627Y-231.3574
G1X133.4165Y-282.5363
G1X116.3555Y-313.1003
G1X127.6113Y-371.9812
G1 Z0F20000
(Start Block)

G1X126.6635Y-36.5997
G1Z5.0F20000
(Plotting speed under)
G1 F8000

G1X115.0170Y-72.5782
G1X136.4245Y-141.6108
G1X125.8308Y-178.6422
G1X130.9346Y-231.3710
G1X134.8450Y-282.9065
G1X116.8833Y-312.5698
G1X128.1497Y-371.4613
G1 Z0F20000
(Start Block)

G1X127.8348Y-36.7126
G1Z5.0F20000
(Plotting speed under)
G1 F8000

G1X115.9349Y-72.4378
G1X138.1079Y-142.2359
G1X126.4485Y-178.2015
G1X132.0065Y-231.3846
G1X136.2736Y-283.2767
G1X117.4111Y-312.0393
G1X128.6880Y-370.9413
G1 Z0F20000
(Start Block)

G1X128.8036Y-36.6231
G1Z5.0F20000
(Plotting speed under)
G1 F8000

G1X116.9519Y-72.3964
G1X139.1335Y-142.2032
G1X127.2314Y-177.9261
G1X133.2478Y-231.5676
G1X136.8690Y-282.8138
G1X118.6245Y-312.1943
G1X129.8053Y-371.0002
G1 Z0F20000
(Start Block)

G1X129.7724Y-36.5336
G1Z5.0F20000
(Plotting speed under)
G1 F8000

G1X117.9689Y-72.3551
G1X140.1592Y-142.1705
G1X128.0143Y-177.6506
G1X134.4891Y-231.7505
G1X137.4645Y-282.3509
G1X119.8379Y-312.3494
G1X130.9226Y-371.0591
G1 Z0F20000
(Start Block)

G1X130.7413Y-36.4441
G1Z5.0F20000
(Plotting speed under)
G1 F8000

G1X118.9859Y-72.3138
G1X141.1848Y-142.1377
G1X128.7972Y-177.3752
G1X135.7304Y-231.9335
G1X138.0599Y-281.8880
G1X121.0514Y-312.5045
G1X132.0399Y-371.1181
G1 Z0F20000
(Start Block)

G1X131.7101Y-36.3546
G1Z5.0F20000
(Plotting speed under)
G1 F8000

G1X120.0028Y-72.2724
G1X142.2104Y-142.1050
G1X129.5801Y-177.0998
G1X136.9717Y-232.1164
G1X138.6554Y-281.4251
G1X122.2648Y-312.6596
G1X133.1572Y-371.1770
G1 Z0F20000
(Start Block)

G1X132.6789Y-36.2651
G1Z5.0F20000
(Plotting speed under)
G1 F8000

G1X121.0198Y-72.2311
G1X143.2360Y-142.0723
G1X130.3630Y-176.8243
G1X138.2130Y-232.2993
G1X139.2508Y-280.9623
G1X123.4782Y-312.8147
G1X134.2744Y-371.2360
G1 Z0F20000
(Start Block)

G1X133.6478Y-36.1756
G1Z5.0F20000
(Plotting speed under)
G1 F8000

G1X122.0368Y-72.1897
G1X144.2617Y-142.0396
G1X131.1459Y-176.5489
G1X139.4543Y-232.4823
G1X139.8463Y-280.4994
G1X124.6916Y-312.9698
G1X135.3917Y-371.2949
G1 Z0F20000
(Start Block)

G1X134.6166Y-36.0861
G1Z5.0F20000
(Plotting speed under)
G1 F8000

G1X123.0539Y-72.1484
G1X145.2873Y-142.0069
G1X131.9288Y-176.2734
G1X140.6955Y-232.6653
G1X140.4417Y-280.0365
G1X125.9050Y-313.1249
G1X136.5090Y-371.3539
G1 Z0F20000
(Start Block)

G1X135.5854Y-35.9966
G1Z5.0F20000
(Plotting speed under)
G1 F8000

G1X124.0708Y-72.1070
G1X146.3129Y-141.9742
G1X132.7117Y-175.9980
G1X141.9368Y-232.8482
G1X141.0372Y-279.5736
G1X127.1185Y-313.2799
G1X137.6263Y-371.4128
G1 Z0F20000
(Start Block)

G1X136.5543Y-35.9071
G1Z5.0F20000
(Plotting speed under)
G1 F8000

G1X125.0878Y-72.0657
G1X147.3385Y-141.9415
G1X133.4946Y-175.7226
G1X143.1781Y-233.0312
G1X141.6326Y-279.1107
G1X128.3319Y-313.4350
G1X138.7436Y-371.4718
G1 Z0F20000
(Start Block)

G1X137.5231Y-35.8176
G1Z5.0F20000
(Plotting speed under)
G1 F8000

G1X126.1048Y-72.0244
G1X148.3642Y-141.9088
G1X134.2775Y-175.4471
G1X144.4194Y-233.2141
G1X142.2281Y-278.6478
G1X129.5453Y-313.5901
G1X139.8608Y-371.5307
G1 Z0F20000
(Start Block)

G1X138.4919Y-35.7281
G1Z5.0F20000
(Plotting speed under)
G1 F8000

G1X127.1218Y-71.9830
G1X149.3898Y-141.8761
G1X135.0603Y-175.1717
G1X145.6607Y-233.3971
G1X142.8235Y-278.1850
G1X130.7587Y-313.7452
G1X140.9781Y-371.5897
G1 Z0F20000
(Start Block)

G1X139.4608Y-35.6386
G1Z5.0F20000
(Plotting speed under)
G1 F8000

G1X128.1388Y-71.9417
G1X150.4154Y-141.8434
G1X135.8432Y-174.8962
G1X146.9020Y-233.5800
G1X143.4190Y-277.7221
G1X131.9721Y-313.9002
G1X142.0954Y-371.6486
G1 Z0F20000
(Start Block)

G1X140.4296Y-35.5491
G1Z5.0F20000
(Plotting speed under)
G1 F8000

G1X129.1558Y-71.9003
G1X151.4410Y-141.8107
G1X136.6261Y-174.6208
G1X148.1433Y-233.7630
G1X144.0144Y-277.2592
G1X133.1855Y-314.0553
G1X143.2127Y-371.7076
G1 Z0F20000
(Start Block)

G1X141.3984Y-35.4596
G1Z5.0F20000
(Plotting speed under)
G1 F8000

G1X130.1728Y-71.8590
G1X152.4667Y-141.7780
G1X137.4090Y-174.3454
G1X149.3845Y-233.9459
G1X144.6099Y-276.7963
G1X134.3990Y-314.2104
G1X144.3299Y-371.7665
G1 Z0F20000
(Start Block)

G1X142.3673Y-35.3701
G1Z5.0F20000
(Plotting speed under)
G1 F8000

G1X131.1898Y-71.8177
G1X153.4923Y-141.7453
G1X138.1919Y-174.0699
G1X150.6258Y-234.1289
G1X145.2053Y-276.3334
G1X135.6124Y-314.3655
G1X145.4472Y-371.8254
G1 Z0F20000
(Start Block)

G1X143.3361Y-35.2806
G1Z5.0F20000
(Plotting speed under)
G1 F8000

G1X132.2068Y-71.7763
G1X154.5179Y-141.7125
G1X138.9748Y-173.7945
G1X151.8671Y-234.3118
G1X145.8008Y-275.8706
G1X136.8258Y-314.5206
G1X146.5645Y-371.8844
G1 Z0F20000
(Start Block)

G1X144.3049Y-35.1911
G1Z5.0F20000
(Plotting speed under)
G1 F8000

G1X133.2238Y-71.7350
G1X155.5435Y-141.6798
G1X139.7577Y-173.5190
G1X153.1084Y-234.4948
G1X146.3962Y-275.4077
G1X138.0392Y-314.6757
G1X147.6818Y-371.9433
G1 Z0F20000
(Start Block)

G1X145.2738Y-35.1016
G1Z5.0F20000
(Plotting speed under)
G1 F8000

G1X134.2408Y-71.6937
G1X156.5692Y-141.6471
G1X140.5406Y-173.2436
G1X154.3497Y-234.6777
G1X146.9917Y-274.9448
G1X139.2526Y-314.8308
G1X148.7990Y-372.0023
G1 Z0F20000
(Start Block)

G1X146.2426Y-35.0121
G1Z5.0F20000
(Plotting speed under)
G1 F8000

G1X135.2578Y-71.6523
G1X157.5948Y-141.6144
G1X141.3235Y-172.9682
G1X155.5910Y-234.8607
G1X147.5872Y-274.4819
G1X140.4660Y-314.9858
G1X149.9163Y-372.0612
G1 Z0F20000
(Start Block)

G1X147.2114Y-34.9226
G1Z5.0F20000
(Plotting speed under)
G1 F8000

G1X136.2748Y-71.6110
G1X158.6204Y-141.5817
G1X142.1064Y-172.6927
G1X156.8323Y-235.0436
G1X148.1826Y-274.0190
G1X141.6795Y-315.1409
G1X151.0336Y-372.1201
G1 Z0F20000
(Start Block)

G1X148.1803Y-34.8331
G1Z5.0F20000
(Plotting speed under)
G1 F8000

G1X137.2918Y-71.5696
G1X159.6460Y-141.5490
G1X142.8893Y-172.4173
G1X158.0735Y-235.2266
G1X148.7780Y-273.5561
G1X142.8929Y-315.2960
G1X152.1509Y-372.1791
G1 Z0F20000
(Start Block)

G1X149.1491Y-34.7436
G1Z5.0F20000
(Plotting speed under)
G1 F8000

G1X138.3088Y-71.5283
G1X160.6717Y-141.5163
G1X143.6722Y-172.1418
G1X159.3148Y-235.4095
G1X149.3735Y-273.0932
G1X144.1063Y-315.4511
G1X153.2682Y-372.2380
G1 Z0F20000
(Start Block)

G1X150.1179Y-34.6541
G1Z5.0F20000
(Plotting speed under)
G1 F8000

G1X139.3257Y-71.4869
G1X161.6973Y-141.4836
G1X144.4551Y-171.8664
G1X160.5561Y-235.5925
G1X149.9690Y-272.6304
G1X145.3197Y-315.6062
G1X154.3855Y-372.2970
G1 Z0F20000
(Start Block)

G1X151.0868Y-34.5646
G1Z5.0F20000
(Plotting speed under)
G1 F8000

G1X140.3427Y-71.4456
G1X162.7229Y-141.4509
G1X145.2380Y-171.5910
G1X161.7974Y-235.7754
G1X150.5644Y-272.1675
G1X146.5331Y-315.7612
G1X155.5027Y-372.3559
G1 Z0F20000
(Start Block)

G1X152.0556Y-34.4751
G1Z5.0F20000
(Plotting speed under)
G1 F8000

G1X141.3598Y-71.4043
G1X163.7485Y-141.4181
G1X146.0208Y-171.3155
G1X163.0387Y-235.9584
G1X151.1598Y-271.7046
G1X147.7465Y-315.9163
G1X156.6200Y-372.4149
G1 Z0F20000
(Start Block)

G1X153.0244Y-34.3856
G1Z5.0F20000
(Plotting speed under)
G1 F8000

G1X142.3767Y-71.3629
G1X164.7742Y-141.3854
G1X146.8037Y-171.0400
G1X164.2800Y-236.1413
G1X151.7553Y-271.2417
G1X148.9600Y-316.0714
G1X157.7373Y-372.4738
G1 Z0F20000
(Start Block)

G1X153.9933Y-34.2961
G1Z5.0F20000
(Plotting speed under)
G1 F8000

G1X143.3937Y-71.3216
G1X165.7998Y-141.3527
G1X147.5866Y-170.7646
G1X165.5213Y-236.3243
G1X152.3508Y-270.7789
G1X150.1734Y-316.2265
G1X158.8546Y-372.5328
G1 Z0F20000
(Start Block)

G1X154.9621Y-34.2066
G1Z5.0F20000
(Plotting speed under)
G1 F8000

G1X144.4107Y-71.2802
G1X166.8254Y-141.3200
G1X148.3695Y-170.4892
G1X166.7625Y-236.5073
G1X152.9462Y-270.3160
G1X151.3868Y-316.3816
G1X159.9719Y-372.5917
G1 Z0F20000
(Start Block)

G1X155.9309Y-34.1171
G1Z5.0F20000
(Plotting speed under)
G1 F8000

G1X145.4277Y-71.2389
G1X167.8510Y-141.2873
G1X149.1524Y-170.2137
G1X168.0038Y-236.6902
G1X153.5417Y-269.8531
G1X152.6002Y-316.5367
G1X161.0891Y-372.6507
G1 Z0F20000
(Start Block)

G1X156.8998Y-34.0276
G1Z5.0F20000
(Plotting speed under)
G1 F8000

G1X146.4447Y-71.1976
G1X168.8767Y-141.2546
G1X149.9353Y-169.9383
G1X169.2451Y-236.8731
G1X154.1371Y-269.3902
G1X153.8136Y-316.6917
G1X162.2064Y-372.7096
G1 Z0F20000
(Start Block)

G1X157.8686Y-33.9381
G1Z5.0F20000
(Plotting speed under)
G1 F8000

G1X147.4617Y-71.1562
G1X169.9023Y-141.2219
G1X150.7182Y-169.6628
G1X170.4864Y-237.0561
G1X154.7326Y-268.9273
G1X155.0271Y-316.8468
G1X163.3237Y-372.7686
G1 Z0F20000
(Start Block)

G1X158.8374Y-33.8486
G1Z5.0F20000
(Plotting speed under)
G1 F8000

G1X148.4787Y-71.1149
G1X170.9279Y-141.1892
G1X151.5011Y-169.3874
G1X171.7277Y-237.2390
G1X155.3280Y-268.4644
G1X156.2405Y-317.0019
G1X164.4410Y-372.8275
G1 Z0F20000
(Start Block)

G1X159.8063Y-33.7591
G1Z5.0F20000
(Plotting speed under)
G1 F8000

G1X149.4957Y-71.0736
G1X171.9536Y-141.1565
G1X152.2840Y-169.1120
G1X172.9690Y-237.4220
G1X155.9235Y-268.0015
G1X157.4539Y-317.1570
G1X165.5582Y-372.8864
G1 Z0F20000
(Start Block)

G1X160.7751Y-33.6696
G1Z5.0F20000
(Plotting speed under)
G1 F8000

G1X150.5127Y-71.0322
G1X172.9792Y-141.1238
G1X153.0669Y-168.8365
G1X174.2103Y-237.6050
G1X156.5189Y-267.5387
G1X158.6673Y-317.3121
G1X166.6755Y-372.9454
G1 Z0F20000
(Start Block)

G1X161.7439Y-33.5801
G1Z5.0F20000
(Plotting speed under)
G1 F8000

G1X151.5297Y-70.9909
G1X174.0048Y-141.0911
G1X153.8498Y-168.5611
G1X175.4516Y-237.7879
G1X157.1144Y-267.0758
G1X159.8807Y-317.4672
G1X167.7928Y-373.0043
G1 Z0F20000
(Start Block)

G1X162.7128Y-33.4906
G1Z5.0F20000
(Plotting speed under)
G1 F8000

G1X152.5467Y-70.9495
G1X175.0304Y-141.0583
G1X154.6327Y-168.2856
G1X176.6928Y-237.9708
G1X157.7098Y-266.6129
G1X161.0941Y-317.6223
G1X168.9101Y-373.0633
G1 Z0F20000
(Start Block)

G1X163.6816Y-33.4011
G1Z5.0F20000
(Plotting speed under)
G1 F8000

G1X153.5637Y-70.9082
G1X176.0561Y-141.0256
G1X155.4156Y-168.0102
G1X177.9341Y-238.1538
G1X158.3053Y-266.1500
G1X162.3075Y-317.7773
G1X170.0273Y-373.1222
G1 Z0F20000
(Start Block)

G1X164.6504Y-33.3116
G1Z5.0F20000
(Plotting speed under)
G1 F8000

G1X154.5807Y-70.8669
G1X177.0817Y-140.9929
G1X156.1985Y-167.7348
G1X179.1754Y-238.3368
G1X158.9007Y-265.6871
G1X163.5209Y-317.9324
G1X171.1446Y-373.1812
G1 Z0F20000
(Start Block)

G1X165.6193Y-33.2221
G1Z5.0F20000
(Plotting speed under)
G1 F8000

G1X155.5977Y-70.8255
G1X178.1073Y-140.9602
G1X156.9814Y-167.4593
G1X180.4167Y-238.5197
G1X159.4962Y-265.2242
G1X164.7344Y-318.0875
G1X172.2619Y-373.2401
G1 Z0F20000
(Start Block)

G1X166.5881Y-33.1326
G1Z5.0F20000
(Plotting speed under)
G1 F8000

G1X156.6147Y-70.7842
G1X179.1329Y-140.9275
G1X157.7642Y-167.1839
G1X181.6580Y-238.7027
G1X160.0916Y-264.7614
G1X165.9478Y-318.2426
G1X173.3792Y-373.2991
G1 Z0F20000
(Start Block)

G1X167.5569Y-33.0431
G1Z5.0F20000
(Plotting speed under)
G1 F8000

G1X157.6316Y-70.7428
G1X180.1586Y-140.8948
G1X158.5472Y-166.9084
G1X182.8993Y-238.8856
G1X160.6871Y-264.2985
G1X167.1612Y-318.3977
G1X174.4965Y-373.3580
G1 Z0F20000
(Start Block)

G1X168.5258Y-32.9536
G1Z5.0F20000
(Plotting speed under)
G1 F8000

G1X158.6486Y-70.7015
G1X181.1842Y-140.8621
G1X159.3301Y-166.6330
G1X184.1405Y-239.0686
G1X161.2825Y-263.8356
G1X168.3746Y-318.5528
G1X175.6138Y-373.4170
G1 Z0F20000
(Start Block)

G1X169.4946Y-32.8641
G1Z5.0F20000
(Plotting speed under)
G1 F8000

G1X159.6656Y-70.6601
G1X182.2098Y-140.8294
G1X160.1129Y-166.3575
G1X185.3818Y-239.2515
G1X161.8780Y-263.3727
G1X169.5880Y-318.7079
G1X176.7310Y-373.4759
G1 Z0F20000
(Start Block)

G1X170.4634Y-32.7746
G1Z5.0F20000
(Plotting speed under)
G1 F8000

G1X160.6826Y-70.6188
G1X183.2354Y-140.7967
G1X160.8958Y-166.0821
G1X186.6231Y-239.4345
G1X162.4734Y-262.9098
G1X170.8015Y-318.8629
G1X177.8483Y-373.5348
G1 Z0F20000
(Start Block)

G1X171.4323Y-32.6851
G1Z5.0F20000
(Plotting speed under)
G1 F8000

G1X161.6996Y-70.5775
G1X184.2611Y-140.7640
G1X161.6787Y-165.8067
G1X187.8644Y-239.6174
G1X163.0689Y-262.4470
G1X172.0149Y-319.0180
G1X178.9656Y-373.5938
G1 Z0F20000
(Start Block)

G1X173.0758Y-33.2703
G1Z5.0F20000
(Plotting speed under)
G1 F8000

G1X162.8258Y-70.6453
G1X185.4108Y-140.8554
G1X162.7530Y-165.8226
G1X189.0116Y-239.7062
G1X164.8780Y-263.1977
G1X172.9364Y-318.8812
G1X180.2885Y-373.8583
G1 Z0F20000
(Start Block)

G1X174.7194Y-33.8555
G1Z5.0F20000
(Plotting speed under)
G1 F8000

G1X163.9519Y-70.7131
G1X186.5606Y-140.9468
G1X163.8273Y-165.8385
G1X190.1587Y-239.7950
G1X166.6871Y-263.9484
G1X173.8579Y-318.7444
G1X181.6113Y-374.1228
G1 Z0F20000
(Start Block)

G1X176.3629Y-34.4407
G1Z5.0F20000
(Plotting speed under)
G1 F8000

G1X165.0780Y-70.7808
G1X187.7103Y-141.0382
G1X164.9015Y-165.8545
G1X191.3058Y-239.8838
G1X168.4962Y-264.6992
G1X174.7794Y-318.6076
G1X182.9341Y-374.3873
G1 Z0F20000
(Start Block)

G1X178.0064Y-35.0259
G1Z5.0F20000
(Plotting speed under)
G1 F8000

G1X166.2041Y-70.8486
G1X188.8601Y-141.1296
G1X165.9758Y-165.8704
G1X192.4530Y-239.9727
G1X170.3052Y-265.4500
G1X175.7009Y-318.4707
G1X184.2570Y-374.6518
G1 Z0F20000
(Start Block)

G1X179.6500Y-35.6111
G1Z5.0F20000
(Plotting speed under)
G1 F8000

G1X167.3303Y-70.9164
G1X190.0098Y-141.2211
G1X167.0501Y-165.8864
G1X193.6001Y-240.0615
G1X172.1144Y-266.2007
G1X176.6225Y-318.3339
G1X185.5798Y-374.9163
G1 Z0F20000
(Start Block)

G1X181.2935Y-36.1963
G1Z5.0F20000
(Plotting speed under)
G1 F8000

G1X168.4564Y-70.9842
G1X191.1596Y-141.3125
G1X168.1244Y-165.9023
G1X194.7473Y-240.1503
G1X173.9234Y-266.9515
G1X177.5440Y-318.1971
G1X186.9027Y-375.1808
G1 Z0F20000
(Start Block)

G1X182.9370Y-36.7815
G1Z5.0F20000
(Plotting speed under)
G1 F8000

G1X169.5825Y-71.0520
G1X192.3093Y-141.4039
G1X169.1986Y-165.9183
G1X195.8944Y-240.2391
G1X175.7325Y-267.7022
G1X178.4655Y-318.0602
G1X188.2255Y-375.4454
G1 Z0F20000
(Start Block)

G1X184.5806Y-37.3667
G1Z5.0F20000
(Plotting speed under)
G1 F8000

G1X170.7087Y-71.1198
G1X193.4591Y-141.4953
G1X170.2729Y-165.9342
G1X197.0416Y-240.3279
G1X177.5416Y-268.4530
G1X179.3870Y-317.9234
G1X189.5483Y-375.7099
G1 Z0F20000
(Start Block)

G1X186.2241Y-37.9519
G1Z5.0F20000
(Plotting speed under)
G1 F8000

G1X171.8348Y-71.1876
G1X194.6088Y-141.5867
G1X171.3472Y-165.9501
G1X198.1887Y-240.4167
G1X179.3507Y-269.2037
G1X180.3085Y-317.7866
G1X190.8712Y-375.9744
G1 Z0F20000
(Start Block)

G1X187.8676Y-38.5371
G1Z5.0F20000
(Plotting speed under)
G1 F8000

G1X172.9609Y-71.2554
G1X195.7586Y-141.6782
G1X172.4215Y-165.9661
G1X199.3358Y-240.5055
G1X181.1598Y-269.9545
G1X181.2300Y-317.6498
G1X192.1940Y-376.2389
G1 Z0F20000
(Start Block)

G1X189.5111Y-39.1223
G1Z5.0F20000
(Plotting speed under)
G1 F8000

G1X174.0870Y-71.3232
G1X196.9083Y-141.7696
G1X173.4958Y-165.9820
G1X200.4830Y-240.5943
G1X182.9689Y-270.7053
G1X182.1515Y-317.5130
G1X193.5169Y-376.5034
G1 Z0F20000
(Start Block)

G1X191.1547Y-39.7074
G1Z5.0F20000
(Plotting speed under)
G1 F8000

G1X175.2132Y-71.3910
G1X198.0581Y-141.8610
G1X174.5700Y-165.9980
G1X201.6301Y-240.6831
G1X184.7780Y-271.4560
G1X183.0730Y-317.3761
G1X194.8397Y-376.7679
G1 Z0F20000
(Start Block)

G1X192.7982Y-40.2927
G1Z5.0F20000
(Plotting speed under)
G1 F8000

G1X176.3393Y-71.4588
G1X199.2078Y-141.9524
G1X175.6443Y-166.0139
G1X202.7773Y-240.7719
G1X186.5871Y-272.2068
G1X183.9946Y-317.2393
G1X196.1626Y-377.0324
G1 Z0F20000
(Start Block)

G1X194.4417Y-40.8779
G1Z5.0F20000
(Plotting speed under)
G1 F8000

G1X177.4654Y-71.5266
G1X200.3576Y-142.0438
G1X176.7186Y-166.0298
G1X203.9244Y-240.8607
G1X188.3962Y-272.9575
G1X184.9161Y-317.1025
G1X197.4854Y-377.2969
G1 Z0F20000
(Start Block)

G1X196.0852Y-41.4630
G1Z5.0F20000
(Plotting speed under)
G1 F8000

G1X178.5916Y-71.5944
G1X201.5073Y-142.1352
G1X177.7929Y-166.0458
G1X205.0715Y-240.9495
G1X190.2053Y-273.7083
G1X185.8376Y-316.9657
G1X198.8083Y-377.5614
G1 Z0F20000
(Start Block)

G1X197.7288Y-42.0482
G1Z5.0F20000
(Plotting speed under)
G1 F8000

G1X179.7177Y-71.6622
G1X202.6571Y-142.2267
G1X178.8671Y-166.0617
G1X206.2187Y-241.0384
G1X192.0143Y-274.4591
G1X186.7591Y-316.8288
G1X200.1311Y-377.8259
G1 Z0F20000
(Start Block)

G1X199.3723Y-42.6334
G1Z5.0F20000
(Plotting speed under)
G1 F8000

G1X180.8438Y-71.7300
G1X203.8069Y-142.3181
G1X179.9414Y-166.0777
G1X207.3658Y-241.1271
G1X193.8234Y-275.2098
G1X187.6806Y-316.6920
G1X201.4539Y-378.0904
G1 Z0F20000
(Start Block)

G1X201.0158Y-43.2186
G1Z5.0F20000
(Plotting speed under)
G1 F8000

G1X181.9699Y-71.7977
G1X204.9566Y-142.4095
G1X181.0157Y-166.0936
G1X208.5130Y-241.2160
G1X195.6325Y-275.9606
G1X188.6021Y-316.5552
G1X202.7768Y-378.3550
G1 Z0F20000
(Start Block)

G1X202.6594Y-43.8038
G1Z5.0F20000
(Plotting speed under)
G1 F8000

G1X183.0961Y-71.8656
G1X206.1063Y-142.5009
G1X182.0900Y-166.1096
G1X209.6601Y-241.3048
G1X197.4416Y-276.7113
G1X189.5236Y-316.4184
G1X204.0996Y-378.6195
G1 Z0F20000
(Start Block)

G1X204.3029Y-44.3890
G1Z5.0F20000
(Plotting speed under)
G1 F8000

G1X184.2222Y-71.9333
G1X207.2561Y-142.5923
G1X183.1642Y-166.1255
G1X210.8073Y-241.3936
G1X199.2507Y-277.4621
G1X190.4451Y-316.2815
G1X205.4225Y-378.8840
G1 Z0F20000
(Start Block)

G1X205.9464Y-44.9742
G1Z5.0F20000
(Plotting speed under)
G1 F8000

G1X185.3483Y-72.0011
G1X208.4058Y-142.6837
G1X184.2385Y-166.1414
G1X211.9544Y-241.4824
G1X201.0598Y-278.2128
G1X191.3666Y-316.1447
G1X206.7453Y-379.1485
G1 Z0F20000
(Start Block)

G1X207.5900Y-45.5594
G1Z5.0F20000
(Plotting speed under)
G1 F8000

G1X186.4744Y-72.0689
G1X209.5556Y-142.7752
G1X185.3128Y-166.1574
G1X213.1015Y-241.5712
G1X202.8689Y-278.9636
G1X192.2882Y-316.0079
G1X208.0682Y-379.4130
G1 Z0F20000
(Start Block)

G1X209.2335Y-46.1446
G1Z5.0F20000
(Plotting speed under)
G1 F8000

G1X187.6006Y-72.1367
G1X210.7054Y-142.8666
G1X186.3871Y-166.1733
G1X214.2487Y-241.6600
G1X204.6780Y-279.7143
G1X193.2096Y-315.8711
G1X209.3910Y-379.6775
G1 Z0F20000
(Start Block)

G1X210.8770Y-46.7298
G1Z5.0F20000
(Plotting speed under)
G1 F8000

G1X188.7267Y-72.2045
G1X211.8551Y-142.9580
G1X187.4613Y-166.1892
G1X215.3958Y-241.7488
G1X206.4871Y-280.4651
G1X194.1312Y-315.7342
G1X210.7139Y-379.9420
G1 Z0F20000
(Start Block)

G1X212.5206Y-47.3150
G1Z5.0F20000
(Plotting speed under)
G1 F8000

G1X189.8528Y-72.2723
G1X213.0049Y-143.0494
G1X188.5356Y-166.2052
G1X216.5429Y-241.8376
G1X208.2961Y-281.2159
G1X195.0527Y-315.5974
G1X212.0367Y-380.2065
G1 Z0F20000
(Start Block)

G1X214.1641Y-47.9002
G1Z5.0F20000
(Plotting speed under)
G1 F8000

G1X190.9790Y-72.3401
G1X214.1546Y-143.1408
G1X189.6099Y-166.2211
G1X217.6901Y-241.9264
G1X210.1052Y-281.9666
G1X195.9742Y-315.4606
G1X213.3595Y-380.4710
G1 Z0F20000
(Start Block)

G1X215.8076Y-48.4854
G1Z5.0F20000
(Plotting speed under)
G1 F8000

G1X192.1051Y-72.4079
G1X215.3044Y-143.2322
G1X190.6841Y-166.2371
G1X218.8372Y-242.0152
G1X211.9143Y-282.7174
G1X196.8957Y-315.3238
G1X214.6824Y-380.7355
G1 Z0F20000
(Start Block)

G1X217.4512Y-49.0706
G1Z5.0F20000
(Plotting speed under)
G1 F8000

G1X193.2312Y-72.4757
G1X216.4541Y-143.3237
G1X191.7584Y-166.2530
G1X219.9844Y-242.1040
G1X213.7234Y-283.4681
G1X197.8172Y-315.1869
G1X216.0052Y-381.0000
G1 Z0F20000
(Start Block)

G1X219.0947Y-49.6558
G1Z5.0F20000
(Plotting speed under)
G1 F8000

G1X194.3573Y-72.5435
G1X217.6039Y-143.4151
G1X192.8327Y-166.2689
G1X221.1315Y-242.1928
G1X215.5325Y-284.2189
G1X198.7387Y-315.0501
G1X217.3281Y-381.2646
G1 Z0F20000
(Start Block)

G1X220.7382Y-50.2410
G1Z5.0F20000
(Plotting speed under)
G1 F8000

G1X195.4835Y-72.6113
G1X218.7536Y-143.5065
G1X193.9070Y-166.2849
G1X222.2787Y-242.2817
G1X217.3416Y-284.9696
G1X199.6602Y-314.9133
G1X218.6509Y-381.5291
G1 Z0F20000
(Start Block)

G1X222.3818Y-50.8262
G1Z5.0F20000
(Plotting speed under)
G1 F8000

G1X196.6096Y-72.6791
G1X219.9034Y-143.5979
G1X194.9812Y-166.3008
G1X223.4258Y-242.3704
G1X219.1507Y-285.7204
G1X200.5817Y-314.7765
G1X219.9737Y-381.7936
G1 Z0F20000
(Start Block)

G1X224.0253Y-51.4114
G1Z5.0F20000
(Plotting speed under)
G1 F8000

G1X197.7357Y-72.7469
G1X221.0531Y-143.6893
G1X196.0555Y-166.3168
G1X224.5730Y-242.4593
G1X220.9598Y-286.4711
G1X201.5033Y-314.6397
G1X221.2966Y-382.0581
G1 Z0F20000
(Start Block)

G1X225.6688Y-51.9966
G1Z5.0F20000
(Plotting speed under)
G1 F8000

G1X198.8619Y-72.8147
G1X222.2029Y-143.7807
G1X197.1298Y-166.3327
G1X225.7201Y-242.5481
G1X222.7689Y-287.2219
G1X202.4248Y-314.5028
G1X222.6195Y-382.3226
G1 Z0F20000
(Start Block)

G1X227.3124Y-52.5818
G1Z5.0F20000
(Plotting speed under)
G1 F8000

G1X199.9880Y-72.8825
G1X223.3526Y-143.8722
G1X198.2041Y-166.3487
G1X226.8673Y-242.6369
G1X224.5780Y-287.9727
G1X203.3463Y-314.3660
G1X223.9423Y-382.5871
G1 Z0F20000
(Start Block)

G1X228.9559Y-53.1670
G1Z5.0F20000
(Plotting speed under)
G1 F8000

G1X201.1141Y-72.9502
G1X224.5024Y-143.9636
G1X199.2783Y-166.3646
G1X228.0144Y-242.7257
G1X226.3870Y-288.7234
G1X204.2678Y-314.2292
G1X225.2652Y-382.8516
G1 Z0F20000
(Start Block)

G1X230.5994Y-53.7522
G1Z5.0F20000
(Plotting speed under)
G1 F8000

G1X202.2402Y-73.0180
G1X225.6522Y-144.0550
G1X200.3526Y-166.3805
G1X229.1615Y-242.8145
G1X228.1961Y-289.4742
G1X205.1893Y-314.0924
G1X226.5880Y-383.1161
G1 Z0F20000
(Start Block)

G1X232.2430Y-54.3374
G1Z5.0F20000
(Plotting speed under)
G1 F8000

G1X203.3664Y-73.0858
G1X226.8019Y-144.1464
G1X201.4269Y-166.3965
G1X230.3087Y-242.9033
G1X230.0052Y-290.2249
G1X206.1108Y-313.9555
G1X227.9109Y-383.3806
G1 Z0F20000
(Start Block)

G1X233.8865Y-54.9226
G1Z5.0F20000
(Plotting speed under)
G1 F8000

G1X204.4925Y-73.1536
G1X227.9517Y-144.2378
G1X202.5012Y-166.4124
G1X231.4558Y-242.9921
G1X231.8143Y-290.9757
G1X207.0323Y-313.8187
G1X229.2337Y-383.6451
G1 Z0F20000
(Start Block)

G1X235.5300Y-55.5078
G1Z5.0F20000
(Plotting speed under)
G1 F8000

G1X205.6186Y-73.2214
G1X229.1014Y-144.3293
G1X203.5754Y-166.4284
G1X232.6030Y-243.0809
G1X233.6234Y-291.7264
G1X207.9538Y-313.6819
G1X230.5565Y-383.9096
G1 Z0F20000
(Start Block)

G1X237.1736Y-56.0930
G1Z5.0F20000
(Plotting speed under)
G1 F8000

G1X206.7447Y-73.2892
G1X230.2512Y-144.4207
G1X204.6497Y-166.4443
G1X233.7501Y-243.1697
G1X235.4325Y-292.4772
G1X208.8753Y-313.5451
G1X231.8794Y-384.1742
G1 Z0F20000
(Start Block)

G1X238.8171Y-56.6781
G1Z5.0F20000
(Plotting speed under)
G1 F8000

G1X207.8709Y-73.3570
G1X231.4009Y-144.5121
G1X205.7240Y-166.4602
G1X234.8972Y-243.2585
G1X237.2416Y-293.2279
G1X209.7969Y-313.4083
G1X233.2022Y-384.4387
G1 Z0F20000
(Start Block)

G1X240.4606Y-57.2634
G1Z5.0F20000
(Plotting speed under)
G1 F8000

G1X208.9970Y-73.4248
G1X232.5507Y-144.6035
G1X206.7983Y-166.4762
G1X236.0444Y-243.3473
G1X239.0507Y-293.9787
G1X210.7184Y-313.2714
G1X234.5251Y-384.7032
G1 Z0F20000
(Start Block)

G1X242.1041Y-57.8486
G1Z5.0F20000
(Plotting speed under)
G1 F8000

G1X210.1231Y-73.4926
G1X233.7004Y-144.6949
G1X207.8725Y-166.4921
G1X237.1915Y-243.4361
G1X240.8598Y-294.7295
G1X211.6399Y-313.1346
G1X235.8479Y-384.9677
G1 Z0F20000
(Start Block)

G1X243.7477Y-58.4337
G1Z5.0F20000
(Plotting speed under)
G1 F8000

G1X211.2493Y-73.5604
G1X234.8502Y-144.7863
G1X208.9468Y-166.5081
G1X238.3387Y-243.5250
G1X242.6688Y-295.4802
G1X212.5614Y-312.9978
G1X237.1707Y-385.2322
G1 Z0F20000
(Start Block)

G1X245.3912Y-59.0189
G1Z5.0F20000
(Plotting speed under)
G1 F8000

G1X212.3754Y-73.6282
G1X235.9999Y-144.8778
G1X210.0211Y-166.5240
G1X239.4858Y-243.6138
G1X244.4779Y-296.2309
G1X213.4829Y-312.8610
G1X238.4936Y-385.4967
G1 Z0F20000
(Start Block)

G1X246.1106Y-58.6800
G1Z5.0F20000
(Plotting speed under)
G1 F8000

G1X213.5424Y-73.7369
G1X236.7757Y-144.5952
G1X211.2728Y-166.7173
G1X240.2578Y-243.3274
G1X245.2360Y-295.9306
G1X214.9141Y-313.2338
G1X239.3657Y-385.3105
G1 Z0F20000
(Start Block)

G1X246.8301Y-58.3411
G1Z5.0F20000
(Plotting speed under)
G1 F8000

G1X214.7094Y-73.8455
G1X237.5515Y-144.3126
G1X212.5244Y-166.9107
G1X241.0299Y-243.0411
G1X245.9940Y-295.6303
G1X216.3452Y-313.6066
G1X240.2377Y-385.1242
G1 Z0F20000
(Start Block)

G1X247.5495Y-58.0022
G1Z5.0F20000
(Plotting speed under)
G1 F8000

G1X215.8764Y-73.9542
G1X238.3272Y-144.0301
G1X213.7761Y-167.1040
G1X241.8019Y-242.7548
G1X246.7520Y-295.3300
G1X217.7764Y-313.9794
G1X241.1098Y-384.9379
G1 Z0F20000
(Start Block)

G1X248.2689Y-57.6633
G1Z5.0F20000
(Plotting speed under)
G1 F8000

G1X217.0434Y-74.0629
G1X239.1030Y-143.7475
G1X215.0278Y-167.2973
G1X242.5739Y-242.4685
G1X247.5100Y-295.0297
G1X219.2075Y-314.3523
G1X241.9819Y-384.7517
G1 Z0F20000
(Start Block)

G1X248.9883Y-57.3244
G1Z5.0F20000
(Plotting speed under)
G1 F8000

G1X218.2104Y-74.1716
G1X239.8788Y-143.4649
G1X216.2794Y-167.4907
G1X243.3459Y-242.1822
G1X248.2680Y-294.7294
G1X220.6387Y-314.7251
G1X242.8540Y-384.5654
G1 Z0F20000
(Start Block)

G1X249.7077Y-56.9855
G1Z5.0F20000
(Plotting speed under)
G1 F8000

G1X219.3774Y-74.2802
G1X240.6545Y-143.1824
G1X217.5311Y-167.6840
G1X244.1179Y-241.8959
G1X249.0260Y-294.4290
G1X222.0699Y-315.0979
G1X243.7261Y-384.3792
G1 Z0F20000
(Start Block)

G1X250.4272Y-56.6466
G1Z5.0F20000
(Plotting speed under)
G1 F8000

G1X220.5444Y-74.3889
G1X241.4303Y-142.8998
G1X218.7828Y-167.8773
G1X244.8899Y-241.6095
G1X249.7841Y-294.1287
G1X223.5010Y-315.4707
G1X244.5981Y-384.1929
G1 Z0F20000
(Start Block)

G1X251.1466Y-56.3077
G1Z5.0F20000
(Plotting speed under)
G1 F8000

G1X221.7114Y-74.4976
G1X242.2061Y-142.6172
G1X220.0344Y-168.0707
G1X245.6619Y-241.3232
G1X250.5421Y-293.8284
G1X224.9322Y-315.8435
G1X245.4702Y-384.0067
G1 Z0F20000
(Start Block)

G1X251.8660Y-55.9688
G1Z5.0F20000
(Plotting speed under)
G1 F8000

G1X222.8784Y-74.6062
G1X242.9818Y-142.3347
G1X221.2861Y-168.2640
G1X246.4340Y-241.0369
G1X251.3001Y-293.5281
G1X226.3633Y-316.2164
G1X246.3423Y-383.8204
G1 Z0F20000
(Start Block)

G1X252.5855Y-55.6299
G1Z5.0F20000
(Plotting speed under)
G1 F8000

G1X224.0454Y-74.7149
G1X243.7576Y-142.0521
G1X222.5378Y-168.4573
G1X247.2060Y-240.7506
G1X252.0581Y-293.2278
G1X227.7945Y-316.5892
G1X247.2144Y-383.6341
G1 Z0F20000
(Start Block)

G1X253.3049Y-55.2910
G1Z5.0F20000
(Plotting speed under)
G1 F8000

G1X225.2124Y-74.8235
G1X244.5334Y-141.7695
G1X223.7895Y-168.6507
G1X247.9780Y-240.4643
G1X252.8161Y-292.9275
G1X229.2257Y-316.9620
G1X248.0864Y-383.4479
G1 Z0F20000
(Start Block)

G1X254.0243Y-54.9521
G1Z5.0F20000
(Plotting speed under)
G1 F8000

G1X226.3794Y-74.9322
G1X245.3092Y-141.4870
G1X225.0411Y-168.8440
G1X248.7500Y-240.1780
G1X253.5742Y-292.6272
G1X230.6568Y-317.3348
G1X248.9585Y-383.2616
G1 Z0F20000
(Start Block)

G1X254.7437Y-54.6131
G1Z5.0F20000
(Plotting speed under)
G1 F8000

G1X227.5464Y-75.0409
G1X246.0849Y-141.2044
G1X226.2928Y-169.0373
G1X249.5220Y-239.8916
G1X254.3322Y-292.3269
G1X232.0879Y-317.7077
G1X249.8306Y-383.0754
G1 Z0F20000
(Start Block)

G1X255.4632Y-54.2742
G1Z5.0F20000
(Plotting speed under)
G1 F8000

G1X228.7134Y-75.1496
G1X246.8607Y-140.9219
G1X227.5445Y-169.2307
G1X250.2940Y-239.6053
G1X255.0902Y-292.0265
G1X233.5191Y-318.0805
G1X250.7027Y-382.8891
G1 Z0F20000
(Start Block)

G1X256.1826Y-53.9353
G1Z5.0F20000
(Plotting speed under)
G1 F8000

G1X229.8804Y-75.2582
G1X247.6365Y-140.6393
G1X228.7961Y-169.4240
G1X251.0661Y-239.3190
G1X255.8482Y-291.7262
G1X234.9503Y-318.4533
G1X251.5748Y-382.7029
G1 Z0F20000
(Start Block)

G1X256.9020Y-53.5964
G1Z5.0F20000
(Plotting speed under)
G1 F8000

G1X231.0474Y-75.3669
G1X248.4122Y-140.3567
G1X230.0478Y-169.6173
G1X251.8381Y-239.0327
G1X256.6062Y-291.4259
G1X236.3814Y-318.8261
G1X252.4468Y-382.5166
G1 Z0F20000
(Start Block)

G1X257.6214Y-53.2575
G1Z5.0F20000
(Plotting speed under)
G1 F8000

G1X232.2144Y-75.4756
G1X249.1880Y-140.0742
G1X231.2995Y-169.8107
G1X252.6101Y-238.7464
G1X257.3642Y-291.1256
G1X237.8126Y-319.1990
G1X253.3189Y-382.3303
G1 Z0F20000
(Start Block)

G1X258.3409Y-52.9186
G1Z5.0F20000
(Plotting speed under)
G1 F8000

G1X233.3814Y-75.5842
G1X249.9638Y-139.7916
G1X232.5511Y-170.0040
G1X253.3821Y-238.4601
G1X258.1223Y-290.8253
G1X239.2437Y-319.5718
G1X254.1910Y-382.1441
G1 Z0F20000
(Start Block)

G1X259.0603Y-52.5797
G1Z5.0F20000
(Plotting speed under)
G1 F8000

G1X234.5484Y-75.6929
G1X250.7395Y-139.5090
G1X233.8028Y-170.1973
G1X254.1541Y-238.1737
G1X258.8803Y-290.5250
G1X240.6749Y-319.9446
G1X255.0630Y-381.9578
G1 Z0F20000
(Start Block)

G1X259.7797Y-52.2408
G1Z5.0F20000
(Plotting speed under)
G1 F8000

G1X235.7154Y-75.8016
G1X251.5153Y-139.2265
G1X235.0545Y-170.3906
G1X254.9262Y-237.8874
G1X259.6383Y-290.2246
G1X242.1060Y-320.3174
G1X255.9351Y-381.7716
G1 Z0F20000
(Start Block)

G1X260.4992Y-51.9019
G1Z5.0F20000
(Plotting speed under)
G1 F8000

G1X236.8825Y-75.9102
G1X252.2911Y-138.9439
G1X236.3061Y-170.5840
G1X255.6982Y-237.6011
G1X260.3963Y-289.9243
G1X243.5372Y-320.6903
G1X256.8072Y-381.5853
G1 Z0F20000
(Start Block)

G1X261.2186Y-51.5630
G1Z5.0F20000
(Plotting speed under)
G1 F8000

G1X238.0495Y-76.0189
G1X253.0668Y-138.6613
G1X237.5578Y-170.7773
G1X256.4702Y-237.3148
G1X261.1543Y-289.6240
G1X244.9683Y-321.0631
G1X257.6793Y-381.3990
G1 Z0F20000
(Start Block)

G1X261.9380Y-51.2240
G1Z5.0F20000
(Plotting speed under)
G1 F8000

G1X239.2165Y-76.1276
G1X253.8426Y-138.3788
G1X238.8094Y-170.9706
G1X257.2422Y-237.0285
G1X261.9123Y-289.3237
G1X246.3995Y-321.4359
G1X258.5513Y-381.2128
G1 Z0F20000
(Start Block)

G1X262.6574Y-50.8851
G1Z5.0F20000
(Plotting speed under)
G1 F8000

G1X240.3835Y-76.2362
G1X254.6184Y-138.0962
G1X240.0611Y-171.1640
G1X258.0142Y-236.7422
G1X262.6704Y-289.0234
G1X247.8307Y-321.8087
G1X259.4234Y-381.0265
G1 Z0F20000
(Start Block)

G1X263.3768Y-50.5462
G1Z5.0F20000
(Plotting speed under)
G1 F8000

G1X241.5505Y-76.3449
G1X255.3941Y-137.8136
G1X241.3128Y-171.3573
G1X258.7862Y-236.4558
G1X263.4284Y-288.7230
G1X249.2618Y-322.1815
G1X260.2955Y-380.8403
G1 Z0F20000
(Start Block)

G1X264.0963Y-50.2073
G1Z5.0F20000
(Plotting speed under)
G1 F8000

G1X242.7175Y-76.4536
G1X256.1699Y-137.5311
G1X242.5645Y-171.5507
G1X259.5582Y-236.1695
G1X264.1864Y-288.4227
G1X250.6930Y-322.5544
G1X261.1676Y-380.6540
G1 Z0F20000
(Start Block)

G1X264.8157Y-49.8684
G1Z5.0F20000
(Plotting speed under)
G1 F8000

G1X243.8844Y-76.5622
G1X256.9457Y-137.2485
G1X243.8161Y-171.7440
G1X260.3303Y-235.8832
G1X264.9444Y-288.1224
G1X252.1241Y-322.9272
G1X262.0397Y-380.4678
G1 Z0F20000
(Start Block)

G1X265.5351Y-49.5295
G1Z5.0F20000
(Plotting speed under)
G1 F8000

G1X245.0515Y-76.6709
G1X257.7215Y-136.9659
G1X245.0678Y-171.9373
G1X261.1023Y-235.5969
G1X265.7024Y-287.8221
G1X253.5553Y-323.3000
G1X262.9117Y-380.2815
G1 Z0F20000
(Start Block)

G1X266.2546Y-49.1906
G1Z5.0F20000
(Plotting speed under)
G1 F8000

G1X246.2185Y-76.7796
G1X258.4972Y-136.6834
G1X246.3195Y-172.1307
G1X261.8743Y-235.3106
G1X266.4605Y-287.5218
G1X254.9864Y-323.6728
G1X263.7838Y-380.0953
G1 Z0F20000
(Start Block)

G1X266.9740Y-48.8517
G1Z5.0F20000
(Plotting speed under)
G1 F8000

G1X247.3855Y-76.8882
G1X259.2730Y-136.4008
G1X247.5711Y-172.3240
G1X262.6463Y-235.0243
G1X267.2185Y-287.2215
G1X256.4176Y-324.0456
G1X264.6559Y-379.9090
G1 Z0F20000
(Start Block)

G1X267.6934Y-48.5128
G1Z5.0F20000
(Plotting speed under)
G1 F8000

G1X248.5525Y-76.9969
G1X260.0488Y-136.1183
G1X248.8228Y-172.5173
G1X263.4183Y-234.7379
G1X267.9765Y-286.9211
G1X257.8487Y-324.4184
G1X265.5280Y-379.7227
G1 Z0F20000
(Start Block)

G1X268.4128Y-48.1739
G1Z5.0F20000
(Plotting speed under)
G1 F8000

G1X249.7195Y-77.1056
G1X260.8245Y-135.8357
G1X250.0745Y-172.7107
G1X264.1904Y-234.4516
G1X268.7345Y-286.6208
G1X259.2799Y-324.7913
G1X266.4001Y-379.5365
G1 Z0F20000
(Start Block)

G1X269.1322Y-47.8350
G1Z5.0F20000
(Plotting speed under)
G1 F8000

G1X250.8865Y-77.2142
G1X261.6003Y-135.5531
G1X251.3261Y-172.9040
G1X264.9624Y-234.1653
G1X269.4926Y-286.3205
G1X260.7111Y-325.1641
G1X267.2721Y-379.3502
G1 Z0F20000
(Start Block)

G1X269.8517Y-47.4961
G1Z5.0F20000
(Plotting speed under)
G1 F8000

G1X252.0535Y-77.3229
G1X262.3761Y-135.2706
G1X252.5778Y-173.0973
G1X265.7344Y-233.8790
G1X270.2506Y-286.0202
G1X262.1422Y-325.5369
G1X268.1442Y-379.1640
G1 Z0F20000
(Start Block)

G1X270.5711Y-47.1572
G1Z5.0F20000
(Plotting speed under)
G1 F8000

G1X253.2205Y-77.4316
G1X263.1518Y-134.9880
G1X253.8295Y-173.2907
G1X266.5064Y-233.5927
G1X271.0086Y-285.7199
G1X263.5733Y-325.9097
G1X269.0163Y-378.9777
G1 Z0F20000
(Start Block)

G1X271.2906Y-46.8183
G1Z5.0F20000
(Plotting speed under)
G1 F8000

G1X254.3875Y-77.5403
G1X263.9276Y-134.7055
G1X255.0811Y-173.4840
G1X267.2784Y-233.3063
G1X271.7666Y-285.4196
G1X265.0045Y-326.2826
G1X269.8884Y-378.7914
G1 Z0F20000
(Start Block)

G1X272.0100Y-46.4794
G1Z5.0F20000
(Plotting speed under)
G1 F8000

G1X255.5545Y-77.6489
G1X264.7034Y-134.4229
G1X256.3328Y-173.6773
G1X268.0504Y-233.0200
G1X272.5246Y-285.1193
G1X266.4357Y-326.6554
G1X270.7604Y-378.6052
G1 Z0F20000
(Start Block)

G1X272.7294Y-46.1404
G1Z5.0F20000
(Plotting speed under)
G1 F8000

G1X256.7215Y-77.7576
G1X265.4791Y-134.1403
G1X257.5844Y-173.8707
G1X268.8224Y-232.7337
G1X273.2826Y-284.8190
G1X267.8668Y-327.0282
G1X271.6325Y-378.4189
G1 Z0F20000
(Start Block)

G1X273.4488Y-45.8015
G1Z5.0F20000
(Plotting speed under)
G1 F8000

G1X257.8885Y-77.8663
G1X266.2549Y-133.8578
G1X258.8361Y-174.0640
G1X269.5945Y-232.4474
G1X274.0407Y-284.5186
G1X269.2980Y-327.4010
G1X272.5046Y-378.2327
G1 Z0F20000
(Start Block)

G1X274.1683Y-45.4626
G1Z5.0F20000
(Plotting speed under)
G1 F8000

G1X259.0555Y-77.9749
G1X267.0307Y-133.5752
G1X260.0878Y-174.2573
G1X270.3665Y-232.1611
G1X274.7987Y-284.2183
G1X270.7292Y-327.7738
G1X273.3767Y-378.0464
G1 Z0F20000
(Start Block)

G1X274.8877Y-45.1237
G1Z5.0F20000
(Plotting speed under)
G1 F8000

G1X260.2225Y-78.0836
G1X267.8065Y-133.2926
G1X261.3395Y-174.4507
G1X271.1385Y-231.8748
G1X275.5567Y-283.9180
G1X272.1603Y-328.1467
G1X274.2488Y-377.8602
G1 Z0F20000
(Start Block)

G1X275.6071Y-44.7848
G1Z5.0F20000
(Plotting speed under)
G1 F8000

G1X261.3895Y-78.1922
G1X268.5822Y-133.0101
G1X262.5911Y-174.6440
G1X271.9105Y-231.5884
G1X276.3147Y-283.6177
G1X273.5915Y-328.5195
G1X275.1208Y-377.6739
G1 Z0F20000
(Start Block)

G1X276.3265Y-44.4459
G1Z5.0F20000
(Plotting speed under)
G1 F8000

G1X262.5565Y-78.3009
G1X269.3580Y-132.7275
G1X263.8428Y-174.8373
G1X272.6826Y-231.3021
G1X277.0727Y-283.3174
G1X275.0226Y-328.8923
G1X275.9929Y-377.4876
G1 Z0F20000
(Start Block)

G1X277.0460Y-44.1070
G1Z5.0F20000
(Plotting speed under)
G1 F8000

G1X263.7235Y-78.4096
G1X270.1338Y-132.4449
G1X265.0945Y-175.0307
G1X273.4546Y-231.0158
G1X277.8307Y-283.0170
G1X276.4538Y-329.2651
G1X276.8650Y-377.3014
G1 Z0F20000
(Start Block)

G1X277.7654Y-43.7681
G1Z5.0F20000
(Plotting speed under)
G1 F8000

G1X264.8905Y-78.5183
G1X270.9096Y-132.1624
G1X266.3461Y-175.2240
G1X274.2266Y-230.7295
G1X278.5888Y-282.7167
G1X277.8849Y-329.6380
G1X277.7371Y-377.1151
G1 Z0F20000

G00 X0.0000 Y0.0000

