$H
G21
G17
G90
G1 Z0F20000
G1 F15000
(Start Layer)
(Start Block)

G1X104.9073Y-26.4583
G1 Z3.0F20000
G1 F8000

G1X104.9073Y-270.4043
G1 Z0F20000
(Start Block)

G1X133.8458Y-193.3215
G1 Z3.0F20000
G1 F8000

G1X143.3557Y-183.1338
G1X151.2443Y-179.9721
G1X155.8458Y-179.4310
G1X177.8017Y-189.1787
G1X183.7983Y-205.0540
G1X182.5702Y-214.2765
G1X149.8473Y-231.7442
G1X133.1248Y-217.1210
G1X131.5883Y-212.6239
G1X133.9319Y-194.4789
G1X143.5458Y-184.3391
G1X151.4981Y-181.2360
G1X156.1429Y-180.7386
G1X178.0123Y-190.7612
G1X183.8105Y-206.7475
G1X182.4436Y-215.9865
G1X149.4232Y-232.9376
G1X132.9364Y-218.0030
G1X131.4766Y-213.4438
G1X134.1928Y-195.3168
G1X144.0491Y-185.3616
G1X152.1054Y-182.4284
G1X156.7984Y-182.0394
G1X178.4368Y-192.6285
G1X183.8193Y-208.7949
G1X182.1920Y-218.0247
G1X148.6716Y-234.0117
G1X132.6312Y-218.5597
G1X131.3126Y-213.9250
G1X134.6357Y-195.8678
G1X144.8537Y-186.2346
G1X153.0430Y-183.5788
G1X157.7828Y-183.3597
G1X179.0348Y-194.7716
G1X183.7972Y-211.1627
G1X181.8004Y-220.3486
G1X147.6365Y-234.9503
G1X132.2513Y-218.8154
G1X131.1342Y-214.1007
G1X135.2672Y-196.1837
G1X145.9381Y-187.0076
G1X154.2733Y-184.7278
G1X159.0504Y-184.7332
G1X179.7509Y-197.1725
G1X183.7103Y-213.8019
G1X181.2543Y-222.8990
G1X146.3783Y-235.7380
G1X131.8478Y-218.8076
G1X130.9851Y-214.0183
G1X136.0890Y-196.3300
G1X147.2687Y-187.7380
G1X155.7448Y-185.9193
G1X160.5415Y-186.1940
G1X180.5221Y-199.8018
G1X183.5267Y-216.6497
G1X180.5459Y-225.6052
G1X144.9684Y-236.3663
G1X131.4731Y-218.5866
G1X130.9071Y-213.7382
G1X137.0922Y-196.3802
G1X148.7992Y-188.4841
G1X157.3939Y-187.1928
G1X162.1859Y-187.7688
G1X181.2857Y-202.6173
G1X183.2230Y-219.6340
G1X179.6791Y-228.3912
G1X143.4830Y-236.8391
G1X131.1725Y-218.2141
G1X130.9321Y-213.3297
G1X138.2542Y-196.4072
G1X150.4718Y-189.2961
G1X159.1495Y-188.5762
G1X163.9082Y-189.4709
G1X181.9875Y-205.5650
G1X182.7901Y-222.6790
G1X178.6726Y-231.1832
G1X141.9955Y-237.1749
G1X130.9777Y-217.7587
G1X131.0772Y-212.8663
G1X139.5389Y-196.4769
G1X152.2214Y-190.2104
G1X160.9382Y-190.0816
G1X165.6349Y-191.2979
G1X182.5879Y-208.5836
G1X182.2349Y-225.7124
G1X177.5590Y-233.9167
G1X140.5699Y-237.4060
G1X130.9034Y-217.2898
G1X131.3426Y-212.4184
G1X140.8998Y-196.6412
G1X153.9815Y-191.2460
G1X162.6918Y-191.7041
G1X167.3005Y-193.2318
G1X183.0646Y-211.6098
G1X181.5792Y-228.6716
G1X176.3806Y-236.5420
G1X139.2553Y-237.5746
G1X130.9477Y-216.8711
G1X131.7132Y-212.0471
G1X142.2855Y-196.9349
G1X155.6911Y-192.4049
G1X164.3531Y-193.4251
G1X168.8536Y-195.2431
G1X183.4125Y-214.5854
G1X180.8548Y-231.5089
G1X175.1837Y-239.0269
G1X138.0831Y-237.7262
G1X131.0947Y-216.5548
G1X132.1634Y-211.7990
G1X143.6464Y-197.3748
G1X157.3002Y-193.6752
G1X165.8804Y-195.2165
G1X170.2598Y-197.2968
G1X183.6410Y-217.4630
G1X180.1005Y-234.1889
G1X174.0255Y-241.3458
G1X137.0896Y-237.9306
G1X131.3098Y-216.4356
G1X132.6304Y-211.7876
G1X144.8297Y-198.0215
G1X158.6059Y-195.0273
G1X167.0472Y-196.9671
G1X171.2712Y-199.2143
G1X183.7456Y-219.8789
G1X179.5613Y-236.3798
G1X173.2805Y-243.2511
G1X136.5417Y-238.5780
G1X131.4604Y-216.9785
G1X132.8952Y-212.4416
G1X145.4014Y-199.0459
G1X159.1758Y-196.3832
G1X167.5084Y-198.4765
G1X171.6307Y-200.7634
G1X183.7696Y-221.5538
G1X179.4069Y-237.9380
G1X173.1114Y-244.7003
G1X136.4546Y-239.7893
G1X131.4754Y-218.2301
G1X132.8972Y-213.7597
G1X145.3467Y-200.3966
G1X159.0493Y-197.6978
G1X167.3317Y-199.7267
G1X171.4160Y-201.9502
G1X183.7483Y-222.5613
G1X179.6129Y-238.9457
G1X173.4594Y-245.7610
G1X136.7608Y-241.4994
G1X131.3672Y-220.0922
G1X132.6732Y-215.6444
G1X144.7642Y-202.0256
G1X158.3404Y-198.9849
G1X166.6237Y-200.7734
G1X170.7246Y-202.8542
G1X183.6719Y-223.0325
G1X180.0870Y-239.5033
G1X174.1978Y-246.4965
G1X137.3931Y-243.5776
G1X131.1956Y-222.4253
G1X132.3111Y-217.9661
G1X143.8094Y-203.8914
G1X157.2082Y-200.2901
G1X165.5244Y-201.7128
G1X169.6804Y-203.5973
G1X183.5150Y-223.1431
G1X180.7009Y-239.7390
G1X175.1597Y-246.9863
G1X138.2660Y-245.8564
G1X131.0329Y-225.0525
G1X131.9141Y-220.5607
G1X142.6696Y-205.9339
G1X155.8473Y-201.6559
G1X164.2078Y-202.6461
G1X168.4406Y-204.3087
G1X183.2688Y-223.0983
G1X181.3251Y-239.8147
G1X176.1687Y-247.3419
G1X139.2605Y-248.1627
G1X130.9312Y-227.7690
G1X131.5679Y-223.2338
G1X141.5357Y-208.0578
G1X154.4716Y-203.0938
G1X162.8750Y-203.6487
G1X167.1924Y-205.0945
G1X182.9625Y-223.1118
G1X181.8579Y-239.9204
G1X177.0671Y-247.7108
G1X140.2227Y-250.3451
G1X130.9027Y-230.3595
G1X131.3193Y-225.7752
G1X140.5771Y-210.1310
G1X153.2929Y-204.5731
G1X161.7366Y-204.7551
G1X166.1378Y-206.0212
G1X182.6649Y-223.3835
G1X182.2375Y-240.2574
G1X177.7322Y-248.2620
G1X140.9803Y-252.2883
G1X130.9207Y-232.6200
G1X131.1761Y-227.9812
G1X139.9290Y-212.0035
G1X152.5012Y-206.0315
G1X160.9902Y-205.9637
G1X165.4693Y-207.1190
G1X182.4661Y-224.0832
G1X182.4359Y-241.0126
G1X178.0769Y-249.1601
G1X141.3690Y-253.9119
G1X130.9403Y-234.3767
G1X131.1248Y-229.6765
G1X139.6923Y-213.5361
G1X152.2504Y-207.4025
G1X160.7987Y-207.2609
G1X165.3455Y-208.4024
G1X182.4453Y-225.3439
G1X182.4360Y-242.3352
G1X178.0358Y-250.5346
G1X141.2631Y-255.1540
G1X130.9304Y-235.4987
G1X131.1611Y-230.7317
G1X139.9467Y-214.6338
G1X152.6534Y-208.6494
G1X161.2751Y-208.6506
G1X165.8706Y-209.8975
G1X182.6370Y-227.2613
G1X182.2048Y-244.3158
G1X177.5465Y-252.4523
G1X140.6021Y-255.9532
G1X130.9043Y-235.9044
G1X131.3183Y-231.0726
G1X140.7698Y-215.2661
G1X153.7961Y-209.7914
G1X162.4990Y-210.1861
G1X167.1188Y-211.6797
G1X183.0203Y-229.9519
G1X181.6439Y-247.0441
G1X176.4700Y-254.9699
G1X139.3179Y-256.1539
G1X130.9459Y-235.4235
G1X131.7213Y-230.5362
G1X142.3740Y-215.3947
G1X155.8833Y-210.9143
G1X164.6303Y-212.0235
G1X169.2065Y-213.9374
G1X183.4966Y-233.6078
G1X180.5566Y-250.5888
G1X174.6083Y-258.0571
G1X137.4694Y-255.5713
G1X131.2443Y-234.0195
G1X132.5655Y-229.1578
G1X144.8638Y-215.2011
G1X158.8821Y-212.2397
G1X167.5380Y-214.3638
G1X171.9428Y-216.8414
G1X183.8042Y-238.1542
G1X178.7836Y-254.7114
G1X171.9034Y-261.4192
G1X135.3635Y-254.1502
G1X132.0403Y-231.9054
G1X134.0457Y-227.2049
G1X148.2008Y-215.0229
G1 Z0F20000
(Start Block)

G1X26.3626Y-201.0561
G1 Z3.0F20000
G1 F8000

G1X29.6514Y-192.1612
G1X64.5487Y-182.1817
G1X78.7320Y-208.9274
G1X68.1698Y-227.2632
G1X50.7382Y-232.5132
G1X44.1748Y-231.3726
G1X38.1977Y-228.6644
G1X36.2222Y-227.4020
G1X27.1167Y-214.2609
G1X26.3942Y-202.1952
G1X29.7656Y-193.2919
G1X64.7799Y-183.6248
G1X78.6957Y-210.5456
G1X67.8997Y-228.7829
G1X50.3683Y-233.8095
G1X43.7890Y-232.5651
G1X37.8261Y-229.7452
G1X35.8462Y-228.4274
G1X26.9731Y-215.0890
G1X26.4951Y-202.9766
G1X30.0727Y-194.1156
G1X65.3261Y-185.2436
G1X78.6039Y-212.5180
G1X67.3339Y-230.5015
G1X49.6469Y-235.0654
G1X43.0761Y-233.6294
G1X37.1730Y-230.6206
G1X35.2123Y-229.2226
G1X26.7556Y-215.5824
G1X26.6819Y-203.4295
G1X30.5779Y-194.6675
G1X66.1505Y-187.0452
G1X78.4360Y-214.8108
G1X66.4839Y-232.3790
G1X48.6101Y-236.2570
G1X42.0790Y-234.5511
G1X36.2852Y-231.2872
G1X34.3690Y-229.7891
G1X26.5040Y-215.7718
G1X26.9769Y-203.6009
G1X31.2847Y-195.0010
G1X67.1982Y-189.0362
G1X78.1667Y-217.3734
G1X65.3702Y-234.3612
G1X47.3101Y-237.3558
G1X40.8569Y-235.3160
G1X35.2248Y-231.7469
G1X33.3793Y-230.1352
G1X26.2654Y-215.7019
G1X27.4015Y-203.5529
G1X32.1903Y-195.1831
G1X68.4014Y-191.2163
G1X77.7727Y-220.1411
G1X64.0256Y-236.3864
G1X45.8128Y-238.3365
G1X39.4806Y-235.9170
G1X34.0629Y-232.0114
G1X32.3132Y-230.2803
G1X26.0849Y-215.4300
G1X27.9695Y-203.3580
G1X33.2802Y-195.2865
G1X69.6862Y-193.5742
G1X77.2400Y-223.0400
G1X62.4954Y-238.3945
G1X44.1924Y-239.1836
G1X38.0260Y-236.3589
G1X32.8716Y-232.1054
G1X31.2398Y-230.2569
G1X25.9991Y-215.0236
G1X28.6819Y-203.0929
G1X34.5265Y-195.3825
G1X70.9804Y-196.0849
G1X76.5683Y-225.9936
G1X60.8363Y-240.3340
G1X42.5250Y-239.8957
G1X36.5668Y-236.6611
G1X31.7163Y-232.0674
G1X30.2198Y-230.1100
G1X26.0296Y-214.5545
G1X29.5241Y-202.8309
G1X35.8885Y-195.5337
G1X72.2205Y-198.7096
G1X75.7728Y-228.9297
G1X59.1118Y-242.1685
G1X40.8820Y-240.4876
G1X35.1671Y-236.8566
G1X30.6495Y-231.9459
G1X29.2993Y-229.8938
G1X26.1811Y-214.0932
G1X30.4677Y-202.6359
G1X37.3160Y-195.7875
G1X73.3578Y-201.4007
G1X74.8827Y-231.7873
G1X57.3861Y-243.8790
G1X39.3233Y-240.9872
G1X33.8763Y-236.9885
G1X29.7067Y-231.7951
G1X28.5069Y-229.6652
G1X26.4426Y-213.7017
G1X31.4742Y-202.5566
G1X38.7557Y-196.1741
G1X74.3608Y-204.1064
G1X73.9358Y-234.5207
G1X55.7175Y-245.4637
G1X37.8931Y-241.4312
G1X32.7260Y-237.1034
G1X28.9054Y-231.6675
G1X27.8537Y-229.4775
G1X26.7912Y-213.4280
G1X32.5017Y-202.6241
G1X40.1579Y-196.7057
G1X75.2163Y-206.7785
G1X72.9725Y-237.1020
G1X54.1531Y-246.9340
G1X36.6223Y-241.8619
G1X31.7414Y-237.2584
G1X28.2612Y-231.6402
G1X27.3545Y-229.4305
G1X27.1719Y-213.3895
G1X33.4230Y-202.9426
G1X41.3289Y-197.4505
G1X75.8245Y-209.1851
G1X72.2118Y-239.3181
G1X53.0561Y-248.3047
G1X35.8156Y-242.5578
G1X31.1663Y-237.8306
G1X27.9221Y-232.1621
G1X27.1145Y-229.9961
G1X27.3934Y-214.0279
G1X33.8767Y-203.8072
G1X41.8494Y-198.5389
G1X76.0536Y-210.9497
G1X71.9268Y-240.9560
G1X52.7034Y-249.6333
G1X35.5977Y-243.7026
G1X31.0416Y-238.9833
G1X27.8695Y-233.3537
G1X27.0936Y-231.2492
G1X27.3951Y-215.3458
G1X33.8331Y-205.1732
G1X41.7334Y-199.9130
G1X75.9666Y-212.1024
G1X72.0980Y-242.0909
G1X53.0195Y-250.9514
G1X35.8897Y-245.2634
G1X31.3005Y-240.6567
G1X28.0562Y-235.1335
G1X27.2559Y-233.0976
G1X27.2075Y-217.2437
G1X33.3713Y-206.9650
G1X41.0884Y-201.5321
G1X75.6085Y-212.7551
G1X72.6303Y-242.8055
G1X53.8741Y-252.2422
G1X36.6012Y-247.1378
G1X31.8807Y-242.7237
G1X28.4542Y-237.3574
G1X27.5872Y-235.3901
G1X26.9100Y-219.5866
G1X32.6271Y-209.0957
G1X40.0765Y-203.3632
G1X75.0228Y-213.0717
G1X73.3822Y-243.2003
G1X55.0929Y-253.4713
G1X37.6181Y-249.1850
G1X32.7044Y-245.0166
G1X29.0277Y-239.8409
G1X28.0668Y-237.9368
G1X26.5953Y-222.2040
G1X31.7606Y-211.4511
G1X38.8899Y-205.3538
G1X74.2760Y-213.2423
G1X74.1991Y-243.4080
G1X56.4715Y-254.6193
G1X38.7933Y-251.2593
G1X33.6618Y-247.3579
G1X29.7103Y-242.3845
G1X28.6426Y-240.5328
G1X26.3361Y-224.8964
G1X30.9243Y-213.8821
G1X37.7234Y-207.4152
G1X73.4719Y-213.4552
G1X74.9442Y-243.5947
G1X57.7951Y-255.7043
G1X39.9480Y-253.2394
G1X34.6071Y-249.5884
G1X30.3964Y-244.8000
G1X29.2226Y-242.9832
G1X26.1661Y-227.4512
G1X30.2396Y-216.2116
G1X36.7508Y-209.4221
G1X72.7481Y-213.8732
G1X75.5171Y-243.9476
G1X58.8603Y-256.7846
G1X40.8888Y-255.0430
G1X35.3723Y-251.5839
G1X30.9522Y-246.9291
G1X29.6859Y-245.1215
G1X26.0796Y-229.6646
G1X29.7895Y-218.2553
G1X36.1116Y-211.2315
G1X72.2554Y-214.6239
G1X75.8546Y-244.6510
G1X59.4930Y-257.9413
G1X41.4326Y-256.6226
G1X35.7936Y-253.2557
G1X31.2423Y-248.6486
G1X29.9102Y-246.8162
G1X26.0523Y-231.3625
G1X29.6280Y-219.8500
G1X35.9116Y-212.7131
G1X72.1267Y-215.8027
G1X75.9150Y-245.8588
G1X59.5563Y-259.2467
G1X41.4330Y-257.9457
G1X35.7425Y-254.5370
G1X31.1629Y-249.8646
G1X29.8055Y-247.9673
G1X26.0714Y-232.4159
G1X29.8017Y-220.8810
G1X36.2336Y-213.7821
G1X72.4451Y-217.4862
G1X75.6544Y-247.6691
G1X58.9526Y-260.7302
G1X40.8030Y-258.9698
G1X35.1526Y-255.3649
G1X30.6731Y-250.5010
G1X29.3448Y-248.4967
G1X26.1654Y-232.7487
G1X30.3755Y-221.2955
G1X37.1630Y-214.4159
G1X73.2366Y-219.7666
G1X74.9859Y-250.1418
G1X57.5669Y-262.3649
G1X39.4641Y-259.5879
G1X33.9684Y-255.5998
G1X29.7506Y-250.3895
G1X28.5204Y-248.2147
G1X26.4486Y-232.1903
G1X31.5399Y-220.9923
G1X38.9208Y-214.5958
G1X74.5210Y-222.8664
G1X73.7039Y-253.3590
G1X55.2124Y-264.0424
G1X37.3682Y-259.5970
G1X32.2223Y-255.0438
G1X28.5033Y-249.3688
G1X27.4811Y-246.9989
G1X27.1182Y-230.7635
G1X33.4499Y-220.1127
G1X41.5805Y-214.5334
G1X76.0681Y-226.8532
G1X71.6728Y-257.1032
G1X51.9772Y-265.5052
G1X34.7694Y-258.8637
G1X30.2096Y-253.6420
G1X27.2412Y-247.4714
G1X26.5401Y-244.9216
G1X28.3858Y-228.7226
G1X36.1714Y-218.9899
G1 Z0F20000
(Start Block)

G1X26.4583Y-148.4313
G1 Z3.0F20000
G1 F8000

G1X183.3563Y-148.4313
G1 Z0F20000
(Start Block)

G1X146.6000Y-32.8466
G1 Z3.0F20000
G1 F8000

G1X167.1244Y-32.5590
G1X170.6454Y-34.4007
G1X181.8698Y-47.4464
G1X182.2745Y-48.6383
G1X171.9838Y-79.7296
G1X162.6912Y-83.7274
G1X159.5942Y-84.3077
G1X133.1679Y-68.7876
G1X131.0894Y-61.3464
G1X146.7706Y-34.0943
G1X167.3319Y-33.9653
G1X170.8702Y-35.8556
G1X181.9803Y-49.0454
G1X182.3850Y-50.2767
G1X171.6733Y-81.2553
G1X162.2918Y-85.1293
G1X159.1520Y-85.6644
G1X132.9778Y-69.6703
G1X131.0333Y-62.1571
G1X147.2777Y-35.2020
G1X167.8723Y-35.5151
G1X171.4005Y-37.5019
G1X182.2130Y-50.9816
G1X182.6007Y-52.2554
G1X171.0587Y-82.9617
G1X161.5448Y-86.5828
G1X158.3614Y-87.0290
G1X132.6694Y-70.2282
G1X130.9620Y-62.6254
G1X148.1060Y-36.1996
G1X168.7117Y-37.2189
G1X172.1993Y-39.3451
G1X182.5335Y-53.2353
G1X182.8866Y-54.5522
G1X170.1540Y-84.8079
G1X160.4802Y-88.0541
G1X157.2575Y-88.3707
G1X132.2851Y-70.4855
G1X130.9097Y-62.7885
G1X149.2287Y-37.1319
G1X169.7978Y-39.0885
G1X173.2113Y-41.3888
G1X182.8951Y-55.7741
G1X183.1965Y-57.1316
G1X168.9838Y-86.7397
G1X159.1425Y-89.5015
G1X155.8908Y-89.6529
G1X131.8763Y-70.4793
G1X130.9148Y-62.6983
G1X150.6058Y-38.0509
G1X171.0641Y-41.1312
G1X174.3691Y-43.6294
G1X183.2464Y-58.5528
G1X183.4812Y-59.9446
G1X167.5850Y-88.6970
G1X157.5895Y-90.8834
G1X154.3248Y-90.8419
G1X131.4954Y-70.2599
G1X131.0121Y-62.4192
G1X152.1847Y-39.0082
G1X172.4364Y-43.3441
G1X175.5992Y-46.0518
G1X183.5394Y-61.5133
G1X183.6958Y-62.9303
G1X166.0073Y-90.6224
G1X155.8894Y-92.1664
G1X152.6318Y-91.9135
G1X131.1880Y-69.8886
G1X131.2258Y-62.0238
G1X153.9018Y-40.0469
G1X173.8399Y-45.7104
G1X176.8309Y-48.6272
G1X183.7370Y-64.5887
G1X183.8076Y-66.0196
G1X164.3105Y-92.4690
G1X154.1157Y-93.3305
G1X150.8871Y-92.8583
G1X130.9859Y-69.4340
G1X131.5648Y-61.5869
G1X155.6881Y-41.1957
G1X175.2067Y-48.1994
G1X178.0027Y-51.3138
G1X183.8178Y-67.7084
G1X183.8001Y-69.1413
G1X162.5603Y-94.2050
G1X152.3406Y-94.3725
G1X149.1620Y-93.6830
G1X130.9044Y-68.9653
G1X132.0217Y-61.1784
G1X157.4746Y-42.4659
G1X176.4821Y-50.7689
G1X179.0684Y-54.0613
G1X183.7777Y-70.8050
G1X183.6734Y-72.2284
G1X160.8213Y-95.8166
G1X150.6281Y-95.3051
G1X147.5174Y-94.4091
G1X130.9416Y-68.5465
G1X132.5749Y-60.8576
G1X159.1995Y-43.8525
G1X177.6282Y-53.3709
G1X179.9993Y-56.8165
G1X183.6280Y-73.8202
G1X183.4427Y-75.2244
G1X159.1509Y-97.3061
G1X149.0291Y-96.1529
G1X145.9993Y-95.0676
G1X131.0820Y-68.2296
G1X133.1937Y-60.6680
G1X160.8137Y-45.3377
G1X178.6252Y-55.9580
G1X180.7846Y-59.5307
G1X183.3907Y-76.7100
G1X183.1327Y-78.0878
G1X157.5993Y-98.6886
G1X147.5938Y-96.9531
G1X144.6670Y-95.7102
G1X131.2914Y-68.1096
G1X133.8034Y-60.7155
G1X162.1600Y-46.8732
G1X179.3762Y-58.3493
G1X181.3365Y-61.9670
G1X183.1548Y-79.1822
G1X182.8620Y-80.4749
G1X156.5777Y-100.0010
G1X146.7213Y-97.9113
G1X143.9107Y-96.6033
G1X131.4388Y-68.6519
G1X134.1396Y-61.4023
G1X162.7927Y-48.3209
G1X179.6877Y-60.1507
G1X181.5426Y-63.7427
G1X183.0569Y-80.9184
G1X182.7657Y-82.1371
G1X156.2964Y-101.3140
G1X146.5284Y-99.1486
G1X143.7891Y-97.8539
G1X131.4535Y-69.9034
G1X134.1421Y-62.7207
G1X162.7326Y-49.6313
G1X179.6194Y-61.3668
G1X181.4644Y-64.8913
G1X183.1163Y-81.9942
G1X182.8522Y-83.1560
G1X156.6728Y-102.6494
G1X146.9275Y-100.6466
G1X144.2151Y-99.4261
G1X131.3474Y-71.7660
G1X133.8582Y-64.5776
G1X162.0867Y-50.8286
G1X179.2277Y-62.0977
G1X181.1411Y-65.5265
G1X183.2894Y-82.5274
G1X183.0680Y-83.6514
G1X157.5730Y-103.9805
G1X147.8010Y-102.3261
G1X145.0789Y-101.2224
G1X131.1799Y-74.0997
G1X133.3893Y-66.8539
G1X161.0022Y-51.9778
G1X178.5704Y-62.4987
G1X180.6078Y-65.8144
G1X183.5008Y-82.6748
G1X183.3297Y-83.7802
G1X158.8209Y-105.2639
G1X148.9983Y-104.0801
G1X146.2398Y-103.1180
G1X131.0225Y-76.7276
G1X132.8560Y-69.3976
G1X159.6628Y-53.1493
G1X177.7285Y-62.7515
G1X179.9210Y-65.9483
G1X183.6789Y-82.6268
G1X183.5599Y-83.7327
G1X160.2110Y-106.4732
G1X150.3356Y-105.8097
G1X147.5239Y-104.9951
G1X130.9264Y-79.4445
G1X132.3646Y-72.0249
G1X158.2771Y-54.3878
G1X176.8199Y-63.0350
G1X179.1748Y-66.1214
G1X183.7840Y-82.5950
G1X183.7139Y-83.7197
G1X161.5279Y-107.6199
G1X151.6073Y-107.4491
G1X148.7330Y-106.7683
G1X130.9031Y-82.0351
G1X131.9847Y-74.5319
G1X157.0599Y-55.6965
G1X175.9948Y-63.5018
G1X178.4983Y-66.5036
G1X183.8183Y-82.7919
G1X183.7889Y-83.9527
G1X162.5677Y-108.7556
G1X152.6057Y-108.9744
G1X149.6644Y-108.3933
G1X130.9249Y-84.2955
G1X131.7460Y-76.7170
G1X156.2104Y-57.0428
G1X175.4160Y-64.2677
G1X178.0355Y-67.2298
G1X183.8153Y-83.4094
G1X183.8122Y-84.6219
G1X163.1559Y-109.9535
G1X153.1448Y-110.3901
G1X150.1358Y-109.8548
G1X130.9463Y-86.0522
G1X131.6544Y-78.4045
G1X155.8945Y-58.3813
G1X175.2286Y-65.4173
G1X177.9144Y-68.4022
G1X183.8127Y-84.6023
G1X183.8136Y-85.8791
G1X163.1563Y-111.2763
G1X153.0797Y-111.7024
G1X150.0078Y-111.1411
G1X130.9355Y-87.1742
G1X131.7197Y-79.4653
G1X156.2339Y-59.6876
G1X175.5289Y-67.0195
G1X178.2139Y-70.1015
G1X183.8193Y-86.4778
G1X183.7933Y-87.8264
G1X162.4741Y-112.7430
G1X152.3217Y-112.8897
G1X149.2015Y-112.2167
G1X130.9057Y-87.5800
G1X131.9830Y-79.8291
G1X157.3081Y-60.9865
G1X176.3524Y-69.1551
G1X178.9553Y-72.4211
G1X183.7880Y-89.1304
G1X183.6921Y-90.5660
G1X160.9818Y-114.3157
G1X150.7530Y-113.8585
G1X147.5969Y-112.9617
G1X130.9400Y-87.0990
G1X132.5864Y-79.3478
G1X159.3068Y-62.3811
G1X177.7515Y-72.0397
G1X180.1470Y-75.5845
G1X183.5779Y-92.7310
G1X183.3524Y-94.2457
G1X158.5182Y-115.8622
G1X148.3034Y-114.4212
G1X145.1818Y-113.1823
G1X131.2274Y-85.6938
G1X133.7201Y-78.0776
G1X162.1980Y-64.0782
G1X179.5284Y-75.7783
G1X181.5556Y-79.6470
G1X182.9657Y-97.1544
G1X182.5533Y-98.7066
G1X155.2049Y-117.1225
G1X145.2013Y-114.3830
G1X142.2218Y-112.7157
G1X132.0095Y-83.5765
G1X135.5488Y-76.3057
G1X165.7405Y-66.3172
G1 Z0F20000
(Start Block)

G1X26.1779Y-53.9146
G1 Z3.0F20000
G1 F8000

G1X34.5655Y-37.6550
G1X35.8287Y-36.6994
G1X37.7430Y-35.4228
G1X41.7993Y-33.3285
G1X72.7833Y-40.7454
G1X78.8723Y-59.2617
G1X75.3416Y-71.2174
G1X75.0474Y-71.8444
G1X26.8684Y-64.9492
G1X26.2005Y-55.0524
G1X34.7309Y-38.8274
G1X36.0323Y-37.8596
G1X37.9912Y-36.5817
G1X42.1061Y-34.5188
G1X73.0186Y-42.3549
G1X78.8468Y-60.9911
G1X75.1159Y-72.9220
G1X74.7942Y-73.5745
G1X26.7420Y-65.7726
G1X26.2746Y-55.8295
G1X35.1704Y-39.7626
G1X36.5238Y-38.8027
G1X38.5448Y-37.5529
G1X42.7449Y-35.5801
G1X73.4667Y-44.2471
G1X78.7827Y-63.0696
G1X74.6972Y-74.9169
G1X74.3415Y-75.5869
G1X26.5532Y-66.2590
G1X26.4183Y-56.2743
G1X35.8787Y-40.4956
G1X37.2952Y-39.5655
G1X39.3917Y-38.3740
G1X43.6961Y-36.5487
G1X74.0853Y-46.4125
G1X78.6549Y-65.4597
G1X74.0801Y-77.1553
G1X73.6851Y-77.8331
G1X26.3411Y-66.4404
G1X26.6563Y-56.4325
G1X36.8437Y-41.0788
G1X38.3300Y-40.2007
G1X40.5096Y-39.0973
G1X44.9274Y-37.4733
G1X74.8177Y-48.8325
G1X78.4344Y-68.1079
G1X73.2637Y-79.5751
G1X72.8263Y-80.2496
G1X26.1507Y-66.3631
G1X27.0129Y-56.3653
G1X38.0429Y-41.5751
G1X39.6008Y-40.7701
G1X41.8644Y-39.7823
G1X46.3935Y-38.4065
G1X75.6004Y-51.4769
G1X78.0957Y-70.9476
G1X72.2568Y-82.1049
G1X71.7764Y-82.7648
G1X26.0255Y-66.0859
G1X27.5055Y-56.1443
G1X39.4415Y-42.0500
G1X41.0672Y-41.3369
G1X43.4092Y-40.4877
G1X48.0368Y-39.3973
G1X76.3710Y-54.3027
G1X77.6238Y-73.9043
G1X71.0809Y-84.6714
G1X70.5599Y-85.3063
G1X25.9995Y-65.6775
G1X28.1388Y-55.8460
G1X40.9919Y-42.5636
G1X42.6770Y-41.9570
G1X45.0857Y-41.2633
G1X49.7909Y-40.4833
G1X77.0760Y-57.2553
G1X77.0182Y-76.9018
G1X69.7714Y-87.2077
G1X69.2147Y-87.8087
G1X26.0919Y-65.2106
G1X28.9020Y-55.5445
G1X42.6367Y-43.1636
G1X44.3694Y-42.6727
G1X46.8292Y-42.1443
G1X51.5856Y-41.6861
G1X77.6769Y-60.2731
G1X76.2942Y-79.8697
G1X68.3748Y-89.6591
G1X67.7894Y-90.2200
G1X26.3050Y-64.7556
G1X29.7697Y-55.3049
G1X44.3142Y-43.8810
G1X46.0806Y-43.5092
G1X48.5745Y-43.1484
G1X53.3543Y-43.0102
G1X78.1530Y-63.2934
G1X75.4804Y-82.7491
G1X66.9435Y-91.9880
G1X66.3373Y-92.5054
G1X26.6256Y-64.3741
G1X30.7060Y-55.1777
G1X45.9646Y-44.7289
G1X47.7511Y-44.4744
G1X50.2621Y-44.2764
G1X55.0396Y-44.4444
G1X78.5003Y-66.2587
G1X74.6134Y-85.4971
G1X65.5292Y-94.1746
G1X64.9101Y-94.6480
G1X27.0292Y-64.1134
G1X31.6704Y-55.1961
G1X47.5368Y-45.7047
G1X49.3310Y-45.5610
G1X51.8446Y-45.5154
G1X56.5982Y-45.9673
G1X78.7282Y-69.1175
G1X73.7422Y-88.0748
G1X64.2082Y-96.1998
G1X63.6053Y-96.6216
G1X27.4567Y-64.0889
G1X32.5411Y-55.4705
G1X48.8256Y-46.8166
G1X50.5681Y-46.7662
G1X53.0179Y-46.8373
G1X57.6789Y-47.4847
G1X78.8288Y-71.4571
G1X73.1672Y-90.1484
G1X62.8799Y-98.2685
G1X27.7017Y-64.7353
G1X32.9717Y-56.3133
G1X49.3919Y-48.0674
G1X51.0647Y-48.0584
G1X53.4424Y-48.1727
G1X58.0242Y-48.8795
G1X78.8496Y-73.0608
G1X73.0352Y-91.6360
G1X62.8129Y-99.6201
G1X27.7036Y-66.0534
G1X32.9302Y-57.6814
G1X49.2660Y-49.4052
G1X53.1884Y-49.4873
G1X57.7148Y-50.1377
G1X78.8211Y-74.0082
G1X73.3063Y-92.6177
G1X63.3167Y-100.7224
G1X27.4963Y-67.9444
G1X32.4921Y-59.4954
G1X48.5626Y-50.8231
G1X52.3800Y-50.8001
G1X56.8740Y-51.3042
G1X78.7312Y-74.4353
G1X73.8737Y-93.1868
G1X64.2426Y-101.6066
G1X27.1637Y-70.2764
G1X31.7886Y-61.6617
G1X47.4464Y-52.3365
G1X51.1860Y-52.1533
G1X55.6644Y-52.4508
G1X78.5563Y-74.5221
G1X74.5957Y-93.4618
G1X65.4044Y-102.3149
G1X26.8044Y-72.8821
G1X30.9739Y-64.0585
G1X46.1166Y-53.9514
G1X49.8074Y-53.5785
G1X54.2810Y-53.6413
G1X78.2922Y-74.4754
G1X75.3296Y-93.5952
G1X66.6044Y-102.9219
G1X26.4980Y-75.5648
G1X30.1932Y-66.5294
G1X44.7853Y-55.6398
G1X48.4593Y-55.0720
G1X52.9375Y-54.9055
G1X77.9738Y-74.5084
G1X75.9598Y-93.7692
G1X67.6592Y-103.5412
G1X26.2855Y-78.1130
G1X29.5590Y-68.8913
G1X43.6553Y-57.3328
G1X47.3495Y-56.5887
G1X51.8451Y-56.2310
G1X77.6747Y-74.8180
G1X76.4100Y-94.1781
G1X68.7923Y-103.8901
G1X68.4169Y-104.3117
G1X26.1683Y-80.3229
G1X29.1449Y-70.9563
G1X42.9019Y-58.9344
G1X46.6592Y-58.0569
G1X51.1913Y-57.5770
G1X77.4864Y-75.5698
G1X76.6371Y-95.0034
G1X69.1760Y-104.9060
G1X68.7611Y-105.3698
G1X26.1281Y-82.0195
G1X28.9969Y-72.5587
G1X42.6642Y-60.3506
G1X44.2355Y-59.9139
G1X46.5325Y-59.4086
G1X51.1257Y-58.9032
G1X77.4863Y-76.8924
G1X76.6102Y-96.3865
G1X69.0726Y-106.3128
G1X68.6022Y-106.8161
G1X26.1565Y-83.0738
G1X29.1560Y-73.5814
G1X43.0464Y-61.5247
G1X44.6941Y-61.0916
G1X47.0723Y-60.6135
G1X51.7499Y-60.2021
G1X77.7034Y-78.8778
G1X76.2858Y-98.4079
G1X68.4080Y-108.1550
G1X67.8657Y-108.6864
G1X26.2846Y-83.4104
G1X29.6844Y-73.9688
G1X44.1365Y-62.4600
G1X45.8899Y-62.0782
G1X48.3809Y-61.6987
G1X53.1703Y-61.5254
G1X78.1140Y-81.6571
G1X75.5437Y-101.1575
G1X67.0150Y-110.4619
G1X66.3642Y-111.0096
G1X26.6327Y-82.8630
G1X30.7674Y-73.6103
G1X46.1515Y-63.2032
G1X48.0346Y-62.9456
G1X50.6542Y-62.7676
G1X55.5452Y-63.0198
G1X78.6041Y-85.4046
G1X74.1843Y-104.6554
G1X64.7279Y-113.1328
G1X63.9591Y-113.6519
G1X27.3970Y-81.4609
G1X32.5666Y-72.6393
G1X49.0998Y-63.9780
G1X51.0967Y-63.9317
G1X53.8144Y-64.0642
G1X58.7320Y-64.9172
G1X78.9021Y-90.0280
G1X72.0776Y-108.6311
G1X61.5654Y-115.8566
G1X60.6869Y-116.2938
G1X28.7801Y-79.4658
G1X35.1644Y-71.3854
G1 Z0F20000

G00 X0.0000 Y0.0000

