$H
G21
G17
G90
G1 Z0F20000
G1 F15000
(Start Layer)
(Start Block)

G1X23.8838Y-49.4162
G1 Z3.0F20000
(Plotting speed under)
G1 F10000

G1X49.1457Y-50.8655
G1X67.1576Y-45.0649
G1X93.5166Y-47.6113
G1X105.2788Y-35.5611
G1X141.3521Y-47.8218
G1X159.0076Y-41.6648
G1X186.2639Y-45.1086
G1 Z0F20000
(Start Block)

G1X23.8250Y-50.2732
G1 Z3.0F20000
(Plotting speed under)
G1 F10000

G1X49.1879Y-51.8236
G1X67.1793Y-46.0025
G1X93.6877Y-48.6983
G1X105.6953Y-36.8934
G1X141.4491Y-48.8347
G1X158.9272Y-42.5003
G1X186.0081Y-45.7686
G1 Z0F20000
(Start Block)

G1X23.7662Y-51.1303
G1 Z3.0F20000
(Plotting speed under)
G1 F10000

G1X49.2303Y-52.7818
G1X67.2011Y-46.9400
G1X93.8588Y-49.7853
G1X106.1117Y-38.2256
G1X141.5462Y-49.8476
G1X158.8468Y-43.3357
G1X185.7522Y-46.4286
G1 Z0F20000
(Start Block)

G1X23.7074Y-51.9873
G1 Z3.0F20000
(Plotting speed under)
G1 F10000

G1X49.2726Y-53.7399
G1X67.2228Y-47.8777
G1X94.0299Y-50.8723
G1X106.5281Y-39.5580
G1X141.6432Y-50.8605
G1X158.7664Y-44.1712
G1X185.4964Y-47.0886
G1 Z0F20000
(Start Block)

G1X23.6486Y-52.8444
G1 Z3.0F20000
(Plotting speed under)
G1 F10000

G1X49.3149Y-54.6981
G1X67.2445Y-48.8153
G1X94.2010Y-51.9592
G1X106.9446Y-40.8902
G1X141.7403Y-51.8734
G1X158.6860Y-45.0067
G1X185.2406Y-47.7486
G1 Z0F20000
(Start Block)

G1X23.5897Y-53.7014
G1 Z3.0F20000
(Plotting speed under)
G1 F10000

G1X49.3572Y-55.6563
G1X67.2662Y-49.7529
G1X94.3721Y-53.0462
G1X107.3610Y-42.2225
G1X141.8373Y-52.8863
G1X158.6056Y-45.8421
G1X184.9847Y-48.4087
G1 Z0F20000
(Start Block)

G1X23.5309Y-54.5585
G1 Z3.0F20000
(Plotting speed under)
G1 F10000

G1X49.3995Y-56.6145
G1X67.2880Y-50.6904
G1X94.5433Y-54.1332
G1X107.7774Y-43.5549
G1X141.9344Y-53.8993
G1X158.5252Y-46.6776
G1X184.7288Y-49.0687
G1 Z0F20000
(Start Block)

G1X23.4721Y-55.4155
G1 Z3.0F20000
(Plotting speed under)
G1 F10000

G1X49.4418Y-57.5726
G1X67.3097Y-51.6280
G1X94.7144Y-55.2202
G1X108.1938Y-44.8871
G1X142.0314Y-54.9122
G1X158.4448Y-47.5131
G1X184.4730Y-49.7287
G1 Z0F20000
(Start Block)

G1X23.4133Y-56.2725
G1 Z3.0F20000
(Plotting speed under)
G1 F10000

G1X49.4841Y-58.5308
G1X67.3314Y-52.5656
G1X94.8855Y-56.3072
G1X108.6103Y-46.2195
G1X142.1284Y-55.9251
G1X158.3645Y-48.3486
G1X184.2171Y-50.3887
G1 Z0F20000
(Start Block)

G1X23.3545Y-57.1296
G1 Z3.0F20000
(Plotting speed under)
G1 F10000

G1X49.5264Y-59.4889
G1X67.3532Y-53.5032
G1X95.0566Y-57.3942
G1X109.0267Y-47.5517
G1X142.2255Y-56.9380
G1X158.2840Y-49.1840
G1X183.9613Y-51.0487
G1 Z0F20000
(Start Block)

G1X23.2956Y-57.9866
G1 Z3.0F20000
(Plotting speed under)
G1 F10000

G1X49.5687Y-60.4471
G1X67.3749Y-54.4408
G1X95.2277Y-58.4811
G1X109.4432Y-48.8840
G1X142.3225Y-57.9509
G1X158.2037Y-50.0195
G1X183.7055Y-51.7088
G1 Z0F20000
(Start Block)

G1X23.2368Y-58.8437
G1 Z3.0F20000
(Plotting speed under)
G1 F10000

G1X49.6110Y-61.4053
G1X67.3966Y-55.3784
G1X95.3989Y-59.5681
G1X109.8596Y-50.2164
G1X142.4196Y-58.9638
G1X158.1233Y-50.8550
G1X183.4496Y-52.3688
G1 Z0F20000
(Start Block)

G1X23.1780Y-59.7007
G1 Z3.0F20000
(Plotting speed under)
G1 F10000

G1X49.6533Y-62.3635
G1X67.4184Y-56.3160
G1X95.5700Y-60.6551
G1X110.2760Y-51.5486
G1X142.5166Y-59.9767
G1X158.0429Y-51.6904
G1X183.1938Y-53.0288
G1 Z0F20000
(Start Block)

G1X23.1192Y-60.5578
G1 Z3.0F20000
(Plotting speed under)
G1 F10000

G1X49.6956Y-63.3216
G1X67.4401Y-57.2536
G1X95.7411Y-61.7421
G1X110.6925Y-52.8810
G1X142.6137Y-60.9896
G1X157.9625Y-52.5259
G1X182.9379Y-53.6888
G1 Z0F20000
(Start Block)

G1X23.0604Y-61.4148
G1 Z3.0F20000
(Plotting speed under)
G1 F10000

G1X49.7379Y-64.2798
G1X67.4618Y-58.1912
G1X95.9122Y-62.8291
G1X111.1089Y-54.2133
G1X142.7107Y-62.0025
G1X157.8821Y-53.3614
G1X182.6821Y-54.3488
G1 Z0F20000
(Start Block)

G1X23.0016Y-62.2719
G1 Z3.0F20000
(Plotting speed under)
G1 F10000

G1X49.7802Y-65.2380
G1X67.4836Y-59.1288
G1X96.0833Y-63.9160
G1X111.5253Y-55.5455
G1X142.8078Y-63.0154
G1X157.8017Y-54.1969
G1X182.4262Y-55.0088
G1 Z0F20000
(Start Block)

G1X22.9427Y-63.1289
G1 Z3.0F20000
(Plotting speed under)
G1 F10000

G1X49.8225Y-66.1961
G1X67.5053Y-60.0664
G1X96.2544Y-65.0030
G1X111.9418Y-56.8779
G1X142.9048Y-64.0284
G1X157.7213Y-55.0323
G1X182.1704Y-55.6689
G1 Z0F20000
(Start Block)

G1X22.8839Y-63.9860
G1 Z3.0F20000
(Plotting speed under)
G1 F10000

G1X49.8648Y-67.1543
G1X67.5270Y-61.0040
G1X96.4255Y-66.0900
G1X112.3582Y-58.2101
G1X143.0019Y-65.0413
G1X157.6409Y-55.8678
G1X181.9145Y-56.3289
G1 Z0F20000
(Start Block)

G1X22.8251Y-64.8430
G1 Z3.0F20000
(Plotting speed under)
G1 F10000

G1X49.9071Y-68.1125
G1X67.5487Y-61.9416
G1X96.5967Y-67.1770
G1X112.7746Y-59.5424
G1X143.0989Y-66.0542
G1X157.5605Y-56.7033
G1X181.6587Y-56.9889
G1 Z0F20000
(Start Block)

G1X22.7663Y-65.7001
G1 Z3.0F20000
(Plotting speed under)
G1 F10000

G1X49.9494Y-69.0706
G1X67.5705Y-62.8792
G1X96.7678Y-68.2640
G1X113.1911Y-60.8747
G1X143.1959Y-67.0671
G1X157.4801Y-57.5387
G1X181.4028Y-57.6489
G1 Z0F20000
(Start Block)

G1X22.7075Y-66.5571
G1 Z3.0F20000
(Plotting speed under)
G1 F10000

G1X49.9917Y-70.0288
G1X67.5922Y-63.8168
G1X96.9389Y-69.3510
G1X113.6075Y-62.2070
G1X143.2930Y-68.0800
G1X157.3997Y-58.3742
G1X181.1470Y-58.3089
G1 Z0F20000
(Start Block)

G1X22.6487Y-67.4142
G1 Z3.0F20000
(Plotting speed under)
G1 F10000

G1X50.0340Y-70.9870
G1X67.6139Y-64.7544
G1X97.1100Y-70.4379
G1X114.0239Y-63.5394
G1X143.3900Y-69.0929
G1X157.3193Y-59.2097
G1X180.8911Y-58.9690
G1 Z0F20000
(Start Block)

G1X22.5898Y-68.2712
G1 Z3.0F20000
(Plotting speed under)
G1 F10000

G1X50.0763Y-71.9451
G1X67.6357Y-65.6920
G1X97.2811Y-71.5249
G1X114.4404Y-64.8716
G1X143.4871Y-70.1058
G1X157.2389Y-60.0451
G1X180.6353Y-59.6290
G1 Z0F20000
(Start Block)

G1X22.5310Y-69.1283
G1 Z3.0F20000
(Plotting speed under)
G1 F10000

G1X50.1186Y-72.9033
G1X67.6574Y-66.6296
G1X97.4523Y-72.6119
G1X114.8568Y-66.2039
G1X143.5841Y-71.1187
G1X157.1585Y-60.8806
G1X180.3794Y-60.2890
G1 Z0F20000
(Start Block)

G1X22.4722Y-69.9853
G1 Z3.0F20000
(Plotting speed under)
G1 F10000

G1X50.1609Y-73.8615
G1X67.6791Y-67.5672
G1X97.6234Y-73.6989
G1X115.2732Y-67.5363
G1X143.6812Y-72.1316
G1X157.0781Y-61.7161
G1X180.1236Y-60.9490
G1 Z0F20000
(Start Block)

G1X22.4134Y-70.8424
G1 Z3.0F20000
(Plotting speed under)
G1 F10000

G1X50.2032Y-74.8197
G1X67.7009Y-68.5048
G1X97.7945Y-74.7859
G1X115.6897Y-68.8685
G1X143.7782Y-73.1446
G1X156.9977Y-62.5516
G1X179.8677Y-61.6090
G1 Z0F20000
(Start Block)

G1X22.3546Y-71.6994
G1 Z3.0F20000
(Plotting speed under)
G1 F10000

G1X50.2455Y-75.7778
G1X67.7226Y-69.4424
G1X97.9656Y-75.8729
G1X116.1061Y-70.2008
G1X143.8753Y-74.1575
G1X156.9173Y-63.3870
G1X179.6119Y-62.2691
G1 Z0F20000
(Start Block)

G1X22.3363Y-72.5970
G1 Z3.0F20000
(Plotting speed under)
G1 F10000

G1X49.9216Y-76.3698
G1X67.9614Y-70.5971
G1X97.5998Y-76.4229
G1X116.3257Y-71.3363
G1X143.9163Y-75.1144
G1X157.0328Y-64.4184
G1X179.7394Y-63.3124
G1 Z0F20000
(Start Block)

G1X22.3180Y-73.4946
G1 Z3.0F20000
(Plotting speed under)
G1 F10000

G1X49.5977Y-76.9618
G1X68.2002Y-71.7518
G1X97.2339Y-76.9729
G1X116.5454Y-72.4718
G1X143.9574Y-76.0713
G1X157.1483Y-65.4497
G1X179.8668Y-64.3557
G1 Z0F20000
(Start Block)

G1X22.2998Y-74.3922
G1 Z3.0F20000
(Plotting speed under)
G1 F10000

G1X49.2738Y-77.5537
G1X68.4391Y-72.9065
G1X96.8681Y-77.5230
G1X116.7650Y-73.6074
G1X143.9985Y-77.0283
G1X157.2638Y-66.4810
G1X179.9942Y-65.3990
G1 Z0F20000
(Start Block)

G1X22.2815Y-75.2898
G1 Z3.0F20000
(Plotting speed under)
G1 F10000

G1X48.9499Y-78.1457
G1X68.6779Y-74.0612
G1X96.5022Y-78.0730
G1X116.9847Y-74.7429
G1X144.0395Y-77.9852
G1X157.3792Y-67.5124
G1X180.1217Y-66.4423
G1 Z0F20000
(Start Block)

G1X22.2632Y-76.1874
G1 Z3.0F20000
(Plotting speed under)
G1 F10000

G1X48.6260Y-78.7376
G1X68.9167Y-75.2159
G1X96.1364Y-78.6230
G1X117.2043Y-75.8784
G1X144.0806Y-78.9422
G1X157.4947Y-68.5437
G1X180.2491Y-67.4856
G1 Z0F20000
(Start Block)

G1X22.2450Y-77.0850
G1 Z3.0F20000
(Plotting speed under)
G1 F10000

G1X48.3021Y-79.3296
G1X69.1555Y-76.3705
G1X95.7706Y-79.1731
G1X117.4239Y-77.0139
G1X144.1217Y-79.8991
G1X157.6102Y-69.5751
G1X180.3766Y-68.5289
G1 Z0F20000
(Start Block)

G1X22.2267Y-77.9826
G1 Z3.0F20000
(Plotting speed under)
G1 F10000

G1X47.9782Y-79.9216
G1X69.3943Y-77.5252
G1X95.4048Y-79.7231
G1X117.6436Y-78.1494
G1X144.1627Y-80.8560
G1X157.7256Y-70.6064
G1X180.5040Y-69.5723
G1 Z0F20000
(Start Block)

G1X22.2084Y-78.8802
G1 Z3.0F20000
(Plotting speed under)
G1 F10000

G1X47.6543Y-80.5135
G1X69.6332Y-78.6799
G1X95.0389Y-80.2731
G1X117.8632Y-79.2849
G1X144.2038Y-81.8129
G1X157.8411Y-71.6377
G1X180.6315Y-70.6156
G1 Z0F20000
(Start Block)

G1X22.1902Y-79.7778
G1 Z3.0F20000
(Plotting speed under)
G1 F10000

G1X47.3304Y-81.1055
G1X69.8720Y-79.8346
G1X94.6731Y-80.8232
G1X118.0829Y-80.4204
G1X144.2449Y-82.7699
G1X157.9566Y-72.6691
G1X180.7589Y-71.6589
G1 Z0F20000
(Start Block)

G1X22.1719Y-80.6755
G1 Z3.0F20000
(Plotting speed under)
G1 F10000

G1X47.0065Y-81.6975
G1X70.1108Y-80.9893
G1X94.3072Y-81.3732
G1X118.3025Y-81.5559
G1X144.2859Y-83.7268
G1X158.0721Y-73.7004
G1X180.8864Y-72.7022
G1 Z0F20000
(Start Block)

G1X22.1537Y-81.5731
G1 Z3.0F20000
(Plotting speed under)
G1 F10000

G1X46.6826Y-82.2894
G1X93.9414Y-81.9232
G1X118.5221Y-82.6914
G1X144.3270Y-84.6837
G1X158.1876Y-74.7318
G1X181.0138Y-73.7455
G1 Z0F20000
(Start Block)

G1X22.1354Y-82.4707
G1 Z3.0F20000
(Plotting speed under)
G1 F10000

G1X70.5885Y-83.2987
G1X93.5756Y-82.4732
G1X118.7418Y-83.8269
G1X144.3680Y-85.6407
G1X158.3030Y-75.7631
G1X181.1413Y-74.7889
G1 Z0F20000
(Start Block)

G1X22.1171Y-83.3683
G1 Z3.0F20000
(Plotting speed under)
G1 F10000

G1X46.0347Y-83.4733
G1X70.8273Y-84.4534
G1X93.2097Y-83.0233
G1X118.9614Y-84.9624
G1X144.4091Y-86.5976
G1X158.4185Y-76.7945
G1X181.2687Y-75.8322
G1 Z0F20000
(Start Block)

G1X22.0989Y-84.2659
G1 Z3.0F20000
(Plotting speed under)
G1 F10000

G1X45.7108Y-84.0653
G1X71.0661Y-85.6081
G1X92.8439Y-83.5733
G1X119.1810Y-86.0980
G1X144.4502Y-87.5545
G1X158.5340Y-77.8258
G1X181.3962Y-76.8755
G1 Z0F20000
(Start Block)

G1X22.0806Y-85.1635
G1 Z3.0F20000
(Plotting speed under)
G1 F10000

G1X45.3869Y-84.6572
G1X71.3050Y-86.7627
G1X92.4781Y-84.1233
G1X119.4007Y-87.2334
G1X144.4912Y-88.5115
G1X158.6494Y-78.8571
G1X181.5236Y-77.9188
G1 Z0F20000
(Start Block)

G1X22.0623Y-86.0611
G1 Z3.0F20000
(Plotting speed under)
G1 F10000

G1X45.0630Y-85.2492
G1X71.5438Y-87.9174
G1X92.1122Y-84.6734
G1X119.6203Y-88.3689
G1X144.5323Y-89.4684
G1X158.7649Y-79.8885
G1X181.6511Y-78.9621
G1 Z0F20000
(Start Block)

G1X22.0441Y-86.9587
G1 Z3.0F20000
(Plotting speed under)
G1 F10000

G1X44.7391Y-85.8412
G1X71.7826Y-89.0721
G1X91.7464Y-85.2234
G1X119.8400Y-89.5045
G1X144.5734Y-90.4253
G1X158.8804Y-80.9198
G1X181.7785Y-80.0054
G1 Z0F20000
(Start Block)

G1X22.0258Y-87.8563
G1 Z3.0F20000
(Plotting speed under)
G1 F10000

G1X44.4152Y-86.4332
G1X72.0214Y-90.2268
G1X91.3805Y-85.7734
G1X120.0596Y-90.6399
G1X144.6144Y-91.3822
G1X158.9959Y-81.9512
G1X181.9060Y-81.0487
G1 Z0F20000
(Start Block)

G1X22.0076Y-88.7539
G1 Z3.0F20000
(Plotting speed under)
G1 F10000

G1X44.0913Y-87.0251
G1X72.2602Y-91.3815
G1X91.0147Y-86.3235
G1X120.2793Y-91.7755
G1X144.6555Y-92.3392
G1X159.1113Y-82.9825
G1X182.0334Y-82.0921
G1 Z0F20000
(Start Block)

G1X21.9893Y-89.6515
G1 Z3.0F20000
(Plotting speed under)
G1 F10000

G1X43.7674Y-87.6171
G1X72.4991Y-92.5362
G1X90.6489Y-86.8735
G1X120.4989Y-92.9110
G1X144.6965Y-93.2961
G1X159.2268Y-84.0139
G1X182.1609Y-83.1354
G1 Z0F20000
(Start Block)

G1X21.9710Y-90.5491
G1 Z3.0F20000
(Plotting speed under)
G1 F10000

G1X43.4435Y-88.2090
G1X72.7379Y-93.6909
G1X90.2831Y-87.4235
G1X120.7185Y-94.0465
G1X144.7376Y-94.2530
G1X159.3423Y-85.0452
G1X182.2883Y-84.1787
G1 Z0F20000
(Start Block)

G1X21.9528Y-91.4467
G1 Z3.0F20000
(Plotting speed under)
G1 F10000

G1X43.1196Y-88.8010
G1X72.9767Y-94.8456
G1X89.9172Y-87.9735
G1X120.9382Y-95.1820
G1X144.7787Y-95.2100
G1X159.4578Y-86.0765
G1X182.4158Y-85.2220
G1 Z0F20000
(Start Block)

G1X21.9345Y-92.3443
G1 Z3.0F20000
(Plotting speed under)
G1 F10000

G1X42.7957Y-89.3930
G1X73.2155Y-96.0003
G1X89.5514Y-88.5236
G1X121.1578Y-96.3175
G1X144.8198Y-96.1669
G1X159.5732Y-87.1079
G1X182.5432Y-86.2653
G1 Z0F20000
(Start Block)

G1X21.9162Y-93.2419
G1 Z3.0F20000
(Plotting speed under)
G1 F10000

G1X42.4718Y-89.9849
G1X73.4544Y-97.1550
G1X89.1855Y-89.0736
G1X121.3775Y-97.4530
G1X144.8608Y-97.1238
G1X159.6887Y-88.1392
G1X182.6707Y-87.3086
G1 Z0F20000
(Start Block)

G1X21.8980Y-94.1395
G1 Z3.0F20000
(Plotting speed under)
G1 F10000

G1X42.1479Y-90.5769
G1X73.6932Y-98.3096
G1X88.8197Y-89.6236
G1X121.5971Y-98.5885
G1X144.9019Y-98.0808
G1X159.8042Y-89.1705
G1X182.7981Y-88.3519
G1 Z0F20000
(Start Block)

G1X21.8797Y-95.0371
G1 Z3.0F20000
(Plotting speed under)
G1 F10000

G1X41.8240Y-91.1689
G1X73.9320Y-99.4643
G1X88.4539Y-90.1736
G1X121.8167Y-99.7240
G1X144.9430Y-99.0377
G1X159.9197Y-90.2019
G1X182.9256Y-89.3953
G1 Z0F20000
(Start Block)

G1X21.8495Y-95.9228
G1 Z3.0F20000
(Plotting speed under)
G1 F10000

G1X41.8440Y-92.1047
G1X73.7841Y-100.2323
G1X88.5626Y-91.1983
G1X121.4969Y-100.3201
G1X144.7565Y-99.7670
G1X159.7925Y-90.9906
G1X183.0220Y-90.4075
G1 Z0F20000
(Start Block)

G1X21.8194Y-96.8085
G1 Z3.0F20000
(Plotting speed under)
G1 F10000

G1X41.8641Y-93.0406
G1X73.6361Y-101.0002
G1X88.6713Y-92.2229
G1X121.1771Y-100.9161
G1X144.5699Y-100.4964
G1X159.6654Y-91.7794
G1X183.1184Y-91.4198
G1 Z0F20000
(Start Block)

G1X21.7892Y-97.6942
G1 Z3.0F20000
(Plotting speed under)
G1 F10000

G1X41.8841Y-93.9766
G1X73.4881Y-101.7681
G1X88.7801Y-93.2475
G1X120.8573Y-101.5122
G1X144.3834Y-101.2257
G1X159.5383Y-92.5682
G1X183.2147Y-92.4320
G1 Z0F20000
(Start Block)

G1X21.7591Y-98.5799
G1 Z3.0F20000
(Plotting speed under)
G1 F10000

G1X41.9041Y-94.9124
G1X73.3402Y-102.5360
G1X88.8888Y-94.2721
G1X120.5375Y-102.1083
G1X144.1969Y-101.9551
G1X159.4112Y-93.3569
G1X183.3111Y-93.4443
G1 Z0F20000
(Start Block)

G1X21.7289Y-99.4656
G1 Z3.0F20000
(Plotting speed under)
G1 F10000

G1X41.9242Y-95.8484
G1X73.1922Y-103.3039
G1X88.9976Y-95.2967
G1X120.2177Y-102.7043
G1X144.0104Y-102.6845
G1X159.2841Y-94.1457
G1X183.4075Y-94.4565
G1 Z0F20000
(Start Block)

G1X21.6987Y-100.3513
G1 Z3.0F20000
(Plotting speed under)
G1 F10000

G1X41.9442Y-96.7843
G1X73.0443Y-104.0718
G1X89.1063Y-96.3213
G1X119.8979Y-103.3004
G1X143.8239Y-103.4138
G1X159.1570Y-94.9344
G1X183.5039Y-95.4688
G1 Z0F20000
(Start Block)

G1X21.6685Y-101.2370
G1 Z3.0F20000
(Plotting speed under)
G1 F10000

G1X41.9642Y-97.7201
G1X72.8963Y-104.8397
G1X89.2151Y-97.3459
G1X119.5781Y-103.8965
G1X143.6374Y-104.1432
G1X159.0299Y-95.7232
G1X183.6003Y-96.4810
G1 Z0F20000
(Start Block)

G1X21.6384Y-102.1227
G1 Z3.0F20000
(Plotting speed under)
G1 F10000

G1X41.9843Y-98.6561
G1X72.7484Y-105.6076
G1X89.3238Y-98.3705
G1X119.2583Y-104.4925
G1X143.4509Y-104.8725
G1X158.9028Y-96.5120
G1X183.6967Y-97.4933
G1 Z0F20000
(Start Block)

G1X21.6082Y-103.0084
G1 Z3.0F20000
(Plotting speed under)
G1 F10000

G1X42.0043Y-99.5920
G1X72.6004Y-106.3755
G1X89.4326Y-99.3951
G1X118.9385Y-105.0886
G1X143.2644Y-105.6019
G1X158.7757Y-97.3007
G1X183.7931Y-98.5055
G1 Z0F20000
(Start Block)

G1X21.5781Y-103.8941
G1 Z3.0F20000
(Plotting speed under)
G1 F10000

G1X42.0243Y-100.5279
G1X72.4525Y-107.1434
G1X89.5413Y-100.4198
G1X118.6187Y-105.6846
G1X143.0779Y-106.3312
G1X158.6486Y-98.0895
G1X183.8895Y-99.5178
G1 Z0F20000
(Start Block)

G1X21.5479Y-104.7798
G1 Z3.0F20000
(Plotting speed under)
G1 F10000

G1X42.0444Y-101.4638
G1X72.3045Y-107.9113
G1X89.6501Y-101.4444
G1X118.2989Y-106.2807
G1X142.8913Y-107.0606
G1X158.5215Y-98.8782
G1X183.9858Y-100.5301
G1 Z0F20000
(Start Block)

G1X21.5177Y-105.6655
G1 Z3.0F20000
(Plotting speed under)
G1 F10000

G1X42.0644Y-102.3997
G1X72.1565Y-108.6793
G1X89.7588Y-102.4690
G1X117.9791Y-106.8768
G1X142.7048Y-107.7900
G1X158.3944Y-99.6670
G1X184.0822Y-101.5423
G1 Z0F20000
(Start Block)

G1X21.4876Y-106.5512
G1 Z3.0F20000
(Plotting speed under)
G1 F10000

G1X42.0845Y-103.3356
G1X72.0086Y-109.4472
G1X89.8676Y-103.4936
G1X117.6593Y-107.4729
G1X142.5183Y-108.5193
G1X158.2672Y-100.4557
G1X184.1786Y-102.5546
G1 Z0F20000
(Start Block)

G1X21.4574Y-107.4369
G1 Z3.0F20000
(Plotting speed under)
G1 F10000

G1X42.1045Y-104.2715
G1X71.8606Y-110.2151
G1X89.9763Y-104.5182
G1X117.3395Y-108.0689
G1X142.3318Y-109.2487
G1X158.1401Y-101.2445
G1X184.2750Y-103.5668
G1 Z0F20000
(Start Block)

G1X21.4272Y-108.3226
G1 Z3.0F20000
(Plotting speed under)
G1 F10000

G1X42.1245Y-105.2074
G1X71.7127Y-110.9830
G1X90.0850Y-105.5428
G1X117.0197Y-108.6650
G1X142.1453Y-109.9780
G1X158.0130Y-102.0333
G1X184.3714Y-104.5791
G1 Z0F20000
(Start Block)

G1X21.3971Y-109.2083
G1 Z3.0F20000
(Plotting speed under)
G1 F10000

G1X42.1446Y-106.1433
G1X71.5647Y-111.7509
G1X90.1938Y-106.5674
G1X116.6999Y-109.2610
G1X141.9588Y-110.7074
G1X157.8859Y-102.8220
G1X184.4678Y-105.5913
G1 Z0F20000
(Start Block)

G1X21.3669Y-110.0940
G1 Z3.0F20000
(Plotting speed under)
G1 F10000

G1X42.1646Y-107.0792
G1X71.4168Y-112.5188
G1X90.3025Y-107.5920
G1X116.3801Y-109.8571
G1X141.7723Y-111.4367
G1X157.7588Y-103.6108
G1X184.5642Y-106.6036
G1 Z0F20000
(Start Block)

G1X21.3367Y-110.9797
G1 Z3.0F20000
(Plotting speed under)
G1 F10000

G1X42.1847Y-108.0151
G1X71.2688Y-113.2867
G1X90.4113Y-108.6166
G1X116.0603Y-110.4532
G1X141.5858Y-112.1661
G1X157.6317Y-104.3995
G1X184.6606Y-107.6158
G1 Z0F20000
(Start Block)

G1X21.3066Y-111.8654
G1 Z3.0F20000
(Plotting speed under)
G1 F10000

G1X42.2047Y-108.9510
G1X71.1209Y-114.0546
G1X90.5200Y-109.6412
G1X115.7405Y-111.0492
G1X141.3993Y-112.8954
G1X157.5046Y-105.1883
G1X184.7569Y-108.6281
G1 Z0F20000
(Start Block)

G1X21.2764Y-112.7511
G1 Z3.0F20000
(Plotting speed under)
G1 F10000

G1X42.2247Y-109.8869
G1X70.9729Y-114.8226
G1X90.6288Y-110.6659
G1X115.4207Y-111.6453
G1X141.2127Y-113.6248
G1X157.3775Y-105.9770
G1X184.8533Y-109.6403
G1 Z0F20000
(Start Block)

G1X21.2462Y-113.6368
G1 Z3.0F20000
(Plotting speed under)
G1 F10000

G1X42.2447Y-110.8228
G1X70.8249Y-115.5905
G1X90.7375Y-111.6905
G1X115.1009Y-112.2414
G1X141.0262Y-114.3541
G1X157.2504Y-106.7658
G1X184.9497Y-110.6526
G1 Z0F20000
(Start Block)

G1X21.2160Y-114.5225
G1 Z3.0F20000
(Plotting speed under)
G1 F10000

G1X42.2648Y-111.7587
G1X70.6770Y-116.3584
G1X90.8462Y-112.7151
G1X114.7811Y-112.8374
G1X140.8397Y-115.0835
G1X157.1233Y-107.5546
G1X185.0461Y-111.6648
G1 Z0F20000
(Start Block)

G1X21.1859Y-115.4082
G1 Z3.0F20000
(Plotting speed under)
G1 F10000

G1X42.2848Y-112.6946
G1X70.5290Y-117.1263
G1X90.9550Y-113.7397
G1X114.4613Y-113.4335
G1X140.6532Y-115.8129
G1X156.9962Y-108.3433
G1X185.1425Y-112.6771
G1 Z0F20000
(Start Block)

G1X21.1557Y-116.2939
G1 Z3.0F20000
(Plotting speed under)
G1 F10000

G1X42.3049Y-113.6305
G1X70.3811Y-117.8942
G1X91.0637Y-114.7643
G1X114.1415Y-114.0296
G1X140.4667Y-116.5422
G1X156.8691Y-109.1321
G1X185.2389Y-113.6894
G1 Z0F20000
(Start Block)

G1X21.1256Y-117.1796
G1 Z3.0F20000
(Plotting speed under)
G1 F10000

G1X42.3249Y-114.5664
G1X70.2331Y-118.6621
G1X91.1725Y-115.7889
G1X113.8217Y-114.6256
G1X140.2802Y-117.2716
G1X156.7420Y-109.9208
G1X185.3353Y-114.7016
G1 Z0F20000
(Start Block)

G1X21.0954Y-118.0653
G1 Z3.0F20000
(Plotting speed under)
G1 F10000

G1X42.3449Y-115.5023
G1X70.0852Y-119.4300
G1X91.2812Y-116.8135
G1X113.5019Y-115.2217
G1X140.0937Y-118.0009
G1X156.6148Y-110.7096
G1X185.4317Y-115.7139
G1 Z0F20000
(Start Block)

G1X21.0871Y-118.9729
G1 Z3.0F20000
(Plotting speed under)
G1 F10000

G1X42.3235Y-116.3968
G1X69.9806Y-120.2413
G1X91.3227Y-117.7709
G1X113.4765Y-116.1122
G1X139.7438Y-118.5669
G1X156.7207Y-111.7313
G1X185.4441Y-116.6422
G1 Z0F20000
(Start Block)

G1X21.0788Y-119.8804
G1 Z3.0F20000
(Plotting speed under)
G1 F10000

G1X42.3021Y-117.2912
G1X69.8759Y-121.0525
G1X91.3642Y-118.7283
G1X113.4512Y-117.0027
G1X139.3938Y-119.1328
G1X156.8266Y-112.7531
G1X185.4566Y-117.5706
G1 Z0F20000
(Start Block)

G1X21.0705Y-120.7880
G1 Z3.0F20000
(Plotting speed under)
G1 F10000

G1X42.2807Y-118.1856
G1X69.7713Y-121.8638
G1X91.4057Y-119.6856
G1X113.4259Y-117.8932
G1X139.0439Y-119.6988
G1X156.9325Y-113.7748
G1X185.4691Y-118.4989
G1 Z0F20000
(Start Block)

G1X21.0622Y-121.6956
G1 Z3.0F20000
(Plotting speed under)
G1 F10000

G1X42.2592Y-119.0801
G1X69.6667Y-122.6750
G1X91.4472Y-120.6430
G1X113.4005Y-118.7837
G1X138.6940Y-120.2647
G1X157.0384Y-114.7966
G1X185.4816Y-119.4272
G1 Z0F20000
(Start Block)

G1X21.0540Y-122.6032
G1 Z3.0F20000
(Plotting speed under)
G1 F10000

G1X42.2378Y-119.9745
G1X69.5621Y-123.4863
G1X113.3751Y-119.6743
G1X138.3441Y-120.8306
G1X157.1442Y-115.8183
G1X185.4941Y-120.3556
G1 Z0F20000
(Start Block)

G1X21.0457Y-123.5108
G1 Z3.0F20000
(Plotting speed under)
G1 F10000

G1X42.2164Y-120.8690
G1X69.4575Y-124.2975
G1X91.5302Y-122.5578
G1X113.3498Y-120.5648
G1X137.9941Y-121.3966
G1X157.2501Y-116.8401
G1X185.5065Y-121.2839
G1 Z0F20000
(Start Block)

G1X21.0374Y-124.4184
G1 Z3.0F20000
(Plotting speed under)
G1 F10000

G1X42.1950Y-121.7634
G1X69.3529Y-125.1088
G1X91.5717Y-123.5151
G1X113.3244Y-121.4553
G1X137.6442Y-121.9626
G1X157.3560Y-117.8618
G1X185.5190Y-122.2123
G1 Z0F20000
(Start Block)

G1X21.0291Y-125.3260
G1 Z3.0F20000
(Plotting speed under)
G1 F10000

G1X42.1735Y-122.6579
G1X69.2482Y-125.9200
G1X91.6132Y-124.4725
G1X113.2991Y-122.3458
G1X137.2943Y-122.5285
G1X157.4619Y-118.8835
G1X185.5315Y-123.1406
G1 Z0F20000
(Start Block)

G1X21.0208Y-126.2335
G1 Z3.0F20000
(Plotting speed under)
G1 F10000

G1X42.1521Y-123.5523
G1X69.1436Y-126.7313
G1X91.6547Y-125.4298
G1X113.2737Y-123.2363
G1X136.9444Y-123.0945
G1X157.5677Y-119.9053
G1X185.5440Y-124.0690
G1 Z0F20000
(Start Block)

G1X21.0125Y-127.1411
G1 Z3.0F20000
(Plotting speed under)
G1 F10000

G1X42.1307Y-124.4468
G1X69.0390Y-127.5425
G1X91.6962Y-126.3872
G1X113.2484Y-124.1269
G1X136.5945Y-123.6604
G1X157.6736Y-120.9270
G1X185.5565Y-124.9973
G1 Z0F20000
(Start Block)

G1X21.0043Y-128.0487
G1 Z3.0F20000
(Plotting speed under)
G1 F10000

G1X42.1093Y-125.3412
G1X68.9344Y-128.3538
G1X91.7377Y-127.3446
G1X113.2230Y-125.0174
G1X136.2446Y-124.2264
G1X157.7795Y-121.9488
G1X185.5689Y-125.9257
G1 Z0F20000
(Start Block)

G1X20.9960Y-128.9563
G1 Z3.0F20000
(Plotting speed under)
G1 F10000

G1X42.0878Y-126.2356
G1X68.8298Y-129.1650
G1X91.7792Y-128.3020
G1X113.1977Y-125.9079
G1X135.8946Y-124.7923
G1X157.8854Y-122.9705
G1X185.5814Y-126.8540
G1 Z0F20000
(Start Block)

G1X20.9877Y-129.8639
G1 Z3.0F20000
(Plotting speed under)
G1 F10000

G1X42.0664Y-127.1301
G1X68.7251Y-129.9763
G1X91.8207Y-129.2593
G1X113.1724Y-126.7984
G1X157.9913Y-123.9923
G1X185.5939Y-127.7824
G1 Z0F20000
(Start Block)

G1X20.9794Y-130.7714
G1 Z3.0F20000
(Plotting speed under)
G1 F10000

G1X42.0450Y-128.0245
G1X68.6205Y-130.7875
G1X91.8622Y-130.2167
G1X113.1470Y-127.6889
G1X135.1948Y-125.9242
G1X158.0971Y-125.0140
G1X185.6064Y-128.7107
G1 Z0F20000
(Start Block)

G1X20.9711Y-131.6790
G1 Z3.0F20000
(Plotting speed under)
G1 F10000

G1X42.0236Y-128.9190
G1X68.5159Y-131.5988
G1X91.9037Y-131.1741
G1X113.1216Y-128.5794
G1X134.8449Y-126.4901
G1X158.2030Y-126.0358
G1X185.6189Y-129.6391
G1 Z0F20000
(Start Block)

G1X20.9628Y-132.5866
G1 Z3.0F20000
(Plotting speed under)
G1 F10000

G1X42.0022Y-129.8134
G1X68.4113Y-132.4100
G1X91.9452Y-132.1314
G1X113.0963Y-129.4700
G1X134.4950Y-127.0561
G1X158.3089Y-127.0574
G1X185.6313Y-130.5673
G1 Z0F20000
(Start Block)

G1X20.9545Y-133.4942
G1 Z3.0F20000
(Plotting speed under)
G1 F10000

G1X41.9807Y-130.7078
G1X68.3067Y-133.2213
G1X91.9867Y-133.0888
G1X134.1450Y-127.6220
G1X158.4148Y-128.0793
G1X185.6438Y-131.4958
G1 Z0F20000
(Start Block)

G1X20.9463Y-134.4018
G1 Z3.0F20000
(Plotting speed under)
G1 F10000

G1X41.9593Y-131.6023
G1X68.2021Y-134.0325
G1X92.0282Y-134.0461
G1X113.0456Y-131.2510
G1X133.7951Y-128.1880
G1X158.5207Y-129.1010
G1X185.6563Y-132.4241
G1 Z0F20000
(Start Block)

G1X20.9380Y-135.3093
G1 Z3.0F20000
(Plotting speed under)
G1 F10000

G1X41.9379Y-132.4967
G1X68.0974Y-134.8438
G1X92.0697Y-135.0035
G1X113.0202Y-132.1415
G1X133.4452Y-128.7539
G1X158.6265Y-130.1228
G1X185.6688Y-133.3525
G1 Z0F20000
(Start Block)

G1X20.9297Y-136.2169
G1 Z3.0F20000
(Plotting speed under)
G1 F10000

G1X41.9165Y-133.3912
G1X67.9928Y-135.6550
G1X92.1112Y-135.9609
G1X112.9949Y-133.0320
G1X133.0953Y-129.3199
G1X158.7324Y-131.1445
G1X185.6812Y-134.2808
G1 Z0F20000
(Start Block)

G1X20.9214Y-137.1245
G1 Z3.0F20000
(Plotting speed under)
G1 F10000

G1X41.8950Y-134.2856
G1X67.8882Y-136.4663
G1X92.1527Y-136.9182
G1X112.9696Y-133.9226
G1X132.7454Y-129.8858
G1X158.8383Y-132.1662
G1X185.6937Y-135.2091
G1 Z0F20000
(Start Block)

G1X20.9131Y-138.0321
G1 Z3.0F20000
(Plotting speed under)
G1 F10000

G1X41.8736Y-135.1800
G1X67.7836Y-137.2775
G1X92.1942Y-137.8756
G1X112.9442Y-134.8131
G1X132.3954Y-130.4518
G1X158.9442Y-133.1880
G1X185.7062Y-136.1375
G1 Z0F20000
(Start Block)

G1X20.9048Y-138.9397
G1 Z3.0F20000
(Plotting speed under)
G1 F10000

G1X41.8522Y-136.0745
G1X67.6790Y-138.0888
G1X92.2357Y-138.8330
G1X112.9188Y-135.7036
G1X132.0455Y-131.0177
G1X159.0500Y-134.2097
G1X185.7187Y-137.0658
G1 Z0F20000
(Start Block)

G1X20.8965Y-139.8472
G1 Z3.0F20000
(Plotting speed under)
G1 F10000

G1X41.8308Y-136.9689
G1X67.5744Y-138.9000
G1X92.2772Y-139.7903
G1X112.8935Y-136.5941
G1X131.6956Y-131.5837
G1X159.1559Y-135.2315
G1X185.7312Y-137.9942
G1 Z0F20000
(Start Block)

G1X20.8883Y-140.7548
G1 Z3.0F20000
(Plotting speed under)
G1 F10000

G1X41.8093Y-137.8634
G1X67.4697Y-139.7113
G1X92.3187Y-140.7477
G1X112.8681Y-137.4846
G1X131.3457Y-132.1496
G1X159.2618Y-136.2532
G1X185.7437Y-138.9225
G1 Z0F20000
(Start Block)

G1X20.8800Y-141.6624
G1 Z3.0F20000
(Plotting speed under)
G1 F10000

G1X41.7879Y-138.7578
G1X67.3651Y-140.5225
G1X92.3602Y-141.7051
G1X112.8428Y-138.3751
G1X130.9958Y-132.7155
G1X159.3677Y-137.2750
G1X185.7561Y-139.8509
G1 Z0F20000
(Start Block)

G1X20.9180Y-142.6163
G1 Z3.0F20000
(Plotting speed under)
G1 F10000

G1X41.9054Y-139.7911
G1X67.1567Y-141.2300
G1X92.1878Y-142.4485
G1X112.8864Y-139.3346
G1X131.1180Y-133.7537
G1X159.5885Y-138.4117
G1X185.8113Y-140.8219
G1 Z0F20000
(Start Block)

G1X20.9561Y-143.5703
G1 Z3.0F20000
(Plotting speed under)
G1 F10000

G1X42.0229Y-140.8245
G1X66.9484Y-141.9375
G1X92.0154Y-143.1919
G1X112.9300Y-140.2940
G1X131.2403Y-134.7918
G1X159.8093Y-139.5483
G1X185.8665Y-141.7930
G1 Z0F20000
(Start Block)

G1X20.9942Y-144.5242
G1 Z3.0F20000
(Plotting speed under)
G1 F10000

G1X42.1403Y-141.8579
G1X66.7400Y-142.6450
G1X91.8429Y-143.9354
G1X112.9736Y-141.2535
G1X131.3626Y-135.8300
G1X160.0301Y-140.6850
G1X185.9217Y-142.7641
G1 Z0F20000
(Start Block)

G1X21.0323Y-145.4782
G1 Z3.0F20000
(Plotting speed under)
G1 F10000

G1X42.2578Y-142.8912
G1X66.5316Y-143.3525
G1X91.6705Y-144.6788
G1X113.0172Y-142.2130
G1X131.4849Y-136.8681
G1X160.2510Y-141.8217
G1X185.9769Y-143.7351
G1 Z0F20000
(Start Block)

G1X21.0703Y-146.4321
G1 Z3.0F20000
(Plotting speed under)
G1 F10000

G1X42.3753Y-143.9245
G1X66.3232Y-144.0600
G1X91.4980Y-145.4222
G1X113.0608Y-143.1724
G1X131.6072Y-137.9063
G1X160.4718Y-142.9584
G1X186.0321Y-144.7062
G1 Z0F20000
(Start Block)

G1X21.1084Y-147.3860
G1 Z3.0F20000
(Plotting speed under)
G1 F10000

G1X42.4928Y-144.9579
G1X66.1149Y-144.7674
G1X91.3256Y-146.1656
G1X113.1044Y-144.1319
G1X131.7294Y-138.9444
G1X160.6926Y-144.0950
G1X186.0873Y-145.6772
G1 Z0F20000
(Start Block)

G1X21.1465Y-148.3400
G1 Z3.0F20000
(Plotting speed under)
G1 F10000

G1X42.6103Y-145.9912
G1X65.9065Y-145.4749
G1X91.1532Y-146.9091
G1X113.1480Y-145.0914
G1X131.8517Y-139.9826
G1X160.9134Y-145.2317
G1X186.1425Y-146.6483
G1 Z0F20000
(Start Block)

G1X21.1845Y-149.2939
G1 Z3.0F20000
(Plotting speed under)
G1 F10000

G1X42.7277Y-147.0246
G1X65.6981Y-146.1824
G1X90.9807Y-147.6525
G1X113.1916Y-146.0508
G1X131.9740Y-141.0207
G1X161.1342Y-146.3684
G1X186.1977Y-147.6194
G1 Z0F20000
(Start Block)

G1X21.2226Y-150.2479
G1 Z3.0F20000
(Plotting speed under)
G1 F10000

G1X42.8452Y-148.0579
G1X65.4897Y-146.8899
G1X90.8083Y-148.3960
G1X113.2351Y-147.0103
G1X132.0963Y-142.0589
G1X161.3550Y-147.5051
G1X186.2529Y-148.5904
G1 Z0F20000
(Start Block)

G1X21.2607Y-151.2018
G1 Z3.0F20000
(Plotting speed under)
G1 F10000

G1X42.9627Y-149.0913
G1X65.2813Y-147.5974
G1X90.6359Y-149.1394
G1X113.2787Y-147.9697
G1X132.2186Y-143.0970
G1X161.5758Y-148.6418
G1X186.3081Y-149.5615
G1 Z0F20000
(Start Block)

G1X21.2988Y-152.1557
G1 Z3.0F20000
(Plotting speed under)
G1 F10000

G1X43.0802Y-150.1246
G1X65.0730Y-148.3049
G1X90.4634Y-149.8828
G1X113.3223Y-148.9292
G1X132.3409Y-144.1352
G1X161.7967Y-149.7785
G1X186.3633Y-150.5325
G1 Z0F20000
(Start Block)

G1X21.3368Y-153.1097
G1 Z3.0F20000
(Plotting speed under)
G1 F10000

G1X43.1977Y-151.1580
G1X64.8646Y-149.0124
G1X90.2910Y-150.6262
G1X113.3659Y-149.8887
G1X132.4631Y-145.1733
G1X162.0175Y-150.9152
G1X186.4185Y-151.5036
G1 Z0F20000
(Start Block)

G1X21.3749Y-154.0636
G1 Z3.0F20000
(Plotting speed under)
G1 F10000

G1X43.3151Y-152.1913
G1X64.6562Y-149.7199
G1X90.1186Y-151.3697
G1X113.4095Y-150.8481
G1X132.5854Y-146.2115
G1X162.2383Y-152.0518
G1X186.4737Y-152.4747
G1 Z0F20000
(Start Block)

G1X21.4130Y-155.0176
G1 Z3.0F20000
(Plotting speed under)
G1 F10000

G1X43.4326Y-153.2247
G1X64.4478Y-150.4273
G1X89.9461Y-152.1131
G1X113.4531Y-151.8076
G1X132.7077Y-147.2496
G1X162.4591Y-153.1885
G1X186.5289Y-153.4457
G1 Z0F20000
(Start Block)

G1X21.4511Y-155.9715
G1 Z3.0F20000
(Plotting speed under)
G1 F10000

G1X43.5501Y-154.2580
G1X64.2394Y-151.1348
G1X89.7737Y-152.8565
G1X113.4967Y-152.7670
G1X132.8300Y-148.2878
G1X162.6799Y-154.3252
G1X186.5841Y-154.4168
G1 Z0F20000
(Start Block)

G1X21.4891Y-156.9254
G1 Z3.0F20000
(Plotting speed under)
G1 F10000

G1X43.6676Y-155.2913
G1X64.0311Y-151.8423
G1X89.6013Y-153.6000
G1X113.5403Y-153.7265
G1X132.9523Y-149.3259
G1X162.9007Y-155.4619
G1X186.6393Y-155.3879
G1 Z0F20000
(Start Block)

G1X21.5272Y-157.8794
G1 Z3.0F20000
(Plotting speed under)
G1 F10000

G1X43.7851Y-156.3247
G1X63.8227Y-152.5498
G1X89.4288Y-154.3434
G1X113.5839Y-154.6860
G1X133.0746Y-150.3641
G1X163.1216Y-156.5985
G1X186.6945Y-156.3589
G1 Z0F20000
(Start Block)

G1X21.5653Y-158.8333
G1 Z3.0F20000
(Plotting speed under)
G1 F10000

G1X43.9025Y-157.3580
G1X63.6143Y-153.2573
G1X89.2564Y-155.0868
G1X113.6275Y-155.6454
G1X133.1968Y-151.4022
G1X163.3424Y-157.7352
G1X186.7497Y-157.3300
G1 Z0F20000
(Start Block)

G1X21.6033Y-159.7872
G1 Z3.0F20000
(Plotting speed under)
G1 F10000

G1X44.0200Y-158.3914
G1X63.4059Y-153.9648
G1X89.0840Y-155.8302
G1X113.6711Y-156.6049
G1X133.3191Y-152.4404
G1X163.5632Y-158.8719
G1X186.8049Y-158.3011
G1 Z0F20000
(Start Block)

G1X21.6414Y-160.7412
G1 Z3.0F20000
(Plotting speed under)
G1 F10000

G1X44.1375Y-159.4247
G1X63.1976Y-154.6722
G1X88.9115Y-156.5737
G1X113.7147Y-157.5643
G1X133.4414Y-153.4785
G1X163.7840Y-160.0086
G1X186.8600Y-159.2721
G1 Z0F20000
(Start Block)

G1X21.6795Y-161.6951
G1 Z3.0F20000
(Plotting speed under)
G1 F10000

G1X44.2550Y-160.4581
G1X62.9892Y-155.3797
G1X88.7391Y-157.3171
G1X113.7583Y-158.5238
G1X133.5637Y-154.5166
G1X164.0048Y-161.1453
G1X186.9153Y-160.2432
G1 Z0F20000
(Start Block)

G1X21.7176Y-162.6490
G1 Z3.0F20000
(Plotting speed under)
G1 F10000

G1X44.3725Y-161.4914
G1X62.7808Y-156.0872
G1X88.5666Y-158.0606
G1X113.8019Y-159.4832
G1X133.6860Y-155.5548
G1X164.2256Y-162.2820
G1X186.9705Y-161.2142
G1 Z0F20000
(Start Block)

G1X21.7556Y-163.6030
G1 Z3.0F20000
(Plotting speed under)
G1 F10000

G1X44.4899Y-162.5248
G1X62.5724Y-156.7947
G1X88.3942Y-158.8040
G1X113.8455Y-160.4427
G1X133.8083Y-156.5929
G1X164.4465Y-163.4186
G1X187.0256Y-162.1853
G1 Z0F20000
(Start Block)

G1X21.7937Y-164.5569
G1 Z3.0F20000
(Plotting speed under)
G1 F10000

G1X44.6075Y-163.5581
G1X62.3640Y-157.5022
G1X88.2218Y-159.5474
G1X113.8891Y-161.4022
G1X133.9305Y-157.6311
G1X164.6673Y-164.5553
G1X187.0808Y-163.1564
G1 Z0F20000
(Start Block)

G1X21.8318Y-165.5109
G1 Z3.0F20000
(Plotting speed under)
G1 F10000

G1X44.7249Y-164.5915
G1X62.1557Y-158.2097
G1X113.9327Y-162.3616
G1X134.0528Y-158.6693
G1X164.8881Y-165.6920
G1X187.1360Y-164.1274
G1 Z0F20000
(Start Block)

G1X21.8699Y-166.4648
G1 Z3.0F20000
(Plotting speed under)
G1 F10000

G1X44.8424Y-165.6248
G1X61.9473Y-158.9172
G1X87.8769Y-161.0343
G1X113.9763Y-163.3211
G1X134.1751Y-159.7074
G1X165.1089Y-166.8287
G1X187.1912Y-165.0985
G1 Z0F20000
(Start Block)

G1X21.9799Y-167.4907
G1 Z3.0F20000
(Plotting speed under)
G1 F10000

G1X44.6422Y-166.3404
G1X62.0747Y-159.9605
G1X87.8095Y-161.8827
G1X113.9485Y-164.2092
G1X134.4339Y-160.8821
G1X164.8992Y-167.5349
G1X187.1343Y-165.9574
G1 Z0F20000
(Start Block)

G1X22.0899Y-168.5166
G1 Z3.0F20000
(Plotting speed under)
G1 F10000

G1X44.4419Y-167.0561
G1X62.2021Y-161.0038
G1X87.7420Y-162.7311
G1X113.9206Y-165.0972
G1X134.6927Y-162.0567
G1X164.6896Y-168.2411
G1X187.0773Y-166.8163
G1 Z0F20000
(Start Block)

G1X22.1999Y-169.5424
G1 Z3.0F20000
(Plotting speed under)
G1 F10000

G1X44.2417Y-167.7717
G1X62.3296Y-162.0471
G1X87.6746Y-163.5796
G1X113.8929Y-165.9853
G1X134.9515Y-163.2314
G1X164.4799Y-168.9473
G1X187.0203Y-167.6752
G1 Z0F20000
(Start Block)

G1X22.3099Y-170.5683
G1 Z3.0F20000
(Plotting speed under)
G1 F10000

G1X44.0415Y-168.4873
G1X62.4570Y-163.0904
G1X87.6072Y-164.4280
G1X113.8651Y-166.8734
G1X135.2103Y-164.4061
G1X164.2703Y-169.6535
G1X186.9634Y-168.5341
G1 Z0F20000
(Start Block)

G1X22.4199Y-171.5942
G1 Z3.0F20000
(Plotting speed under)
G1 F10000

G1X43.8412Y-169.2030
G1X62.5844Y-164.1337
G1X87.5397Y-165.2764
G1X113.8373Y-167.7614
G1X135.4691Y-165.5807
G1X164.0606Y-170.3597
G1X186.9064Y-169.3930
G1 Z0F20000
(Start Block)

G1X22.5299Y-172.6201
G1 Z3.0F20000
(Plotting speed under)
G1 F10000

G1X43.6410Y-169.9186
G1X62.7119Y-165.1770
G1X87.4723Y-166.1248
G1X113.8095Y-168.6495
G1X135.7279Y-166.7554
G1X163.8509Y-171.0659
G1X186.8494Y-170.2519
G1 Z0F20000
(Start Block)

G1X22.6400Y-173.6460
G1 Z3.0F20000
(Plotting speed under)
G1 F10000

G1X43.4408Y-170.6342
G1X62.8393Y-166.2203
G1X87.4048Y-166.9733
G1X113.7817Y-169.5376
G1X135.9867Y-167.9300
G1X163.6413Y-171.7722
G1X186.7924Y-171.1108
G1 Z0F20000
(Start Block)

G1X22.7500Y-174.6719
G1 Z3.0F20000
(Plotting speed under)
G1 F10000

G1X43.2405Y-171.3499
G1X62.9668Y-167.2636
G1X87.3374Y-167.8217
G1X113.7539Y-170.4257
G1X136.2455Y-169.1047
G1X163.4316Y-172.4784
G1X186.7355Y-171.9697
G1 Z0F20000
(Start Block)

G1X22.8600Y-175.6978
G1 Z3.0F20000
(Plotting speed under)
G1 F10000

G1X43.0403Y-172.0655
G1X63.0942Y-168.3069
G1X87.2699Y-168.6701
G1X113.7261Y-171.3137
G1X136.5043Y-170.2794
G1X163.2220Y-173.1846
G1X186.6785Y-172.8286
G1 Z0F20000
(Start Block)

G1X22.9700Y-176.7237
G1 Z3.0F20000
(Plotting speed under)
G1 F10000

G1X42.8401Y-172.7812
G1X63.2216Y-169.3502
G1X87.2025Y-169.5185
G1X113.6983Y-172.2018
G1X136.7631Y-171.4541
G1X163.0123Y-173.8908
G1X186.6215Y-173.6875
G1 Z0F20000
(Start Block)

G1X23.0800Y-177.7496
G1 Z3.0F20000
(Plotting speed under)
G1 F10000

G1X42.6398Y-173.4968
G1X63.3491Y-170.3935
G1X87.1351Y-170.3670
G1X113.6705Y-173.0899
G1X137.0219Y-172.6287
G1X162.8027Y-174.5970
G1X186.5646Y-174.5464
G1 Z0F20000
(Start Block)

G1X23.1901Y-178.7754
G1 Z3.0F20000
(Plotting speed under)
G1 F10000

G1X42.4396Y-174.2124
G1X63.4765Y-171.4368
G1X87.0676Y-171.2154
G1X113.6427Y-173.9779
G1X137.2807Y-173.8034
G1X162.5930Y-175.3032
G1X186.5076Y-175.4053
G1 Z0F20000
(Start Block)

G1X23.3001Y-179.8013
G1 Z3.0F20000
(Plotting speed under)
G1 F10000

G1X42.2393Y-174.9280
G1X63.6039Y-172.4801
G1X87.0002Y-172.0638
G1X113.6149Y-174.8660
G1X137.5395Y-174.9781
G1X162.3833Y-176.0094
G1X186.4506Y-176.2642
G1 Z0F20000
(Start Block)

G1X23.4101Y-180.8272
G1 Z3.0F20000
(Plotting speed under)
G1 F10000

G1X42.0391Y-175.6437
G1X63.7314Y-173.5234
G1X86.9328Y-172.9123
G1X113.5871Y-175.7541
G1X137.7983Y-176.1527
G1X162.1737Y-176.7156
G1X186.3937Y-177.1231
G1 Z0F20000
(Start Block)

G1X23.5201Y-181.8531
G1 Z3.0F20000
(Plotting speed under)
G1 F10000

G1X41.8389Y-176.3593
G1X63.8588Y-174.5667
G1X86.8653Y-173.7607
G1X113.5593Y-176.6421
G1X138.0571Y-177.3274
G1X161.9640Y-177.4218
G1X186.3367Y-177.9820
G1 Z0F20000
(Start Block)

G1X23.6301Y-182.8790
G1 Z3.0F20000
(Plotting speed under)
G1 F10000

G1X41.6387Y-177.0750
G1X63.9862Y-175.6100
G1X86.7979Y-174.6091
G1X113.5315Y-177.5302
G1X138.3159Y-178.5021
G1X161.7544Y-178.1280
G1X186.2797Y-178.8409
G1 Z0F20000
(Start Block)

G1X23.7401Y-183.9049
G1 Z3.0F20000
(Plotting speed under)
G1 F10000

G1X41.4384Y-177.7906
G1X86.7304Y-175.4575
G1X113.5037Y-178.4183
G1X138.5747Y-179.6767
G1X161.5447Y-178.8342
G1X186.2228Y-179.6998
G1 Z0F20000
(Start Block)

G1X23.8502Y-184.9307
G1 Z3.0F20000
(Plotting speed under)
G1 F10000

G1X41.2382Y-178.5062
G1X64.2411Y-177.6966
G1X86.6630Y-176.3060
G1X113.4759Y-179.3064
G1X138.8335Y-180.8514
G1X161.3350Y-179.5404
G1X186.1658Y-180.5587
G1 Z0F20000
(Start Block)

G1X23.9602Y-185.9566
G1 Z3.0F20000
(Plotting speed under)
G1 F10000

G1X41.0380Y-179.2218
G1X64.3685Y-178.7399
G1X86.5956Y-177.1544
G1X113.4481Y-180.1944
G1X139.0923Y-182.0261
G1X161.1254Y-180.2466
G1X186.1088Y-181.4176
G1 Z0F20000
(Start Block)

G1X24.0702Y-186.9825
G1 Z3.0F20000
(Plotting speed under)
G1 F10000

G1X40.8377Y-179.9375
G1X64.4960Y-179.7832
G1X86.5281Y-178.0028
G1X113.4203Y-181.0825
G1X139.3511Y-183.2007
G1X160.9157Y-180.9529
G1X186.0518Y-182.2765
G1 Z0F20000
(Start Block)

G1X24.1802Y-188.0084
G1 Z3.0F20000
(Plotting speed under)
G1 F10000

G1X40.6375Y-180.6531
G1X64.6234Y-180.8265
G1X86.4607Y-178.8512
G1X113.3925Y-181.9706
G1X139.6099Y-184.3754
G1X160.7061Y-181.6591
G1X185.9949Y-183.1353
G1 Z0F20000
(Start Block)

G1X24.2902Y-189.0343
G1 Z3.0F20000
(Plotting speed under)
G1 F10000

G1X40.4372Y-181.3687
G1X64.7508Y-181.8698
G1X86.3932Y-179.6997
G1X113.3647Y-182.8586
G1X139.8687Y-185.5501
G1X160.4964Y-182.3653
G1X185.9379Y-183.9943
G1 Z0F20000
(Start Block)

G1X24.4003Y-190.0602
G1 Z3.0F20000
(Plotting speed under)
G1 F10000

G1X40.2370Y-182.0844
G1X64.8782Y-182.9131
G1X86.3258Y-180.5481
G1X113.3369Y-183.7467
G1X140.1275Y-186.7247
G1X160.2868Y-183.0715
G1X185.8810Y-184.8532
G1 Z0F20000
(Start Block)

G1X24.5103Y-191.0860
G1 Z3.0F20000
(Plotting speed under)
G1 F10000

G1X40.0368Y-182.8000
G1X65.0057Y-183.9564
G1X86.2583Y-181.3965
G1X140.3863Y-187.8994
G1X160.0771Y-183.7777
G1X185.8240Y-185.7120
G1 Z0F20000
(Start Block)

G1X24.6203Y-192.1119
G1 Z3.0F20000
(Plotting speed under)
G1 F10000

G1X39.8366Y-183.5156
G1X65.1331Y-184.9997
G1X86.1909Y-182.2449
G1X113.2813Y-185.5228
G1X140.6451Y-189.0741
G1X159.8674Y-184.4839
G1X185.7670Y-186.5709
G1 Z0F20000
(Start Block)

G1X24.7304Y-193.1378
G1 Z3.0F20000
(Plotting speed under)
G1 F10000

G1X39.6363Y-184.2313
G1X65.2605Y-186.0430
G1X86.1235Y-183.0934
G1X113.2535Y-186.4109
G1X140.9039Y-190.2487
G1X159.6578Y-185.1901
G1X185.7101Y-187.4298
G1 Z0F20000
(Start Block)

G1X24.7850Y-194.1083
G1 Z3.0F20000
(Plotting speed under)
G1 F10000

G1X39.5169Y-185.0277
G1X65.1557Y-186.8540
G1X86.3917Y-184.2774
G1X113.4499Y-187.5231
G1X140.7157Y-190.9764
G1X159.7473Y-186.1955
G1X185.7090Y-188.3446
G1 Z0F20000
(Start Block)

G1X24.8396Y-195.0788
G1 Z3.0F20000
(Plotting speed under)
G1 F10000

G1X39.3975Y-185.8242
G1X65.0509Y-187.6651
G1X86.6599Y-185.4615
G1X140.5274Y-191.7040
G1X159.8368Y-187.2009
G1X185.7079Y-189.2595
G1 Z0F20000
(Start Block)

G1X24.8943Y-196.0493
G1 Z3.0F20000
(Plotting speed under)
G1 F10000

G1X39.2781Y-186.6206
G1X64.9461Y-188.4761
G1X86.9281Y-186.6456
G1X113.8426Y-189.7476
G1X140.3392Y-192.4316
G1X159.9263Y-188.2063
G1X185.7069Y-190.1743
G1 Z0F20000
(Start Block)

G1X24.9489Y-197.0199
G1 Z3.0F20000
(Plotting speed under)
G1 F10000

G1X39.1586Y-187.4171
G1X64.8412Y-189.2871
G1X87.1963Y-187.8296
G1X114.0390Y-190.8599
G1X140.1510Y-193.1593
G1X160.0159Y-189.2117
G1X185.7058Y-191.0891
G1 Z0F20000
(Start Block)

G1X25.0036Y-197.9904
G1 Z3.0F20000
(Plotting speed under)
G1 F10000

G1X39.0392Y-188.2135
G1X64.7364Y-190.0981
G1X87.4645Y-189.0137
G1X114.2354Y-191.9721
G1X139.9628Y-193.8869
G1X160.1054Y-190.2171
G1X185.7048Y-192.0039
G1 Z0F20000
(Start Block)

G1X25.0582Y-198.9609
G1 Z3.0F20000
(Plotting speed under)
G1 F10000

G1X38.9198Y-189.0100
G1X64.6316Y-190.9092
G1X87.7327Y-190.1978
G1X114.4318Y-193.0844
G1X139.7745Y-194.6146
G1X160.1949Y-191.2224
G1X185.7037Y-192.9187
G1 Z0F20000
(Start Block)

G1X25.1129Y-199.9314
G1 Z3.0F20000
(Plotting speed under)
G1 F10000

G1X38.8004Y-189.8064
G1X64.5267Y-191.7202
G1X88.0009Y-191.3818
G1X114.6281Y-194.1966
G1X139.5863Y-195.3422
G1X160.2844Y-192.2278
G1X185.7026Y-193.8335
G1 Z0F20000
(Start Block)

G1X25.1675Y-200.9019
G1 Z3.0F20000
(Plotting speed under)
G1 F10000

G1X38.6810Y-190.6029
G1X64.4219Y-192.5313
G1X88.2691Y-192.5659
G1X114.8245Y-195.3088
G1X139.3981Y-196.0698
G1X160.3740Y-193.2332
G1X185.7016Y-194.7483
G1 Z0F20000
(Start Block)

G1X25.2222Y-201.8724
G1 Z3.0F20000
(Plotting speed under)
G1 F10000

G1X38.5616Y-191.3993
G1X64.3171Y-193.3423
G1X88.5373Y-193.7500
G1X115.0209Y-196.4211
G1X139.2099Y-196.7975
G1X160.4635Y-194.2386
G1X185.7005Y-195.6631
G1 Z0F20000
(Start Block)

G1X25.2768Y-202.8429
G1 Z3.0F20000
(Plotting speed under)
G1 F10000

G1X38.4422Y-192.1958
G1X64.2122Y-194.1533
G1X88.8055Y-194.9340
G1X115.2173Y-197.5333
G1X139.0217Y-197.5252
G1X160.5530Y-195.2440
G1X185.6995Y-196.5780
G1 Z0F20000
(Start Block)

G1X25.3315Y-203.8134
G1 Z3.0F20000
(Plotting speed under)
G1 F10000

G1X38.3227Y-192.9922
G1X64.1074Y-194.9644
G1X89.0737Y-196.1181
G1X115.4137Y-198.6456
G1X138.8334Y-198.2528
G1X160.6425Y-196.2494
G1X185.6984Y-197.4928
G1 Z0F20000
(Start Block)

G1X25.3861Y-204.7840
G1 Z3.0F20000
(Plotting speed under)
G1 F10000

G1X38.2033Y-193.7887
G1X64.0026Y-195.7754
G1X89.3418Y-197.3021
G1X115.6100Y-199.7578
G1X138.6452Y-198.9804
G1X160.7321Y-197.2548
G1X185.6974Y-198.4076
G1 Z0F20000
(Start Block)

G1X25.4408Y-205.7545
G1 Z3.0F20000
(Plotting speed under)
G1 F10000

G1X38.0839Y-194.5851
G1X89.6101Y-198.4862
G1X115.8064Y-200.8701
G1X138.4570Y-199.7081
G1X160.8216Y-198.2602
G1X185.6963Y-199.3224
G1 Z0F20000
(Start Block)

G1X25.4954Y-206.7250
G1 Z3.0F20000
(Plotting speed under)
G1 F10000

G1X37.9645Y-195.3816
G1X63.7929Y-197.3975
G1X116.0028Y-201.9823
G1X138.2688Y-200.4357
G1X160.9111Y-199.2656
G1X185.6953Y-200.2372
G1 Z0F20000
(Start Block)

G1X25.5501Y-207.6955
G1 Z3.0F20000
(Plotting speed under)
G1 F10000

G1X37.8451Y-196.1780
G1X63.6881Y-198.2085
G1X90.1464Y-200.8543
G1X116.1992Y-203.0945
G1X138.0805Y-201.1633
G1X161.0006Y-200.2710
G1X185.6942Y-201.1520
G1 Z0F20000
(Start Block)

G1X25.6047Y-208.6660
G1 Z3.0F20000
(Plotting speed under)
G1 F10000

G1X37.7257Y-196.9745
G1X63.5832Y-199.0195
G1X90.4147Y-202.0384
G1X116.3955Y-204.2068
G1X137.8923Y-201.8910
G1X161.0902Y-201.2763
G1X185.6932Y-202.0668
G1 Z0F20000
(Start Block)

G1X25.6593Y-209.6365
G1 Z3.0F20000
(Plotting speed under)
G1 F10000

G1X37.6062Y-197.7709
G1X63.4784Y-199.8306
G1X90.6828Y-203.2225
G1X116.5919Y-205.3190
G1X137.7041Y-202.6186
G1X161.1797Y-202.2817
G1X185.6921Y-202.9816
G1 Z0F20000
(Start Block)

G1X25.7140Y-210.6070
G1 Z3.0F20000
(Plotting speed under)
G1 F10000

G1X37.4868Y-198.5674
G1X63.3736Y-200.6416
G1X90.9510Y-204.4065
G1X116.7883Y-206.4313
G1X137.5159Y-203.3463
G1X161.2692Y-203.2871
G1X185.6910Y-203.8964
G1 Z0F20000
(Start Block)

G1X25.7686Y-211.5775
G1 Z3.0F20000
(Plotting speed under)
G1 F10000

G1X37.3674Y-199.3638
G1X63.2687Y-201.4526
G1X91.2193Y-205.5906
G1X116.9847Y-207.5435
G1X137.3276Y-204.0739
G1X161.3587Y-204.2925
G1X185.6900Y-204.8112
G1 Z0F20000
(Start Block)

G1X25.8233Y-212.5481
G1 Z3.0F20000
(Plotting speed under)
G1 F10000

G1X37.2480Y-200.1603
G1X63.1639Y-202.2637
G1X91.4874Y-206.7747
G1X117.1811Y-208.6557
G1X137.1394Y-204.8016
G1X185.6889Y-205.7260
G1 Z0F20000
(Start Block)

G1X25.8779Y-213.5186
G1 Z3.0F20000
(Plotting speed under)
G1 F10000

G1X37.1286Y-200.9567
G1X63.0591Y-203.0747
G1X91.7556Y-207.9587
G1X117.3774Y-209.7680
G1X136.9512Y-205.5292
G1X161.5378Y-206.3033
G1X185.6879Y-206.6409
G1 Z0F20000
(Start Block)

G1X25.9326Y-214.4891
G1 Z3.0F20000
(Plotting speed under)
G1 F10000

G1X37.0092Y-201.7532
G1X62.9543Y-203.8857
G1X92.0239Y-209.1428
G1X117.5738Y-210.8802
G1X136.7630Y-206.2568
G1X161.6273Y-207.3087
G1X185.6868Y-207.5557
G1 Z0F20000
(Start Block)

G1X25.9872Y-215.4596
G1 Z3.0F20000
(Plotting speed under)
G1 F10000

G1X36.8897Y-202.5496
G1X62.8494Y-204.6968
G1X92.2920Y-210.3269
G1X117.7702Y-211.9925
G1X136.5747Y-206.9845
G1X161.7168Y-208.3141
G1X185.6858Y-208.4705
G1 Z0F20000
(Start Block)

G1X26.0419Y-216.4301
G1 Z3.0F20000
(Plotting speed under)
G1 F10000

G1X36.7703Y-203.3461
G1X62.7446Y-205.5078
G1X92.5602Y-211.5109
G1X117.9666Y-213.1047
G1X136.3865Y-207.7121
G1X161.8063Y-209.3195
G1X185.6847Y-209.3853
G1 Z0F20000
(Start Block)

G1X26.0965Y-217.4006
G1 Z3.0F20000
(Plotting speed under)
G1 F10000

G1X36.6509Y-204.1425
G1X62.6397Y-206.3188
G1X92.8284Y-212.6950
G1X118.1629Y-214.2170
G1X136.1983Y-208.4398
G1X161.8959Y-210.3249
G1X185.6837Y-210.3001
G1 Z0F20000
(Start Block)

G1X26.1512Y-218.3711
G1 Z3.0F20000
(Plotting speed under)
G1 F10000

G1X36.5315Y-204.9390
G1X62.5349Y-207.1299
G1X93.0966Y-213.8790
G1X118.3593Y-215.3292
G1X136.0101Y-209.1674
G1X161.9854Y-211.3302
G1X185.6826Y-211.2149
G1 Z0F20000
(Start Block)

G1X25.8794Y-219.0152
G1 Z3.0F20000
(Plotting speed under)
G1 F10000

G1X36.7237Y-206.0470
G1X62.3966Y-207.9074
G1X93.0874Y-214.7857
G1X118.3677Y-216.2534
G1X136.1566Y-210.2298
G1X161.9887Y-212.2494
G1X185.8331Y-212.2813
G1 Z0F20000
(Start Block)

G1X25.6076Y-219.6593
G1 Z3.0F20000
(Plotting speed under)
G1 F10000

G1X36.9159Y-207.1551
G1X62.2582Y-208.6849
G1X93.0781Y-215.6923
G1X118.3761Y-217.1777
G1X136.3031Y-211.2922
G1X161.9919Y-213.1685
G1X185.9837Y-213.3477
G1 Z0F20000
(Start Block)

G1X25.3358Y-220.3033
G1 Z3.0F20000
(Plotting speed under)
G1 F10000

G1X37.1080Y-208.2631
G1X62.1199Y-209.4624
G1X93.0689Y-216.5989
G1X118.3845Y-218.1020
G1X136.4496Y-212.3545
G1X161.9952Y-214.0876
G1X186.1342Y-214.4142
G1 Z0F20000
(Start Block)

G1X25.0640Y-220.9474
G1 Z3.0F20000
(Plotting speed under)
G1 F10000

G1X37.3002Y-209.3711
G1X61.9815Y-210.2399
G1X93.0596Y-217.5055
G1X118.3928Y-219.0262
G1X136.5961Y-213.4169
G1X161.9985Y-215.0068
G1X186.2848Y-215.4806
G1 Z0F20000
(Start Block)

G1X24.7922Y-221.5915
G1 Z3.0F20000
(Plotting speed under)
G1 F10000

G1X37.4924Y-210.4792
G1X61.8432Y-211.0174
G1X93.0504Y-218.4122
G1X118.4012Y-219.9504
G1X136.7426Y-214.4793
G1X162.0017Y-215.9259
G1X186.4354Y-216.5470
G1 Z0F20000
(Start Block)

G1X24.5204Y-222.2356
G1 Z3.0F20000
(Plotting speed under)
G1 F10000

G1X37.6846Y-211.5872
G1X61.7048Y-211.7949
G1X93.0411Y-219.3188
G1X118.4096Y-220.8747
G1X136.8891Y-215.5417
G1X162.0050Y-216.8450
G1X186.5859Y-217.6134
G1 Z0F20000
(Start Block)

G1X24.2485Y-222.8796
G1 Z3.0F20000
(Plotting speed under)
G1 F10000

G1X37.8768Y-212.6953
G1X61.5664Y-212.5725
G1X93.0319Y-220.2254
G1X118.4180Y-221.7990
G1X137.0356Y-216.6040
G1X162.0083Y-217.7642
G1X186.7365Y-218.6798
G1 Z0F20000
(Start Block)

G1X23.9767Y-223.5237
G1 Z3.0F20000
(Plotting speed under)
G1 F10000

G1X38.0689Y-213.8033
G1X61.4281Y-213.3500
G1X93.0227Y-221.1320
G1X118.4263Y-222.7232
G1X137.1821Y-217.6664
G1X186.8870Y-219.7462
G1 Z0F20000
(Start Block)

G1X23.7050Y-224.1678
G1 Z3.0F20000
(Plotting speed under)
G1 F10000

G1X38.2611Y-214.9114
G1X61.2897Y-214.1275
G1X93.0134Y-222.0387
G1X118.4347Y-223.6475
G1X137.3286Y-218.7288
G1X162.0148Y-219.6024
G1X187.0376Y-220.8127
G1 Z0F20000
(Start Block)

G1X23.4332Y-224.8118
G1 Z3.0F20000
(Plotting speed under)
G1 F10000

G1X38.4533Y-216.0194
G1X61.1514Y-214.9050
G1X93.0042Y-222.9453
G1X118.4431Y-224.5717
G1X137.4751Y-219.7912
G1X162.0181Y-220.5216
G1X187.1881Y-221.8791
G1 Z0F20000
(Start Block)

G1X23.1613Y-225.4559
G1 Z3.0F20000
(Plotting speed under)
G1 F10000

G1X38.6455Y-217.1275
G1X61.0130Y-215.6825
G1X92.9949Y-223.8519
G1X118.4515Y-225.4960
G1X137.6217Y-220.8536
G1X162.0213Y-221.4407
G1X187.3386Y-222.9455
G1 Z0F20000
(Start Block)

G1X22.8896Y-226.1000
G1 Z3.0F20000
(Plotting speed under)
G1 F10000

G1X38.8377Y-218.2355
G1X60.8747Y-216.4600
G1X92.9857Y-224.7585
G1X118.4599Y-226.4202
G1X137.7682Y-221.9159
G1X162.0246Y-222.3598
G1X187.4892Y-224.0119
G1 Z0F20000
(Start Block)

G1X22.6178Y-226.7440
G1 Z3.0F20000
(Plotting speed under)
G1 F10000

G1X39.0298Y-219.3435
G1X60.7363Y-217.2375
G1X92.9764Y-225.6651
G1X118.4683Y-227.3444
G1X137.9147Y-222.9783
G1X162.0279Y-223.2790
G1X187.6398Y-225.0784
G1 Z0F20000
(Start Block)

G1X22.3460Y-227.3881
G1 Z3.0F20000
(Plotting speed under)
G1 F10000

G1X39.2220Y-220.4516
G1X60.5980Y-218.0150
G1X92.9672Y-226.5717
G1X118.4766Y-228.2687
G1X138.0612Y-224.0407
G1X162.0311Y-224.1981
G1X187.7903Y-226.1448
G1 Z0F20000
(Start Block)

G1X22.0741Y-228.0322
G1 Z3.0F20000
(Plotting speed under)
G1 F10000

G1X39.4142Y-221.5597
G1X60.4596Y-218.7926
G1X92.9579Y-227.4784
G1X118.4850Y-229.1929
G1X138.2077Y-225.1030
G1X162.0344Y-225.1172
G1X187.9409Y-227.2112
G1 Z0F20000
(Start Block)

G1X21.8024Y-228.6762
G1 Z3.0F20000
(Plotting speed under)
G1 F10000

G1X39.6064Y-222.6677
G1X60.3213Y-219.5701
G1X92.9487Y-228.3850
G1X118.4934Y-230.1172
G1X138.3542Y-226.1654
G1X162.0377Y-226.0364
G1X188.0914Y-228.2776
G1 Z0F20000
(Start Block)

G1X21.5306Y-229.3203
G1 Z3.0F20000
(Plotting speed under)
G1 F10000

G1X39.7985Y-223.7758
G1X60.1829Y-220.3476
G1X92.9395Y-229.2916
G1X118.5018Y-231.0414
G1X138.5007Y-227.2278
G1X162.0409Y-226.9555
G1X188.2420Y-229.3440
G1 Z0F20000
(Start Block)

G1X21.2588Y-229.9644
G1 Z3.0F20000
(Plotting speed under)
G1 F10000

G1X39.9907Y-224.8838
G1X60.0446Y-221.1251
G1X92.9302Y-230.1982
G1X118.5102Y-231.9657
G1X138.6472Y-228.2902
G1X162.0442Y-227.8746
G1X188.3925Y-230.4104
G1 Z0F20000
(Start Block)

G1X20.9870Y-230.6084
G1 Z3.0F20000
(Plotting speed under)
G1 F10000

G1X40.1829Y-225.9919
G1X59.9062Y-221.9026
G1X92.9210Y-231.1049
G1X118.5186Y-232.8899
G1X138.7937Y-229.3525
G1X162.0475Y-228.7938
G1X188.5431Y-231.4769
G1 Z0F20000
(Start Block)

G1X20.7152Y-231.2525
G1 Z3.0F20000
(Plotting speed under)
G1 F10000

G1X40.3751Y-227.0999
G1X59.7678Y-222.6801
G1X92.9117Y-232.0115
G1X118.5269Y-233.8142
G1X138.9402Y-230.4149
G1X162.0507Y-229.7129
G1X188.6936Y-232.5433
G1 Z0F20000
(Start Block)

G1X20.4434Y-231.8966
G1 Z3.0F20000
(Plotting speed under)
G1 F10000

G1X40.5673Y-228.2079
G1X59.6295Y-223.4577
G1X92.9025Y-232.9181
G1X118.5353Y-234.7384
G1X139.0867Y-231.4773
G1X162.0540Y-230.6320
G1X188.8442Y-233.6097
G1 Z0F20000
(Start Block)

G1X20.1716Y-232.5406
G1 Z3.0F20000
(Plotting speed under)
G1 F10000

G1X40.7595Y-229.3160
G1X59.4911Y-224.2352
G1X92.8932Y-233.8247
G1X118.5437Y-235.6627
G1X139.2332Y-232.5397
G1X162.0572Y-231.5512
G1X188.9947Y-234.6761
G1 Z0F20000
(Start Block)

G1X19.8998Y-233.1847
G1 Z3.0F20000
(Plotting speed under)
G1 F10000

G1X40.9516Y-230.4240
G1X59.3528Y-225.0127
G1X92.8840Y-234.7313
G1X118.5521Y-236.5869
G1X139.3797Y-233.6020
G1X162.0605Y-232.4703
G1X189.1453Y-235.7425
G1 Z0F20000
(Start Block)

G1X19.6280Y-233.8288
G1 Z3.0F20000
(Plotting speed under)
G1 F10000

G1X41.1438Y-231.5321
G1X59.2144Y-225.7902
G1X92.8747Y-235.6380
G1X118.5605Y-237.5112
G1X139.5263Y-234.6644
G1X162.0638Y-233.3894
G1X189.2958Y-236.8089
G1 Z0F20000
(Start Block)

G1X19.3562Y-234.4728
G1 Z3.0F20000
(Plotting speed under)
G1 F10000

G1X41.3360Y-232.6401
G1X59.0761Y-226.5677
G1X92.8655Y-236.5446
G1X118.5689Y-238.4354
G1X139.6728Y-235.7268
G1X162.0671Y-234.3086
G1X189.4464Y-237.8754
G1 Z0F20000
(Start Block)

G1X19.0844Y-235.1169
G1 Z3.0F20000
(Plotting speed under)
G1 F10000

G1X41.5282Y-233.7482
G1X58.9377Y-227.3452
G1X92.8563Y-237.4512
G1X118.5772Y-239.3597
G1X139.8193Y-236.7892
G1X162.0703Y-235.2277
G1X189.5969Y-238.9418
G1 Z0F20000
(Start Block)

G1X19.1475Y-236.0960
G1 Z3.0F20000
(Plotting speed under)
G1 F10000

G1X41.4518Y-234.5876
G1X59.0131Y-228.3364
G1X92.6735Y-238.1843
G1X118.4002Y-240.0985
G1X140.0271Y-237.9129
G1X161.9374Y-236.0107
G1X189.5974Y-239.8582
G1 Z0F20000
(Start Block)

G1X19.2107Y-237.0750
G1 Z3.0F20000
(Plotting speed under)
G1 F10000

G1X41.3754Y-235.4271
G1X59.0884Y-229.3276
G1X92.4907Y-238.9174
G1X118.2231Y-240.8372
G1X140.2350Y-239.0366
G1X161.8045Y-236.7936
G1X189.5980Y-240.7745
G1 Z0F20000
(Start Block)

G1X19.2739Y-238.0540
G1 Z3.0F20000
(Plotting speed under)
G1 F10000

G1X41.2990Y-236.2666
G1X59.1638Y-230.3189
G1X92.3080Y-239.6505
G1X118.0460Y-241.5760
G1X140.4428Y-240.1603
G1X161.6716Y-237.5766
G1X189.5985Y-241.6909
G1 Z0F20000
(Start Block)

G1X19.3371Y-239.0331
G1 Z3.0F20000
(Plotting speed under)
G1 F10000

G1X41.2226Y-237.1060
G1X59.2391Y-231.3101
G1X92.1252Y-240.3836
G1X117.8689Y-242.3148
G1X140.6506Y-241.2840
G1X161.5387Y-238.3596
G1X189.5990Y-242.6073
G1 Z0F20000
(Start Block)

G1X19.4002Y-240.0121
G1 Z3.0F20000
(Plotting speed under)
G1 F10000

G1X41.1461Y-237.9455
G1X59.3145Y-232.3013
G1X91.9425Y-241.1167
G1X117.6918Y-243.0536
G1X140.8585Y-242.4077
G1X161.4058Y-239.1426
G1X189.5995Y-243.5236
G1 Z0F20000
(Start Block)

G1X19.4634Y-240.9911
G1 Z3.0F20000
(Plotting speed under)
G1 F10000

G1X41.0697Y-238.7849
G1X59.3898Y-233.2925
G1X91.7597Y-241.8499
G1X117.5148Y-243.7924
G1X141.0663Y-243.5314
G1X161.2729Y-239.9255
G1X189.6000Y-244.4400
G1 Z0F20000
(Start Block)

G1X19.5266Y-241.9702
G1 Z3.0F20000
(Plotting speed under)
G1 F10000

G1X40.9933Y-239.6244
G1X59.4652Y-234.2837
G1X91.5769Y-242.5830
G1X117.3377Y-244.5312
G1X141.2742Y-244.6551
G1X161.1400Y-240.7085
G1X189.6005Y-245.3564
G1 Z0F20000
(Start Block)

G1X19.5898Y-242.9492
G1 Z3.0F20000
(Plotting speed under)
G1 F10000

G1X40.9169Y-240.4639
G1X59.5405Y-235.2749
G1X91.3942Y-243.3161
G1X117.1606Y-245.2700
G1X141.4820Y-245.7788
G1X161.0071Y-241.4915
G1X189.6010Y-246.2728
G1 Z0F20000
(Start Block)

G1X19.6529Y-243.9283
G1 Z3.0F20000
(Plotting speed under)
G1 F10000

G1X40.8405Y-241.3033
G1X59.6159Y-236.2661
G1X91.2114Y-244.0492
G1X116.9835Y-246.0087
G1X141.6898Y-246.9026
G1X160.8742Y-242.2744
G1X189.6015Y-247.1891
G1 Z0F20000
(Start Block)

G1X19.7161Y-244.9073
G1 Z3.0F20000
(Plotting speed under)
G1 F10000

G1X40.7641Y-242.1428
G1X59.6912Y-237.2574
G1X91.0287Y-244.7823
G1X116.8064Y-246.7475
G1X141.8977Y-248.0263
G1X160.7413Y-243.0574
G1X189.6020Y-248.1055
G1 Z0F20000
(Start Block)

G1X19.7793Y-245.8863
G1 Z3.0F20000
(Plotting speed under)
G1 F10000

G1X40.6877Y-242.9822
G1X59.7666Y-238.2486
G1X90.8459Y-245.5154
G1X116.6294Y-247.4863
G1X142.1055Y-249.1500
G1X160.6084Y-243.8404
G1X189.6025Y-249.0219
G1 Z0F20000
(Start Block)

G1X19.8424Y-246.8654
G1 Z3.0F20000
(Plotting speed under)
G1 F10000

G1X40.6113Y-243.8217
G1X59.8419Y-239.2398
G1X90.6632Y-246.2485
G1X142.3134Y-250.2737
G1X160.4756Y-244.6233
G1X189.6030Y-249.9383
G1 Z0F20000
(Start Block)

G1X19.9056Y-247.8444
G1 Z3.0F20000
(Plotting speed under)
G1 F10000

G1X40.5349Y-244.6612
G1X59.9173Y-240.2310
G1X90.4804Y-246.9816
G1X116.2752Y-248.9639
G1X142.5212Y-251.3974
G1X160.3427Y-245.4063
G1X189.6035Y-250.8546
G1 Z0F20000
(Start Block)

G1X19.9688Y-248.8235
G1 Z3.0F20000
(Plotting speed under)
G1 F10000

G1X40.4585Y-245.5006
G1X59.9926Y-241.2222
G1X90.2977Y-247.7147
G1X116.0981Y-249.7027
G1X142.7291Y-252.5211
G1X160.2098Y-246.1893
G1X189.6040Y-251.7710
G1 Z0F20000
(Start Block)

G1X20.0320Y-249.8025
G1 Z3.0F20000
(Plotting speed under)
G1 F10000

G1X40.3821Y-246.3401
G1X60.0680Y-242.2134
G1X90.1149Y-248.4479
G1X115.9211Y-250.4415
G1X142.9369Y-253.6448
G1X160.0769Y-246.9722
G1X189.6045Y-252.6874
G1 Z0F20000
(Start Block)

G1X20.0951Y-250.7815
G1 Z3.0F20000
(Plotting speed under)
G1 F10000

G1X40.3057Y-247.1795
G1X60.1433Y-243.2047
G1X89.9321Y-249.1810
G1X115.7440Y-251.1803
G1X143.1448Y-254.7685
G1X159.9440Y-247.7552
G1X189.6050Y-253.6037
G1 Z0F20000
(Start Block)

G1X20.1583Y-251.7606
G1 Z3.0F20000
(Plotting speed under)
G1 F10000

G1X60.2186Y-244.1959
G1X89.7494Y-249.9141
G1X115.5669Y-251.9191
G1X143.3526Y-255.8922
G1X159.8111Y-248.5382
G1X189.6055Y-254.5201
G1 Z0F20000
(Start Block)

G1X20.2215Y-252.7396
G1 Z3.0F20000
(Plotting speed under)
G1 F10000

G1X40.1529Y-248.8585
G1X60.2940Y-245.1871
G1X89.5666Y-250.6472
G1X115.3898Y-252.6578
G1X143.5604Y-257.0159
G1X159.6782Y-249.3211
G1X189.6060Y-255.4365
G1 Z0F20000
(Start Block)

G1X20.2846Y-253.7186
G1 Z3.0F20000
(Plotting speed under)
G1 F10000

G1X40.0765Y-249.6979
G1X60.3694Y-246.1783
G1X89.3839Y-251.3803
G1X115.2127Y-253.3966
G1X143.7683Y-258.1396
G1X159.5453Y-250.1041
G1X189.6066Y-256.3529
G1 Z0F20000
(Start Block)

G1X20.3478Y-254.6977
G1 Z3.0F20000
(Plotting speed under)
G1 F10000

G1X40.0001Y-250.5374
G1X60.4447Y-247.1695
G1X89.2011Y-252.1134
G1X115.0357Y-254.1354
G1X143.9761Y-259.2633
G1X159.4124Y-250.8871
G1X189.6071Y-257.2692
G1 Z0F20000
(Start Block)

G1X20.4110Y-255.6767
G1 Z3.0F20000
(Plotting speed under)
G1 F10000

G1X39.9237Y-251.3769
G1X60.5200Y-248.1607
G1X89.0184Y-252.8465
G1X114.8586Y-254.8742
G1X144.1840Y-260.3870
G1X159.2795Y-251.6701
G1X189.6076Y-258.1856
G1 Z0F20000
(Start Block)

G1X20.4742Y-256.6558
G1 Z3.0F20000
(Plotting speed under)
G1 F10000

G1X39.8473Y-252.2163
G1X60.5954Y-249.1519
G1X88.8356Y-253.5796
G1X114.6815Y-255.6130
G1X144.3918Y-261.5108
G1X159.1466Y-252.4530
G1X189.6081Y-259.1020
G1 Z0F20000
(Start Block)

G1X20.5373Y-257.6348
G1 Z3.0F20000
(Plotting speed under)
G1 F10000

G1X39.7709Y-253.0558
G1X60.6707Y-250.1431
G1X88.6528Y-254.3127
G1X114.5044Y-256.3518
G1X144.5997Y-262.6345
G1X159.0137Y-253.2360
G1X189.6086Y-260.0184
G1 Z0F20000
(Start Block)

G1X20.6005Y-258.6138
G1 Z3.0F20000
(Plotting speed under)
G1 F10000

G1X39.6945Y-253.8953
G1X60.7461Y-251.1344
G1X88.4701Y-255.0458
G1X114.3273Y-257.0906
G1X144.8075Y-263.7582
G1X158.8808Y-254.0189
G1X189.6091Y-260.9347
G1 Z0F20000
(Start Block)

G1X20.6637Y-259.5929
G1 Z3.0F20000
(Plotting speed under)
G1 F10000

G1X39.6181Y-254.7347
G1X60.8214Y-252.1256
G1X88.2874Y-255.7789
G1X114.1503Y-257.8293
G1X145.0153Y-264.8819
G1X158.7479Y-254.8019
G1X189.6096Y-261.8511
G1 Z0F20000
(Start Block)

G1X20.7269Y-260.5719
G1 Z3.0F20000
(Plotting speed under)
G1 F10000

G1X39.5417Y-255.5742
G1X60.8968Y-253.1168
G1X88.1046Y-256.5120
G1X113.9732Y-258.5681
G1X145.2232Y-266.0056
G1X158.6150Y-255.5849
G1X189.6101Y-262.7675
G1 Z0F20000

G00 X0.0000 Y0.0000

