$H
G21
G17
G90
G1 Z0F20000
G1 F15000

(Start Layer)

(Start Block)


G1X33.2140Y-39.0735
G1Z5F20000
(Plotting speed under)
G1 F4000


G1X53.0304Y-37.7232

G1X72.1423Y-35.6684

G1X96.3156Y-38.6750

G1X121.3920Y-42.5847

G1X135.9611Y-35.9871

G1X160.8543Y-39.7137

G1X175.2829Y-32.9756

G1 Z0F20000

(Start Block)


G1X32.7898Y-39.7076
G1Z5F20000
(Plotting speed under)
G1 F4000


G1X53.2085Y-38.9597

G1X72.1524Y-36.7369

G1X96.1068Y-39.5246

G1X121.3758Y-43.6269

G1X136.3389Y-37.4233

G1X160.6386Y-40.5563

G1X175.8098Y-34.5608

G1 Z0F20000

(Start Block)


G1X32.3655Y-40.3417
G1Z5F20000
(Plotting speed under)
G1 F4000


G1X53.3865Y-40.1961

G1X72.1625Y-37.8053

G1X95.8980Y-40.3741

G1X121.3597Y-44.6691

G1X136.7168Y-38.8595

G1X160.4228Y-41.3989

G1X176.3367Y-36.1461

G1 Z0F20000

(Start Block)


G1X31.9413Y-40.9758
G1Z5F20000
(Plotting speed under)
G1 F4000


G1X53.5646Y-41.4325

G1X72.1726Y-38.8738

G1X95.6892Y-41.2237

G1X121.3435Y-45.7113

G1X137.0947Y-40.2957

G1X160.2071Y-42.2415

G1X176.8636Y-37.7313

G1 Z0F20000

(Start Block)


G1X31.5170Y-41.6099
G1Z5F20000
(Plotting speed under)
G1 F4000


G1X53.7427Y-42.6689

G1X72.1827Y-39.9422

G1X95.4805Y-42.0733

G1X121.3273Y-46.7535

G1X137.4725Y-41.7319

G1X159.9914Y-43.0841

G1X177.3905Y-39.3166

G1 Z0F20000

(Start Block)


G1X31.0928Y-42.2440
G1Z5F20000
(Plotting speed under)
G1 F4000


G1X53.9208Y-43.9053

G1X72.1928Y-41.0107

G1X95.2717Y-42.9228

G1X121.3112Y-47.7957

G1X137.8504Y-43.1681

G1X159.7756Y-43.9267

G1X177.9175Y-40.9018

G1 Z0F20000

(Start Block)


G1X30.6685Y-42.8780
G1Z5F20000
(Plotting speed under)
G1 F4000


G1X54.0989Y-45.1417

G1X72.2029Y-42.0791

G1X95.0629Y-43.7724

G1X121.2951Y-48.8378

G1X138.2283Y-44.6043

G1X159.5599Y-44.7693

G1X178.4444Y-42.4871

G1 Z0F20000

(Start Block)


G1X30.2442Y-43.5121
G1Z5F20000
(Plotting speed under)
G1 F4000


G1X54.2770Y-46.3781

G1X72.2130Y-43.1475

G1X94.8542Y-44.6220

G1X121.2789Y-49.8800

G1X138.6061Y-46.0405

G1X159.3441Y-45.6119

G1X178.9713Y-44.0723

G1 Z0F20000

(Start Block)


G1X29.8200Y-44.1462
G1Z5F20000
(Plotting speed under)
G1 F4000


G1X54.4550Y-47.6145

G1X72.2231Y-44.2160

G1X94.6454Y-45.4716

G1X121.2628Y-50.9222

G1X138.9840Y-47.4767

G1X159.1284Y-46.4545

G1X179.4982Y-45.6576

G1 Z0F20000

(Start Block)


G1X29.3958Y-44.7803
G1Z5F20000
(Plotting speed under)
G1 F4000


G1X54.6331Y-48.8510

G1X72.2332Y-45.2844

G1X94.4366Y-46.3211

G1X121.2466Y-51.9644

G1X139.3619Y-48.9129

G1X158.9126Y-47.2970

G1X180.0251Y-47.2428

G1 Z0F20000

(Start Block)


G1X28.9715Y-45.4144
G1Z5F20000
(Plotting speed under)
G1 F4000


G1X54.8112Y-50.0874

G1X72.2434Y-46.3529

G1X94.2279Y-47.1707

G1X121.2305Y-53.0066

G1X139.7397Y-50.3492

G1X158.6969Y-48.1396

G1X180.5520Y-48.8281

G1 Z0F20000

(Start Block)


G1X28.5473Y-46.0485
G1Z5F20000
(Plotting speed under)
G1 F4000


G1X54.9893Y-51.3238

G1X72.2535Y-47.4213

G1X94.0191Y-48.0202

G1X121.2143Y-54.0487

G1X140.1176Y-51.7853

G1X158.4812Y-48.9822

G1X181.0789Y-50.4133

G1 Z0F20000

(Start Block)


G1X28.1230Y-46.6825
G1Z5F20000
(Plotting speed under)
G1 F4000


G1X55.1674Y-52.5602

G1X72.2636Y-48.4897

G1X93.8103Y-48.8698

G1X121.1981Y-55.0909

G1X140.4954Y-53.2215

G1X158.2654Y-49.8248

G1X181.6059Y-51.9986

G1 Z0F20000

(Start Block)


G1X27.6988Y-47.3166
G1Z5F20000
(Plotting speed under)
G1 F4000


G1X55.3455Y-53.7966

G1X72.2737Y-49.5582

G1X93.6016Y-49.7194

G1X121.1820Y-56.1331

G1X140.8733Y-54.6577

G1X158.0497Y-50.6674

G1X182.1328Y-53.5838

G1 Z0F20000

(Start Block)


G1X27.2745Y-47.9507
G1Z5F20000
(Plotting speed under)
G1 F4000


G1X55.5236Y-55.0331

G1X72.2838Y-50.6266

G1X93.3928Y-50.5689

G1X121.1658Y-57.1753

G1X141.2512Y-56.0939

G1X157.8339Y-51.5100

G1X182.6597Y-55.1691

G1 Z0F20000

(Start Block)


G1X26.8503Y-48.5848
G1Z5F20000
(Plotting speed under)
G1 F4000


G1X55.7016Y-56.2695

G1X72.2939Y-51.6951

G1X93.1841Y-51.4185

G1X121.1497Y-58.2175

G1X141.6290Y-57.5301

G1X157.6182Y-52.3526

G1X183.1866Y-56.7543

G1 Z0F20000

(Start Block)


G1X26.4260Y-49.2189
G1Z5F20000
(Plotting speed under)
G1 F4000


G1X55.8797Y-57.5059

G1X72.3040Y-52.7635

G1X92.9753Y-52.2681

G1X121.1335Y-59.2597

G1X142.0069Y-58.9663

G1X157.4025Y-53.1952

G1X183.7135Y-58.3396

G1 Z0F20000

(Start Block)


G1X26.0018Y-49.8530
G1Z5F20000
(Plotting speed under)
G1 F4000


G1X56.0578Y-58.7423

G1X72.3141Y-53.8320

G1X92.7665Y-53.1176

G1X121.1174Y-60.3019

G1X142.3848Y-60.4025

G1X157.1867Y-54.0378

G1X184.2404Y-59.9248

G1 Z0F20000

(Start Block)


G1X25.5775Y-50.4871
G1Z5F20000
(Plotting speed under)
G1 F4000


G1X56.2359Y-59.9787

G1X72.3242Y-54.9004

G1X92.5578Y-53.9672

G1X121.1012Y-61.3440

G1X142.7626Y-61.8387

G1X156.9710Y-54.8804

G1X184.7673Y-61.5100

G1 Z0F20000

(Start Block)


G1X25.1533Y-51.1211
G1Z5F20000
(Plotting speed under)
G1 F4000


G1X56.4140Y-61.2151

G1X72.3343Y-55.9689

G1X92.3490Y-54.8168

G1X121.0851Y-62.3862

G1X143.1405Y-63.2749

G1X156.7552Y-55.7230

G1X185.2943Y-63.0953

G1 Z0F20000

(Start Block)


G1X24.7290Y-51.7552
G1Z5F20000
(Plotting speed under)
G1 F4000


G1X56.5921Y-62.4516

G1X72.3445Y-57.0373

G1X92.1402Y-55.6664

G1X121.0689Y-63.4284

G1X143.5184Y-64.7111

G1X156.5395Y-56.5656

G1X185.8212Y-64.6806

G1 Z0F20000

(Start Block)


G1X25.1347Y-53.2192
G1Z5F20000
(Plotting speed under)
G1 F4000


G1X56.0244Y-62.9423

G1X72.7443Y-58.4954

G1X92.3546Y-56.9391

G1X120.8110Y-64.2288

G1X142.9684Y-65.2195

G1X156.7792Y-57.8636

G1X185.6848Y-65.6025

G1 Z0F20000

(Start Block)


G1X25.5404Y-54.6833
G1Z5F20000
(Plotting speed under)
G1 F4000


G1X55.4568Y-63.4330

G1X73.1441Y-59.9536

G1X92.5689Y-58.2117

G1X120.5530Y-65.0292

G1X142.4185Y-65.7280

G1X157.0189Y-59.1616

G1X185.5484Y-66.5244

G1 Z0F20000

(Start Block)


G1X25.9461Y-56.1473
G1Z5F20000
(Plotting speed under)
G1 F4000


G1X54.8892Y-63.9237

G1X73.5439Y-61.4118

G1X92.7833Y-59.4844

G1X120.2951Y-65.8296

G1X141.8686Y-66.2364

G1X157.2586Y-60.4597

G1X185.4120Y-67.4463

G1 Z0F20000

(Start Block)


G1X26.3518Y-57.6114
G1Z5F20000
(Plotting speed under)
G1 F4000


G1X54.3215Y-64.4144

G1X73.9438Y-62.8699

G1X92.9977Y-60.7571

G1X120.0372Y-66.6300

G1X141.3187Y-66.7448

G1X157.4983Y-61.7577

G1X185.2755Y-68.3683

G1 Z0F20000

(Start Block)


G1X26.7575Y-59.0754
G1Z5F20000
(Plotting speed under)
G1 F4000


G1X53.7539Y-64.9051

G1X74.3436Y-64.3281

G1X93.2120Y-62.0298

G1X119.7792Y-67.4303

G1X140.7688Y-67.2532

G1X157.7380Y-63.0558

G1X185.1391Y-69.2902

G1 Z0F20000

(Start Block)


G1X27.1632Y-60.5394
G1Z5F20000
(Plotting speed under)
G1 F4000


G1X53.1863Y-65.3958

G1X74.7434Y-65.7862

G1X93.4264Y-63.3025

G1X119.5213Y-68.2307

G1X140.2188Y-67.7616

G1X157.9777Y-64.3538

G1X185.0027Y-70.2121

G1 Z0F20000

(Start Block)


G1X27.5689Y-62.0035
G1Z5F20000
(Plotting speed under)
G1 F4000


G1X52.6186Y-65.8865

G1X75.1432Y-67.2444

G1X93.6407Y-64.5752

G1X119.2633Y-69.0311

G1X139.6689Y-68.2700

G1X158.2174Y-65.6518

G1X184.8663Y-71.1340

G1 Z0F20000

(Start Block)


G1X27.9746Y-63.4675
G1Z5F20000
(Plotting speed under)
G1 F4000


G1X52.0510Y-66.3772

G1X75.5431Y-68.7026

G1X93.8551Y-65.8479

G1X119.0054Y-69.8315

G1X139.1190Y-68.7784

G1X158.4571Y-66.9499

G1X184.7299Y-72.0559

G1 Z0F20000

(Start Block)


G1X28.3803Y-64.9315
G1Z5F20000
(Plotting speed under)
G1 F4000


G1X51.4834Y-66.8679

G1X75.9429Y-70.1607

G1X94.0694Y-67.1206

G1X118.7474Y-70.6319

G1X138.5691Y-69.2868

G1X158.6969Y-68.2479

G1X184.5935Y-72.9779

G1 Z0F20000

(Start Block)


G1X28.7860Y-66.3956
G1Z5F20000
(Plotting speed under)
G1 F4000


G1X50.9158Y-67.3586

G1X76.3427Y-71.6189

G1X94.2838Y-68.3933

G1X118.4895Y-71.4323

G1X138.0192Y-69.7952

G1X158.9366Y-69.5460

G1X184.4571Y-73.8998

G1 Z0F20000

(Start Block)


G1X29.1917Y-67.8596
G1Z5F20000
(Plotting speed under)
G1 F4000


G1X50.3481Y-67.8493

G1X76.7425Y-73.0770

G1X94.4982Y-69.6659

G1X118.2316Y-72.2327

G1X137.4692Y-70.3037

G1X159.1763Y-70.8440

G1X184.3207Y-74.8217

G1 Z0F20000

(Start Block)


G1X29.5974Y-69.3236
G1Z5F20000
(Plotting speed under)
G1 F4000


G1X49.7805Y-68.3400

G1X77.1424Y-74.5352

G1X94.7125Y-70.9386

G1X117.9736Y-73.0331

G1X136.9193Y-70.8121

G1X159.4160Y-72.1420

G1X184.1843Y-75.7437

G1 Z0F20000

(Start Block)


G1X30.0032Y-70.7877
G1Z5F20000
(Plotting speed under)
G1 F4000


G1X49.2129Y-68.8307

G1X77.5422Y-75.9934

G1X94.9269Y-72.2113

G1X117.7157Y-73.8335

G1X136.3694Y-71.3205

G1X159.6557Y-73.4401

G1X184.0479Y-76.6656

G1 Z0F20000

(Start Block)


G1X30.4088Y-72.2517
G1Z5F20000
(Plotting speed under)
G1 F4000


G1X48.6453Y-69.3215

G1X77.9420Y-77.4515

G1X95.1412Y-73.4840

G1X117.4577Y-74.6339

G1X135.8195Y-71.8289

G1X183.9114Y-77.5875

G1 Z0F20000

(Start Block)


G1X30.8146Y-73.7158
G1Z5F20000
(Plotting speed under)
G1 F4000


G1X48.0776Y-69.8121

G1X78.3418Y-78.9097

G1X95.3556Y-74.7568

G1X117.1998Y-75.4343

G1X135.2695Y-72.3373

G1X160.1351Y-76.0362

G1X183.7750Y-78.5095

G1 Z0F20000

(Start Block)


G1X31.2202Y-75.1798
G1Z5F20000
(Plotting speed under)
G1 F4000


G1X47.5100Y-70.3029

G1X78.7417Y-80.3679

G1X95.5699Y-76.0294

G1X116.9418Y-76.2347

G1X134.7196Y-72.8457

G1X160.3748Y-77.3343

G1X183.6386Y-79.4314

G1 Z0F20000

(Start Block)


G1X31.6260Y-76.6439
G1Z5F20000
(Plotting speed under)
G1 F4000


G1X46.9424Y-70.7936

G1X79.1415Y-81.8260

G1X95.7843Y-77.3021

G1X116.6839Y-77.0351

G1X134.1697Y-73.3541

G1X160.6145Y-78.6323

G1X183.5022Y-80.3533

G1 Z0F20000

(Start Block)


G1X32.0317Y-78.1079
G1Z5F20000
(Plotting speed under)
G1 F4000


G1X46.3747Y-71.2843

G1X79.5413Y-83.2842

G1X95.9987Y-78.5748

G1X116.4260Y-77.8355

G1X133.6198Y-73.8626

G1X160.8542Y-79.9303

G1X183.3658Y-81.2752

G1 Z0F20000

(Start Block)


G1X32.4374Y-79.5719
G1Z5F20000
(Plotting speed under)
G1 F4000


G1X45.8071Y-71.7750

G1X79.9411Y-84.7424

G1X96.2130Y-79.8475

G1X116.1680Y-78.6358

G1X133.0699Y-74.3710

G1X161.0939Y-81.2284

G1X183.2294Y-82.1971

G1 Z0F20000

(Start Block)


G1X32.8431Y-81.0360
G1Z5F20000
(Plotting speed under)
G1 F4000


G1X45.2395Y-72.2657

G1X80.3410Y-86.2005

G1X96.4274Y-81.1202

G1X115.9101Y-79.4362

G1X132.5199Y-74.8794

G1X161.3336Y-82.5264

G1X183.0930Y-83.1191

G1 Z0F20000

(Start Block)


G1X32.8351Y-82.0864
G1Z5F20000
(Plotting speed under)
G1 F4000


G1X45.6705Y-73.7550

G1X80.0729Y-86.9908

G1X96.2185Y-81.9697

G1X116.0456Y-80.6301

G1X132.7654Y-76.1832

G1X161.0629Y-83.3140

G1X182.7264Y-83.8108

G1 Z0F20000

(Start Block)


G1X32.8272Y-83.1368
G1Z5F20000
(Plotting speed under)
G1 F4000


G1X46.1014Y-75.2444

G1X79.8048Y-87.7810

G1X96.0096Y-82.8191

G1X116.1812Y-81.8240

G1X133.0108Y-77.4869

G1X160.7922Y-84.1016

G1X182.3598Y-84.5026

G1 Z0F20000

(Start Block)


G1X32.8193Y-84.1872
G1Z5F20000
(Plotting speed under)
G1 F4000


G1X46.5325Y-76.7337

G1X79.5368Y-88.5713

G1X95.8007Y-83.6686

G1X116.3167Y-83.0179

G1X133.2562Y-78.7907

G1X160.5214Y-84.8892

G1X181.9933Y-85.1944

G1 Z0F20000

(Start Block)


G1X32.8114Y-85.2376
G1Z5F20000
(Plotting speed under)
G1 F4000


G1X46.9634Y-78.2230

G1X79.2687Y-89.3615

G1X95.5918Y-84.5180

G1X116.4523Y-84.2118

G1X133.5016Y-80.0944

G1X160.2507Y-85.6768

G1X181.6267Y-85.8861

G1 Z0F20000

(Start Block)


G1X32.8034Y-86.2880
G1Z5F20000
(Plotting speed under)
G1 F4000


G1X47.3944Y-79.7123

G1X79.0006Y-90.1518

G1X95.3830Y-85.3675

G1X116.5879Y-85.4057

G1X133.7471Y-81.3982

G1X159.9799Y-86.4644

G1X181.2601Y-86.5779

G1 Z0F20000

(Start Block)


G1X32.7955Y-87.3384
G1Z5F20000
(Plotting speed under)
G1 F4000


G1X47.8254Y-81.2016

G1X78.7325Y-90.9420

G1X95.1741Y-86.2169

G1X116.7234Y-86.5996

G1X133.9925Y-82.7019

G1X159.7092Y-87.2520

G1X180.8936Y-87.2697

G1 Z0F20000

(Start Block)


G1X32.7876Y-88.3888
G1Z5F20000
(Plotting speed under)
G1 F4000


G1X48.2564Y-82.6910

G1X78.4644Y-91.7323

G1X94.9652Y-87.0664

G1X116.8590Y-87.7935

G1X134.2379Y-84.0057

G1X159.4385Y-88.0396

G1X180.5270Y-87.9614

G1 Z0F20000

(Start Block)


G1X32.7797Y-89.4392
G1Z5F20000
(Plotting speed under)
G1 F4000


G1X48.6874Y-84.1803

G1X78.1963Y-92.5225

G1X94.7563Y-87.9158

G1X116.9945Y-88.9874

G1X134.4833Y-85.3094

G1X159.1678Y-88.8272

G1X180.1604Y-88.6532

G1 Z0F20000

(Start Block)


G1X32.7717Y-90.4896
G1Z5F20000
(Plotting speed under)
G1 F4000


G1X49.1184Y-85.6696

G1X77.9283Y-93.3128

G1X94.5474Y-88.7653

G1X117.1301Y-90.1812

G1X134.7287Y-86.6132

G1X158.8970Y-89.6148

G1X179.7939Y-89.3449

G1 Z0F20000

(Start Block)


G1X32.7638Y-91.5401
G1Z5F20000
(Plotting speed under)
G1 F4000


G1X49.5494Y-87.1589

G1X77.6602Y-94.1031

G1X94.3385Y-89.6147

G1X117.2656Y-91.3751

G1X134.9741Y-87.9170

G1X158.6263Y-90.4024

G1X179.4273Y-90.0367

G1 Z0F20000

(Start Block)


G1X32.7559Y-92.5905
G1Z5F20000
(Plotting speed under)
G1 F4000


G1X49.9803Y-88.6482

G1X77.3921Y-94.8933

G1X94.1296Y-90.4642

G1X117.4012Y-92.5690

G1X135.2196Y-89.2207

G1X158.3555Y-91.1900

G1X179.0607Y-90.7285

G1 Z0F20000

(Start Block)


G1X32.7480Y-93.6409
G1Z5F20000
(Plotting speed under)
G1 F4000


G1X50.4113Y-90.1376

G1X77.1240Y-95.6836

G1X93.9208Y-91.3136

G1X117.5367Y-93.7629

G1X135.4650Y-90.5245

G1X158.0848Y-91.9776

G1X178.6942Y-91.4202

G1 Z0F20000

(Start Block)


G1X32.7400Y-94.6913
G1Z5F20000
(Plotting speed under)
G1 F4000


G1X50.8423Y-91.6269

G1X76.8559Y-96.4738

G1X93.7119Y-92.1631

G1X117.6723Y-94.9568

G1X135.7104Y-91.8282

G1X157.8141Y-92.7652

G1X178.3276Y-92.1120

G1 Z0F20000

(Start Block)


G1X32.7321Y-95.7417
G1Z5F20000
(Plotting speed under)
G1 F4000


G1X51.2733Y-93.1162

G1X76.5879Y-97.2641

G1X93.5030Y-93.0125

G1X117.8079Y-96.1507

G1X135.9558Y-93.1320

G1X157.5433Y-93.5528

G1X177.9610Y-92.8038

G1 Z0F20000

(Start Block)


G1X32.7242Y-96.7921
G1Z5F20000
(Plotting speed under)
G1 F4000


G1X51.7043Y-94.6055

G1X76.3198Y-98.0543

G1X93.2941Y-93.8619

G1X117.9434Y-97.3446

G1X136.2013Y-94.4357

G1X157.2726Y-94.3404

G1X177.5944Y-93.4955

G1 Z0F20000

(Start Block)


G1X32.7162Y-97.8425
G1Z5F20000
(Plotting speed under)
G1 F4000


G1X52.1353Y-96.0949

G1X76.0517Y-98.8446

G1X93.0852Y-94.7114

G1X118.0790Y-98.5385

G1X136.4467Y-95.7395

G1X157.0019Y-95.1280

G1X177.2279Y-94.1873

G1 Z0F20000

(Start Block)


G1X32.7083Y-98.8929
G1Z5F20000
(Plotting speed under)
G1 F4000


G1X52.5663Y-97.5842

G1X75.7836Y-99.6348

G1X92.8763Y-95.5609

G1X118.2145Y-99.7324

G1X136.6921Y-97.0432

G1X176.8613Y-94.8791

G1 Z0F20000

(Start Block)


G1X32.7004Y-99.9433
G1Z5F20000
(Plotting speed under)
G1 F4000


G1X52.9973Y-99.0735

G1X75.5156Y-100.4251

G1X92.6675Y-96.4103

G1X118.3501Y-100.9263

G1X136.9375Y-98.3470

G1X156.4604Y-96.7032

G1X176.4947Y-95.5708

G1 Z0F20000

(Start Block)


G1X32.6925Y-100.9937
G1Z5F20000
(Plotting speed under)
G1 F4000


G1X53.4282Y-100.5628

G1X75.2475Y-101.2154

G1X92.4586Y-97.2597

G1X118.4856Y-102.1201

G1X137.1829Y-99.6507

G1X156.1897Y-97.4908

G1X176.1282Y-96.2626

G1 Z0F20000

(Start Block)


G1X32.6846Y-102.0441
G1Z5F20000
(Plotting speed under)
G1 F4000


G1X74.9794Y-102.0056

G1X92.2497Y-98.1092

G1X118.6212Y-103.3140

G1X137.4284Y-100.9545

G1X155.9189Y-98.2784

G1X175.7616Y-96.9543

G1 Z0F20000

(Start Block)


G1X32.6783Y-103.0962
G1Z5F20000
(Plotting speed under)
G1 F4000


G1X74.7511Y-102.8356

G1X92.5646Y-99.4824

G1X118.3062Y-104.0574

G1X137.5643Y-102.1488

G1X156.0382Y-99.4560

G1X175.7032Y-97.9543

G1 Z0F20000

(Start Block)


G1X32.6720Y-104.1482
G1Z5F20000
(Plotting speed under)
G1 F4000


G1X74.5227Y-103.6656

G1X92.8794Y-100.8556

G1X117.9913Y-104.8008

G1X137.7002Y-103.3431

G1X156.1575Y-100.6337

G1X175.6447Y-98.9542

G1 Z0F20000

(Start Block)


G1X32.6657Y-105.2003
G1Z5F20000
(Plotting speed under)
G1 F4000


G1X53.3924Y-104.7603

G1X74.2944Y-104.4956

G1X93.1943Y-102.2288

G1X117.6763Y-105.5441

G1X137.8362Y-104.5373

G1X156.2768Y-101.8113

G1X175.5863Y-99.9541

G1 Z0F20000

(Start Block)


G1X32.6594Y-106.2523
G1Z5F20000
(Plotting speed under)
G1 F4000


G1X53.2368Y-105.6631

G1X74.0661Y-105.3256

G1X93.5092Y-103.6021

G1X117.3613Y-106.2875

G1X137.9721Y-105.7316

G1X156.3961Y-102.9889

G1X175.5279Y-100.9540

G1 Z0F20000

(Start Block)


G1X32.6531Y-107.3044
G1Z5F20000
(Plotting speed under)
G1 F4000


G1X53.0812Y-106.5658

G1X73.8378Y-106.1556

G1X93.8241Y-104.9753

G1X117.0464Y-107.0309

G1X138.1081Y-106.9259

G1X156.5154Y-104.1665

G1X175.4695Y-101.9539

G1 Z0F20000

(Start Block)


G1X32.6468Y-108.3564
G1Z5F20000
(Plotting speed under)
G1 F4000


G1X52.9256Y-107.4685

G1X73.6095Y-106.9857

G1X94.1390Y-106.3485

G1X116.7314Y-107.7742

G1X138.2440Y-108.1202

G1X156.6347Y-105.3442

G1X175.4110Y-102.9538

G1 Z0F20000

(Start Block)


G1X32.6405Y-109.4084
G1Z5F20000
(Plotting speed under)
G1 F4000


G1X52.7700Y-108.3713

G1X73.3811Y-107.8156

G1X94.4539Y-107.7217

G1X138.3800Y-109.3144

G1X156.7540Y-106.5218

G1X175.3526Y-103.9537

G1 Z0F20000

(Start Block)


G1X32.6342Y-110.4605
G1Z5F20000
(Plotting speed under)
G1 F4000


G1X52.6144Y-109.2740

G1X73.1528Y-108.6456

G1X94.7687Y-109.0949

G1X116.1015Y-109.2610

G1X138.5159Y-110.5087

G1X175.2942Y-104.9536

G1 Z0F20000

(Start Block)


G1X32.6280Y-111.5125
G1Z5F20000
(Plotting speed under)
G1 F4000


G1X52.4588Y-110.1767

G1X72.9244Y-109.4757

G1X95.0836Y-110.4682

G1X115.7865Y-110.0043

G1X138.6519Y-111.7030

G1X156.9926Y-108.8771

G1X175.2358Y-105.9535

G1 Z0F20000

(Start Block)


G1X32.6217Y-112.5646
G1Z5F20000
(Plotting speed under)
G1 F4000


G1X52.3032Y-111.0795

G1X72.6961Y-110.3057

G1X95.3985Y-111.8414

G1X115.4715Y-110.7477

G1X138.7878Y-112.8973

G1X157.1119Y-110.0547

G1X175.1773Y-106.9534

G1 Z0F20000

(Start Block)


G1X32.6154Y-113.6166
G1Z5F20000
(Plotting speed under)
G1 F4000


G1X52.1476Y-111.9822

G1X72.4678Y-111.1357

G1X95.7134Y-113.2146

G1X115.1565Y-111.4911

G1X138.9238Y-114.0916

G1X157.2312Y-111.2323

G1X175.1189Y-107.9533

G1 Z0F20000

(Start Block)


G1X32.6091Y-114.6687
G1Z5F20000
(Plotting speed under)
G1 F4000


G1X51.9920Y-112.8849

G1X72.2395Y-111.9657

G1X96.0283Y-114.5878

G1X114.8416Y-112.2344

G1X139.0597Y-115.2858

G1X157.3505Y-112.4100

G1X175.0605Y-108.9532

G1 Z0F20000

(Start Block)


G1X32.6028Y-115.7207
G1Z5F20000
(Plotting speed under)
G1 F4000


G1X51.8364Y-113.7877

G1X72.0111Y-112.7957

G1X96.3432Y-115.9610

G1X114.5266Y-112.9778

G1X139.1956Y-116.4801

G1X157.4698Y-113.5876

G1X175.0020Y-109.9531

G1 Z0F20000

(Start Block)


G1X32.5965Y-116.7728
G1Z5F20000
(Plotting speed under)
G1 F4000


G1X51.6808Y-114.6904

G1X71.7828Y-113.6257

G1X96.6580Y-117.3342

G1X114.2116Y-113.7212

G1X139.3316Y-117.6744

G1X157.5891Y-114.7652

G1X174.9436Y-110.9531

G1 Z0F20000

(Start Block)


G1X32.5902Y-117.8248
G1Z5F20000
(Plotting speed under)
G1 F4000


G1X51.5252Y-115.5931

G1X71.5545Y-114.4557

G1X96.9729Y-118.7074

G1X113.8967Y-114.4645

G1X139.4675Y-118.8687

G1X157.7084Y-115.9428

G1X174.8852Y-111.9529

G1 Z0F20000

(Start Block)


G1X32.5839Y-118.8768
G1Z5F20000
(Plotting speed under)
G1 F4000


G1X51.3696Y-116.4959

G1X71.3261Y-115.2857

G1X97.2878Y-120.0807

G1X113.5817Y-115.2079

G1X139.6035Y-120.0630

G1X157.8277Y-117.1205

G1X174.8268Y-112.9529

G1 Z0F20000

(Start Block)


G1X32.5776Y-119.9289
G1Z5F20000
(Plotting speed under)
G1 F4000


G1X51.2140Y-117.3986

G1X71.0978Y-116.1157

G1X97.6027Y-121.4539

G1X113.2667Y-115.9512

G1X139.7394Y-121.2572

G1X157.9470Y-118.2981

G1X174.7683Y-113.9528

G1 Z0F20000

(Start Block)


G1X32.5713Y-120.9809
G1Z5F20000
(Plotting speed under)
G1 F4000


G1X51.0584Y-118.3013

G1X70.8695Y-116.9457

G1X97.9176Y-122.8271

G1X112.9517Y-116.6946

G1X139.8754Y-122.4515

G1X158.0663Y-119.4757

G1X174.7099Y-114.9527

G1 Z0F20000

(Start Block)


G1X32.5650Y-122.0330
G1Z5F20000
(Plotting speed under)
G1 F4000


G1X50.9028Y-119.2041

G1X70.6412Y-117.7757

G1X98.2324Y-124.2003

G1X112.6368Y-117.4380

G1X140.0113Y-123.6458

G1X158.1856Y-120.6534

G1X174.6515Y-115.9526

G1 Z0F20000

(Start Block)


G1X32.5587Y-123.0850
G1Z5F20000
(Plotting speed under)
G1 F4000


G1X50.7472Y-120.1068

G1X70.4129Y-118.6058

G1X98.5473Y-125.5735

G1X112.3218Y-118.1813

G1X140.1472Y-124.8401

G1X158.3048Y-121.8310

G1X174.5931Y-116.9525

G1 Z0F20000

(Start Block)


G1X32.7750Y-124.3597
G1Z5F20000
(Plotting speed under)
G1 F4000


G1X50.7692Y-121.1871

G1X70.7703Y-120.0215

G1X98.7649Y-126.8494

G1X112.5860Y-119.5038

G1X139.7012Y-125.4524

G1X157.9271Y-122.5116

G1X174.6272Y-118.0450

G1 Z0F20000

(Start Block)


G1X32.9914Y-125.6343
G1Z5F20000
(Plotting speed under)
G1 F4000


G1X50.7912Y-122.2674

G1X71.1277Y-121.4373

G1X98.9824Y-128.1253

G1X112.8501Y-120.8263

G1X139.2552Y-126.0647

G1X157.5494Y-123.1922

G1X174.6613Y-119.1374

G1 Z0F20000

(Start Block)


G1X33.2077Y-126.9089
G1Z5F20000
(Plotting speed under)
G1 F4000


G1X50.8132Y-123.3478

G1X71.4852Y-122.8531

G1X99.2000Y-129.4012

G1X113.1143Y-122.1488

G1X138.8091Y-126.6770

G1X157.1717Y-123.8728

G1X174.6955Y-120.2299

G1 Z0F20000

(Start Block)


G1X33.4240Y-128.1836
G1Z5F20000
(Plotting speed under)
G1 F4000


G1X50.8352Y-124.4281

G1X71.8426Y-124.2689

G1X99.4175Y-130.6771

G1X113.3784Y-123.4713

G1X138.3631Y-127.2893

G1X156.7939Y-124.5534

G1X174.7297Y-121.3224

G1 Z0F20000

(Start Block)


G1X33.6403Y-129.4582
G1Z5F20000
(Plotting speed under)
G1 F4000


G1X50.8572Y-125.5085

G1X72.2001Y-125.6847

G1X99.6351Y-131.9530

G1X113.6425Y-124.7937

G1X137.9170Y-127.9015

G1X156.4162Y-125.2340

G1X174.7638Y-122.4149

G1 Z0F20000

(Start Block)


G1X33.8566Y-130.7328
G1Z5F20000
(Plotting speed under)
G1 F4000


G1X50.8792Y-126.5888

G1X72.5575Y-127.1005

G1X99.8526Y-133.2289

G1X113.9067Y-126.1162

G1X137.4710Y-128.5138

G1X156.0384Y-125.9146

G1X174.7979Y-123.5074

G1 Z0F20000

(Start Block)


G1X34.0729Y-132.0075
G1Z5F20000
(Plotting speed under)
G1 F4000


G1X50.9012Y-127.6691

G1X72.9149Y-128.5162

G1X100.0702Y-134.5048

G1X114.1708Y-127.4387

G1X137.0249Y-129.1261

G1X155.6607Y-126.5952

G1X174.8321Y-124.5999

G1 Z0F20000

(Start Block)


G1X34.2892Y-133.2821
G1Z5F20000
(Plotting speed under)
G1 F4000


G1X50.9231Y-128.7494

G1X73.2724Y-129.9320

G1X100.2877Y-135.7806

G1X114.4349Y-128.7612

G1X136.5789Y-129.7384

G1X155.2830Y-127.2758

G1X174.8663Y-125.6924

G1 Z0F20000

(Start Block)


G1X34.5055Y-134.5568
G1Z5F20000
(Plotting speed under)
G1 F4000


G1X50.9451Y-129.8297

G1X73.6299Y-131.3478

G1X100.5053Y-137.0565

G1X114.6991Y-130.0837

G1X136.1328Y-130.3507

G1X154.9052Y-127.9564

G1X174.9004Y-126.7849

G1 Z0F20000

(Start Block)


G1X34.7218Y-135.8314
G1Z5F20000
(Plotting speed under)
G1 F4000


G1X50.9671Y-130.9101

G1X73.9873Y-132.7635

G1X100.7229Y-138.3324

G1X114.9632Y-131.4061

G1X135.6868Y-130.9630

G1X154.5275Y-128.6370

G1X174.9346Y-127.8773

G1 Z0F20000

(Start Block)


G1X34.9381Y-137.1060
G1Z5F20000
(Plotting speed under)
G1 F4000


G1X50.9891Y-131.9904

G1X74.3448Y-134.1793

G1X100.9404Y-139.6083

G1X115.2274Y-132.7286

G1X135.2407Y-131.5752

G1X154.1498Y-129.3176

G1X174.9687Y-128.9698

G1 Z0F20000

(Start Block)


G1X35.1544Y-138.3807
G1Z5F20000
(Plotting speed under)
G1 F4000


G1X51.0111Y-133.0707

G1X74.7022Y-135.5951

G1X101.1580Y-140.8842

G1X115.4915Y-134.0511

G1X134.7947Y-132.1875

G1X153.7720Y-129.9982

G1X175.0029Y-130.0623

G1 Z0F20000

(Start Block)


G1X35.3707Y-139.6553
G1Z5F20000
(Plotting speed under)
G1 F4000


G1X51.0331Y-134.1510

G1X75.0596Y-137.0109

G1X101.3755Y-142.1601

G1X115.7557Y-135.3736

G1X134.3486Y-132.7998

G1X153.3943Y-130.6788

G1X175.0370Y-131.1548

G1 Z0F20000

(Start Block)


G1X35.5870Y-140.9299
G1Z5F20000
(Plotting speed under)
G1 F4000


G1X51.0551Y-135.2314

G1X75.4171Y-138.4267

G1X101.5931Y-143.4360

G1X116.0198Y-136.6960

G1X133.9026Y-133.4121

G1X153.0166Y-131.3594

G1X175.0712Y-132.2473

G1 Z0F20000

(Start Block)


G1X35.8033Y-142.2046
G1Z5F20000
(Plotting speed under)
G1 F4000


G1X51.0771Y-136.3117

G1X75.7745Y-139.8424

G1X101.8106Y-144.7118

G1X116.2840Y-138.0185

G1X133.4565Y-134.0244

G1X152.6388Y-132.0400

G1X175.1053Y-133.3398

G1 Z0F20000

(Start Block)


G1X36.0196Y-143.4792
G1Z5F20000
(Plotting speed under)
G1 F4000


G1X51.0991Y-137.3920

G1X76.1320Y-141.2582

G1X102.0282Y-145.9877

G1X116.5481Y-139.3410

G1X133.0105Y-134.6367

G1X152.2611Y-132.7206

G1X175.1395Y-134.4323

G1 Z0F20000

(Start Block)


G1X36.2359Y-144.7538
G1Z5F20000
(Plotting speed under)
G1 F4000


G1X51.1211Y-138.4724

G1X76.4894Y-142.6740

G1X102.2457Y-147.2636

G1X116.8122Y-140.6635

G1X132.5644Y-135.2490

G1X151.8834Y-133.4012

G1X175.1736Y-135.5247

G1 Z0F20000

(Start Block)


G1X36.4522Y-146.0285
G1Z5F20000
(Plotting speed under)
G1 F4000


G1X51.1431Y-139.5527

G1X102.4633Y-148.5395

G1X117.0764Y-141.9859

G1X132.1184Y-135.8613

G1X151.5056Y-134.0818

G1X175.2078Y-136.6172

G1 Z0F20000

(Start Block)


G1X36.6685Y-147.3031
G1Z5F20000
(Plotting speed under)
G1 F4000


G1X51.1650Y-140.6330

G1X77.2043Y-145.5055

G1X102.6808Y-149.8154

G1X117.3405Y-143.3084

G1X131.6723Y-136.4735

G1X151.1279Y-134.7624

G1X175.2419Y-137.7097

G1 Z0F20000

(Start Block)


G1X36.8848Y-148.5778
G1Z5F20000
(Plotting speed under)
G1 F4000


G1X51.1870Y-141.7133

G1X77.5617Y-146.9213

G1X102.8984Y-151.0913

G1X117.6047Y-144.6309

G1X131.2263Y-137.0858

G1X150.7501Y-135.4430

G1X175.2761Y-138.8022

G1 Z0F20000

(Start Block)


G1X36.7691Y-149.5204
G1Z5F20000
(Plotting speed under)
G1 F4000


G1X51.4539Y-143.0386

G1X77.4215Y-147.8394

G1X102.6407Y-151.8920

G1X117.2449Y-145.3295

G1X131.5919Y-138.5098

G1X151.0893Y-136.8405

G1X175.2116Y-139.7961

G1 Z0F20000

(Start Block)


G1X36.6533Y-150.4630
G1Z5F20000
(Plotting speed under)
G1 F4000


G1X51.7208Y-144.3638

G1X77.2813Y-148.7576

G1X102.3831Y-152.6927

G1X116.8851Y-146.0280

G1X131.9576Y-139.9338

G1X151.4286Y-138.2381

G1X175.1472Y-140.7901

G1 Z0F20000

(Start Block)


G1X36.5376Y-151.4055
G1Z5F20000
(Plotting speed under)
G1 F4000


G1X51.9877Y-145.6890

G1X77.1411Y-149.6757

G1X102.1255Y-153.4934

G1X116.5254Y-146.7266

G1X132.3232Y-141.3577

G1X151.7678Y-139.6356

G1X175.0828Y-141.7840

G1 Z0F20000

(Start Block)


G1X36.4218Y-152.3481
G1Z5F20000
(Plotting speed under)
G1 F4000


G1X52.2547Y-147.0143

G1X77.0009Y-150.5938

G1X101.8679Y-154.2941

G1X116.1656Y-147.4251

G1X132.6889Y-142.7817

G1X152.1070Y-141.0332

G1X175.0184Y-142.7779

G1 Z0F20000

(Start Block)


G1X36.3061Y-153.2907
G1Z5F20000
(Plotting speed under)
G1 F4000


G1X52.5216Y-148.3395

G1X76.8607Y-151.5119

G1X101.6103Y-155.0948

G1X115.8058Y-148.1237

G1X133.0545Y-144.2057

G1X152.4462Y-142.4307

G1X174.9540Y-143.7718

G1 Z0F20000

(Start Block)


G1X36.1904Y-154.2334
G1Z5F20000
(Plotting speed under)
G1 F4000


G1X52.7885Y-149.6647

G1X76.7204Y-152.4300

G1X101.3526Y-155.8955

G1X115.4461Y-148.8223

G1X133.4201Y-145.6296

G1X152.7854Y-143.8282

G1X174.8896Y-144.7657

G1 Z0F20000

(Start Block)


G1X36.0747Y-155.1760
G1Z5F20000
(Plotting speed under)
G1 F4000


G1X53.0554Y-150.9900

G1X76.5802Y-153.3481

G1X101.0950Y-156.6963

G1X115.0863Y-149.5209

G1X133.7857Y-147.0536

G1X153.1246Y-145.2258

G1X174.8252Y-145.7597

G1 Z0F20000

(Start Block)


G1X35.9589Y-156.1186
G1Z5F20000
(Plotting speed under)
G1 F4000


G1X53.3223Y-152.3152

G1X76.4400Y-154.2662

G1X100.8374Y-157.4970

G1X114.7265Y-150.2194

G1X134.1514Y-148.4776

G1X153.4638Y-146.6233

G1X174.7608Y-146.7536

G1 Z0F20000

(Start Block)


G1X35.8432Y-157.0612
G1Z5F20000
(Plotting speed under)
G1 F4000


G1X53.5892Y-153.6405

G1X76.2998Y-155.1843

G1X100.5798Y-158.2977

G1X114.3668Y-150.9180

G1X134.5170Y-149.9015

G1X153.8030Y-148.0208

G1X174.6964Y-147.7475

G1 Z0F20000

(Start Block)


G1X35.7274Y-158.0037
G1Z5F20000
(Plotting speed under)
G1 F4000


G1X53.8561Y-154.9657

G1X76.1596Y-156.1025

G1X100.3221Y-159.0984

G1X114.0070Y-151.6165

G1X134.8826Y-151.3255

G1X154.1422Y-149.4184

G1X174.6319Y-148.7414

G1 Z0F20000

(Start Block)


G1X35.6117Y-158.9464
G1Z5F20000
(Plotting speed under)
G1 F4000


G1X54.1230Y-156.2909

G1X76.0193Y-157.0206

G1X100.0645Y-159.8991

G1X113.6472Y-152.3151

G1X135.2483Y-152.7495

G1X154.4814Y-150.8159

G1X174.5675Y-149.7354

G1 Z0F20000

(Start Block)


G1X35.4960Y-159.8890
G1Z5F20000
(Plotting speed under)
G1 F4000


G1X54.3899Y-157.6162

G1X75.8791Y-157.9387

G1X99.8069Y-160.6998

G1X113.2874Y-153.0137

G1X135.6139Y-154.1735

G1X154.8206Y-152.2135

G1X174.5031Y-150.7293

G1 Z0F20000

(Start Block)


G1X35.3803Y-160.8316
G1Z5F20000
(Plotting speed under)
G1 F4000


G1X54.6568Y-158.9414

G1X75.7389Y-158.8568

G1X99.5493Y-161.5005

G1X112.9277Y-153.7123

G1X135.9796Y-155.5974

G1X155.1598Y-153.6110

G1X174.4387Y-151.7232

G1 Z0F20000

(Start Block)


G1X35.2645Y-161.7742
G1Z5F20000
(Plotting speed under)
G1 F4000


G1X54.9237Y-160.2667

G1X75.5987Y-159.7749

G1X99.2917Y-162.3012

G1X112.5679Y-154.4108

G1X136.3452Y-157.0214

G1X155.4990Y-155.0085

G1X174.3743Y-152.7171

G1 Z0F20000

(Start Block)


G1X35.1488Y-162.7168
G1Z5F20000
(Plotting speed under)
G1 F4000


G1X55.1906Y-161.5919

G1X75.4585Y-160.6931

G1X99.0340Y-163.1020

G1X112.2082Y-155.1094

G1X136.7108Y-158.4453

G1X155.8382Y-156.4061

G1X174.3099Y-153.7110

G1 Z0F20000

(Start Block)


G1X35.0330Y-163.6594
G1Z5F20000
(Plotting speed under)
G1 F4000


G1X55.4575Y-162.9171

G1X75.3182Y-161.6112

G1X98.7764Y-163.9027

G1X111.8484Y-155.8079

G1X137.0765Y-159.8693

G1X156.1774Y-157.8036

G1X174.2455Y-154.7050

G1 Z0F20000

(Start Block)


G1X34.9173Y-164.6020
G1Z5F20000
(Plotting speed under)
G1 F4000


G1X55.7244Y-164.2424

G1X75.1780Y-162.5293

G1X98.5188Y-164.7034

G1X111.4886Y-156.5065

G1X137.4421Y-161.2933

G1X156.5166Y-159.2011

G1X174.1811Y-155.6989

G1 Z0F20000

(Start Block)


G1X34.8016Y-165.5446
G1Z5F20000
(Plotting speed under)
G1 F4000


G1X55.9913Y-165.5676

G1X75.0378Y-163.4474

G1X98.2612Y-165.5041

G1X111.1288Y-157.2051

G1X137.8077Y-162.7173

G1X156.8559Y-160.5987

G1X174.1167Y-156.6928

G1 Z0F20000

(Start Block)


G1X34.6859Y-166.4872
G1Z5F20000
(Plotting speed under)
G1 F4000


G1X56.2582Y-166.8929

G1X74.8976Y-164.3655

G1X98.0035Y-166.3048

G1X110.7691Y-157.9037

G1X138.1733Y-164.1412

G1X157.1950Y-161.9962

G1X174.0523Y-157.6868

G1 Z0F20000

(Start Block)


G1X34.5701Y-167.4298
G1Z5F20000
(Plotting speed under)
G1 F4000


G1X56.5251Y-168.2181

G1X74.7574Y-165.2836

G1X97.7459Y-167.1055

G1X110.4093Y-158.6022

G1X138.5390Y-165.5652

G1X157.5342Y-163.3938

G1X173.9878Y-158.6807

G1 Z0F20000

(Start Block)


G1X34.3700Y-168.2879
G1Z5F20000
(Plotting speed under)
G1 F4000


G1X56.4023Y-169.1536

G1X74.9542Y-166.5388

G1X97.4974Y-167.9154

G1X110.6769Y-159.9281

G1X138.5090Y-166.5936

G1X157.6467Y-164.5645

G1X174.2750Y-160.0262

G1 Z0F20000

(Start Block)


G1X34.1698Y-169.1462
G1Z5F20000
(Plotting speed under)
G1 F4000


G1X56.2794Y-170.0891

G1X75.1510Y-167.7939

G1X97.2490Y-168.7252

G1X110.9445Y-161.2540

G1X138.4790Y-167.6219

G1X157.7591Y-165.7353

G1X174.5622Y-161.3717

G1 Z0F20000

(Start Block)


G1X33.9697Y-170.0043
G1Z5F20000
(Plotting speed under)
G1 F4000


G1X56.1566Y-171.0246

G1X75.3478Y-169.0491

G1X97.0005Y-169.5351

G1X111.2120Y-162.5799

G1X138.4491Y-168.6503

G1X157.8716Y-166.9061

G1X174.8493Y-162.7171

G1 Z0F20000

(Start Block)


G1X33.7696Y-170.8625
G1Z5F20000
(Plotting speed under)
G1 F4000


G1X56.0338Y-171.9601

G1X75.5446Y-170.3042

G1X96.7520Y-170.3449

G1X111.4796Y-163.9058

G1X138.4191Y-169.6786

G1X157.9840Y-168.0769

G1X175.1365Y-164.0627

G1 Z0F20000

(Start Block)


G1X33.5694Y-171.7207
G1Z5F20000
(Plotting speed under)
G1 F4000


G1X55.9110Y-172.8956

G1X75.7414Y-171.5594

G1X96.5035Y-171.1548

G1X111.7472Y-165.2317

G1X138.3891Y-170.7070

G1X158.0965Y-169.2476

G1X175.4237Y-165.4081

G1 Z0F20000

(Start Block)


G1X33.3692Y-172.5789
G1Z5F20000
(Plotting speed under)
G1 F4000


G1X55.7881Y-173.8311

G1X75.9382Y-172.8145

G1X96.2551Y-171.9647

G1X112.0147Y-166.5577

G1X138.3592Y-171.7354

G1X158.2089Y-170.4184

G1X175.7108Y-166.7536

G1 Z0F20000

(Start Block)


G1X33.1691Y-173.4371
G1Z5F20000
(Plotting speed under)
G1 F4000


G1X55.6653Y-174.7666

G1X76.1351Y-174.0697

G1X96.0066Y-172.7745

G1X112.2823Y-167.8836

G1X138.3292Y-172.7637

G1X158.3213Y-171.5892

G1X175.9980Y-168.0991

G1 Z0F20000

(Start Block)


G1X32.9690Y-174.2953
G1Z5F20000
(Plotting speed under)
G1 F4000


G1X55.5425Y-175.7021

G1X76.3319Y-175.3248

G1X95.7581Y-173.5844

G1X112.5499Y-169.2095

G1X138.2992Y-173.7921

G1X158.4337Y-172.7600

G1X176.2851Y-169.4446

G1 Z0F20000

(Start Block)


G1X32.7688Y-175.1535
G1Z5F20000
(Plotting speed under)
G1 F4000


G1X55.4197Y-176.6376

G1X76.5287Y-176.5800

G1X95.5096Y-174.3942

G1X112.8175Y-170.5354

G1X138.2692Y-174.8205

G1X158.5462Y-173.9307

G1X176.5723Y-170.7901

G1 Z0F20000

(Start Block)


G1X32.5687Y-176.0117
G1Z5F20000
(Plotting speed under)
G1 F4000


G1X55.2968Y-177.5732

G1X76.7255Y-177.8351

G1X95.2612Y-175.2041

G1X113.0850Y-171.8613

G1X138.2393Y-175.8488

G1X158.6586Y-175.1015

G1X176.8595Y-172.1357

G1 Z0F20000

(Start Block)


G1X32.3685Y-176.8699
G1Z5F20000
(Plotting speed under)
G1 F4000


G1X55.1740Y-178.5087

G1X76.9223Y-179.0903

G1X95.0127Y-176.0139

G1X113.3526Y-173.1872

G1X138.2093Y-176.8772

G1X158.7711Y-176.2723

G1X177.1466Y-173.4811

G1 Z0F20000

(Start Block)


G1X32.1684Y-177.7280
G1Z5F20000
(Plotting speed under)
G1 F4000


G1X55.0512Y-179.4442

G1X77.1191Y-180.3454

G1X94.7642Y-176.8238

G1X113.6202Y-174.5131

G1X138.1793Y-177.9056

G1X158.8835Y-177.4431

G1X177.4338Y-174.8266

G1 Z0F20000

(Start Block)


G1X31.9682Y-178.5862
G1Z5F20000
(Plotting speed under)
G1 F4000


G1X54.9283Y-180.3797

G1X77.3159Y-181.6005

G1X94.5157Y-177.6337

G1X113.8878Y-175.8390

G1X138.1494Y-178.9339

G1X158.9960Y-178.6138

G1X177.7210Y-176.1721

G1 Z0F20000

(Start Block)


G1X31.7681Y-179.4444
G1Z5F20000
(Plotting speed under)
G1 F4000


G1X54.8055Y-181.3152

G1X77.5127Y-182.8557

G1X94.2673Y-178.4435

G1X114.1553Y-177.1649

G1X138.1194Y-179.9623

G1X159.1084Y-179.7846

G1X178.0081Y-177.5176

G1 Z0F20000

(Start Block)


G1X31.5679Y-180.3026
G1Z5F20000
(Plotting speed under)
G1 F4000


G1X77.7096Y-184.1109

G1X94.0188Y-179.2534

G1X114.4229Y-178.4908

G1X138.0894Y-180.9907

G1X159.2208Y-180.9554

G1X178.2953Y-178.8631

G1 Z0F20000

(Start Block)


G1X31.3678Y-181.1608
G1Z5F20000
(Plotting speed under)
G1 F4000


G1X54.5598Y-183.1862

G1X77.9064Y-185.3660

G1X93.7703Y-180.0632

G1X114.6905Y-179.8168

G1X138.0594Y-182.0190

G1X159.3333Y-182.1262

G1X178.5824Y-180.2086

G1 Z0F20000

(Start Block)


G1X31.1676Y-182.0190
G1Z5F20000
(Plotting speed under)
G1 F4000


G1X54.4370Y-184.1217

G1X78.1032Y-186.6212

G1X93.5218Y-180.8731

G1X114.9580Y-181.1427

G1X138.0295Y-183.0474

G1X159.4457Y-183.2969

G1X178.8696Y-181.5541

G1 Z0F20000

(Start Block)


G1X30.9675Y-182.8772
G1Z5F20000
(Plotting speed under)
G1 F4000


G1X54.3142Y-185.0572

G1X78.3000Y-187.8763

G1X93.2733Y-181.6830

G1X115.2256Y-182.4686

G1X137.9995Y-184.0757

G1X159.5582Y-184.4677

G1X179.1567Y-182.8996

G1 Z0F20000

(Start Block)


G1X30.7674Y-183.7354
G1Z5F20000
(Plotting speed under)
G1 F4000


G1X54.1914Y-185.9927

G1X78.4968Y-189.1314

G1X93.0249Y-182.4928

G1X137.9695Y-185.1041

G1X159.6706Y-185.6385

G1X179.4439Y-184.2451

G1 Z0F20000

(Start Block)


G1X30.5672Y-184.5935
G1Z5F20000
(Plotting speed under)
G1 F4000


G1X54.0685Y-186.9282

G1X78.6936Y-190.3866

G1X92.7764Y-183.3027

G1X115.7607Y-185.1204

G1X137.9395Y-186.1325

G1X159.7830Y-186.8092

G1X179.7311Y-185.5906

G1 Z0F20000

(Start Block)


G1X30.4696Y-185.5542
G1Z5F20000
(Plotting speed under)
G1 F4000


G1X54.1507Y-188.0687

G1X78.2870Y-191.0383

G1X92.7688Y-184.3535

G1X115.8927Y-186.3107

G1X137.8880Y-187.1393

G1X159.4614Y-187.5459

G1X179.6869Y-186.6048

G1 Z0F20000

(Start Block)


G1X30.3719Y-186.5149
G1Z5F20000
(Plotting speed under)
G1 F4000


G1X54.2328Y-189.2092

G1X77.8803Y-191.6900

G1X92.7613Y-185.4043

G1X116.0247Y-187.5009

G1X137.8365Y-188.1461

G1X159.1397Y-188.2826

G1X179.6428Y-187.6190

G1 Z0F20000

(Start Block)


G1X30.2743Y-187.4756
G1Z5F20000
(Plotting speed under)
G1 F4000


G1X54.3150Y-190.3497

G1X77.4737Y-192.3417

G1X92.7538Y-186.4551

G1X116.1566Y-188.6912

G1X137.7850Y-189.1529

G1X158.8181Y-189.0193

G1X179.5987Y-188.6332

G1 Z0F20000

(Start Block)


G1X30.1766Y-188.4363
G1Z5F20000
(Plotting speed under)
G1 F4000


G1X54.3971Y-191.4901

G1X77.0670Y-192.9933

G1X92.7462Y-187.5059

G1X116.2886Y-189.8815

G1X137.7335Y-190.1597

G1X158.4964Y-189.7560

G1X179.5546Y-189.6474

G1 Z0F20000

(Start Block)


G1X30.0790Y-189.3970
G1Z5F20000
(Plotting speed under)
G1 F4000


G1X54.4793Y-192.6306

G1X76.6604Y-193.6450

G1X92.7387Y-188.5567

G1X116.4205Y-191.0718

G1X137.6819Y-191.1665

G1X158.1747Y-190.4926

G1X179.5105Y-190.6617

G1 Z0F20000

(Start Block)


G1X29.9814Y-190.3577
G1Z5F20000
(Plotting speed under)
G1 F4000


G1X54.5615Y-193.7711

G1X76.2538Y-194.2967

G1X92.7312Y-189.6075

G1X116.5525Y-192.2621

G1X137.6304Y-192.1733

G1X157.8531Y-191.2293

G1X179.4663Y-191.6759

G1 Z0F20000

(Start Block)


G1X29.8837Y-191.3184
G1Z5F20000
(Plotting speed under)
G1 F4000


G1X54.6436Y-194.9116

G1X75.8471Y-194.9484

G1X92.7236Y-190.6583

G1X116.6844Y-193.4524

G1X137.5789Y-193.1801

G1X157.5314Y-191.9660

G1X179.4222Y-192.6901

G1 Z0F20000

(Start Block)


G1X29.7861Y-192.2791
G1Z5F20000
(Plotting speed under)
G1 F4000


G1X54.7258Y-196.0521

G1X75.4404Y-195.6001

G1X92.7161Y-191.7091

G1X116.8164Y-194.6427

G1X137.5274Y-194.1869

G1X157.2098Y-192.7027

G1X179.3781Y-193.7043

G1 Z0F20000

(Start Block)


G1X29.6884Y-193.2398
G1Z5F20000
(Plotting speed under)
G1 F4000


G1X54.8079Y-197.1926

G1X75.0338Y-196.2518

G1X92.7086Y-192.7599

G1X116.9484Y-195.8330

G1X137.4759Y-195.1938

G1X156.8881Y-193.4393

G1X179.3340Y-194.7185

G1 Z0F20000

(Start Block)


G1X29.5908Y-194.2005
G1Z5F20000
(Plotting speed under)
G1 F4000


G1X54.8901Y-198.3331

G1X74.6272Y-196.9035

G1X92.7010Y-193.8107

G1X117.0803Y-197.0232

G1X137.4243Y-196.2006

G1X156.5665Y-194.1760

G1X179.2898Y-195.7327

G1 Z0F20000

(Start Block)


G1X29.4931Y-195.1612
G1Z5F20000
(Plotting speed under)
G1 F4000


G1X54.9722Y-199.4736

G1X74.2205Y-197.5551

G1X92.6935Y-194.8614

G1X117.2123Y-198.2136

G1X137.3728Y-197.2074

G1X156.2448Y-194.9127

G1X179.2457Y-196.7469

G1 Z0F20000

(Start Block)


G1X29.3955Y-196.1219
G1Z5F20000
(Plotting speed under)
G1 F4000


G1X55.0544Y-200.6140

G1X73.8139Y-198.2068

G1X92.6860Y-195.9123

G1X117.3442Y-199.4038

G1X137.3213Y-198.2142

G1X155.9231Y-195.6494

G1X179.2016Y-197.7611

G1 Z0F20000

(Start Block)


G1X29.2979Y-197.0825
G1Z5F20000
(Plotting speed under)
G1 F4000


G1X55.1365Y-201.7545

G1X73.4072Y-198.8585

G1X92.6784Y-196.9631

G1X117.4762Y-200.5941

G1X137.2698Y-199.2210

G1X155.6015Y-196.3860

G1X179.1575Y-198.7753

G1 Z0F20000

(Start Block)


G1X29.2002Y-198.0432
G1Z5F20000
(Plotting speed under)
G1 F4000


G1X55.2187Y-202.8950

G1X73.0005Y-199.5102

G1X92.6709Y-198.0139

G1X117.6081Y-201.7844

G1X137.2183Y-200.2278

G1X155.2798Y-197.1227

G1X179.1133Y-199.7895

G1 Z0F20000

(Start Block)


G1X29.1026Y-199.0039
G1Z5F20000
(Plotting speed under)
G1 F4000


G1X55.3008Y-204.0355

G1X72.5939Y-200.1619

G1X92.6634Y-199.0646

G1X117.7401Y-202.9747

G1X137.1667Y-201.2347

G1X154.9582Y-197.8594

G1X179.0692Y-200.8038

G1 Z0F20000

(Start Block)


G1X29.0049Y-199.9646
G1Z5F20000
(Plotting speed under)
G1 F4000


G1X55.3830Y-205.1760

G1X72.1873Y-200.8136

G1X92.6558Y-200.1154

G1X117.8720Y-204.1650

G1X137.1152Y-202.2414

G1X154.6365Y-198.5961

G1X179.0251Y-201.8180

G1 Z0F20000

(Start Block)


G1X28.9073Y-200.9253
G1Z5F20000
(Plotting speed under)
G1 F4000


G1X55.4651Y-206.3165

G1X71.7806Y-201.4653

G1X92.6483Y-201.1663

G1X118.0040Y-205.3553

G1X137.0637Y-203.2483

G1X154.3148Y-199.3327

G1X178.9810Y-202.8322

G1 Z0F20000

(Start Block)


G1X28.8096Y-201.8860
G1Z5F20000
(Plotting speed under)
G1 F4000


G1X55.5473Y-207.4569

G1X71.3740Y-202.1170

G1X92.6408Y-202.2170

G1X118.1359Y-206.5456

G1X137.0122Y-204.2551

G1X153.9932Y-200.0694

G1X178.9369Y-203.8464

G1 Z0F20000

(Start Block)


G1X28.7120Y-202.8467
G1Z5F20000
(Plotting speed under)
G1 F4000


G1X55.6294Y-208.5974

G1X70.9673Y-202.7687

G1X92.6332Y-203.2678

G1X118.2679Y-207.7359

G1X136.9606Y-205.2619

G1X153.6715Y-200.8061

G1X178.8927Y-204.8606

G1 Z0F20000

(Start Block)


G1X28.6144Y-203.8074
G1Z5F20000
(Plotting speed under)
G1 F4000


G1X55.7116Y-209.7379

G1X70.5607Y-203.4203

G1X92.6257Y-204.3186

G1X118.3999Y-208.9261

G1X136.9091Y-206.2687

G1X153.3499Y-201.5428

G1X178.8486Y-205.8748

G1 Z0F20000

(Start Block)


G1X28.9310Y-205.1823
G1Z5F20000
(Plotting speed under)
G1 F4000


G1X55.5849Y-210.6695

G1X70.6076Y-204.5256

G1X92.7775Y-205.5288

G1X117.9394Y-209.5241

G1X137.1038Y-207.5217

G1X153.4802Y-202.7314

G1X179.2593Y-207.3438

G1 Z0F20000

(Start Block)


G1X29.2476Y-206.5573
G1Z5F20000
(Plotting speed under)
G1 F4000


G1X55.4581Y-211.6012

G1X70.6546Y-205.6309

G1X92.9294Y-206.7390

G1X117.4790Y-210.1220

G1X137.2984Y-208.7747

G1X153.6105Y-203.9201

G1X179.6699Y-208.8128

G1 Z0F20000

(Start Block)


G1X29.5642Y-207.9322
G1Z5F20000
(Plotting speed under)
G1 F4000


G1X55.3314Y-212.5328

G1X70.7016Y-206.7362

G1X93.0813Y-207.9492

G1X117.0186Y-210.7199

G1X137.4931Y-210.0277

G1X153.7408Y-205.1087

G1X180.0806Y-210.2818

G1 Z0F20000

(Start Block)


G1X29.8808Y-209.3072
G1Z5F20000
(Plotting speed under)
G1 F4000


G1X55.2047Y-213.4644

G1X70.7486Y-207.8416

G1X93.2331Y-209.1594

G1X116.5581Y-211.3178

G1X137.6877Y-211.2806

G1X153.8711Y-206.2974

G1X180.4913Y-211.7508

G1 Z0F20000

(Start Block)


G1X30.1974Y-210.6821
G1Z5F20000
(Plotting speed under)
G1 F4000


G1X55.0780Y-214.3960

G1X70.7955Y-208.9469

G1X93.3850Y-210.3696

G1X116.0977Y-211.9157

G1X137.8824Y-212.5336

G1X154.0014Y-207.4860

G1X180.9019Y-213.2198

G1 Z0F20000

(Start Block)


G1X30.5140Y-212.0571
G1Z5F20000
(Plotting speed under)
G1 F4000


G1X54.9513Y-215.3276

G1X70.8425Y-210.0522

G1X93.5368Y-211.5798

G1X115.6373Y-212.5136

G1X138.0770Y-213.7866

G1X154.1318Y-208.6747

G1X181.3126Y-214.6888

G1 Z0F20000

(Start Block)


G1X30.8306Y-213.4320
G1Z5F20000
(Plotting speed under)
G1 F4000


G1X54.8246Y-216.2592

G1X70.8895Y-211.1575

G1X93.6887Y-212.7900

G1X115.1769Y-213.1115

G1X138.2717Y-215.0396

G1X154.2621Y-209.8633

G1X181.7233Y-216.1578

G1 Z0F20000

(Start Block)


G1X31.1473Y-214.8070
G1Z5F20000
(Plotting speed under)
G1 F4000


G1X54.6978Y-217.1908

G1X70.9364Y-212.2628

G1X93.8405Y-214.0002

G1X114.7164Y-213.7094

G1X138.4663Y-216.2926

G1X154.3924Y-211.0520

G1X182.1339Y-217.6268

G1 Z0F20000

(Start Block)


G1X31.4639Y-216.1819
G1Z5F20000
(Plotting speed under)
G1 F4000


G1X54.5711Y-218.1225

G1X70.9834Y-213.3681

G1X93.9924Y-215.2104

G1X114.2560Y-214.3073

G1X138.6610Y-217.5456

G1X154.5227Y-212.2406

G1X182.5446Y-219.0958

G1 Z0F20000

(Start Block)


G1X31.7805Y-217.5569
G1Z5F20000
(Plotting speed under)
G1 F4000


G1X54.4444Y-219.0541

G1X71.0304Y-214.4734

G1X94.1443Y-216.4206

G1X113.7956Y-214.9052

G1X138.8557Y-218.7986

G1X154.6530Y-213.4293

G1X182.9553Y-220.5649

G1 Z0F20000

(Start Block)


G1X32.0971Y-218.9318
G1Z5F20000
(Plotting speed under)
G1 F4000


G1X54.3177Y-219.9857

G1X71.0774Y-215.5787

G1X94.2961Y-217.6308

G1X113.3352Y-215.5031

G1X139.0503Y-220.0516

G1X154.7834Y-214.6179

G1X183.3660Y-222.0338

G1 Z0F20000

(Start Block)


G1X32.4137Y-220.3068
G1Z5F20000
(Plotting speed under)
G1 F4000


G1X54.1910Y-220.9173

G1X71.1243Y-216.6840

G1X94.4480Y-218.8409

G1X112.8747Y-216.1010

G1X139.2450Y-221.3046

G1X154.9137Y-215.8066

G1X183.7766Y-223.5028

G1 Z0F20000

(Start Block)


G1X32.7303Y-221.6817
G1Z5F20000
(Plotting speed under)
G1 F4000


G1X54.0642Y-221.8490

G1X71.1713Y-217.7893

G1X94.5998Y-220.0511

G1X112.4143Y-216.6989

G1X139.4396Y-222.5576

G1X155.0440Y-216.9952

G1X184.1873Y-224.9719

G1 Z0F20000

(Start Block)


G1X33.0469Y-223.0567
G1Z5F20000
(Plotting speed under)
G1 F4000


G1X53.9375Y-222.7806

G1X71.2183Y-218.8946

G1X94.7517Y-221.2613

G1X111.9539Y-217.2968

G1X139.6343Y-223.8106

G1X155.1743Y-218.1839

G1X184.5980Y-226.4409

G1 Z0F20000

(Start Block)


G1X33.3636Y-224.4316
G1Z5F20000
(Plotting speed under)
G1 F4000


G1X53.8108Y-223.7122

G1X71.2652Y-219.9999

G1X94.9036Y-222.4715

G1X111.4934Y-217.8947

G1X139.8289Y-225.0635

G1X155.3046Y-219.3725

G1X185.0086Y-227.9099

G1 Z0F20000

(Start Block)


G1X33.6802Y-225.8066
G1Z5F20000
(Plotting speed under)
G1 F4000


G1X53.6841Y-224.6438

G1X71.3122Y-221.1052

G1X95.0554Y-223.6817

G1X111.0330Y-218.4926

G1X140.0236Y-226.3165

G1X155.4349Y-220.5612

G1X185.4193Y-229.3789

G1 Z0F20000

(Start Block)


G1X33.9968Y-227.1815
G1Z5F20000
(Plotting speed under)
G1 F4000


G1X53.5574Y-225.5754

G1X71.3592Y-222.2105

G1X95.2073Y-224.8919

G1X110.5726Y-219.0905

G1X140.2182Y-227.5695

G1X155.5653Y-221.7499

G1X185.8300Y-230.8479

G1 Z0F20000

(Start Block)


G1X34.3134Y-228.5564
G1Z5F20000
(Plotting speed under)
G1 F4000


G1X53.4306Y-226.5070

G1X71.4061Y-223.3159

G1X95.3591Y-226.1021

G1X110.1121Y-219.6884

G1X140.4129Y-228.8225

G1X155.6956Y-222.9385

G1X186.2406Y-232.3169

G1 Z0F20000

(Start Block)


G1X34.6300Y-229.9314
G1Z5F20000
(Plotting speed under)
G1 F4000


G1X53.3039Y-227.4386

G1X71.4531Y-224.4212

G1X95.5110Y-227.3123

G1X109.6517Y-220.2864

G1X140.6075Y-230.0755

G1X155.8259Y-224.1272

G1X186.6513Y-233.7859

G1 Z0F20000

(Start Block)


G1X34.9466Y-231.3063
G1Z5F20000
(Plotting speed under)
G1 F4000


G1X53.1772Y-228.3703

G1X71.5001Y-225.5265

G1X95.6628Y-228.5225

G1X109.1913Y-220.8843

G1X140.8022Y-231.3285

G1X155.9562Y-225.3158

G1X187.0620Y-235.2549

G1 Z0F20000

(Start Block)


G1X34.5670Y-231.9851
G1Z5F20000
(Plotting speed under)
G1 F4000


G1X53.5531Y-229.8045

G1X71.3605Y-226.4452

G1X95.4080Y-229.3260

G1X109.2364Y-221.9877

G1X140.8266Y-232.4113

G1X155.7846Y-226.2025

G1X186.7721Y-236.0233

G1 Z0F20000

(Start Block)


G1X34.1874Y-232.6638
G1Z5F20000
(Plotting speed under)
G1 F4000


G1X53.9290Y-231.2388

G1X71.2210Y-227.3640

G1X95.1532Y-230.1295

G1X109.2814Y-223.0911

G1X140.8511Y-233.4941

G1X155.6129Y-227.0892

G1X186.4822Y-236.7918

G1 Z0F20000

(Start Block)


G1X33.8079Y-233.3426
G1Z5F20000
(Plotting speed under)
G1 F4000


G1X54.3050Y-232.6730

G1X71.0814Y-228.2828

G1X94.8983Y-230.9330

G1X109.3265Y-224.1945

G1X140.8756Y-234.5769

G1X155.4413Y-227.9759

G1X186.1923Y-237.5602

G1 Z0F20000

(Start Block)


G1X33.4283Y-234.0213
G1Z5F20000
(Plotting speed under)
G1 F4000


G1X54.6809Y-234.1073

G1X70.9419Y-229.2016

G1X94.6435Y-231.7365

G1X109.3716Y-225.2979

G1X140.9000Y-235.6597

G1X155.2697Y-228.8626

G1X185.9024Y-238.3287

G1 Z0F20000

(Start Block)


G1X33.0487Y-234.7001
G1Z5F20000
(Plotting speed under)
G1 F4000


G1X55.0568Y-235.5416

G1X70.8023Y-230.1203

G1X94.3886Y-232.5400

G1X109.4167Y-226.4013

G1X140.9245Y-236.7424

G1X155.0980Y-229.7493

G1X185.6126Y-239.0971

G1 Z0F20000

(Start Block)


G1X32.6691Y-235.3788
G1Z5F20000
(Plotting speed under)
G1 F4000


G1X55.4328Y-236.9758

G1X70.6628Y-231.0391

G1X94.1338Y-233.3434

G1X109.4618Y-227.5047

G1X140.9490Y-237.8252

G1X154.9264Y-230.6360

G1X185.3227Y-239.8656

G1 Z0F20000

(Start Block)


G1X32.2895Y-236.0576
G1Z5F20000
(Plotting speed under)
G1 F4000


G1X55.8087Y-238.4101

G1X70.5232Y-231.9579

G1X93.8789Y-234.1469

G1X109.5068Y-228.6082

G1X140.9734Y-238.9080

G1X154.7548Y-231.5227

G1X185.0328Y-240.6340

G1 Z0F20000

(Start Block)


G1X31.9099Y-236.7363
G1Z5F20000
(Plotting speed under)
G1 F4000


G1X56.1846Y-239.8443

G1X70.3836Y-232.8767

G1X93.6241Y-234.9504

G1X109.5519Y-229.7116

G1X140.9979Y-239.9908

G1X154.5832Y-232.4094

G1X184.7429Y-241.4025

G1 Z0F20000

(Start Block)


G1X31.5303Y-237.4151
G1Z5F20000
(Plotting speed under)
G1 F4000


G1X56.5605Y-241.2786

G1X70.2441Y-233.7955

G1X93.3692Y-235.7539

G1X109.5970Y-230.8150

G1X141.0223Y-241.0736

G1X154.4115Y-233.2961

G1X184.4530Y-242.1709

G1 Z0F20000

(Start Block)


G1X31.1508Y-238.0938
G1Z5F20000
(Plotting speed under)
G1 F4000


G1X56.9365Y-242.7129

G1X70.1045Y-234.7143

G1X93.1144Y-236.5574

G1X109.6421Y-231.9184

G1X141.0468Y-242.1564

G1X154.2399Y-234.1828

G1X184.1631Y-242.9394

G1 Z0F20000

(Start Block)


G1X30.7712Y-238.7726
G1Z5F20000
(Plotting speed under)
G1 F4000


G1X57.3124Y-244.1471

G1X69.9650Y-235.6330

G1X92.8596Y-237.3609

G1X109.6872Y-233.0218

G1X141.0713Y-243.2392

G1X154.0683Y-235.0695

G1X183.8732Y-243.7078

G1 Z0F20000

(Start Block)


G1X30.3916Y-239.4513
G1Z5F20000
(Plotting speed under)
G1 F4000


G1X57.6883Y-245.5814

G1X69.8254Y-236.5518

G1X92.6047Y-238.1644

G1X109.7322Y-234.1252

G1X141.0957Y-244.3220

G1X153.8966Y-235.9562

G1X183.5833Y-244.4763

G1 Z0F20000

(Start Block)


G1X30.0120Y-240.1301
G1Z5F20000
(Plotting speed under)
G1 F4000


G1X58.0643Y-247.0157

G1X69.6859Y-237.4706

G1X92.3499Y-238.9679

G1X109.7773Y-235.2286

G1X141.1202Y-245.4048

G1X153.7250Y-236.8429

G1X183.2935Y-245.2447

G1 Z0F20000

(Start Block)


G1X29.6324Y-240.8088
G1Z5F20000
(Plotting speed under)
G1 F4000


G1X58.4402Y-248.4499

G1X69.5463Y-238.3893

G1X92.0950Y-239.7714

G1X109.8224Y-236.3320

G1X141.1446Y-246.4876

G1X153.5533Y-237.7296

G1X183.0036Y-246.0132

G1 Z0F20000

(Start Block)


G1X29.2528Y-241.4876
G1Z5F20000
(Plotting speed under)
G1 F4000


G1X58.8161Y-249.8842

G1X69.4068Y-239.3081

G1X91.8402Y-240.5749

G1X109.8675Y-237.4355

G1X141.1691Y-247.5704

G1X153.3817Y-238.6163

G1X182.7137Y-246.7816

G1 Z0F20000

(Start Block)


G1X28.8733Y-242.1663
G1Z5F20000
(Plotting speed under)
G1 F4000


G1X59.1920Y-251.3185

G1X69.2672Y-240.2269

G1X91.5853Y-241.3783

G1X109.9125Y-238.5389

G1X141.1936Y-248.6532

G1X153.2101Y-239.5030

G1X182.4238Y-247.5500

G1 Z0F20000

(Start Block)


G1X28.4937Y-242.8451
G1Z5F20000
(Plotting speed under)
G1 F4000


G1X59.5680Y-252.7527

G1X69.1276Y-241.1457

G1X91.3305Y-242.1818

G1X109.9576Y-239.6423

G1X141.2180Y-249.7360

G1X153.0384Y-240.3898

G1X182.1339Y-248.3185

G1 Z0F20000

(Start Block)


G1X28.1141Y-243.5238
G1Z5F20000
(Plotting speed under)
G1 F4000


G1X59.9439Y-254.1870

G1X68.9881Y-242.0645

G1X91.0756Y-242.9853

G1X110.0027Y-240.7457

G1X141.2425Y-250.8188

G1X152.8668Y-241.2765

G1X181.8440Y-249.0870

G1 Z0F20000

(Start Block)


G1X27.7345Y-244.2026
G1Z5F20000
(Plotting speed under)
G1 F4000


G1X60.3198Y-255.6212

G1X68.8485Y-242.9833

G1X90.8208Y-243.7888

G1X110.0478Y-241.8491

G1X141.2670Y-251.9016

G1X152.6952Y-242.1631

G1X181.5541Y-249.8554

G1 Z0F20000

(Start Block)


G1X27.3549Y-244.8813
G1Z5F20000
(Plotting speed under)
G1 F4000


G1X60.6958Y-257.0555

G1X68.7090Y-243.9020

G1X90.5659Y-244.5923

G1X110.0928Y-242.9525

G1X141.2914Y-252.9844

G1X152.5236Y-243.0498

G1X181.2643Y-250.6238

G1 Z0F20000


G00 X0.0000 Y0.0000


