$H
G21
G17
G90
G1 Z0F20000
G1 F15000

(Start Layer)

(Start Block)


G1X11.4728Y-114.2703
G1Z5F20000
(Plotting speed under)
G1 F4000


G1X13.3900Y-113.0735

G1X14.7147Y-112.4333

G1X16.0742Y-112.0358

G1X17.4337Y-111.9007

G1X19.4207Y-112.0554

G1X24.4405Y-112.9237

G1X27.3687Y-113.1091

G1X30.6106Y-112.9036

G1X36.7808Y-111.9733

G1X38.2449Y-111.8999

G1X39.4998Y-111.9677

G1X40.9639Y-112.2340

G1X42.4280Y-112.7096

G1X46.5066Y-114.6702

G1X47.8661Y-115.2281

G1X49.0164Y-115.5344

G1X50.0622Y-115.6433

G1X51.1080Y-115.5781

G1X52.2584Y-115.3166

G1X53.5133Y-114.8509

G1X57.2781Y-113.1889

G1X58.5331Y-112.8389

G1X59.7880Y-112.6811

G1X61.0430Y-112.7186

G1X62.4025Y-112.9469

G1X66.7948Y-114.2322

G1X68.4680Y-114.6276

G1X70.0367Y-114.8608

G1X71.6054Y-114.9571

G1X74.7427Y-114.8279

G1X81.4358Y-114.0644

G1X85.0960Y-113.7401

G1X88.9654Y-113.5242

G1X93.5669Y-113.3868

G1 Z0F20000

(Start Block)


G1X11.4728Y-113.3229
G1Z5F20000
(Plotting speed under)
G1 F4000


G1X13.9129Y-111.7627

G1X15.2376Y-111.0690

G1X16.7017Y-110.5948

G1X18.1658Y-110.4318

G1X19.9436Y-110.5414

G1X24.5451Y-111.2342

G1X26.9504Y-111.3746

G1X29.7740Y-111.2303

G1X35.5258Y-110.4810

G1X36.9899Y-110.4319

G1X38.2449Y-110.5202

G1X39.6044Y-110.7830

G1X41.0685Y-111.2693

G1X45.0425Y-113.2094

G1X46.2974Y-113.7382

G1X47.4478Y-114.0591

G1X48.4935Y-114.1734

G1X49.5393Y-114.1031

G1X50.6897Y-113.8233

G1X51.8401Y-113.3740

G1X55.3957Y-111.7254

G1X56.6507Y-111.3576

G1X57.8010Y-111.2099

G1X58.9514Y-111.2496

G1X60.2063Y-111.4783

G1X64.1803Y-112.7620

G1X65.7490Y-113.1775

G1X67.1085Y-113.4015

G1X68.4680Y-113.4896

G1X71.0825Y-113.3398

G1X77.6709Y-112.3305

G1X81.6449Y-111.9463

G1X86.5601Y-111.7973

G1X93.5669Y-111.8956

G1 Z0F20000

(Start Block)


G1X11.4728Y-112.4711
G1Z5F20000
(Plotting speed under)
G1 F4000


G1X12.6057Y-111.9414

G1X15.2202Y-110.3171

G1X16.5971Y-109.6237

G1X18.1658Y-109.1413

G1X19.9436Y-108.9615

G1X26.5321Y-109.3486

G1X28.7282Y-109.2940

G1X33.4342Y-108.9690

G1X34.7938Y-108.9767

G1X36.0487Y-109.0910

G1X37.5128Y-109.3895

G1X38.9769Y-109.8793

G1X42.9509Y-111.7818

G1X44.1013Y-112.2599

G1X45.2516Y-112.5845

G1X46.2974Y-112.7031

G1X47.3432Y-112.6341

G1X48.3890Y-112.3831

G1X49.6439Y-111.8866

G1X53.0950Y-110.2377

G1X54.2454Y-109.8887

G1X55.3957Y-109.7378

G1X56.3369Y-109.7690

G1X57.3827Y-109.9508

G1X62.2979Y-111.6018

G1X63.6574Y-111.8931

G1X65.0169Y-112.0168

G1X66.2719Y-111.9892

G1X67.6314Y-111.8366

G1X74.2198Y-110.6400

G1X77.7755Y-110.3522

G1X82.6907Y-110.4043

G1X93.5669Y-111.0188

G1 Z0F20000

(Start Block)


G1X11.4728Y-111.2164
G1Z5F20000
(Plotting speed under)
G1 F4000


G1X12.5186Y-111.1695

G1X13.5643Y-110.8460

G1X17.3292Y-108.7935

G1X19.1070Y-108.0694

G1X21.0940Y-107.6454

G1X23.6039Y-107.4962

G1X30.4015Y-107.5141

G1X32.0747Y-107.6180

G1X33.5388Y-107.8246

G1X34.8983Y-108.1447

G1X36.2579Y-108.5982

G1X41.2776Y-110.7879

G1X42.4280Y-111.1059

G1X43.4738Y-111.2312

G1X44.5196Y-111.1764

G1X45.6699Y-110.9082

G1X46.9249Y-110.4085

G1X50.3760Y-108.7410

G1X51.5263Y-108.3964

G1X52.6767Y-108.2637

G1X53.6179Y-108.3208

G1X54.5591Y-108.5117

G1X59.0560Y-110.1332

G1X60.3109Y-110.4249

G1X61.4613Y-110.5441

G1X62.6116Y-110.5234

G1X63.8666Y-110.3681

G1X69.8275Y-109.1181

G1X71.3962Y-108.9398

G1X73.0695Y-108.8602

G1X76.4160Y-108.9592

G1X86.9784Y-109.7666

G1X93.5669Y-110.0142

G1 Z0F20000

(Start Block)


G1X11.4728Y-109.0537
G1Z5F20000
(Plotting speed under)
G1 F4000


G1X12.3094Y-109.4568

G1X13.0415Y-109.6780

G1X13.7735Y-109.7638

G1X14.6101Y-109.7023

G1X15.9697Y-109.3104

G1X19.4207Y-107.7479

G1X21.3032Y-107.0957

G1X23.6039Y-106.6483

G1X26.1138Y-106.4959

G1X28.8328Y-106.6270

G1X31.2381Y-107.0299

G1X35.7350Y-108.4084

G1X38.3494Y-109.4779

G1X39.1861Y-109.6639

G1X40.1273Y-109.7607

G1X41.2776Y-109.7017

G1X42.5326Y-109.4080

G1X43.7875Y-108.9092

G1X47.2386Y-107.2537

G1X48.3890Y-106.9141

G1X49.4348Y-106.7944

G1X50.3760Y-106.8506

G1X51.3172Y-107.0491

G1X55.6049Y-108.6722

G1X56.7552Y-108.9560

G1X57.9056Y-109.0777

G1X58.9514Y-109.0469

G1X60.1018Y-108.8818

G1X65.3307Y-107.6366

G1X66.6902Y-107.4602

G1X68.0497Y-107.3889

G1X70.5596Y-107.4819

G1X77.2526Y-108.1919

G1X81.5403Y-108.4755

G1X87.0830Y-108.5785

G1X93.5669Y-108.4667

G1 Z0F20000

(Start Block)


G1X11.4728Y-106.2036
G1Z5F20000
(Plotting speed under)
G1 F4000


G1X13.3029Y-107.3363

G1X14.2964Y-107.8347

G1X15.3422Y-108.1707

G1X16.4925Y-108.2951

G1X17.4337Y-108.2291

G1X18.5841Y-108.0033

G1X20.9894Y-107.1858

G1X22.5581Y-106.8079

G1X24.3359Y-106.5735

G1X26.2183Y-106.4955

G1X28.1007Y-106.5614

G1X29.8786Y-106.7647

G1X31.9702Y-107.2159

G1X35.0029Y-108.1749

G1X36.0487Y-108.2872

G1X37.1991Y-108.2583

G1X38.3494Y-108.0626

G1X39.4998Y-107.7024

G1X42.9509Y-106.0976

G1X43.9967Y-105.6836

G1X44.9379Y-105.4318

G1X45.8791Y-105.3255

G1X46.8203Y-105.3756

G1X47.7615Y-105.5723

G1X52.0492Y-107.2368

G1X53.0950Y-107.4972

G1X54.1408Y-107.6085

G1X55.9186Y-107.4604

G1X60.5201Y-106.2404

G1X61.8796Y-106.0114

G1X63.1345Y-105.9213

G1X65.6444Y-106.0433

G1X72.1283Y-106.8871

G1X75.7885Y-107.0897

G1X81.5403Y-107.0454

G1X93.5669Y-106.6073

G1 Z0F20000

(Start Block)


G1X11.4728Y-103.8641
G1Z5F20000
(Plotting speed under)
G1 F4000


G1X12.2048Y-103.9908

G1X13.0415Y-104.2849

G1X15.9697Y-105.8095

G1X17.2246Y-106.3329

G1X18.6887Y-106.6966

G1X20.2574Y-106.8235

G1X22.0352Y-106.7727

G1X26.0092Y-106.4968

G1X27.9962Y-106.5539

G1X30.5061Y-106.8143

G1X31.9702Y-106.8118

G1X33.2251Y-106.7031

G1X34.3755Y-106.4851

G1X35.6304Y-106.1083

G1X40.1273Y-104.2311

G1X41.1731Y-103.9596

G1X42.1143Y-103.8561

G1X43.0555Y-103.9015

G1X43.9967Y-104.0912

G1X45.1470Y-104.4824

G1X47.4478Y-105.4699

G1X48.5981Y-105.8472

G1X49.4348Y-106.0552

G1X50.3760Y-106.1410

G1X52.0492Y-105.9750

G1X56.2323Y-104.7699

G1X57.3827Y-104.5511

G1X58.5331Y-104.4524

G1X60.7292Y-104.5708

G1X66.3765Y-105.4566

G1X69.5138Y-105.6361

G1X72.4420Y-105.5842

G1X83.4227Y-105.0877

G1X93.5669Y-104.8777

G1 Z0F20000

(Start Block)


G1X11.4728Y-102.9536
G1Z5F20000
(Plotting speed under)
G1 F4000


G1X12.3094Y-102.6202

G1X13.0415Y-102.4422

G1X13.7735Y-102.3832

G1X14.5056Y-102.4398

G1X15.7605Y-102.7544

G1X19.0024Y-104.0284

G1X20.7803Y-104.5636

G1X22.8718Y-104.9181

G1X25.3817Y-105.0506

G1X27.8916Y-104.9511

G1X30.1923Y-104.6160

G1X32.1793Y-104.0866

G1X36.1533Y-102.7146

G1X37.1991Y-102.4807

G1X38.2449Y-102.3842

G1X39.1861Y-102.4355

G1X40.2318Y-102.6471

G1X41.3822Y-103.0371

G1X43.4738Y-103.9252

G1X45.1470Y-104.4699

G1X46.5066Y-104.6707

G1X47.3432Y-104.6348

G1X48.1798Y-104.4973

G1X52.1538Y-103.2849

G1X53.3042Y-103.0601

G1X54.3499Y-102.9785

G1X56.3369Y-103.1240

G1X61.0430Y-103.9914

G1X63.5528Y-104.1670

G1X65.6444Y-104.1157

G1X72.0237Y-103.6419

G1X76.5206Y-103.4567

G1X83.6319Y-103.3904

G1X93.5669Y-103.4471

G1 Z0F20000

(Start Block)


G1X11.4728Y-102.7355
G1Z5F20000
(Plotting speed under)
G1 F4000


G1X13.6689Y-101.6869

G1X14.7147Y-101.2715

G1X15.7605Y-101.0091

G1X16.9109Y-100.9133

G1X18.4795Y-101.0464

G1X22.8718Y-101.8525

G1X25.2771Y-102.0124

G1X27.9962Y-101.8216

G1X32.9114Y-100.9815

G1X34.8983Y-100.9484

G1X35.8396Y-101.0861

G1X36.8853Y-101.3599

G1X39.7090Y-102.4722

G1X41.2776Y-102.9965

G1X42.7417Y-103.2007

G1X43.5784Y-103.1643

G1X44.4150Y-103.0230

G1X48.2844Y-101.7995

G1X49.3302Y-101.5874

G1X50.2714Y-101.5090

G1X52.1538Y-101.6599

G1X56.3369Y-102.5259

G1X58.4285Y-102.6969

G1X60.5201Y-102.6171

G1X66.1673Y-102.0633

G1X69.5138Y-101.9301

G1X93.5669Y-102.1756

G1 Z0F20000

(Start Block)


G1X11.4728Y-101.7187
G1Z5F20000
(Plotting speed under)
G1 F4000


G1X12.4140Y-101.6982

G1X13.3552Y-101.5085

G1X16.8063Y-100.2020

G1X18.2704Y-99.7786

G1X19.8391Y-99.5314

G1X21.6169Y-99.4459

G1X28.7282Y-99.4475

G1X31.0289Y-99.5949

G1X33.2251Y-100.0578

G1X37.4082Y-101.4783

G1X38.3494Y-101.6674

G1X39.1861Y-101.7320

G1X40.0227Y-101.6893

G1X40.8593Y-101.5444

G1X44.7287Y-100.3036

G1X45.6699Y-100.1127

G1X46.6111Y-100.0375

G1X48.3890Y-100.2038

G1X52.2584Y-101.0728

G1X54.0362Y-101.2275

G1X55.9186Y-101.1375

G1X60.6246Y-100.5706

G1X63.2391Y-100.4525

G1X75.9977Y-100.7965

G1X93.5669Y-100.8643

G1 Z0F20000

(Start Block)


G1X11.4728Y-99.6181
G1Z5F20000
(Plotting speed under)
G1 F4000


G1X13.2506Y-100.1564

G1X14.0872Y-100.2548

G1X14.9239Y-100.2422

G1X16.3880Y-100.0020

G1X19.4207Y-99.1721

G1X21.0940Y-98.8091

G1X22.9764Y-98.5699

G1X24.8588Y-98.4942

G1X26.7412Y-98.5654

G1X28.5191Y-98.7758

G1X30.2969Y-99.1347

G1X33.8526Y-100.0452

G1X35.7350Y-100.2624

G1X36.5716Y-100.2226

G1X37.5128Y-100.0681

G1X41.3822Y-98.8390

G1X42.3234Y-98.6434

G1X43.2646Y-98.5674

G1X44.9379Y-98.7300

G1X48.5981Y-99.6028

G1X50.2714Y-99.7582

G1X51.9446Y-99.6653

G1X56.0232Y-99.0967

G1X58.2193Y-98.9813

G1X65.6444Y-99.3285

G1X69.0955Y-99.4161

G1X93.5669Y-99.4339

G1 Z0F20000

(Start Block)


G1X11.4728Y-97.3557
G1Z5F20000
(Plotting speed under)
G1 F4000


G1X14.9239Y-98.4965

G1X16.0742Y-98.7167

G1X17.2246Y-98.7924

G1X18.7933Y-98.7107

G1X22.6627Y-98.2598

G1X24.6497Y-98.1735

G1X26.9504Y-98.2770

G1X31.2381Y-98.7559

G1X33.0159Y-98.7660

G1X35.0029Y-98.4329

G1X38.6632Y-97.3070

G1X40.3364Y-97.0971

G1X41.8005Y-97.2318

G1X45.2516Y-98.0920

G1X47.0294Y-98.2881

G1X48.7027Y-98.1813

G1X52.3629Y-97.6160

G1X54.1408Y-97.5117

G1X55.9186Y-97.5617

G1X60.4155Y-97.8819

G1X63.0299Y-97.9600

G1X76.5206Y-97.8475

G1X93.5669Y-97.9178

G1 Z0F20000

(Start Block)


G1X11.4728Y-95.6279
G1Z5F20000
(Plotting speed under)
G1 F4000


G1X12.3094Y-95.6673

G1X13.2506Y-95.8279

G1X16.3880Y-96.7420

G1X17.8521Y-97.0724

G1X19.3162Y-97.2550

G1X20.9894Y-97.3211

G1X28.2053Y-97.3201

G1X30.1923Y-97.2220

G1X32.2839Y-96.8752

G1X36.1533Y-95.8133

G1X37.7220Y-95.6280

G1X39.1861Y-95.7479

G1X42.6372Y-96.6186

G1X44.4150Y-96.8189

G1X45.9837Y-96.7058

G1X49.3302Y-96.1468

G1X51.0034Y-96.0412

G1X52.5721Y-96.0956

G1X56.4415Y-96.4199

G1X58.6377Y-96.4934

G1X71.7100Y-96.2888

G1X93.5669Y-96.3786

G1 Z0F20000

(Start Block)


G1X11.4728Y-94.3642
G1Z5F20000
(Plotting speed under)
G1 F4000


G1X12.8323Y-94.1694

G1X14.0872Y-94.1998

G1X15.3422Y-94.4035

G1X18.2704Y-95.1142

G1X19.8391Y-95.4109

G1X21.8260Y-95.6266

G1X24.1268Y-95.7075

G1X26.5321Y-95.6551

G1X28.6236Y-95.4648

G1X30.4015Y-95.1547

G1X33.8526Y-94.3466

G1X35.6304Y-94.1573

G1X37.1991Y-94.2961

G1X40.6502Y-95.1682

G1X42.3234Y-95.3493

G1X43.7875Y-95.2379

G1X46.9249Y-94.6823

G1X48.4935Y-94.5716

G1X49.9576Y-94.6257

G1X53.5133Y-94.9574

G1X55.3957Y-95.0245

G1X64.9124Y-94.8084

G1X93.5669Y-94.8548

G1 Z0F20000

(Start Block)


G1X11.4728Y-93.2158
G1Z5F20000
(Plotting speed under)
G1 F4000


G1X13.4598Y-92.7700

G1X15.1330Y-92.6982

G1X16.5971Y-92.8596

G1X21.3032Y-93.6747

G1X23.0810Y-93.8168

G1X24.9634Y-93.8368

G1X27.5779Y-93.6439

G1X32.2839Y-92.8231

G1X34.1663Y-92.6889

G1X35.9441Y-92.8966

G1X39.2906Y-93.7387

G1X40.7547Y-93.8795

G1X42.1143Y-93.7748

G1X45.2516Y-93.2021

G1X46.7157Y-93.1012

G1X48.0752Y-93.1596

G1X51.3172Y-93.4890

G1X52.9904Y-93.5546

G1X60.8338Y-93.3373

G1X93.5669Y-93.3549

G1 Z0F20000

(Start Block)


G1X11.4728Y-91.9774
G1Z5F20000
(Plotting speed under)
G1 F4000


G1X13.8781Y-91.3785

G1X15.6559Y-91.2172

G1X17.3292Y-91.3251

G1X21.7215Y-91.9349

G1X24.2313Y-92.0594

G1X27.0550Y-91.9055

G1X31.6564Y-91.2721

G1X33.3297Y-91.2309

G1X35.0029Y-91.4579

G1X38.1403Y-92.2503

G1X39.6044Y-92.4088

G1X40.8593Y-92.3285

G1X43.8921Y-91.7568

G1X45.4608Y-91.6313

G1X46.7157Y-91.6857

G1X49.8531Y-92.0229

G1X51.4217Y-92.0852

G1X58.3239Y-91.8667

G1X72.4420Y-91.9374

G1X93.5669Y-91.8724

G1 Z0F20000

(Start Block)


G1X11.4728Y-90.6117
G1Z5F20000
(Plotting speed under)
G1 F4000


G1X14.1918Y-89.9293

G1X16.1788Y-89.7473

G1X17.7475Y-89.8407

G1X21.8260Y-90.3500

G1X24.2313Y-90.4607

G1X26.7412Y-90.3376

G1X31.1335Y-89.7962

G1X32.8068Y-89.7618

G1X34.4800Y-89.9865

G1X37.7220Y-90.8005

G1X39.0815Y-90.9392

G1X40.3364Y-90.8521

G1X43.1600Y-90.2997

G1X44.7287Y-90.1617

G1X45.9837Y-90.2177

G1X48.9119Y-90.5500

G1X50.3760Y-90.6150

G1X56.7552Y-90.3966

G1X68.1543Y-90.4701

G1X93.5669Y-90.3986

G1 Z0F20000

(Start Block)


G1X11.4728Y-89.1346
G1Z5F20000
(Plotting speed under)
G1 F4000


G1X14.0872Y-88.4637

G1X15.9697Y-88.2776

G1X17.6429Y-88.3806

G1X21.8260Y-88.9400

G1X24.2313Y-89.0561

G1X26.8458Y-88.9190

G1X31.2381Y-88.3335

G1X32.9114Y-88.2909

G1X34.5846Y-88.5230

G1X37.7220Y-89.3321

G1X39.0815Y-89.4696

G1X40.4410Y-89.3542

G1X43.2646Y-88.7899

G1X44.5196Y-88.6918

G1X45.7745Y-88.7513

G1X48.5981Y-89.0840

G1X49.9576Y-89.1451

G1X55.9186Y-88.9266

G1X65.1215Y-89.0002

G1X93.5669Y-88.9290

G1 Z0F20000

(Start Block)


G1X11.4728Y-87.5470
G1Z5F20000
(Plotting speed under)
G1 F4000


G1X13.6689Y-86.9692

G1X15.3422Y-86.8075

G1X17.0154Y-86.9395

G1X21.4077Y-87.6739

G1X24.2313Y-87.8454

G1X26.9504Y-87.6982

G1X31.6564Y-86.9196

G1X33.5388Y-86.8159

G1X35.1075Y-87.0315

G1X38.1403Y-87.8519

G1X39.4998Y-87.9996

G1X40.8593Y-87.8772

G1X43.5784Y-87.3166

G1X44.8333Y-87.2215

G1X45.9837Y-87.2810

G1X48.7027Y-87.6130

G1X50.0622Y-87.6754

G1X55.7095Y-87.4567

G1X63.8666Y-87.5303

G1X93.5669Y-87.4640

G1 Z0F20000

(Start Block)


G1X11.4728Y-85.8394
G1Z5F20000
(Plotting speed under)
G1 F4000


G1X13.2506Y-85.4125

G1X14.8193Y-85.3566

G1X16.1788Y-85.5512

G1X20.5711Y-86.5094

G1X22.3489Y-86.7023

G1X24.3359Y-86.7713

G1X26.2183Y-86.7158

G1X27.9962Y-86.5378

G1X29.5648Y-86.2576

G1X32.8068Y-85.4989

G1X34.3755Y-85.3376

G1X35.8396Y-85.4863

G1X38.8723Y-86.3470

G1X40.3364Y-86.5299

G1X41.5914Y-86.4151

G1X44.2058Y-85.8559

G1X45.4608Y-85.7516

G1X46.6111Y-85.8122

G1X49.2256Y-86.1419

G1X50.5851Y-86.2057

G1X56.0232Y-85.9867

G1X63.4483Y-86.0603

G1X93.5669Y-86.0098

G1 Z0F20000

(Start Block)


G1X11.4728Y-84.0603
G1Z5F20000
(Plotting speed under)
G1 F4000


G1X12.6231Y-83.8795

G1X13.7735Y-83.9187

G1X14.8193Y-84.1249

G1X17.5383Y-84.9415

G1X19.0024Y-85.2763

G1X20.7803Y-85.4888

G1X23.0810Y-85.5592

G1X27.1595Y-85.5404

G1X29.3557Y-85.3812

G1X31.1335Y-85.0358

G1X34.4800Y-84.0500

G1X35.9441Y-83.8677

G1X37.1991Y-84.0005

G1X40.1273Y-84.8823

G1X41.4868Y-85.0598

G1X42.5326Y-84.9756

G1X45.0425Y-84.4193

G1X46.4020Y-84.2824

G1X47.5523Y-84.3403

G1X50.1668Y-84.6766

G1X51.4217Y-84.7357

G1X56.8598Y-84.5163

G1X63.5528Y-84.5900

G1X84.4685Y-84.5891

G1X91.0570Y-84.5160

G1X93.5669Y-84.5771

G1 Z0F20000

(Start Block)


G1X11.4728Y-82.3992
G1Z5F20000
(Plotting speed under)
G1 F4000


G1X12.2048Y-82.4373

G1X13.0415Y-82.6074

G1X16.7017Y-83.8468

G1X17.7475Y-84.0307

G1X18.7933Y-84.0931

G1X24.6497Y-83.7365

G1X26.4275Y-83.7959

G1X29.8786Y-84.0792

G1X31.4473Y-84.0517

G1X33.2251Y-83.7028

G1X36.3624Y-82.5951

G1X37.7220Y-82.3979

G1X38.8723Y-82.5304

G1X41.5914Y-83.4039

G1X42.9509Y-83.5901

G1X44.1013Y-83.4749

G1X46.6111Y-82.9052

G1X47.7615Y-82.8116

G1X48.8073Y-82.8715

G1X51.3172Y-83.2033

G1X52.5721Y-83.2657

G1X58.0102Y-83.0462

G1X65.3307Y-83.1206

G1X84.0502Y-83.1189

G1X90.3249Y-83.0462

G1X93.5669Y-83.1717

G1 Z0F20000

(Start Block)


G1X11.4728Y-81.1368
G1Z5F20000
(Plotting speed under)
G1 F4000


G1X14.5056Y-82.3471

G1X15.3422Y-82.5485

G1X16.1788Y-82.6232

G1X17.7475Y-82.4588

G1X22.1398Y-81.4045

G1X23.4993Y-81.2335

G1X24.9634Y-81.1734

G1X26.3229Y-81.2309

G1X27.5779Y-81.3825

G1X29.0420Y-81.6759

G1X32.1793Y-82.4738

G1X33.1205Y-82.6053

G1X33.9571Y-82.6121

G1X34.6892Y-82.5151

G1X35.5258Y-82.2871

G1X38.4540Y-81.1094

G1X39.6044Y-80.9284

G1X40.7547Y-81.0717

G1X43.2646Y-81.9287

G1X44.5196Y-82.1194

G1X45.6699Y-82.0104

G1X48.0752Y-81.4445

G1X49.2256Y-81.3418

G1X50.2714Y-81.4010

G1X52.6767Y-81.7272

G1X53.9316Y-81.7955

G1X59.4743Y-81.5762

G1X67.0039Y-81.6507

G1X83.2136Y-81.6487

G1X89.4883Y-81.5772

G1X93.5669Y-81.7738

G1 Z0F20000

(Start Block)


G1X11.4728Y-80.3398
G1Z5F20000
(Plotting speed under)
G1 F4000


G1X13.1460Y-81.0236

G1X13.8781Y-81.1443

G1X14.6101Y-81.1266

G1X15.7605Y-80.8537

G1X18.6887Y-79.6537

G1X20.2574Y-79.1985

G1X22.2444Y-78.9369

G1X25.1726Y-78.8723

G1X28.1007Y-78.9357

G1X30.0877Y-79.1935

G1X31.6564Y-79.6427

G1X34.7938Y-80.9060

G1X36.1533Y-81.1524

G1X36.7808Y-81.1185

G1X37.5128Y-80.9532

G1X40.2318Y-79.7473

G1X40.9639Y-79.5311

G1X41.5914Y-79.4591

G1X42.6372Y-79.5858

G1X45.0425Y-80.4429

G1X46.2974Y-80.6492

G1X47.3432Y-80.5545

G1X49.7485Y-79.9769

G1X50.8988Y-79.8719

G1X51.9446Y-79.9343

G1X54.3499Y-80.2625

G1X55.5003Y-80.3251

G1X61.1475Y-80.1062

G1X69.4092Y-80.1808

G1X88.3379Y-80.1071

G1X93.5669Y-80.3203

G1 Z0F20000

(Start Block)


G1X11.4728Y-79.5617
G1Z5F20000
(Plotting speed under)
G1 F4000


G1X12.3094Y-79.6837

G1X13.2506Y-79.5452

G1X14.0872Y-79.2147

G1X15.9697Y-78.1937

G1X16.9109Y-77.7707

G1X17.8521Y-77.5018

G1X18.8978Y-77.3953

G1X20.2574Y-77.4927

G1X23.6039Y-78.0462

G1X25.3817Y-78.1620

G1X27.3687Y-78.0414

G1X31.1335Y-77.4399

G1X32.7022Y-77.4360

G1X33.5388Y-77.5970

G1X34.3755Y-77.8861

G1X37.4082Y-79.4122

G1X38.0357Y-79.6049

G1X38.6632Y-79.6830

G1X39.1861Y-79.6512

G1X39.8135Y-79.5000

G1X42.4280Y-78.2570

G1X43.0555Y-78.0634

G1X43.6829Y-77.9888

G1X44.6241Y-78.1074

G1X47.0294Y-78.9920

G1X48.1798Y-79.1794

G1X49.2256Y-79.0807

G1X51.6309Y-78.4952

G1X52.6767Y-78.4022

G1X53.7225Y-78.4627

G1X56.1278Y-78.7907

G1X57.3827Y-78.8558

G1X62.9254Y-78.6368

G1X74.2198Y-78.7108

G1X87.1876Y-78.6381

G1X91.8936Y-78.8564

G1X93.5669Y-78.7392

G1 Z0F20000

(Start Block)


G1X11.4728Y-78.0985
G1Z5F20000
(Plotting speed under)
G1 F4000


G1X12.3094Y-77.7339

G1X14.7147Y-76.2836

G1X15.4468Y-76.0241

G1X16.1788Y-75.9257

G1X16.9109Y-75.9846

G1X17.7475Y-76.2093

G1X21.0940Y-77.6197

G1X23.3947Y-78.0198

G1X25.2771Y-78.1611

G1X27.3687Y-78.0414

G1X30.8198Y-77.4760

G1X33.8526Y-76.2255

G1X34.6892Y-75.9969

G1X35.4212Y-75.9248

G1X36.1533Y-76.0006

G1X36.8853Y-76.2302

G1X39.7090Y-77.8485

G1X40.4410Y-78.1243

G1X41.0685Y-78.2132

G1X42.1143Y-78.0316

G1X44.6241Y-76.7714

G1X45.2516Y-76.5787

G1X45.7745Y-76.5191

G1X46.7157Y-76.6444

G1X49.0164Y-77.5198

G1X50.1668Y-77.7098

G1X51.2126Y-77.6039

G1X53.5133Y-77.0343

G1X54.5591Y-76.9330

G1X55.6049Y-76.9864

G1X58.1148Y-77.3223

G1X59.4743Y-77.3863

G1X65.5398Y-77.1664

G1X75.5794Y-77.2337

G1X85.7235Y-77.1683

G1X90.7432Y-77.3859

G1X91.9982Y-77.3065

G1X93.5669Y-77.0566

G1 Z0F20000

(Start Block)


G1X11.4728Y-75.7573
G1Z5F20000
(Plotting speed under)
G1 F4000


G1X12.4314Y-75.0784

G1X13.1460Y-74.6890

G1X13.7735Y-74.4946

G1X14.4010Y-74.4633

G1X14.9239Y-74.5601

G1X15.5513Y-74.8036

G1X17.8521Y-76.2314

G1X19.8391Y-77.1195

G1X20.4665Y-77.3182

G1X22.0352Y-77.4261

G1X26.4275Y-77.2286

G1X30.6106Y-77.4310

G1X31.3427Y-77.3057

G1X33.6434Y-76.3015

G1X35.0029Y-75.9462

G1X36.8853Y-74.8135

G1X37.6174Y-74.5445

G1X38.2449Y-74.4559

G1X38.8723Y-74.5172

G1X39.4998Y-74.7274

G1X40.2318Y-75.1273

G1X42.1143Y-76.3669

G1X42.7417Y-76.6326

G1X43.3692Y-76.7424

G1X43.8921Y-76.7036

G1X44.4150Y-76.5540

G1X46.7157Y-75.3345

G1X47.3432Y-75.1212

G1X47.8661Y-75.0504

G1X48.8073Y-75.1708

G1X51.1080Y-76.0593

G1X52.2584Y-76.2405

G1X53.3042Y-76.1238

G1X55.5003Y-75.5754

G1X56.6507Y-75.4626

G1X61.4613Y-75.9144

G1X67.5268Y-75.7010

G1X83.3182Y-75.6965

G1X89.2791Y-75.9166

G1X90.5341Y-75.8529

G1X93.5669Y-75.4620

G1 Z0F20000

(Start Block)


G1X11.4728Y-73.2521
G1Z5F20000
(Plotting speed under)
G1 F4000


G1X11.9957Y-73.0511

G1X12.4140Y-72.9871

G1X13.2506Y-73.1293

G1X14.0872Y-73.5834

G1X15.6559Y-74.8138

G1X16.8063Y-75.5447

G1X17.5383Y-75.8503

G1X18.3750Y-75.9573

G1X19.1070Y-75.8839

G1X19.8391Y-75.6914

G1X22.6627Y-74.5639

G1X23.9176Y-74.1642

G1X25.1726Y-73.9158

G1X26.5321Y-73.8269

G1X27.7870Y-73.9099

G1X29.0420Y-74.1497

G1X30.4015Y-74.5739

G1X33.3297Y-75.7102

G1X34.1663Y-75.9077

G1X34.8983Y-75.9688

G1X36.8853Y-74.8135

G1X38.1403Y-74.4221

G1X39.0989Y-73.7014

G1X39.8135Y-73.2750

G1X40.3364Y-73.0722

G1X40.8593Y-72.9870

G1X41.3822Y-73.0297

G1X42.0097Y-73.2447

G1X44.5196Y-74.9198

G1X45.1470Y-75.1852

G1X45.6699Y-75.2721

G1X46.6111Y-75.1074

G1X48.9119Y-73.8581

G1X49.5393Y-73.6445

G1X50.0622Y-73.5792

G1X51.1080Y-73.7494

G1X53.3042Y-74.6107

G1X54.3499Y-74.7702

G1X55.3957Y-74.6618

G1X57.6964Y-74.1000

G1X58.8468Y-73.9928

G1X59.8926Y-74.0442

G1X62.6116Y-74.3801

G1X64.0757Y-74.4461

G1X69.2001Y-74.2613

G1X72.6512Y-74.2266

G1X82.3770Y-74.2395

G1X87.9196Y-74.4459

G1X89.2791Y-74.3672

G1X91.9982Y-73.9987

G1X92.8348Y-74.0233

G1X93.5669Y-74.1590

G1 Z0F20000

(Start Block)


G1X11.4728Y-71.5788
G1Z5F20000
(Plotting speed under)
G1 F4000


G1X12.4314Y-72.0831

G1X14.7844Y-74.0474

G1X15.4468Y-74.3687

G1X16.0742Y-74.4856

G1X16.8063Y-74.3930

G1X17.5383Y-74.0906

G1X20.4491Y-72.1300

G1X21.9306Y-71.3883

G1X22.7672Y-71.1232

G1X23.7085Y-70.9363

G1X26.0092Y-70.7787

G1X29.3557Y-70.8488

G1X30.5061Y-70.9954

G1X31.5518Y-71.2492

G1X32.3885Y-71.5603

G1X33.3297Y-72.0356

G1X36.4670Y-74.0568

G1X37.1991Y-74.3627

G1X37.8265Y-74.4734

G1X38.2274Y-74.3758

G1X39.7090Y-73.3275

G1X40.8419Y-72.9453

G1X42.3234Y-71.8427

G1X42.8463Y-71.6111

G1X43.3692Y-71.5166

G1X43.8921Y-71.5698

G1X44.4150Y-71.7634

G1X46.8552Y-73.4672

G1X47.4478Y-73.7211

G1X47.9707Y-73.8035

G1X48.4935Y-73.7471

G1X49.0164Y-73.5669

G1X51.2126Y-72.3411

G1X51.7355Y-72.1720

G1X52.2584Y-72.1087

G1X53.3042Y-72.2856

G1X55.5003Y-73.1437

G1X56.5461Y-73.3003

G1X57.5919Y-73.1967

G1X59.9972Y-72.6282

G1X61.2521Y-72.5222

G1X65.2261Y-72.9095

G1X67.0039Y-72.9767

G1X76.8343Y-72.7756

G1X86.4555Y-72.9723

G1X91.0570Y-72.5236

G1X92.1028Y-72.6466

G1X93.5669Y-73.0762

G1 Z0F20000

(Start Block)


G1X11.4728Y-70.9988
G1Z5F20000
(Plotting speed under)
G1 F4000


G1X13.2158Y-72.5867

G1X13.7735Y-72.8889

G1X14.4010Y-73.0168

G1X15.0284Y-72.9108

G1X15.7431Y-72.5410

G1X18.1832Y-70.4369

G1X19.1419Y-69.7848

G1X20.0482Y-69.4130

G1X21.0940Y-69.2726

G1X22.3489Y-69.4051

G1X25.5909Y-70.1391

G1X27.2641Y-70.2862

G1X29.2511Y-70.1175

G1X32.9114Y-69.3283

G1X33.7480Y-69.2726

G1X34.5846Y-69.3566

G1X35.3167Y-69.5726

G1X36.1359Y-69.9847

G1X37.0073Y-70.6027

G1X39.1861Y-72.4049

G1X39.9181Y-72.8234

G1X40.5456Y-73.0100

G1X40.8419Y-72.9551

G1X41.8005Y-72.1859

G1X42.4280Y-71.7871

G1X42.8463Y-71.6111

G1X43.3692Y-71.5166

G1X44.2407Y-70.7442

G1X44.8507Y-70.3244

G1X45.3562Y-70.1116

G1X45.7745Y-70.0465

G1X46.1928Y-70.0856

G1X46.7157Y-70.2738

G1X47.2909Y-70.6272

G1X49.0339Y-71.9508

G1X49.6439Y-72.2361

G1X50.1668Y-72.3326

G1X50.5851Y-72.3046

G1X51.1080Y-72.1508

G1X53.3042Y-70.9190

G1X53.9316Y-70.7037

G1X54.4545Y-70.6390

G1X55.3957Y-70.7787

G1X57.4873Y-71.5958

G1X58.7422Y-71.8282

G1X59.6834Y-71.7652

G1X62.1933Y-71.1985

G1X63.5528Y-71.0558

G1X64.7032Y-71.0883

G1X67.7360Y-71.4040

G1X69.5138Y-71.4971

G1X77.3572Y-71.4142

G1X83.7365Y-71.5067

G1X85.8280Y-71.4304

G1X89.4883Y-71.0525

G1X90.6387Y-71.1546

G1X92.7302Y-71.7207

G1X93.5669Y-71.8308

G1 Z0F20000

(Start Block)


G1X11.4728Y-70.8049
G1Z5F20000
(Plotting speed under)
G1 F4000


G1X11.9957Y-71.2142

G1X12.5186Y-71.4716

G1X13.0415Y-71.5463

G1X13.5643Y-71.4313

G1X14.5230Y-70.7941

G1X16.1788Y-69.1069

G1X16.9631Y-68.4232

G1X17.7475Y-67.9756

G1X18.5841Y-67.8034

G1X19.2116Y-67.8691

G1X19.9436Y-68.1157

G1X22.1398Y-69.3452

G1X25.3817Y-70.1033

G1X27.3687Y-70.2865

G1X29.1465Y-70.1348

G1X32.3885Y-69.4137

G1X33.8526Y-69.2264

G1X35.3167Y-68.4032

G1X36.1533Y-68.0267

G1X36.9899Y-67.8211

G1X37.7220Y-67.8346

G1X38.4540Y-68.0562

G1X39.0989Y-68.4251

G1X39.8584Y-69.0358

G1X41.8877Y-70.9376

G1X42.5326Y-71.3470

G1X43.1600Y-71.5444

G1X43.4439Y-71.4757

G1X44.1535Y-70.8160

G1X44.7636Y-70.3748

G1X45.9837Y-69.8333

G1X47.1340Y-68.8800

G1X47.5523Y-68.6774

G1X48.0752Y-68.5758

G1X48.5981Y-68.6489

G1X49.0164Y-68.8243

G1X51.2126Y-70.4567

G1X51.8401Y-70.7611

G1X52.3629Y-70.8621

G1X52.7813Y-70.8365

G1X53.3042Y-70.6839

G1X55.5003Y-69.4565

G1X56.1278Y-69.2391

G1X56.6507Y-69.1701

G1X57.6964Y-69.3249

G1X59.9972Y-70.1857

G1X61.1475Y-70.3597

G1X62.2979Y-70.2620

G1X65.0169Y-69.6915

G1X66.4810Y-69.5825

G1X72.0237Y-69.9742

G1X76.5206Y-70.0369

G1X82.5861Y-69.9910

G1X88.0242Y-69.5839

G1X89.3837Y-69.7277

G1X91.9982Y-70.3445

G1X92.8348Y-70.3203

G1X93.5669Y-70.1145

G1 Z0F20000

(Start Block)


G1X11.4728Y-70.0500
G1Z5F20000
(Plotting speed under)
G1 F4000


G1X12.1002Y-70.0276

G1X12.6929Y-69.7384

G1X13.3402Y-69.1796

G1X15.3945Y-66.9804

G1X16.0916Y-66.5192

G1X16.8063Y-66.3346

G1X17.4337Y-66.4158

G1X18.0612Y-66.6954

G1X19.8391Y-68.0714

G1X22.0352Y-69.3109

G1X25.2771Y-70.0841

G1X27.1595Y-70.2848

G1X29.0420Y-70.1515

G1X32.3885Y-69.4137

G1X33.8526Y-69.2264

G1X35.9441Y-68.1071

G1X37.6174Y-67.6603

G1X38.4889Y-66.9916

G1X39.1861Y-66.5866

G1X40.1273Y-66.3351

G1X40.8593Y-66.4352

G1X41.6262Y-66.8324

G1X42.3981Y-67.4878

G1X44.3403Y-69.4662

G1X44.9379Y-69.8714

G1X45.4608Y-70.0544

G1X45.9837Y-69.8333

G1X47.1340Y-68.8807

G1X48.0752Y-68.5322

G1X48.8596Y-67.7800

G1X49.3825Y-67.3960

G1X49.8531Y-67.1794

G1X50.2714Y-67.1064

G1X50.6897Y-67.1503

G1X51.2126Y-67.3565

G1X53.4087Y-68.9989

G1X54.0362Y-69.2978

G1X54.5591Y-69.3927

G1X54.9774Y-69.3641

G1X55.5003Y-69.2100

G1X57.6964Y-67.9975

G1X58.3239Y-67.7784

G1X58.8468Y-67.7024

G1X59.9972Y-67.8599

G1X62.5071Y-68.7450

G1X63.6574Y-68.8904

G1X64.8078Y-68.7983

G1X67.8406Y-68.2238

G1X69.6184Y-68.1125

G1X74.9519Y-68.3780

G1X77.8801Y-68.4347

G1X80.7037Y-68.3858

G1X86.2464Y-68.1188

G1X87.6059Y-68.2471

G1X90.1158Y-68.8049

G1X91.0570Y-68.8902

G1X92.1028Y-68.7193

G1X93.5669Y-68.0810

G1 Z0F20000

(Start Block)


G1X11.4728Y-68.3346
G1Z5F20000
(Plotting speed under)
G1 F4000


G1X12.1451Y-67.7613

G1X14.1744Y-65.4807

G1X14.8193Y-65.0350

G1X15.4468Y-64.8652

G1X16.0742Y-64.9666

G1X16.7889Y-65.3728

G1X18.2704Y-66.8163

G1X19.8391Y-68.0714

G1X20.6234Y-68.4620

G1X21.9306Y-69.2676

G1X22.3489Y-69.4047

G1X22.8718Y-69.4600

G1X24.0222Y-69.3097

G1X26.9504Y-68.6502

G1X28.6236Y-68.4879

G1X30.4015Y-68.6023

G1X33.3297Y-69.2366

G1X33.8526Y-69.2244

G1X35.9441Y-68.1071

G1X37.6174Y-67.6603

G1X38.9769Y-66.6917

G1X39.6044Y-66.4264

G1X40.2318Y-66.3327

G1X41.6262Y-65.2290

G1X42.1143Y-64.9863

G1X42.6372Y-64.8676

G1X43.2646Y-64.9410

G1X43.9793Y-65.3123

G1X44.6391Y-65.8884

G1X46.5937Y-67.9853

G1X47.2386Y-68.4357

G1X47.7615Y-68.5884

G1X48.1499Y-68.4836

G1X48.7724Y-67.8564

G1X49.3825Y-67.3960

G1X50.1668Y-67.1133

G1X51.4740Y-65.9513

G1X51.9446Y-65.7214

G1X52.3629Y-65.6380

G1X52.7813Y-65.6731

G1X53.3042Y-65.8704

G1X55.5700Y-67.5461

G1X56.1278Y-67.8117

G1X56.7552Y-67.9240

G1X57.2781Y-67.8636

G1X57.8010Y-67.6833

G1X60.1018Y-66.4555

G1X61.1475Y-66.2311

G1X62.2979Y-66.3807

G1X65.0169Y-67.2783

G1X66.3765Y-67.4210

G1X67.5268Y-67.3290

G1X71.0825Y-66.7600

G1X73.8015Y-66.6425

G1X84.1548Y-66.6744

G1X85.9326Y-66.8540

G1X88.6517Y-67.3607

G1X89.6974Y-67.4164

G1X90.8478Y-67.2144

G1X92.8348Y-66.4118

G1X93.5669Y-66.2398

G1 Z0F20000

(Start Block)


G1X11.4728Y-65.9303
G1Z5F20000
(Plotting speed under)
G1 F4000


G1X12.5186Y-64.6470

G1X13.2158Y-63.9266

G1X13.7735Y-63.5481

G1X14.4010Y-63.3935

G1X15.0284Y-63.5389

G1X15.7306Y-64.0145

G1X18.1210Y-66.6696

G1X19.2290Y-67.5789

G1X19.8391Y-67.8720

G1X20.5711Y-67.9993

G1X21.3032Y-67.9220

G1X22.1398Y-67.6429

G1X25.1726Y-66.0350

G1X26.5321Y-65.4568

G1X27.8916Y-65.0963

G1X29.2511Y-64.9651

G1X30.7152Y-65.0763

G1X32.1793Y-65.4431

G1X33.6434Y-66.0436

G1X36.8853Y-67.6910

G1X37.4082Y-67.7344

G1X37.7045Y-67.6092

G1X38.4017Y-67.0524

G1X39.0815Y-66.6370

G1X39.6044Y-66.4264

G1X40.3190Y-66.2827

G1X41.6262Y-65.2290

G1X42.8463Y-64.7518

G1X43.9967Y-63.7331

G1X44.5196Y-63.4766

G1X44.9379Y-63.3950

G1X45.5653Y-63.4967

G1X46.1580Y-63.8330

G1X46.8053Y-64.4227

G1X48.7724Y-66.5853

G1X49.3302Y-66.9675

G1X49.9576Y-67.1532

G1X50.2415Y-67.0671

G1X51.3869Y-66.0105

G1X52.2584Y-65.6045

G1X53.4785Y-64.5057

G1X53.9316Y-64.2712

G1X54.4545Y-64.1661

G1X54.9774Y-64.2421

G1X55.4829Y-64.4686

G1X57.8010Y-66.1559

G1X58.3239Y-66.3711

G1X58.8468Y-66.4535

G1X59.3697Y-66.4035

G1X59.8926Y-66.2388

G1X62.2979Y-65.0061

G1X63.4483Y-64.7616

G1X64.5986Y-64.8911

G1X67.5268Y-65.7833

G1X69.0955Y-65.9511

G1X70.3504Y-65.8842

G1X74.7427Y-65.3711

G1X78.6121Y-65.2489

G1X82.3770Y-65.3661

G1X86.6647Y-65.8935

G1X87.9196Y-65.9469

G1X89.3837Y-65.7198

G1X92.1028Y-64.8020

G1X92.8348Y-64.7717

G1X93.5669Y-64.9575

G1 Z0F20000

(Start Block)


G1X11.4728Y-63.3760
G1Z5F20000
(Plotting speed under)
G1 F4000


G1X12.2198Y-62.5490

G1X12.7800Y-62.1243

G1X13.3552Y-61.9303

G1X13.9827Y-62.0236

G1X14.4358Y-62.2784

G1X14.9836Y-62.7601

G1X16.9258Y-65.0970

G1X17.6728Y-65.8431

G1X18.4795Y-66.3573

G1X19.3162Y-66.5302

G1X20.0482Y-66.3999

G1X20.8848Y-65.9972

G1X24.0222Y-63.6446

G1X25.6954Y-62.6708

G1X27.4733Y-62.0635

G1X28.5191Y-61.8809

G1X29.5648Y-61.8030

G1X30.8198Y-61.8331

G1X31.9702Y-61.9820

G1X33.0159Y-62.2324

G1X34.0617Y-62.6106

G1X35.8744Y-63.6000

G1X39.0118Y-65.8628

G1X39.6044Y-66.1995

G1X40.1273Y-66.3505

G1X40.4062Y-66.2293

G1X41.6262Y-65.2290

G1X42.8463Y-64.7518

G1X43.8921Y-63.8022

G1X44.9379Y-63.3143

G1X45.5479Y-62.6773

G1X46.0882Y-62.2450

G1X46.6111Y-61.9907

G1X47.0294Y-61.9230

G1X47.5523Y-62.0193

G1X48.1624Y-62.3738

G1X48.7475Y-62.9170

G1X50.6897Y-65.0941

G1X51.3172Y-65.5212

G1X51.9446Y-65.6731

G1X52.3331Y-65.5535

G1X53.1299Y-64.7633

G1X54.2628Y-64.0418

G1X55.3957Y-63.0554

G1X55.9186Y-62.7892

G1X56.4415Y-62.6957

G1X56.9644Y-62.7771

G1X57.5744Y-63.0624

G1X59.2303Y-64.3021

G1X59.8926Y-64.7086

G1X60.4155Y-64.9084

G1X60.9384Y-64.9838

G1X61.4613Y-64.9367

G1X62.0887Y-64.7426

G1X64.5986Y-63.5230

G1X65.2261Y-63.3546

G1X65.8536Y-63.2899

G1X67.1085Y-63.4337

G1X70.2459Y-64.2829

G1X72.0237Y-64.4742

G1X78.9259Y-64.2134

G1X84.5731Y-64.4683

G1X86.0372Y-64.4576

G1X87.5013Y-64.2512

G1X90.2203Y-63.4335

G1X91.2661Y-63.2890

G1X92.3119Y-63.4715

G1X93.5669Y-64.1196

G1 Z0F20000

(Start Block)


G1X11.4728Y-61.0711
G1Z5F20000
(Plotting speed under)
G1 F4000


G1X11.9957Y-60.6690

G1X12.5186Y-60.4700

G1X13.0415Y-60.4960

G1X13.4598Y-60.6770

G1X14.3113Y-61.4123

G1X16.0481Y-63.5858

G1X16.7017Y-64.2837

G1X17.5383Y-64.8742

G1X18.2704Y-65.0591

G1X19.0024Y-64.9398

G1X19.8391Y-64.4946

G1X23.1507Y-61.5841

G1X24.0222Y-60.9575

G1X24.8588Y-60.4871

G1X25.8000Y-60.1048

G1X26.8458Y-59.8334

G1X28.1007Y-59.6602

G1X29.5648Y-59.5821

G1X31.6564Y-59.5904

G1X33.3297Y-59.7100

G1X34.6892Y-59.9572

G1X35.8396Y-60.3382

G1X36.7459Y-60.7828

G1X37.6174Y-61.3417

G1X41.0162Y-64.2236

G1X41.7134Y-64.6899

G1X42.3234Y-64.9200

G1X42.8463Y-64.7518

G1X43.9967Y-63.7343

G1X44.9379Y-63.3143

G1X45.7222Y-62.5210

G1X46.6809Y-61.8935

G1X47.9009Y-60.7885

G1X48.3890Y-60.5357

G1X48.8073Y-60.4545

G1X49.3302Y-60.5384

G1X49.9054Y-60.8598

G1X50.5403Y-61.4445

G1X52.4327Y-63.5791

G1X52.9904Y-63.9887

G1X53.6179Y-64.1982

G1X53.9316Y-64.1737

G1X54.3499Y-63.9754

G1X55.0471Y-63.3181

G1X55.9186Y-62.7704

G1X56.7030Y-62.0056

G1X57.3130Y-61.5433

G1X57.8010Y-61.3131

G1X58.3239Y-61.2263

G1X58.8468Y-61.3053

G1X59.3697Y-61.5291

G1X61.2347Y-62.8559

G1X61.8796Y-63.2330

G1X62.4025Y-63.4292

G1X62.9254Y-63.5119

G1X63.5528Y-63.4639

G1X64.1803Y-63.2807

G1X66.8993Y-62.0533

G1X67.6314Y-61.8783

G1X68.3634Y-61.8193

G1X69.6184Y-61.9423

G1X72.4420Y-62.5906

G1X74.1153Y-62.8528

G1X76.1023Y-62.9825

G1X79.1350Y-63.0107

G1X82.3770Y-62.9840

G1X84.2594Y-62.8637

G1X85.9326Y-62.5971

G1X88.7562Y-61.9178

G1X90.0112Y-61.8263

G1X90.6387Y-61.9127

G1X91.3707Y-62.1432

G1X93.5669Y-63.2737

G1 Z0F20000

(Start Block)


G1X11.4728Y-59.1414
G1Z5F20000
(Plotting speed under)
G1 F4000


G1X11.8911Y-59.0003

G1X12.2048Y-58.9888

G1X12.6231Y-59.0979

G1X13.0415Y-59.3436

G1X13.7885Y-60.0588

G1X15.3945Y-62.1002

G1X16.0294Y-62.7944

G1X16.8063Y-63.3728

G1X17.5383Y-63.5867

G1X18.2704Y-63.4759

G1X19.1419Y-62.9835

G1X19.9137Y-62.3201

G1X22.3041Y-59.9570

G1X23.7607Y-58.9017

G1X24.5451Y-58.5258

G1X25.3817Y-58.2607

G1X26.3229Y-58.0979

G1X27.3687Y-58.0343

G1X30.9244Y-58.0924

G1X34.8983Y-58.0403

G1X36.1533Y-58.1542

G1X37.1991Y-58.4022

G1X38.2449Y-58.8444

G1X39.1861Y-59.4340

G1X40.2318Y-60.2939

G1X42.8463Y-62.7734

G1X43.6829Y-63.3328

G1X44.3104Y-63.5178

G1X44.6241Y-63.4722

G1X44.9379Y-63.3143

G1X45.7222Y-62.5210

G1X46.5937Y-61.9626

G1X47.5523Y-61.0615

G1X48.0752Y-60.6798

G1X49.4696Y-59.3525

G1X49.9576Y-59.0830

G1X50.4805Y-58.9837

G1X51.0034Y-59.0907

G1X51.5612Y-59.4198

G1X52.2584Y-60.0788

G1X54.0885Y-62.1243

G1X54.6985Y-62.5511

G1X55.2911Y-62.7239

G1X55.7095Y-62.6990

G1X56.0929Y-62.5260

G1X57.4873Y-61.4408

G1X58.3837Y-60.5796

G1X58.9688Y-60.1320

G1X59.5789Y-59.8397

G1X60.1018Y-59.7559

G1X60.6246Y-59.8265

G1X61.2347Y-60.0772

G1X63.7620Y-61.7310

G1X64.3895Y-61.9602

G1X64.9124Y-62.0407

G1X65.4353Y-62.0220

G1X66.0627Y-61.8859

G1X68.8863Y-60.7168

G1X69.7230Y-60.4850

G1X70.5596Y-60.3678

G1X72.2329Y-60.4212

G1X76.8343Y-61.0624

G1X79.6579Y-61.1824

G1X82.6907Y-61.0314

G1X86.6647Y-60.4439

G1X87.9196Y-60.3493

G1X88.8608Y-60.4148

G1X89.6974Y-60.6061

G1X92.4165Y-61.8006

G1X93.0440Y-61.9891

G1X93.5669Y-62.0451

G1 Z0F20000

(Start Block)


G1X11.4728Y-57.5191
G1Z5F20000
(Plotting speed under)
G1 F4000


G1X12.1002Y-57.6160

G1X12.6929Y-57.9816

G1X13.3402Y-58.6265

G1X14.9369Y-60.6449

G1X15.5812Y-61.3428

G1X16.3880Y-61.9276

G1X17.1200Y-62.1194

G1X17.9566Y-61.9403

G1X18.7933Y-61.4051

G1X21.7065Y-58.4908

G1X23.0636Y-57.4317

G1X23.8130Y-57.0362

G1X24.5451Y-56.7767

G1X26.1138Y-56.5631

G1X31.1335Y-56.9093

G1X32.8068Y-56.8708

G1X36.5716Y-56.5622

G1X37.6174Y-56.6093

G1X38.5586Y-56.7928

G1X39.4998Y-57.1536

G1X40.4933Y-57.7540

G1X41.5764Y-58.6569

G1X44.3278Y-61.3503

G1X45.1470Y-61.8865

G1X45.8791Y-62.1123

G1X46.2974Y-62.0977

G1X46.6809Y-61.9081

G1X47.5523Y-61.0615

G1X48.2993Y-60.4741

G1X50.6150Y-58.0842

G1X51.2126Y-57.6801

G1X51.8401Y-57.5144

G1X52.3629Y-57.5958

G1X52.9556Y-57.9188

G1X53.6029Y-58.5002

G1X55.5700Y-60.6464

G1X56.2323Y-61.0941

G1X56.8598Y-61.2565

G1X57.3827Y-61.1855

G1X57.9056Y-60.9444

G1X60.4503Y-58.7773

G1X61.1475Y-58.4082

G1X61.7750Y-58.2867

G1X62.2979Y-58.3408

G1X62.8208Y-58.5200

G1X65.4353Y-60.1374

G1X66.1673Y-60.4361

G1X66.8993Y-60.5683

G1X67.5268Y-60.5510

G1X68.2589Y-60.4037

G1X70.8733Y-59.4443

G1X71.9191Y-59.1422

G1X73.0695Y-58.9477

G1X74.3244Y-58.8796

G1X79.8671Y-59.0788

G1X84.8868Y-58.8858

G1X86.3509Y-58.9122

G1X87.3967Y-59.0448

G1X88.3379Y-59.2716

G1X90.9524Y-60.2661

G1X91.7890Y-60.5054

G1X92.7302Y-60.5631

G1X93.5669Y-60.3638

G1 Z0F20000

(Start Block)


G1X11.4728Y-56.0703
G1Z5F20000
(Plotting speed under)
G1 F4000


G1X12.0828Y-56.3308

G1X12.6680Y-56.8106

G1X14.6848Y-59.2449

G1X15.3945Y-59.9750

G1X16.0916Y-60.4539

G1X16.8063Y-60.6481

G1X17.5383Y-60.5315

G1X18.4447Y-60.0072

G1X19.3162Y-59.2237

G1X21.4824Y-56.9937

G1X22.8021Y-55.9547

G1X24.1268Y-55.3359

G1X24.8588Y-55.1663

G1X25.6954Y-55.0930

G1X27.0550Y-55.1652

G1X30.2969Y-55.5952

G1X31.7610Y-55.6744

G1X33.6434Y-55.5859

G1X37.5128Y-55.1042

G1X38.5586Y-55.1135

G1X39.4998Y-55.2680

G1X40.4410Y-55.6041

G1X41.4519Y-56.1953

G1X42.5475Y-57.0958

G1X45.3736Y-59.8598

G1X46.2974Y-60.4496

G1X47.0294Y-60.6453

G1X47.7615Y-60.5522

G1X48.5981Y-60.0852

G1X49.4198Y-59.3063

G1X51.6608Y-56.7411

G1X52.3629Y-56.2394

G1X53.0950Y-56.0439

G1X53.6179Y-56.1306

G1X54.2628Y-56.4826

G1X54.9475Y-57.0913

G1X56.8897Y-59.1491

G1X57.5919Y-59.6144

G1X58.2193Y-59.7839

G1X58.7422Y-59.7351

G1X59.3174Y-59.4968

G1X59.9275Y-59.0765

G1X62.0190Y-57.3152

G1X62.7162Y-56.9564

G1X63.4483Y-56.8167

G1X64.0757Y-56.8917

G1X64.7032Y-57.1196

G1X66.8122Y-58.3710

G1X67.6314Y-58.7752

G1X68.3634Y-59.0066

G1X69.0955Y-59.1019

G1X70.5596Y-58.9437

G1X73.4878Y-58.0881

G1X74.8473Y-57.7799

G1X76.4160Y-57.5687

G1X78.1938Y-57.4664

G1X82.1678Y-57.4605

G1X84.7823Y-57.6380

G1X86.4555Y-57.9382

G1X89.6974Y-58.8880

G1X90.9524Y-59.0988

G1X91.5799Y-59.0863

G1X92.2073Y-58.9730

G1X92.8348Y-58.7537

G1X93.5669Y-58.3788

G1 Z0F20000

(Start Block)


G1X11.4728Y-54.6788
G1Z5F20000
(Plotting speed under)
G1 F4000


G1X11.9957Y-54.9698

G1X12.5933Y-55.4933

G1X14.4794Y-57.7303

G1X15.2202Y-58.4774

G1X16.0742Y-59.0294

G1X16.8063Y-59.1808

G1X17.5383Y-59.0342

G1X18.4447Y-58.5028

G1X19.3162Y-57.7358

G1X21.4949Y-55.5555

G1X22.8021Y-54.5385

G1X23.4993Y-54.1544

G1X24.2313Y-53.8719

G1X25.6954Y-53.6286

G1X26.9504Y-53.6654

G1X30.2969Y-54.0996

G1X32.0747Y-54.2064

G1X33.9571Y-54.1214

G1X38.0357Y-53.6313

G1X39.0815Y-53.6462

G1X40.0227Y-53.7989

G1X41.0685Y-54.1699

G1X42.0620Y-54.7440

G1X43.1949Y-55.6502

G1X46.1580Y-58.4349

G1X47.0294Y-58.9671

G1X47.8661Y-59.1782

G1X48.7027Y-59.0399

G1X49.4696Y-58.6017

G1X50.3162Y-57.8290

G1X52.6319Y-55.2842

G1X53.3042Y-54.8078

G1X54.0362Y-54.5794

G1X54.6637Y-54.6514

G1X55.3086Y-54.9721

G1X55.9933Y-55.5332

G1X58.1845Y-57.7251

G1X58.9514Y-58.1815

G1X59.5789Y-58.3171

G1X60.1018Y-58.2596

G1X60.7118Y-58.0142

G1X61.3219Y-57.6164

G1X63.5877Y-55.8290

G1X64.2849Y-55.4946

G1X65.0169Y-55.3495

G1X65.7490Y-55.4152

G1X66.4810Y-55.6562

G1X68.7818Y-56.8851

G1X69.7230Y-57.2948

G1X70.5596Y-57.5269

G1X71.5008Y-57.6321

G1X73.0695Y-57.5196

G1X77.5664Y-56.7147

G1X80.5991Y-56.5292

G1X83.6319Y-56.7059

G1X88.2334Y-57.5245

G1X89.9066Y-57.6265

G1X90.7432Y-57.5207

G1X91.5799Y-57.2841

G1X93.5669Y-56.2939

G1 Z0F20000

(Start Block)


G1X11.4728Y-53.2738
G1Z5F20000
(Plotting speed under)
G1 F4000


G1X11.9957Y-53.5967

G1X12.5933Y-54.1314

G1X14.4607Y-56.2689

G1X15.2202Y-57.0020

G1X16.0742Y-57.5407

G1X16.8063Y-57.7093

G1X17.6429Y-57.5689

G1X18.6190Y-57.0248

G1X19.4656Y-56.3229

G1X21.8435Y-54.0812

G1X23.2379Y-53.0701

G1X24.0222Y-52.6729

G1X24.7542Y-52.4135

G1X26.3229Y-52.1636

G1X27.6824Y-52.1804

G1X32.0747Y-52.5083

G1X33.8526Y-52.4667

G1X37.9311Y-52.1524

G1X39.0815Y-52.2008

G1X40.0227Y-52.3644

G1X41.2776Y-52.8116

G1X42.4977Y-53.5294

G1X43.6307Y-54.4254

G1X45.8965Y-56.4774

G1X46.7680Y-57.1305

G1X47.5523Y-57.5360

G1X48.3890Y-57.7098

G1X49.2256Y-57.5747

G1X50.0796Y-57.1149

G1X50.9138Y-56.4009

G1X53.3913Y-53.8382

G1X54.1408Y-53.3345

G1X54.8728Y-53.1127

G1X55.6049Y-53.1889

G1X56.2672Y-53.5037

G1X57.0391Y-54.1047

G1X59.3174Y-56.2483

G1X60.1018Y-56.6945

G1X60.8338Y-56.8475

G1X61.4613Y-56.7681

G1X62.0887Y-56.5143

G1X65.0692Y-54.3996

G1X65.8536Y-54.0409

G1X66.5856Y-53.8877

G1X67.3177Y-53.9100

G1X68.1543Y-54.1166

G1X70.9779Y-55.3937

G1X72.2329Y-55.8382

G1X73.3832Y-56.0741

G1X74.6382Y-56.1637

G1X80.8083Y-55.8673

G1X82.7953Y-55.9137

G1X86.5601Y-56.1549

G1X88.3379Y-56.1106

G1X89.4883Y-55.9227

G1X90.5341Y-55.6153

G1X93.5669Y-54.2813

G1 Z0F20000

(Start Block)


G1X11.4728Y-51.8273
G1Z5F20000
(Plotting speed under)
G1 F4000


G1X11.9957Y-52.1448

G1X12.5933Y-52.6557

G1X14.5354Y-54.7652

G1X15.3945Y-55.5499

G1X16.2834Y-56.0727

G1X17.1200Y-56.2406

G1X17.9566Y-56.0973

G1X18.9676Y-55.5757

G1X19.9262Y-54.8408

G1X22.3664Y-52.7295

G1X24.0222Y-51.6364

G1X24.8588Y-51.2564

G1X25.6954Y-50.9880

G1X26.6367Y-50.8010

G1X27.6824Y-50.7031

G1X32.5976Y-50.7547

G1X36.9899Y-50.6885

G1X38.3494Y-50.7859

G1X39.6044Y-51.0291

G1X40.9639Y-51.5224

G1X42.2363Y-52.2302

G1X43.4564Y-53.1117

G1X45.8094Y-55.0248

G1X46.7680Y-55.6717

G1X47.6569Y-56.0811

G1X48.4935Y-56.2389

G1X49.4348Y-56.1075

G1X50.3411Y-55.6678

G1X51.2873Y-54.9282

G1X53.2295Y-53.0115

G1X54.0014Y-52.3474

G1X54.8728Y-51.8263

G1X55.6049Y-51.6407

G1X56.3369Y-51.7098

G1X57.0516Y-52.0123

G1X57.8359Y-52.5646

G1X59.5789Y-54.1423

G1X60.4503Y-54.8199

G1X61.2521Y-55.2289

G1X62.0887Y-55.3783

G1X62.7162Y-55.2989

G1X63.3437Y-55.0727

G1X64.1106Y-54.6418

G1X66.5856Y-52.9843

G1X67.5268Y-52.5845

G1X68.3634Y-52.4211

G1X69.2001Y-52.4342

G1X70.1413Y-52.6214

G1X73.6969Y-53.8957

G1X75.5794Y-54.3618

G1X77.7755Y-54.6090

G1X81.0174Y-54.6825

G1X84.7823Y-54.6167

G1X87.1876Y-54.3578

G1X88.9654Y-53.9390

G1X92.3119Y-52.7752

G1X93.5669Y-52.4708

G1 Z0F20000

(Start Block)


G1X11.4728Y-50.3402
G1Z5F20000
(Plotting speed under)
G1 F4000


G1X12.0828Y-50.6862

G1X12.6680Y-51.1570

G1X14.7595Y-53.2843

G1X15.6559Y-54.0548

G1X16.5971Y-54.5837

G1X17.5383Y-54.7706

G1X18.4795Y-54.6234

G1X19.4905Y-54.1583

G1X20.4491Y-53.5170

G1X23.3250Y-51.3402

G1X24.3359Y-50.7164

G1X25.2771Y-50.2513

G1X26.3229Y-49.8653

G1X27.3687Y-49.6006

G1X29.9832Y-49.3038

G1X32.8068Y-49.2551

G1X35.4212Y-49.3351

G1X37.1991Y-49.5315

G1X38.7677Y-49.8868

G1X40.1273Y-50.3842

G1X41.4519Y-51.0574

G1X45.1122Y-53.5269

G1X46.1928Y-54.1705

G1X47.2386Y-54.6035

G1X48.2844Y-54.7706

G1X49.3302Y-54.6206

G1X50.3411Y-54.1671

G1X51.3869Y-53.4249

G1X53.4785Y-51.5672

G1X54.3499Y-50.8866

G1X55.2911Y-50.3709

G1X56.1278Y-50.1715

G1X56.9644Y-50.2439

G1X57.8010Y-50.5775

G1X58.7074Y-51.1742

G1X60.5375Y-52.6849

G1X61.4090Y-53.3046

G1X62.2979Y-53.7352

G1X63.2391Y-53.9080

G1X63.9712Y-53.8337

G1X64.7032Y-53.5972

G1X68.3634Y-51.5155

G1X69.4092Y-51.1299

G1X70.3504Y-50.9607

G1X71.2916Y-50.9491

G1X72.3374Y-51.0818

G1X76.1023Y-52.0074

G1X77.9847Y-52.3628

G1X79.7625Y-52.5555

G1X81.6449Y-52.6222

G1X83.5273Y-52.5599

G1X85.3052Y-52.3771

G1X87.1876Y-52.0440

G1X91.3707Y-51.0798

G1X92.5211Y-50.9479

G1X93.5669Y-50.9630

G1 Z0F20000

(Start Block)


G1X11.4728Y-48.8283
G1Z5F20000
(Plotting speed under)
G1 F4000


G1X12.0828Y-49.1203

G1X12.7800Y-49.6192

G1X15.0583Y-51.7616

G1X16.0916Y-52.5836

G1X17.1200Y-53.1116

G1X18.1658Y-53.3006

G1X19.1070Y-53.1843

G1X20.2574Y-52.7460

G1X24.2836Y-50.2912

G1X26.3229Y-49.3207

G1X27.4733Y-48.9412

G1X28.6236Y-48.6719

G1X31.1335Y-48.3856

G1X32.8068Y-48.3712

G1X34.4800Y-48.4843

G1X36.0487Y-48.7222

G1X37.5128Y-49.0836

G1X38.7677Y-49.5153

G1X40.1273Y-50.1119

G1X45.0425Y-52.7243

G1X46.2974Y-53.1506

G1X47.4478Y-53.3007

G1X48.5981Y-53.1703

G1X49.8531Y-52.6938

G1X51.1254Y-51.9021

G1X53.4785Y-50.0742

G1X54.4371Y-49.4195

G1X55.5003Y-48.9053

G1X56.4415Y-48.7029

G1X57.3827Y-48.7685

G1X58.3239Y-49.0931

G1X59.3174Y-49.6645

G1X61.4961Y-51.2534

G1X62.4025Y-51.8227

G1X63.4483Y-52.2712

G1X64.4940Y-52.4380

G1X65.4353Y-52.3423

G1X66.3765Y-52.0480

G1X69.5138Y-50.4676

G1X70.6642Y-49.9841

G1X71.7100Y-49.6813

G1X72.8603Y-49.5048

G1X74.8473Y-49.5072

G1X79.1350Y-49.9647

G1X81.5403Y-50.0920

G1X84.3639Y-50.0054

G1X90.2203Y-49.4708

G1X91.8936Y-49.5300

G1X93.5669Y-49.8263

G1 Z0F20000

(Start Block)


G1X11.4728Y-47.3108
G1Z5F20000
(Plotting speed under)
G1 F4000


G1X12.2048Y-47.6042

G1X12.9543Y-48.0826

G1X15.5688Y-50.3198

G1X16.7017Y-51.1257

G1X17.8521Y-51.6460

G1X19.0024Y-51.8304

G1X19.9436Y-51.7520

G1X21.0940Y-51.4371

G1X25.3817Y-49.5171

G1X27.3687Y-48.8156

G1X29.4603Y-48.3701

G1X31.6564Y-48.2155

G1X33.8526Y-48.3566

G1X36.6762Y-48.8593

G1X38.6632Y-49.4749

G1X41.3822Y-50.7198

G1X43.3692Y-51.4264

G1X45.1470Y-51.7922

G1X46.7157Y-51.7807

G1X47.9707Y-51.5035

G1X49.3302Y-50.9390

G1X50.6025Y-50.2087

G1X53.3042Y-48.4336

G1X54.5591Y-47.7573

G1X55.6049Y-47.3813

G1X56.6507Y-47.2264

G1X57.6964Y-47.3140

G1X58.7422Y-47.6350

G1X59.9275Y-48.2287

G1X62.3676Y-49.7656

G1X63.4483Y-50.3525

G1X64.5986Y-50.7836

G1X65.7490Y-50.9639

G1X66.7948Y-50.9064

G1X67.9451Y-50.6368

G1X71.8145Y-49.0906

G1X73.3832Y-48.5828

G1X74.9519Y-48.2514

G1X76.6251Y-48.0693

G1X79.4488Y-47.9966

G1X88.0242Y-48.0634

G1X90.8478Y-48.3894

G1X93.5669Y-49.0565

G1 Z0F20000

(Start Block)


G1X11.4728Y-45.8020
G1Z5F20000
(Plotting speed under)
G1 F4000


G1X12.3094Y-46.0691

G1X13.1286Y-46.5199

G1X16.0916Y-48.7879

G1X17.3292Y-49.5804

G1X18.6887Y-50.1408

G1X20.0482Y-50.3558

G1X21.0940Y-50.3195

G1X22.2444Y-50.1324

G1X28.8328Y-48.4720

G1X30.1923Y-48.2844

G1X31.6564Y-48.2155

G1X33.7480Y-48.3434

G1X36.3624Y-48.7875

G1X37.8265Y-49.1807

G1X39.8135Y-49.9511

G1X40.5456Y-50.1262

G1X42.6372Y-50.3542

G1X44.4150Y-50.2746

G1X45.9837Y-49.9501

G1X47.5523Y-49.3911

G1X49.0164Y-48.6985

G1X52.2584Y-46.9670

G1X53.7225Y-46.3188

G1X55.0820Y-45.9131

G1X56.3369Y-45.7574

G1X57.5919Y-45.8354

G1X58.9514Y-46.1766

G1X60.4155Y-46.7883

G1X63.2391Y-48.2663

G1X64.4940Y-48.8398

G1X65.8536Y-49.2803

G1X67.1085Y-49.4777

G1X68.3634Y-49.4712

G1X69.7230Y-49.2703

G1X74.5336Y-47.9321

G1X76.7297Y-47.4510

G1X78.7167Y-47.1771

G1X80.9129Y-47.0277

G1X84.0502Y-47.0314

G1X87.0830Y-47.2633

G1X89.9066Y-47.7021

G1X93.5669Y-48.5039

G1 Z0F20000

(Start Block)


G1X11.4728Y-44.3077
G1Z5F20000
(Plotting speed under)
G1 F4000


G1X12.4140Y-44.5421

G1X13.3552Y-44.9864

G1X16.7017Y-47.2287

G1X18.2704Y-48.0864

G1X19.9436Y-48.6509

G1X21.7215Y-48.8801

G1X23.6039Y-48.8419

G1X31.5518Y-48.2160

G1X33.7480Y-48.3434

G1X36.7808Y-48.8530

G1X38.9769Y-48.8801

G1X40.8593Y-48.7227

G1X42.6372Y-48.3798

G1X44.4150Y-47.8491

G1X49.9576Y-45.5698

G1X51.8401Y-44.9011

G1X53.7225Y-44.4503

G1X55.5003Y-44.2853

G1X57.1736Y-44.3855

G1X58.9514Y-44.7541

G1X60.7292Y-45.3444

G1X65.6444Y-47.2971

G1X67.2131Y-47.7267

G1X68.7818Y-47.9698

G1X70.1413Y-48.0289

G1X71.6054Y-47.9600

G1X78.2984Y-47.0620

G1X82.1678Y-46.8428

G1X86.2464Y-47.0171

G1X93.5669Y-47.8182

G1 Z0F20000

(Start Block)


G1X11.4728Y-42.8261
G1Z5F20000
(Plotting speed under)
G1 F4000


G1X12.4140Y-43.0017

G1X13.4598Y-43.4021

G1X17.4337Y-45.6453

G1X19.4207Y-46.5210

G1X21.6169Y-47.0886

G1X24.3359Y-47.3601

G1X32.0747Y-47.3781

G1X34.3755Y-47.2518

G1X36.3624Y-47.0124

G1X38.1403Y-46.6668

G1X39.9181Y-46.1955

G1X45.8791Y-44.1576

G1X48.1798Y-43.4872

G1X50.6897Y-43.0008

G1X53.1996Y-42.8159

G1X55.7095Y-42.9297

G1X58.3239Y-43.3308

G1X60.8338Y-43.9324

G1X67.2131Y-45.7515

G1X69.2001Y-46.1592

G1X71.1871Y-46.4180

G1X74.4290Y-46.5587

G1X81.7495Y-46.4490

G1X89.6974Y-46.5566

G1X93.5669Y-46.5191

G1 Z0F20000

(Start Block)


G1X11.4728Y-41.3533
G1Z5F20000
(Plotting speed under)
G1 F4000


G1X12.5186Y-41.5186

G1X13.5643Y-41.8537

G1X17.7475Y-43.7784

G1X19.9436Y-44.5743

G1X22.4535Y-45.1216

G1X25.2771Y-45.3732

G1X28.7282Y-45.3226

G1X32.0747Y-44.9265

G1X35.1075Y-44.2436

G1X40.6502Y-42.5534

G1X42.9509Y-41.9579

G1X45.5653Y-41.5162

G1X48.1798Y-41.3483

G1X51.4217Y-41.4480

G1X55.3957Y-41.8485

G1X60.3109Y-42.5503

G1X69.5138Y-44.1038

G1X72.1283Y-44.4309

G1X74.7427Y-44.6510

G1X78.6121Y-44.8044

G1X82.8999Y-44.7982

G1X86.6647Y-44.6687

G1X93.5669Y-44.2806

G1 Z0F20000

(Start Block)


G1X11.4728Y-39.8875
G1Z5F20000
(Plotting speed under)
G1 F4000


G1X12.4140Y-40.0140

G1X13.4598Y-40.2789

G1X17.5383Y-41.7396

G1X19.5253Y-42.3150

G1X21.7215Y-42.7160

G1X24.0222Y-42.8776

G1X26.3229Y-42.8016

G1X28.6236Y-42.5093

G1X31.0289Y-42.0029

G1X37.4082Y-40.3493

G1X39.4998Y-40.0138

G1X41.4868Y-39.8799

G1X44.8333Y-40.0194

G1X51.8401Y-40.8697

G1X55.8140Y-41.2248

G1X73.1741Y-42.0824

G1X76.5206Y-42.1259

G1X79.7625Y-42.0604

G1X89.8020Y-41.4337

G1X93.5669Y-41.3355

G1 Z0F20000

(Start Block)


G1X11.4728Y-38.4335
G1Z5F20000
(Plotting speed under)
G1 F4000


G1X13.1460Y-38.7150

G1X16.7017Y-39.6802

G1X18.4795Y-40.0774

G1X20.3619Y-40.3415

G1X22.2444Y-40.4291

G1X24.1268Y-40.3455

G1X26.1138Y-40.0915

G1X31.7610Y-38.8847

G1X33.5388Y-38.5790

G1X35.3167Y-38.4193

G1X36.9899Y-38.4306

G1X39.8135Y-38.7787

G1X47.1340Y-40.2783

G1X50.4805Y-40.6753

G1X54.0362Y-40.8121

G1X59.2651Y-40.6226

G1X84.6777Y-38.7709

G1X89.2791Y-38.5962

G1X93.5669Y-38.6030

G1 Z0F20000

(Start Block)


G1X11.4728Y-37.0028
G1Z5F20000
(Plotting speed under)
G1 F4000


G1X17.0154Y-38.0510

G1X18.5841Y-38.2302

G1X20.1528Y-38.2926

G1X21.7215Y-38.2372

G1X23.2901Y-38.0754

G1X29.6694Y-37.0247

G1X31.1335Y-36.9363

G1X32.5976Y-36.9879

G1X33.9571Y-37.1702

G1X35.3167Y-37.4699

G1X39.1861Y-38.6717

G1X45.8791Y-40.0618

G1X47.6569Y-40.3285

G1X51.0034Y-40.4274

G1X54.9774Y-40.3191

G1X58.6377Y-39.9715

G1X61.6704Y-39.4854

G1X70.3504Y-37.8201

G1X73.3832Y-37.3860

G1X76.2068Y-37.1051

G1X80.9129Y-36.9347

G1X89.4883Y-37.2011

G1X93.5669Y-37.1412

G1 Z0F20000

(Start Block)


G1X11.4728Y-35.6108
G1Z5F20000
(Plotting speed under)
G1 F4000


G1X15.6559Y-36.2948

G1X18.4795Y-36.4652

G1X21.0940Y-36.2966

G1X26.5321Y-35.5243

G1X27.9962Y-35.4654

G1X29.2511Y-35.5418

G1X30.5061Y-35.7514

G1X31.7610Y-36.0893

G1X35.3167Y-37.4554

G1X39.1861Y-38.6717

G1X41.4868Y-39.1035

G1X43.2646Y-39.2038

G1X49.6439Y-39.1165

G1X56.1278Y-39.2062

G1X59.1605Y-39.0196

G1X60.8338Y-38.7540

G1X62.6116Y-38.3377

G1X68.0497Y-36.6431

G1X70.1413Y-36.0778

G1X72.2329Y-35.6793

G1X74.3244Y-35.4840

G1X76.3114Y-35.4910

G1X78.5076Y-35.6912

G1X86.7693Y-37.1143

G1X90.4295Y-37.2107

G1X93.5669Y-37.1412

G1 Z0F20000

(Start Block)


G1X11.4728Y-34.2705
G1Z5F20000
(Plotting speed under)
G1 F4000


G1X14.6101Y-34.7416

G1X17.0154Y-34.8575

G1X19.3162Y-34.7090

G1X24.2313Y-34.0415

G1X25.4863Y-33.9955

G1X26.7412Y-34.0831

G1X27.9962Y-34.3279

G1X29.3557Y-34.7688

G1X33.3297Y-36.5975

G1X34.7938Y-37.1724

G1X36.2579Y-37.5573

G1X37.8265Y-37.7319

G1X40.1273Y-37.6167

G1X45.8791Y-36.7709

G1X48.7027Y-36.6172

G1X50.3760Y-36.6598

G1X52.1538Y-36.8098

G1X58.3239Y-37.6825

G1X59.6834Y-37.7394

G1X60.9384Y-37.6703

G1X62.4025Y-37.4177

G1X63.8666Y-36.9842

G1X68.3634Y-35.0874

G1X70.0367Y-34.4900

G1X71.6054Y-34.1264

G1X73.1741Y-33.9950

G1X74.5336Y-34.0727

G1X75.9977Y-34.3339

G1X77.9847Y-34.9090

G1X81.5403Y-36.1812

G1X85.8280Y-36.9787

G1X86.8738Y-37.1221

G1X89.1746Y-37.1951

G1X93.5669Y-37.1412

G1 Z0F20000

(Start Block)


G1X11.4728Y-32.9843
G1Z5F20000
(Plotting speed under)
G1 F4000


G1X13.8781Y-33.3202

G1X16.0742Y-33.3866

G1X18.0612Y-33.2278

G1X22.5581Y-32.5726

G1X23.8130Y-32.5270

G1X24.8588Y-32.6078

G1X26.1138Y-32.8760

G1X27.3687Y-33.3326

G1X30.9244Y-35.1784

G1X32.1793Y-35.7413

G1X33.3297Y-36.0943

G1X34.4800Y-36.2579

G1X35.6304Y-36.2330

G1X36.8853Y-36.0256

G1X41.3822Y-34.6963

G1X43.5784Y-34.1968

G1X45.8791Y-33.9016

G1X48.3890Y-33.8033

G1X50.8988Y-33.9087

G1X53.1996Y-34.2119

G1X55.2911Y-34.6900

G1X59.6834Y-35.9920

G1X60.8338Y-36.2040

G1X61.8796Y-36.2695

G1X63.2391Y-36.1310

G1X64.7032Y-35.6884

G1X65.9581Y-35.1092

G1X68.8863Y-33.5168

G1X70.3504Y-32.8967

G1X71.6054Y-32.5910

G1X72.8603Y-32.5350

G1X74.1153Y-32.7282

G1X75.3702Y-33.1356

G1X76.6251Y-33.6981

G1X80.2854Y-35.5604

G1X82.3770Y-36.3490

G1X86.6647Y-37.0804

G1X93.5669Y-37.1284

G1 Z0F20000

(Start Block)


G1X11.4728Y-31.7369
G1Z5F20000
(Plotting speed under)
G1 F4000


G1X13.4598Y-31.9824

G1X15.3422Y-31.9980

G1X17.2246Y-31.8038

G1X21.3032Y-31.1167

G1X22.4535Y-31.0551

G1X23.4993Y-31.1300

G1X24.6497Y-31.3890

G1X25.8000Y-31.8382

G1X29.1640Y-33.7627

G1X30.2969Y-34.3205

G1X31.4473Y-34.6856

G1X32.4930Y-34.7997

G1X33.4342Y-34.7229

G1X34.3755Y-34.4986

G1X38.9769Y-32.6552

G1X40.2318Y-32.2900

G1X41.5914Y-32.0311

G1X44.6241Y-31.8328

G1X53.0950Y-31.8851

G1X54.7683Y-32.0619

G1X56.3369Y-32.4021

G1X57.9056Y-32.9356

G1X61.4613Y-34.4301

G1X62.5071Y-34.7078

G1X63.5528Y-34.7991

G1X64.7032Y-34.6411

G1X65.8536Y-34.2126

G1X66.9865Y-33.5795

G1X69.3395Y-32.0468

G1X70.4550Y-31.4697

G1X71.5008Y-31.1396

G1X72.5466Y-31.0600

G1X73.4878Y-31.2093

G1X74.5336Y-31.5963

G1X75.7014Y-32.2378

G1X79.3442Y-34.5600

G1X80.7037Y-35.1689

G1X81.9586Y-35.5127

G1X83.2136Y-35.6542

G1X84.5731Y-35.6224

G1X88.8608Y-35.0189

G1X90.6387Y-34.8581

G1X92.1028Y-34.8486

G1X93.5669Y-34.9601

G1 Z0F20000

(Start Block)


G1X11.4728Y-30.4943
G1Z5F20000
(Plotting speed under)
G1 F4000


G1X13.1460Y-30.6668

G1X14.8193Y-30.6409

G1X16.4925Y-30.4277

G1X20.3619Y-29.6674

G1X21.4077Y-29.5860

G1X22.4535Y-29.6476

G1X23.4993Y-29.8865

G1X24.6497Y-30.3637

G1X27.8567Y-32.3629

G1X28.8328Y-32.8804

G1X29.8786Y-33.2334

G1X30.8198Y-33.3294

G1X31.5518Y-33.2541

G1X32.3885Y-33.0238

G1X36.5716Y-30.9984

G1X37.7220Y-30.6204

G1X38.8723Y-30.4127

G1X40.8593Y-30.3921

G1X45.4608Y-30.9190

G1X48.0752Y-31.0373

G1X50.5851Y-30.9124

G1X54.8728Y-30.4069

G1X56.5461Y-30.3733

G1X57.6964Y-30.5179

G1X58.8468Y-30.8379

G1X59.9972Y-31.3305

G1X63.1345Y-32.9591

G1X64.0757Y-33.2497

G1X64.9124Y-33.3292

G1X65.8536Y-33.1853

G1X66.8993Y-32.7410

G1X67.8580Y-32.1240

G1X69.9496Y-30.5562

G1X70.8733Y-30.0058

G1X71.8145Y-29.6639

G1X72.6512Y-29.5881

G1X73.5924Y-29.7709

G1X74.6556Y-30.2816

G1X75.6142Y-30.9447

G1X77.9672Y-32.7928

G1X79.2396Y-33.5800

G1X80.3900Y-34.0242

G1X81.6449Y-34.1921

G1X82.6907Y-34.1049

G1X83.7365Y-33.8589

G1X87.7105Y-32.4134

G1X89.5929Y-31.8973

G1X91.5799Y-31.6507

G1X93.5669Y-31.7539

G1 Z0F20000

(Start Block)


G1X11.4728Y-29.2092
G1Z5F20000
(Plotting speed under)
G1 F4000


G1X12.9369Y-29.3249

G1X14.4010Y-29.2681

G1X15.9697Y-29.0315

G1X19.7345Y-28.1996

G1X20.7803Y-28.1152

G1X21.7215Y-28.1826

G1X22.6627Y-28.4165

G1X23.7085Y-28.8795

G1X26.7238Y-30.9008

G1X27.6824Y-31.4450

G1X28.5191Y-31.7513

G1X29.3557Y-31.8599

G1X30.0877Y-31.7839

G1X30.9244Y-31.5190

G1X34.5846Y-29.4723

G1X35.6304Y-29.0850

G1X36.5716Y-28.9127

G1X37.5128Y-28.9008

G1X38.5586Y-29.0385

G1X42.4280Y-30.0393

G1X44.2058Y-30.3907

G1X46.0882Y-30.6032

G1X47.9707Y-30.6706

G1X49.9576Y-30.5983

G1X51.8401Y-30.3783

G1X53.6179Y-30.0154

G1X57.1736Y-29.0677

G1X58.1148Y-28.9191

G1X58.9514Y-28.8921

G1X59.8926Y-29.0159

G1X60.8338Y-29.3199

G1X61.8447Y-29.8305

G1X64.4940Y-31.4451

G1X65.3307Y-31.7596

G1X66.1673Y-31.8589

G1X67.0039Y-31.7098

G1X67.9451Y-31.2534

G1X68.7295Y-30.6874

G1X70.5596Y-29.1448

G1X71.5182Y-28.5026

G1X72.3374Y-28.1836

G1X73.0695Y-28.1201

G1X73.9061Y-28.3146

G1X74.8299Y-28.8255

G1X77.7058Y-31.3287

G1X78.8387Y-32.1389

G1X79.8671Y-32.5859

G1X80.9129Y-32.7215

G1X81.8541Y-32.5864

G1X82.8999Y-32.2079

G1X86.8738Y-29.9939

G1X88.9654Y-29.1120

G1X90.1158Y-28.8019

G1X91.2661Y-28.6136

G1X92.4165Y-28.5410

G1X93.5669Y-28.5829

G1 Z0F20000

(Start Block)


G1X11.4728Y-27.8322
G1Z5F20000
(Plotting speed under)
G1 F4000


G1X12.7277Y-27.9035

G1X14.0872Y-27.8256

G1X15.5513Y-27.5785

G1X19.1070Y-26.7355

G1X20.1528Y-26.6452

G1X20.9894Y-26.7066

G1X21.9306Y-26.9503

G1X22.9764Y-27.4476

G1X25.7652Y-29.4403

G1X26.6367Y-29.9691

G1X27.4733Y-30.2933

G1X28.2053Y-30.3900

G1X28.9374Y-30.3006

G1X29.6694Y-30.0390

G1X33.0159Y-27.9615

G1X33.8526Y-27.6131

G1X34.6892Y-27.4387

G1X35.5258Y-27.4387

G1X36.4670Y-27.6160

G1X40.1273Y-28.9531

G1X42.2188Y-29.4596

G1X44.6241Y-29.6755

G1X48.9119Y-29.7069

G1X52.1538Y-29.6444

G1X54.2454Y-29.3950

G1X56.0232Y-28.9245

G1X59.4743Y-27.6257

G1X60.3109Y-27.4514

G1X61.0430Y-27.4236

G1X61.7750Y-27.5375

G1X62.6116Y-27.8489

G1X63.4134Y-28.3069

G1X65.8536Y-29.9760

G1X66.5856Y-30.2834

G1X67.3177Y-30.3900

G1X68.1543Y-30.2280

G1X68.9909Y-29.7745

G1X71.4311Y-27.6128

G1X72.2329Y-27.0325

G1X72.9649Y-26.7168

G1X73.5924Y-26.6473

G1X74.4290Y-26.8565

G1X75.2656Y-27.3759

G1X77.8801Y-29.9051

G1X78.8387Y-30.6683

G1X79.7625Y-31.1200

G1X80.7037Y-31.2505

G1X81.6449Y-31.0629

G1X82.5861Y-30.6170

G1X86.3335Y-27.9587

G1X87.2921Y-27.3941

G1X88.3379Y-26.9072

G1X89.4883Y-26.5236

G1X90.7432Y-26.2608

G1X92.1028Y-26.1170

G1X93.5669Y-26.0882

G1 Z0F20000


G00 X0.0000 Y0.0000


