$H
G21
G17
G90
G1 Z0F20000
G1 F15000
(Start Layer)
(Start Block)

G1X18.7043Y-34.4201
G1 Z3.0F20000
(Plotting speed under)
G1 F4000

G1X70.9101Y-39.0009
G1X140.7847Y-61.2504
G1X182.4618Y-55.3024
G1X231.7737Y-56.9893
G1X267.0980Y-44.6886
G1 Z0F20000
(Start Block)

G1X18.7941Y-35.5683
G1 Z3.0F20000
(Plotting speed under)
G1 F4000

G1X71.1698Y-40.3189
G1X140.7786Y-62.3026
G1X182.3346Y-56.2335
G1X231.6517Y-57.9256
G1X266.8973Y-45.5462
G1 Z0F20000
(Start Block)

G1X18.8839Y-36.7164
G1 Z3.0F20000
(Plotting speed under)
G1 F4000

G1X71.4294Y-41.6369
G1X140.7724Y-63.3548
G1X182.2074Y-57.1647
G1X231.5296Y-58.8619
G1X266.6965Y-46.4038
G1 Z0F20000
(Start Block)

G1X18.9737Y-37.8646
G1 Z3.0F20000
(Plotting speed under)
G1 F4000

G1X71.6891Y-42.9549
G1X140.7663Y-64.4070
G1X182.0802Y-58.0958
G1X231.4075Y-59.7981
G1X266.4958Y-47.2613
G1 Z0F20000
(Start Block)

G1X19.0636Y-39.0127
G1 Z3.0F20000
(Plotting speed under)
G1 F4000

G1X71.9488Y-44.2729
G1X140.7602Y-65.4592
G1X181.9530Y-59.0270
G1X231.2854Y-60.7344
G1X266.2950Y-48.1189
G1 Z0F20000
(Start Block)

G1X19.1534Y-40.1609
G1 Z3.0F20000
(Plotting speed under)
G1 F4000

G1X72.2085Y-45.5909
G1X140.7541Y-66.5115
G1X181.8258Y-59.9581
G1X231.1633Y-61.6706
G1X266.0942Y-48.9765
G1 Z0F20000
(Start Block)

G1X19.2432Y-41.3090
G1 Z3.0F20000
(Plotting speed under)
G1 F4000

G1X72.4681Y-46.9089
G1X140.7480Y-67.5637
G1X181.6986Y-60.8892
G1X231.0412Y-62.6069
G1X265.8935Y-49.8341
G1 Z0F20000
(Start Block)

G1X19.3330Y-42.4572
G1 Z3.0F20000
(Plotting speed under)
G1 F4000

G1X72.7278Y-48.2269
G1X140.7419Y-68.6159
G1X181.5714Y-61.8204
G1X230.9192Y-63.5431
G1X265.6927Y-50.6917
G1 Z0F20000
(Start Block)

G1X19.4228Y-43.6053
G1 Z3.0F20000
(Plotting speed under)
G1 F4000

G1X72.9874Y-49.5449
G1X140.7357Y-69.6681
G1X181.4442Y-62.7515
G1X230.7971Y-64.4794
G1X265.4920Y-51.5492
G1 Z0F20000
(Start Block)

G1X19.5126Y-44.7534
G1 Z3.0F20000
(Plotting speed under)
G1 F4000

G1X73.2471Y-50.8629
G1X140.7296Y-70.7203
G1X181.3170Y-63.6826
G1X230.6750Y-65.4156
G1X265.2912Y-52.4068
G1 Z0F20000
(Start Block)

G1X19.6024Y-45.9016
G1 Z3.0F20000
(Plotting speed under)
G1 F4000

G1X73.5068Y-52.1809
G1X140.7235Y-71.7726
G1X181.1898Y-64.6138
G1X230.5529Y-66.3519
G1X265.0905Y-53.2644
G1 Z0F20000
(Start Block)

G1X19.6922Y-47.0497
G1 Z3.0F20000
(Plotting speed under)
G1 F4000

G1X73.7665Y-53.4989
G1X140.7174Y-72.8248
G1X181.0626Y-65.5449
G1X230.4308Y-67.2881
G1X264.8897Y-54.1220
G1 Z0F20000
(Start Block)

G1X19.7820Y-48.1979
G1 Z3.0F20000
(Plotting speed under)
G1 F4000

G1X74.0261Y-54.8169
G1X140.7113Y-73.8770
G1X180.9354Y-66.4760
G1X230.3088Y-68.2244
G1X264.6889Y-54.9795
G1 Z0F20000
(Start Block)

G1X19.8718Y-49.3460
G1 Z3.0F20000
(Plotting speed under)
G1 F4000

G1X74.2858Y-56.1349
G1X140.7052Y-74.9292
G1X180.8082Y-67.4072
G1X230.1867Y-69.1606
G1X264.4882Y-55.8371
G1 Z0F20000
(Start Block)

G1X19.9617Y-50.4942
G1 Z3.0F20000
(Plotting speed under)
G1 F4000

G1X74.5455Y-57.4529
G1X140.6990Y-75.9815
G1X180.6810Y-68.3383
G1X230.0646Y-70.0969
G1X264.2874Y-56.6947
G1 Z0F20000
(Start Block)

G1X20.0515Y-51.6423
G1 Z3.0F20000
(Plotting speed under)
G1 F4000

G1X74.8052Y-58.7709
G1X140.6929Y-77.0337
G1X180.5538Y-69.2694
G1X229.9425Y-71.0331
G1X264.0867Y-57.5523
G1 Z0F20000
(Start Block)

G1X20.1413Y-52.7905
G1 Z3.0F20000
(Plotting speed under)
G1 F4000

G1X75.0648Y-60.0889
G1X140.6868Y-78.0859
G1X180.4266Y-70.2006
G1X229.8204Y-71.9694
G1X263.8859Y-58.4098
G1 Z0F20000
(Start Block)

G1X20.2311Y-53.9386
G1 Z3.0F20000
(Plotting speed under)
G1 F4000

G1X75.3245Y-61.4069
G1X140.6807Y-79.1381
G1X180.2994Y-71.1317
G1X229.6983Y-72.9056
G1X263.6852Y-59.2674
G1 Z0F20000
(Start Block)

G1X20.3209Y-55.0867
G1 Z3.0F20000
(Plotting speed under)
G1 F4000

G1X75.5841Y-62.7249
G1X140.6746Y-80.1903
G1X180.1722Y-72.0629
G1X229.5763Y-73.8419
G1X263.4844Y-60.1250
G1 Z0F20000
(Start Block)

G1X20.4107Y-56.2349
G1 Z3.0F20000
(Plotting speed under)
G1 F4000

G1X75.8438Y-64.0429
G1X140.6685Y-81.2426
G1X180.0450Y-72.9940
G1X229.4542Y-74.7781
G1X263.2837Y-60.9826
G1 Z0F20000
(Start Block)

G1X20.5005Y-57.3830
G1 Z3.0F20000
(Plotting speed under)
G1 F4000

G1X76.1035Y-65.3609
G1X140.6623Y-82.2948
G1X179.9178Y-73.9252
G1X229.3321Y-75.7144
G1X263.0829Y-61.8402
G1 Z0F20000
(Start Block)

G1X20.5903Y-58.5312
G1 Z3.0F20000
(Plotting speed under)
G1 F4000

G1X76.3632Y-66.6789
G1X140.6562Y-83.3470
G1X179.7906Y-74.8563
G1X229.2100Y-76.6507
G1X262.8822Y-62.6977
G1 Z0F20000
(Start Block)

G1X20.6801Y-59.6793
G1 Z3.0F20000
(Plotting speed under)
G1 F4000

G1X76.6228Y-67.9969
G1X140.6501Y-84.3992
G1X179.6634Y-75.7874
G1X229.0879Y-77.5869
G1X262.6814Y-63.5553
G1 Z0F20000
(Start Block)

G1X20.7699Y-60.8275
G1 Z3.0F20000
(Plotting speed under)
G1 F4000

G1X76.8825Y-69.3149
G1X140.6440Y-85.4514
G1X179.5362Y-76.7185
G1X228.9658Y-78.5231
G1X262.4806Y-64.4129
G1 Z0F20000
(Start Block)

G1X20.8598Y-61.9756
G1 Z3.0F20000
(Plotting speed under)
G1 F4000

G1X77.1421Y-70.6329
G1X140.6379Y-86.5036
G1X179.4090Y-77.6497
G1X228.8438Y-79.4594
G1X262.2799Y-65.2705
G1 Z0F20000
(Start Block)

G1X20.9496Y-63.1237
G1 Z3.0F20000
(Plotting speed under)
G1 F4000

G1X77.4018Y-71.9509
G1X140.6318Y-87.5559
G1X179.2818Y-78.5808
G1X228.7217Y-80.3956
G1X262.0791Y-66.1280
G1 Z0F20000
(Start Block)

G1X21.0394Y-64.2719
G1 Z3.0F20000
(Plotting speed under)
G1 F4000

G1X77.6615Y-73.2689
G1X140.6256Y-88.6081
G1X179.1546Y-79.5119
G1X228.5996Y-81.3319
G1X261.8784Y-66.9856
G1 Z0F20000
(Start Block)

G1X21.1292Y-65.4200
G1 Z3.0F20000
(Plotting speed under)
G1 F4000

G1X77.9212Y-74.5870
G1X140.6195Y-89.6603
G1X179.0274Y-80.4431
G1X228.4775Y-82.2682
G1X261.6776Y-67.8432
G1 Z0F20000
(Start Block)

G1X21.2190Y-66.5682
G1 Z3.0F20000
(Plotting speed under)
G1 F4000

G1X78.1808Y-75.9050
G1X140.6134Y-90.7125
G1X178.9002Y-81.3742
G1X228.3554Y-83.2044
G1X261.4768Y-68.7008
G1 Z0F20000
(Start Block)

G1X21.3088Y-67.7163
G1 Z3.0F20000
(Plotting speed under)
G1 F4000

G1X78.4405Y-77.2229
G1X140.6073Y-91.7647
G1X178.7730Y-82.3054
G1X228.2333Y-84.1406
G1X261.2761Y-69.5584
G1 Z0F20000
(Start Block)

G1X21.3986Y-68.8645
G1 Z3.0F20000
(Plotting speed under)
G1 F4000

G1X78.7001Y-78.5409
G1X140.6012Y-92.8169
G1X178.6458Y-83.2365
G1X228.1113Y-85.0769
G1X261.0753Y-70.4159
G1 Z0F20000
(Start Block)

G1X21.4884Y-70.0126
G1 Z3.0F20000
(Plotting speed under)
G1 F4000

G1X78.9598Y-79.8589
G1X140.5951Y-93.8692
G1X178.5186Y-84.1676
G1X227.9892Y-86.0132
G1X260.8746Y-71.2735
G1 Z0F20000
(Start Block)

G1X21.5782Y-71.1608
G1 Z3.0F20000
(Plotting speed under)
G1 F4000

G1X79.2195Y-81.1769
G1X140.5889Y-94.9214
G1X178.3914Y-85.0988
G1X227.8671Y-86.9494
G1X260.6738Y-72.1311
G1 Z0F20000
(Start Block)

G1X21.6680Y-72.3089
G1 Z3.0F20000
(Plotting speed under)
G1 F4000

G1X79.4792Y-82.4950
G1X140.5828Y-95.9736
G1X178.2642Y-86.0299
G1X227.7450Y-87.8857
G1X260.4731Y-72.9887
G1 Z0F20000
(Start Block)

G1X21.7579Y-73.4571
G1 Z3.0F20000
(Plotting speed under)
G1 F4000

G1X79.7388Y-83.8130
G1X140.5767Y-97.0258
G1X178.1370Y-86.9610
G1X227.6229Y-88.8219
G1X260.2723Y-73.8463
G1 Z0F20000
(Start Block)

G1X21.8477Y-74.6052
G1 Z3.0F20000
(Plotting speed under)
G1 F4000

G1X79.9985Y-85.1310
G1X140.5706Y-98.0780
G1X178.0098Y-87.8922
G1X227.5008Y-89.7581
G1X260.0716Y-74.7038
G1 Z0F20000
(Start Block)

G1X21.9375Y-75.7534
G1 Z3.0F20000
(Plotting speed under)
G1 F4000

G1X80.2581Y-86.4489
G1X140.5645Y-99.1302
G1X177.8826Y-88.8233
G1X227.3788Y-90.6944
G1X259.8708Y-75.5614
G1 Z0F20000
(Start Block)

G1X22.0273Y-76.9015
G1 Z3.0F20000
(Plotting speed under)
G1 F4000

G1X80.5178Y-87.7669
G1X140.5584Y-100.1825
G1X177.7554Y-89.7544
G1X227.2567Y-91.6307
G1X259.6701Y-76.4190
G1 Z0F20000
(Start Block)

G1X22.1171Y-78.0496
G1 Z3.0F20000
(Plotting speed under)
G1 F4000

G1X80.7775Y-89.0850
G1X140.5522Y-101.2347
G1X177.6282Y-90.6856
G1X227.1346Y-92.5669
G1X259.4693Y-77.2766
G1 Z0F20000
(Start Block)

G1X22.2069Y-79.1978
G1 Z3.0F20000
(Plotting speed under)
G1 F4000

G1X81.0372Y-90.4030
G1X140.5461Y-102.2869
G1X177.5010Y-91.6167
G1X227.0125Y-93.5032
G1X259.2685Y-78.1342
G1 Z0F20000
(Start Block)

G1X22.2967Y-80.3459
G1 Z3.0F20000
(Plotting speed under)
G1 F4000

G1X81.2968Y-91.7210
G1X140.5400Y-103.3391
G1X177.3738Y-92.5478
G1X226.8904Y-94.4394
G1X259.0678Y-78.9917
G1 Z0F20000
(Start Block)

G1X22.3865Y-81.4941
G1 Z3.0F20000
(Plotting speed under)
G1 F4000

G1X81.5565Y-93.0390
G1X140.5339Y-104.3913
G1X177.2466Y-93.4790
G1X226.7683Y-95.3756
G1X258.8670Y-79.8493
G1 Z0F20000
(Start Block)

G1X22.4763Y-82.6422
G1 Z3.0F20000
(Plotting speed under)
G1 F4000

G1X81.8161Y-94.3569
G1X140.5278Y-105.4436
G1X177.1194Y-94.4101
G1X226.6463Y-96.3119
G1X258.6663Y-80.7069
G1 Z0F20000
(Start Block)

G1X22.5661Y-83.7904
G1 Z3.0F20000
(Plotting speed under)
G1 F4000

G1X82.0758Y-95.6749
G1X140.5217Y-106.4958
G1X176.9922Y-95.3413
G1X226.5242Y-97.2482
G1X258.4655Y-81.5645
G1 Z0F20000
(Start Block)

G1X22.6560Y-84.9385
G1 Z3.0F20000
(Plotting speed under)
G1 F4000

G1X82.3355Y-96.9930
G1X140.5155Y-107.5480
G1X176.8650Y-96.2724
G1X226.4021Y-98.1844
G1X258.2647Y-82.4221
G1 Z0F20000
(Start Block)

G1X22.7458Y-86.0867
G1 Z3.0F20000
(Plotting speed under)
G1 F4000

G1X82.5952Y-98.3110
G1X140.5094Y-108.6002
G1X176.7378Y-97.2035
G1X226.2800Y-99.1207
G1X258.0640Y-83.2796
G1 Z0F20000
(Start Block)

G1X23.0365Y-87.4358
G1 Z3.0F20000
(Plotting speed under)
G1 F4000

G1X82.1969Y-98.9710
G1X140.1844Y-109.3335
G1X176.3945Y-97.9186
G1X226.3298Y-100.2287
G1X258.0264Y-84.3003
G1 Z0F20000
(Start Block)

G1X23.3273Y-88.7848
G1 Z3.0F20000
(Plotting speed under)
G1 F4000

G1X81.7987Y-99.6311
G1X139.8593Y-110.0668
G1X176.0513Y-98.6337
G1X226.3795Y-101.3368
G1X257.9887Y-85.3210
G1 Z0F20000
(Start Block)

G1X23.6181Y-90.1340
G1 Z3.0F20000
(Plotting speed under)
G1 F4000

G1X81.4004Y-100.2912
G1X139.5343Y-110.8000
G1X175.7081Y-99.3488
G1X226.4293Y-102.4449
G1X257.9511Y-86.3417
G1 Z0F20000
(Start Block)

G1X23.9088Y-91.4830
G1 Z3.0F20000
(Plotting speed under)
G1 F4000

G1X81.0022Y-100.9513
G1X139.2092Y-111.5333
G1X175.3648Y-100.0639
G1X226.4791Y-103.5531
G1X257.9134Y-87.3624
G1 Z0F20000
(Start Block)

G1X24.1996Y-92.8322
G1 Z3.0F20000
(Plotting speed under)
G1 F4000

G1X80.6039Y-101.6114
G1X138.8842Y-112.2666
G1X175.0216Y-100.7789
G1X226.5288Y-104.6612
G1X257.8758Y-88.3831
G1 Z0F20000
(Start Block)

G1X24.4903Y-94.1812
G1 Z3.0F20000
(Plotting speed under)
G1 F4000

G1X80.2057Y-102.2715
G1X138.5591Y-112.9999
G1X174.6783Y-101.4940
G1X226.5786Y-105.7693
G1X257.8381Y-89.4037
G1 Z0F20000
(Start Block)

G1X24.7812Y-95.5304
G1 Z3.0F20000
(Plotting speed under)
G1 F4000

G1X79.8074Y-102.9316
G1X138.2341Y-113.7332
G1X174.3351Y-102.2091
G1X226.6283Y-106.8773
G1X257.8005Y-90.4244
G1 Z0F20000
(Start Block)

G1X25.0719Y-96.8794
G1 Z3.0F20000
(Plotting speed under)
G1 F4000

G1X79.4092Y-103.5917
G1X137.9090Y-114.4664
G1X173.9918Y-102.9242
G1X226.6781Y-107.9854
G1X257.7628Y-91.4451
G1 Z0F20000
(Start Block)

G1X25.3627Y-98.2285
G1 Z3.0F20000
(Plotting speed under)
G1 F4000

G1X79.0109Y-104.2517
G1X137.5840Y-115.1997
G1X173.6486Y-103.6393
G1X226.7279Y-109.0935
G1X257.7252Y-92.4658
G1 Z0F20000
(Start Block)

G1X25.6534Y-99.5776
G1 Z3.0F20000
(Plotting speed under)
G1 F4000

G1X78.6127Y-104.9118
G1X137.2589Y-115.9330
G1X173.3053Y-104.3544
G1X226.7776Y-110.2016
G1X257.6875Y-93.4865
G1 Z0F20000
(Start Block)

G1X25.9442Y-100.9267
G1 Z3.0F20000
(Plotting speed under)
G1 F4000

G1X78.2144Y-105.5719
G1X136.9339Y-116.6663
G1X172.9621Y-105.0695
G1X226.8274Y-111.3097
G1X257.6499Y-94.5072
G1 Z0F20000
(Start Block)

G1X26.2350Y-102.2758
G1 Z3.0F20000
(Plotting speed under)
G1 F4000

G1X77.8162Y-106.2320
G1X136.6088Y-117.3996
G1X172.6188Y-105.7845
G1X226.8772Y-112.4178
G1X257.6122Y-95.5278
G1 Z0F20000
(Start Block)

G1X26.5257Y-103.6249
G1 Z3.0F20000
(Plotting speed under)
G1 F4000

G1X77.4179Y-106.8921
G1X136.2837Y-118.1328
G1X172.2756Y-106.4996
G1X226.9269Y-113.5259
G1X257.5745Y-96.5485
G1 Z0F20000
(Start Block)

G1X26.8165Y-104.9740
G1 Z3.0F20000
(Plotting speed under)
G1 F4000

G1X77.0197Y-107.5522
G1X135.9587Y-118.8661
G1X171.9323Y-107.2147
G1X226.9767Y-114.6340
G1X257.5369Y-97.5692
G1 Z0F20000
(Start Block)

G1X27.1073Y-106.3231
G1 Z3.0F20000
(Plotting speed under)
G1 F4000

G1X76.6214Y-108.2123
G1X135.6336Y-119.5994
G1X171.5891Y-107.9298
G1X227.0265Y-115.7421
G1X257.4992Y-98.5899
G1 Z0F20000
(Start Block)

G1X27.3980Y-107.6722
G1 Z3.0F20000
(Plotting speed under)
G1 F4000

G1X76.2232Y-108.8723
G1X135.3086Y-120.3327
G1X171.2458Y-108.6449
G1X227.0762Y-116.8502
G1X257.4616Y-99.6105
G1 Z0F20000
(Start Block)

G1X27.6888Y-109.0213
G1 Z3.0F20000
(Plotting speed under)
G1 F4000

G1X75.8249Y-109.5324
G1X134.9835Y-121.0660
G1X170.9026Y-109.3600
G1X227.1260Y-117.9583
G1X257.4239Y-100.6312
G1 Z0F20000
(Start Block)

G1X27.9795Y-110.3704
G1 Z3.0F20000
(Plotting speed under)
G1 F4000

G1X75.4267Y-110.1925
G1X134.6585Y-121.7992
G1X170.5593Y-110.0751
G1X227.1757Y-119.0664
G1X257.3863Y-101.6519
G1 Z0F20000
(Start Block)

G1X28.2703Y-111.7195
G1 Z3.0F20000
(Plotting speed under)
G1 F4000

G1X75.0285Y-110.8526
G1X134.3334Y-122.5326
G1X170.2160Y-110.7901
G1X227.2255Y-120.1745
G1X257.3486Y-102.6726
G1 Z0F20000
(Start Block)

G1X28.5611Y-113.0686
G1 Z3.0F20000
(Plotting speed under)
G1 F4000

G1X74.6302Y-111.5127
G1X134.0084Y-123.2658
G1X169.8728Y-111.5052
G1X227.2753Y-121.2826
G1X257.3110Y-103.6933
G1 Z0F20000
(Start Block)

G1X28.8518Y-114.4177
G1 Z3.0F20000
(Plotting speed under)
G1 F4000

G1X74.2320Y-112.1728
G1X133.6833Y-123.9991
G1X169.5296Y-112.2203
G1X227.3250Y-122.3907
G1X257.2733Y-104.7140
G1 Z0F20000
(Start Block)

G1X29.1426Y-115.7668
G1 Z3.0F20000
(Plotting speed under)
G1 F4000

G1X73.8337Y-112.8329
G1X133.3582Y-124.7324
G1X169.1863Y-112.9354
G1X227.3748Y-123.4988
G1X257.2357Y-105.7346
G1 Z0F20000
(Start Block)

G1X29.4334Y-117.1159
G1 Z3.0F20000
(Plotting speed under)
G1 F4000

G1X73.4354Y-113.4929
G1X133.0332Y-125.4657
G1X168.8431Y-113.6505
G1X227.4246Y-124.6069
G1X257.1980Y-106.7553
G1 Z0F20000
(Start Block)

G1X29.7241Y-118.4650
G1 Z3.0F20000
(Plotting speed under)
G1 F4000

G1X73.0372Y-114.1530
G1X132.7081Y-126.1989
G1X168.4998Y-114.3656
G1X227.4743Y-125.7150
G1X257.1604Y-107.7760
G1 Z0F20000
(Start Block)

G1X30.0149Y-119.8141
G1 Z3.0F20000
(Plotting speed under)
G1 F4000

G1X72.6389Y-114.8131
G1X132.3831Y-126.9322
G1X168.1566Y-115.0806
G1X227.5241Y-126.8231
G1X257.1227Y-108.7967
G1 Z0F20000
(Start Block)

G1X30.3057Y-121.1632
G1 Z3.0F20000
(Plotting speed under)
G1 F4000

G1X72.2407Y-115.4732
G1X132.0580Y-127.6655
G1X167.8133Y-115.7957
G1X227.5739Y-127.9312
G1X257.0851Y-109.8174
G1 Z0F20000
(Start Block)

G1X30.5964Y-122.5123
G1 Z3.0F20000
(Plotting speed under)
G1 F4000

G1X71.8425Y-116.1333
G1X131.7330Y-128.3988
G1X167.4701Y-116.5108
G1X227.6236Y-129.0393
G1X257.0474Y-110.8381
G1 Z0F20000
(Start Block)

G1X30.8872Y-123.8614
G1 Z3.0F20000
(Plotting speed under)
G1 F4000

G1X71.4442Y-116.7934
G1X131.4079Y-129.1321
G1X167.1268Y-117.2259
G1X227.6734Y-130.1474
G1X257.0098Y-111.8587
G1 Z0F20000
(Start Block)

G1X31.1780Y-125.2105
G1 Z3.0F20000
(Plotting speed under)
G1 F4000

G1X71.0460Y-117.4535
G1X131.0829Y-129.8653
G1X166.7836Y-117.9410
G1X227.7232Y-131.2555
G1X256.9721Y-112.8794
G1 Z0F20000
(Start Block)

G1X31.4687Y-126.5596
G1 Z3.0F20000
(Plotting speed under)
G1 F4000

G1X70.6477Y-118.1136
G1X130.7578Y-130.5986
G1X166.4403Y-118.6561
G1X227.7729Y-132.3636
G1X256.9345Y-113.9001
G1 Z0F20000
(Start Block)

G1X31.7595Y-127.9087
G1 Z3.0F20000
(Plotting speed under)
G1 F4000

G1X70.2495Y-118.7737
G1X130.4328Y-131.3319
G1X166.0971Y-119.3711
G1X227.8227Y-133.4717
G1X256.8968Y-114.9208
G1 Z0F20000
(Start Block)

G1X32.0503Y-129.2578
G1 Z3.0F20000
(Plotting speed under)
G1 F4000

G1X69.8512Y-119.4337
G1X130.1077Y-132.0652
G1X165.7538Y-120.0862
G1X227.8724Y-134.5798
G1X256.8592Y-115.9415
G1 Z0F20000
(Start Block)

G1X32.3410Y-130.6069
G1 Z3.0F20000
(Plotting speed under)
G1 F4000

G1X69.4530Y-120.0938
G1X129.7827Y-132.7985
G1X165.4106Y-120.8013
G1X227.9222Y-135.6879
G1X256.8215Y-116.9622
G1 Z0F20000
(Start Block)

G1X32.6318Y-131.9560
G1 Z3.0F20000
(Plotting speed under)
G1 F4000

G1X69.0547Y-120.7539
G1X129.4576Y-133.5317
G1X165.0673Y-121.5164
G1X227.9720Y-136.7960
G1X256.7839Y-117.9829
G1 Z0F20000
(Start Block)

G1X32.9225Y-133.3051
G1 Z3.0F20000
(Plotting speed under)
G1 F4000

G1X68.6565Y-121.4140
G1X129.1326Y-134.2650
G1X164.7241Y-122.2315
G1X228.0217Y-137.9041
G1X256.7462Y-119.0035
G1 Z0F20000
(Start Block)

G1X33.2133Y-134.6542
G1 Z3.0F20000
(Plotting speed under)
G1 F4000

G1X68.2582Y-122.0741
G1X128.8075Y-134.9983
G1X164.3808Y-122.9466
G1X228.0715Y-139.0122
G1X256.7086Y-120.0242
G1 Z0F20000
(Start Block)

G1X33.5041Y-136.0033
G1 Z3.0F20000
(Plotting speed under)
G1 F4000

G1X67.8600Y-122.7342
G1X128.4825Y-135.7316
G1X164.0376Y-123.6617
G1X228.1213Y-140.1203
G1X256.6709Y-121.0449
G1 Z0F20000
(Start Block)

G1X33.7949Y-137.3524
G1 Z3.0F20000
(Plotting speed under)
G1 F4000

G1X67.4617Y-123.3943
G1X128.1574Y-136.4649
G1X163.6943Y-124.3768
G1X228.1710Y-141.2284
G1X256.6333Y-122.0656
G1 Z0F20000
(Start Block)

G1X34.0856Y-138.7015
G1 Z3.0F20000
(Plotting speed under)
G1 F4000

G1X67.0635Y-124.0544
G1X127.8323Y-137.1981
G1X163.3511Y-125.0919
G1X228.2208Y-142.3365
G1X256.5956Y-123.0863
G1 Z0F20000
(Start Block)

G1X34.3764Y-140.0506
G1 Z3.0F20000
(Plotting speed under)
G1 F4000

G1X66.6652Y-124.7145
G1X127.5073Y-137.9314
G1X163.0078Y-125.8070
G1X228.2706Y-143.4446
G1X256.5580Y-124.1070
G1 Z0F20000
(Start Block)

G1X34.6671Y-141.3997
G1 Z3.0F20000
(Plotting speed under)
G1 F4000

G1X66.2670Y-125.3745
G1X127.1822Y-138.6647
G1X162.6646Y-126.5220
G1X228.3203Y-144.5527
G1X256.5203Y-125.1277
G1 Z0F20000
(Start Block)

G1X34.9579Y-142.7488
G1 Z3.0F20000
(Plotting speed under)
G1 F4000

G1X65.8687Y-126.0346
G1X126.8572Y-139.3980
G1X162.3213Y-127.2371
G1X228.3701Y-145.6608
G1X256.4827Y-126.1483
G1 Z0F20000
(Start Block)

G1X35.2487Y-144.0979
G1 Z3.0F20000
(Plotting speed under)
G1 F4000

G1X65.4705Y-126.6947
G1X126.5321Y-140.1313
G1X161.9781Y-127.9522
G1X228.4198Y-146.7689
G1X256.4450Y-127.1690
G1 Z0F20000
(Start Block)

G1X35.5394Y-145.4470
G1 Z3.0F20000
(Plotting speed under)
G1 F4000

G1X65.0722Y-127.3548
G1X126.2071Y-140.8645
G1X161.6348Y-128.6673
G1X228.4696Y-147.8770
G1X256.4074Y-128.1897
G1 Z0F20000
(Start Block)

G1X35.8302Y-146.7961
G1 Z3.0F20000
(Plotting speed under)
G1 F4000

G1X64.6740Y-128.0149
G1X125.8820Y-141.5978
G1X161.2916Y-129.3824
G1X228.5194Y-148.9851
G1X256.3697Y-129.2104
G1 Z0F20000
(Start Block)

G1X36.0387Y-148.0630
G1 Z3.0F20000
(Plotting speed under)
G1 F4000

G1X65.2717Y-129.6709
G1X126.0424Y-142.8165
G1X161.4283Y-130.5774
G1X228.3038Y-149.8278
G1X256.7972Y-130.6962
G1 Z0F20000
(Start Block)

G1X36.2472Y-149.3298
G1 Z3.0F20000
(Plotting speed under)
G1 F4000

G1X65.8694Y-131.3270
G1X126.2027Y-144.0352
G1X161.5649Y-131.7724
G1X228.0882Y-150.6706
G1X257.2248Y-132.1821
G1 Z0F20000
(Start Block)

G1X36.4557Y-150.5967
G1 Z3.0F20000
(Plotting speed under)
G1 F4000

G1X66.4671Y-132.9830
G1X126.3630Y-145.2538
G1X161.7016Y-132.9674
G1X227.8726Y-151.5133
G1X257.6523Y-133.6680
G1 Z0F20000
(Start Block)

G1X36.6643Y-151.8635
G1 Z3.0F20000
(Plotting speed under)
G1 F4000

G1X67.0648Y-134.6391
G1X126.5234Y-146.4725
G1X161.8383Y-134.1624
G1X227.6570Y-152.3560
G1X258.0798Y-135.1538
G1 Z0F20000
(Start Block)

G1X36.8728Y-153.1304
G1 Z3.0F20000
(Plotting speed under)
G1 F4000

G1X67.6625Y-136.2951
G1X126.6837Y-147.6912
G1X161.9749Y-135.3574
G1X227.4414Y-153.1988
G1X258.5074Y-136.6397
G1 Z0F20000
(Start Block)

G1X37.0813Y-154.3972
G1 Z3.0F20000
(Plotting speed under)
G1 F4000

G1X68.2602Y-137.9512
G1X126.8441Y-148.9099
G1X162.1116Y-136.5524
G1X227.2258Y-154.0415
G1X258.9349Y-138.1256
G1 Z0F20000
(Start Block)

G1X37.2898Y-155.6641
G1 Z3.0F20000
(Plotting speed under)
G1 F4000

G1X68.8580Y-139.6072
G1X127.0044Y-150.1286
G1X162.2482Y-137.7474
G1X227.0102Y-154.8842
G1X259.3624Y-139.6114
G1 Z0F20000
(Start Block)

G1X37.4983Y-156.9309
G1 Z3.0F20000
(Plotting speed under)
G1 F4000

G1X69.4556Y-141.2632
G1X127.1647Y-151.3472
G1X162.3849Y-138.9424
G1X226.7946Y-155.7270
G1X259.7900Y-141.0973
G1 Z0F20000
(Start Block)

G1X37.7068Y-158.1978
G1 Z3.0F20000
(Plotting speed under)
G1 F4000

G1X70.0534Y-142.9193
G1X127.3251Y-152.5659
G1X162.5216Y-140.1374
G1X226.5790Y-156.5697
G1X260.2175Y-142.5832
G1 Z0F20000
(Start Block)

G1X37.9154Y-159.4646
G1 Z3.0F20000
(Plotting speed under)
G1 F4000

G1X70.6511Y-144.5753
G1X127.4854Y-153.7846
G1X162.6582Y-141.3324
G1X226.3634Y-157.4125
G1X260.6450Y-144.0690
G1 Z0F20000
(Start Block)

G1X38.1239Y-160.7315
G1 Z3.0F20000
(Plotting speed under)
G1 F4000

G1X71.2488Y-146.2313
G1X127.6458Y-155.0033
G1X162.7949Y-142.5274
G1X226.1478Y-158.2552
G1X261.0726Y-145.5549
G1 Z0F20000
(Start Block)

G1X38.3324Y-161.9983
G1 Z3.0F20000
(Plotting speed under)
G1 F4000

G1X71.8465Y-147.8874
G1X127.8061Y-156.2219
G1X162.9316Y-143.7224
G1X225.9322Y-159.0979
G1X261.5001Y-147.0408
G1 Z0F20000
(Start Block)

G1X38.5409Y-163.2652
G1 Z3.0F20000
(Plotting speed under)
G1 F4000

G1X72.4442Y-149.5434
G1X127.9665Y-157.4406
G1X163.0682Y-144.9174
G1X225.7166Y-159.9407
G1X261.9276Y-148.5266
G1 Z0F20000
(Start Block)

G1X38.7494Y-164.5320
G1 Z3.0F20000
(Plotting speed under)
G1 F4000

G1X73.0419Y-151.1995
G1X128.1268Y-158.6593
G1X163.2049Y-146.1124
G1X225.5010Y-160.7834
G1X262.3552Y-150.0125
G1 Z0F20000
(Start Block)

G1X38.9580Y-165.7989
G1 Z3.0F20000
(Plotting speed under)
G1 F4000

G1X73.6396Y-152.8555
G1X128.2872Y-159.8780
G1X163.3416Y-147.3074
G1X225.2854Y-161.6261
G1X262.7827Y-151.4984
G1 Z0F20000
(Start Block)

G1X39.1665Y-167.0657
G1 Z3.0F20000
(Plotting speed under)
G1 F4000

G1X74.2373Y-154.5115
G1X128.4475Y-161.0967
G1X163.4782Y-148.5024
G1X225.0698Y-162.4689
G1X263.2102Y-152.9842
G1 Z0F20000
(Start Block)

G1X39.3750Y-168.3326
G1 Z3.0F20000
(Plotting speed under)
G1 F4000

G1X74.8351Y-156.1676
G1X128.6078Y-162.3153
G1X163.6149Y-149.6974
G1X224.8542Y-163.3116
G1X263.6377Y-154.4701
G1 Z0F20000
(Start Block)

G1X39.5835Y-169.5994
G1 Z3.0F20000
(Plotting speed under)
G1 F4000

G1X75.4327Y-157.8236
G1X128.7682Y-163.5340
G1X163.7516Y-150.8924
G1X224.6386Y-164.1543
G1X264.0653Y-155.9560
G1 Z0F20000
(Start Block)

G1X39.7920Y-170.8663
G1 Z3.0F20000
(Plotting speed under)
G1 F4000

G1X76.0305Y-159.4797
G1X128.9285Y-164.7527
G1X163.8882Y-152.0874
G1X224.4230Y-164.9971
G1X264.4928Y-157.4418
G1 Z0F20000
(Start Block)

G1X40.0006Y-172.1332
G1 Z3.0F20000
(Plotting speed under)
G1 F4000

G1X76.6282Y-161.1357
G1X129.0889Y-165.9714
G1X164.0249Y-153.2824
G1X224.2074Y-165.8398
G1X264.9203Y-158.9277
G1 Z0F20000
(Start Block)

G1X40.2091Y-173.4000
G1 Z3.0F20000
(Plotting speed under)
G1 F4000

G1X77.2259Y-162.7918
G1X129.2492Y-167.1900
G1X164.1616Y-154.4774
G1X223.9918Y-166.6826
G1X265.3479Y-160.4136
G1 Z0F20000
(Start Block)

G1X40.4176Y-174.6669
G1 Z3.0F20000
(Plotting speed under)
G1 F4000

G1X77.8236Y-164.4478
G1X129.4096Y-168.4087
G1X164.2982Y-155.6724
G1X223.7762Y-167.5253
G1X265.7754Y-161.8994
G1 Z0F20000
(Start Block)

G1X40.6261Y-175.9337
G1 Z3.0F20000
(Plotting speed under)
G1 F4000

G1X78.4213Y-166.1038
G1X129.5699Y-169.6274
G1X164.4349Y-156.8674
G1X223.5607Y-168.3680
G1X266.2029Y-163.3853
G1 Z0F20000
(Start Block)

G1X40.8346Y-177.2006
G1 Z3.0F20000
(Plotting speed under)
G1 F4000

G1X79.0190Y-167.7599
G1X129.7303Y-170.8461
G1X164.5716Y-158.0624
G1X223.3450Y-169.2108
G1X266.6305Y-164.8712
G1 Z0F20000
(Start Block)

G1X41.0431Y-178.4674
G1 Z3.0F20000
(Plotting speed under)
G1 F4000

G1X79.6167Y-169.4159
G1X129.8906Y-172.0648
G1X164.7082Y-159.2574
G1X223.1295Y-170.0535
G1X267.0580Y-166.3570
G1 Z0F20000
(Start Block)

G1X41.2516Y-179.7343
G1 Z3.0F20000
(Plotting speed under)
G1 F4000

G1X80.2144Y-171.0719
G1X130.0509Y-173.2834
G1X164.8449Y-160.4524
G1X222.9139Y-170.8962
G1X267.4855Y-167.8429
G1 Z0F20000
(Start Block)

G1X41.4602Y-181.0011
G1 Z3.0F20000
(Plotting speed under)
G1 F4000

G1X80.8121Y-172.7280
G1X130.2113Y-174.5021
G1X164.9816Y-161.6474
G1X222.6983Y-171.7390
G1X267.9131Y-169.3288
G1 Z0F20000
(Start Block)

G1X41.6687Y-182.2680
G1 Z3.0F20000
(Plotting speed under)
G1 F4000

G1X81.4098Y-174.3841
G1X130.3716Y-175.7208
G1X165.1182Y-162.8424
G1X222.4827Y-172.5817
G1X268.3406Y-170.8146
G1 Z0F20000
(Start Block)

G1X41.8772Y-183.5348
G1 Z3.0F20000
(Plotting speed under)
G1 F4000

G1X82.0075Y-176.0401
G1X130.5320Y-176.9395
G1X165.2549Y-164.0374
G1X222.2671Y-173.4245
G1X268.7681Y-172.3005
G1 Z0F20000
(Start Block)

G1X42.0857Y-184.8017
G1 Z3.0F20000
(Plotting speed under)
G1 F4000

G1X82.6052Y-177.6961
G1X130.6923Y-178.1582
G1X165.3916Y-165.2324
G1X222.0515Y-174.2672
G1X269.1957Y-173.7864
G1 Z0F20000
(Start Block)

G1X42.2942Y-186.0685
G1 Z3.0F20000
(Plotting speed under)
G1 F4000

G1X83.2029Y-179.3522
G1X130.8526Y-179.3768
G1X165.5282Y-166.4274
G1X221.8359Y-175.1099
G1X269.6232Y-175.2722
G1 Z0F20000
(Start Block)

G1X42.5027Y-187.3354
G1 Z3.0F20000
(Plotting speed under)
G1 F4000

G1X83.8007Y-181.0082
G1X131.0130Y-180.5955
G1X165.6649Y-167.6224
G1X221.6203Y-175.9527
G1X270.0507Y-176.7581
G1 Z0F20000
(Start Block)

G1X42.7113Y-188.6022
G1 Z3.0F20000
(Plotting speed under)
G1 F4000

G1X84.3983Y-182.6643
G1X131.1733Y-181.8142
G1X165.8016Y-168.8174
G1X221.4047Y-176.7954
G1X270.4783Y-178.2440
G1 Z0F20000
(Start Block)

G1X42.9198Y-189.8691
G1 Z3.0F20000
(Plotting speed under)
G1 F4000

G1X84.9961Y-184.3203
G1X131.3337Y-183.0329
G1X165.9382Y-170.0124
G1X221.1891Y-177.6382
G1X270.9058Y-179.7298
G1 Z0F20000
(Start Block)

G1X43.1283Y-191.1359
G1 Z3.0F20000
(Plotting speed under)
G1 F4000

G1X85.5938Y-185.9763
G1X131.4940Y-184.2515
G1X166.0749Y-171.2074
G1X220.9735Y-178.4809
G1X271.3333Y-181.2157
G1 Z0F20000
(Start Block)

G1X43.3368Y-192.4028
G1 Z3.0F20000
(Plotting speed under)
G1 F4000

G1X86.1915Y-187.6324
G1X131.6544Y-185.4702
G1X166.2116Y-172.4024
G1X220.7579Y-179.3236
G1X271.7609Y-182.7016
G1 Z0F20000
(Start Block)

G1X43.5453Y-193.6696
G1 Z3.0F20000
(Plotting speed under)
G1 F4000

G1X86.7892Y-189.2884
G1X131.8147Y-186.6889
G1X166.3482Y-173.5974
G1X220.5423Y-180.1664
G1X272.1884Y-184.1874
G1 Z0F20000
(Start Block)

G1X43.7539Y-194.9365
G1 Z3.0F20000
(Plotting speed under)
G1 F4000

G1X87.3869Y-190.9445
G1X131.9750Y-187.9076
G1X166.4849Y-174.7924
G1X220.3267Y-181.0091
G1X272.6159Y-185.6733
G1 Z0F20000
(Start Block)

G1X43.9624Y-196.2033
G1 Z3.0F20000
(Plotting speed under)
G1 F4000

G1X87.9846Y-192.6005
G1X132.1354Y-189.1263
G1X166.6216Y-175.9874
G1X220.1111Y-181.8518
G1X273.0435Y-187.1592
G1 Z0F20000
(Start Block)

G1X44.1709Y-197.4702
G1 Z3.0F20000
(Plotting speed under)
G1 F4000

G1X88.5823Y-194.2566
G1X132.2957Y-190.3449
G1X166.7582Y-177.1824
G1X219.8955Y-182.6946
G1X273.4710Y-188.6450
G1 Z0F20000
(Start Block)

G1X44.3794Y-198.7370
G1 Z3.0F20000
(Plotting speed under)
G1 F4000

G1X89.1800Y-195.9126
G1X132.4561Y-191.5636
G1X166.8949Y-178.3774
G1X219.6799Y-183.5373
G1X273.8985Y-190.1309
G1 Z0F20000
(Start Block)

G1X44.5879Y-200.0039
G1 Z3.0F20000
(Plotting speed under)
G1 F4000

G1X89.7777Y-197.5686
G1X132.6164Y-192.7823
G1X167.0316Y-179.5724
G1X219.4643Y-184.3801
G1X274.3261Y-191.6168
G1 Z0F20000
(Start Block)

G1X44.7964Y-201.2707
G1 Z3.0F20000
(Plotting speed under)
G1 F4000

G1X90.3754Y-199.2247
G1X132.7767Y-194.0009
G1X167.1682Y-180.7674
G1X219.2487Y-185.2228
G1X274.7536Y-193.1026
G1 Z0F20000
(Start Block)

G1X45.0050Y-202.5376
G1 Z3.0F20000
(Plotting speed under)
G1 F4000

G1X90.9731Y-200.8807
G1X132.9371Y-195.2196
G1X167.3049Y-181.9624
G1X219.0331Y-186.0656
G1X275.1811Y-194.5885
G1 Z0F20000
(Start Block)

G1X45.2135Y-203.8044
G1 Z3.0F20000
(Plotting speed under)
G1 F4000

G1X91.5708Y-202.5367
G1X133.0974Y-196.4383
G1X167.4416Y-183.1574
G1X218.8175Y-186.9083
G1X275.6087Y-196.0744
G1 Z0F20000
(Start Block)

G1X44.9325Y-204.5818
G1 Z3.0F20000
(Plotting speed under)
G1 F4000

G1X91.2628Y-203.2870
G1X133.0443Y-197.4435
G1X167.7678Y-184.5420
G1X219.0448Y-188.1940
G1X275.6745Y-197.1986
G1 Z0F20000
(Start Block)

G1X44.6516Y-205.3592
G1 Z3.0F20000
(Plotting speed under)
G1 F4000

G1X90.9547Y-204.0373
G1X132.9912Y-198.4487
G1X168.0941Y-185.9266
G1X219.2722Y-189.4797
G1X275.7404Y-198.3228
G1 Z0F20000
(Start Block)

G1X44.3706Y-206.1366
G1 Z3.0F20000
(Plotting speed under)
G1 F4000

G1X90.6466Y-204.7875
G1X132.9380Y-199.4539
G1X168.4203Y-187.3112
G1X219.4996Y-190.7653
G1X275.8062Y-199.4469
G1 Z0F20000
(Start Block)

G1X44.0897Y-206.9140
G1 Z3.0F20000
(Plotting speed under)
G1 F4000

G1X90.3385Y-205.5378
G1X132.8849Y-200.4591
G1X168.7466Y-188.6957
G1X219.7269Y-192.0511
G1X275.8721Y-200.5711
G1 Z0F20000
(Start Block)

G1X43.8087Y-207.6914
G1 Z3.0F20000
(Plotting speed under)
G1 F4000

G1X90.0305Y-206.2881
G1X132.8317Y-201.4643
G1X169.0728Y-190.0803
G1X219.9543Y-193.3368
G1X275.9379Y-201.6953
G1 Z0F20000
(Start Block)

G1X43.5278Y-208.4687
G1 Z3.0F20000
(Plotting speed under)
G1 F4000

G1X89.7224Y-207.0383
G1X132.7786Y-202.4695
G1X169.3991Y-191.4649
G1X220.1817Y-194.6224
G1X276.0038Y-202.8195
G1 Z0F20000
(Start Block)

G1X43.2468Y-209.2461
G1 Z3.0F20000
(Plotting speed under)
G1 F4000

G1X89.4143Y-207.7886
G1X132.7254Y-203.4746
G1X169.7253Y-192.8495
G1X220.4090Y-195.9081
G1X276.0697Y-203.9437
G1 Z0F20000
(Start Block)

G1X42.9659Y-210.0235
G1 Z3.0F20000
(Plotting speed under)
G1 F4000

G1X89.1063Y-208.5388
G1X132.6723Y-204.4798
G1X170.0516Y-194.2341
G1X220.6364Y-197.1938
G1X276.1355Y-205.0679
G1 Z0F20000
(Start Block)

G1X42.6849Y-210.8009
G1 Z3.0F20000
(Plotting speed under)
G1 F4000

G1X88.7982Y-209.2891
G1X132.6192Y-205.4850
G1X170.3778Y-195.6187
G1X220.8638Y-198.4795
G1X276.2014Y-206.1921
G1 Z0F20000
(Start Block)

G1X42.4039Y-211.5783
G1 Z3.0F20000
(Plotting speed under)
G1 F4000

G1X88.4901Y-210.0394
G1X132.5660Y-206.4902
G1X170.7041Y-197.0032
G1X221.0911Y-199.7652
G1X276.2672Y-207.3163
G1 Z0F20000
(Start Block)

G1X42.1230Y-212.3557
G1 Z3.0F20000
(Plotting speed under)
G1 F4000

G1X88.1820Y-210.7896
G1X132.5129Y-207.4954
G1X171.0303Y-198.3878
G1X221.3185Y-201.0509
G1X276.3331Y-208.4405
G1 Z0F20000
(Start Block)

G1X41.8421Y-213.1330
G1 Z3.0F20000
(Plotting speed under)
G1 F4000

G1X87.8740Y-211.5399
G1X132.4597Y-208.5006
G1X171.3566Y-199.7724
G1X221.5459Y-202.3366
G1X276.3990Y-209.5647
G1 Z0F20000
(Start Block)

G1X41.5611Y-213.9104
G1 Z3.0F20000
(Plotting speed under)
G1 F4000

G1X87.5659Y-212.2902
G1X132.4066Y-209.5058
G1X171.6828Y-201.1570
G1X221.7732Y-203.6223
G1X276.4648Y-210.6889
G1 Z0F20000
(Start Block)

G1X41.2802Y-214.6878
G1 Z3.0F20000
(Plotting speed under)
G1 F4000

G1X87.2578Y-213.0404
G1X132.3534Y-210.5110
G1X172.0091Y-202.5416
G1X222.0006Y-204.9080
G1X276.5307Y-211.8130
G1 Z0F20000
(Start Block)

G1X40.9992Y-215.4652
G1 Z3.0F20000
(Plotting speed under)
G1 F4000

G1X86.9498Y-213.7907
G1X132.3003Y-211.5162
G1X172.3354Y-203.9262
G1X222.2279Y-206.1937
G1X276.5965Y-212.9372
G1 Z0F20000
(Start Block)

G1X40.7183Y-216.2426
G1 Z3.0F20000
(Plotting speed under)
G1 F4000

G1X86.6417Y-214.5410
G1X132.2472Y-212.5214
G1X172.6616Y-205.3107
G1X222.4553Y-207.4794
G1X276.6624Y-214.0614
G1 Z0F20000
(Start Block)

G1X40.4373Y-217.0199
G1 Z3.0F20000
(Plotting speed under)
G1 F4000

G1X132.1940Y-213.5266
G1X172.9879Y-206.6953
G1X222.6826Y-208.7651
G1X276.7282Y-215.1856
G1 Z0F20000
(Start Block)

G1X40.1563Y-217.7973
G1 Z3.0F20000
(Plotting speed under)
G1 F4000

G1X86.0255Y-216.0415
G1X132.1409Y-214.5317
G1X173.3141Y-208.0799
G1X222.9100Y-210.0508
G1X276.7941Y-216.3098
G1 Z0F20000
(Start Block)

G1X39.8754Y-218.5747
G1 Z3.0F20000
(Plotting speed under)
G1 F4000

G1X85.7175Y-216.7917
G1X132.0877Y-215.5369
G1X173.6403Y-209.4645
G1X223.1373Y-211.3365
G1X276.8599Y-217.4340
G1 Z0F20000
(Start Block)

G1X39.5944Y-219.3521
G1 Z3.0F20000
(Plotting speed under)
G1 F4000

G1X85.4094Y-217.5420
G1X132.0346Y-216.5421
G1X173.9666Y-210.8491
G1X223.3647Y-212.6222
G1X276.9258Y-218.5582
G1 Z0F20000
(Start Block)

G1X39.3135Y-220.1295
G1 Z3.0F20000
(Plotting speed under)
G1 F4000

G1X85.1013Y-218.2922
G1X131.9814Y-217.5473
G1X174.2929Y-212.2337
G1X223.5921Y-213.9079
G1X276.9916Y-219.6824
G1 Z0F20000
(Start Block)

G1X39.0325Y-220.9069
G1 Z3.0F20000
(Plotting speed under)
G1 F4000

G1X84.7932Y-219.0425
G1X131.9283Y-218.5525
G1X174.6191Y-213.6183
G1X223.8194Y-215.1935
G1X277.0575Y-220.8066
G1 Z0F20000
(Start Block)

G1X38.7516Y-221.6843
G1 Z3.0F20000
(Plotting speed under)
G1 F4000

G1X84.4852Y-219.7928
G1X131.8752Y-219.5577
G1X174.9453Y-215.0028
G1X224.0468Y-216.4792
G1X277.1234Y-221.9308
G1 Z0F20000
(Start Block)

G1X38.4706Y-222.4616
G1 Z3.0F20000
(Plotting speed under)
G1 F4000

G1X84.1771Y-220.5431
G1X131.8220Y-220.5629
G1X175.2716Y-216.3875
G1X224.2742Y-217.7650
G1X277.1892Y-223.0550
G1 Z0F20000
(Start Block)

G1X38.1897Y-223.2390
G1 Z3.0F20000
(Plotting speed under)
G1 F4000

G1X83.8690Y-221.2933
G1X131.7689Y-221.5681
G1X175.5979Y-217.7720
G1X224.5015Y-219.0506
G1X277.2551Y-224.1792
G1 Z0F20000
(Start Block)

G1X37.9087Y-224.0164
G1 Z3.0F20000
(Plotting speed under)
G1 F4000

G1X83.5610Y-222.0436
G1X131.7157Y-222.5733
G1X175.9241Y-219.1566
G1X224.7289Y-220.3363
G1X277.3209Y-225.3034
G1 Z0F20000
(Start Block)

G1X37.6278Y-224.7938
G1 Z3.0F20000
(Plotting speed under)
G1 F4000

G1X83.2529Y-222.7938
G1X131.6626Y-223.5785
G1X176.2504Y-220.5412
G1X224.9563Y-221.6221
G1X277.3868Y-226.4275
G1 Z0F20000
(Start Block)

G1X37.3468Y-225.5712
G1 Z3.0F20000
(Plotting speed under)
G1 F4000

G1X82.9448Y-223.5441
G1X131.6094Y-224.5837
G1X176.5766Y-221.9258
G1X225.1836Y-222.9077
G1X277.4527Y-227.5517
G1 Z0F20000
(Start Block)

G1X37.0659Y-226.3485
G1 Z3.0F20000
(Plotting speed under)
G1 F4000

G1X82.6367Y-224.2944
G1X131.5563Y-225.5889
G1X176.9029Y-223.3104
G1X225.4110Y-224.1934
G1X277.5185Y-228.6759
G1 Z0F20000
(Start Block)

G1X36.7849Y-227.1259
G1 Z3.0F20000
(Plotting speed under)
G1 F4000

G1X82.3287Y-225.0446
G1X131.5031Y-226.5941
G1X177.2291Y-224.6950
G1X225.6383Y-225.4791
G1X277.5844Y-229.8001
G1 Z0F20000
(Start Block)

G1X36.5040Y-227.9033
G1 Z3.0F20000
(Plotting speed under)
G1 F4000

G1X82.0206Y-225.7949
G1X131.4500Y-227.5993
G1X177.5554Y-226.0795
G1X225.8657Y-226.7648
G1X277.6502Y-230.9243
G1 Z0F20000
(Start Block)

G1X36.2230Y-228.6807
G1 Z3.0F20000
(Plotting speed under)
G1 F4000

G1X81.7125Y-226.5452
G1X131.3969Y-228.6044
G1X177.8816Y-227.4641
G1X226.0930Y-228.0505
G1X277.7161Y-232.0485
G1 Z0F20000
(Start Block)

G1X35.9421Y-229.4581
G1 Z3.0F20000
(Plotting speed under)
G1 F4000

G1X81.4045Y-227.2954
G1X131.3437Y-229.6096
G1X178.2079Y-228.8487
G1X226.3204Y-229.3362
G1X277.7819Y-233.1727
G1 Z0F20000
(Start Block)

G1X35.6611Y-230.2355
G1 Z3.0F20000
(Plotting speed under)
G1 F4000

G1X81.0964Y-228.0457
G1X131.2906Y-230.6148
G1X178.5341Y-230.2333
G1X226.5477Y-230.6219
G1X277.8478Y-234.2969
G1 Z0F20000
(Start Block)

G1X35.3802Y-231.0128
G1 Z3.0F20000
(Plotting speed under)
G1 F4000

G1X80.7883Y-228.7959
G1X131.2375Y-231.6200
G1X178.8604Y-231.6179
G1X226.7751Y-231.9076
G1X277.9136Y-235.4211
G1 Z0F20000
(Start Block)

G1X35.0992Y-231.7902
G1 Z3.0F20000
(Plotting speed under)
G1 F4000

G1X80.4802Y-229.5462
G1X131.1843Y-232.6252
G1X179.1866Y-233.0025
G1X227.0025Y-233.1933
G1X277.9795Y-236.5453
G1 Z0F20000
(Start Block)

G1X34.8183Y-232.5676
G1 Z3.0F20000
(Plotting speed under)
G1 F4000

G1X80.1722Y-230.2965
G1X131.1312Y-233.6304
G1X179.5129Y-234.3871
G1X227.2298Y-234.4790
G1X278.0454Y-237.6695
G1 Z0F20000
(Start Block)

G1X34.5373Y-233.3450
G1 Z3.0F20000
(Plotting speed under)
G1 F4000

G1X79.8641Y-231.0467
G1X131.0780Y-234.6356
G1X179.8391Y-235.7716
G1X227.4572Y-235.7647
G1X278.1112Y-238.7937
G1 Z0F20000
(Start Block)

G1X34.2564Y-234.1224
G1 Z3.0F20000
(Plotting speed under)
G1 F4000

G1X79.5560Y-231.7970
G1X131.0249Y-235.6408
G1X180.1654Y-237.1562
G1X227.6846Y-237.0504
G1X278.1771Y-239.9178
G1 Z0F20000
(Start Block)

G1X33.9754Y-234.8998
G1 Z3.0F20000
(Plotting speed under)
G1 F4000

G1X79.2479Y-232.5473
G1X130.9717Y-236.6460
G1X180.4916Y-238.5408
G1X227.9119Y-238.3361
G1X278.2429Y-241.0420
G1 Z0F20000
(Start Block)

G1X33.6944Y-235.6771
G1 Z3.0F20000
(Plotting speed under)
G1 F4000

G1X78.9399Y-233.2975
G1X130.9186Y-237.6512
G1X180.8179Y-239.9254
G1X228.1393Y-239.6217
G1X278.3088Y-242.1662
G1 Z0F20000
(Start Block)

G1X33.4135Y-236.4545
G1 Z3.0F20000
(Plotting speed under)
G1 F4000

G1X78.6318Y-234.0478
G1X130.8654Y-238.6564
G1X181.1441Y-241.3100
G1X228.3667Y-240.9075
G1X278.3747Y-243.2904
G1 Z0F20000
(Start Block)

G1X33.1325Y-237.2319
G1 Z3.0F20000
(Plotting speed under)
G1 F4000

G1X78.3237Y-234.7980
G1X130.8123Y-239.6615
G1X181.4704Y-242.6946
G1X228.5940Y-242.1932
G1X278.4405Y-244.4146
G1 Z0F20000
(Start Block)

G1X32.8516Y-238.0093
G1 Z3.0F20000
(Plotting speed under)
G1 F4000

G1X78.0157Y-235.5483
G1X130.7592Y-240.6667
G1X181.7966Y-244.0792
G1X228.8214Y-243.4788
G1X278.5064Y-245.5388
G1 Z0F20000
(Start Block)

G1X32.5706Y-238.7867
G1 Z3.0F20000
(Plotting speed under)
G1 F4000

G1X77.7076Y-236.2986
G1X130.7060Y-241.6719
G1X182.1229Y-245.4637
G1X229.0487Y-244.7645
G1X278.5722Y-246.6630
G1 Z0F20000
(Start Block)

G1X32.9428Y-240.2172
G1 Z3.0F20000
(Plotting speed under)
G1 F4000

G1X77.7276Y-237.3769
G1X130.6251Y-242.6494
G1X182.4458Y-246.8450
G1X228.9492Y-245.7234
G1X278.1585Y-247.3076
G1 Z0F20000
(Start Block)

G1X33.3150Y-241.6477
G1 Z3.0F20000
(Plotting speed under)
G1 F4000

G1X77.7476Y-238.4553
G1X130.5443Y-243.6269
G1X182.7687Y-248.2263
G1X228.8498Y-246.6822
G1X277.7447Y-247.9522
G1 Z0F20000
(Start Block)

G1X33.6872Y-243.0782
G1 Z3.0F20000
(Plotting speed under)
G1 F4000

G1X77.7677Y-239.5336
G1X183.0917Y-249.6075
G1X228.7503Y-247.6411
G1X277.3310Y-248.5967
G1 Z0F20000
(Start Block)

G1X34.0594Y-244.5087
G1 Z3.0F20000
(Plotting speed under)
G1 F4000

G1X77.7877Y-240.6120
G1X130.3825Y-245.5818
G1X183.4146Y-250.9888
G1X228.6508Y-248.5999
G1X276.9172Y-249.2413
G1 Z0F20000
(Start Block)

G1X34.4315Y-245.9392
G1 Z3.0F20000
(Plotting speed under)
G1 F4000

G1X77.8077Y-241.6904
G1X130.3016Y-246.5592
G1X183.7375Y-252.3700
G1X228.5513Y-249.5588
G1X276.5035Y-249.8859
G1 Z0F20000
(Start Block)

G1X34.8037Y-247.3698
G1 Z3.0F20000
(Plotting speed under)
G1 F4000

G1X77.8278Y-242.7687
G1X130.2208Y-247.5367
G1X184.0604Y-253.7513
G1X228.4518Y-250.5176
G1X276.0897Y-250.5305
G1 Z0F20000
(Start Block)

G1X35.1759Y-248.8003
G1 Z3.0F20000
(Plotting speed under)
G1 F4000

G1X77.8478Y-243.8471
G1X130.1399Y-248.5141
G1X184.3834Y-255.1326
G1X228.3523Y-251.4765
G1X275.6760Y-251.1751
G1 Z0F20000
(Start Block)

G1X35.5481Y-250.2308
G1 Z3.0F20000
(Plotting speed under)
G1 F4000

G1X77.8678Y-244.9255
G1X130.0590Y-249.4916
G1X184.7063Y-256.5138
G1X228.2528Y-252.4353
G1X275.2623Y-251.8197
G1 Z0F20000
(Start Block)

G1X35.9203Y-251.6613
G1 Z3.0F20000
(Plotting speed under)
G1 F4000

G1X77.8878Y-246.0038
G1X129.9781Y-250.4690
G1X185.0292Y-257.8951
G1X228.1533Y-253.3942
G1X274.8485Y-252.4643
G1 Z0F20000
(Start Block)

G1X36.2925Y-253.0918
G1 Z3.0F20000
(Plotting speed under)
G1 F4000

G1X77.9079Y-247.0822
G1X129.8972Y-251.4465
G1X185.3522Y-259.2764
G1X228.0539Y-254.3530
G1X274.4348Y-253.1089
G1 Z0F20000
(Start Block)

G1X36.6647Y-254.5223
G1 Z3.0F20000
(Plotting speed under)
G1 F4000

G1X77.9279Y-248.1606
G1X129.8164Y-252.4240
G1X185.6751Y-260.6576
G1X227.9544Y-255.3118
G1X274.0210Y-253.7534
G1 Z0F20000
(Start Block)

G1X37.0368Y-255.9528
G1 Z3.0F20000
(Plotting speed under)
G1 F4000

G1X77.9480Y-249.2389
G1X129.7355Y-253.4014
G1X185.9980Y-262.0389
G1X227.8549Y-256.2707
G1X273.6073Y-254.3980
G1 Z0F20000
(Start Block)

G1X37.4090Y-257.3834
G1 Z3.0F20000
(Plotting speed under)
G1 F4000

G1X77.9680Y-250.3173
G1X129.6546Y-254.3789
G1X186.3209Y-263.4201
G1X227.7554Y-257.2295
G1X273.1935Y-255.0426
G1 Z0F20000
(Start Block)

G1X37.7812Y-258.8139
G1 Z3.0F20000
(Plotting speed under)
G1 F4000

G1X77.9880Y-251.3957
G1X129.5737Y-255.3563
G1X186.6439Y-264.8014
G1X227.6559Y-258.1884
G1X272.7798Y-255.6872
G1 Z0F20000
(Start Block)

G1X38.1534Y-260.2444
G1 Z3.0F20000
(Plotting speed under)
G1 F4000

G1X78.0080Y-252.4740
G1X129.4928Y-256.3338
G1X186.9668Y-266.1826
G1X227.5564Y-259.1472
G1X272.3660Y-256.3318
G1 Z0F20000
(Start Block)

G1X38.5256Y-261.6749
G1 Z3.0F20000
(Plotting speed under)
G1 F4000

G1X78.0281Y-253.5524
G1X129.4120Y-257.3112
G1X187.2897Y-267.5639
G1X227.4569Y-260.1061
G1X271.9523Y-256.9764
G1 Z0F20000
(Start Block)

G1X38.8977Y-263.1054
G1 Z3.0F20000
(Plotting speed under)
G1 F4000

G1X78.0481Y-254.6307
G1X129.3311Y-258.2887
G1X187.6126Y-268.9452
G1X227.3575Y-261.0649
G1X271.5385Y-257.6210
G1 Z0F20000
(Start Block)

G1X39.2699Y-264.5360
G1 Z3.0F20000
(Plotting speed under)
G1 F4000

G1X78.0681Y-255.7091
G1X129.2502Y-259.2661
G1X187.9356Y-270.3265
G1X227.2579Y-262.0238
G1X271.1248Y-258.2656
G1 Z0F20000
(Start Block)

G1X39.6421Y-265.9665
G1 Z3.0F20000
(Plotting speed under)
G1 F4000

G1X78.0882Y-256.7875
G1X129.1693Y-260.2436
G1X188.2585Y-271.7077
G1X227.1585Y-262.9826
G1X270.7110Y-258.9101
G1 Z0F20000
(Start Block)

G1X40.0143Y-267.3970
G1 Z3.0F20000
(Plotting speed under)
G1 F4000

G1X78.1082Y-257.8658
G1X129.0885Y-261.2211
G1X188.5814Y-273.0890
G1X227.0590Y-263.9415
G1X270.2973Y-259.5547
G1 Z0F20000
(Start Block)

G1X40.3865Y-268.8275
G1 Z3.0F20000
(Plotting speed under)
G1 F4000

G1X78.1282Y-258.9442
G1X129.0076Y-262.1985
G1X188.9043Y-274.4702
G1X226.9595Y-264.9003
G1X269.8836Y-260.1993
G1 Z0F20000
(Start Block)

G1X40.7586Y-270.2580
G1 Z3.0F20000
(Plotting speed under)
G1 F4000

G1X78.1482Y-260.0226
G1X128.9267Y-263.1760
G1X189.2273Y-275.8515
G1X226.8600Y-265.8592
G1X269.4698Y-260.8439
G1 Z0F20000
(Start Block)

G1X41.1308Y-271.6885
G1 Z3.0F20000
(Plotting speed under)
G1 F4000

G1X78.1683Y-261.1009
G1X128.8458Y-264.1534
G1X189.5502Y-277.2328
G1X226.7605Y-266.8180
G1X269.0560Y-261.4885
G1 Z0F20000
(Start Block)

G1X41.5030Y-273.1191
G1 Z3.0F20000
(Plotting speed under)
G1 F4000

G1X78.1883Y-262.1793
G1X128.7649Y-265.1309
G1X189.8731Y-278.6140
G1X226.6610Y-267.7769
G1X268.6423Y-262.1331
G1 Z0F20000
(Start Block)

G1X41.8752Y-274.5496
G1 Z3.0F20000
(Plotting speed under)
G1 F4000

G1X78.2083Y-263.2576
G1X128.6841Y-266.1084
G1X190.1960Y-279.9953
G1X226.5615Y-268.7357
G1X268.2285Y-262.7777
G1 Z0F20000
(Start Block)

G1X42.2474Y-275.9801
G1 Z3.0F20000
(Plotting speed under)
G1 F4000

G1X78.2284Y-264.3360
G1X128.6032Y-267.0858
G1X190.5190Y-281.3766
G1X226.4621Y-269.6946
G1X267.8148Y-263.4222
G1 Z0F20000
(Start Block)

G1X42.6196Y-277.4106
G1 Z3.0F20000
(Plotting speed under)
G1 F4000

G1X78.2484Y-265.4144
G1X128.5223Y-268.0633
G1X190.8419Y-282.7578
G1X226.3626Y-270.6534
G1X267.4011Y-264.0669
G1 Z0F20000
(Start Block)

G1X42.9917Y-278.8411
G1 Z3.0F20000
(Plotting speed under)
G1 F4000

G1X78.2684Y-266.4927
G1X128.4414Y-269.0407
G1X191.1648Y-284.1391
G1X226.2631Y-271.6123
G1X266.9873Y-264.7114
G1 Z0F20000
(Start Block)

G1X43.3639Y-280.2716
G1 Z3.0F20000
(Plotting speed under)
G1 F4000

G1X78.2885Y-267.5711
G1X128.3606Y-270.0182
G1X191.4878Y-285.5203
G1X226.1636Y-272.5711
G1X266.5735Y-265.3560
G1 Z0F20000
(Start Block)

G1X43.7361Y-281.7022
G1 Z3.0F20000
(Plotting speed under)
G1 F4000

G1X78.3085Y-268.6495
G1X128.2797Y-270.9957
G1X191.8107Y-286.9016
G1X226.0641Y-273.5300
G1X266.1598Y-266.0006
G1 Z0F20000
(Start Block)

G1X44.1083Y-283.1327
G1 Z3.0F20000
(Plotting speed under)
G1 F4000

G1X78.3285Y-269.7279
G1X128.1988Y-271.9731
G1X192.1336Y-288.2829
G1X225.9646Y-274.4888
G1X265.7461Y-266.6452
G1 Z0F20000
(Start Block)

G1X44.4805Y-284.5632
G1 Z3.0F20000
(Plotting speed under)
G1 F4000

G1X78.3486Y-270.8062
G1X128.1179Y-272.9506
G1X192.4565Y-289.6641
G1X225.8651Y-275.4476
G1X265.3323Y-267.2898
G1 Z0F20000
(Start Block)

G1X44.8526Y-285.9937
G1 Z3.0F20000
(Plotting speed under)
G1 F4000

G1X78.3686Y-271.8846
G1X128.0371Y-273.9280
G1X192.7795Y-291.0454
G1X225.7656Y-276.4065
G1X264.9186Y-267.9344
G1 Z0F20000
(Start Block)

G1X45.2248Y-287.4242
G1 Z3.0F20000
(Plotting speed under)
G1 F4000

G1X78.3886Y-272.9630
G1X127.9562Y-274.9055
G1X193.1024Y-292.4267
G1X225.6662Y-277.3653
G1X264.5048Y-268.5790
G1 Z0F20000
(Start Block)

G1X45.5970Y-288.8548
G1 Z3.0F20000
(Plotting speed under)
G1 F4000

G1X78.4087Y-274.0413
G1X127.8753Y-275.8829
G1X193.4253Y-293.8079
G1X225.5667Y-278.3242
G1X264.0911Y-269.2235
G1 Z0F20000
(Start Block)

G1X45.9692Y-290.2852
G1 Z3.0F20000
(Plotting speed under)
G1 F4000

G1X78.4287Y-275.1197
G1X127.7944Y-276.8604
G1X193.7483Y-295.1892
G1X225.4672Y-279.2830
G1X263.6773Y-269.8682
G1 Z0F20000
(Start Block)

G1X46.3414Y-291.7158
G1 Z3.0F20000
(Plotting speed under)
G1 F4000

G1X78.4487Y-276.1981
G1X127.7135Y-277.8378
G1X194.0712Y-296.5704
G1X225.3677Y-280.2419
G1X263.2636Y-270.5127
G1 Z0F20000
(Start Block)

G1X46.7136Y-293.1463
G1 Z3.0F20000
(Plotting speed under)
G1 F4000

G1X78.4687Y-277.2764
G1X127.6327Y-278.8153
G1X194.3941Y-297.9517
G1X225.2682Y-281.2007
G1X262.8498Y-271.1573
G1 Z0F20000
(Start Block)

G1X47.0857Y-294.5768
G1 Z3.0F20000
(Plotting speed under)
G1 F4000

G1X78.4888Y-278.3548
G1X127.5518Y-279.7928
G1X194.7170Y-299.3329
G1X225.1687Y-282.1596
G1X262.4361Y-271.8019
G1 Z0F20000
(Start Block)

G1X47.4579Y-296.0073
G1 Z3.0F20000
(Plotting speed under)
G1 F4000

G1X78.5088Y-279.4331
G1X127.4709Y-280.7702
G1X195.0400Y-300.7142
G1X225.0692Y-283.1184
G1X262.0223Y-272.4465
G1 Z0F20000
(Start Block)

G1X47.8301Y-297.4378
G1 Z3.0F20000
(Plotting speed under)
G1 F4000

G1X78.5288Y-280.5115
G1X127.3900Y-281.7477
G1X195.3629Y-302.0955
G1X224.9697Y-284.0773
G1X261.6086Y-273.0911
G1 Z0F20000
(Start Block)

G1X48.2023Y-298.8684
G1 Z3.0F20000
(Plotting speed under)
G1 F4000

G1X78.5489Y-281.5899
G1X127.3092Y-282.7251
G1X195.6858Y-303.4767
G1X224.8703Y-285.0361
G1X261.1948Y-273.7357
G1 Z0F20000
(Start Block)

G1X48.5745Y-300.2989
G1 Z3.0F20000
(Plotting speed under)
G1 F4000

G1X78.5689Y-282.6682
G1X127.2283Y-283.7026
G1X196.0088Y-304.8580
G1X224.7708Y-285.9950
G1X260.7811Y-274.3803
G1 Z0F20000
(Start Block)

G1X48.9466Y-301.7294
G1 Z3.0F20000
(Plotting speed under)
G1 F4000

G1X78.5889Y-283.7466
G1X127.1474Y-284.6800
G1X196.3317Y-306.2393
G1X224.6713Y-286.9538
G1X260.3673Y-275.0249
G1 Z0F20000
(Start Block)

G1X49.3188Y-303.1599
G1 Z3.0F20000
(Plotting speed under)
G1 F4000

G1X78.6089Y-284.8250
G1X127.0665Y-285.6575
G1X196.6546Y-307.6205
G1X224.5718Y-287.9127
G1X259.9536Y-275.6694
G1 Z0F20000
(Start Block)

G1X48.9885Y-303.8879
G1 Z3.0F20000
(Plotting speed under)
G1 F4000

G1X78.7602Y-286.0345
G1X126.9930Y-286.6423
G1X196.3103Y-308.3345
G1X224.8820Y-289.2812
G1X260.1915Y-276.9657
G1 Z0F20000
(Start Block)

G1X48.6581Y-304.6158
G1 Z3.0F20000
(Plotting speed under)
G1 F4000

G1X78.9113Y-287.2440
G1X126.9195Y-287.6271
G1X195.9659Y-309.0485
G1X225.1922Y-290.6497
G1X260.4294Y-278.2619
G1 Z0F20000
(Start Block)

G1X48.3277Y-305.3438
G1 Z3.0F20000
(Plotting speed under)
G1 F4000

G1X79.0625Y-288.4536
G1X126.8459Y-288.6119
G1X195.6216Y-309.7625
G1X225.5024Y-292.0183
G1X260.6673Y-279.5581
G1 Z0F20000
(Start Block)

G1X47.9973Y-306.0717
G1 Z3.0F20000
(Plotting speed under)
G1 F4000

G1X79.2138Y-289.6631
G1X126.7724Y-289.5967
G1X195.2773Y-310.4765
G1X225.8126Y-293.3868
G1X260.9052Y-280.8544
G1 Z0F20000
(Start Block)

G1X47.6669Y-306.7997
G1 Z3.0F20000
(Plotting speed under)
G1 F4000

G1X79.3649Y-290.8726
G1X126.6989Y-290.5815
G1X194.9330Y-311.1905
G1X226.1228Y-294.7553
G1X261.1431Y-282.1506
G1 Z0F20000
(Start Block)

G1X47.3366Y-307.5276
G1 Z3.0F20000
(Plotting speed under)
G1 F4000

G1X79.5161Y-292.0822
G1X126.6253Y-291.5663
G1X194.5886Y-311.9045
G1X226.4330Y-296.1239
G1X261.3810Y-283.4468
G1 Z0F20000
(Start Block)

G1X47.0062Y-308.2556
G1 Z3.0F20000
(Plotting speed under)
G1 F4000

G1X79.6674Y-293.2917
G1X126.5518Y-292.5511
G1X194.2443Y-312.6186
G1X226.7432Y-297.4924
G1X261.6189Y-284.7431
G1 Z0F20000
(Start Block)

G1X46.6758Y-308.9835
G1 Z3.0F20000
(Plotting speed under)
G1 F4000

G1X79.8185Y-294.5013
G1X126.4783Y-293.5359
G1X193.8999Y-313.3326
G1X227.0534Y-298.8610
G1X261.8568Y-286.0393
G1 Z0F20000
(Start Block)

G1X46.3454Y-309.7115
G1 Z3.0F20000
(Plotting speed under)
G1 F4000

G1X79.9697Y-295.7108
G1X126.4047Y-294.5207
G1X193.5556Y-314.0465
G1X227.3636Y-300.2295
G1X262.0947Y-287.3355
G1 Z0F20000
(Start Block)

G1X46.0151Y-310.4395
G1 Z3.0F20000
(Plotting speed under)
G1 F4000

G1X80.1210Y-296.9203
G1X126.3312Y-295.5055
G1X193.2113Y-314.7605
G1X227.6738Y-301.5980
G1X262.3326Y-288.6318
G1 Z0F20000
(Start Block)

G1X45.6847Y-311.1674
G1 Z3.0F20000
(Plotting speed under)
G1 F4000

G1X80.2721Y-298.1299
G1X126.2576Y-296.4903
G1X192.8670Y-315.4745
G1X227.9840Y-302.9665
G1X262.5705Y-289.9280
G1 Z0F20000
(Start Block)

G1X45.3543Y-311.8954
G1 Z3.0F20000
(Plotting speed under)
G1 F4000

G1X80.4233Y-299.3394
G1X126.1841Y-297.4751
G1X192.5226Y-316.1886
G1X228.2942Y-304.3351
G1X262.8084Y-291.2242
G1 Z0F20000
(Start Block)

G1X45.0239Y-312.6233
G1 Z3.0F20000
(Plotting speed under)
G1 F4000

G1X80.5746Y-300.5489
G1X126.1106Y-298.4599
G1X192.1783Y-316.9026
G1X228.6044Y-305.7036
G1X263.0463Y-292.5204
G1 Z0F20000
(Start Block)

G1X44.6935Y-313.3513
G1 Z3.0F20000
(Plotting speed under)
G1 F4000

G1X80.7257Y-301.7585
G1X126.0370Y-299.4447
G1X191.8340Y-317.6166
G1X228.9146Y-307.0722
G1X263.2842Y-293.8167
G1 Z0F20000
(Start Block)

G1X44.3632Y-314.0793
G1 Z3.0F20000
(Plotting speed under)
G1 F4000

G1X80.8770Y-302.9680
G1X125.9635Y-300.4295
G1X191.4896Y-318.3306
G1X229.2248Y-308.4407
G1X263.5221Y-295.1129
G1 Z0F20000
(Start Block)

G1X44.0328Y-314.8072
G1 Z3.0F20000
(Plotting speed under)
G1 F4000

G1X81.0282Y-304.1775
G1X125.8900Y-301.4143
G1X191.1453Y-319.0446
G1X229.5350Y-309.8092
G1X263.7600Y-296.4092
G1 Z0F20000
(Start Block)

G1X43.7024Y-315.5352
G1 Z3.0F20000
(Plotting speed under)
G1 F4000

G1X81.1793Y-305.3871
G1X125.8164Y-302.3991
G1X190.8010Y-319.7586
G1X229.8452Y-311.1778
G1X263.9979Y-297.7054
G1 Z0F20000
(Start Block)

G1X43.3721Y-316.2631
G1 Z3.0F20000
(Plotting speed under)
G1 F4000

G1X81.3306Y-306.5966
G1X125.7429Y-303.3839
G1X190.4567Y-320.4726
G1X230.1554Y-312.5463
G1X264.2358Y-299.0016
G1 Z0F20000
(Start Block)

G1X43.0417Y-316.9911
G1 Z3.0F20000
(Plotting speed under)
G1 F4000

G1X81.4818Y-307.8061
G1X125.6694Y-304.3687
G1X190.1123Y-321.1866
G1X230.4656Y-313.9148
G1X264.4737Y-300.2979
G1 Z0F20000
(Start Block)

G1X42.7113Y-317.7190
G1 Z3.0F20000
(Plotting speed under)
G1 F4000

G1X81.6329Y-309.0157
G1X125.5958Y-305.3535
G1X189.7680Y-321.9006
G1X230.7758Y-315.2834
G1X264.7116Y-301.5941
G1 Z0F20000
(Start Block)

G1X42.3809Y-318.4470
G1 Z3.0F20000
(Plotting speed under)
G1 F4000

G1X81.7842Y-310.2252
G1X125.5223Y-306.3383
G1X189.4236Y-322.6146
G1X231.0860Y-316.6519
G1X264.9495Y-302.8903
G1 Z0F20000
(Start Block)

G1X42.0505Y-319.1750
G1 Z3.0F20000
(Plotting speed under)
G1 F4000

G1X81.9354Y-311.4347
G1X125.4488Y-307.3231
G1X189.0793Y-323.3286
G1X231.3962Y-318.0204
G1X265.1874Y-304.1865
G1 Z0F20000
(Start Block)

G1X41.7202Y-319.9029
G1 Z3.0F20000
(Plotting speed under)
G1 F4000

G1X82.0865Y-312.6443
G1X125.3752Y-308.3079
G1X188.7350Y-324.0426
G1X231.7064Y-319.3890
G1X265.4253Y-305.4828
G1 Z0F20000
(Start Block)

G1X41.3898Y-320.6309
G1 Z3.0F20000
(Plotting speed under)
G1 F4000

G1X82.2378Y-313.8538
G1X125.3017Y-309.2927
G1X188.3907Y-324.7566
G1X232.0166Y-320.7575
G1X265.6632Y-306.7790
G1 Z0F20000
(Start Block)

G1X41.0594Y-321.3589
G1 Z3.0F20000
(Plotting speed under)
G1 F4000

G1X82.3890Y-315.0633
G1X125.2282Y-310.2775
G1X188.0463Y-325.4706
G1X232.3268Y-322.1261
G1X265.9010Y-308.0753
G1 Z0F20000
(Start Block)

G1X40.7290Y-322.0868
G1 Z3.0F20000
(Plotting speed under)
G1 F4000

G1X82.5401Y-316.2729
G1X125.1546Y-311.2623
G1X187.7020Y-326.1846
G1X232.6370Y-323.4946
G1X266.1390Y-309.3715
G1 Z0F20000
(Start Block)

G1X40.3986Y-322.8148
G1 Z3.0F20000
(Plotting speed under)
G1 F4000

G1X82.6914Y-317.4824
G1X125.0811Y-312.2471
G1X187.3577Y-326.8986
G1X232.9472Y-324.8632
G1X266.3768Y-310.6677
G1 Z0F20000
(Start Block)

G1X40.0683Y-323.5427
G1 Z3.0F20000
(Plotting speed under)
G1 F4000

G1X82.8426Y-318.6920
G1X125.0075Y-313.2319
G1X187.0133Y-327.6126
G1X233.2575Y-326.2317
G1X266.6148Y-311.9639
G1 Z0F20000
(Start Block)

G1X39.7379Y-324.2707
G1 Z3.0F20000
(Plotting speed under)
G1 F4000

G1X82.9938Y-319.9015
G1X124.9340Y-314.2167
G1X186.6690Y-328.3266
G1X233.5677Y-327.6002
G1X266.8526Y-313.2602
G1 Z0F20000
(Start Block)

G1X39.4075Y-324.9986
G1 Z3.0F20000
(Plotting speed under)
G1 F4000

G1X83.1450Y-321.1110
G1X124.8605Y-315.2015
G1X186.3247Y-329.0406
G1X233.8778Y-328.9688
G1X267.0906Y-314.5564
G1 Z0F20000
(Start Block)

G1X39.0772Y-325.7266
G1 Z3.0F20000
(Plotting speed under)
G1 F4000

G1X83.2962Y-322.3206
G1X124.7870Y-316.1863
G1X185.9804Y-329.7546
G1X234.1880Y-330.3373
G1X267.3285Y-315.8526
G1 Z0F20000
(Start Block)

G1X38.7468Y-326.4545
G1 Z3.0F20000
(Plotting speed under)
G1 F4000

G1X83.4474Y-323.5301
G1X124.7134Y-317.1711
G1X185.6360Y-330.4687
G1X234.4982Y-331.7058
G1X267.5663Y-317.1489
G1 Z0F20000
(Start Block)

G1X38.4164Y-327.1825
G1 Z3.0F20000
(Plotting speed under)
G1 F4000

G1X83.5986Y-324.7396
G1X124.6399Y-318.1559
G1X185.2917Y-331.1827
G1X234.8084Y-333.0743
G1X267.8043Y-318.4451
G1 Z0F20000
(Start Block)

G1X38.0860Y-327.9105
G1 Z3.0F20000
(Plotting speed under)
G1 F4000

G1X83.7498Y-325.9492
G1X124.5664Y-319.1407
G1X184.9473Y-331.8967
G1X235.1186Y-334.4429
G1X268.0421Y-319.7414
G1 Z0F20000
(Start Block)

G1X37.7556Y-328.6384
G1 Z3.0F20000
(Plotting speed under)
G1 F4000

G1X83.9010Y-327.1587
G1X124.4928Y-320.1255
G1X184.6030Y-332.6107
G1X235.4289Y-335.8114
G1X268.2801Y-321.0376
G1 Z0F20000
(Start Block)

G1X37.4253Y-329.3664
G1 Z3.0F20000
(Plotting speed under)
G1 F4000

G1X84.0522Y-328.3682
G1X124.4193Y-321.1103
G1X184.2587Y-333.3246
G1X235.7391Y-337.1800
G1X268.5179Y-322.3338
G1 Z0F20000
(Start Block)

G1X37.0949Y-330.0943
G1 Z3.0F20000
(Plotting speed under)
G1 F4000

G1X84.2034Y-329.5778
G1X124.3457Y-322.0951
G1X183.9144Y-334.0386
G1X236.0493Y-338.5485
G1X268.7559Y-323.6301
G1 Z0F20000
(Start Block)

G1X36.7645Y-330.8223
G1 Z3.0F20000
(Plotting speed under)
G1 F4000

G1X84.3546Y-330.7873
G1X124.2722Y-323.0799
G1X183.5700Y-334.7527
G1X236.3595Y-339.9170
G1X268.9937Y-324.9263
G1 Z0F20000
(Start Block)

G1X36.4341Y-331.5502
G1 Z3.0F20000
(Plotting speed under)
G1 F4000

G1X84.5058Y-331.9968
G1X124.1987Y-324.0647
G1X183.2257Y-335.4667
G1X236.6697Y-341.2856
G1X269.2316Y-326.2225
G1 Z0F20000
(Start Block)

G1X36.1038Y-332.2782
G1 Z3.0F20000
(Plotting speed under)
G1 F4000

G1X84.6570Y-333.2064
G1X124.1251Y-325.0495
G1X182.8814Y-336.1807
G1X236.9799Y-342.6541
G1X269.4695Y-327.5188
G1 Z0F20000
(Start Block)

G1X35.7734Y-333.0062
G1 Z3.0F20000
(Plotting speed under)
G1 F4000

G1X84.8082Y-334.4159
G1X124.0516Y-326.0343
G1X182.5370Y-336.8947
G1X237.2901Y-344.0227
G1X269.7075Y-328.8150
G1 Z0F20000
(Start Block)

G1X35.4430Y-333.7341
G1 Z3.0F20000
(Plotting speed under)
G1 F4000

G1X84.9594Y-335.6254
G1X123.9781Y-327.0191
G1X182.1927Y-337.6087
G1X237.6003Y-345.3912
G1X269.9454Y-330.1112
G1 Z0F20000
(Start Block)

G1X35.1126Y-334.4621
G1 Z3.0F20000
(Plotting speed under)
G1 F4000

G1X85.1106Y-336.8350
G1X123.9045Y-328.0039
G1X181.8484Y-338.3227
G1X237.9105Y-346.7597
G1X270.1833Y-331.4074
G1 Z0F20000
(Start Block)

G1X34.7822Y-335.1900
G1 Z3.0F20000
(Plotting speed under)
G1 F4000

G1X85.2618Y-338.0445
G1X123.8310Y-328.9887
G1X181.5041Y-339.0367
G1X238.2207Y-348.1282
G1X270.4212Y-332.7037
G1 Z0F20000
(Start Block)

G1X34.4519Y-335.9180
G1 Z3.0F20000
(Plotting speed under)
G1 F4000

G1X85.4130Y-339.2540
G1X123.7575Y-329.9735
G1X238.5309Y-349.4968
G1X270.6591Y-333.9999
G1 Z0F20000
(Start Block)

G1X34.5739Y-337.0984
G1 Z3.0F20000
(Plotting speed under)
G1 F4000

G1X84.8998Y-339.7992
G1X123.7172Y-330.9915
G1X181.0794Y-340.7287
G1X238.1812Y-350.2055
G1X270.7260Y-335.1252
G1 Z0F20000
(Start Block)

G1X34.6960Y-338.2788
G1 Z3.0F20000
(Plotting speed under)
G1 F4000

G1X84.3865Y-340.3443
G1X123.6769Y-332.0096
G1X180.9990Y-341.7066
G1X237.8316Y-350.9142
G1X270.7930Y-336.2505
G1 Z0F20000
(Start Block)

G1X34.8181Y-339.4592
G1 Z3.0F20000
(Plotting speed under)
G1 F4000

G1X83.8733Y-340.8894
G1X123.6366Y-333.0276
G1X180.9187Y-342.6847
G1X237.4820Y-351.6229
G1X270.8600Y-337.3758
G1 Z0F20000
(Start Block)

G1X34.9402Y-340.6396
G1 Z3.0F20000
(Plotting speed under)
G1 F4000

G1X83.3601Y-341.4345
G1X123.5963Y-334.0457
G1X180.8383Y-343.6626
G1X237.1324Y-352.3316
G1X270.9270Y-338.5012
G1 Z0F20000
(Start Block)

G1X35.0622Y-341.8200
G1 Z3.0F20000
(Plotting speed under)
G1 F4000

G1X82.8469Y-341.9796
G1X123.5560Y-335.0637
G1X180.7580Y-344.6406
G1X236.7827Y-353.0403
G1X270.9939Y-339.6265
G1 Z0F20000
(Start Block)

G1X35.1843Y-343.0004
G1 Z3.0F20000
(Plotting speed under)
G1 F4000

G1X82.3337Y-342.5248
G1X123.5157Y-336.0818
G1X180.6776Y-345.6186
G1X236.4331Y-353.7490
G1X271.0609Y-340.7518
G1 Z0F20000
(Start Block)

G1X35.3064Y-344.1808
G1 Z3.0F20000
(Plotting speed under)
G1 F4000

G1X81.8205Y-343.0699
G1X123.4754Y-337.0998
G1X180.5973Y-346.5966
G1X236.0835Y-354.4577
G1X271.1279Y-341.8771
G1 Z0F20000
(Start Block)

G1X35.4284Y-345.3612
G1 Z3.0F20000
(Plotting speed under)
G1 F4000

G1X81.3073Y-343.6150
G1X123.4352Y-338.1179
G1X180.5169Y-347.5746
G1X235.7338Y-355.1664
G1X271.1949Y-343.0024
G1 Z0F20000
(Start Block)

G1X35.5505Y-346.5416
G1 Z3.0F20000
(Plotting speed under)
G1 F4000

G1X80.7941Y-344.1601
G1X123.3949Y-339.1359
G1X180.4366Y-348.5526
G1X235.3842Y-355.8751
G1X271.2619Y-344.1277
G1 Z0F20000
(Start Block)

G1X35.6725Y-347.7220
G1 Z3.0F20000
(Plotting speed under)
G1 F4000

G1X80.2808Y-344.7053
G1X123.3546Y-340.1539
G1X180.3562Y-349.5305
G1X235.0346Y-356.5839
G1X271.3288Y-345.2530
G1 Z0F20000
(Start Block)

G1X35.7946Y-348.9024
G1 Z3.0F20000
(Plotting speed under)
G1 F4000

G1X79.7676Y-345.2504
G1X123.3143Y-341.1720
G1X180.2759Y-350.5085
G1X234.6850Y-357.2926
G1X271.3958Y-346.3783
G1 Z0F20000
(Start Block)

G1X35.9167Y-350.0828
G1 Z3.0F20000
(Plotting speed under)
G1 F4000

G1X79.2544Y-345.7955
G1X123.2740Y-342.1900
G1X180.1955Y-351.4865
G1X234.3353Y-358.0013
G1X271.4628Y-347.5036
G1 Z0F20000
(Start Block)

G1X36.0388Y-351.2632
G1 Z3.0F20000
(Plotting speed under)
G1 F4000

G1X78.7412Y-346.3406
G1X123.2337Y-343.2081
G1X180.1152Y-352.4645
G1X233.9857Y-358.7100
G1X271.5298Y-348.6290
G1 Z0F20000
(Start Block)

G1X36.1608Y-352.4436
G1 Z3.0F20000
(Plotting speed under)
G1 F4000

G1X78.2280Y-346.8857
G1X123.1934Y-344.2261
G1X180.0348Y-353.4425
G1X233.6361Y-359.4187
G1X271.5967Y-349.7543
G1 Z0F20000
(Start Block)

G1X36.2829Y-353.6240
G1 Z3.0F20000
(Plotting speed under)
G1 F4000

G1X77.7148Y-347.4309
G1X123.1532Y-345.2442
G1X179.9545Y-354.4205
G1X233.2865Y-360.1274
G1X271.6637Y-350.8796
G1 Z0F20000
(Start Block)

G1X36.4050Y-354.8044
G1 Z3.0F20000
(Plotting speed under)
G1 F4000

G1X77.2016Y-347.9760
G1X123.1129Y-346.2622
G1X179.8741Y-355.3984
G1X232.9369Y-360.8361
G1X271.7307Y-352.0049
G1 Z0F20000
(Start Block)

G1X36.5270Y-355.9848
G1 Z3.0F20000
(Plotting speed under)
G1 F4000

G1X76.6884Y-348.5211
G1X123.0726Y-347.2803
G1X179.7938Y-356.3765
G1X232.5872Y-361.5448
G1X271.7977Y-353.1302
G1 Z0F20000
(Start Block)

G1X36.6491Y-357.1653
G1 Z3.0F20000
(Plotting speed under)
G1 F4000

G1X76.1751Y-349.0663
G1X123.0323Y-348.2983
G1X179.7135Y-357.3544
G1X232.2376Y-362.2535
G1X271.8647Y-354.2555
G1 Z0F20000
(Start Block)

G1X36.7712Y-358.3456
G1 Z3.0F20000
(Plotting speed under)
G1 F4000

G1X75.6619Y-349.6114
G1X122.9920Y-349.3164
G1X179.6331Y-358.3324
G1X231.8880Y-362.9622
G1X271.9316Y-355.3808
G1 Z0F20000
(Start Block)

G1X36.8933Y-359.5261
G1 Z3.0F20000
(Plotting speed under)
G1 F4000

G1X75.1487Y-350.1565
G1X122.9517Y-350.3344
G1X179.5527Y-359.3104
G1X231.5383Y-363.6709
G1X271.9986Y-356.5062
G1 Z0F20000
(Start Block)

G1X37.0153Y-360.7064
G1 Z3.0F20000
(Plotting speed under)
G1 F4000

G1X74.6355Y-350.7016
G1X122.9114Y-351.3525
G1X179.4724Y-360.2884
G1X231.1887Y-364.3797
G1X272.0656Y-357.6315
G1 Z0F20000
(Start Block)

G1X37.1374Y-361.8869
G1 Z3.0F20000
(Plotting speed under)
G1 F4000

G1X74.1223Y-351.2467
G1X122.8711Y-352.3705
G1X179.3921Y-361.2664
G1X230.8391Y-365.0883
G1X272.1325Y-358.7568
G1 Z0F20000
(Start Block)

G1X37.2595Y-363.0673
G1 Z3.0F20000
(Plotting speed under)
G1 F4000

G1X73.6091Y-351.7919
G1X122.8308Y-353.3885
G1X179.3117Y-362.2444
G1X230.4895Y-365.7971
G1X272.1995Y-359.8821
G1 Z0F20000
(Start Block)

G1X37.3815Y-364.2477
G1 Z3.0F20000
(Plotting speed under)
G1 F4000

G1X73.0958Y-352.3370
G1X122.7905Y-354.4066
G1X179.2314Y-363.2223
G1X230.1398Y-366.5058
G1X272.2665Y-361.0074
G1 Z0F20000
(Start Block)

G1X37.5036Y-365.4281
G1 Z3.0F20000
(Plotting speed under)
G1 F4000

G1X72.5826Y-352.8821
G1X122.7503Y-355.4246
G1X179.1510Y-364.2003
G1X229.7902Y-367.2145
G1X272.3335Y-362.1327
G1 Z0F20000
(Start Block)

G1X37.6256Y-366.6085
G1 Z3.0F20000
(Plotting speed under)
G1 F4000

G1X72.0694Y-353.4272
G1X122.7100Y-356.4427
G1X179.0707Y-365.1783
G1X229.4406Y-367.9232
G1X272.4005Y-363.2580
G1 Z0F20000
(Start Block)

G1X37.7477Y-367.7889
G1 Z3.0F20000
(Plotting speed under)
G1 F4000

G1X71.5562Y-353.9723
G1X122.6697Y-357.4607
G1X178.9903Y-366.1563
G1X229.0910Y-368.6319
G1X272.4675Y-364.3833
G1 Z0F20000
(Start Block)

G1X37.8698Y-368.9693
G1 Z3.0F20000
(Plotting speed under)
G1 F4000

G1X71.0430Y-354.5175
G1X122.6294Y-358.4788
G1X178.9100Y-367.1343
G1X228.7413Y-369.3406
G1X272.5344Y-365.5086
G1 Z0F20000
(Start Block)

G1X37.9919Y-370.1497
G1 Z3.0F20000
(Plotting speed under)
G1 F4000

G1X70.5298Y-355.0626
G1X122.5891Y-359.4968
G1X178.8296Y-368.1123
G1X228.3917Y-370.0493
G1X272.6014Y-366.6340
G1 Z0F20000
(Start Block)

G1X38.1139Y-371.3301
G1 Z3.0F20000
(Plotting speed under)
G1 F4000

G1X70.0166Y-355.6077
G1X122.5488Y-360.5149
G1X178.7493Y-369.0903
G1X228.0421Y-370.7580
G1X272.6684Y-367.7593
G1 Z0F20000
(Start Block)

G1X38.2360Y-372.5105
G1 Z3.0F20000
(Plotting speed under)
G1 F4000

G1X69.5034Y-356.1528
G1X122.5086Y-361.5329
G1X178.6689Y-370.0683
G1X227.6924Y-371.4667
G1X272.7353Y-368.8846
G1 Z0F20000
(Start Block)

G1X38.3581Y-373.6909
G1 Z3.0F20000
(Plotting speed under)
G1 F4000

G1X68.9902Y-356.6979
G1X122.4682Y-362.5510
G1X178.5886Y-371.0463
G1X227.3428Y-372.1754
G1X272.8023Y-370.0099
G1 Z0F20000
(Start Block)

G1X38.4801Y-374.8713
G1 Z3.0F20000
(Plotting speed under)
G1 F4000

G1X68.4770Y-357.2431
G1X122.4279Y-363.5690
G1X178.5082Y-372.0242
G1X226.9932Y-372.8842
G1X272.8693Y-371.1352
G1 Z0F20000
(Start Block)

G1X38.6022Y-376.0517
G1 Z3.0F20000
(Plotting speed under)
G1 F4000

G1X67.9637Y-357.7882
G1X122.3877Y-364.5871
G1X178.4279Y-373.0022
G1X226.6436Y-373.5929
G1X272.9363Y-372.2605
G1 Z0F20000
(Start Block)

G1X38.7243Y-377.2321
G1 Z3.0F20000
(Plotting speed under)
G1 F4000

G1X67.4505Y-358.3333
G1X122.3474Y-365.6051
G1X178.3475Y-373.9802
G1X226.2939Y-374.3016
G1X273.0033Y-373.3858
G1 Z0F20000
(Start Block)

G1X38.8464Y-378.4125
G1 Z3.0F20000
(Plotting speed under)
G1 F4000

G1X66.9373Y-358.8784
G1X122.3071Y-366.6231
G1X178.2672Y-374.9582
G1X225.9443Y-375.0103
G1X273.0702Y-374.5112
G1 Z0F20000
(Start Block)

G1X38.9684Y-379.5929
G1 Z3.0F20000
(Plotting speed under)
G1 F4000

G1X66.4241Y-359.4236
G1X178.1868Y-375.9362
G1X225.5947Y-375.7190
G1X273.1372Y-375.6365
G1 Z0F20000
(Start Block)

G1X39.0905Y-380.7733
G1 Z3.0F20000
(Plotting speed under)
G1 F4000

G1X65.9109Y-359.9687
G1X122.2265Y-368.6593
G1X178.1065Y-376.9142
G1X225.2451Y-376.4277
G1X273.2042Y-376.7618
G1 Z0F20000
(Start Block)

G1X39.2126Y-381.9537
G1 Z3.0F20000
(Plotting speed under)
G1 F4000

G1X65.3977Y-360.5138
G1X122.1862Y-369.6773
G1X178.0262Y-377.8922
G1X224.8954Y-377.1364
G1X273.2712Y-377.8871
G1 Z0F20000
(Start Block)

G1X39.3346Y-383.1341
G1 Z3.0F20000
(Plotting speed under)
G1 F4000

G1X64.8845Y-361.0589
G1X122.1459Y-370.6954
G1X177.9458Y-378.8702
G1X224.5458Y-377.8451
G1X273.3381Y-379.0124
G1 Z0F20000
(Start Block)

G1X39.4567Y-384.3145
G1 Z3.0F20000
(Plotting speed under)
G1 F4000

G1X64.3713Y-361.6040
G1X122.1056Y-371.7134
G1X177.8654Y-379.8481
G1X224.1962Y-378.5538
G1X273.4051Y-380.1377
G1 Z0F20000
(Start Block)

G1X39.5788Y-385.4949
G1 Z3.0F20000
(Plotting speed under)
G1 F4000

G1X63.8580Y-362.1492
G1X122.0653Y-372.7314
G1X177.7851Y-380.8261
G1X223.8466Y-379.2625
G1X273.4721Y-381.2630
G1 Z0F20000
(Start Block)

G1X39.7008Y-386.6753
G1 Z3.0F20000
(Plotting speed under)
G1 F4000

G1X63.3448Y-362.6943
G1X122.0251Y-373.7495
G1X177.7048Y-381.8041
G1X223.4969Y-379.9712
G1X273.5391Y-382.3883
G1 Z0F20000
(Start Block)

G1X39.8229Y-387.8557
G1 Z3.0F20000
(Plotting speed under)
G1 F4000

G1X62.8316Y-363.2394
G1X121.9848Y-374.7675
G1X177.6244Y-382.7821
G1X223.1473Y-380.6799
G1X273.6061Y-383.5136
G1 Z0F20000
(Start Block)

G1X39.9450Y-389.0361
G1 Z3.0F20000
(Plotting speed under)
G1 F4000

G1X62.3184Y-363.7845
G1X121.9445Y-375.7856
G1X177.5441Y-383.7601
G1X222.7977Y-381.3886
G1X273.6730Y-384.6389
G1 Z0F20000

G00 X0.0000 Y0.0000

