$H
G21
G17
G90
G1 Z0F20000
G1 F15000

(Start Layer)

(Start Block)


G1X22.3015Y-29.5776
G1Z5F20000
(Plotting speed under)
G1 F4000


G1X70.0754Y-29.7264

G1X136.1585Y-48.1844

G1X182.0818Y-46.4827

G1X227.4347Y-44.2105

G1X259.0949Y-28.2457

G1 Z0F20000

(Start Block)


G1X22.2129Y-30.5473
G1Z5F20000
(Plotting speed under)
G1 F4000


G1X70.3879Y-31.0973

G1X135.6610Y-48.7453

G1X181.6727Y-47.1319

G1X226.9920Y-44.8261

G1X259.2102Y-29.4193

G1 Z0F20000

(Start Block)


G1X22.1242Y-31.5170
G1Z5F20000
(Plotting speed under)
G1 F4000


G1X70.7004Y-32.4681

G1X135.1636Y-49.3062

G1X181.2636Y-47.7811

G1X226.5493Y-45.4418

G1X259.3254Y-30.5929

G1 Z0F20000

(Start Block)


G1X22.0356Y-32.4867
G1Z5F20000
(Plotting speed under)
G1 F4000


G1X71.0129Y-33.8389

G1X134.6661Y-49.8670

G1X180.8544Y-48.4303

G1X226.1066Y-46.0574

G1X259.4407Y-31.7665

G1 Z0F20000

(Start Block)


G1X21.9470Y-33.4564
G1Z5F20000
(Plotting speed under)
G1 F4000


G1X71.3254Y-35.2098

G1X134.1686Y-50.4279

G1X180.4453Y-49.0795

G1X225.6639Y-46.6730

G1X259.5560Y-32.9402

G1 Z0F20000

(Start Block)


G1X21.8584Y-34.4261
G1Z5F20000
(Plotting speed under)
G1 F4000


G1X71.6379Y-36.5806

G1X133.6712Y-50.9888

G1X180.0362Y-49.7288

G1X225.2212Y-47.2887

G1X259.6713Y-34.1138

G1 Z0F20000

(Start Block)


G1X21.7697Y-35.3958
G1Z5F20000
(Plotting speed under)
G1 F4000


G1X71.9504Y-37.9514

G1X133.1737Y-51.5496

G1X179.6271Y-50.3780

G1X224.7785Y-47.9043

G1X259.7866Y-35.2874

G1 Z0F20000

(Start Block)


G1X21.6811Y-36.3655
G1Z5F20000
(Plotting speed under)
G1 F4000


G1X72.2629Y-39.3223

G1X132.6762Y-52.1105

G1X179.2179Y-51.0272

G1X224.3358Y-48.5200

G1X259.9019Y-36.4610

G1 Z0F20000

(Start Block)


G1X21.5924Y-37.3352
G1Z5F20000
(Plotting speed under)
G1 F4000


G1X72.5754Y-40.6931

G1X132.1788Y-52.6714

G1X178.8088Y-51.6764

G1X223.8931Y-49.1356

G1X260.0172Y-37.6346

G1 Z0F20000

(Start Block)


G1X21.5038Y-38.3049
G1Z5F20000
(Plotting speed under)
G1 F4000


G1X72.8879Y-42.0639

G1X131.6813Y-53.2322

G1X178.3997Y-52.3256

G1X223.4504Y-49.7512

G1X260.1324Y-38.8083

G1 Z0F20000

(Start Block)


G1X21.4152Y-39.2746
G1Z5F20000
(Plotting speed under)
G1 F4000


G1X73.2004Y-43.4347

G1X131.1838Y-53.7931

G1X177.9906Y-52.9748

G1X223.0077Y-50.3669

G1X260.2477Y-39.9819

G1 Z0F20000

(Start Block)


G1X21.3266Y-40.2443
G1Z5F20000
(Plotting speed under)
G1 F4000


G1X73.5129Y-44.8056

G1X130.6864Y-54.3540

G1X177.5814Y-53.6240

G1X222.5650Y-50.9825

G1X260.3630Y-41.1555

G1 Z0F20000

(Start Block)


G1X21.2379Y-41.2140
G1Z5F20000
(Plotting speed under)
G1 F4000


G1X73.8254Y-46.1764

G1X130.1889Y-54.9149

G1X177.1723Y-54.2732

G1X222.1223Y-51.5981

G1X260.4783Y-42.3291

G1 Z0F20000

(Start Block)


G1X21.1493Y-42.1837
G1Z5F20000
(Plotting speed under)
G1 F4000


G1X74.1379Y-47.5472

G1X129.6914Y-55.4757

G1X176.7632Y-54.9224

G1X221.6796Y-52.2138

G1X260.5936Y-43.5027

G1 Z0F20000

(Start Block)


G1X21.0607Y-43.1534
G1Z5F20000
(Plotting speed under)
G1 F4000


G1X74.4504Y-48.9181

G1X129.1940Y-56.0366

G1X176.3541Y-55.5716

G1X221.2369Y-52.8294

G1X260.7089Y-44.6763

G1 Z0F20000

(Start Block)


G1X20.9720Y-44.1231
G1Z5F20000
(Plotting speed under)
G1 F4000


G1X74.7629Y-50.2889

G1X128.6965Y-56.5974

G1X175.9449Y-56.2208

G1X220.7942Y-53.4450

G1X260.8241Y-45.8500

G1 Z0F20000

(Start Block)


G1X20.8834Y-45.0928
G1Z5F20000
(Plotting speed under)
G1 F4000


G1X75.0754Y-51.6597

G1X128.1990Y-57.1583

G1X175.5358Y-56.8700

G1X220.3515Y-54.0607

G1X260.9394Y-47.0236

G1 Z0F20000

(Start Block)


G1X20.7948Y-46.0625
G1Z5F20000
(Plotting speed under)
G1 F4000


G1X75.3879Y-53.0306

G1X127.7016Y-57.7192

G1X175.1267Y-57.5193

G1X219.9088Y-54.6763

G1X261.0547Y-48.1972

G1 Z0F20000

(Start Block)


G1X20.7061Y-47.0322
G1Z5F20000
(Plotting speed under)
G1 F4000


G1X75.7004Y-54.4014

G1X127.2041Y-58.2800

G1X174.7176Y-58.1685

G1X219.4661Y-55.2919

G1X261.1700Y-49.3708

G1 Z0F20000

(Start Block)


G1X20.6175Y-48.0019
G1Z5F20000
(Plotting speed under)
G1 F4000


G1X76.0129Y-55.7722

G1X126.7066Y-58.8409

G1X174.3084Y-58.8177

G1X219.0234Y-55.9076

G1X261.2853Y-50.5444

G1 Z0F20000

(Start Block)


G1X20.5289Y-48.9716
G1Z5F20000
(Plotting speed under)
G1 F4000


G1X76.3254Y-57.1430

G1X126.2092Y-59.4018

G1X173.8993Y-59.4669

G1X218.5807Y-56.5232

G1X261.4006Y-51.7181

G1 Z0F20000

(Start Block)


G1X20.4403Y-49.9413
G1Z5F20000
(Plotting speed under)
G1 F4000


G1X76.6379Y-58.5139

G1X125.7117Y-59.9627

G1X173.4902Y-60.1161

G1X218.1380Y-57.1388

G1X261.5159Y-52.8917

G1 Z0F20000

(Start Block)


G1X20.3516Y-50.9110
G1Z5F20000
(Plotting speed under)
G1 F4000


G1X76.9504Y-59.8847

G1X125.2142Y-60.5235

G1X173.0811Y-60.7653

G1X217.6953Y-57.7545

G1X261.6311Y-54.0653

G1 Z0F20000

(Start Block)


G1X20.2630Y-51.8807
G1Z5F20000
(Plotting speed under)
G1 F4000


G1X77.2629Y-61.2555

G1X124.7168Y-61.0844

G1X172.6719Y-61.4145

G1X261.7464Y-55.2389

G1 Z0F20000

(Start Block)


G1X20.1744Y-52.8504
G1Z5F20000
(Plotting speed under)
G1 F4000


G1X77.5754Y-62.6264

G1X124.2193Y-61.6453

G1X172.2628Y-62.0637

G1X216.8099Y-58.9858

G1X261.8617Y-56.4126

G1 Z0F20000

(Start Block)


G1X20.0857Y-53.8201
G1Z5F20000
(Plotting speed under)
G1 F4000


G1X77.8879Y-63.9972

G1X123.7218Y-62.2061

G1X171.8537Y-62.7129

G1X216.3672Y-59.6014

G1X261.9770Y-57.5862

G1 Z0F20000

(Start Block)


G1X19.9971Y-54.7899
G1Z5F20000
(Plotting speed under)
G1 F4000


G1X78.2004Y-65.3680

G1X123.2244Y-62.7670

G1X171.4445Y-63.3621

G1X215.9245Y-60.2170

G1X262.0923Y-58.7598

G1 Z0F20000

(Start Block)


G1X19.9085Y-55.7596
G1Z5F20000
(Plotting speed under)
G1 F4000


G1X78.5129Y-66.7389

G1X122.7269Y-63.3279

G1X171.0354Y-64.0113

G1X215.4818Y-60.8327

G1X262.2076Y-59.9334

G1 Z0F20000

(Start Block)


G1X19.8198Y-56.7293
G1Z5F20000
(Plotting speed under)
G1 F4000


G1X78.8254Y-68.1097

G1X122.2294Y-63.8887

G1X170.6263Y-64.6606

G1X215.0391Y-61.4483

G1X262.3229Y-61.1070

G1 Z0F20000

(Start Block)


G1X19.7312Y-57.6990
G1Z5F20000
(Plotting speed under)
G1 F4000


G1X79.1379Y-69.4805

G1X121.7319Y-64.4496

G1X170.2172Y-65.3098

G1X214.5964Y-62.0639

G1X262.4382Y-62.2806

G1 Z0F20000

(Start Block)


G1X19.6426Y-58.6687
G1Z5F20000
(Plotting speed under)
G1 F4000


G1X79.4503Y-70.8514

G1X121.2345Y-65.0105

G1X169.8080Y-65.9590

G1X214.1537Y-62.6796

G1X262.5534Y-63.4543

G1 Z0F20000

(Start Block)


G1X19.5540Y-59.6384
G1Z5F20000
(Plotting speed under)
G1 F4000


G1X79.7628Y-72.2222

G1X120.7370Y-65.5713

G1X169.3989Y-66.6082

G1X213.7110Y-63.2952

G1X262.6687Y-64.6279

G1 Z0F20000

(Start Block)


G1X19.4653Y-60.6081
G1Z5F20000
(Plotting speed under)
G1 F4000


G1X80.0753Y-73.5930

G1X120.2395Y-66.1322

G1X168.9898Y-67.2574

G1X213.2683Y-63.9109

G1X262.7840Y-65.8015

G1 Z0F20000

(Start Block)


G1X19.3767Y-61.5778
G1Z5F20000
(Plotting speed under)
G1 F4000


G1X80.3878Y-74.9639

G1X119.7421Y-66.6931

G1X168.5807Y-67.9066

G1X212.8256Y-64.5265

G1X262.8993Y-66.9751

G1 Z0F20000

(Start Block)


G1X19.2881Y-62.5475
G1Z5F20000
(Plotting speed under)
G1 F4000


G1X80.7003Y-76.3347

G1X119.2446Y-67.2539

G1X168.1715Y-68.5558

G1X212.3829Y-65.1421

G1X263.0146Y-68.1487

G1 Z0F20000

(Start Block)


G1X19.1994Y-63.5172
G1Z5F20000
(Plotting speed under)
G1 F4000


G1X81.0128Y-77.7055

G1X118.7472Y-67.8148

G1X167.7624Y-69.2050

G1X211.9402Y-65.7578

G1X263.1299Y-69.3224

G1 Z0F20000

(Start Block)


G1X19.1108Y-64.4869
G1Z5F20000
(Plotting speed under)
G1 F4000


G1X81.3253Y-79.0764

G1X118.2497Y-68.3757

G1X167.3533Y-69.8542

G1X211.4975Y-66.3734

G1X263.2452Y-70.4960

G1 Z0F20000

(Start Block)


G1X19.0222Y-65.4566
G1Z5F20000
(Plotting speed under)
G1 F4000


G1X81.6378Y-80.4472

G1X117.7522Y-68.9365

G1X166.9442Y-70.5034

G1X211.0548Y-66.9890

G1X263.3604Y-71.6696

G1 Z0F20000

(Start Block)


G1X18.9335Y-66.4263
G1Z5F20000
(Plotting speed under)
G1 F4000


G1X81.9503Y-81.8180

G1X117.2547Y-69.4974

G1X166.5350Y-71.1526

G1X210.6121Y-67.6047

G1X263.4757Y-72.8432

G1 Z0F20000

(Start Block)


G1X18.8449Y-67.3960
G1Z5F20000
(Plotting speed under)
G1 F4000


G1X82.2628Y-83.1889

G1X116.7573Y-70.0583

G1X166.1259Y-71.8018

G1X210.1694Y-68.2203

G1X263.5910Y-74.0169

G1 Z0F20000

(Start Block)


G1X18.7563Y-68.3657
G1Z5F20000
(Plotting speed under)
G1 F4000


G1X82.5753Y-84.5597

G1X116.2598Y-70.6191

G1X165.7168Y-72.4511

G1X209.7267Y-68.8359

G1X263.7063Y-75.1905

G1 Z0F20000

(Start Block)


G1X18.6676Y-69.3354
G1Z5F20000
(Plotting speed under)
G1 F4000


G1X82.8878Y-85.9305

G1X115.7624Y-71.1800

G1X165.3077Y-73.1003

G1X209.2840Y-69.4516

G1X263.8216Y-76.3641

G1 Z0F20000

(Start Block)


G1X18.5790Y-70.3051
G1Z5F20000
(Plotting speed under)
G1 F4000


G1X83.2003Y-87.3014

G1X115.2649Y-71.7409

G1X164.8985Y-73.7495

G1X208.8413Y-70.0672

G1X263.9369Y-77.5377

G1 Z0F20000

(Start Block)


G1X18.4904Y-71.2748
G1Z5F20000
(Plotting speed under)
G1 F4000


G1X83.5128Y-88.6722

G1X114.7674Y-72.3017

G1X164.4894Y-74.3987

G1X208.3986Y-70.6828

G1X264.0521Y-78.7113

G1 Z0F20000

(Start Block)


G1X18.4018Y-72.2445
G1Z5F20000
(Plotting speed under)
G1 F4000


G1X83.8253Y-90.0430

G1X114.2700Y-72.8626

G1X164.0803Y-75.0479

G1X207.9559Y-71.2985

G1X264.1674Y-79.8850

G1 Z0F20000

(Start Block)


G1X18.3131Y-73.2142
G1Z5F20000
(Plotting speed under)
G1 F4000


G1X84.1378Y-91.4139

G1X113.7725Y-73.4235

G1X163.6712Y-75.6971

G1X207.5132Y-71.9141

G1X264.2827Y-81.0586

G1 Z0F20000

(Start Block)


G1X18.6491Y-74.6086
G1Z5F20000
(Plotting speed under)
G1 F4000


G1X84.2782Y-92.6126

G1X114.0716Y-74.7810

G1X164.0540Y-77.1383

G1X207.8902Y-73.3494

G1X264.5248Y-82.3590

G1 Z0F20000

(Start Block)


G1X18.9851Y-76.0029
G1Z5F20000
(Plotting speed under)
G1 F4000


G1X84.4185Y-93.8112

G1X114.3708Y-76.1385

G1X164.4369Y-78.5795

G1X208.2672Y-74.7848

G1X264.7668Y-83.6594

G1 Z0F20000

(Start Block)


G1X19.3211Y-77.3972
G1Z5F20000
(Plotting speed under)
G1 F4000


G1X84.5589Y-95.0100

G1X114.6699Y-77.4960

G1X164.8197Y-80.0207

G1X208.6442Y-76.2201

G1X265.0089Y-84.9597

G1 Z0F20000

(Start Block)


G1X19.6571Y-78.7915
G1Z5F20000
(Plotting speed under)
G1 F4000


G1X84.6993Y-96.2087

G1X114.9691Y-78.8535

G1X165.2026Y-81.4619

G1X209.0212Y-77.6555

G1X265.2509Y-86.2601

G1 Z0F20000

(Start Block)


G1X19.9931Y-80.1859
G1Z5F20000
(Plotting speed under)
G1 F4000


G1X84.8396Y-97.4074

G1X115.2683Y-80.2110

G1X165.5855Y-82.9031

G1X209.3982Y-79.0908

G1X265.4930Y-87.5605

G1 Z0F20000

(Start Block)


G1X20.3291Y-81.5802
G1Z5F20000
(Plotting speed under)
G1 F4000


G1X84.9800Y-98.6061

G1X115.5674Y-81.5685

G1X165.9683Y-84.3443

G1X209.7752Y-80.5262

G1X265.7350Y-88.8609

G1 Z0F20000

(Start Block)


G1X20.6651Y-82.9745
G1Z5F20000
(Plotting speed under)
G1 F4000


G1X85.1204Y-99.8048

G1X115.8666Y-82.9260

G1X166.3512Y-85.7855

G1X210.1523Y-81.9615

G1X265.9771Y-90.1613

G1 Z0F20000

(Start Block)


G1X21.0010Y-84.3688
G1Z5F20000
(Plotting speed under)
G1 F4000


G1X85.2608Y-101.0035

G1X116.1657Y-84.2834

G1X166.7341Y-87.2267

G1X210.5293Y-83.3968

G1X266.2191Y-91.4617

G1 Z0F20000

(Start Block)


G1X21.3370Y-85.7631
G1Z5F20000
(Plotting speed under)
G1 F4000


G1X85.4011Y-102.2022

G1X116.4649Y-85.6409

G1X167.1170Y-88.6679

G1X210.9063Y-84.8322

G1X266.4612Y-92.7620

G1 Z0F20000

(Start Block)


G1X21.6730Y-87.1575
G1Z5F20000
(Plotting speed under)
G1 F4000


G1X85.5415Y-103.4009

G1X116.7641Y-86.9984

G1X167.4998Y-90.1091

G1X211.2833Y-86.2675

G1X266.7032Y-94.0624

G1 Z0F20000

(Start Block)


G1X22.0090Y-88.5518
G1Z5F20000
(Plotting speed under)
G1 F4000


G1X85.6818Y-104.5996

G1X117.0632Y-88.3559

G1X167.8827Y-91.5503

G1X211.6603Y-87.7029

G1X266.9453Y-95.3628

G1 Z0F20000

(Start Block)


G1X22.3450Y-89.9461
G1Z5F20000
(Plotting speed under)
G1 F4000


G1X85.8222Y-105.7983

G1X117.3624Y-89.7134

G1X168.2655Y-92.9915

G1X212.0373Y-89.1382

G1X267.1873Y-96.6632

G1 Z0F20000

(Start Block)


G1X22.6810Y-91.3404
G1Z5F20000
(Plotting speed under)
G1 F4000


G1X85.9626Y-106.9970

G1X117.6615Y-91.0709

G1X168.6484Y-94.4327

G1X212.4143Y-90.5735

G1X267.4294Y-97.9636

G1 Z0F20000

(Start Block)


G1X23.0170Y-92.7348
G1Z5F20000
(Plotting speed under)
G1 F4000


G1X86.1030Y-108.1957

G1X117.9607Y-92.4284

G1X169.0313Y-95.8739

G1X212.7913Y-92.0089

G1X267.6714Y-99.2640

G1 Z0F20000

(Start Block)


G1X23.3530Y-94.1291
G1Z5F20000
(Plotting speed under)
G1 F4000


G1X86.2433Y-109.3944

G1X118.2599Y-93.7859

G1X169.4141Y-97.3151

G1X213.1683Y-93.4442

G1X267.9135Y-100.5643

G1 Z0F20000

(Start Block)


G1X23.6889Y-95.5234
G1Z5F20000
(Plotting speed under)
G1 F4000


G1X86.3837Y-110.5931

G1X118.5590Y-95.1434

G1X169.7970Y-98.7563

G1X213.5453Y-94.8796

G1X268.1555Y-101.8647

G1 Z0F20000

(Start Block)


G1X24.0249Y-96.9177
G1Z5F20000
(Plotting speed under)
G1 F4000


G1X86.5240Y-111.7918

G1X118.8582Y-96.5009

G1X170.1799Y-100.1975

G1X213.9223Y-96.3149

G1X268.3976Y-103.1651

G1 Z0F20000

(Start Block)


G1X24.3609Y-98.3120
G1Z5F20000
(Plotting speed under)
G1 F4000


G1X86.6644Y-112.9905

G1X119.1573Y-97.8584

G1X170.5627Y-101.6387

G1X214.2993Y-97.7502

G1X268.6396Y-104.4655

G1 Z0F20000

(Start Block)


G1X24.6969Y-99.7064
G1Z5F20000
(Plotting speed under)
G1 F4000


G1X86.8048Y-114.1892

G1X119.4565Y-99.2159

G1X170.9456Y-103.0799

G1X214.6763Y-99.1856

G1X268.8817Y-105.7659

G1 Z0F20000

(Start Block)


G1X25.0329Y-101.1007
G1Z5F20000
(Plotting speed under)
G1 F4000


G1X86.9451Y-115.3879

G1X119.7557Y-100.5734

G1X171.3285Y-104.5211

G1X215.0533Y-100.6209

G1X269.1237Y-107.0663

G1 Z0F20000

(Start Block)


G1X25.3689Y-102.4950
G1Z5F20000
(Plotting speed under)
G1 F4000


G1X87.0855Y-116.5866

G1X120.0548Y-101.9309

G1X171.7114Y-105.9623

G1X215.4303Y-102.0562

G1X269.3658Y-108.3666

G1 Z0F20000

(Start Block)


G1X25.7049Y-103.8893
G1Z5F20000
(Plotting speed under)
G1 F4000


G1X87.2259Y-117.7853

G1X120.3540Y-103.2883

G1X172.0942Y-107.4035

G1X215.8073Y-103.4916

G1X269.6079Y-109.6670

G1 Z0F20000

(Start Block)


G1X26.0409Y-105.2837
G1Z5F20000
(Plotting speed under)
G1 F4000


G1X87.3662Y-118.9840

G1X120.6531Y-104.6458

G1X172.4771Y-108.8447

G1X216.1843Y-104.9269

G1X269.8499Y-110.9674

G1 Z0F20000

(Start Block)


G1X26.3769Y-106.6780
G1Z5F20000
(Plotting speed under)
G1 F4000


G1X87.5066Y-120.1827

G1X120.9523Y-106.0033

G1X172.8600Y-110.2859

G1X216.5613Y-106.3623

G1X270.0919Y-112.2678

G1 Z0F20000

(Start Block)


G1X26.7129Y-108.0723
G1Z5F20000
(Plotting speed under)
G1 F4000


G1X87.6470Y-121.3814

G1X121.2515Y-107.3608

G1X173.2428Y-111.7271

G1X216.9383Y-107.7976

G1X270.3340Y-113.5682

G1 Z0F20000

(Start Block)


G1X27.0488Y-109.4666
G1Z5F20000
(Plotting speed under)
G1 F4000


G1X87.7873Y-122.5801

G1X121.5506Y-108.7183

G1X173.6257Y-113.1683

G1X217.3153Y-109.2329

G1X270.5761Y-114.8686

G1 Z0F20000

(Start Block)


G1X27.3848Y-110.8610
G1Z5F20000
(Plotting speed under)
G1 F4000


G1X87.9277Y-123.7788

G1X121.8498Y-110.0758

G1X174.0086Y-114.6095

G1X217.6924Y-110.6683

G1X270.8181Y-116.1689

G1 Z0F20000

(Start Block)


G1X27.7208Y-112.2553
G1Z5F20000
(Plotting speed under)
G1 F4000


G1X88.0681Y-124.9775

G1X122.1489Y-111.4333

G1X174.3914Y-116.0507

G1X218.0694Y-112.1036

G1X271.0602Y-117.4693

G1 Z0F20000

(Start Block)


G1X28.0568Y-113.6496
G1Z5F20000
(Plotting speed under)
G1 F4000


G1X88.2085Y-126.1762

G1X122.4481Y-112.7908

G1X174.7743Y-117.4919

G1X218.4464Y-113.5390

G1X271.3022Y-118.7697

G1 Z0F20000

(Start Block)


G1X28.3928Y-115.0439
G1Z5F20000
(Plotting speed under)
G1 F4000


G1X88.3488Y-127.3749

G1X122.7473Y-114.1483

G1X175.1571Y-118.9331

G1X218.8234Y-114.9743

G1X271.5442Y-120.0701

G1 Z0F20000

(Start Block)


G1X28.7288Y-116.4382
G1Z5F20000
(Plotting speed under)
G1 F4000


G1X88.4892Y-128.5736

G1X123.0464Y-115.5058

G1X175.5400Y-120.3743

G1X219.2004Y-116.4096

G1X271.7863Y-121.3705

G1 Z0F20000

(Start Block)


G1X29.0648Y-117.8325
G1Z5F20000
(Plotting speed under)
G1 F4000


G1X88.6295Y-129.7723

G1X123.3456Y-116.8633

G1X175.9229Y-121.8155

G1X219.5774Y-117.8450

G1X272.0284Y-122.6709

G1 Z0F20000

(Start Block)


G1X29.4008Y-119.2269
G1Z5F20000
(Plotting speed under)
G1 F4000


G1X88.7699Y-130.9710

G1X123.6448Y-118.2208

G1X176.3058Y-123.2567

G1X219.9544Y-119.2803

G1X272.2704Y-123.9713

G1 Z0F20000

(Start Block)


G1X29.7367Y-120.6212
G1Z5F20000
(Plotting speed under)
G1 F4000


G1X88.9103Y-132.1697

G1X123.9439Y-119.5783

G1X176.6886Y-124.6980

G1X220.3314Y-120.7157

G1X272.5125Y-125.2717

G1 Z0F20000

(Start Block)


G1X30.0727Y-122.0155
G1Z5F20000
(Plotting speed under)
G1 F4000


G1X89.0506Y-133.3684

G1X124.2431Y-120.9358

G1X177.0715Y-126.1391

G1X220.7084Y-122.1510

G1X272.7545Y-126.5721

G1 Z0F20000

(Start Block)


G1X30.4087Y-123.4099
G1Z5F20000
(Plotting speed under)
G1 F4000


G1X89.1910Y-134.5671

G1X124.5422Y-122.2932

G1X177.4544Y-127.5804

G1X221.0854Y-123.5864

G1X272.9965Y-127.8724

G1 Z0F20000

(Start Block)


G1X30.7447Y-124.8042
G1Z5F20000
(Plotting speed under)
G1 F4000


G1X89.3314Y-135.7658

G1X124.8414Y-123.6508

G1X177.8372Y-129.0215

G1X221.4624Y-125.0217

G1X273.2386Y-129.1728

G1 Z0F20000

(Start Block)


G1X31.0807Y-126.1985
G1Z5F20000
(Plotting speed under)
G1 F4000


G1X89.4717Y-136.9645

G1X125.1405Y-125.0083

G1X178.2201Y-130.4628

G1X221.8394Y-126.4570

G1X273.4807Y-130.4732

G1 Z0F20000

(Start Block)


G1X31.4167Y-127.5928
G1Z5F20000
(Plotting speed under)
G1 F4000


G1X89.6121Y-138.1632

G1X125.4397Y-126.3658

G1X178.6029Y-131.9039

G1X222.2164Y-127.8924

G1X273.7227Y-131.7736

G1 Z0F20000

(Start Block)


G1X31.7527Y-128.9871
G1Z5F20000
(Plotting speed under)
G1 F4000


G1X89.7525Y-139.3619

G1X125.7389Y-127.7232

G1X178.9858Y-133.3452

G1X222.5934Y-129.3277

G1X273.9648Y-133.0740

G1 Z0F20000

(Start Block)


G1X32.0887Y-130.3815
G1Z5F20000
(Plotting speed under)
G1 F4000


G1X89.8928Y-140.5606

G1X126.0380Y-129.0807

G1X179.3687Y-134.7863

G1X222.9704Y-130.7631

G1X274.2068Y-134.3744

G1 Z0F20000

(Start Block)


G1X32.4247Y-131.7758
G1Z5F20000
(Plotting speed under)
G1 F4000


G1X90.0332Y-141.7593

G1X126.3372Y-130.4382

G1X179.7516Y-136.2275

G1X223.3475Y-132.1984

G1X274.4488Y-135.6747

G1 Z0F20000

(Start Block)


G1X32.7606Y-133.1701
G1Z5F20000
(Plotting speed under)
G1 F4000


G1X90.1736Y-142.9580

G1X126.6363Y-131.7957

G1X180.1344Y-137.6687

G1X223.7245Y-133.6337

G1X274.6909Y-136.9751

G1 Z0F20000

(Start Block)


G1X33.0966Y-134.5645
G1Z5F20000
(Plotting speed under)
G1 F4000


G1X90.3139Y-144.1567

G1X126.9355Y-133.1532

G1X180.5173Y-139.1099

G1X224.1015Y-135.0691

G1X274.9329Y-138.2755

G1 Z0F20000

(Start Block)


G1X33.4326Y-135.9588
G1Z5F20000
(Plotting speed under)
G1 F4000


G1X90.4543Y-145.3554

G1X127.2346Y-134.5107

G1X180.9001Y-140.5511

G1X224.4785Y-136.5044

G1X275.1750Y-139.5759

G1 Z0F20000

(Start Block)


G1X33.6147Y-137.1992
G1Z5F20000
(Plotting speed under)
G1 F4000


G1X90.2550Y-146.2144

G1X126.9316Y-135.2660

G1X181.0838Y-141.7931

G1X224.4454Y-137.5297

G1X274.9292Y-140.3885

G1 Z0F20000

(Start Block)


G1X33.7968Y-138.4396
G1Z5F20000
(Plotting speed under)
G1 F4000


G1X90.0557Y-147.0735

G1X126.6285Y-136.0213

G1X181.2674Y-143.0350

G1X224.4123Y-138.5550

G1X274.6835Y-141.2011

G1 Z0F20000

(Start Block)


G1X33.9789Y-139.6800
G1Z5F20000
(Plotting speed under)
G1 F4000


G1X89.8564Y-147.9325

G1X126.3255Y-136.7765

G1X181.4510Y-144.2770

G1X224.3793Y-139.5802

G1X274.4377Y-142.0136

G1 Z0F20000

(Start Block)


G1X34.1610Y-140.9204
G1Z5F20000
(Plotting speed under)
G1 F4000


G1X89.6571Y-148.7916

G1X126.0224Y-137.5318

G1X181.6346Y-145.5189

G1X224.3462Y-140.6055

G1X274.1920Y-142.8262

G1 Z0F20000

(Start Block)


G1X34.3430Y-142.1609
G1Z5F20000
(Plotting speed under)
G1 F4000


G1X89.4578Y-149.6506

G1X125.7194Y-138.2871

G1X181.8182Y-146.7609

G1X224.3132Y-141.6308

G1X273.9462Y-143.6388

G1 Z0F20000

(Start Block)


G1X34.5251Y-143.4013
G1Z5F20000
(Plotting speed under)
G1 F4000


G1X89.2585Y-150.5096

G1X125.4163Y-139.0424

G1X182.0018Y-148.0028

G1X224.2801Y-142.6561

G1X273.7005Y-144.4514

G1 Z0F20000

(Start Block)


G1X34.7072Y-144.6417
G1Z5F20000
(Plotting speed under)
G1 F4000


G1X89.0592Y-151.3687

G1X125.1133Y-139.7977

G1X182.1854Y-149.2448

G1X224.2471Y-143.6813

G1X273.4547Y-145.2639

G1 Z0F20000

(Start Block)


G1X34.8893Y-145.8821
G1Z5F20000
(Plotting speed under)
G1 F4000


G1X88.8599Y-152.2277

G1X124.8102Y-140.5529

G1X182.3690Y-150.4867

G1X224.2140Y-144.7066

G1X273.2090Y-146.0765

G1 Z0F20000

(Start Block)


G1X35.0714Y-147.1225
G1Z5F20000
(Plotting speed under)
G1 F4000


G1X88.6606Y-153.0867

G1X124.5072Y-141.3082

G1X182.5527Y-151.7286

G1X224.1809Y-145.7319

G1X272.9632Y-146.8891

G1 Z0F20000

(Start Block)


G1X35.2534Y-148.3629
G1Z5F20000
(Plotting speed under)
G1 F4000


G1X88.4613Y-153.9458

G1X124.2041Y-142.0635

G1X182.7363Y-152.9706

G1X224.1479Y-146.7572

G1X272.7175Y-147.7017

G1 Z0F20000

(Start Block)


G1X35.4355Y-149.6034
G1Z5F20000
(Plotting speed under)
G1 F4000


G1X88.2620Y-154.8048

G1X123.9010Y-142.8187

G1X182.9199Y-154.2125

G1X224.1148Y-147.7824

G1X272.4717Y-148.5143

G1 Z0F20000

(Start Block)


G1X35.6176Y-150.8438
G1Z5F20000
(Plotting speed under)
G1 F4000


G1X88.0627Y-155.6639

G1X123.5980Y-143.5740

G1X183.1035Y-155.4545

G1X224.0818Y-148.8077

G1X272.2260Y-149.3269

G1 Z0F20000

(Start Block)


G1X35.7997Y-152.0842
G1Z5F20000
(Plotting speed under)
G1 F4000


G1X87.8634Y-156.5229

G1X123.2949Y-144.3293

G1X183.2871Y-156.6964

G1X224.0487Y-149.8330

G1X271.9802Y-150.1394

G1 Z0F20000

(Start Block)


G1X35.9818Y-153.3246
G1Z5F20000
(Plotting speed under)
G1 F4000


G1X87.6642Y-157.3819

G1X122.9919Y-145.0846

G1X183.4707Y-157.9384

G1X224.0157Y-150.8583

G1X271.7345Y-150.9520

G1 Z0F20000

(Start Block)


G1X36.1639Y-154.5650
G1Z5F20000
(Plotting speed under)
G1 F4000


G1X87.4648Y-158.2409

G1X122.6888Y-145.8399

G1X183.6543Y-159.1803

G1X223.9826Y-151.8835

G1X271.4887Y-151.7646

G1 Z0F20000

(Start Block)


G1X36.3460Y-155.8055
G1Z5F20000
(Plotting speed under)
G1 F4000


G1X87.2656Y-159.1000

G1X122.3857Y-146.5951

G1X183.8379Y-160.4223

G1X223.9495Y-152.9088

G1X271.2429Y-152.5772

G1 Z0F20000

(Start Block)


G1X36.5281Y-157.0459
G1Z5F20000
(Plotting speed under)
G1 F4000


G1X87.0663Y-159.9590

G1X122.0827Y-147.3504

G1X184.0215Y-161.6642

G1X223.9165Y-153.9341

G1X270.9972Y-153.3898

G1 Z0F20000

(Start Block)


G1X36.7101Y-158.2863
G1Z5F20000
(Plotting speed under)
G1 F4000


G1X86.8670Y-160.8181

G1X121.7796Y-148.1057

G1X184.2052Y-162.9062

G1X223.8834Y-154.9594

G1X270.7514Y-154.2023

G1 Z0F20000

(Start Block)


G1X36.8922Y-159.5267
G1Z5F20000
(Plotting speed under)
G1 F4000


G1X86.6677Y-161.6771

G1X121.4766Y-148.8610

G1X184.3888Y-164.1481

G1X223.8503Y-155.9846

G1X270.5057Y-155.0149

G1 Z0F20000

(Start Block)


G1X37.0743Y-160.7671
G1Z5F20000
(Plotting speed under)
G1 F4000


G1X86.4684Y-162.5361

G1X121.1735Y-149.6163

G1X184.5724Y-165.3900

G1X223.8173Y-157.0099

G1X270.2599Y-155.8275

G1 Z0F20000

(Start Block)


G1X37.2564Y-162.0075
G1Z5F20000
(Plotting speed under)
G1 F4000


G1X86.2691Y-163.3952

G1X120.8705Y-150.3715

G1X184.7560Y-166.6320

G1X223.7842Y-158.0352

G1X270.0142Y-156.6401

G1 Z0F20000

(Start Block)


G1X37.4385Y-163.2480
G1Z5F20000
(Plotting speed under)
G1 F4000


G1X86.0698Y-164.2542

G1X120.5674Y-151.1268

G1X184.9396Y-167.8739

G1X223.7512Y-159.0605

G1X269.7684Y-157.4526

G1 Z0F20000

(Start Block)


G1X37.6205Y-164.4884
G1Z5F20000
(Plotting speed under)
G1 F4000


G1X85.8705Y-165.1133

G1X120.2644Y-151.8821

G1X185.1232Y-169.1159

G1X223.7181Y-160.0857

G1X269.5227Y-158.2652

G1 Z0F20000

(Start Block)


G1X37.8026Y-165.7288
G1Z5F20000
(Plotting speed under)
G1 F4000


G1X85.6712Y-165.9723

G1X119.9613Y-152.6374

G1X185.3068Y-170.3578

G1X223.6851Y-161.1110

G1X269.2769Y-159.0778

G1 Z0F20000

(Start Block)


G1X37.9847Y-166.9692
G1Z5F20000
(Plotting speed under)
G1 F4000


G1X85.4719Y-166.8313

G1X119.6582Y-153.3926

G1X185.4904Y-171.5998

G1X223.6520Y-162.1363

G1X269.0312Y-159.8904

G1 Z0F20000

(Start Block)


G1X38.1668Y-168.2096
G1Z5F20000
(Plotting speed under)
G1 F4000


G1X85.2726Y-167.6904

G1X119.3552Y-154.1479

G1X185.6740Y-172.8417

G1X223.6189Y-163.1616

G1X268.7854Y-160.7030

G1 Z0F20000

(Start Block)


G1X38.3489Y-169.4501
G1Z5F20000
(Plotting speed under)
G1 F4000


G1X85.0733Y-168.5494

G1X119.0521Y-154.9032

G1X185.8577Y-174.0837

G1X223.5859Y-164.1868

G1X268.5396Y-161.5156

G1 Z0F20000

(Start Block)


G1X38.5310Y-170.6905
G1Z5F20000
(Plotting speed under)
G1 F4000


G1X84.8740Y-169.4084

G1X118.7491Y-155.6585

G1X186.0413Y-175.3256

G1X223.5528Y-165.2121

G1X268.2939Y-162.3282

G1 Z0F20000

(Start Block)


G1X38.7131Y-171.9309
G1Z5F20000
(Plotting speed under)
G1 F4000


G1X84.6747Y-170.2675

G1X118.4460Y-156.4138

G1X186.2249Y-176.5676

G1X223.5198Y-166.2374

G1X268.0481Y-163.1407

G1 Z0F20000

(Start Block)


G1X38.8951Y-173.1713
G1Z5F20000
(Plotting speed under)
G1 F4000


G1X84.4754Y-171.1265

G1X118.1430Y-157.1690

G1X186.4085Y-177.8095

G1X223.4867Y-167.2627

G1X267.8024Y-163.9533

G1 Z0F20000

(Start Block)


G1X39.0772Y-174.4118
G1Z5F20000
(Plotting speed under)
G1 F4000


G1X84.2761Y-171.9856

G1X117.8399Y-157.9243

G1X186.5921Y-179.0515

G1X223.4536Y-168.2879

G1X267.5566Y-164.7659

G1 Z0F20000

(Start Block)


G1X39.2593Y-175.6522
G1Z5F20000
(Plotting speed under)
G1 F4000


G1X84.0768Y-172.8446

G1X117.5368Y-158.6796

G1X186.7757Y-180.2934

G1X223.4206Y-169.3132

G1X267.3109Y-165.5785

G1 Z0F20000

(Start Block)


G1X39.4414Y-176.8926
G1Z5F20000
(Plotting speed under)
G1 F4000


G1X83.8775Y-173.7037

G1X117.2338Y-159.4349

G1X186.9593Y-181.5354

G1X223.3875Y-170.3385

G1X267.0651Y-166.3910

G1 Z0F20000

(Start Block)


G1X39.6235Y-178.1330
G1Z5F20000
(Plotting speed under)
G1 F4000


G1X83.6782Y-174.5627

G1X116.9307Y-160.1902

G1X187.1429Y-182.7773

G1X223.3545Y-171.3638

G1X266.8194Y-167.2036

G1 Z0F20000

(Start Block)


G1X39.8056Y-179.3734
G1Z5F20000
(Plotting speed under)
G1 F4000


G1X83.4789Y-175.4217

G1X116.6277Y-160.9454

G1X187.3266Y-184.0193

G1X223.3214Y-172.3890

G1X266.5736Y-168.0162

G1 Z0F20000

(Start Block)


G1X39.9876Y-180.6138
G1Z5F20000
(Plotting speed under)
G1 F4000


G1X83.2796Y-176.2808

G1X116.3246Y-161.7007

G1X187.5102Y-185.2612

G1X223.2883Y-173.4143

G1X266.3278Y-168.8288

G1 Z0F20000

(Start Block)


G1X40.1697Y-181.8543
G1Z5F20000
(Plotting speed under)
G1 F4000


G1X83.0803Y-177.1398

G1X116.0215Y-162.4560

G1X187.6938Y-186.5031

G1X223.2553Y-174.4396

G1X266.0821Y-169.6414

G1 Z0F20000

(Start Block)


G1X40.3518Y-183.0947
G1Z5F20000
(Plotting speed under)
G1 F4000


G1X82.8810Y-177.9989

G1X115.7185Y-163.2113

G1X187.8774Y-187.7451

G1X223.2222Y-175.4649

G1X265.8363Y-170.4539

G1 Z0F20000

(Start Block)


G1X40.5339Y-184.3351
G1Z5F20000
(Plotting speed under)
G1 F4000


G1X82.6817Y-178.8579

G1X115.4154Y-163.9665

G1X188.0610Y-188.9870

G1X223.1892Y-176.4901

G1X265.5906Y-171.2665

G1 Z0F20000

(Start Block)


G1X40.7160Y-185.5755
G1Z5F20000
(Plotting speed under)
G1 F4000


G1X82.4824Y-179.7169

G1X115.1124Y-164.7218

G1X188.2446Y-190.2290

G1X223.1561Y-177.5154

G1X265.3448Y-172.0791

G1 Z0F20000

(Start Block)


G1X40.8981Y-186.8159
G1Z5F20000
(Plotting speed under)
G1 F4000


G1X82.2831Y-180.5759

G1X114.8093Y-165.4771

G1X188.4282Y-191.4709

G1X223.1230Y-178.5407

G1X265.0991Y-172.8917

G1 Z0F20000

(Start Block)


G1X41.0802Y-188.0564
G1Z5F20000
(Plotting speed under)
G1 F4000


G1X82.0838Y-181.4350

G1X114.5063Y-166.2324

G1X188.6118Y-192.7129

G1X223.0900Y-179.5660

G1X264.8533Y-173.7043

G1 Z0F20000

(Start Block)


G1X41.2622Y-189.2968
G1Z5F20000
(Plotting speed under)
G1 F4000


G1X81.8845Y-182.2940

G1X114.2032Y-166.9877

G1X188.7954Y-193.9548

G1X223.0569Y-180.5912

G1X264.6076Y-174.5169

G1 Z0F20000

(Start Block)


G1X41.4443Y-190.5372
G1Z5F20000
(Plotting speed under)
G1 F4000


G1X81.6853Y-183.1531

G1X113.9002Y-167.7429

G1X188.9791Y-195.1968

G1X223.0239Y-181.6165

G1X264.3618Y-175.3295

G1 Z0F20000

(Start Block)


G1X41.6264Y-191.7776
G1Z5F20000
(Plotting speed under)
G1 F4000


G1X81.4859Y-184.0121

G1X113.5971Y-168.4982

G1X189.1627Y-196.4387

G1X222.9908Y-182.6418

G1X264.1161Y-176.1420

G1 Z0F20000

(Start Block)


G1X41.2569Y-192.4665
G1Z5F20000
(Plotting speed under)
G1 F4000


G1X81.0942Y-184.6787

G1X114.0655Y-170.0249

G1X188.9934Y-197.3278

G1X223.2597Y-183.9691

G1X264.1050Y-177.1893

G1 Z0F20000

(Start Block)


G1X40.8874Y-193.1553
G1Z5F20000
(Plotting speed under)
G1 F4000


G1X80.7025Y-185.3453

G1X114.5338Y-171.5516

G1X188.8241Y-198.2168

G1X223.5287Y-185.2964

G1X264.0940Y-178.2366

G1 Z0F20000

(Start Block)


G1X40.5180Y-193.8442
G1Z5F20000
(Plotting speed under)
G1 F4000


G1X80.3107Y-186.0119

G1X115.0022Y-173.0783

G1X188.6548Y-199.1059

G1X223.7977Y-186.6237

G1X264.0829Y-179.2839

G1 Z0F20000

(Start Block)


G1X40.1485Y-194.5330
G1Z5F20000
(Plotting speed under)
G1 F4000


G1X79.9189Y-186.6784

G1X115.4705Y-174.6050

G1X188.4856Y-199.9949

G1X224.0666Y-187.9509

G1X264.0719Y-180.3312

G1 Z0F20000

(Start Block)


G1X39.7790Y-195.2219
G1Z5F20000
(Plotting speed under)
G1 F4000


G1X79.5272Y-187.3450

G1X115.9388Y-176.1316

G1X188.3163Y-200.8840

G1X224.3356Y-189.2782

G1X264.0608Y-181.3785

G1 Z0F20000

(Start Block)


G1X39.4095Y-195.9107
G1Z5F20000
(Plotting speed under)
G1 F4000


G1X79.1355Y-188.0116

G1X116.4072Y-177.6583

G1X188.1470Y-201.7731

G1X224.6045Y-190.6055

G1X264.0498Y-182.4257

G1 Z0F20000

(Start Block)


G1X39.0401Y-196.5996
G1Z5F20000
(Plotting speed under)
G1 F4000


G1X78.7437Y-188.6782

G1X116.8755Y-179.1850

G1X187.9777Y-202.6621

G1X224.8735Y-191.9328

G1X264.0387Y-183.4730

G1 Z0F20000

(Start Block)


G1X38.6706Y-197.2884
G1Z5F20000
(Plotting speed under)
G1 F4000


G1X78.3520Y-189.3448

G1X117.3439Y-180.7117

G1X187.8084Y-203.5512

G1X225.1424Y-193.2601

G1X264.0277Y-184.5203

G1 Z0F20000

(Start Block)


G1X38.3011Y-197.9773
G1Z5F20000
(Plotting speed under)
G1 F4000


G1X77.9602Y-190.0114

G1X117.8122Y-182.2384

G1X187.6392Y-204.4402

G1X225.4114Y-194.5874

G1X264.0166Y-185.5676

G1 Z0F20000

(Start Block)


G1X37.9316Y-198.6662
G1Z5F20000
(Plotting speed under)
G1 F4000


G1X77.5685Y-190.6780

G1X118.2806Y-183.7651

G1X187.4699Y-205.3293

G1X225.6803Y-195.9147

G1X264.0056Y-186.6149

G1 Z0F20000

(Start Block)


G1X37.5621Y-199.3550
G1Z5F20000
(Plotting speed under)
G1 F4000


G1X77.1767Y-191.3445

G1X118.7489Y-185.2917

G1X187.3006Y-206.2183

G1X225.9493Y-197.2420

G1X263.9945Y-187.6622

G1 Z0F20000

(Start Block)


G1X37.1927Y-200.0439
G1Z5F20000
(Plotting speed under)
G1 F4000


G1X76.7850Y-192.0111

G1X119.2173Y-186.8184

G1X187.1313Y-207.1074

G1X226.2182Y-198.5692

G1X263.9835Y-188.7095

G1 Z0F20000

(Start Block)


G1X36.8232Y-200.7327
G1Z5F20000
(Plotting speed under)
G1 F4000


G1X76.3932Y-192.6777

G1X119.6856Y-188.3451

G1X186.9621Y-207.9965

G1X226.4872Y-199.8965

G1X263.9724Y-189.7567

G1 Z0F20000

(Start Block)


G1X36.4537Y-201.4216
G1Z5F20000
(Plotting speed under)
G1 F4000


G1X76.0015Y-193.3443

G1X120.1540Y-189.8718

G1X186.7928Y-208.8855

G1X226.7562Y-201.2238

G1X263.9614Y-190.8040

G1 Z0F20000

(Start Block)


G1X36.0842Y-202.1104
G1Z5F20000
(Plotting speed under)
G1 F4000


G1X75.6097Y-194.0109

G1X120.6223Y-191.3985

G1X186.6235Y-209.7746

G1X227.0251Y-202.5511

G1X263.9503Y-191.8513

G1 Z0F20000

(Start Block)


G1X35.7147Y-202.7993
G1Z5F20000
(Plotting speed under)
G1 F4000


G1X75.2180Y-194.6775

G1X121.0907Y-192.9251

G1X186.4542Y-210.6636

G1X227.2941Y-203.8784

G1X263.9393Y-192.8986

G1 Z0F20000

(Start Block)


G1X35.3453Y-203.4882
G1Z5F20000
(Plotting speed under)
G1 F4000


G1X74.8262Y-195.3440

G1X121.5590Y-194.4518

G1X186.2850Y-211.5527

G1X227.5630Y-205.2057

G1X263.9282Y-193.9459

G1 Z0F20000

(Start Block)


G1X34.9758Y-204.1770
G1Z5F20000
(Plotting speed under)
G1 F4000


G1X74.4345Y-196.0106

G1X122.0274Y-195.9785

G1X186.1157Y-212.4417

G1X227.8320Y-206.5330

G1X263.9172Y-194.9932

G1 Z0F20000

(Start Block)


G1X34.6063Y-204.8659
G1Z5F20000
(Plotting speed under)
G1 F4000


G1X74.0427Y-196.6772

G1X122.4957Y-197.5052

G1X185.9464Y-213.3308

G1X228.1009Y-207.8602

G1X263.9061Y-196.0404

G1 Z0F20000

(Start Block)


G1X34.2368Y-205.5547
G1Z5F20000
(Plotting speed under)
G1 F4000


G1X73.6510Y-197.3438

G1X122.9641Y-199.0319

G1X185.7771Y-214.2199

G1X228.3699Y-209.1876

G1X263.8951Y-197.0877

G1 Z0F20000

(Start Block)


G1X33.8674Y-206.2436
G1Z5F20000
(Plotting speed under)
G1 F4000


G1X73.2592Y-198.0104

G1X123.4325Y-200.5586

G1X185.6078Y-215.1089

G1X228.6388Y-210.5148

G1X263.8840Y-198.1350

G1 Z0F20000

(Start Block)


G1X33.4979Y-206.9324
G1Z5F20000
(Plotting speed under)
G1 F4000


G1X72.8674Y-198.6769

G1X123.9008Y-202.0852

G1X185.4386Y-215.9980

G1X228.9078Y-211.8421

G1X263.8730Y-199.1823

G1 Z0F20000

(Start Block)


G1X33.1284Y-207.6213
G1Z5F20000
(Plotting speed under)
G1 F4000


G1X72.4757Y-199.3435

G1X124.3691Y-203.6119

G1X185.2693Y-216.8870

G1X229.1767Y-213.1694

G1X263.8619Y-200.2296

G1 Z0F20000

(Start Block)


G1X32.7589Y-208.3101
G1Z5F20000
(Plotting speed under)
G1 F4000


G1X72.0839Y-200.0101

G1X124.8375Y-205.1386

G1X185.1000Y-217.7761

G1X229.4457Y-214.4967

G1X263.8509Y-201.2769

G1 Z0F20000

(Start Block)


G1X32.3895Y-208.9990
G1Z5F20000
(Plotting speed under)
G1 F4000


G1X71.6922Y-200.6767

G1X125.3058Y-206.6653

G1X184.9308Y-218.6651

G1X229.7147Y-215.8240

G1X263.8398Y-202.3242

G1 Z0F20000

(Start Block)


G1X32.0200Y-209.6879
G1Z5F20000
(Plotting speed under)
G1 F4000


G1X71.3004Y-201.3433

G1X125.7742Y-208.1920

G1X184.7615Y-219.5542

G1X229.9836Y-217.1513

G1X263.8288Y-203.3714

G1 Z0F20000

(Start Block)


G1X31.6505Y-210.3767
G1Z5F20000
(Plotting speed under)
G1 F4000


G1X70.9087Y-202.0099

G1X126.2425Y-209.7187

G1X184.5922Y-220.4433

G1X230.2526Y-218.4786

G1X263.8177Y-204.4187

G1 Z0F20000

(Start Block)


G1X31.2810Y-211.0656
G1Z5F20000
(Plotting speed under)
G1 F4000


G1X70.5169Y-202.6765

G1X126.7109Y-211.2453

G1X184.4229Y-221.3323

G1X230.5215Y-219.8058

G1X263.8067Y-205.4660

G1 Z0F20000

(Start Block)


G1X30.9116Y-211.7544
G1Z5F20000
(Plotting speed under)
G1 F4000


G1X70.1252Y-203.3431

G1X184.2536Y-222.2214

G1X230.7905Y-221.1332

G1X263.7956Y-206.5133

G1 Z0F20000

(Start Block)


G1X30.5421Y-212.4433
G1Z5F20000
(Plotting speed under)
G1 F4000


G1X69.7334Y-204.0096

G1X127.6476Y-214.2987

G1X184.0844Y-223.1104

G1X231.0594Y-222.4604

G1X263.7846Y-207.5606

G1 Z0F20000

(Start Block)


G1X30.1726Y-213.1322
G1Z5F20000
(Plotting speed under)
G1 F4000


G1X69.3417Y-204.6762

G1X128.1159Y-215.8254

G1X183.9151Y-223.9995

G1X231.3284Y-223.7877

G1X263.7735Y-208.6079

G1 Z0F20000

(Start Block)


G1X29.8031Y-213.8210
G1Z5F20000
(Plotting speed under)
G1 F4000


G1X68.9500Y-205.3428

G1X128.5843Y-217.3520

G1X183.7458Y-224.8886

G1X231.5973Y-225.1150

G1X263.7625Y-209.6551

G1 Z0F20000

(Start Block)


G1X29.4336Y-214.5098
G1Z5F20000
(Plotting speed under)
G1 F4000


G1X68.5582Y-206.0094

G1X129.0526Y-218.8787

G1X183.5765Y-225.7776

G1X231.8663Y-226.4423

G1X263.7514Y-210.7024

G1 Z0F20000

(Start Block)


G1X29.0642Y-215.1987
G1Z5F20000
(Plotting speed under)
G1 F4000


G1X68.1664Y-206.6760

G1X129.5210Y-220.4054

G1X183.4073Y-226.6667

G1X232.1352Y-227.7696

G1X263.7404Y-211.7497

G1 Z0F20000

(Start Block)


G1X28.6947Y-215.8875
G1Z5F20000
(Plotting speed under)
G1 F4000


G1X67.7747Y-207.3426

G1X129.9893Y-221.9321

G1X183.2380Y-227.5557

G1X232.4042Y-229.0969

G1X263.7293Y-212.7970

G1 Z0F20000

(Start Block)


G1X28.3252Y-216.5764
G1Z5F20000
(Plotting speed under)
G1 F4000


G1X67.3830Y-208.0092

G1X130.4577Y-223.4588

G1X183.0687Y-228.4448

G1X232.6731Y-230.4242

G1X263.7183Y-213.8443

G1 Z0F20000

(Start Block)


G1X27.9557Y-217.2653
G1Z5F20000
(Plotting speed under)
G1 F4000


G1X66.9912Y-208.6757

G1X130.9260Y-224.9855

G1X182.8994Y-229.3338

G1X232.9421Y-231.7515

G1X263.7072Y-214.8916

G1 Z0F20000

(Start Block)


G1X27.5862Y-217.9541
G1Z5F20000
(Plotting speed under)
G1 F4000


G1X66.5994Y-209.3423

G1X131.3944Y-226.5122

G1X182.7301Y-230.2229

G1X233.2110Y-233.0788

G1X263.6962Y-215.9388

G1 Z0F20000

(Start Block)


G1X27.2167Y-218.6430
G1Z5F20000
(Plotting speed under)
G1 F4000


G1X66.2077Y-210.0089

G1X131.8627Y-228.0389

G1X182.5609Y-231.1120

G1X233.4800Y-234.4060

G1X263.6851Y-216.9861

G1 Z0F20000

(Start Block)


G1X26.8473Y-219.3318
G1Z5F20000
(Plotting speed under)
G1 F4000


G1X65.8160Y-210.6755

G1X132.3311Y-229.5655

G1X182.3916Y-232.0010

G1X233.7489Y-235.7333

G1X263.6741Y-218.0334

G1 Z0F20000

(Start Block)


G1X26.4778Y-220.0207
G1Z5F20000
(Plotting speed under)
G1 F4000


G1X65.4242Y-211.3421

G1X132.7994Y-231.0922

G1X182.2223Y-232.8901

G1X234.0179Y-237.0606

G1X263.6630Y-219.0807

G1 Z0F20000

(Start Block)


G1X26.1083Y-220.7096
G1Z5F20000
(Plotting speed under)
G1 F4000


G1X65.0324Y-212.0086

G1X133.2678Y-232.6189

G1X182.0530Y-233.7791

G1X234.2869Y-238.3879

G1X263.6520Y-220.1280

G1 Z0F20000

(Start Block)


G1X25.7388Y-221.3984
G1Z5F20000
(Plotting speed under)
G1 F4000


G1X64.6407Y-212.6752

G1X133.7361Y-234.1456

G1X181.8838Y-234.6682

G1X234.5558Y-239.7152

G1X263.6409Y-221.1753

G1 Z0F20000

(Start Block)


G1X25.3694Y-222.0873
G1Z5F20000
(Plotting speed under)
G1 F4000


G1X64.2489Y-213.3418

G1X134.2044Y-235.6723

G1X181.7145Y-235.5572

G1X234.8248Y-241.0425

G1X263.6299Y-222.2226

G1 Z0F20000

(Start Block)


G1X24.9999Y-222.7761
G1Z5F20000
(Plotting speed under)
G1 F4000


G1X63.8572Y-214.0084

G1X134.6728Y-237.1990

G1X181.5452Y-236.4463

G1X235.0937Y-242.3698

G1X263.6188Y-223.2699

G1 Z0F20000

(Start Block)


G1X25.1454Y-223.9800
G1Z5F20000
(Plotting speed under)
G1 F4000


G1X64.1332Y-215.3427

G1X134.1920Y-237.7765

G1X181.5366Y-237.4961

G1X234.8263Y-243.1607

G1X263.7664Y-224.4757

G1 Z0F20000

(Start Block)


G1X25.2910Y-225.1839
G1Z5F20000
(Plotting speed under)
G1 F4000


G1X64.4091Y-216.6770

G1X133.7111Y-238.3539

G1X181.5281Y-238.5459

G1X234.5588Y-243.9515

G1X263.9139Y-225.6816

G1 Z0F20000

(Start Block)


G1X25.4365Y-226.3878
G1Z5F20000
(Plotting speed under)
G1 F4000


G1X64.6851Y-218.0113

G1X133.2303Y-238.9314

G1X181.5196Y-239.5957

G1X234.2914Y-244.7424

G1X264.0615Y-226.8876

G1 Z0F20000

(Start Block)


G1X25.5820Y-227.5916
G1Z5F20000
(Plotting speed under)
G1 F4000


G1X64.9610Y-219.3455

G1X132.7495Y-239.5090

G1X181.5110Y-240.6455

G1X234.0239Y-245.5333

G1X264.2091Y-228.0934

G1 Z0F20000

(Start Block)


G1X25.7276Y-228.7955
G1Z5F20000
(Plotting speed under)
G1 F4000


G1X65.2369Y-220.6798

G1X132.2686Y-240.0865

G1X181.5025Y-241.6953

G1X233.7565Y-246.3242

G1X264.3566Y-229.2993

G1 Z0F20000

(Start Block)


G1X25.8731Y-229.9994
G1Z5F20000
(Plotting speed under)
G1 F4000


G1X65.5129Y-222.0141

G1X131.7878Y-240.6640

G1X181.4939Y-242.7450

G1X233.4890Y-247.1151

G1X264.5042Y-230.5053

G1 Z0F20000

(Start Block)


G1X26.0187Y-231.2033
G1Z5F20000
(Plotting speed under)
G1 F4000


G1X65.7889Y-223.3484

G1X131.3070Y-241.2415

G1X181.4854Y-243.7948

G1X233.2216Y-247.9060

G1X264.6518Y-231.7111

G1 Z0F20000

(Start Block)


G1X26.1642Y-232.4072
G1Z5F20000
(Plotting speed under)
G1 F4000


G1X66.0648Y-224.6827

G1X130.8262Y-241.8190

G1X181.4769Y-244.8446

G1X232.9541Y-248.6969

G1X264.7993Y-232.9170

G1 Z0F20000

(Start Block)


G1X26.3098Y-233.6110
G1Z5F20000
(Plotting speed under)
G1 F4000


G1X66.3408Y-226.0170

G1X130.3453Y-242.3965

G1X232.6867Y-249.4877

G1X264.9469Y-234.1229

G1 Z0F20000

(Start Block)


G1X26.4553Y-234.8149
G1Z5F20000
(Plotting speed under)
G1 F4000


G1X66.6167Y-227.3513

G1X129.8645Y-242.9740

G1X181.4598Y-246.9442

G1X232.4192Y-250.2786

G1X265.0945Y-235.3289

G1 Z0F20000

(Start Block)


G1X26.6009Y-236.0188
G1Z5F20000
(Plotting speed under)
G1 F4000


G1X66.8927Y-228.6856

G1X129.3836Y-243.5515

G1X181.4512Y-247.9940

G1X232.1518Y-251.0695

G1X265.2421Y-236.5347

G1 Z0F20000

(Start Block)


G1X26.7464Y-237.2227
G1Z5F20000
(Plotting speed under)
G1 F4000


G1X67.1686Y-230.0199

G1X128.9028Y-244.1290

G1X181.4427Y-249.0438

G1X231.8843Y-251.8604

G1X265.3896Y-237.7406

G1 Z0F20000

(Start Block)


G1X26.8919Y-238.4265
G1Z5F20000
(Plotting speed under)
G1 F4000


G1X67.4446Y-231.3541

G1X128.4220Y-244.7065

G1X181.4341Y-250.0936

G1X231.6169Y-252.6513

G1X265.5372Y-238.9465

G1 Z0F20000

(Start Block)


G1X27.0375Y-239.6304
G1Z5F20000
(Plotting speed under)
G1 F4000


G1X67.7205Y-232.6884

G1X127.9412Y-245.2840

G1X181.4256Y-251.1433

G1X231.3494Y-253.4422

G1X265.6848Y-240.1524

G1 Z0F20000

(Start Block)


G1X27.1830Y-240.8343
G1Z5F20000
(Plotting speed under)
G1 F4000


G1X67.9965Y-234.0227

G1X127.4603Y-245.8615

G1X181.4170Y-252.1931

G1X231.0820Y-254.2330

G1X265.8323Y-241.3583

G1 Z0F20000

(Start Block)


G1X27.3286Y-242.0382
G1Z5F20000
(Plotting speed under)
G1 F4000


G1X68.2724Y-235.3570

G1X126.9795Y-246.4390

G1X181.4085Y-253.2429

G1X230.8146Y-255.0239

G1X265.9799Y-242.5642

G1 Z0F20000

(Start Block)


G1X27.4741Y-243.2420
G1Z5F20000
(Plotting speed under)
G1 F4000


G1X68.5484Y-236.6913

G1X126.4987Y-247.0165

G1X181.3999Y-254.2927

G1X230.5471Y-255.8148

G1X266.1274Y-243.7701

G1 Z0F20000

(Start Block)


G1X27.6196Y-244.4459
G1Z5F20000
(Plotting speed under)
G1 F4000


G1X68.8243Y-238.0256

G1X126.0178Y-247.5940

G1X181.3914Y-255.3425

G1X230.2796Y-256.6057

G1X266.2750Y-244.9760

G1 Z0F20000

(Start Block)


G1X27.7652Y-245.6498
G1Z5F20000
(Plotting speed under)
G1 F4000


G1X69.1003Y-239.3598

G1X125.5370Y-248.1715

G1X181.3828Y-256.3923

G1X230.0122Y-257.3966

G1X266.4226Y-246.1819

G1 Z0F20000

(Start Block)


G1X27.9107Y-246.8537
G1Z5F20000
(Plotting speed under)
G1 F4000


G1X69.3762Y-240.6941

G1X125.0562Y-248.7490

G1X181.3743Y-257.4421

G1X229.7448Y-258.1875

G1X266.5701Y-247.3878

G1 Z0F20000

(Start Block)


G1X28.0563Y-248.0575
G1Z5F20000
(Plotting speed under)
G1 F4000


G1X69.6522Y-242.0284

G1X124.5753Y-249.3265

G1X181.3658Y-258.4919

G1X229.4773Y-258.9784

G1X266.7177Y-248.5937

G1 Z0F20000

(Start Block)


G1X28.2018Y-249.2614
G1Z5F20000
(Plotting speed under)
G1 F4000


G1X69.9281Y-243.3627

G1X124.0945Y-249.9040

G1X181.3572Y-259.5417

G1X229.2099Y-259.7692

G1X266.8653Y-249.7996

G1 Z0F20000

(Start Block)


G1X28.3473Y-250.4653
G1Z5F20000
(Plotting speed under)
G1 F4000


G1X70.2041Y-244.6970

G1X123.6137Y-250.4815

G1X181.3487Y-260.5915

G1X228.9424Y-260.5601

G1X267.0128Y-251.0055

G1 Z0F20000

(Start Block)


G1X28.4929Y-251.6692
G1Z5F20000
(Plotting speed under)
G1 F4000


G1X70.4800Y-246.0313

G1X123.1328Y-251.0590

G1X181.3401Y-261.6413

G1X228.6750Y-261.3510

G1X267.1604Y-252.2114

G1 Z0F20000

(Start Block)


G1X28.6384Y-252.8730
G1Z5F20000
(Plotting speed under)
G1 F4000


G1X70.7560Y-247.3655

G1X122.6520Y-251.6365

G1X181.3316Y-262.6910

G1X228.4075Y-262.1419

G1X267.3080Y-253.4173

G1 Z0F20000

(Start Block)


G1X28.7840Y-254.0769
G1Z5F20000
(Plotting speed under)
G1 F4000


G1X71.0319Y-248.6998

G1X122.1712Y-252.2140

G1X181.3231Y-263.7408

G1X228.1401Y-262.9328

G1X267.4555Y-254.6232

G1 Z0F20000

(Start Block)


G1X28.9295Y-255.2808
G1Z5F20000
(Plotting speed under)
G1 F4000


G1X71.3079Y-250.0341

G1X121.6903Y-252.7915

G1X181.3145Y-264.7906

G1X227.8726Y-263.7237

G1X267.6031Y-255.8291

G1 Z0F20000

(Start Block)


G1X29.0751Y-256.4847
G1Z5F20000
(Plotting speed under)
G1 F4000


G1X71.5838Y-251.3684

G1X121.2095Y-253.3690

G1X181.3060Y-265.8404

G1X227.6052Y-264.5146

G1X267.7506Y-257.0350

G1 Z0F20000

(Start Block)


G1X29.2206Y-257.6885
G1Z5F20000
(Plotting speed under)
G1 F4000


G1X71.8598Y-252.7027

G1X120.7287Y-253.9465

G1X181.2974Y-266.8902

G1X227.3377Y-265.3054

G1X267.8982Y-258.2409

G1 Z0F20000

(Start Block)


G1X29.3661Y-258.8924
G1Z5F20000
(Plotting speed under)
G1 F4000


G1X72.1357Y-254.0370

G1X120.2478Y-254.5240

G1X181.2889Y-267.9400

G1X227.0703Y-266.0963

G1X268.0458Y-259.4468

G1 Z0F20000

(Start Block)


G1X29.5117Y-260.0963
G1Z5F20000
(Plotting speed under)
G1 F4000


G1X72.4117Y-255.3713

G1X119.7670Y-255.1015

G1X181.2803Y-268.9898

G1X226.8028Y-266.8872

G1X268.1933Y-260.6527

G1 Z0F20000

(Start Block)


G1X29.6572Y-261.3002
G1Z5F20000
(Plotting speed under)
G1 F4000


G1X72.6876Y-256.7055

G1X119.2862Y-255.6790

G1X181.2718Y-270.0396

G1X226.5354Y-267.6781

G1X268.3409Y-261.8586

G1 Z0F20000

(Start Block)


G1X29.8028Y-262.5040
G1Z5F20000
(Plotting speed under)
G1 F4000


G1X72.9636Y-258.0398

G1X118.8053Y-256.2565

G1X181.2632Y-271.0894

G1X226.2679Y-268.4690

G1X268.4885Y-263.0645

G1 Z0F20000

(Start Block)


G1X29.9483Y-263.7079
G1Z5F20000
(Plotting speed under)
G1 F4000


G1X73.2395Y-259.3741

G1X118.3245Y-256.8340

G1X181.2547Y-272.1392

G1X226.0005Y-269.2599

G1X268.6360Y-264.2704

G1 Z0F20000

(Start Block)


G1X30.0938Y-264.9118
G1Z5F20000
(Plotting speed under)
G1 F4000


G1X73.5155Y-260.7084

G1X117.8437Y-257.4115

G1X181.2461Y-273.1889

G1X225.7330Y-270.0508

G1X268.7836Y-265.4763

G1 Z0F20000

(Start Block)


G1X30.2394Y-266.1157
G1Z5F20000
(Plotting speed under)
G1 F4000


G1X117.3629Y-257.9891

G1X181.2376Y-274.2387

G1X225.4656Y-270.8417

G1X268.9312Y-266.6822

G1 Z0F20000

(Start Block)


G1X30.3849Y-267.3195
G1Z5F20000
(Plotting speed under)
G1 F4000


G1X74.0674Y-263.3770

G1X116.8820Y-258.5666

G1X181.2290Y-275.2885

G1X269.0787Y-267.8881

G1 Z0F20000

(Start Block)


G1X30.5305Y-268.5234
G1Z5F20000
(Plotting speed under)
G1 F4000


G1X74.3434Y-264.7112

G1X116.4012Y-259.1440

G1X181.2205Y-276.3383

G1X224.9307Y-272.4235

G1X269.2263Y-269.0940

G1 Z0F20000

(Start Block)


G1X30.6760Y-269.7273
G1Z5F20000
(Plotting speed under)
G1 F4000


G1X74.6193Y-266.0455

G1X115.9203Y-259.7215

G1X181.2120Y-277.3881

G1X224.6633Y-273.2143

G1X269.3739Y-270.2999

G1 Z0F20000

(Start Block)


G1X30.8215Y-270.9312
G1Z5F20000
(Plotting speed under)
G1 F4000


G1X74.8953Y-267.3798

G1X115.4395Y-260.2990

G1X181.2034Y-278.4379

G1X224.3958Y-274.0052

G1X269.5215Y-271.5059

G1 Z0F20000

(Start Block)


G1X30.9671Y-272.1351
G1Z5F20000
(Plotting speed under)
G1 F4000


G1X75.1712Y-268.7141

G1X114.9587Y-260.8766

G1X181.1949Y-279.4877

G1X224.1283Y-274.7961

G1X269.6690Y-272.7117

G1 Z0F20000

(Start Block)


G1X31.1126Y-273.3389
G1Z5F20000
(Plotting speed under)
G1 F4000


G1X75.4472Y-270.0484

G1X114.4779Y-261.4541

G1X181.1863Y-280.5375

G1X223.8609Y-275.5870

G1X269.8166Y-273.9176

G1 Z0F20000

(Start Block)


G1X31.2582Y-274.5428
G1Z5F20000
(Plotting speed under)
G1 F4000


G1X75.7231Y-271.3827

G1X113.9970Y-262.0316

G1X181.1778Y-281.5873

G1X223.5935Y-276.3779

G1X269.9642Y-275.1235

G1 Z0F20000

(Start Block)


G1X31.4037Y-275.7467
G1Z5F20000
(Plotting speed under)
G1 F4000


G1X75.9991Y-272.7170

G1X113.5162Y-262.6091

G1X181.1692Y-282.6371

G1X223.3260Y-277.1688

G1X270.1117Y-276.3294

G1 Z0F20000

(Start Block)


G1X31.5493Y-276.9506
G1Z5F20000
(Plotting speed under)
G1 F4000


G1X76.2750Y-274.0513

G1X113.0354Y-263.1866

G1X181.1607Y-283.6869

G1X223.0586Y-277.9597

G1X270.2593Y-277.5353

G1 Z0F20000

(Start Block)


G1X31.1938Y-277.6534
G1Z5F20000
(Plotting speed under)
G1 F4000


G1X76.1729Y-275.0075

G1X113.1823Y-264.3918

G1X180.9488Y-284.5333

G1X222.7698Y-278.7292

G1X270.1173Y-278.4517

G1 Z0F20000

(Start Block)


G1X30.8383Y-278.3562
G1Z5F20000
(Plotting speed under)
G1 F4000


G1X76.0708Y-275.9638

G1X113.3293Y-265.5971

G1X180.7368Y-285.3797

G1X222.4810Y-279.4987

G1X269.9754Y-279.3681

G1 Z0F20000

(Start Block)


G1X30.4828Y-279.0591
G1Z5F20000
(Plotting speed under)
G1 F4000


G1X75.9688Y-276.9200

G1X113.4762Y-266.8024

G1X180.5249Y-286.2261

G1X222.1921Y-280.2682

G1X269.8335Y-280.2845

G1 Z0F20000

(Start Block)


G1X30.1273Y-279.7619
G1Z5F20000
(Plotting speed under)
G1 F4000


G1X75.8667Y-277.8763

G1X113.6231Y-268.0077

G1X180.3130Y-287.0725

G1X221.9034Y-281.0378

G1X269.6916Y-281.2009

G1 Z0F20000

(Start Block)


G1X29.7718Y-280.4648
G1Z5F20000
(Plotting speed under)
G1 F4000


G1X75.7646Y-278.8325

G1X113.7701Y-269.2129

G1X180.1010Y-287.9189

G1X221.6146Y-281.8073

G1X269.5496Y-282.1173

G1 Z0F20000

(Start Block)


G1X29.4163Y-281.1676
G1Z5F20000
(Plotting speed under)
G1 F4000


G1X75.6625Y-279.7888

G1X113.9170Y-270.4182

G1X179.8891Y-288.7653

G1X221.3257Y-282.5768

G1X269.4077Y-283.0337

G1 Z0F20000

(Start Block)


G1X29.0608Y-281.8704
G1Z5F20000
(Plotting speed under)
G1 F4000


G1X75.5604Y-280.7450

G1X114.0639Y-271.6235

G1X179.6772Y-289.6117

G1X221.0370Y-283.3464

G1X269.2657Y-283.9501

G1 Z0F20000

(Start Block)


G1X28.7053Y-282.5733
G1Z5F20000
(Plotting speed under)
G1 F4000


G1X75.4583Y-281.7013

G1X114.2109Y-272.8288

G1X179.4653Y-290.4581

G1X220.7482Y-284.1159

G1X269.1238Y-284.8665

G1 Z0F20000

(Start Block)


G1X28.3498Y-283.2761
G1Z5F20000
(Plotting speed under)
G1 F4000


G1X75.3562Y-282.6575

G1X114.3578Y-274.0341

G1X179.2533Y-291.3045

G1X220.4593Y-284.8854

G1X268.9818Y-285.7829

G1 Z0F20000

(Start Block)


G1X27.9943Y-283.9790
G1Z5F20000
(Plotting speed under)
G1 F4000


G1X75.2542Y-283.6137

G1X114.5048Y-275.2393

G1X179.0414Y-292.1509

G1X220.1705Y-285.6550

G1X268.8399Y-286.6993

G1 Z0F20000

(Start Block)


G1X27.6388Y-284.6818
G1Z5F20000
(Plotting speed under)
G1 F4000


G1X75.1521Y-284.5700

G1X114.6517Y-276.4446

G1X178.8295Y-292.9973

G1X219.8817Y-286.4245

G1X268.6980Y-287.6157

G1 Z0F20000

(Start Block)


G1X27.2833Y-285.3846
G1Z5F20000
(Plotting speed under)
G1 F4000


G1X75.0500Y-285.5262

G1X114.7986Y-277.6499

G1X178.6175Y-293.8437

G1X219.5929Y-287.1941

G1X268.5560Y-288.5321

G1 Z0F20000

(Start Block)


G1X26.9278Y-286.0875
G1Z5F20000
(Plotting speed under)
G1 F4000


G1X74.9479Y-286.4825

G1X114.9456Y-278.8552

G1X178.4056Y-294.6901

G1X219.3041Y-287.9636

G1X268.4141Y-289.4485

G1 Z0F20000

(Start Block)


G1X26.5723Y-286.7903
G1Z5F20000
(Plotting speed under)
G1 F4000


G1X74.8458Y-287.4388

G1X115.0925Y-280.0604

G1X178.1937Y-295.5365

G1X219.0153Y-288.7331

G1X268.2721Y-290.3649

G1 Z0F20000

(Start Block)


G1X26.2168Y-287.4932
G1Z5F20000
(Plotting speed under)
G1 F4000


G1X74.7437Y-288.3950

G1X115.2395Y-281.2657

G1X177.9817Y-296.3829

G1X218.7265Y-289.5027

G1X268.1302Y-291.2813

G1 Z0F20000

(Start Block)


G1X25.8613Y-288.1960
G1Z5F20000
(Plotting speed under)
G1 F4000


G1X74.6416Y-289.3512

G1X115.3864Y-282.4710

G1X177.7698Y-297.2293

G1X218.4377Y-290.2722

G1X267.9883Y-292.1977

G1 Z0F20000

(Start Block)


G1X25.5058Y-288.8988
G1Z5F20000
(Plotting speed under)
G1 F4000


G1X74.5396Y-290.3075

G1X115.5334Y-283.6763

G1X177.5579Y-298.0757

G1X218.1489Y-291.0417

G1X267.8463Y-293.1141

G1 Z0F20000

(Start Block)


G1X25.1504Y-289.6017
G1Z5F20000
(Plotting speed under)
G1 F4000


G1X74.4375Y-291.2637

G1X115.6803Y-284.8815

G1X177.3459Y-298.9221

G1X217.8601Y-291.8113

G1X267.7044Y-294.0305

G1 Z0F20000

(Start Block)


G1X24.7949Y-290.3045
G1Z5F20000
(Plotting speed under)
G1 F4000


G1X74.3354Y-292.2200

G1X115.8272Y-286.0868

G1X177.1340Y-299.7685

G1X217.5713Y-292.5808

G1X267.5624Y-294.9469

G1 Z0F20000

(Start Block)


G1X24.4393Y-291.0073
G1Z5F20000
(Plotting speed under)
G1 F4000


G1X74.2333Y-293.1762

G1X115.9742Y-287.2921

G1X176.9221Y-300.6149

G1X217.2825Y-293.3503

G1X267.4205Y-295.8633

G1 Z0F20000

(Start Block)


G1X24.0838Y-291.7102
G1Z5F20000
(Plotting speed under)
G1 F4000


G1X74.1312Y-294.1325

G1X116.1211Y-288.4974

G1X176.7101Y-301.4613

G1X216.9937Y-294.1199

G1X267.2786Y-296.7797

G1 Z0F20000

(Start Block)


G1X23.7283Y-292.4130
G1Z5F20000
(Plotting speed under)
G1 F4000


G1X74.0291Y-295.0887

G1X116.2681Y-289.7026

G1X176.4982Y-302.3077

G1X216.7049Y-294.8894

G1X267.1367Y-297.6961

G1 Z0F20000

(Start Block)


G1X23.3729Y-293.1159
G1Z5F20000
(Plotting speed under)
G1 F4000


G1X73.9270Y-296.0450

G1X116.4150Y-290.9079

G1X176.2863Y-303.1541

G1X216.4161Y-295.6589

G1X266.9947Y-298.6125

G1 Z0F20000

(Start Block)


G1X23.0174Y-293.8187
G1Z5F20000
(Plotting speed under)
G1 F4000


G1X73.8250Y-297.0012

G1X116.5619Y-292.1132

G1X176.0744Y-304.0005

G1X216.1273Y-296.4285

G1X266.8528Y-299.5289

G1 Z0F20000

(Start Block)


G1X22.6619Y-294.5215
G1Z5F20000
(Plotting speed under)
G1 F4000


G1X73.7229Y-297.9575

G1X116.7089Y-293.3185

G1X175.8624Y-304.8469

G1X215.8385Y-297.1980

G1X266.7108Y-300.4453

G1 Z0F20000

(Start Block)


G1X22.3064Y-295.2244
G1Z5F20000
(Plotting speed under)
G1 F4000


G1X73.6208Y-298.9137

G1X116.8558Y-294.5237

G1X175.6505Y-305.6933

G1X215.5497Y-297.9675

G1X266.5689Y-301.3617

G1 Z0F20000

(Start Block)


G1X21.9509Y-295.9272
G1Z5F20000
(Plotting speed under)
G1 F4000


G1X73.5187Y-299.8700

G1X117.0028Y-295.7290

G1X175.4386Y-306.5397

G1X215.2609Y-298.7370

G1X266.4270Y-302.2780

G1 Z0F20000

(Start Block)


G1X21.5954Y-296.6301
G1Z5F20000
(Plotting speed under)
G1 F4000


G1X73.4166Y-300.8262

G1X117.1497Y-296.9343

G1X175.2266Y-307.3861

G1X214.9721Y-299.5066

G1X266.2850Y-303.1945

G1 Z0F20000

(Start Block)


G1X21.2399Y-297.3329
G1Z5F20000
(Plotting speed under)
G1 F4000


G1X73.3145Y-301.7825

G1X117.2966Y-298.1395

G1X175.0147Y-308.2325

G1X214.6833Y-300.2761

G1X266.1431Y-304.1108

G1 Z0F20000

(Start Block)


G1X20.8844Y-298.0357
G1Z5F20000
(Plotting speed under)
G1 F4000


G1X73.2124Y-302.7387

G1X117.4436Y-299.3448

G1X174.8028Y-309.0789

G1X214.3945Y-301.0456

G1X266.0011Y-305.0272

G1 Z0F20000

(Start Block)


G1X20.5289Y-298.7386
G1Z5F20000
(Plotting speed under)
G1 F4000


G1X73.1103Y-303.6950

G1X117.5905Y-300.5501

G1X174.5908Y-309.9253

G1X214.1057Y-301.8152

G1X265.8592Y-305.9436

G1 Z0F20000

(Start Block)


G1X20.1734Y-299.4414
G1Z5F20000
(Plotting speed under)
G1 F4000


G1X73.0082Y-304.6512

G1X117.7375Y-301.7554

G1X174.3789Y-310.7717

G1X213.8169Y-302.5847

G1X265.7173Y-306.8600

G1 Z0F20000

(Start Block)


G1X19.8179Y-300.1443
G1Z5F20000
(Plotting speed under)
G1 F4000


G1X72.9062Y-305.6075

G1X117.8844Y-302.9606

G1X174.1670Y-311.6181

G1X213.5281Y-303.3542

G1X265.5753Y-307.7764

G1 Z0F20000

(Start Block)


G1X19.4624Y-300.8471
G1Z5F20000
(Plotting speed under)
G1 F4000


G1X72.8041Y-306.5637

G1X118.0314Y-304.1659

G1X173.9550Y-312.4645

G1X213.2393Y-304.1238

G1X265.4334Y-308.6928

G1 Z0F20000

(Start Block)


G1X19.1069Y-301.5499
G1Z5F20000
(Plotting speed under)
G1 F4000


G1X72.7020Y-307.5200

G1X118.1783Y-305.3712

G1X173.7431Y-313.3109

G1X212.9505Y-304.8933

G1X265.2915Y-309.6092

G1 Z0F20000

(Start Block)


G1X18.7514Y-302.2528
G1Z5F20000
(Plotting speed under)
G1 F4000


G1X72.5999Y-308.4762

G1X118.3252Y-306.5765

G1X173.5312Y-314.1573

G1X212.6617Y-305.6628

G1X265.1495Y-310.5256

G1 Z0F20000

(Start Block)


G1X18.3959Y-302.9556
G1Z5F20000
(Plotting speed under)
G1 F4000


G1X72.4978Y-309.4324

G1X118.4722Y-307.7818

G1X173.3192Y-315.0037

G1X212.3729Y-306.4324

G1X265.0076Y-311.4420

G1 Z0F20000

(Start Block)


G1X18.0404Y-303.6585
G1Z5F20000
(Plotting speed under)
G1 F4000


G1X72.3957Y-310.3887

G1X118.6191Y-308.9870

G1X173.1073Y-315.8501

G1X212.0841Y-307.2019

G1X264.8657Y-312.3584

G1 Z0F20000

(Start Block)


G1X17.6849Y-304.3613
G1Z5F20000
(Plotting speed under)
G1 F4000


G1X72.2937Y-311.3450

G1X118.7660Y-310.1923

G1X172.8954Y-316.6966

G1X211.7953Y-307.9714

G1X264.7237Y-313.2748

G1 Z0F20000

(Start Block)


G1X17.3295Y-305.0641
G1Z5F20000
(Plotting speed under)
G1 F4000


G1X72.1915Y-312.3012

G1X118.9130Y-311.3976

G1X172.6834Y-317.5430

G1X211.5065Y-308.7410

G1X264.5818Y-314.1912

G1 Z0F20000

(Start Block)


G1X16.9740Y-305.7670
G1Z5F20000
(Plotting speed under)
G1 F4000


G1X72.0895Y-313.2574

G1X119.0599Y-312.6028

G1X172.4715Y-318.3894

G1X211.2177Y-309.5105

G1X264.4398Y-315.1076

G1 Z0F20000

(Start Block)


G1X16.6185Y-306.4698
G1Z5F20000
(Plotting speed under)
G1 F4000


G1X71.9874Y-314.2137

G1X119.2069Y-313.8081

G1X172.2596Y-319.2358

G1X210.9289Y-310.2800

G1X264.2979Y-316.0240

G1 Z0F20000

(Start Block)


G1X16.2630Y-307.1727
G1Z5F20000
(Plotting speed under)
G1 F4000


G1X71.8853Y-315.1699

G1X119.3538Y-315.0134

G1X172.0477Y-320.0822

G1X210.6401Y-311.0496

G1X264.1560Y-316.9404

G1 Z0F20000

(Start Block)


G1X15.9075Y-307.8755
G1Z5F20000
(Plotting speed under)
G1 F4000


G1X71.7832Y-316.1262

G1X119.5007Y-316.2187

G1X171.8357Y-320.9286

G1X210.3513Y-311.8191

G1X264.0140Y-317.8568

G1 Z0F20000

(Start Block)


G1X15.5520Y-308.5783
G1Z5F20000
(Plotting speed under)
G1 F4000


G1X71.6811Y-317.0824

G1X119.6477Y-317.4239

G1X171.6238Y-321.7750

G1X210.0625Y-312.5887

G1X263.8721Y-318.7732

G1 Z0F20000

(Start Block)


G1X16.0621Y-310.1468
G1Z5F20000
(Plotting speed under)
G1 F4000


G1X71.7325Y-318.1921

G1X119.3439Y-318.1785

G1X171.2565Y-322.4660

G1X210.3363Y-313.9208

G1X264.2362Y-320.1956

G1 Z0F20000

(Start Block)


G1X16.5722Y-311.7152
G1Z5F20000
(Plotting speed under)
G1 F4000


G1X71.7838Y-319.3018

G1X119.0402Y-318.9331

G1X170.8891Y-323.1570

G1X210.6101Y-315.2529

G1X264.6003Y-321.6181

G1 Z0F20000

(Start Block)


G1X17.0823Y-313.2837
G1Z5F20000
(Plotting speed under)
G1 F4000


G1X71.8352Y-320.4115

G1X118.7364Y-319.6877

G1X170.5219Y-323.8481

G1X210.8839Y-316.5851

G1X264.9644Y-323.0405

G1 Z0F20000

(Start Block)


G1X17.5924Y-314.8521
G1Z5F20000
(Plotting speed under)
G1 F4000


G1X71.8865Y-321.5212

G1X118.4326Y-320.4423

G1X170.1546Y-324.5391

G1X211.1577Y-317.9172

G1X265.3285Y-324.4629

G1 Z0F20000

(Start Block)


G1X18.1025Y-316.4205
G1Z5F20000
(Plotting speed under)
G1 F4000


G1X71.9378Y-322.6308

G1X118.1289Y-321.1969

G1X169.7872Y-325.2301

G1X211.4316Y-319.2494

G1X265.6926Y-325.8854

G1 Z0F20000

(Start Block)


G1X18.6126Y-317.9890
G1Z5F20000
(Plotting speed under)
G1 F4000


G1X71.9892Y-323.7405

G1X117.8251Y-321.9514

G1X169.4199Y-325.9212

G1X211.7054Y-320.5816

G1X266.0567Y-327.3078

G1 Z0F20000

(Start Block)


G1X19.1227Y-319.5574
G1Z5F20000
(Plotting speed under)
G1 F4000


G1X72.0405Y-324.8502

G1X117.5214Y-322.7060

G1X169.0526Y-326.6122

G1X211.9792Y-321.9137

G1X266.4208Y-328.7302

G1 Z0F20000

(Start Block)


G1X19.6328Y-321.1259
G1Z5F20000
(Plotting speed under)
G1 F4000


G1X72.0919Y-325.9599

G1X117.2176Y-323.4606

G1X168.6854Y-327.3033

G1X212.2530Y-323.2459

G1X266.7849Y-330.1527

G1 Z0F20000

(Start Block)


G1X20.1429Y-322.6943
G1Z5F20000
(Plotting speed under)
G1 F4000


G1X72.1432Y-327.0695

G1X116.9139Y-324.2151

G1X168.3180Y-327.9943

G1X212.5268Y-324.5780

G1X267.1490Y-331.5751

G1 Z0F20000

(Start Block)


G1X20.6530Y-324.2628
G1Z5F20000
(Plotting speed under)
G1 F4000


G1X72.1945Y-328.1792

G1X116.6101Y-324.9697

G1X167.9507Y-328.6853

G1X212.8007Y-325.9102

G1X267.5131Y-332.9975

G1 Z0F20000

(Start Block)


G1X21.1632Y-325.8312
G1Z5F20000
(Plotting speed under)
G1 F4000


G1X72.2459Y-329.2889

G1X116.3063Y-325.7243

G1X167.5834Y-329.3763

G1X213.0744Y-327.2423

G1X267.8771Y-334.4199

G1 Z0F20000

(Start Block)


G1X21.6732Y-327.3996
G1Z5F20000
(Plotting speed under)
G1 F4000


G1X72.2972Y-330.3986

G1X116.0026Y-326.4789

G1X167.2161Y-330.0674

G1X213.3483Y-328.5744

G1X268.2412Y-335.8424

G1 Z0F20000

(Start Block)


G1X22.1834Y-328.9681
G1Z5F20000
(Plotting speed under)
G1 F4000


G1X72.3486Y-331.5083

G1X115.6988Y-327.2335

G1X166.8488Y-330.7584

G1X213.6221Y-329.9066

G1X268.6053Y-337.2648

G1 Z0F20000

(Start Block)


G1X22.6935Y-330.5365
G1Z5F20000
(Plotting speed under)
G1 F4000


G1X72.3999Y-332.6179

G1X115.3951Y-327.9880

G1X166.4815Y-331.4494

G1X213.8959Y-331.2387

G1X268.9694Y-338.6872

G1 Z0F20000

(Start Block)


G1X23.2036Y-332.1050
G1Z5F20000
(Plotting speed under)
G1 F4000


G1X72.4513Y-333.7276

G1X115.0913Y-328.7426

G1X166.1142Y-332.1405

G1X214.1697Y-332.5709

G1X269.3335Y-340.1096

G1 Z0F20000

(Start Block)


G1X23.7137Y-333.6734
G1Z5F20000
(Plotting speed under)
G1 F4000


G1X72.5026Y-334.8373

G1X114.7876Y-329.4972

G1X165.7469Y-332.8315

G1X214.4435Y-333.9031

G1X269.6976Y-341.5321

G1 Z0F20000

(Start Block)


G1X24.2238Y-335.2418
G1Z5F20000
(Plotting speed under)
G1 F4000


G1X72.5539Y-335.9470

G1X114.4838Y-330.2517

G1X165.3796Y-333.5225

G1X214.7173Y-335.2352

G1X270.0617Y-342.9545

G1 Z0F20000

(Start Block)


G1X24.7339Y-336.8103
G1Z5F20000
(Plotting speed under)
G1 F4000


G1X72.6053Y-337.0566

G1X114.1800Y-331.0063

G1X165.0123Y-334.2136

G1X214.9912Y-336.5674

G1X270.4258Y-344.3769

G1 Z0F20000

(Start Block)


G1X25.2440Y-338.3787
G1Z5F20000
(Plotting speed under)
G1 F4000


G1X72.6566Y-338.1663

G1X113.8763Y-331.7609

G1X164.6450Y-334.9046

G1X215.2650Y-337.8995

G1X270.7899Y-345.7994

G1 Z0F20000

(Start Block)


G1X25.7541Y-339.9472
G1Z5F20000
(Plotting speed under)
G1 F4000


G1X72.7080Y-339.2760

G1X113.5725Y-332.5155

G1X164.2777Y-335.5956

G1X215.5388Y-339.2317

G1X271.1540Y-347.2218

G1 Z0F20000

(Start Block)


G1X26.2642Y-341.5156
G1Z5F20000
(Plotting speed under)
G1 F4000


G1X72.7593Y-340.3857

G1X113.2688Y-333.2701

G1X163.9104Y-336.2867

G1X215.8126Y-340.5638

G1X271.5181Y-348.6442

G1 Z0F20000

(Start Block)


G1X26.7743Y-343.0840
G1Z5F20000
(Plotting speed under)
G1 F4000


G1X72.8106Y-341.4953

G1X112.9650Y-334.0246

G1X163.5431Y-336.9777

G1X216.0864Y-341.8959

G1X271.8822Y-350.0667

G1 Z0F20000

(Start Block)


G1X27.2845Y-344.6525
G1Z5F20000
(Plotting speed under)
G1 F4000


G1X72.8620Y-342.6050

G1X112.6613Y-334.7792

G1X163.1758Y-337.6687

G1X216.3602Y-343.2281

G1X272.2463Y-351.4891

G1 Z0F20000

(Start Block)


G1X27.7946Y-346.2209
G1Z5F20000
(Plotting speed under)
G1 F4000


G1X72.9133Y-343.7147

G1X112.3575Y-335.5338

G1X162.8085Y-338.3597

G1X216.6340Y-344.5602

G1X272.6104Y-352.9115

G1 Z0F20000

(Start Block)


G1X28.3047Y-347.7894
G1Z5F20000
(Plotting speed under)
G1 F4000


G1X72.9647Y-344.8244

G1X112.0537Y-336.2883

G1X162.4412Y-339.0508

G1X216.9079Y-345.8924

G1X272.9745Y-354.3339

G1 Z0F20000

(Start Block)


G1X28.8148Y-349.3578
G1Z5F20000
(Plotting speed under)
G1 F4000


G1X73.0160Y-345.9340

G1X111.7500Y-337.0429

G1X162.0739Y-339.7418

G1X217.1817Y-347.2245

G1X273.3386Y-355.7564

G1 Z0F20000

(Start Block)


G1X29.3249Y-350.9263
G1Z5F20000
(Plotting speed under)
G1 F4000


G1X73.0674Y-347.0437

G1X111.4462Y-337.7975

G1X161.7066Y-340.4328

G1X217.4555Y-348.5567

G1X273.7027Y-357.1788

G1 Z0F20000

(Start Block)


G1X29.8350Y-352.4947
G1Z5F20000
(Plotting speed under)
G1 F4000


G1X73.1187Y-348.1534

G1X111.1425Y-338.5521

G1X161.3393Y-341.1239

G1X274.0668Y-358.6012

G1 Z0F20000

(Start Block)


G1X30.3451Y-354.0631
G1Z5F20000
(Plotting speed under)
G1 F4000


G1X73.1701Y-349.2631

G1X110.8387Y-339.3067

G1X160.9720Y-341.8149

G1X218.0031Y-351.2210

G1X274.4309Y-360.0237

G1 Z0F20000

(Start Block)


G1X30.8552Y-355.6316
G1Z5F20000
(Plotting speed under)
G1 F4000


G1X73.2214Y-350.3727

G1X110.5349Y-340.0612

G1X160.6047Y-342.5059

G1X218.2769Y-352.5531

G1X274.7950Y-361.4461

G1 Z0F20000

(Start Block)


G1X31.3653Y-357.2000
G1Z5F20000
(Plotting speed under)
G1 F4000


G1X73.2727Y-351.4824

G1X110.2312Y-340.8158

G1X160.2374Y-343.1970

G1X218.5508Y-353.8853

G1X275.1591Y-362.8685

G1 Z0F20000

(Start Block)


G1X31.8754Y-358.7685
G1Z5F20000
(Plotting speed under)
G1 F4000


G1X73.3241Y-352.5921

G1X109.9274Y-341.5704

G1X159.8701Y-343.8880

G1X218.8246Y-355.2174

G1X275.5232Y-364.2909

G1 Z0F20000

(Start Block)


G1X32.3855Y-360.3369
G1Z5F20000
(Plotting speed under)
G1 F4000


G1X73.3754Y-353.7018

G1X109.6237Y-342.3250

G1X159.5028Y-344.5790

G1X219.0984Y-356.5496

G1X275.8872Y-365.7134

G1 Z0F20000

(Start Block)


G1X32.8956Y-361.9053
G1Z5F20000
(Plotting speed under)
G1 F4000


G1X73.4268Y-354.8114

G1X109.3199Y-343.0795

G1X159.1355Y-345.2701

G1X219.3722Y-357.8817

G1X276.2513Y-367.1358

G1 Z0F20000

(Start Block)


G1X33.4058Y-363.4738
G1Z5F20000
(Plotting speed under)
G1 F4000


G1X73.4781Y-355.9211

G1X109.0161Y-343.8341

G1X158.7682Y-345.9611

G1X219.6460Y-359.2139

G1X276.6154Y-368.5582

G1 Z0F20000

(Start Block)


G1X33.9158Y-365.0422
G1Z5F20000
(Plotting speed under)
G1 F4000


G1X73.5295Y-357.0308

G1X108.7124Y-344.5887

G1X158.4009Y-346.6521

G1X219.9198Y-360.5460

G1X276.9796Y-369.9807

G1 Z0F20000

(Start Block)


G1X34.4260Y-366.6107
G1Z5F20000
(Plotting speed under)
G1 F4000


G1X73.5808Y-358.1405

G1X108.4086Y-345.3433

G1X158.0336Y-347.3432

G1X220.1936Y-361.8782

G1X277.3436Y-371.4031

G1 Z0F20000

(Start Block)


G1X34.9361Y-368.1791
G1Z5F20000
(Plotting speed under)
G1 F4000


G1X73.6322Y-359.2501

G1X108.1049Y-346.0978

G1X157.6663Y-348.0342

G1X220.4675Y-363.2103

G1X277.7077Y-372.8256

G1 Z0F20000

(Start Block)


G1X35.4462Y-369.7476
G1Z5F20000
(Plotting speed under)
G1 F4000


G1X73.6835Y-360.3598

G1X107.8011Y-346.8524

G1X157.2990Y-348.7252

G1X220.7413Y-364.5425

G1X278.0718Y-374.2480

G1 Z0F20000

(Start Block)


G1X35.9563Y-371.3160
G1Z5F20000
(Plotting speed under)
G1 F4000


G1X73.7348Y-361.4695

G1X107.4974Y-347.6070

G1X156.9317Y-349.4162

G1X221.0151Y-365.8746

G1X278.4359Y-375.6704

G1 Z0F20000

(Start Block)


G1X36.4664Y-372.8845
G1Z5F20000
(Plotting speed under)
G1 F4000


G1X73.7862Y-362.5792

G1X107.1936Y-348.3616

G1X156.5644Y-350.1073

G1X221.2889Y-367.2068

G1X278.8000Y-377.0928

G1 Z0F20000

(Start Block)


G1X36.9765Y-374.4529
G1Z5F20000
(Plotting speed under)
G1 F4000


G1X73.8375Y-363.6889

G1X106.8898Y-349.1162

G1X156.1971Y-350.7983

G1X221.5627Y-368.5389

G1X279.1641Y-378.5153

G1 Z0F20000

(Start Block)


G1X37.4866Y-376.0213
G1Z5F20000
(Plotting speed under)
G1 F4000


G1X73.8889Y-364.7985

G1X106.5861Y-349.8707

G1X155.8298Y-351.4894

G1X221.8365Y-369.8711

G1X279.5282Y-379.9377

G1 Z0F20000

(Start Block)


G1X37.9967Y-377.5898
G1Z5F20000
(Plotting speed under)
G1 F4000


G1X73.9402Y-365.9082

G1X106.2823Y-350.6253

G1X155.4625Y-352.1804

G1X222.1104Y-371.2032

G1X279.8923Y-381.3601

G1 Z0F20000

(Start Block)


G1X38.5068Y-379.1582
G1Z5F20000
(Plotting speed under)
G1 F4000


G1X73.9915Y-367.0179

G1X105.9786Y-351.3799

G1X155.0952Y-352.8714

G1X222.3842Y-372.5354

G1X280.2564Y-382.7825

G1 Z0F20000


G00 X0.0000 Y0.0000


