$H
G21
G17
G90
G1 Z0F20000
G1 F15000
(Start Layer)
(Start Block)

G1X28.5984Y-49.3682
G1 Z3.0F20000
(Plotting speed under)
G1 F10000

G1X47.2838Y-44.2411
G1X71.3474Y-44.4921
G1X92.2870Y-41.6192
G1X117.1695Y-42.6892
G1X137.5358Y-39.2430
G1X164.9578Y-42.8524
G1X183.2899Y-37.3720
G1 Z0F20000
(Start Block)

G1X28.2202Y-49.9822
G1 Z3.0F20000
(Plotting speed under)
G1 F10000

G1X47.2593Y-45.2088
G1X71.5594Y-45.6964
G1X92.4669Y-42.7913
G1X117.3892Y-43.9011
G1X137.6168Y-40.3162
G1X165.1260Y-44.0128
G1X183.7460Y-38.8203
G1 Z0F20000
(Start Block)

G1X27.8420Y-50.5962
G1 Z3.0F20000
(Plotting speed under)
G1 F10000

G1X47.2349Y-46.1766
G1X71.7715Y-46.9006
G1X92.6468Y-43.9634
G1X117.6089Y-45.1130
G1X137.6978Y-41.3893
G1X165.2942Y-45.1732
G1X184.2021Y-40.2686
G1 Z0F20000
(Start Block)

G1X27.4639Y-51.2102
G1 Z3.0F20000
(Plotting speed under)
G1 F10000

G1X47.2104Y-47.1443
G1X71.9835Y-48.1048
G1X92.8266Y-45.1354
G1X117.8286Y-46.3249
G1X137.7787Y-42.4625
G1X165.4624Y-46.3336
G1X184.6582Y-41.7169
G1 Z0F20000
(Start Block)

G1X27.0857Y-51.8243
G1 Z3.0F20000
(Plotting speed under)
G1 F10000

G1X47.1859Y-48.1120
G1X72.1955Y-49.3091
G1X93.0065Y-46.3075
G1X118.0483Y-47.5368
G1X137.8597Y-43.5357
G1X165.6306Y-47.4941
G1X185.1143Y-43.1652
G1 Z0F20000
(Start Block)

G1X26.7075Y-52.4383
G1 Z3.0F20000
(Plotting speed under)
G1 F10000

G1X47.1615Y-49.0797
G1X72.4076Y-50.5133
G1X93.1864Y-47.4795
G1X118.2680Y-48.7487
G1X137.9407Y-44.6088
G1X165.7989Y-48.6545
G1X185.5704Y-44.6135
G1 Z0F20000
(Start Block)

G1X26.3294Y-53.0523
G1 Z3.0F20000
(Plotting speed under)
G1 F10000

G1X47.1370Y-50.0474
G1X72.6196Y-51.7176
G1X93.3662Y-48.6516
G1X118.4878Y-49.9606
G1X138.0217Y-45.6820
G1X165.9670Y-49.8149
G1X186.0265Y-46.0618
G1 Z0F20000
(Start Block)

G1X25.9512Y-53.6663
G1 Z3.0F20000
(Plotting speed under)
G1 F10000

G1X47.1125Y-51.0151
G1X72.8317Y-52.9218
G1X93.5461Y-49.8237
G1X118.7075Y-51.1725
G1X138.1027Y-46.7552
G1X166.1353Y-50.9753
G1X186.4826Y-47.5101
G1 Z0F20000
(Start Block)

G1X25.5730Y-54.2803
G1 Z3.0F20000
(Plotting speed under)
G1 F10000

G1X47.0881Y-51.9828
G1X73.0437Y-54.1260
G1X93.7260Y-50.9957
G1X118.9272Y-52.3844
G1X138.1836Y-47.8283
G1X166.3035Y-52.1357
G1X186.9387Y-48.9584
G1 Z0F20000
(Start Block)

G1X25.1949Y-54.8944
G1 Z3.0F20000
(Plotting speed under)
G1 F10000

G1X47.0636Y-52.9506
G1X73.2558Y-55.3302
G1X93.9058Y-52.1678
G1X119.1469Y-53.5963
G1X138.2646Y-48.9015
G1X166.4717Y-53.2961
G1X187.3948Y-50.4067
G1 Z0F20000
(Start Block)

G1X24.8167Y-55.5084
G1 Z3.0F20000
(Plotting speed under)
G1 F10000

G1X47.0391Y-53.9183
G1X73.4678Y-56.5345
G1X94.0857Y-53.3398
G1X119.3666Y-54.8082
G1X138.3456Y-49.9746
G1X166.6399Y-54.4565
G1X187.8509Y-51.8549
G1 Z0F20000
(Start Block)

G1X24.4385Y-56.1224
G1 Z3.0F20000
(Plotting speed under)
G1 F10000

G1X47.0147Y-54.8860
G1X73.6799Y-57.7387
G1X94.2656Y-54.5119
G1X119.5863Y-56.0201
G1X138.4266Y-51.0478
G1X166.8081Y-55.6169
G1X188.3070Y-53.3033
G1 Z0F20000
(Start Block)

G1X24.0603Y-56.7364
G1 Z3.0F20000
(Plotting speed under)
G1 F10000

G1X46.9902Y-55.8537
G1X73.8919Y-58.9429
G1X94.4455Y-55.6839
G1X119.8060Y-57.2320
G1X138.5075Y-52.1210
G1X166.9764Y-56.7773
G1X188.7632Y-54.7516
G1 Z0F20000
(Start Block)

G1X23.6822Y-57.3504
G1 Z3.0F20000
(Plotting speed under)
G1 F10000

G1X46.9657Y-56.8214
G1X74.1040Y-60.1472
G1X94.6253Y-56.8560
G1X120.0257Y-58.4439
G1X138.5885Y-53.1941
G1X167.1446Y-57.9377
G1X189.2193Y-56.1998
G1 Z0F20000
(Start Block)

G1X23.3040Y-57.9644
G1 Z3.0F20000
(Plotting speed under)
G1 F10000

G1X46.9412Y-57.7892
G1X74.3160Y-61.3514
G1X94.8052Y-58.0281
G1X120.2454Y-59.6558
G1X138.6695Y-54.2673
G1X167.3128Y-59.0981
G1X189.6754Y-57.6481
G1 Z0F20000
(Start Block)

G1X22.9258Y-58.5785
G1 Z3.0F20000
(Plotting speed under)
G1 F10000

G1X46.9168Y-58.7569
G1X74.5281Y-62.5556
G1X94.9850Y-59.2001
G1X120.4651Y-60.8677
G1X138.7504Y-55.3404
G1X167.4810Y-60.2585
G1X190.1315Y-59.0964
G1 Z0F20000
(Start Block)

G1X22.5476Y-59.1925
G1 Z3.0F20000
(Plotting speed under)
G1 F10000

G1X46.8923Y-59.7246
G1X74.7401Y-63.7599
G1X95.1649Y-60.3722
G1X120.6849Y-62.0796
G1X138.8314Y-56.4136
G1X167.6492Y-61.4189
G1X190.5876Y-60.5447
G1 Z0F20000
(Start Block)

G1X22.1695Y-59.8065
G1 Z3.0F20000
(Plotting speed under)
G1 F10000

G1X46.8678Y-60.6923
G1X74.9521Y-64.9641
G1X95.3448Y-61.5442
G1X120.9046Y-63.2915
G1X138.9124Y-57.4868
G1X167.8174Y-62.5793
G1X191.0437Y-61.9930
G1 Z0F20000
(Start Block)

G1X21.7913Y-60.4205
G1 Z3.0F20000
(Plotting speed under)
G1 F10000

G1X46.8434Y-61.6600
G1X75.1642Y-66.1683
G1X95.5247Y-62.7163
G1X121.1243Y-64.5034
G1X138.9934Y-58.5599
G1X167.9857Y-63.7397
G1X191.4998Y-63.4413
G1 Z0F20000
(Start Block)

G1X21.4131Y-61.0345
G1 Z3.0F20000
(Plotting speed under)
G1 F10000

G1X46.8189Y-62.6278
G1X75.3762Y-67.3726
G1X95.7045Y-63.8883
G1X121.3440Y-65.7153
G1X139.0743Y-59.6331
G1X168.1539Y-64.9001
G1X191.9559Y-64.8896
G1 Z0F20000
(Start Block)

G1X21.0349Y-61.6485
G1 Z3.0F20000
(Plotting speed under)
G1 F10000

G1X46.7944Y-63.5955
G1X75.5883Y-68.5768
G1X95.8844Y-65.0604
G1X121.5637Y-66.9272
G1X139.1553Y-60.7063
G1X168.3221Y-66.0605
G1X192.4120Y-66.3379
G1 Z0F20000
(Start Block)

G1X20.6568Y-62.2626
G1 Z3.0F20000
(Plotting speed under)
G1 F10000

G1X46.7699Y-64.5632
G1X75.8003Y-69.7810
G1X96.0643Y-66.2325
G1X121.7834Y-68.1391
G1X139.2363Y-61.7794
G1X168.4903Y-67.2209
G1X192.8681Y-67.7862
G1 Z0F20000
(Start Block)

G1X20.2786Y-62.8766
G1 Z3.0F20000
(Plotting speed under)
G1 F10000

G1X46.7455Y-65.5309
G1X76.0124Y-70.9853
G1X96.2441Y-67.4045
G1X122.0031Y-69.3510
G1X139.3173Y-62.8526
G1X168.6585Y-68.3813
G1X193.3242Y-69.2345
G1 Z0F20000
(Start Block)

G1X19.9004Y-63.4906
G1 Z3.0F20000
(Plotting speed under)
G1 F10000

G1X46.7210Y-66.4986
G1X76.2244Y-72.1895
G1X96.4240Y-68.5766
G1X122.2228Y-70.5629
G1X139.3982Y-63.9257
G1X168.8267Y-69.5417
G1X193.7804Y-70.6828
G1 Z0F20000
(Start Block)

G1X19.5223Y-64.1046
G1 Z3.0F20000
(Plotting speed under)
G1 F10000

G1X46.6965Y-67.4664
G1X76.4364Y-73.3937
G1X96.6039Y-69.7486
G1X122.4425Y-71.7748
G1X139.4792Y-64.9989
G1X168.9950Y-70.7022
G1X194.2365Y-72.1311
G1 Z0F20000
(Start Block)

G1X19.7997Y-65.3742
G1 Z3.0F20000
(Plotting speed under)
G1 F10000

G1X46.7680Y-68.5300
G1X76.1399Y-74.0894
G1X96.3718Y-70.5087
G1X122.1642Y-72.4886
G1X139.7797Y-66.2915
G1X168.9362Y-71.6356
G1X194.0791Y-72.9659
G1 Z0F20000
(Start Block)

G1X20.0772Y-66.6439
G1 Z3.0F20000
(Plotting speed under)
G1 F10000

G1X46.8395Y-69.5937
G1X75.8433Y-74.7850
G1X96.1396Y-71.2688
G1X121.8858Y-73.2024
G1X140.0801Y-67.5842
G1X168.8775Y-72.5691
G1X193.9217Y-73.8008
G1 Z0F20000
(Start Block)

G1X20.3546Y-67.9135
G1 Z3.0F20000
(Plotting speed under)
G1 F10000

G1X46.9110Y-70.6574
G1X75.5468Y-75.4806
G1X95.9075Y-72.0288
G1X121.6074Y-73.9162
G1X140.3806Y-68.8768
G1X168.8188Y-73.5025
G1X193.7643Y-74.6356
G1 Z0F20000
(Start Block)

G1X20.6321Y-69.1832
G1 Z3.0F20000
(Plotting speed under)
G1 F10000

G1X46.9825Y-71.7210
G1X75.2502Y-76.1762
G1X95.6754Y-72.7889
G1X121.3290Y-74.6301
G1X140.6810Y-70.1695
G1X168.7600Y-74.4360
G1X193.6070Y-75.4704
G1 Z0F20000
(Start Block)

G1X20.9095Y-70.4528
G1 Z3.0F20000
(Plotting speed under)
G1 F10000

G1X47.0540Y-72.7847
G1X74.9536Y-76.8719
G1X95.4433Y-73.5490
G1X121.0507Y-75.3439
G1X140.9815Y-71.4621
G1X168.7013Y-75.3694
G1X193.4496Y-76.3052
G1 Z0F20000
(Start Block)

G1X21.1869Y-71.7224
G1 Z3.0F20000
(Plotting speed under)
G1 F10000

G1X47.1255Y-73.8484
G1X74.6571Y-77.5675
G1X95.2112Y-74.3091
G1X120.7723Y-76.0577
G1X141.2819Y-72.7547
G1X168.6425Y-76.3029
G1X193.2922Y-77.1400
G1 Z0F20000
(Start Block)

G1X21.4644Y-72.9920
G1 Z3.0F20000
(Plotting speed under)
G1 F10000

G1X47.1970Y-74.9121
G1X74.3605Y-78.2631
G1X94.9790Y-75.0691
G1X120.4939Y-76.7715
G1X141.5824Y-74.0474
G1X168.5838Y-77.2363
G1X193.1349Y-77.9748
G1 Z0F20000
(Start Block)

G1X21.7419Y-74.2617
G1 Z3.0F20000
(Plotting speed under)
G1 F10000

G1X47.2684Y-75.9758
G1X74.0640Y-78.9587
G1X94.7469Y-75.8292
G1X120.2155Y-77.4853
G1X141.8828Y-75.3401
G1X168.5251Y-78.1698
G1X192.9775Y-78.8097
G1 Z0F20000
(Start Block)

G1X22.0193Y-75.5314
G1 Z3.0F20000
(Plotting speed under)
G1 F10000

G1X47.3399Y-77.0395
G1X73.7674Y-79.6544
G1X94.5148Y-76.5892
G1X119.9371Y-78.1991
G1X142.1833Y-76.6327
G1X168.4663Y-79.1032
G1X192.8201Y-79.6445
G1 Z0F20000
(Start Block)

G1X22.2967Y-76.8010
G1 Z3.0F20000
(Plotting speed under)
G1 F10000

G1X47.4114Y-78.1031
G1X73.4708Y-80.3500
G1X94.2827Y-77.3493
G1X119.6588Y-78.9129
G1X142.4837Y-77.9253
G1X168.4076Y-80.0367
G1X192.6628Y-80.4793
G1 Z0F20000
(Start Block)

G1X22.5742Y-78.0706
G1 Z3.0F20000
(Plotting speed under)
G1 F10000

G1X47.4829Y-79.1668
G1X73.1742Y-81.0456
G1X94.0505Y-78.1094
G1X119.3804Y-79.6267
G1X142.7842Y-79.2180
G1X168.3489Y-80.9701
G1X192.5054Y-81.3141
G1 Z0F20000
(Start Block)

G1X22.8516Y-79.3403
G1 Z3.0F20000
(Plotting speed under)
G1 F10000

G1X47.5544Y-80.2305
G1X72.8777Y-81.7412
G1X93.8184Y-78.8695
G1X119.1020Y-80.3405
G1X143.0846Y-80.5106
G1X168.2901Y-81.9036
G1X192.3480Y-82.1489
G1 Z0F20000
(Start Block)

G1X23.1291Y-80.6099
G1 Z3.0F20000
(Plotting speed under)
G1 F10000

G1X47.6259Y-81.2941
G1X72.5811Y-82.4369
G1X93.5863Y-79.6295
G1X118.8236Y-81.0544
G1X143.3851Y-81.8033
G1X168.2314Y-82.8371
G1X192.1906Y-82.9837
G1 Z0F20000
(Start Block)

G1X23.4065Y-81.8795
G1 Z3.0F20000
(Plotting speed under)
G1 F10000

G1X47.6974Y-82.3578
G1X72.2845Y-83.1325
G1X93.3542Y-80.3896
G1X143.6855Y-83.0959
G1X168.1727Y-83.7705
G1X192.0333Y-83.8186
G1 Z0F20000
(Start Block)

G1X23.6840Y-83.1492
G1 Z3.0F20000
(Plotting speed under)
G1 F10000

G1X47.7689Y-83.4215
G1X71.9880Y-83.8281
G1X93.1221Y-81.1497
G1X118.2669Y-82.4820
G1X143.9860Y-84.3885
G1X168.1139Y-84.7040
G1X191.8759Y-84.6534
G1 Z0F20000
(Start Block)

G1X23.9614Y-84.4188
G1 Z3.0F20000
(Plotting speed under)
G1 F10000

G1X71.6914Y-84.5237
G1X92.8899Y-81.9097
G1X117.9885Y-83.1958
G1X144.2864Y-85.6812
G1X168.0552Y-85.6374
G1X191.7185Y-85.4882
G1 Z0F20000
(Start Block)

G1X24.2389Y-85.6884
G1 Z3.0F20000
(Plotting speed under)
G1 F10000

G1X47.9118Y-85.5489
G1X71.3949Y-85.2194
G1X92.6578Y-82.6698
G1X117.7101Y-83.9096
G1X144.5869Y-86.9738
G1X167.9965Y-86.5709
G1X191.5611Y-86.3230
G1 Z0F20000
(Start Block)

G1X24.5163Y-86.9581
G1 Z3.0F20000
(Plotting speed under)
G1 F10000

G1X47.9833Y-86.6125
G1X71.0983Y-85.9150
G1X92.4257Y-83.4299
G1X117.4318Y-84.6234
G1X144.8873Y-88.2664
G1X167.9377Y-87.5043
G1X191.4038Y-87.1578
G1 Z0F20000
(Start Block)

G1X24.7938Y-88.2277
G1 Z3.0F20000
(Plotting speed under)
G1 F10000

G1X48.0548Y-87.6762
G1X70.8017Y-86.6106
G1X92.1936Y-84.1899
G1X117.1534Y-85.3372
G1X145.1878Y-89.5591
G1X167.8790Y-88.4378
G1X191.2464Y-87.9927
G1 Z0F20000
(Start Block)

G1X25.0712Y-89.4973
G1 Z3.0F20000
(Plotting speed under)
G1 F10000

G1X48.1263Y-88.7399
G1X70.5051Y-87.3062
G1X91.9615Y-84.9500
G1X116.8750Y-86.0510
G1X145.4883Y-90.8517
G1X167.8202Y-89.3712
G1X191.0890Y-88.8275
G1 Z0F20000
(Start Block)

G1X25.3487Y-90.7670
G1 Z3.0F20000
(Plotting speed under)
G1 F10000

G1X48.1978Y-89.8035
G1X70.2086Y-88.0019
G1X91.7293Y-85.7100
G1X116.5966Y-86.7649
G1X145.7887Y-92.1444
G1X167.7615Y-90.3047
G1X190.9317Y-89.6623
G1 Z0F20000
(Start Block)

G1X25.6261Y-92.0366
G1 Z3.0F20000
(Plotting speed under)
G1 F10000

G1X48.2693Y-90.8672
G1X91.4972Y-86.4701
G1X116.3183Y-87.4787
G1X146.0892Y-93.4370
G1X167.7028Y-91.2381
G1X190.7743Y-90.4971
G1 Z0F20000
(Start Block)

G1X25.9036Y-93.3062
G1 Z3.0F20000
(Plotting speed under)
G1 F10000

G1X48.3408Y-91.9309
G1X69.6155Y-89.3931
G1X91.2651Y-87.2302
G1X116.0399Y-88.1925
G1X146.3896Y-94.7297
G1X167.6440Y-92.1716
G1X190.6169Y-91.3319
G1 Z0F20000
(Start Block)

G1X26.1810Y-94.5759
G1 Z3.0F20000
(Plotting speed under)
G1 F10000

G1X48.4122Y-92.9946
G1X69.3189Y-90.0887
G1X91.0330Y-87.9903
G1X115.7615Y-88.9063
G1X146.6901Y-96.0223
G1X167.5853Y-93.1050
G1X190.4595Y-92.1667
G1 Z0F20000
(Start Block)

G1X25.7993Y-95.1864
G1 Z3.0F20000
(Plotting speed under)
G1 F10000

G1X48.4192Y-93.9937
G1X69.0376Y-90.7996
G1X91.0136Y-88.9631
G1X115.7846Y-89.9216
G1X146.7709Y-97.0953
G1X167.5772Y-94.0891
G1X190.5290Y-93.2284
G1 Z0F20000
(Start Block)

G1X25.4177Y-95.7969
G1 Z3.0F20000
(Plotting speed under)
G1 F10000

G1X48.4261Y-94.9928
G1X68.7562Y-91.5105
G1X90.9943Y-89.9359
G1X115.8078Y-90.9369
G1X146.8518Y-98.1684
G1X167.5691Y-95.0732
G1X190.5986Y-94.2901
G1 Z0F20000
(Start Block)

G1X25.0360Y-96.4074
G1 Z3.0F20000
(Plotting speed under)
G1 F10000

G1X48.4331Y-95.9920
G1X68.4749Y-92.2213
G1X90.9749Y-90.9088
G1X115.8309Y-91.9523
G1X146.9326Y-99.2414
G1X167.5610Y-96.0573
G1X190.6681Y-95.3518
G1 Z0F20000
(Start Block)

G1X24.6544Y-97.0180
G1 Z3.0F20000
(Plotting speed under)
G1 F10000

G1X48.4400Y-96.9911
G1X68.1936Y-92.9322
G1X90.9556Y-91.8816
G1X115.8541Y-92.9676
G1X147.0135Y-100.3145
G1X167.5529Y-97.0414
G1X190.7376Y-96.4135
G1 Z0F20000
(Start Block)

G1X24.2727Y-97.6285
G1 Z3.0F20000
(Plotting speed under)
G1 F10000

G1X48.4470Y-97.9903
G1X67.9123Y-93.6431
G1X90.9363Y-92.8545
G1X115.8772Y-93.9829
G1X147.0943Y-101.3875
G1X167.5448Y-98.0255
G1X190.8071Y-97.4752
G1 Z0F20000
(Start Block)

G1X23.8910Y-98.2390
G1 Z3.0F20000
(Plotting speed under)
G1 F10000

G1X48.4540Y-98.9894
G1X67.6309Y-94.3539
G1X90.9169Y-93.8273
G1X115.9003Y-94.9982
G1X147.1752Y-102.4606
G1X167.5367Y-99.0095
G1X190.8766Y-98.5369
G1 Z0F20000
(Start Block)

G1X23.5094Y-98.8496
G1 Z3.0F20000
(Plotting speed under)
G1 F10000

G1X48.4609Y-99.9886
G1X67.3496Y-95.0648
G1X90.8976Y-94.8002
G1X115.9235Y-96.0136
G1X147.2561Y-103.5336
G1X167.5286Y-99.9936
G1X190.9461Y-99.5986
G1 Z0F20000
(Start Block)

G1X23.1277Y-99.4601
G1 Z3.0F20000
(Plotting speed under)
G1 F10000

G1X48.4679Y-100.9877
G1X67.0683Y-95.7756
G1X90.8782Y-95.7730
G1X115.9466Y-97.0289
G1X147.3369Y-104.6066
G1X167.5205Y-100.9777
G1X191.0156Y-100.6603
G1 Z0F20000
(Start Block)

G1X22.7460Y-100.0706
G1 Z3.0F20000
(Plotting speed under)
G1 F10000

G1X48.4748Y-101.9868
G1X66.7870Y-96.4865
G1X90.8589Y-96.7459
G1X115.9698Y-98.0442
G1X147.4178Y-105.6797
G1X167.5124Y-101.9618
G1X191.0851Y-101.7219
G1 Z0F20000
(Start Block)

G1X22.3644Y-100.6811
G1 Z3.0F20000
(Plotting speed under)
G1 F10000

G1X48.4818Y-102.9860
G1X66.5056Y-97.1974
G1X90.8396Y-97.7187
G1X115.9929Y-99.0596
G1X147.4986Y-106.7527
G1X167.5043Y-102.9459
G1X191.1546Y-102.7836
G1 Z0F20000
(Start Block)

G1X21.9827Y-101.2917
G1 Z3.0F20000
(Plotting speed under)
G1 F10000

G1X48.4887Y-103.9851
G1X66.2243Y-97.9082
G1X90.8202Y-98.6915
G1X116.0161Y-100.0749
G1X147.5795Y-107.8258
G1X167.4962Y-103.9300
G1X191.2241Y-103.8453
G1 Z0F20000
(Start Block)

G1X21.6010Y-101.9022
G1 Z3.0F20000
(Plotting speed under)
G1 F10000

G1X48.4957Y-104.9843
G1X65.9430Y-98.6191
G1X90.8008Y-99.6644
G1X116.0392Y-101.0902
G1X147.6603Y-108.8988
G1X167.4881Y-104.9141
G1X191.2936Y-104.9070
G1 Z0F20000
(Start Block)

G1X21.2194Y-102.5127
G1 Z3.0F20000
(Plotting speed under)
G1 F10000

G1X48.5026Y-105.9834
G1X65.6617Y-99.3300
G1X90.7815Y-100.6372
G1X116.0623Y-102.1056
G1X147.7412Y-109.9719
G1X167.4800Y-105.8982
G1X191.3631Y-105.9687
G1 Z0F20000
(Start Block)

G1X20.8377Y-103.1232
G1 Z3.0F20000
(Plotting speed under)
G1 F10000

G1X48.5096Y-106.9826
G1X65.3803Y-100.0408
G1X116.0855Y-103.1209
G1X147.8220Y-111.0449
G1X167.4719Y-106.8823
G1X191.4326Y-107.0304
G1 Z0F20000
(Start Block)

G1X20.4561Y-103.7338
G1 Z3.0F20000
(Plotting speed under)
G1 F10000

G1X48.5165Y-107.9817
G1X65.0990Y-100.7517
G1X90.7428Y-102.5829
G1X116.1086Y-104.1362
G1X147.9029Y-112.1180
G1X167.4638Y-107.8663
G1X191.5021Y-108.0921
G1 Z0F20000
(Start Block)

G1X20.0744Y-104.3443
G1 Z3.0F20000
(Plotting speed under)
G1 F10000

G1X48.5235Y-108.9808
G1X64.8177Y-101.4626
G1X90.7235Y-103.5558
G1X116.1318Y-105.1516
G1X147.9838Y-113.1910
G1X167.4557Y-108.8504
G1X191.5716Y-109.1538
G1 Z0F20000
(Start Block)

G1X19.6927Y-104.9548
G1 Z3.0F20000
(Plotting speed under)
G1 F10000

G1X48.5305Y-109.9800
G1X64.5364Y-102.1734
G1X90.7041Y-104.5286
G1X116.1549Y-106.1669
G1X148.0646Y-114.2641
G1X167.4476Y-109.8345
G1X191.6411Y-110.2155
G1 Z0F20000
(Start Block)

G1X19.3110Y-105.5653
G1 Z3.0F20000
(Plotting speed under)
G1 F10000

G1X48.5374Y-110.9791
G1X64.2550Y-102.8843
G1X90.6848Y-105.5015
G1X116.1780Y-107.1822
G1X148.1454Y-115.3371
G1X167.4395Y-110.8186
G1X191.7106Y-111.2772
G1 Z0F20000
(Start Block)

G1X18.9294Y-106.1758
G1 Z3.0F20000
(Plotting speed under)
G1 F10000

G1X48.5444Y-111.9783
G1X63.9737Y-103.5951
G1X90.6655Y-106.4743
G1X116.2012Y-108.1975
G1X148.2263Y-116.4101
G1X167.4314Y-111.8027
G1X191.7801Y-112.3389
G1 Z0F20000
(Start Block)

G1X18.5477Y-106.7864
G1 Z3.0F20000
(Plotting speed under)
G1 F10000

G1X48.5513Y-112.9774
G1X63.6924Y-104.3060
G1X90.6461Y-107.4472
G1X116.2243Y-109.2129
G1X148.3072Y-117.4832
G1X167.4233Y-112.7868
G1X191.8496Y-113.4006
G1 Z0F20000
(Start Block)

G1X18.1661Y-107.3969
G1 Z3.0F20000
(Plotting speed under)
G1 F10000

G1X48.5583Y-113.9766
G1X63.4111Y-105.0169
G1X90.6268Y-108.4200
G1X116.2475Y-110.2282
G1X148.3880Y-118.5562
G1X167.4152Y-113.7709
G1X191.9191Y-114.4623
G1 Z0F20000
(Start Block)

G1X17.7844Y-108.0074
G1 Z3.0F20000
(Plotting speed under)
G1 F10000

G1X48.5652Y-114.9757
G1X63.1298Y-105.7277
G1X90.6074Y-109.3929
G1X116.2706Y-111.2435
G1X148.4689Y-119.6292
G1X167.4071Y-114.7550
G1X191.9886Y-115.5239
G1 Z0F20000
(Start Block)

G1X17.4027Y-108.6179
G1 Z3.0F20000
(Plotting speed under)
G1 F10000

G1X48.5722Y-115.9748
G1X62.8484Y-106.4386
G1X90.5881Y-110.3657
G1X116.2938Y-112.2589
G1X148.5497Y-120.7023
G1X167.3990Y-115.7391
G1X192.0581Y-116.5856
G1 Z0F20000
(Start Block)

G1X17.0211Y-109.2285
G1 Z3.0F20000
(Plotting speed under)
G1 F10000

G1X48.5791Y-116.9740
G1X62.5671Y-107.1495
G1X90.5687Y-111.3386
G1X116.3169Y-113.2742
G1X148.6306Y-121.7753
G1X167.3909Y-116.7231
G1X192.1276Y-117.6473
G1 Z0F20000
(Start Block)

G1X17.0213Y-110.2209
G1 Z3.0F20000
(Plotting speed under)
G1 F10000

G1X48.7355Y-118.1226
G1X62.5619Y-108.1365
G1X90.4612Y-112.2232
G1X116.5665Y-114.5159
G1X148.5118Y-122.6488
G1X167.5087Y-117.8331
G1X192.0806Y-118.5925
G1 Z0F20000
(Start Block)

G1X17.0216Y-111.2134
G1 Z3.0F20000
(Plotting speed under)
G1 F10000

G1X48.8919Y-119.2711
G1X62.5567Y-109.1235
G1X90.3537Y-113.1079
G1X116.8160Y-115.7577
G1X148.3931Y-123.5223
G1X167.6265Y-118.9431
G1X192.0336Y-119.5377
G1 Z0F20000
(Start Block)

G1X17.0219Y-112.2059
G1 Z3.0F20000
(Plotting speed under)
G1 F10000

G1X49.0482Y-120.4197
G1X62.5516Y-110.1105
G1X90.2462Y-113.9926
G1X117.0656Y-116.9994
G1X148.2743Y-124.3957
G1X167.7443Y-120.0531
G1X191.9866Y-120.4829
G1 Z0F20000
(Start Block)

G1X17.0222Y-113.1983
G1 Z3.0F20000
(Plotting speed under)
G1 F10000

G1X49.2046Y-121.5682
G1X62.5464Y-111.0975
G1X90.1387Y-114.8772
G1X117.3151Y-118.2412
G1X148.1556Y-125.2691
G1X167.8620Y-121.1630
G1X191.9396Y-121.4281
G1 Z0F20000
(Start Block)

G1X17.0224Y-114.1908
G1 Z3.0F20000
(Plotting speed under)
G1 F10000

G1X49.3610Y-122.7168
G1X62.5412Y-112.0845
G1X117.5647Y-119.4829
G1X148.0368Y-126.1426
G1X167.9798Y-122.2730
G1X191.8927Y-122.3733
G1 Z0F20000
(Start Block)

G1X17.0227Y-115.1832
G1 Z3.0F20000
(Plotting speed under)
G1 F10000

G1X49.5173Y-123.8653
G1X62.5360Y-113.0715
G1X89.9236Y-116.6466
G1X117.8142Y-120.7246
G1X147.9181Y-127.0160
G1X168.0976Y-123.3830
G1X191.8456Y-123.3185
G1 Z0F20000
(Start Block)

G1X17.0230Y-116.1757
G1 Z3.0F20000
(Plotting speed under)
G1 F10000

G1X49.6737Y-125.0139
G1X62.5308Y-114.0585
G1X89.8161Y-117.5313
G1X118.0638Y-121.9664
G1X147.7993Y-127.8894
G1X168.2154Y-124.4930
G1X191.7987Y-124.2637
G1 Z0F20000
(Start Block)

G1X17.0232Y-117.1681
G1 Z3.0F20000
(Plotting speed under)
G1 F10000

G1X49.8301Y-126.1625
G1X62.5256Y-115.0455
G1X89.7086Y-118.4159
G1X118.3133Y-123.2081
G1X147.6806Y-128.7629
G1X168.3331Y-125.6029
G1X191.7517Y-125.2089
G1 Z0F20000
(Start Block)

G1X17.0235Y-118.1606
G1 Z3.0F20000
(Plotting speed under)
G1 F10000

G1X49.9864Y-127.3110
G1X62.5204Y-116.0325
G1X89.6011Y-119.3006
G1X147.5618Y-129.6363
G1X168.4509Y-126.7129
G1X191.7047Y-126.1541
G1 Z0F20000
(Start Block)

G1X17.0238Y-119.1531
G1 Z3.0F20000
(Plotting speed under)
G1 F10000

G1X50.1428Y-128.4596
G1X62.5153Y-117.0195
G1X89.4936Y-120.1853
G1X118.8124Y-125.6916
G1X147.4431Y-130.5097
G1X168.5687Y-127.8228
G1X191.6577Y-127.0993
G1 Z0F20000
(Start Block)

G1X17.0240Y-120.1455
G1 Z3.0F20000
(Plotting speed under)
G1 F10000

G1X50.2992Y-129.6081
G1X62.5101Y-118.0065
G1X89.3861Y-121.0699
G1X119.0620Y-126.9334
G1X147.3243Y-131.3832
G1X168.6865Y-128.9328
G1X191.6107Y-128.0445
G1 Z0F20000
(Start Block)

G1X17.0243Y-121.1380
G1 Z3.0F20000
(Plotting speed under)
G1 F10000

G1X50.4555Y-130.7567
G1X62.5049Y-118.9935
G1X89.2786Y-121.9546
G1X119.3115Y-128.1751
G1X147.2056Y-132.2566
G1X168.8043Y-130.0428
G1X191.5637Y-128.9897
G1 Z0F20000
(Start Block)

G1X17.0246Y-122.1304
G1 Z3.0F20000
(Plotting speed under)
G1 F10000

G1X50.6119Y-131.9052
G1X62.4997Y-119.9805
G1X89.1710Y-122.8393
G1X119.5611Y-129.4169
G1X147.0868Y-133.1300
G1X168.9221Y-131.1528
G1X191.5167Y-129.9349
G1 Z0F20000
(Start Block)

G1X17.0248Y-123.1229
G1 Z3.0F20000
(Plotting speed under)
G1 F10000

G1X50.7683Y-133.0538
G1X62.4945Y-120.9675
G1X89.0635Y-123.7240
G1X119.8106Y-130.6586
G1X146.9681Y-134.0035
G1X169.0398Y-132.2627
G1X191.4697Y-130.8800
G1 Z0F20000
(Start Block)

G1X17.0251Y-124.1153
G1 Z3.0F20000
(Plotting speed under)
G1 F10000

G1X50.9246Y-134.2023
G1X62.4893Y-121.9545
G1X88.9560Y-124.6087
G1X120.0602Y-131.9003
G1X146.8493Y-134.8769
G1X191.4227Y-131.8252
G1 Z0F20000
(Start Block)

G1X17.0254Y-125.1078
G1 Z3.0F20000
(Plotting speed under)
G1 F10000

G1X51.0810Y-135.3509
G1X62.4841Y-122.9415
G1X88.8485Y-125.4933
G1X120.3097Y-133.1421
G1X146.7306Y-135.7503
G1X169.2754Y-134.4826
G1X191.3757Y-132.7704
G1 Z0F20000
(Start Block)

G1X17.0257Y-126.1003
G1 Z3.0F20000
(Plotting speed under)
G1 F10000

G1X51.2374Y-136.4995
G1X62.4790Y-123.9285
G1X88.7410Y-126.3780
G1X120.5593Y-134.3838
G1X146.6118Y-136.6238
G1X169.3932Y-135.5926
G1X191.3287Y-133.7156
G1 Z0F20000
(Start Block)

G1X17.0259Y-127.0927
G1 Z3.0F20000
(Plotting speed under)
G1 F10000

G1X51.3938Y-137.6480
G1X62.4738Y-124.9155
G1X88.6335Y-127.2627
G1X120.8088Y-135.6255
G1X146.4931Y-137.4972
G1X169.5109Y-136.7026
G1X191.2817Y-134.6608
G1 Z0F20000
(Start Block)

G1X17.0262Y-128.0852
G1 Z3.0F20000
(Plotting speed under)
G1 F10000

G1X51.5501Y-138.7966
G1X62.4686Y-125.9025
G1X88.5260Y-128.1474
G1X121.0584Y-136.8673
G1X146.3743Y-138.3706
G1X169.6287Y-137.8126
G1X191.2347Y-135.6060
G1 Z0F20000
(Start Block)

G1X17.0264Y-129.0776
G1 Z3.0F20000
(Plotting speed under)
G1 F10000

G1X51.7065Y-139.9451
G1X62.4634Y-126.8895
G1X88.4184Y-129.0320
G1X121.3080Y-138.1090
G1X146.2556Y-139.2441
G1X169.7465Y-138.9225
G1X191.1877Y-136.5512
G1 Z0F20000
(Start Block)

G1X17.0267Y-130.0701
G1 Z3.0F20000
(Plotting speed under)
G1 F10000

G1X51.8628Y-141.0937
G1X62.4582Y-127.8765
G1X88.3109Y-129.9167
G1X121.5575Y-139.3508
G1X146.1368Y-140.1175
G1X169.8643Y-140.0325
G1X191.1407Y-137.4964
G1 Z0F20000
(Start Block)

G1X17.0270Y-131.0625
G1 Z3.0F20000
(Plotting speed under)
G1 F10000

G1X52.0192Y-142.2422
G1X62.4530Y-128.8635
G1X88.2034Y-130.8014
G1X121.8071Y-140.5925
G1X146.0181Y-140.9910
G1X169.9821Y-141.1425
G1X191.0937Y-138.4416
G1 Z0F20000
(Start Block)

G1X17.0272Y-132.0550
G1 Z3.0F20000
(Plotting speed under)
G1 F10000

G1X52.1756Y-143.3908
G1X62.4478Y-129.8505
G1X88.0959Y-131.6861
G1X122.0566Y-141.8343
G1X145.8993Y-141.8644
G1X170.0998Y-142.2524
G1X191.0467Y-139.3868
G1 Z0F20000
(Start Block)

G1X17.0275Y-133.0475
G1 Z3.0F20000
(Plotting speed under)
G1 F10000

G1X52.3319Y-144.5393
G1X62.4427Y-130.8375
G1X87.9884Y-132.5707
G1X122.3062Y-143.0760
G1X145.7805Y-142.7378
G1X170.2176Y-143.3624
G1X190.9997Y-140.3320
G1 Z0F20000
(Start Block)

G1X17.2402Y-134.2523
G1 Z3.0F20000
(Plotting speed under)
G1 F10000

G1X52.0555Y-145.2551
G1X62.8267Y-132.2138
G1X88.0919Y-133.6664
G1X122.0542Y-143.8162
G1X145.4470Y-143.3965
G1X170.0926Y-144.2295
G1X190.7138Y-141.0382
G1 Z0F20000
(Start Block)

G1X17.4528Y-135.4571
G1 Z3.0F20000
(Plotting speed under)
G1 F10000

G1X51.7791Y-145.9709
G1X63.2107Y-133.5900
G1X88.1954Y-134.7621
G1X121.8021Y-144.5563
G1X145.1135Y-144.0552
G1X169.9675Y-145.0967
G1X190.4278Y-141.7444
G1 Z0F20000
(Start Block)

G1X17.6655Y-136.6620
G1 Z3.0F20000
(Plotting speed under)
G1 F10000

G1X51.5027Y-146.6866
G1X63.5948Y-134.9662
G1X88.2989Y-135.8578
G1X121.5502Y-145.2965
G1X144.7800Y-144.7139
G1X169.8425Y-145.9638
G1X190.1419Y-142.4507
G1 Z0F20000
(Start Block)

G1X17.8781Y-137.8668
G1 Z3.0F20000
(Plotting speed under)
G1 F10000

G1X51.2262Y-147.4024
G1X63.9788Y-136.3425
G1X88.4024Y-136.9535
G1X121.2981Y-146.0367
G1X144.4465Y-145.3725
G1X169.7174Y-146.8309
G1X189.8559Y-143.1569
G1 Z0F20000
(Start Block)

G1X18.0908Y-139.0717
G1 Z3.0F20000
(Plotting speed under)
G1 F10000

G1X50.9498Y-148.1181
G1X64.3629Y-137.7187
G1X88.5059Y-138.0492
G1X121.0461Y-146.7769
G1X144.1130Y-146.0312
G1X169.5923Y-147.6981
G1X189.5700Y-143.8632
G1 Z0F20000
(Start Block)

G1X18.3035Y-140.2765
G1 Z3.0F20000
(Plotting speed under)
G1 F10000

G1X50.6734Y-148.8339
G1X64.7469Y-139.0949
G1X88.6094Y-139.1449
G1X120.7941Y-147.5171
G1X143.7794Y-146.6899
G1X169.4673Y-148.5652
G1X189.2841Y-144.5694
G1 Z0F20000
(Start Block)

G1X18.5161Y-141.4814
G1 Z3.0F20000
(Plotting speed under)
G1 F10000

G1X50.3969Y-149.5496
G1X65.1310Y-140.4712
G1X88.7129Y-140.2406
G1X120.5421Y-148.2573
G1X143.4459Y-147.3485
G1X169.3422Y-149.4323
G1X188.9981Y-145.2757
G1 Z0F20000
(Start Block)

G1X18.7288Y-142.6862
G1 Z3.0F20000
(Plotting speed under)
G1 F10000

G1X50.1205Y-150.2654
G1X65.5150Y-141.8474
G1X88.8164Y-141.3363
G1X120.2901Y-148.9974
G1X143.1124Y-148.0072
G1X169.2172Y-150.2995
G1X188.7122Y-145.9819
G1 Z0F20000
(Start Block)

G1X18.9414Y-143.8911
G1 Z3.0F20000
(Plotting speed under)
G1 F10000

G1X49.8441Y-150.9811
G1X65.8990Y-143.2236
G1X88.9199Y-142.4320
G1X120.0381Y-149.7376
G1X142.7789Y-148.6659
G1X169.0922Y-151.1666
G1X188.4262Y-146.6882
G1 Z0F20000
(Start Block)

G1X19.1541Y-145.0959
G1 Z3.0F20000
(Plotting speed under)
G1 F10000

G1X49.5677Y-151.6969
G1X66.2831Y-144.5998
G1X89.0234Y-143.5277
G1X119.7861Y-150.4778
G1X142.4454Y-149.3245
G1X168.9671Y-152.0337
G1X188.1403Y-147.3944
G1 Z0F20000
(Start Block)

G1X19.3667Y-146.3007
G1 Z3.0F20000
(Plotting speed under)
G1 F10000

G1X49.2912Y-152.4127
G1X66.6671Y-145.9761
G1X89.1270Y-144.6234
G1X119.5341Y-151.2180
G1X142.1119Y-149.9832
G1X168.8420Y-152.9009
G1X187.8544Y-148.1007
G1 Z0F20000
(Start Block)

G1X19.5794Y-147.5056
G1 Z3.0F20000
(Plotting speed under)
G1 F10000

G1X49.0148Y-153.1284
G1X67.0512Y-147.3523
G1X89.2305Y-145.7191
G1X119.2821Y-151.9581
G1X141.7784Y-150.6419
G1X168.7170Y-153.7680
G1X187.5684Y-148.8069
G1 Z0F20000
(Start Block)

G1X19.7921Y-148.7104
G1 Z3.0F20000
(Plotting speed under)
G1 F10000

G1X48.7383Y-153.8442
G1X67.4352Y-148.7285
G1X89.3340Y-146.8148
G1X119.0301Y-152.6983
G1X141.4448Y-151.3006
G1X168.5919Y-154.6352
G1X187.2825Y-149.5132
G1 Z0F20000
(Start Block)

G1X20.0047Y-149.9153
G1 Z3.0F20000
(Plotting speed under)
G1 F10000

G1X48.4619Y-154.5600
G1X67.8193Y-150.1048
G1X89.4375Y-147.9104
G1X118.7781Y-153.4385
G1X141.1113Y-151.9592
G1X168.4669Y-155.5023
G1X186.9965Y-150.2194
G1 Z0F20000
(Start Block)

G1X20.2174Y-151.1201
G1 Z3.0F20000
(Plotting speed under)
G1 F10000

G1X48.1855Y-155.2757
G1X68.2033Y-151.4810
G1X89.5410Y-149.0061
G1X118.5260Y-154.1787
G1X140.7778Y-152.6179
G1X168.3418Y-156.3694
G1X186.7106Y-150.9257
G1 Z0F20000
(Start Block)

G1X20.4300Y-152.3250
G1 Z3.0F20000
(Plotting speed under)
G1 F10000

G1X47.9091Y-155.9915
G1X68.5873Y-152.8572
G1X89.6445Y-150.1018
G1X118.2741Y-154.9189
G1X140.4443Y-153.2766
G1X168.2168Y-157.2366
G1X186.4247Y-151.6319
G1 Z0F20000
(Start Block)

G1X20.6427Y-153.5298
G1 Z3.0F20000
(Plotting speed under)
G1 F10000

G1X47.6326Y-156.7072
G1X68.9714Y-154.2335
G1X89.7480Y-151.1975
G1X118.0220Y-155.6591
G1X140.1108Y-153.9352
G1X168.0917Y-158.1037
G1X186.1387Y-152.3382
G1 Z0F20000
(Start Block)

G1X20.8553Y-154.7347
G1 Z3.0F20000
(Plotting speed under)
G1 F10000

G1X47.3562Y-157.4230
G1X69.3554Y-155.6097
G1X89.8515Y-152.2932
G1X117.7700Y-156.3992
G1X139.7772Y-154.5939
G1X167.9667Y-158.9708
G1X185.8528Y-153.0444
G1 Z0F20000
(Start Block)

G1X21.0680Y-155.9395
G1 Z3.0F20000
(Plotting speed under)
G1 F10000

G1X47.0798Y-158.1387
G1X69.7394Y-156.9859
G1X89.9550Y-153.3889
G1X117.5180Y-157.1394
G1X139.4437Y-155.2526
G1X167.8416Y-159.8380
G1X185.5669Y-153.7507
G1 Z0F20000
(Start Block)

G1X21.2807Y-157.1444
G1 Z3.0F20000
(Plotting speed under)
G1 F10000

G1X46.8033Y-158.8545
G1X70.1235Y-158.3621
G1X90.0585Y-154.4846
G1X117.2660Y-157.8796
G1X139.1102Y-155.9112
G1X167.7166Y-160.7051
G1X185.2809Y-154.4569
G1 Z0F20000
(Start Block)

G1X21.4933Y-158.3492
G1 Z3.0F20000
(Plotting speed under)
G1 F10000

G1X46.5269Y-159.5702
G1X70.5075Y-159.7384
G1X90.1620Y-155.5803
G1X117.0140Y-158.6198
G1X138.7767Y-156.5699
G1X167.5915Y-161.5722
G1X184.9950Y-155.1632
G1 Z0F20000
(Start Block)

G1X21.7060Y-159.5540
G1 Z3.0F20000
(Plotting speed under)
G1 F10000

G1X70.8916Y-161.1146
G1X90.2655Y-156.6760
G1X116.7620Y-159.3600
G1X138.4432Y-157.2286
G1X167.4664Y-162.4394
G1X184.7090Y-155.8694
G1 Z0F20000
(Start Block)

G1X21.9186Y-160.7589
G1 Z3.0F20000
(Plotting speed under)
G1 F10000

G1X45.9741Y-161.0018
G1X71.2756Y-162.4908
G1X90.3690Y-157.7717
G1X116.5100Y-160.1001
G1X138.1096Y-157.8873
G1X167.3414Y-163.3065
G1X184.4231Y-156.5757
G1 Z0F20000
(Start Block)

G1X22.1313Y-161.9637
G1 Z3.0F20000
(Plotting speed under)
G1 F10000

G1X45.6976Y-161.7175
G1X71.6597Y-163.8671
G1X90.4725Y-158.8674
G1X116.2580Y-160.8403
G1X137.7761Y-158.5459
G1X167.2163Y-164.1736
G1X184.1372Y-157.2819
G1 Z0F20000
(Start Block)

G1X22.1903Y-163.0149
G1 Z3.0F20000
(Plotting speed under)
G1 F10000

G1X45.4871Y-162.4992
G1X71.6652Y-164.8648
G1X90.3368Y-159.7239
G1X116.2533Y-161.8278
G1X138.0653Y-159.8273
G1X166.9610Y-164.9104
G1X183.9761Y-158.1130
G1 Z0F20000
(Start Block)

G1X22.2492Y-164.0661
G1 Z3.0F20000
(Plotting speed under)
G1 F10000

G1X45.2765Y-163.2808
G1X71.6708Y-165.8626
G1X90.2011Y-160.5803
G1X116.2486Y-162.8153
G1X138.3544Y-161.1086
G1X166.7056Y-165.6472
G1X183.8150Y-158.9441
G1 Z0F20000
(Start Block)

G1X22.3082Y-165.1173
G1 Z3.0F20000
(Plotting speed under)
G1 F10000

G1X45.0659Y-164.0624
G1X71.6764Y-166.8604
G1X90.0654Y-161.4368
G1X116.2439Y-163.8028
G1X138.6436Y-162.3899
G1X166.4502Y-166.3841
G1X183.6539Y-159.7752
G1 Z0F20000
(Start Block)

G1X22.3673Y-166.1685
G1 Z3.0F20000
(Plotting speed under)
G1 F10000

G1X44.8554Y-164.8440
G1X71.6820Y-167.8582
G1X89.9297Y-162.2933
G1X116.2392Y-164.7903
G1X138.9327Y-163.6713
G1X166.1948Y-167.1209
G1X183.4928Y-160.6063
G1 Z0F20000
(Start Block)

G1X22.4262Y-167.2196
G1 Z3.0F20000
(Plotting speed under)
G1 F10000

G1X44.6448Y-165.6257
G1X71.6876Y-168.8559
G1X89.7940Y-163.1498
G1X116.2345Y-165.7777
G1X139.2218Y-164.9526
G1X165.9394Y-167.8577
G1X183.3317Y-161.4374
G1 Z0F20000
(Start Block)

G1X22.4852Y-168.2708
G1 Z3.0F20000
(Plotting speed under)
G1 F10000

G1X44.4343Y-166.4073
G1X71.6932Y-169.8537
G1X89.6583Y-164.0063
G1X116.2297Y-166.7652
G1X139.5110Y-166.2339
G1X165.6841Y-168.5945
G1X183.1706Y-162.2685
G1 Z0F20000
(Start Block)

G1X22.5442Y-169.3220
G1 Z3.0F20000
(Plotting speed under)
G1 F10000

G1X44.2237Y-167.1889
G1X71.6988Y-170.8515
G1X89.5226Y-164.8628
G1X116.2251Y-167.7527
G1X139.8001Y-167.5153
G1X165.4287Y-169.3313
G1X183.0095Y-163.0996
G1 Z0F20000
(Start Block)

G1X22.6032Y-170.3732
G1 Z3.0F20000
(Plotting speed under)
G1 F10000

G1X44.0131Y-167.9706
G1X71.7043Y-171.8493
G1X89.3869Y-165.7192
G1X116.2204Y-168.7402
G1X140.0893Y-168.7966
G1X165.1733Y-170.0681
G1X182.8485Y-163.9307
G1 Z0F20000
(Start Block)

G1X22.6622Y-171.4243
G1 Z3.0F20000
(Plotting speed under)
G1 F10000

G1X43.8026Y-168.7522
G1X71.7099Y-172.8470
G1X89.2512Y-166.5757
G1X116.2156Y-169.7277
G1X140.3784Y-170.0779
G1X164.9179Y-170.8049
G1X182.6873Y-164.7618
G1 Z0F20000
(Start Block)

G1X22.7212Y-172.4755
G1 Z3.0F20000
(Plotting speed under)
G1 F10000

G1X43.5920Y-169.5338
G1X71.7155Y-173.8448
G1X89.1155Y-167.4322
G1X116.2109Y-170.7152
G1X140.6676Y-171.3593
G1X164.6625Y-171.5417
G1X182.5263Y-165.5929
G1 Z0F20000
(Start Block)

G1X22.7802Y-173.5267
G1 Z3.0F20000
(Plotting speed under)
G1 F10000

G1X43.3815Y-170.3154
G1X71.7211Y-174.8426
G1X88.9798Y-168.2887
G1X116.2063Y-171.7027
G1X140.9567Y-172.6406
G1X164.4071Y-172.2785
G1X182.3652Y-166.4240
G1 Z0F20000
(Start Block)

G1X22.8392Y-174.5779
G1 Z3.0F20000
(Plotting speed under)
G1 F10000

G1X43.1709Y-171.0971
G1X71.7267Y-175.8404
G1X88.8441Y-169.1452
G1X116.2015Y-172.6902
G1X141.2459Y-173.9219
G1X164.1518Y-173.0153
G1X182.2041Y-167.2551
G1 Z0F20000
(Start Block)

G1X22.8981Y-175.6291
G1 Z3.0F20000
(Plotting speed under)
G1 F10000

G1X42.9603Y-171.8787
G1X71.7323Y-176.8381
G1X88.7084Y-170.0017
G1X116.1968Y-173.6776
G1X141.5350Y-175.2033
G1X163.8964Y-173.7521
G1X182.0430Y-168.0862
G1 Z0F20000
(Start Block)

G1X22.9571Y-176.6802
G1 Z3.0F20000
(Plotting speed under)
G1 F10000

G1X42.7498Y-172.6604
G1X71.7378Y-177.8359
G1X88.5727Y-170.8581
G1X116.1921Y-174.6651
G1X141.8242Y-176.4846
G1X163.6410Y-174.4889
G1X181.8819Y-168.9173
G1 Z0F20000
(Start Block)

G1X23.0161Y-177.7314
G1 Z3.0F20000
(Plotting speed under)
G1 F10000

G1X42.5392Y-173.4420
G1X71.7434Y-178.8337
G1X88.4369Y-171.7146
G1X116.1874Y-175.6526
G1X142.1133Y-177.7659
G1X163.3856Y-175.2258
G1X181.7208Y-169.7484
G1 Z0F20000
(Start Block)

G1X23.0751Y-178.7826
G1 Z3.0F20000
(Plotting speed under)
G1 F10000

G1X42.3287Y-174.2236
G1X71.7490Y-179.8314
G1X88.3012Y-172.5711
G1X116.1827Y-176.6401
G1X142.4024Y-179.0473
G1X163.1302Y-175.9626
G1X181.5597Y-170.5795
G1 Z0F20000
(Start Block)

G1X23.1341Y-179.8338
G1 Z3.0F20000
(Plotting speed under)
G1 F10000

G1X42.1181Y-175.0052
G1X71.7546Y-180.8292
G1X88.1655Y-173.4276
G1X116.1780Y-177.6276
G1X142.6916Y-180.3286
G1X162.8749Y-176.6994
G1X181.3986Y-171.4106
G1 Z0F20000
(Start Block)

G1X23.1931Y-180.8850
G1 Z3.0F20000
(Plotting speed under)
G1 F10000

G1X41.9075Y-175.7869
G1X71.7602Y-181.8270
G1X88.0298Y-174.2841
G1X116.1733Y-178.6151
G1X142.9807Y-181.6099
G1X162.6195Y-177.4362
G1X181.2376Y-172.2417
G1 Z0F20000
(Start Block)

G1X23.2521Y-181.9361
G1 Z3.0F20000
(Plotting speed under)
G1 F10000

G1X41.6970Y-176.5685
G1X71.7658Y-182.8247
G1X87.8941Y-175.1406
G1X116.1686Y-179.6026
G1X143.2699Y-182.8913
G1X162.3641Y-178.1730
G1X181.0765Y-173.0728
G1 Z0F20000
(Start Block)

G1X23.3111Y-182.9873
G1 Z3.0F20000
(Plotting speed under)
G1 F10000

G1X41.4864Y-177.3501
G1X71.7713Y-183.8225
G1X87.7584Y-175.9971
G1X116.1639Y-180.5900
G1X143.5590Y-184.1726
G1X162.1087Y-178.9098
G1X180.9154Y-173.9039
G1 Z0F20000
(Start Block)

G1X23.3700Y-184.0385
G1 Z3.0F20000
(Plotting speed under)
G1 F10000

G1X41.2759Y-178.1318
G1X71.7769Y-184.8203
G1X87.6227Y-176.8535
G1X116.1592Y-181.5775
G1X143.8482Y-185.4539
G1X161.8533Y-179.6466
G1X180.7543Y-174.7350
G1 Z0F20000
(Start Block)

G1X23.4291Y-185.0897
G1 Z3.0F20000
(Plotting speed under)
G1 F10000

G1X41.0653Y-178.9134
G1X71.7825Y-185.8181
G1X87.4870Y-177.7100
G1X116.1545Y-182.5650
G1X144.1373Y-186.7353
G1X161.5979Y-180.3834
G1X180.5932Y-175.5661
G1 Z0F20000
(Start Block)

G1X23.4880Y-186.1408
G1 Z3.0F20000
(Plotting speed under)
G1 F10000

G1X40.8547Y-179.6950
G1X71.7881Y-186.8158
G1X87.3513Y-178.5665
G1X116.1498Y-183.5525
G1X144.4264Y-188.0166
G1X161.3426Y-181.1202
G1X180.4321Y-176.3972
G1 Z0F20000
(Start Block)

G1X23.5470Y-187.1920
G1 Z3.0F20000
(Plotting speed under)
G1 F10000

G1X40.6442Y-180.4766
G1X71.7937Y-187.8136
G1X87.2156Y-179.4230
G1X116.1451Y-184.5400
G1X144.7156Y-189.2979
G1X161.0872Y-181.8570
G1X180.2710Y-177.2283
G1 Z0F20000
(Start Block)

G1X23.3286Y-187.9658
G1 Z3.0F20000
(Plotting speed under)
G1 F10000

G1X40.6012Y-181.4259
G1X71.4557Y-188.4678
G1X87.0734Y-180.2730
G1X116.0735Y-185.4606
G1X144.4877Y-190.0623
G1X160.9105Y-182.6725
G1X180.3414Y-178.2908
G1 Z0F20000
(Start Block)

G1X23.1103Y-188.7396
G1 Z3.0F20000
(Plotting speed under)
G1 F10000

G1X40.5583Y-182.3751
G1X71.1176Y-189.1219
G1X86.9312Y-181.1230
G1X116.0019Y-186.3812
G1X144.2599Y-190.8266
G1X160.7337Y-183.4879
G1X180.4117Y-179.3534
G1 Z0F20000
(Start Block)

G1X22.8919Y-189.5134
G1 Z3.0F20000
(Plotting speed under)
G1 F10000

G1X40.5154Y-183.3244
G1X70.7796Y-189.7761
G1X86.7891Y-181.9730
G1X115.9303Y-187.3018
G1X144.0321Y-191.5910
G1X160.5570Y-184.3034
G1X180.4820Y-180.4159
G1 Z0F20000
(Start Block)

G1X22.6735Y-190.2873
G1 Z3.0F20000
(Plotting speed under)
G1 F10000

G1X40.4724Y-184.2736
G1X70.4416Y-190.4303
G1X86.6469Y-182.8230
G1X115.8587Y-188.2224
G1X143.8042Y-192.3553
G1X160.3803Y-185.1189
G1X180.5523Y-181.4784
G1 Z0F20000
(Start Block)

G1X22.4552Y-191.0611
G1 Z3.0F20000
(Plotting speed under)
G1 F10000

G1X40.4294Y-185.2228
G1X70.1036Y-191.0844
G1X86.5047Y-183.6730
G1X115.7872Y-189.1430
G1X143.5764Y-193.1197
G1X160.2035Y-185.9343
G1X180.6227Y-182.5409
G1 Z0F20000
(Start Block)

G1X22.2368Y-191.8349
G1 Z3.0F20000
(Plotting speed under)
G1 F10000

G1X40.3865Y-186.1721
G1X69.7656Y-191.7386
G1X86.3625Y-184.5230
G1X115.7156Y-190.0636
G1X143.3486Y-193.8840
G1X160.0268Y-186.7498
G1X180.6930Y-183.6034
G1 Z0F20000
(Start Block)

G1X22.0184Y-192.6087
G1 Z3.0F20000
(Plotting speed under)
G1 F10000

G1X40.3436Y-187.1213
G1X69.4275Y-192.3928
G1X86.2203Y-185.3730
G1X115.6440Y-190.9842
G1X143.1207Y-194.6484
G1X159.8501Y-187.5653
G1X180.7633Y-184.6659
G1 Z0F20000
(Start Block)

G1X21.8000Y-193.3825
G1 Z3.0F20000
(Plotting speed under)
G1 F10000

G1X40.3006Y-188.0706
G1X69.0895Y-193.0469
G1X86.0782Y-186.2231
G1X115.5724Y-191.9048
G1X142.8929Y-195.4127
G1X159.6734Y-188.3807
G1X180.8337Y-185.7285
G1 Z0F20000
(Start Block)

G1X21.5817Y-194.1564
G1 Z3.0F20000
(Plotting speed under)
G1 F10000

G1X40.2576Y-189.0198
G1X68.7515Y-193.7011
G1X85.9360Y-187.0731
G1X115.5008Y-192.8254
G1X142.6651Y-196.1771
G1X159.4967Y-189.1962
G1X180.9040Y-186.7910
G1 Z0F20000
(Start Block)

G1X21.3633Y-194.9302
G1 Z3.0F20000
(Plotting speed under)
G1 F10000

G1X40.2147Y-189.9690
G1X68.4135Y-194.3553
G1X85.7938Y-187.9231
G1X115.4293Y-193.7460
G1X142.4372Y-196.9414
G1X159.3199Y-190.0117
G1X180.9743Y-187.8535
G1 Z0F20000
(Start Block)

G1X21.1449Y-195.7040
G1 Z3.0F20000
(Plotting speed under)
G1 F10000

G1X40.1718Y-190.9183
G1X68.0754Y-195.0094
G1X85.6516Y-188.7731
G1X115.3577Y-194.6666
G1X142.2094Y-197.7058
G1X159.1432Y-190.8271
G1X181.0447Y-188.9160
G1 Z0F20000
(Start Block)

G1X20.9266Y-196.4778
G1 Z3.0F20000
(Plotting speed under)
G1 F10000

G1X40.1288Y-191.8675
G1X67.7374Y-195.6636
G1X85.5094Y-189.6231
G1X115.2861Y-195.5872
G1X141.9816Y-198.4702
G1X158.9665Y-191.6426
G1X181.1150Y-189.9785
G1 Z0F20000
(Start Block)

G1X20.7082Y-197.2516
G1 Z3.0F20000
(Plotting speed under)
G1 F10000

G1X40.0859Y-192.8167
G1X67.3994Y-196.3178
G1X85.3673Y-190.4731
G1X115.2145Y-196.5078
G1X141.7537Y-199.2345
G1X158.7898Y-192.4580
G1X181.1853Y-191.0410
G1 Z0F20000
(Start Block)

G1X20.4898Y-198.0254
G1 Z3.0F20000
(Plotting speed under)
G1 F10000

G1X40.0429Y-193.7660
G1X67.0614Y-196.9719
G1X85.2251Y-191.3231
G1X115.1429Y-197.4284
G1X141.5259Y-199.9989
G1X158.6131Y-193.2735
G1X181.2556Y-192.1036
G1 Z0F20000
(Start Block)

G1X20.2714Y-198.7992
G1 Z3.0F20000
(Plotting speed under)
G1 F10000

G1X40.0000Y-194.7152
G1X66.7233Y-197.6261
G1X85.0829Y-192.1731
G1X115.0713Y-198.3490
G1X141.2980Y-200.7632
G1X158.4363Y-194.0890
G1X181.3260Y-193.1661
G1 Z0F20000
(Start Block)

G1X20.0531Y-199.5731
G1 Z3.0F20000
(Plotting speed under)
G1 F10000

G1X39.9570Y-195.6645
G1X66.3853Y-198.2803
G1X84.9407Y-193.0231
G1X114.9997Y-199.2696
G1X141.0702Y-201.5275
G1X158.2596Y-194.9044
G1X181.3963Y-194.2286
G1 Z0F20000
(Start Block)

G1X19.8347Y-200.3469
G1 Z3.0F20000
(Plotting speed under)
G1 F10000

G1X39.9141Y-196.6137
G1X66.0473Y-198.9344
G1X84.7985Y-193.8731
G1X114.9282Y-200.1902
G1X140.8424Y-202.2919
G1X158.0829Y-195.7199
G1X181.4666Y-195.2911
G1 Z0F20000
(Start Block)

G1X19.6163Y-201.1207
G1 Z3.0F20000
(Plotting speed under)
G1 F10000

G1X39.8711Y-197.5629
G1X65.7093Y-199.5886
G1X84.6563Y-194.7231
G1X114.8566Y-201.1108
G1X140.6145Y-203.0563
G1X157.9061Y-196.5354
G1X181.5370Y-196.3536
G1 Z0F20000
(Start Block)

G1X19.3980Y-201.8945
G1 Z3.0F20000
(Plotting speed under)
G1 F10000

G1X39.8282Y-198.5122
G1X65.3712Y-200.2428
G1X84.5142Y-195.5731
G1X114.7850Y-202.0314
G1X140.3867Y-203.8206
G1X157.7294Y-197.3508
G1X181.6073Y-197.4162
G1 Z0F20000
(Start Block)

G1X19.1796Y-202.6683
G1 Z3.0F20000
(Plotting speed under)
G1 F10000

G1X39.7852Y-199.4614
G1X65.0332Y-200.8969
G1X84.3720Y-196.4231
G1X114.7134Y-202.9520
G1X140.1589Y-204.5850
G1X157.5527Y-198.1663
G1X181.6776Y-198.4787
G1 Z0F20000
(Start Block)

G1X18.9612Y-203.4422
G1 Z3.0F20000
(Plotting speed under)
G1 F10000

G1X39.7423Y-200.4107
G1X64.6952Y-201.5511
G1X84.2298Y-197.2731
G1X114.6418Y-203.8726
G1X139.9310Y-205.3493
G1X157.3760Y-198.9817
G1X181.7479Y-199.5412
G1 Z0F20000
(Start Block)

G1X18.7429Y-204.2160
G1 Z3.0F20000
(Plotting speed under)
G1 F10000

G1X39.6993Y-201.3599
G1X64.3572Y-202.2053
G1X84.0876Y-198.1231
G1X114.5702Y-204.7932
G1X139.7032Y-206.1137
G1X157.1993Y-199.7972
G1X181.8183Y-200.6037
G1 Z0F20000
(Start Block)

G1X18.5245Y-204.9898
G1 Z3.0F20000
(Plotting speed under)
G1 F10000

G1X39.6564Y-202.3092
G1X64.0192Y-202.8594
G1X83.9454Y-198.9732
G1X114.4986Y-205.7138
G1X139.4753Y-206.8780
G1X157.0225Y-200.6127
G1X181.8886Y-201.6662
G1 Z0F20000
(Start Block)

G1X18.3061Y-205.7636
G1 Z3.0F20000
(Plotting speed under)
G1 F10000

G1X39.6134Y-203.2584
G1X63.6811Y-203.5136
G1X83.8032Y-199.8232
G1X114.4270Y-206.6344
G1X139.2475Y-207.6424
G1X156.8458Y-201.4282
G1X181.9590Y-202.7288
G1 Z0F20000
(Start Block)

G1X18.5290Y-206.9787
G1 Z3.0F20000
(Plotting speed under)
G1 F10000

G1X39.7104Y-204.3476
G1X63.8768Y-204.7014
G1X84.2369Y-201.2490
G1X114.2760Y-207.4756
G1X138.9513Y-208.3383
G1X157.0526Y-202.6271
G1X182.3350Y-204.0970
G1 Z0F20000
(Start Block)

G1X18.7519Y-208.1938
G1 Z3.0F20000
(Plotting speed under)
G1 F10000

G1X39.8074Y-205.4368
G1X64.0724Y-205.8893
G1X84.6706Y-202.6749
G1X114.1250Y-208.3168
G1X138.6551Y-209.0343
G1X157.2594Y-203.8261
G1X182.7111Y-205.4652
G1 Z0F20000
(Start Block)

G1X18.9748Y-209.4089
G1 Z3.0F20000
(Plotting speed under)
G1 F10000

G1X39.9044Y-206.5259
G1X64.2681Y-207.0771
G1X85.1042Y-204.1007
G1X113.9740Y-209.1579
G1X138.3589Y-209.7303
G1X157.4661Y-205.0250
G1X183.0871Y-206.8334
G1 Z0F20000
(Start Block)

G1X19.1977Y-210.6239
G1 Z3.0F20000
(Plotting speed under)
G1 F10000

G1X40.0014Y-207.6151
G1X64.4637Y-208.2649
G1X85.5379Y-205.5266
G1X113.8230Y-209.9991
G1X138.0627Y-210.4263
G1X157.6729Y-206.2240
G1X183.4631Y-208.2017
G1 Z0F20000
(Start Block)

G1X19.4206Y-211.8390
G1 Z3.0F20000
(Plotting speed under)
G1 F10000

G1X40.0984Y-208.7043
G1X64.6594Y-209.4527
G1X85.9716Y-206.9524
G1X113.6719Y-210.8403
G1X137.7665Y-211.1223
G1X157.8797Y-207.4230
G1X183.8392Y-209.5699
G1 Z0F20000
(Start Block)

G1X19.6435Y-213.0541
G1 Z3.0F20000
(Plotting speed under)
G1 F10000

G1X40.1954Y-209.7935
G1X64.8550Y-210.6406
G1X86.4052Y-208.3782
G1X113.5209Y-211.6814
G1X137.4703Y-211.8183
G1X158.0865Y-208.6219
G1X184.2152Y-210.9382
G1 Z0F20000
(Start Block)

G1X19.8664Y-214.2692
G1 Z3.0F20000
(Plotting speed under)
G1 F10000

G1X40.2924Y-210.8826
G1X65.0507Y-211.8284
G1X86.8389Y-209.8041
G1X113.3699Y-212.5226
G1X137.1741Y-212.5143
G1X158.2932Y-209.8209
G1X184.5913Y-212.3064
G1 Z0F20000
(Start Block)

G1X20.0892Y-215.4842
G1 Z3.0F20000
(Plotting speed under)
G1 F10000

G1X40.3894Y-211.9718
G1X65.2463Y-213.0162
G1X87.2725Y-211.2300
G1X113.2189Y-213.3638
G1X136.8779Y-213.2103
G1X158.5000Y-211.0198
G1X184.9673Y-213.6747
G1 Z0F20000
(Start Block)

G1X20.3122Y-216.6993
G1 Z3.0F20000
(Plotting speed under)
G1 F10000

G1X40.4864Y-213.0610
G1X65.4419Y-214.2041
G1X87.7062Y-212.6558
G1X113.0678Y-214.2049
G1X136.5817Y-213.9063
G1X158.7068Y-212.2188
G1X185.3434Y-215.0429
G1 Z0F20000
(Start Block)

G1X20.5350Y-217.9144
G1 Z3.0F20000
(Plotting speed under)
G1 F10000

G1X40.5833Y-214.1502
G1X65.6376Y-215.3919
G1X88.1399Y-214.0817
G1X112.9168Y-215.0461
G1X136.2855Y-214.6023
G1X158.9136Y-213.4178
G1X185.7194Y-216.4111
G1 Z0F20000
(Start Block)

G1X20.7579Y-219.1295
G1 Z3.0F20000
(Plotting speed under)
G1 F10000

G1X40.6803Y-215.2393
G1X65.8332Y-216.5797
G1X88.5735Y-215.5075
G1X112.7658Y-215.8873
G1X159.1203Y-214.6168
G1X186.0955Y-217.7794
G1 Z0F20000
(Start Block)

G1X20.9808Y-220.3446
G1 Z3.0F20000
(Plotting speed under)
G1 F10000

G1X40.7773Y-216.3285
G1X66.0288Y-217.7675
G1X89.0072Y-216.9333
G1X112.6148Y-216.7284
G1X135.6931Y-215.9942
G1X159.3271Y-215.8157
G1X186.4716Y-219.1476
G1 Z0F20000
(Start Block)

G1X21.2037Y-221.5597
G1 Z3.0F20000
(Plotting speed under)
G1 F10000

G1X40.8743Y-217.4177
G1X66.2245Y-218.9554
G1X89.4409Y-218.3592
G1X135.3969Y-216.6902
G1X159.5339Y-217.0147
G1X186.8476Y-220.5159
G1 Z0F20000
(Start Block)

G1X21.4266Y-222.7748
G1 Z3.0F20000
(Plotting speed under)
G1 F10000

G1X40.9713Y-218.5069
G1X66.4201Y-220.1432
G1X89.8745Y-219.7850
G1X112.3127Y-218.4108
G1X135.1007Y-217.3862
G1X159.7407Y-218.2136
G1X187.2236Y-221.8841
G1 Z0F20000
(Start Block)

G1X21.6495Y-223.9899
G1 Z3.0F20000
(Plotting speed under)
G1 F10000

G1X41.0683Y-219.5961
G1X66.6158Y-221.3311
G1X90.3082Y-221.2109
G1X112.1617Y-219.2519
G1X134.8045Y-218.0822
G1X159.9474Y-219.4126
G1X187.5997Y-223.2523
G1 Z0F20000
(Start Block)

G1X21.8724Y-225.2049
G1 Z3.0F20000
(Plotting speed under)
G1 F10000

G1X41.1653Y-220.6853
G1X66.8114Y-222.5189
G1X90.7418Y-222.6368
G1X112.0107Y-220.0931
G1X134.5083Y-218.7782
G1X160.1542Y-220.6116
G1X187.9757Y-224.6206
G1 Z0F20000
(Start Block)

G1X22.0953Y-226.4200
G1 Z3.0F20000
(Plotting speed under)
G1 F10000

G1X41.2623Y-221.7745
G1X67.0071Y-223.7067
G1X91.1755Y-224.0626
G1X111.8597Y-220.9343
G1X134.2121Y-219.4742
G1X160.3610Y-221.8105
G1X188.3518Y-225.9888
G1 Z0F20000
(Start Block)

G1X22.3182Y-227.6351
G1 Z3.0F20000
(Plotting speed under)
G1 F10000

G1X41.3593Y-222.8636
G1X67.2027Y-224.8946
G1X91.6091Y-225.4885
G1X111.7087Y-221.7755
G1X133.9159Y-220.1702
G1X160.5677Y-223.0095
G1X188.7278Y-227.3571
G1 Z0F20000
(Start Block)

G1X22.5411Y-228.8502
G1 Z3.0F20000
(Plotting speed under)
G1 F10000

G1X41.4563Y-223.9528
G1X67.3984Y-226.0824
G1X92.0428Y-226.9143
G1X111.5576Y-222.6166
G1X133.6197Y-220.8662
G1X160.7745Y-224.2085
G1X189.1039Y-228.7253
G1 Z0F20000
(Start Block)

G1X22.7640Y-230.0653
G1 Z3.0F20000
(Plotting speed under)
G1 F10000

G1X41.5532Y-225.0420
G1X67.5940Y-227.2702
G1X92.4765Y-228.3402
G1X111.4066Y-223.4578
G1X133.3235Y-221.5622
G1X160.9813Y-225.4074
G1X189.4799Y-230.0935
G1 Z0F20000
(Start Block)

G1X22.9869Y-231.2803
G1 Z3.0F20000
(Plotting speed under)
G1 F10000

G1X41.6502Y-226.1312
G1X67.7896Y-228.4580
G1X92.9101Y-229.7660
G1X111.2556Y-224.2989
G1X133.0273Y-222.2582
G1X161.1881Y-226.6064
G1X189.8560Y-231.4618
G1 Z0F20000
(Start Block)

G1X23.2098Y-232.4954
G1 Z3.0F20000
(Plotting speed under)
G1 F10000

G1X41.7472Y-227.2203
G1X67.9853Y-229.6459
G1X93.3438Y-231.1919
G1X111.1046Y-225.1401
G1X132.7311Y-222.9542
G1X161.3949Y-227.8054
G1X190.2320Y-232.8300
G1 Z0F20000
(Start Block)

G1X23.4327Y-233.7105
G1 Z3.0F20000
(Plotting speed under)
G1 F10000

G1X41.8442Y-228.3095
G1X68.1809Y-230.8337
G1X93.7775Y-232.6177
G1X110.9536Y-225.9813
G1X132.4350Y-223.6502
G1X161.6016Y-229.0043
G1X190.6081Y-234.1982
G1 Z0F20000
(Start Block)

G1X23.6555Y-234.9256
G1 Z3.0F20000
(Plotting speed under)
G1 F10000

G1X41.9412Y-229.3987
G1X68.3766Y-232.0216
G1X94.2111Y-234.0436
G1X110.8025Y-226.8225
G1X132.1388Y-224.3462
G1X161.8084Y-230.2033
G1X190.9841Y-235.5665
G1 Z0F20000
(Start Block)

G1X23.5051Y-235.7674
G1 Z3.0F20000
(Plotting speed under)
G1 F10000

G1X42.1151Y-230.5648
G1X68.4296Y-233.0668
G1X94.5314Y-235.3561
G1X110.8728Y-227.8849
G1X132.3594Y-225.5589
G1X161.7840Y-231.1710
G1X190.7182Y-236.2927
G1 Z0F20000
(Start Block)

G1X23.3547Y-236.6091
G1 Z3.0F20000
(Plotting speed under)
G1 F10000

G1X42.2890Y-231.7309
G1X68.4827Y-234.1121
G1X94.8517Y-236.6686
G1X110.9429Y-228.9473
G1X132.5800Y-226.7717
G1X161.7595Y-232.1387
G1X190.4522Y-237.0189
G1 Z0F20000
(Start Block)

G1X23.2043Y-237.4509
G1 Z3.0F20000
(Plotting speed under)
G1 F10000

G1X42.4629Y-232.8969
G1X68.5358Y-235.1573
G1X95.1721Y-237.9811
G1X111.0132Y-230.0097
G1X132.8006Y-227.9845
G1X161.7350Y-233.1065
G1X190.1863Y-237.7452
G1 Z0F20000
(Start Block)

G1X23.0539Y-238.2927
G1 Z3.0F20000
(Plotting speed under)
G1 F10000

G1X42.6368Y-234.0630
G1X68.5889Y-236.2026
G1X95.4924Y-239.2936
G1X111.0834Y-231.0721
G1X133.0212Y-229.1973
G1X161.7106Y-234.0742
G1X189.9203Y-238.4714
G1 Z0F20000
(Start Block)

G1X22.9035Y-239.1345
G1 Z3.0F20000
(Plotting speed under)
G1 F10000

G1X42.8106Y-235.2291
G1X68.6420Y-237.2479
G1X95.8127Y-240.6061
G1X111.1536Y-232.1345
G1X133.2418Y-230.4101
G1X161.6861Y-235.0419
G1X189.6543Y-239.1976
G1 Z0F20000
(Start Block)

G1X22.7531Y-239.9763
G1 Z3.0F20000
(Plotting speed under)
G1 F10000

G1X42.9845Y-236.3951
G1X68.6951Y-238.2932
G1X96.1330Y-241.9186
G1X111.2238Y-233.1969
G1X133.4624Y-231.6229
G1X161.6617Y-236.0097
G1X189.3884Y-239.9238
G1 Z0F20000
(Start Block)

G1X22.6027Y-240.8181
G1 Z3.0F20000
(Plotting speed under)
G1 F10000

G1X43.1584Y-237.5612
G1X68.7482Y-239.3385
G1X96.4533Y-243.2311
G1X111.2940Y-234.2593
G1X133.6830Y-232.8357
G1X161.6372Y-236.9774
G1X189.1224Y-240.6501
G1 Z0F20000
(Start Block)

G1X22.4523Y-241.6599
G1 Z3.0F20000
(Plotting speed under)
G1 F10000

G1X43.3323Y-238.7273
G1X68.8012Y-240.3837
G1X96.7737Y-244.5436
G1X111.3643Y-235.3217
G1X133.9036Y-234.0485
G1X161.6127Y-237.9451
G1X188.8565Y-241.3763
G1 Z0F20000
(Start Block)

G1X22.3019Y-242.5016
G1 Z3.0F20000
(Plotting speed under)
G1 F10000

G1X43.5062Y-239.8934
G1X68.8543Y-241.4290
G1X97.0940Y-245.8561
G1X111.4345Y-236.3841
G1X134.1242Y-235.2613
G1X161.5883Y-238.9128
G1X188.5905Y-242.1026
G1 Z0F20000
(Start Block)

G1X22.1515Y-243.3434
G1 Z3.0F20000
(Plotting speed under)
G1 F10000

G1X43.6801Y-241.0595
G1X68.9074Y-242.4743
G1X97.4143Y-247.1686
G1X111.5047Y-237.4465
G1X134.3448Y-236.4741
G1X161.5638Y-239.8806
G1X188.3246Y-242.8288
G1 Z0F20000
(Start Block)

G1X22.0011Y-244.1852
G1 Z3.0F20000
(Plotting speed under)
G1 F10000

G1X43.8540Y-242.2255
G1X68.9605Y-243.5195
G1X97.7346Y-248.4811
G1X111.5749Y-238.5089
G1X134.5654Y-237.6869
G1X161.5394Y-240.8483
G1X188.0586Y-243.5550
G1 Z0F20000
(Start Block)

G1X21.8507Y-245.0270
G1 Z3.0F20000
(Plotting speed under)
G1 F10000

G1X44.0279Y-243.3916
G1X69.0136Y-244.5648
G1X98.0549Y-249.7936
G1X111.6451Y-239.5713
G1X134.7860Y-238.8997
G1X161.5149Y-241.8160
G1X187.7926Y-244.2812
G1 Z0F20000
(Start Block)

G1X21.7003Y-245.8688
G1 Z3.0F20000
(Plotting speed under)
G1 F10000

G1X44.2017Y-244.5577
G1X69.0666Y-245.6101
G1X98.3752Y-251.1061
G1X111.7153Y-240.6337
G1X135.0067Y-240.1125
G1X161.4905Y-242.7838
G1X187.5267Y-245.0075
G1 Z0F20000
(Start Block)

G1X21.5499Y-246.7105
G1 Z3.0F20000
(Plotting speed under)
G1 F10000

G1X44.3756Y-245.7238
G1X69.1197Y-246.6554
G1X98.6955Y-252.4186
G1X111.7856Y-241.6961
G1X135.2273Y-241.3253
G1X161.4660Y-243.7515
G1X187.2607Y-245.7337
G1 Z0F20000
(Start Block)

G1X21.3995Y-247.5523
G1 Z3.0F20000
(Plotting speed under)
G1 F10000

G1X44.5495Y-246.8898
G1X69.1728Y-247.7006
G1X99.0159Y-253.7311
G1X111.8558Y-242.7585
G1X135.4479Y-242.5381
G1X161.4415Y-244.7192
G1X186.9948Y-246.4599
G1 Z0F20000
(Start Block)

G1X21.2491Y-248.3941
G1 Z3.0F20000
(Plotting speed under)
G1 F10000

G1X44.7234Y-248.0559
G1X69.2259Y-248.7459
G1X99.3362Y-255.0436
G1X111.9260Y-243.8209
G1X135.6685Y-243.7509
G1X161.4171Y-245.6870
G1X186.7288Y-247.1862
G1 Z0F20000
(Start Block)

G1X21.0987Y-249.2359
G1 Z3.0F20000
(Plotting speed under)
G1 F10000

G1X44.8973Y-249.2220
G1X69.2790Y-249.7912
G1X99.6565Y-256.3561
G1X111.9962Y-244.8833
G1X135.8891Y-244.9637
G1X161.3926Y-246.6547
G1X186.4629Y-247.9124
G1 Z0F20000
(Start Block)

G1X20.9483Y-250.0777
G1 Z3.0F20000
(Plotting speed under)
G1 F10000

G1X45.0712Y-250.3880
G1X69.3321Y-250.8364
G1X99.9768Y-257.6686
G1X112.0664Y-245.9457
G1X136.1097Y-246.1765
G1X161.3682Y-247.6224
G1X186.1969Y-248.6386
G1 Z0F20000
(Start Block)

G1X20.7978Y-250.9195
G1 Z3.0F20000
(Plotting speed under)
G1 F10000

G1X45.2451Y-251.5541
G1X69.3851Y-251.8817
G1X100.2971Y-258.9812
G1X112.1366Y-247.0081
G1X136.3303Y-247.3893
G1X161.3437Y-248.5901
G1X185.9309Y-249.3648
G1 Z0F20000
(Start Block)

G1X20.6474Y-251.7612
G1 Z3.0F20000
(Plotting speed under)
G1 F10000

G1X45.4190Y-252.7202
G1X69.4382Y-252.9270
G1X100.6174Y-260.2937
G1X112.2069Y-248.0706
G1X136.5509Y-248.6021
G1X161.3192Y-249.5579
G1X185.6650Y-250.0911
G1 Z0F20000
(Start Block)

G1X20.4970Y-252.6030
G1 Z3.0F20000
(Plotting speed under)
G1 F10000

G1X45.5928Y-253.8863
G1X69.4913Y-253.9723
G1X100.9378Y-261.6062
G1X112.2771Y-249.1330
G1X161.2948Y-250.5256
G1X185.3990Y-250.8173
G1 Z0F20000
(Start Block)

G1X20.3466Y-253.4448
G1 Z3.0F20000
(Plotting speed under)
G1 F10000

G1X45.7667Y-255.0524
G1X69.5444Y-255.0175
G1X101.2581Y-262.9187
G1X112.3473Y-250.1954
G1X136.9921Y-251.0276
G1X161.2703Y-251.4933
G1X185.1331Y-251.5435
G1 Z0F20000
(Start Block)

G1X20.1962Y-254.2866
G1 Z3.0F20000
(Plotting speed under)
G1 F10000

G1X45.9406Y-256.2184
G1X69.5975Y-256.0628
G1X101.5784Y-264.2312
G1X112.4175Y-251.2578
G1X137.2127Y-252.2404
G1X161.2459Y-252.4611
G1X184.8671Y-252.2698
G1 Z0F20000
(Start Block)

G1X20.0458Y-255.1284
G1 Z3.0F20000
(Plotting speed under)
G1 F10000

G1X46.1145Y-257.3845
G1X69.6506Y-257.1081
G1X101.8987Y-265.5437
G1X112.4877Y-252.3202
G1X137.4333Y-253.4532
G1X161.2214Y-253.4288
G1X184.6011Y-252.9960
G1 Z0F20000

G00 X0.0000 Y0.0000

