$H
G21
G17
G90
G1 Z0F20000
G1 F15000
(Start Layer)
(Start Block)

G1X19.6044Y-31.9075
G1Z5.0F20000
(Plotting speed under)
G1 F8000

G1X21.5328Y-81.4610
G1X52.9920Y-160.5453
G1X58.4385Y-213.6168
G1X40.4662Y-243.2696
G1X23.1198Y-273.5482
G1X35.5679Y-333.6213
G1X32.5850Y-378.2635
G1 Z0F20000
(Start Block)

G1X20.6830Y-31.9278
G1Z5.0F20000
(Plotting speed under)
G1 F8000

G1X22.4933Y-81.3632
G1X53.8938Y-160.3887
G1X59.1733Y-213.2933
G1X41.0357Y-242.7807
G1X24.6802Y-274.0502
G1X36.2943Y-333.2894
G1X33.8877Y-378.5079
G1 Z0F20000
(Start Block)

G1X21.7616Y-31.9481
G1Z5.0F20000
(Plotting speed under)
G1 F8000

G1X23.4538Y-81.2653
G1X54.7956Y-160.2322
G1X59.9081Y-212.9697
G1X41.6052Y-242.2918
G1X26.2405Y-274.5522
G1X37.0207Y-332.9575
G1X35.1904Y-378.7522
G1 Z0F20000
(Start Block)

G1X22.8403Y-31.9685
G1Z5.0F20000
(Plotting speed under)
G1 F8000

G1X24.4143Y-81.1675
G1X55.6974Y-160.0756
G1X60.6429Y-212.6462
G1X42.1746Y-241.8030
G1X27.8009Y-275.0543
G1X37.7471Y-332.6256
G1X36.4931Y-378.9966
G1 Z0F20000
(Start Block)

G1X23.9190Y-31.9888
G1Z5.0F20000
(Plotting speed under)
G1 F8000

G1X25.3748Y-81.0696
G1X56.5991Y-159.9190
G1X61.3777Y-212.3226
G1X42.7441Y-241.3141
G1X29.3613Y-275.5563
G1X38.4736Y-332.2937
G1X37.7958Y-379.2409
G1 Z0F20000
(Start Block)

G1X24.9976Y-32.0091
G1Z5.0F20000
(Plotting speed under)
G1 F8000

G1X26.3353Y-80.9718
G1X57.5009Y-159.7625
G1X62.1124Y-211.9990
G1X43.3136Y-240.8253
G1X30.9216Y-276.0583
G1X39.2000Y-331.9618
G1X39.0985Y-379.4853
G1 Z0F20000
(Start Block)

G1X26.0763Y-32.0294
G1Z5.0F20000
(Plotting speed under)
G1 F8000

G1X27.2958Y-80.8740
G1X58.4027Y-159.6059
G1X62.8472Y-211.6755
G1X43.8830Y-240.3364
G1X32.4820Y-276.5603
G1X39.9264Y-331.6299
G1X40.4011Y-379.7296
G1 Z0F20000
(Start Block)

G1X27.1549Y-32.0497
G1Z5.0F20000
(Plotting speed under)
G1 F8000

G1X28.2563Y-80.7761
G1X59.3045Y-159.4494
G1X63.5820Y-211.3520
G1X44.4525Y-239.8475
G1X34.0423Y-277.0624
G1X40.6529Y-331.2980
G1X41.7038Y-379.9740
G1 Z0F20000
(Start Block)

G1X28.2336Y-32.0701
G1Z5.0F20000
(Plotting speed under)
G1 F8000

G1X29.2168Y-80.6783
G1X60.2062Y-159.2928
G1X64.3168Y-211.0284
G1X45.0220Y-239.3586
G1X35.6027Y-277.5644
G1X41.3793Y-330.9660
G1X43.0065Y-380.2183
G1 Z0F20000
(Start Block)

G1X29.3122Y-32.0904
G1Z5.0F20000
(Plotting speed under)
G1 F8000

G1X30.1773Y-80.5805
G1X61.1080Y-159.1362
G1X65.0516Y-210.7048
G1X45.5914Y-238.8698
G1X37.1631Y-278.0665
G1X42.1057Y-330.6341
G1X44.3092Y-380.4627
G1 Z0F20000
(Start Block)

G1X30.3909Y-32.1107
G1Z5.0F20000
(Plotting speed under)
G1 F8000

G1X31.1378Y-80.4826
G1X62.0098Y-158.9797
G1X65.7863Y-210.3813
G1X46.1609Y-238.3809
G1X38.7234Y-278.5685
G1X42.8321Y-330.3022
G1X45.6119Y-380.7070
G1 Z0F20000
(Start Block)

G1X31.4695Y-32.1310
G1Z5.0F20000
(Plotting speed under)
G1 F8000

G1X32.0983Y-80.3848
G1X62.9115Y-158.8231
G1X66.5211Y-210.0577
G1X46.7304Y-237.8920
G1X40.2838Y-279.0705
G1X46.9145Y-380.9514
G1 Z0F20000
(Start Block)

G1X32.5482Y-32.1513
G1Z5.0F20000
(Plotting speed under)
G1 F8000

G1X33.0588Y-80.2870
G1X63.8133Y-158.6665
G1X67.2559Y-209.7342
G1X47.2999Y-237.4032
G1X41.8442Y-279.5726
G1X44.2850Y-329.6384
G1X48.2172Y-381.1957
G1 Z0F20000
(Start Block)

G1X33.6268Y-32.1716
G1Z5.0F20000
(Plotting speed under)
G1 F8000

G1X34.0193Y-80.1891
G1X64.7151Y-158.5100
G1X67.9907Y-209.4106
G1X47.8693Y-236.9143
G1X43.4045Y-280.0746
G1X45.0114Y-329.3065
G1X49.5199Y-381.4400
G1 Z0F20000
(Start Block)

G1X34.7055Y-32.1920
G1Z5.0F20000
(Plotting speed under)
G1 F8000

G1X34.9798Y-80.0913
G1X65.6168Y-158.3534
G1X68.7255Y-209.0871
G1X48.4388Y-236.4254
G1X44.9649Y-280.5766
G1X45.7378Y-328.9746
G1X50.8226Y-381.6844
G1 Z0F20000
(Start Block)

G1X35.7841Y-32.2123
G1Z5.0F20000
(Plotting speed under)
G1 F8000

G1X35.9403Y-79.9934
G1X66.5186Y-158.1968
G1X69.4603Y-208.7635
G1X49.0082Y-235.9366
G1X46.5253Y-281.0786
G1X46.4642Y-328.6427
G1X52.1253Y-381.9288
G1 Z0F20000
(Start Block)

G1X36.8628Y-32.2326
G1Z5.0F20000
(Plotting speed under)
G1 F8000

G1X36.9007Y-79.8956
G1X67.4204Y-158.0403
G1X70.1950Y-208.4400
G1X49.5777Y-235.4477
G1X48.0856Y-281.5807
G1X47.1907Y-328.3108
G1X53.4279Y-382.1731
G1 Z0F20000
(Start Block)

G1X37.9414Y-32.2529
G1Z5.0F20000
(Plotting speed under)
G1 F8000

G1X37.8612Y-79.7977
G1X68.3221Y-157.8837
G1X70.9298Y-208.1164
G1X50.1472Y-234.9588
G1X49.6460Y-282.0827
G1X47.9171Y-327.9788
G1X54.7306Y-382.4174
G1 Z0F20000
(Start Block)

G1X39.0201Y-32.2732
G1Z5.0F20000
(Plotting speed under)
G1 F8000

G1X38.8217Y-79.6999
G1X69.2239Y-157.7272
G1X71.6646Y-207.7929
G1X50.7166Y-234.4700
G1X51.2063Y-282.5847
G1X48.6435Y-327.6469
G1X56.0333Y-382.6618
G1 Z0F20000
(Start Block)

G1X40.0987Y-32.2935
G1Z5.0F20000
(Plotting speed under)
G1 F8000

G1X39.7822Y-79.6021
G1X70.1257Y-157.5706
G1X72.3994Y-207.4693
G1X51.2861Y-233.9811
G1X52.7667Y-283.0868
G1X49.3699Y-327.3150
G1X57.3360Y-382.9061
G1 Z0F20000
(Start Block)

G1X41.1774Y-32.3138
G1Z5.0F20000
(Plotting speed under)
G1 F8000

G1X40.7427Y-79.5042
G1X71.0275Y-157.4140
G1X73.1342Y-207.1458
G1X51.8556Y-233.4922
G1X54.3271Y-283.5888
G1X50.0964Y-326.9831
G1X58.6387Y-383.1505
G1 Z0F20000
(Start Block)

G1X42.2560Y-32.3342
G1Z5.0F20000
(Plotting speed under)
G1 F8000

G1X41.7032Y-79.4064
G1X71.9292Y-157.2575
G1X73.8690Y-206.8222
G1X52.4250Y-233.0034
G1X55.8874Y-284.0908
G1X50.8228Y-326.6512
G1X59.9414Y-383.3948
G1 Z0F20000
(Start Block)

G1X43.3347Y-32.3545
G1Z5.0F20000
(Plotting speed under)
G1 F8000

G1X42.6637Y-79.3086
G1X72.8310Y-157.1009
G1X74.6038Y-206.4987
G1X52.9945Y-232.5145
G1X57.4478Y-284.5928
G1X51.5492Y-326.3193
G1X61.2440Y-383.6392
G1 Z0F20000
(Start Block)

G1X44.4134Y-32.3748
G1Z5.0F20000
(Plotting speed under)
G1 F8000

G1X43.6242Y-79.2107
G1X73.7328Y-156.9443
G1X75.3385Y-206.1751
G1X53.5640Y-232.0256
G1X59.0082Y-285.0949
G1X52.2756Y-325.9874
G1X62.5467Y-383.8835
G1 Z0F20000
(Start Block)

G1X45.4920Y-32.3951
G1Z5.0F20000
(Plotting speed under)
G1 F8000

G1X44.5847Y-79.1129
G1X74.6346Y-156.7878
G1X76.0733Y-205.8516
G1X54.1334Y-231.5368
G1X60.5685Y-285.5969
G1X53.0020Y-325.6555
G1X63.8494Y-384.1279
G1 Z0F20000
(Start Block)

G1X46.5706Y-32.4154
G1Z5.0F20000
(Plotting speed under)
G1 F8000

G1X45.5452Y-79.0151
G1X75.5363Y-156.6312
G1X76.8081Y-205.5280
G1X54.7029Y-231.0479
G1X62.1289Y-286.0989
G1X53.7285Y-325.3236
G1X65.1521Y-384.3722
G1 Z0F20000
(Start Block)

G1X47.6493Y-32.4357
G1Z5.0F20000
(Plotting speed under)
G1 F8000

G1X46.5057Y-78.9172
G1X76.4381Y-156.4746
G1X77.5429Y-205.2045
G1X55.2724Y-230.5590
G1X63.6893Y-286.6010
G1X54.4549Y-324.9917
G1X66.4548Y-384.6166
G1 Z0F20000
(Start Block)

G1X48.7279Y-32.4561
G1Z5.0F20000
(Plotting speed under)
G1 F8000

G1X47.4662Y-78.8194
G1X77.3399Y-156.3181
G1X78.2777Y-204.8809
G1X55.8419Y-230.0702
G1X65.2496Y-287.1030
G1X55.1813Y-324.6597
G1X67.7574Y-384.8609
G1 Z0F20000
(Start Block)

G1X49.8066Y-32.4764
G1Z5.0F20000
(Plotting speed under)
G1 F8000

G1X48.4267Y-78.7215
G1X78.2416Y-156.1615
G1X79.0124Y-204.5573
G1X56.4113Y-229.5813
G1X66.8100Y-287.6050
G1X55.9078Y-324.3279
G1X69.0601Y-385.1053
G1 Z0F20000
(Start Block)

G1X50.8852Y-32.4967
G1Z5.0F20000
(Plotting speed under)
G1 F8000

G1X49.3872Y-78.6237
G1X79.1434Y-156.0050
G1X79.7472Y-204.2338
G1X56.9808Y-229.0924
G1X68.3704Y-288.1071
G1X56.6342Y-323.9959
G1X70.3628Y-385.3496
G1 Z0F20000
(Start Block)

G1X51.9639Y-32.5170
G1Z5.0F20000
(Plotting speed under)
G1 F8000

G1X50.3477Y-78.5259
G1X80.0452Y-155.8484
G1X80.4820Y-203.9103
G1X57.5502Y-228.6036
G1X69.9307Y-288.6091
G1X57.3606Y-323.6640
G1X71.6655Y-385.5940
G1 Z0F20000
(Start Block)

G1X53.0426Y-32.5373
G1Z5.0F20000
(Plotting speed under)
G1 F8000

G1X51.3082Y-78.4280
G1X80.9470Y-155.6918
G1X81.2168Y-203.5867
G1X58.1197Y-228.1147
G1X71.4911Y-289.1111
G1X58.0870Y-323.3321
G1X72.9682Y-385.8383
G1 Z0F20000
(Start Block)

G1X54.1212Y-32.5577
G1Z5.0F20000
(Plotting speed under)
G1 F8000

G1X52.2687Y-78.3302
G1X81.8487Y-155.5353
G1X81.9516Y-203.2631
G1X58.6892Y-227.6258
G1X73.0514Y-289.6132
G1X58.8134Y-323.0002
G1X74.2709Y-386.0827
G1 Z0F20000
(Start Block)

G1X55.1998Y-32.5780
G1Z5.0F20000
(Plotting speed under)
G1 F8000

G1X53.2292Y-78.2323
G1X82.7505Y-155.3787
G1X82.6864Y-202.9396
G1X59.2587Y-227.1370
G1X74.6118Y-290.1152
G1X59.5399Y-322.6683
G1X75.5736Y-386.3270
G1 Z0F20000
(Start Block)

G1X56.2785Y-32.5983
G1Z5.0F20000
(Plotting speed under)
G1 F8000

G1X54.1897Y-78.1345
G1X83.6523Y-155.2221
G1X83.4211Y-202.6160
G1X59.8281Y-226.6481
G1X76.1722Y-290.6172
G1X60.2663Y-322.3364
G1X76.8762Y-386.5714
G1 Z0F20000
(Start Block)

G1X57.3571Y-32.6186
G1Z5.0F20000
(Plotting speed under)
G1 F8000

G1X55.1502Y-78.0366
G1X84.5541Y-155.0656
G1X84.1559Y-202.2925
G1X60.3976Y-226.1592
G1X77.7326Y-291.1192
G1X60.9927Y-322.0045
G1X78.1789Y-386.8157
G1 Z0F20000
(Start Block)

G1X58.4358Y-32.6389
G1Z5.0F20000
(Plotting speed under)
G1 F8000

G1X56.1107Y-77.9388
G1X85.4558Y-154.9090
G1X84.8907Y-201.9689
G1X60.9670Y-225.6704
G1X79.2929Y-291.6213
G1X61.7191Y-321.6726
G1X79.4816Y-387.0600
G1 Z0F20000
(Start Block)

G1X59.5145Y-32.6592
G1Z5.0F20000
(Plotting speed under)
G1 F8000

G1X57.0712Y-77.8410
G1X86.3576Y-154.7524
G1X85.6255Y-201.6454
G1X61.5365Y-225.1815
G1X80.8533Y-292.1233
G1X62.4456Y-321.3407
G1X80.7843Y-387.3044
G1 Z0F20000
(Start Block)

G1X60.5931Y-32.6796
G1Z5.0F20000
(Plotting speed under)
G1 F8000

G1X58.0316Y-77.7431
G1X87.2594Y-154.5959
G1X86.3603Y-201.3218
G1X62.1060Y-224.6926
G1X82.4137Y-292.6253
G1X63.1720Y-321.0088
G1X82.0870Y-387.5488
G1 Z0F20000
(Start Block)

G1X61.6718Y-32.6999
G1Z5.0F20000
(Plotting speed under)
G1 F8000

G1X58.9921Y-77.6453
G1X88.1611Y-154.4393
G1X87.0950Y-200.9983
G1X62.6755Y-224.2038
G1X83.9740Y-293.1274
G1X63.8984Y-320.6768
G1X83.3896Y-387.7931
G1 Z0F20000
(Start Block)

G1X62.7504Y-32.7202
G1Z5.0F20000
(Plotting speed under)
G1 F8000

G1X59.9526Y-77.5475
G1X89.0629Y-154.2828
G1X87.8298Y-200.6747
G1X63.2449Y-223.7149
G1X85.5344Y-293.6294
G1X64.6248Y-320.3449
G1X84.6923Y-388.0374
G1 Z0F20000
(Start Block)

G1X63.8290Y-32.7405
G1Z5.0F20000
(Plotting speed under)
G1 F8000

G1X60.9131Y-77.4496
G1X89.9647Y-154.1262
G1X88.5646Y-200.3512
G1X63.8144Y-223.2260
G1X87.0947Y-294.1314
G1X65.3513Y-320.0130
G1X85.9950Y-388.2818
G1 Z0F20000
(Start Block)

G1X64.9077Y-32.7608
G1Z5.0F20000
(Plotting speed under)
G1 F8000

G1X61.8736Y-77.3518
G1X90.8664Y-153.9696
G1X89.2994Y-200.0276
G1X64.3838Y-222.7372
G1X88.6551Y-294.6335
G1X66.0777Y-319.6811
G1X87.2977Y-388.5262
G1 Z0F20000
(Start Block)

G1X65.9864Y-32.7811
G1Z5.0F20000
(Plotting speed under)
G1 F8000

G1X62.8341Y-77.2540
G1X91.7682Y-153.8131
G1X90.0342Y-199.7041
G1X64.9533Y-222.2483
G1X90.2155Y-295.1355
G1X66.8041Y-319.3492
G1X88.6004Y-388.7705
G1 Z0F20000
(Start Block)

G1X67.0650Y-32.8014
G1Z5.0F20000
(Plotting speed under)
G1 F8000

G1X63.7946Y-77.1561
G1X92.6700Y-153.6565
G1X90.7690Y-199.3805
G1X65.5228Y-221.7594
G1X91.7759Y-295.6375
G1X67.5305Y-319.0173
G1X89.9031Y-389.0148
G1 Z0F20000
(Start Block)

G1X68.1437Y-32.8218
G1Z5.0F20000
(Plotting speed under)
G1 F8000

G1X64.7551Y-77.0583
G1X93.5717Y-153.4999
G1X91.5037Y-199.0570
G1X66.0923Y-221.2706
G1X93.3362Y-296.1396
G1X68.2570Y-318.6854
G1X91.2057Y-389.2592
G1 Z0F20000
(Start Block)

G1X69.5037Y-33.1234
G1Z5.0F20000
(Plotting speed under)
G1 F8000

G1X66.0717Y-77.3166
G1X94.7512Y-153.6211
G1X92.4009Y-198.8958
G1X67.4667Y-221.5867
G1X94.0540Y-295.7990
G1X69.3459Y-318.7160
G1X92.0262Y-389.0213
G1 Z0F20000
(Start Block)

G1X70.8637Y-33.4251
G1Z5.0F20000
(Plotting speed under)
G1 F8000

G1X67.3884Y-77.5749
G1X95.9307Y-153.7422
G1X93.2982Y-198.7347
G1X68.8412Y-221.9028
G1X94.7718Y-295.4585
G1X70.4348Y-318.7466
G1X92.8466Y-388.7834
G1 Z0F20000
(Start Block)

G1X72.2237Y-33.7268
G1Z5.0F20000
(Plotting speed under)
G1 F8000

G1X68.7050Y-77.8332
G1X97.1102Y-153.8634
G1X94.1954Y-198.5736
G1X70.2156Y-222.2189
G1X95.4896Y-295.1179
G1X71.5238Y-318.7772
G1X93.6670Y-388.5455
G1 Z0F20000
(Start Block)

G1X73.5838Y-34.0285
G1Z5.0F20000
(Plotting speed under)
G1 F8000

G1X70.0216Y-78.0914
G1X98.2897Y-153.9846
G1X95.0926Y-198.4125
G1X71.5900Y-222.5350
G1X96.2074Y-294.7774
G1X72.6127Y-318.8078
G1X94.4875Y-388.3076
G1 Z0F20000
(Start Block)

G1X74.9438Y-34.3302
G1Z5.0F20000
(Plotting speed under)
G1 F8000

G1X71.3382Y-78.3497
G1X99.4692Y-154.1057
G1X95.9898Y-198.2514
G1X72.9645Y-222.8511
G1X96.9252Y-294.4369
G1X73.7017Y-318.8384
G1X95.3079Y-388.0697
G1 Z0F20000
(Start Block)

G1X76.3038Y-34.6319
G1Z5.0F20000
(Plotting speed under)
G1 F8000

G1X72.6549Y-78.6080
G1X100.6487Y-154.2269
G1X96.8870Y-198.0903
G1X74.3390Y-223.1673
G1X97.6430Y-294.0963
G1X74.7907Y-318.8690
G1X96.1283Y-387.8318
G1 Z0F20000
(Start Block)

G1X77.6638Y-34.9336
G1Z5.0F20000
(Plotting speed under)
G1 F8000

G1X73.9715Y-78.8663
G1X101.8282Y-154.3481
G1X97.7842Y-197.9291
G1X75.7134Y-223.4834
G1X98.3608Y-293.7558
G1X75.8796Y-318.8996
G1X96.9488Y-387.5939
G1 Z0F20000
(Start Block)

G1X79.0239Y-35.2353
G1Z5.0F20000
(Plotting speed under)
G1 F8000

G1X75.2882Y-79.1246
G1X103.0077Y-154.4692
G1X98.6815Y-197.7680
G1X77.0879Y-223.7995
G1X99.0786Y-293.4152
G1X76.9685Y-318.9302
G1X97.7692Y-387.3560
G1 Z0F20000
(Start Block)

G1X80.3839Y-35.5370
G1Z5.0F20000
(Plotting speed under)
G1 F8000

G1X76.6048Y-79.3829
G1X104.1872Y-154.5904
G1X99.5787Y-197.6069
G1X78.4623Y-224.1156
G1X99.7964Y-293.0747
G1X78.0575Y-318.9609
G1X98.5896Y-387.1181
G1 Z0F20000
(Start Block)

G1X81.7439Y-35.8387
G1Z5.0F20000
(Plotting speed under)
G1 F8000

G1X77.9214Y-79.6412
G1X105.3667Y-154.7115
G1X100.4759Y-197.4458
G1X79.8368Y-224.4317
G1X100.5142Y-292.7342
G1X79.1464Y-318.9915
G1X99.4100Y-386.8802
G1 Z0F20000
(Start Block)

G1X83.1040Y-36.1404
G1Z5.0F20000
(Plotting speed under)
G1 F8000

G1X79.2380Y-79.8995
G1X106.5462Y-154.8327
G1X101.3731Y-197.2847
G1X81.2112Y-224.7478
G1X101.2320Y-292.3936
G1X80.2354Y-319.0221
G1X100.2305Y-386.6423
G1 Z0F20000
(Start Block)

G1X84.4640Y-36.4420
G1Z5.0F20000
(Plotting speed under)
G1 F8000

G1X80.5547Y-80.1578
G1X107.7257Y-154.9538
G1X102.2703Y-197.1236
G1X82.5857Y-225.0640
G1X101.9498Y-292.0531
G1X81.3243Y-319.0527
G1X101.0509Y-386.4043
G1 Z0F20000
(Start Block)

G1X85.8240Y-36.7437
G1Z5.0F20000
(Plotting speed under)
G1 F8000

G1X81.8713Y-80.4161
G1X108.9052Y-155.0750
G1X103.1675Y-196.9624
G1X83.9601Y-225.3801
G1X102.6676Y-291.7126
G1X82.4133Y-319.0833
G1X101.8714Y-386.1665
G1 Z0F20000
(Start Block)

G1X87.1840Y-37.0454
G1Z5.0F20000
(Plotting speed under)
G1 F8000

G1X83.1879Y-80.6744
G1X110.0847Y-155.1962
G1X104.0647Y-196.8013
G1X85.3346Y-225.6962
G1X103.3854Y-291.3720
G1X83.5022Y-319.1139
G1X102.6918Y-385.9285
G1 Z0F20000
(Start Block)

G1X88.5440Y-37.3471
G1Z5.0F20000
(Plotting speed under)
G1 F8000

G1X84.5045Y-80.9327
G1X111.2642Y-155.3173
G1X104.9620Y-196.6402
G1X86.7090Y-226.0123
G1X104.1032Y-291.0315
G1X84.5911Y-319.1445
G1X103.5122Y-385.6907
G1 Z0F20000
(Start Block)

G1X89.9041Y-37.6488
G1Z5.0F20000
(Plotting speed under)
G1 F8000

G1X85.8212Y-81.1910
G1X112.4436Y-155.4385
G1X105.8592Y-196.4791
G1X88.0835Y-226.3284
G1X104.8210Y-290.6910
G1X85.6801Y-319.1751
G1X104.3326Y-385.4527
G1 Z0F20000
(Start Block)

G1X91.2641Y-37.9505
G1Z5.0F20000
(Plotting speed under)
G1 F8000

G1X87.1378Y-81.4492
G1X113.6232Y-155.5597
G1X106.7564Y-196.3179
G1X89.4579Y-226.6446
G1X105.5388Y-290.3504
G1X86.7690Y-319.2057
G1X105.1531Y-385.2149
G1 Z0F20000
(Start Block)

G1X92.6241Y-38.2522
G1Z5.0F20000
(Plotting speed under)
G1 F8000

G1X88.4544Y-81.7076
G1X114.8026Y-155.6808
G1X107.6536Y-196.1568
G1X90.8324Y-226.9607
G1X106.2565Y-290.0099
G1X87.8580Y-319.2363
G1X105.9735Y-384.9769
G1 Z0F20000
(Start Block)

G1X93.9841Y-38.5539
G1Z5.0F20000
(Plotting speed under)
G1 F8000

G1X89.7711Y-81.9658
G1X115.9821Y-155.8020
G1X108.5508Y-195.9957
G1X92.2068Y-227.2768
G1X106.9744Y-289.6693
G1X88.9469Y-319.2670
G1X106.7939Y-384.7390
G1 Z0F20000
(Start Block)

G1X95.3442Y-38.8556
G1Z5.0F20000
(Plotting speed under)
G1 F8000

G1X91.0877Y-82.2241
G1X117.1616Y-155.9231
G1X109.4480Y-195.8346
G1X93.5813Y-227.5929
G1X107.6921Y-289.3288
G1X90.0359Y-319.2976
G1X107.6144Y-384.5011
G1 Z0F20000
(Start Block)

G1X96.7042Y-39.1572
G1Z5.0F20000
(Plotting speed under)
G1 F8000

G1X92.4043Y-82.4824
G1X118.3411Y-156.0443
G1X110.3453Y-195.6735
G1X94.9558Y-227.9090
G1X108.4099Y-288.9883
G1X91.1248Y-319.3282
G1X108.4348Y-384.2632
G1 Z0F20000
(Start Block)

G1X98.0642Y-39.4589
G1Z5.0F20000
(Plotting speed under)
G1 F8000

G1X93.7209Y-82.7407
G1X119.5206Y-156.1654
G1X111.2425Y-195.5123
G1X96.3302Y-228.2251
G1X109.1277Y-288.6477
G1X92.2137Y-319.3588
G1X109.2552Y-384.0253
G1 Z0F20000
(Start Block)

G1X99.4242Y-39.7606
G1Z5.0F20000
(Plotting speed under)
G1 F8000

G1X95.0376Y-82.9990
G1X120.7001Y-156.2866
G1X112.1397Y-195.3512
G1X97.7046Y-228.5413
G1X109.8455Y-288.3072
G1X93.3027Y-319.3894
G1X110.0757Y-383.7874
G1 Z0F20000
(Start Block)

G1X100.7842Y-40.0623
G1Z5.0F20000
(Plotting speed under)
G1 F8000

G1X96.3542Y-83.2573
G1X121.8796Y-156.4078
G1X113.0369Y-195.1901
G1X99.0791Y-228.8574
G1X110.5633Y-287.9666
G1X94.3916Y-319.4200
G1X110.8961Y-383.5495
G1 Z0F20000
(Start Block)

G1X102.1443Y-40.3640
G1Z5.0F20000
(Plotting speed under)
G1 F8000

G1X97.6708Y-83.5156
G1X123.0591Y-156.5289
G1X113.9341Y-195.0290
G1X100.4535Y-229.1735
G1X111.2811Y-287.6261
G1X95.4806Y-319.4506
G1X111.7165Y-383.3116
G1 Z0F20000
(Start Block)

G1X103.5043Y-40.6657
G1Z5.0F20000
(Plotting speed under)
G1 F8000

G1X98.9875Y-83.7739
G1X124.2386Y-156.6501
G1X114.8313Y-194.8679
G1X101.8280Y-229.4896
G1X111.9989Y-287.2856
G1X96.5695Y-319.4812
G1X112.5370Y-383.0737
G1 Z0F20000
(Start Block)

G1X104.8643Y-40.9674
G1Z5.0F20000
(Plotting speed under)
G1 F8000

G1X100.3041Y-84.0322
G1X125.4181Y-156.7712
G1X115.7285Y-194.7068
G1X103.2025Y-229.8057
G1X112.7167Y-286.9450
G1X97.6584Y-319.5118
G1X113.3574Y-382.8358
G1 Z0F20000
(Start Block)

G1X106.2243Y-41.2691
G1Z5.0F20000
(Plotting speed under)
G1 F8000

G1X101.6207Y-84.2905
G1X126.5976Y-156.8924
G1X116.6258Y-194.5456
G1X104.5769Y-230.1218
G1X113.4345Y-286.6045
G1X98.7474Y-319.5424
G1X114.1778Y-382.5979
G1 Z0F20000
(Start Block)

G1X107.5844Y-41.5708
G1Z5.0F20000
(Plotting speed under)
G1 F8000

G1X102.9373Y-84.5488
G1X127.7771Y-157.0136
G1X117.5230Y-194.3845
G1X105.9513Y-230.4379
G1X114.1523Y-286.2640
G1X99.8363Y-319.5731
G1X114.9983Y-382.3600
G1 Z0F20000
(Start Block)

G1X108.9444Y-41.8725
G1Z5.0F20000
(Plotting speed under)
G1 F8000

G1X104.2540Y-84.8071
G1X128.9566Y-157.1347
G1X118.4202Y-194.2234
G1X107.3258Y-230.7541
G1X114.8701Y-285.9234
G1X100.9253Y-319.6037
G1X115.8187Y-382.1221
G1 Z0F20000
(Start Block)

G1X110.3044Y-42.1741
G1Z5.0F20000
(Plotting speed under)
G1 F8000

G1X105.5706Y-85.0654
G1X130.1361Y-157.2559
G1X119.3174Y-194.0623
G1X108.7003Y-231.0702
G1X115.5879Y-285.5829
G1X102.0142Y-319.6343
G1X116.6391Y-381.8842
G1 Z0F20000
(Start Block)

G1X111.6644Y-42.4758
G1Z5.0F20000
(Plotting speed under)
G1 F8000

G1X106.8872Y-85.3236
G1X131.3156Y-157.3771
G1X120.2146Y-193.9012
G1X110.0747Y-231.3863
G1X116.3057Y-285.2424
G1X103.1032Y-319.6649
G1X117.4596Y-381.6463
G1 Z0F20000
(Start Block)

G1X113.0245Y-42.7775
G1Z5.0F20000
(Plotting speed under)
G1 F8000

G1X108.2038Y-85.5819
G1X132.4951Y-157.4982
G1X121.1118Y-193.7400
G1X111.4491Y-231.7024
G1X117.0235Y-284.9018
G1X104.1921Y-319.6955
G1X118.2800Y-381.4084
G1 Z0F20000
(Start Block)

G1X114.3845Y-43.0792
G1Z5.0F20000
(Plotting speed under)
G1 F8000

G1X109.5205Y-85.8402
G1X133.6746Y-157.6194
G1X122.0090Y-193.5789
G1X112.8236Y-232.0185
G1X117.7413Y-284.5613
G1X105.2810Y-319.7261
G1X119.1004Y-381.1705
G1 Z0F20000
(Start Block)

G1X115.7445Y-43.3809
G1Z5.0F20000
(Plotting speed under)
G1 F8000

G1X110.8371Y-86.0985
G1X134.8540Y-157.7405
G1X122.9063Y-193.4178
G1X114.1981Y-232.3347
G1X118.4591Y-284.2208
G1X106.3700Y-319.7567
G1X119.9209Y-380.9326
G1 Z0F20000
(Start Block)

G1X117.1045Y-43.6826
G1Z5.0F20000
(Plotting speed under)
G1 F8000

G1X112.1537Y-86.3568
G1X136.0336Y-157.8617
G1X123.8035Y-193.2567
G1X115.5725Y-232.6508
G1X119.1769Y-283.8802
G1X107.4589Y-319.7873
G1X120.7413Y-380.6947
G1 Z0F20000
(Start Block)

G1X118.4646Y-43.9843
G1Z5.0F20000
(Plotting speed under)
G1 F8000

G1X113.4703Y-86.6151
G1X137.2130Y-157.9828
G1X124.7007Y-193.0956
G1X116.9470Y-232.9669
G1X119.8947Y-283.5397
G1X108.5479Y-319.8179
G1X121.5617Y-380.4568
G1 Z0F20000
(Start Block)

G1X119.8246Y-44.2860
G1Z5.0F20000
(Plotting speed under)
G1 F8000

G1X114.7870Y-86.8734
G1X138.3925Y-158.1040
G1X125.5979Y-192.9345
G1X118.3214Y-233.2830
G1X120.6125Y-283.1991
G1X109.6368Y-319.8485
G1X122.3822Y-380.2189
G1 Z0F20000
(Start Block)

G1X121.1846Y-44.5877
G1Z5.0F20000
(Plotting speed under)
G1 F8000

G1X116.1036Y-87.1317
G1X139.5720Y-158.2252
G1X126.4951Y-192.7733
G1X119.6958Y-233.5991
G1X121.3303Y-282.8586
G1X110.7258Y-319.8791
G1X123.2026Y-379.9810
G1 Z0F20000
(Start Block)

G1X122.5446Y-44.8893
G1Z5.0F20000
(Plotting speed under)
G1 F8000

G1X117.4202Y-87.3900
G1X140.7515Y-158.3463
G1X127.3924Y-192.6122
G1X121.0703Y-233.9152
G1X122.0481Y-282.5181
G1X111.8147Y-319.9098
G1X124.0231Y-379.7431
G1 Z0F20000
(Start Block)

G1X123.9047Y-45.1910
G1Z5.0F20000
(Plotting speed under)
G1 F8000

G1X118.7368Y-87.6483
G1X141.9310Y-158.4675
G1X128.2896Y-192.4511
G1X122.4448Y-234.2314
G1X122.7659Y-282.1775
G1X112.9037Y-319.9404
G1X124.8435Y-379.5052
G1 Z0F20000
(Start Block)

G1X125.2647Y-45.4927
G1Z5.0F20000
(Plotting speed under)
G1 F8000

G1X120.0535Y-87.9066
G1X143.1105Y-158.5886
G1X129.1868Y-192.2900
G1X123.8192Y-234.5475
G1X123.4837Y-281.8370
G1X113.9926Y-319.9710
G1X125.6639Y-379.2673
G1 Z0F20000
(Start Block)

G1X126.6247Y-45.7944
G1Z5.0F20000
(Plotting speed under)
G1 F8000

G1X121.3701Y-88.1649
G1X144.2900Y-158.7098
G1X130.0840Y-192.1289
G1X125.1937Y-234.8636
G1X124.2015Y-281.4964
G1X115.0815Y-320.0016
G1X126.4843Y-379.0294
G1 Z0F20000
(Start Block)

G1X127.9847Y-46.0961
G1Z5.0F20000
(Plotting speed under)
G1 F8000

G1X122.6867Y-88.4232
G1X145.4695Y-158.8310
G1X130.9812Y-191.9677
G1X126.5681Y-235.1797
G1X124.9193Y-281.1559
G1X116.1705Y-320.0322
G1X127.3048Y-378.7915
G1 Z0F20000
(Start Block)

G1X129.3448Y-46.3978
G1Z5.0F20000
(Plotting speed under)
G1 F8000

G1X124.0034Y-88.6814
G1X146.6490Y-158.9521
G1X131.8784Y-191.8066
G1X127.9426Y-235.4958
G1X125.6371Y-280.8154
G1X117.2594Y-320.0628
G1X128.1252Y-378.5536
G1 Z0F20000
(Start Block)

G1X130.6269Y-46.6216
G1Z5.0F20000
(Plotting speed under)
G1 F8000

G1X125.4581Y-89.0778
G1X147.0460Y-158.2908
G1X133.0185Y-191.8883
G1X128.9603Y-235.4552
G1X126.4738Y-280.5938
G1X118.7628Y-320.5079
G1X129.5518Y-378.9219
G1 Z0F20000
(Start Block)

G1X131.9091Y-46.8455
G1Z5.0F20000
(Plotting speed under)
G1 F8000

G1X126.9128Y-89.4742
G1X147.4430Y-157.6295
G1X134.1586Y-191.9701
G1X129.9781Y-235.4146
G1X127.3106Y-280.3722
G1X120.2662Y-320.9529
G1X130.9784Y-379.2901
G1 Z0F20000
(Start Block)

G1X133.1913Y-47.0693
G1Z5.0F20000
(Plotting speed under)
G1 F8000

G1X128.3675Y-89.8706
G1X147.8400Y-156.9681
G1X135.2986Y-192.0518
G1X130.9958Y-235.3740
G1X128.1473Y-280.1506
G1X121.7696Y-321.3980
G1X132.4050Y-379.6584
G1 Z0F20000
(Start Block)

G1X134.4734Y-47.2931
G1Z5.0F20000
(Plotting speed under)
G1 F8000

G1X129.8222Y-90.2669
G1X148.2370Y-156.3068
G1X136.4387Y-192.1336
G1X132.0135Y-235.3334
G1X128.9840Y-279.9290
G1X123.2730Y-321.8430
G1X133.8316Y-380.0267
G1 Z0F20000
(Start Block)

G1X135.7556Y-47.5169
G1Z5.0F20000
(Plotting speed under)
G1 F8000

G1X131.2769Y-90.6633
G1X148.6341Y-155.6455
G1X137.5788Y-192.2153
G1X133.0312Y-235.2928
G1X129.8208Y-279.7074
G1X124.7764Y-322.2881
G1X135.2583Y-380.3950
G1 Z0F20000
(Start Block)

G1X137.0378Y-47.7408
G1Z5.0F20000
(Plotting speed under)
G1 F8000

G1X132.7316Y-91.0597
G1X149.0311Y-154.9842
G1X138.7189Y-192.2971
G1X134.0490Y-235.2522
G1X130.6575Y-279.4858
G1X126.2798Y-322.7331
G1X136.6849Y-380.7633
G1 Z0F20000
(Start Block)

G1X138.3199Y-47.9646
G1Z5.0F20000
(Plotting speed under)
G1 F8000

G1X134.1863Y-91.4561
G1X149.4281Y-154.3229
G1X139.8590Y-192.3788
G1X135.0667Y-235.2116
G1X131.4943Y-279.2642
G1X127.7832Y-323.1782
G1X138.1115Y-381.1315
G1 Z0F20000
(Start Block)

G1X139.6021Y-48.1884
G1Z5.0F20000
(Plotting speed under)
G1 F8000

G1X135.6410Y-91.8525
G1X149.8251Y-153.6615
G1X140.9990Y-192.4606
G1X136.0845Y-235.1710
G1X132.3310Y-279.0426
G1X129.2866Y-323.6232
G1X139.5381Y-381.4998
G1 Z0F20000
(Start Block)

G1X140.8842Y-48.4123
G1Z5.0F20000
(Plotting speed under)
G1 F8000

G1X137.0958Y-92.2488
G1X150.2221Y-153.0002
G1X142.1391Y-192.5423
G1X137.1022Y-235.1304
G1X133.1677Y-278.8210
G1X130.7900Y-324.0683
G1X140.9647Y-381.8681
G1 Z0F20000
(Start Block)

G1X142.1664Y-48.6361
G1Z5.0F20000
(Plotting speed under)
G1 F8000

G1X138.5505Y-92.6452
G1X150.6191Y-152.3389
G1X143.2792Y-192.6240
G1X138.1199Y-235.0898
G1X134.0045Y-278.5994
G1X132.2934Y-324.5134
G1X142.3913Y-382.2364
G1 Z0F20000
(Start Block)

G1X143.4486Y-48.8599
G1Z5.0F20000
(Plotting speed under)
G1 F8000

G1X140.0052Y-93.0416
G1X151.0161Y-151.6776
G1X144.4193Y-192.7058
G1X139.1377Y-235.0492
G1X134.8412Y-278.3778
G1X133.7967Y-324.9584
G1X143.8179Y-382.6046
G1 Z0F20000
(Start Block)

G1X144.7307Y-49.0838
G1Z5.0F20000
(Plotting speed under)
G1 F8000

G1X141.4599Y-93.4379
G1X151.4131Y-151.0162
G1X145.5593Y-192.7875
G1X140.1554Y-235.0086
G1X135.6780Y-278.1562
G1X135.3002Y-325.4035
G1X145.2445Y-382.9729
G1 Z0F20000
(Start Block)

G1X146.0129Y-49.3076
G1Z5.0F20000
(Plotting speed under)
G1 F8000

G1X142.9146Y-93.8343
G1X151.8101Y-150.3549
G1X146.6994Y-192.8693
G1X141.1731Y-234.9680
G1X136.5147Y-277.9346
G1X136.8035Y-325.8485
G1X146.6712Y-383.3412
G1 Z0F20000
(Start Block)

G1X147.2950Y-49.5314
G1Z5.0F20000
(Plotting speed under)
G1 F8000

G1X144.3693Y-94.2307
G1X152.2071Y-149.6936
G1X147.8395Y-192.9510
G1X142.1909Y-234.9274
G1X137.3514Y-277.7131
G1X138.3069Y-326.2936
G1X148.0978Y-383.7095
G1 Z0F20000
(Start Block)

G1X148.5772Y-49.7552
G1Z5.0F20000
(Plotting speed under)
G1 F8000

G1X145.8240Y-94.6271
G1X152.6042Y-149.0323
G1X148.9796Y-193.0327
G1X143.2086Y-234.8868
G1X138.1882Y-277.4914
G1X139.8103Y-326.7387
G1X149.5244Y-384.0778
G1 Z0F20000
(Start Block)

G1X149.8594Y-49.9791
G1Z5.0F20000
(Plotting speed under)
G1 F8000

G1X147.2787Y-95.0234
G1X153.0012Y-148.3710
G1X150.1196Y-193.1145
G1X144.2263Y-234.8462
G1X139.0249Y-277.2699
G1X141.3137Y-327.1837
G1X150.9510Y-384.4460
G1 Z0F20000
(Start Block)

G1X151.1415Y-50.2029
G1Z5.0F20000
(Plotting speed under)
G1 F8000

G1X148.7334Y-95.4198
G1X153.3982Y-147.7096
G1X151.2597Y-193.1962
G1X145.2441Y-234.8056
G1X139.8617Y-277.0483
G1X142.8171Y-327.6288
G1X152.3776Y-384.8143
G1 Z0F20000
(Start Block)

G1X152.4237Y-50.4267
G1Z5.0F20000
(Plotting speed under)
G1 F8000

G1X150.1881Y-95.8162
G1X153.7952Y-147.0483
G1X152.3998Y-193.2780
G1X146.2618Y-234.7650
G1X140.6984Y-276.8267
G1X144.3205Y-328.0738
G1X153.8042Y-385.1826
G1 Z0F20000
(Start Block)

G1X153.7059Y-50.6506
G1Z5.0F20000
(Plotting speed under)
G1 F8000

G1X151.6428Y-96.2126
G1X154.1922Y-146.3870
G1X153.5399Y-193.3597
G1X147.2795Y-234.7244
G1X141.5351Y-276.6051
G1X145.8239Y-328.5189
G1X155.2308Y-385.5509
G1 Z0F20000
(Start Block)

G1X154.9880Y-50.8744
G1Z5.0F20000
(Plotting speed under)
G1 F8000

G1X153.0975Y-96.6089
G1X154.5892Y-145.7256
G1X154.6799Y-193.4415
G1X148.2973Y-234.6838
G1X142.3719Y-276.3835
G1X147.3273Y-328.9639
G1X156.6574Y-385.9191
G1 Z0F20000
(Start Block)

G1X156.2702Y-51.0982
G1Z5.0F20000
(Plotting speed under)
G1 F8000

G1X154.5522Y-97.0053
G1X154.9862Y-145.0643
G1X155.8200Y-193.5232
G1X149.3150Y-234.6432
G1X143.2086Y-276.1619
G1X148.8307Y-329.4090
G1X158.0840Y-386.2874
G1 Z0F20000
(Start Block)

G1X157.5524Y-51.3221
G1Z5.0F20000
(Plotting speed under)
G1 F8000

G1X156.0069Y-97.4017
G1X155.3832Y-144.4030
G1X156.9601Y-193.6049
G1X150.3327Y-234.6026
G1X144.0454Y-275.9403
G1X150.3341Y-329.8541
G1X159.5107Y-386.6557
G1 Z0F20000
(Start Block)

G1X158.8345Y-51.5459
G1Z5.0F20000
(Plotting speed under)
G1 F8000

G1X157.4616Y-97.7980
G1X155.7802Y-143.7417
G1X158.1002Y-193.6867
G1X151.3505Y-234.5620
G1X144.8821Y-275.7187
G1X151.8374Y-330.2991
G1X160.9373Y-387.0240
G1 Z0F20000
(Start Block)

G1X160.1167Y-51.7697
G1Z5.0F20000
(Plotting speed under)
G1 F8000

G1X158.9163Y-98.1944
G1X156.1772Y-143.0803
G1X159.2403Y-193.7684
G1X152.3682Y-234.5214
G1X145.7188Y-275.4971
G1X153.3408Y-330.7442
G1X162.3639Y-387.3923
G1 Z0F20000
(Start Block)

G1X161.3989Y-51.9935
G1Z5.0F20000
(Plotting speed under)
G1 F8000

G1X160.3711Y-98.5908
G1X156.5743Y-142.4190
G1X160.3803Y-193.8502
G1X153.3859Y-234.4808
G1X146.5556Y-275.2755
G1X154.8442Y-331.1892
G1X163.7905Y-387.7605
G1 Z0F20000
(Start Block)

G1X162.6810Y-52.2174
G1Z5.0F20000
(Plotting speed under)
G1 F8000

G1X161.8258Y-98.9872
G1X156.9713Y-141.7577
G1X161.5204Y-193.9319
G1X154.4037Y-234.4402
G1X147.3923Y-275.0539
G1X165.2171Y-388.1288
G1 Z0F20000
(Start Block)

G1X163.9632Y-52.4412
G1Z5.0F20000
(Plotting speed under)
G1 F8000

G1X163.2805Y-99.3835
G1X157.3683Y-141.0964
G1X162.6605Y-194.0136
G1X148.2291Y-274.8323
G1X157.8510Y-332.0793
G1X166.6437Y-388.4971
G1 Z0F20000
(Start Block)

G1X165.2453Y-52.6650
G1Z5.0F20000
(Plotting speed under)
G1 F8000

G1X164.7352Y-99.7799
G1X157.7653Y-140.4351
G1X163.8006Y-194.0954
G1X149.0658Y-274.6107
G1X159.3544Y-332.5244
G1X168.0703Y-388.8653
G1 Z0F20000
(Start Block)

G1X166.5275Y-52.8889
G1Z5.0F20000
(Plotting speed under)
G1 F8000

G1X166.1899Y-100.1763
G1X158.1623Y-139.7737
G1X164.9406Y-194.1771
G1X149.9025Y-274.3891
G1X160.8578Y-332.9694
G1X169.4969Y-389.2336
G1 Z0F20000
(Start Block)

G1X167.8097Y-53.1127
G1Z5.0F20000
(Plotting speed under)
G1 F8000

G1X167.6446Y-100.5727
G1X158.5593Y-139.1124
G1X166.0807Y-194.2589
G1X158.4746Y-234.2778
G1X150.7393Y-274.1675
G1X162.3612Y-333.4145
G1X170.9235Y-389.6019
G1 Z0F20000
(Start Block)

G1X169.0918Y-53.3365
G1Z5.0F20000
(Plotting speed under)
G1 F8000

G1X169.0993Y-100.9690
G1X158.9563Y-138.4511
G1X167.2208Y-194.3406
G1X159.4923Y-234.2372
G1X151.5760Y-273.9459
G1X163.8646Y-333.8596
G1X172.3502Y-389.9702
G1 Z0F20000
(Start Block)

G1X170.3740Y-53.5603
G1Z5.0F20000
(Plotting speed under)
G1 F8000

G1X170.5540Y-101.3654
G1X159.3533Y-137.7898
G1X168.3609Y-194.4224
G1X160.5101Y-234.1966
G1X152.4128Y-273.7244
G1X165.3680Y-334.3046
G1X173.7768Y-390.3385
G1 Z0F20000
(Start Block)

G1X171.6562Y-53.7842
G1Z5.0F20000
(Plotting speed under)
G1 F8000

G1X172.0087Y-101.7618
G1X159.7503Y-137.1284
G1X169.5009Y-194.5041
G1X161.5278Y-234.1560
G1X153.2495Y-273.5027
G1X166.8713Y-334.7497
G1X175.2034Y-390.7067
G1 Z0F20000
(Start Block)

G1X172.9383Y-54.0080
G1Z5.0F20000
(Plotting speed under)
G1 F8000

G1X173.4634Y-102.1581
G1X160.1474Y-136.4671
G1X170.6410Y-194.5859
G1X162.5455Y-234.1154
G1X154.0862Y-273.2812
G1X168.3747Y-335.1947
G1X176.6300Y-391.0750
G1 Z0F20000
(Start Block)

G1X174.2205Y-54.2318
G1Z5.0F20000
(Plotting speed under)
G1 F8000

G1X174.9181Y-102.5545
G1X160.5444Y-135.8058
G1X171.7811Y-194.6676
G1X163.5633Y-234.0748
G1X154.9230Y-273.0596
G1X169.8781Y-335.6398
G1X178.0566Y-391.4433
G1 Z0F20000
(Start Block)

G1X175.5027Y-54.4557
G1Z5.0F20000
(Plotting speed under)
G1 F8000

G1X176.3729Y-102.9509
G1X160.9414Y-135.1445
G1X172.9212Y-194.7493
G1X164.5810Y-234.0342
G1X155.7597Y-272.8380
G1X171.3815Y-336.0848
G1X179.4832Y-391.8116
G1 Z0F20000
(Start Block)

G1X176.7848Y-54.6795
G1Z5.0F20000
(Plotting speed under)
G1 F8000

G1X177.8276Y-103.3473
G1X161.3384Y-134.4832
G1X174.0613Y-194.8311
G1X165.5987Y-233.9936
G1X156.5964Y-272.6164
G1X172.8849Y-336.5299
G1X180.9098Y-392.1798
G1 Z0F20000
(Start Block)

G1X178.0670Y-54.9033
G1Z5.0F20000
(Plotting speed under)
G1 F8000

G1X179.2823Y-103.7436
G1X161.7354Y-133.8218
G1X175.2014Y-194.9128
G1X166.6165Y-233.9530
G1X157.4332Y-272.3948
G1X174.3883Y-336.9749
G1X182.3364Y-392.5481
G1 Z0F20000
(Start Block)

G1X179.3492Y-55.1272
G1Z5.0F20000
(Plotting speed under)
G1 F8000

G1X180.7370Y-104.1400
G1X162.1324Y-133.1605
G1X176.3414Y-194.9946
G1X167.6342Y-233.9124
G1X158.2699Y-272.1732
G1X175.8917Y-337.4200
G1X183.7631Y-392.9164
G1 Z0F20000
(Start Block)

G1X180.6313Y-55.3510
G1Z5.0F20000
(Plotting speed under)
G1 F8000

G1X182.1917Y-104.5364
G1X162.5294Y-132.4992
G1X177.4815Y-195.0763
G1X168.6520Y-233.8718
G1X159.1067Y-271.9516
G1X177.3951Y-337.8651
G1X185.1897Y-393.2847
G1 Z0F20000
(Start Block)

G1X181.9135Y-55.5748
G1Z5.0F20000
(Plotting speed under)
G1 F8000

G1X183.6464Y-104.9327
G1X162.9264Y-131.8378
G1X178.6216Y-195.1580
G1X169.6697Y-233.8312
G1X159.9434Y-271.7300
G1X178.8985Y-338.3101
G1X186.6163Y-393.6530
G1 Z0F20000
(Start Block)

G1X183.1957Y-55.7986
G1Z5.0F20000
(Plotting speed under)
G1 F8000

G1X185.1011Y-105.3291
G1X163.3234Y-131.1765
G1X179.7616Y-195.2398
G1X170.6874Y-233.7906
G1X160.7801Y-271.5084
G1X180.4019Y-338.7552
G1X188.0429Y-394.0212
G1 Z0F20000
(Start Block)

G1X184.4778Y-56.0225
G1Z5.0F20000
(Plotting speed under)
G1 F8000

G1X186.5558Y-105.7255
G1X163.7204Y-130.5152
G1X180.9017Y-195.3215
G1X171.7052Y-233.7500
G1X161.6169Y-271.2868
G1X181.9053Y-339.2002
G1X189.4695Y-394.3895
G1 Z0F20000
(Start Block)

G1X185.7600Y-56.2463
G1Z5.0F20000
(Plotting speed under)
G1 F8000

G1X188.0105Y-106.1219
G1X164.1175Y-129.8539
G1X182.0418Y-195.4033
G1X172.7229Y-233.7094
G1X162.4536Y-271.0652
G1X183.4087Y-339.6453
G1X190.8961Y-394.7578
G1 Z0F20000
(Start Block)

G1X187.0422Y-56.4701
G1Z5.0F20000
(Plotting speed under)
G1 F8000

G1X189.4652Y-106.5182
G1X164.5145Y-129.1926
G1X183.1819Y-195.4850
G1X173.7406Y-233.6688
G1X163.2904Y-270.8436
G1X184.9120Y-340.0903
G1X192.3227Y-395.1261
G1 Z0F20000
(Start Block)

G1X188.0934Y-56.4630
G1Z5.0F20000
(Plotting speed under)
G1 F8000

G1X189.8477Y-105.8424
G1X165.7821Y-129.4019
G1X183.5872Y-194.8320
G1X175.0642Y-233.9341
G1X165.0166Y-271.5115
G1X185.4181Y-339.5381
G1X192.9212Y-394.6662
G1 Z0F20000
(Start Block)

G1X189.1446Y-56.4559
G1Z5.0F20000
(Plotting speed under)
G1 F8000

G1X190.2302Y-105.1665
G1X167.0497Y-129.6112
G1X183.9925Y-194.1790
G1X176.3879Y-234.1994
G1X166.7429Y-272.1795
G1X185.9242Y-338.9859
G1X193.5197Y-394.2064
G1 Z0F20000
(Start Block)

G1X190.1958Y-56.4488
G1Z5.0F20000
(Plotting speed under)
G1 F8000

G1X190.6126Y-104.4907
G1X168.3174Y-129.8205
G1X184.3979Y-193.5260
G1X177.7115Y-234.4646
G1X168.4691Y-272.8474
G1X186.4304Y-338.4336
G1X194.1182Y-393.7465
G1 Z0F20000
(Start Block)

G1X191.2470Y-56.4416
G1Z5.0F20000
(Plotting speed under)
G1 F8000

G1X190.9951Y-103.8148
G1X169.5850Y-130.0298
G1X184.8032Y-192.8730
G1X179.0350Y-234.7299
G1X170.1954Y-273.5153
G1X186.9365Y-337.8814
G1X194.7167Y-393.2867
G1 Z0F20000
(Start Block)

G1X192.2982Y-56.4345
G1Z5.0F20000
(Plotting speed under)
G1 F8000

G1X191.3776Y-103.1389
G1X170.8527Y-130.2391
G1X185.2085Y-192.2200
G1X180.3586Y-234.9952
G1X171.9217Y-274.1832
G1X187.4425Y-337.3292
G1X195.3152Y-392.8269
G1 Z0F20000
(Start Block)

G1X193.3494Y-56.4274
G1Z5.0F20000
(Plotting speed under)
G1 F8000

G1X191.7600Y-102.4631
G1X172.1203Y-130.4484
G1X185.6138Y-191.5670
G1X181.6822Y-235.2604
G1X173.6479Y-274.8511
G1X187.9486Y-336.7769
G1X195.9137Y-392.3670
G1 Z0F20000
(Start Block)

G1X194.4006Y-56.4203
G1Z5.0F20000
(Plotting speed under)
G1 F8000

G1X192.1425Y-101.7872
G1X173.3880Y-130.6577
G1X186.0191Y-190.9139
G1X183.0059Y-235.5257
G1X175.3742Y-275.5191
G1X188.4547Y-336.2247
G1X196.5122Y-391.9072
G1 Z0F20000
(Start Block)

G1X195.4518Y-56.4131
G1Z5.0F20000
(Plotting speed under)
G1 F8000

G1X192.5250Y-101.1113
G1X174.6556Y-130.8670
G1X186.4245Y-190.2609
G1X184.3294Y-235.7909
G1X177.1004Y-276.1870
G1X188.9608Y-335.6725
G1X197.1107Y-391.4474
G1 Z0F20000
(Start Block)

G1X196.5030Y-56.4060
G1Z5.0F20000
(Plotting speed under)
G1 F8000

G1X192.9075Y-100.4355
G1X175.9233Y-131.0763
G1X186.8298Y-189.6079
G1X185.6530Y-236.0562
G1X178.8267Y-276.8549
G1X189.4669Y-335.1202
G1X197.7092Y-390.9875
G1 Z0F20000
(Start Block)

G1X197.5542Y-56.3989
G1Z5.0F20000
(Plotting speed under)
G1 F8000

G1X193.2899Y-99.7596
G1X177.1909Y-131.2856
G1X187.2351Y-188.9549
G1X186.9766Y-236.3215
G1X180.5529Y-277.5228
G1X189.9730Y-334.5680
G1X198.3077Y-390.5277
G1 Z0F20000
(Start Block)

G1X198.6055Y-56.3918
G1Z5.0F20000
(Plotting speed under)
G1 F8000

G1X193.6724Y-99.0838
G1X178.4585Y-131.4949
G1X187.6405Y-188.3019
G1X188.3003Y-236.5868
G1X182.2792Y-278.1908
G1X190.4791Y-334.0157
G1X198.9062Y-390.0678
G1 Z0F20000
(Start Block)

G1X199.6566Y-56.3846
G1Z5.0F20000
(Plotting speed under)
G1 F8000

G1X194.0549Y-98.4079
G1X179.7262Y-131.7043
G1X188.0458Y-187.6489
G1X189.6239Y-236.8520
G1X184.0055Y-278.8587
G1X190.9852Y-333.4635
G1X199.5047Y-389.6080
G1 Z0F20000
(Start Block)

G1X200.7079Y-56.3775
G1Z5.0F20000
(Plotting speed under)
G1 F8000

G1X194.4373Y-97.7320
G1X180.9938Y-131.9136
G1X188.4511Y-186.9959
G1X190.9474Y-237.1173
G1X185.7317Y-279.5266
G1X191.4913Y-332.9113
G1X200.1032Y-389.1482
G1 Z0F20000
(Start Block)

G1X201.7591Y-56.3704
G1Z5.0F20000
(Plotting speed under)
G1 F8000

G1X194.8198Y-97.0562
G1X182.2615Y-132.1229
G1X188.8564Y-186.3429
G1X192.2710Y-237.3825
G1X187.4579Y-280.1945
G1X191.9974Y-332.3590
G1X200.7016Y-388.6883
G1 Z0F20000
(Start Block)

G1X202.8103Y-56.3632
G1Z5.0F20000
(Plotting speed under)
G1 F8000

G1X195.2023Y-96.3803
G1X183.5291Y-132.3322
G1X189.2617Y-185.6899
G1X193.5946Y-237.6478
G1X189.1842Y-280.8625
G1X192.5035Y-331.8068
G1X201.3001Y-388.2285
G1 Z0F20000
(Start Block)

G1X203.8615Y-56.3561
G1Z5.0F20000
(Plotting speed under)
G1 F8000

G1X195.5848Y-95.7044
G1X184.7968Y-132.5415
G1X189.6671Y-185.0369
G1X194.9183Y-237.9131
G1X190.9105Y-281.5304
G1X193.0096Y-331.2545
G1X201.8987Y-387.7686
G1 Z0F20000
(Start Block)

G1X204.9127Y-56.3490
G1Z5.0F20000
(Plotting speed under)
G1 F8000

G1X195.9672Y-95.0286
G1X186.0644Y-132.7508
G1X190.0724Y-184.3839
G1X196.2418Y-238.1783
G1X192.6367Y-282.1983
G1X193.5157Y-330.7023
G1X202.4971Y-387.3088
G1 Z0F20000
(Start Block)

G1X205.9639Y-56.3419
G1Z5.0F20000
(Plotting speed under)
G1 F8000

G1X196.3497Y-94.3527
G1X187.3321Y-132.9601
G1X190.4777Y-183.7308
G1X197.5654Y-238.4436
G1X194.3630Y-282.8662
G1X194.0218Y-330.1501
G1X203.0956Y-386.8490
G1 Z0F20000
(Start Block)

G1X207.0151Y-56.3347
G1Z5.0F20000
(Plotting speed under)
G1 F8000

G1X196.7322Y-93.6769
G1X188.5997Y-133.1694
G1X190.8831Y-183.0778
G1X198.8890Y-238.7089
G1X196.0892Y-283.5341
G1X194.5279Y-329.5978
G1X203.6941Y-386.3891
G1 Z0F20000
(Start Block)

G1X208.0663Y-56.3276
G1Z5.0F20000
(Plotting speed under)
G1 F8000

G1X197.1146Y-93.0010
G1X189.8673Y-133.3787
G1X191.2884Y-182.4248
G1X200.2126Y-238.9742
G1X197.8155Y-284.2020
G1X195.0340Y-329.0456
G1X204.2926Y-385.9293
G1 Z0F20000
(Start Block)

G1X209.1175Y-56.3205
G1Z5.0F20000
(Plotting speed under)
G1 F8000

G1X197.4971Y-92.3251
G1X191.1350Y-133.5880
G1X191.6937Y-181.7718
G1X201.5362Y-239.2394
G1X199.5417Y-284.8700
G1X195.5401Y-328.4934
G1X204.8911Y-385.4694
G1 Z0F20000
(Start Block)

G1X210.1687Y-56.3134
G1Z5.0F20000
(Plotting speed under)
G1 F8000

G1X197.8796Y-91.6493
G1X192.4026Y-133.7974
G1X192.0990Y-181.1188
G1X202.8598Y-239.5047
G1X201.2680Y-285.5379
G1X196.0462Y-327.9411
G1X205.4896Y-385.0096
G1 Z0F20000
(Start Block)

G1X211.2200Y-56.3062
G1Z5.0F20000
(Plotting speed under)
G1 F8000

G1X198.2621Y-90.9734
G1X193.6703Y-134.0067
G1X192.5043Y-180.4658
G1X204.1834Y-239.7699
G1X202.9943Y-286.2058
G1X196.5523Y-327.3889
G1X206.0881Y-384.5498
G1 Z0F20000
(Start Block)

G1X212.2712Y-56.2991
G1Z5.0F20000
(Plotting speed under)
G1 F8000

G1X198.6445Y-90.2976
G1X194.9379Y-134.2160
G1X192.9097Y-179.8128
G1X205.5070Y-240.0352
G1X204.7205Y-286.8737
G1X197.0584Y-326.8367
G1X206.6866Y-384.0899
G1 Z0F20000
(Start Block)

G1X213.3224Y-56.2920
G1Z5.0F20000
(Plotting speed under)
G1 F8000

G1X199.0270Y-89.6217
G1X193.3150Y-179.1598
G1X206.8306Y-240.3005
G1X206.4468Y-287.5417
G1X197.5645Y-326.2844
G1X207.2851Y-383.6301
G1 Z0F20000
(Start Block)

G1X214.3736Y-56.2849
G1Z5.0F20000
(Plotting speed under)
G1 F8000

G1X199.4095Y-88.9458
G1X197.4732Y-134.6346
G1X193.7203Y-178.5068
G1X208.1542Y-240.5657
G1X208.1730Y-288.2096
G1X198.0706Y-325.7322
G1X207.8836Y-383.1703
G1 Z0F20000
(Start Block)

G1X215.4248Y-56.2778
G1Z5.0F20000
(Plotting speed under)
G1 F8000

G1X199.7920Y-88.2700
G1X198.7408Y-134.8439
G1X194.1256Y-177.8538
G1X209.4778Y-240.8310
G1X209.8993Y-288.8775
G1X198.5767Y-325.1799
G1X208.4821Y-382.7104
G1 Z0F20000
(Start Block)

G1X216.4760Y-56.2706
G1Z5.0F20000
(Plotting speed under)
G1 F8000

G1X200.1744Y-87.5941
G1X200.0085Y-135.0532
G1X194.5310Y-177.2008
G1X210.8014Y-241.0963
G1X211.6255Y-289.5454
G1X199.0828Y-324.6277
G1X209.0806Y-382.2506
G1 Z0F20000
(Start Block)

G1X217.5272Y-56.2635
G1Z5.0F20000
(Plotting speed under)
G1 F8000

G1X200.5569Y-86.9182
G1X201.2761Y-135.2625
G1X194.9363Y-176.5477
G1X212.1250Y-241.3615
G1X213.3518Y-290.2134
G1X199.5889Y-324.0755
G1X209.6791Y-381.7907
G1 Z0F20000
(Start Block)

G1X218.5784Y-56.2564
G1Z5.0F20000
(Plotting speed under)
G1 F8000

G1X200.9393Y-86.2424
G1X202.5438Y-135.4718
G1X195.3416Y-175.8948
G1X213.4486Y-241.6268
G1X215.0781Y-290.8813
G1X200.0950Y-323.5232
G1X210.2776Y-381.3309
G1 Z0F20000
(Start Block)

G1X219.6296Y-56.2493
G1Z5.0F20000
(Plotting speed under)
G1 F8000

G1X201.3218Y-85.5665
G1X203.8114Y-135.6811
G1X195.7470Y-175.2417
G1X214.7722Y-241.8921
G1X216.8043Y-291.5492
G1X200.6011Y-322.9710
G1X210.8761Y-380.8711
G1 Z0F20000
(Start Block)

G1X220.6808Y-56.2421
G1Z5.0F20000
(Plotting speed under)
G1 F8000

G1X201.7043Y-84.8906
G1X205.0790Y-135.8904
G1X196.1523Y-174.5887
G1X216.0958Y-242.1573
G1X218.5306Y-292.2171
G1X201.1071Y-322.4188
G1X211.4746Y-380.4112
G1 Z0F20000
(Start Block)

G1X221.7321Y-56.2350
G1Z5.0F20000
(Plotting speed under)
G1 F8000

G1X202.0868Y-84.2148
G1X206.3467Y-136.0998
G1X196.5576Y-173.9357
G1X217.4194Y-242.4226
G1X220.2568Y-292.8850
G1X201.6132Y-321.8665
G1X212.0730Y-379.9514
G1 Z0F20000
(Start Block)

G1X222.7833Y-56.2279
G1Z5.0F20000
(Plotting speed under)
G1 F8000

G1X202.4693Y-83.5389
G1X207.6143Y-136.3091
G1X196.9629Y-173.2827
G1X218.7430Y-242.6878
G1X221.9831Y-293.5530
G1X202.1193Y-321.3143
G1X212.6716Y-379.4916
G1 Z0F20000
(Start Block)

G1X223.8345Y-56.2207
G1Z5.0F20000
(Plotting speed under)
G1 F8000

G1X202.8517Y-82.8630
G1X208.8820Y-136.5184
G1X197.3682Y-172.6297
G1X220.0666Y-242.9531
G1X223.7094Y-294.2209
G1X202.6254Y-320.7620
G1X213.2701Y-379.0317
G1 Z0F20000
(Start Block)

G1X224.8857Y-56.2136
G1Z5.0F20000
(Plotting speed under)
G1 F8000

G1X203.2342Y-82.1872
G1X210.1496Y-136.7277
G1X197.7736Y-171.9767
G1X221.3903Y-243.2184
G1X225.4356Y-294.8888
G1X203.1315Y-320.2098
G1X213.8685Y-378.5719
G1 Z0F20000
(Start Block)

G1X225.9369Y-56.2065
G1Z5.0F20000
(Plotting speed under)
G1 F8000

G1X203.6166Y-81.5113
G1X211.4173Y-136.9370
G1X198.1789Y-171.3236
G1X222.7139Y-243.4837
G1X227.1619Y-295.5567
G1X203.6376Y-319.6576
G1X214.4671Y-378.1120
G1 Z0F20000
(Start Block)

G1X226.9881Y-56.1994
G1Z5.0F20000
(Plotting speed under)
G1 F8000

G1X203.9991Y-80.8355
G1X212.6849Y-137.1463
G1X198.5842Y-170.6706
G1X224.0374Y-243.7489
G1X228.8881Y-296.2246
G1X204.1437Y-319.1053
G1X215.0655Y-377.6522
G1 Z0F20000
(Start Block)

G1X228.0393Y-56.1922
G1Z5.0F20000
(Plotting speed under)
G1 F8000

G1X204.3816Y-80.1596
G1X213.9525Y-137.3556
G1X198.9896Y-170.0176
G1X225.3610Y-244.0142
G1X230.6144Y-296.8926
G1X204.6498Y-318.5531
G1X215.6640Y-377.1923
G1 Z0F20000
(Start Block)

G1X229.0905Y-56.1851
G1Z5.0F20000
(Plotting speed under)
G1 F8000

G1X204.7641Y-79.4837
G1X215.2202Y-137.5649
G1X199.3949Y-169.3646
G1X226.6846Y-244.2794
G1X232.3406Y-297.5605
G1X205.1559Y-318.0008
G1X216.2625Y-376.7325
G1 Z0F20000
(Start Block)

G1X230.1417Y-56.1780
G1Z5.0F20000
(Plotting speed under)
G1 F8000

G1X205.1465Y-78.8079
G1X216.4878Y-137.7742
G1X199.8002Y-168.7116
G1X228.0083Y-244.5447
G1X234.0669Y-298.2284
G1X205.6620Y-317.4486
G1X216.8610Y-376.2727
G1 Z0F20000
(Start Block)

G1X231.1929Y-56.1709
G1Z5.0F20000
(Plotting speed under)
G1 F8000

G1X205.5290Y-78.1320
G1X217.7555Y-137.9835
G1X200.2055Y-168.0586
G1X229.3319Y-244.8100
G1X235.7931Y-298.8963
G1X206.1681Y-316.8964
G1X217.4595Y-375.8128
G1 Z0F20000
(Start Block)

G1X232.2442Y-56.1637
G1Z5.0F20000
(Plotting speed under)
G1 F8000

G1X205.9115Y-77.4562
G1X219.0231Y-138.1928
G1X200.6108Y-167.4056
G1X230.6554Y-245.0752
G1X237.5194Y-299.5643
G1X206.6742Y-316.3441
G1X218.0580Y-375.3530
G1 Z0F20000
(Start Block)

G1X233.2954Y-56.1566
G1Z5.0F20000
(Plotting speed under)
G1 F8000

G1X206.2940Y-76.7803
G1X220.2908Y-138.4022
G1X201.0162Y-166.7526
G1X231.9790Y-245.3405
G1X239.2457Y-300.2322
G1X207.1803Y-315.7919
G1X218.6565Y-374.8932
G1 Z0F20000
(Start Block)

G1X234.3466Y-56.1495
G1Z5.0F20000
(Plotting speed under)
G1 F8000

G1X206.6764Y-76.1044
G1X221.5584Y-138.6114
G1X201.4215Y-166.0996
G1X233.3026Y-245.6058
G1X240.9719Y-300.9001
G1X207.6864Y-315.2396
G1X219.2550Y-374.4333
G1 Z0F20000
(Start Block)

G1X235.0152Y-55.7598
G1Z5.0F20000
(Plotting speed under)
G1 F8000

G1X208.2445Y-76.6141
G1X222.8794Y-138.8741
G1X203.0457Y-166.6655
G1X234.1732Y-245.4179
G1X241.4936Y-300.3634
G1X209.0195Y-315.5144
G1X220.3905Y-374.5105
G1 Z0F20000
(Start Block)

G1X235.6838Y-55.3701
G1Z5.0F20000
(Plotting speed under)
G1 F8000

G1X209.8125Y-77.1239
G1X224.2004Y-139.1367
G1X204.6700Y-167.2314
G1X235.0437Y-245.2301
G1X242.0152Y-299.8268
G1X210.3525Y-315.7891
G1X221.5260Y-374.5876
G1 Z0F20000
(Start Block)

G1X236.3524Y-54.9804
G1Z5.0F20000
(Plotting speed under)
G1 F8000

G1X211.3806Y-77.6336
G1X225.5214Y-139.3994
G1X206.2942Y-167.7973
G1X235.9142Y-245.0423
G1X242.5369Y-299.2901
G1X211.6856Y-316.0638
G1X222.6615Y-374.6648
G1 Z0F20000
(Start Block)

G1X237.0211Y-54.5907
G1Z5.0F20000
(Plotting speed under)
G1 F8000

G1X212.9486Y-78.1433
G1X226.8423Y-139.6620
G1X207.9184Y-168.3632
G1X236.7847Y-244.8545
G1X243.0586Y-298.7534
G1X213.0186Y-316.3385
G1X223.7970Y-374.7419
G1 Z0F20000
(Start Block)

G1X237.6897Y-54.2010
G1Z5.0F20000
(Plotting speed under)
G1 F8000

G1X214.5167Y-78.6530
G1X228.1633Y-139.9247
G1X209.5427Y-168.9291
G1X237.6552Y-244.6667
G1X243.5802Y-298.2167
G1X214.3517Y-316.6133
G1X224.9325Y-374.8191
G1 Z0F20000
(Start Block)

G1X238.3583Y-53.8112
G1Z5.0F20000
(Plotting speed under)
G1 F8000

G1X216.0847Y-79.1627
G1X229.4843Y-140.1873
G1X211.1669Y-169.4950
G1X238.5257Y-244.4789
G1X244.1019Y-297.6801
G1X215.6847Y-316.8880
G1X226.0680Y-374.8962
G1 Z0F20000
(Start Block)

G1X239.0269Y-53.4215
G1Z5.0F20000
(Plotting speed under)
G1 F8000

G1X217.6528Y-79.6725
G1X230.8052Y-140.4499
G1X212.7912Y-170.0609
G1X239.3963Y-244.2911
G1X244.6236Y-297.1434
G1X217.0178Y-317.1627
G1X227.2034Y-374.9734
G1 Z0F20000
(Start Block)

G1X239.6956Y-53.0318
G1Z5.0F20000
(Plotting speed under)
G1 F8000

G1X219.2209Y-80.1822
G1X232.1262Y-140.7126
G1X214.4154Y-170.6268
G1X240.2668Y-244.1032
G1X245.1452Y-296.6067
G1X218.3509Y-317.4374
G1X228.3389Y-375.0505
G1 Z0F20000
(Start Block)

G1X240.3642Y-52.6421
G1Z5.0F20000
(Plotting speed under)
G1 F8000

G1X220.7889Y-80.6919
G1X233.4472Y-140.9752
G1X216.0396Y-171.1927
G1X241.1373Y-243.9154
G1X245.6669Y-296.0700
G1X219.6839Y-317.7122
G1X229.4744Y-375.1277
G1 Z0F20000
(Start Block)

G1X241.0328Y-52.2524
G1Z5.0F20000
(Plotting speed under)
G1 F8000

G1X222.3570Y-81.2016
G1X234.7681Y-141.2378
G1X217.6639Y-171.7586
G1X242.0078Y-243.7276
G1X246.1885Y-295.5334
G1X221.0170Y-317.9869
G1X230.6099Y-375.2049
G1 Z0F20000
(Start Block)

G1X241.7015Y-51.8627
G1Z5.0F20000
(Plotting speed under)
G1 F8000

G1X223.9250Y-81.7113
G1X236.0891Y-141.5005
G1X219.2881Y-172.3245
G1X242.8783Y-243.5398
G1X246.7102Y-294.9967
G1X222.3501Y-318.2616
G1X231.7454Y-375.2820
G1 Z0F20000
(Start Block)

G1X242.3701Y-51.4730
G1Z5.0F20000
(Plotting speed under)
G1 F8000

G1X225.4931Y-82.2211
G1X237.4101Y-141.7631
G1X220.9123Y-172.8904
G1X243.7489Y-243.3520
G1X247.2319Y-294.4600
G1X223.6831Y-318.5364
G1X232.8809Y-375.3592
G1 Z0F20000
(Start Block)

G1X243.0387Y-51.0833
G1Z5.0F20000
(Plotting speed under)
G1 F8000

G1X227.0611Y-82.7308
G1X238.7311Y-142.0258
G1X222.5366Y-173.4563
G1X244.6194Y-243.1641
G1X247.7535Y-293.9234
G1X225.0162Y-318.8111
G1X234.0164Y-375.4363
G1 Z0F20000
(Start Block)

G1X243.7073Y-50.6936
G1Z5.0F20000
(Plotting speed under)
G1 F8000

G1X228.6292Y-83.2405
G1X240.0520Y-142.2884
G1X224.1608Y-174.0222
G1X245.4899Y-242.9763
G1X248.2752Y-293.3867
G1X226.3493Y-319.0858
G1X235.1519Y-375.5135
G1 Z0F20000
(Start Block)

G1X244.3759Y-50.3039
G1Z5.0F20000
(Plotting speed under)
G1 F8000

G1X230.1973Y-83.7502
G1X241.3730Y-142.5510
G1X225.7851Y-174.5881
G1X246.3604Y-242.7885
G1X248.7969Y-292.8500
G1X227.6823Y-319.3605
G1X236.2874Y-375.5906
G1 Z0F20000
(Start Block)

G1X245.0446Y-49.9141
G1Z5.0F20000
(Plotting speed under)
G1 F8000

G1X231.7653Y-84.2599
G1X242.6940Y-142.8137
G1X227.4093Y-175.1540
G1X247.2309Y-242.6007
G1X249.3185Y-292.3134
G1X229.0154Y-319.6353
G1X237.4228Y-375.6678
G1 Z0F20000
(Start Block)

G1X245.7132Y-49.5244
G1Z5.0F20000
(Plotting speed under)
G1 F8000

G1X233.3333Y-84.7696
G1X244.0150Y-143.0763
G1X229.0335Y-175.7199
G1X248.1014Y-242.4129
G1X249.8402Y-291.7767
G1X230.3484Y-319.9100
G1X238.5583Y-375.7449
G1 Z0F20000
(Start Block)

G1X246.3818Y-49.1347
G1Z5.0F20000
(Plotting speed under)
G1 F8000

G1X234.9014Y-85.2794
G1X245.3359Y-143.3389
G1X230.6578Y-176.2858
G1X248.9719Y-242.2251
G1X250.3618Y-291.2400
G1X231.6815Y-320.1847
G1X239.6938Y-375.8221
G1 Z0F20000
(Start Block)

G1X247.0505Y-48.7450
G1Z5.0F20000
(Plotting speed under)
G1 F8000

G1X236.4694Y-85.7891
G1X246.6569Y-143.6016
G1X232.2820Y-176.8517
G1X249.8424Y-242.0372
G1X250.8835Y-290.7033
G1X233.0145Y-320.4594
G1X240.8293Y-375.8992
G1 Z0F20000
(Start Block)

G1X247.7191Y-48.3553
G1Z5.0F20000
(Plotting speed under)
G1 F8000

G1X238.0375Y-86.2988
G1X247.9779Y-143.8642
G1X233.9062Y-177.4176
G1X250.7130Y-241.8494
G1X251.4052Y-290.1667
G1X234.3476Y-320.7342
G1X241.9648Y-375.9764
G1 Z0F20000
(Start Block)

G1X248.3877Y-47.9656
G1Z5.0F20000
(Plotting speed under)
G1 F8000

G1X239.6056Y-86.8085
G1X249.2988Y-144.1268
G1X235.5305Y-177.9835
G1X251.5835Y-241.6616
G1X251.9268Y-289.6300
G1X235.6807Y-321.0089
G1X243.1003Y-376.0536
G1 Z0F20000
(Start Block)

G1X249.0563Y-47.5759
G1Z5.0F20000
(Plotting speed under)
G1 F8000

G1X241.1736Y-87.3182
G1X250.6198Y-144.3895
G1X237.1547Y-178.5494
G1X252.4540Y-241.4738
G1X252.4485Y-289.0933
G1X237.0137Y-321.2836
G1X244.2358Y-376.1307
G1 Z0F20000
(Start Block)

G1X249.7249Y-47.1862
G1Z5.0F20000
(Plotting speed under)
G1 F8000

G1X242.7417Y-87.8280
G1X251.9408Y-144.6521
G1X238.7789Y-179.1153
G1X253.3245Y-241.2860
G1X252.9701Y-288.5567
G1X238.3468Y-321.5584
G1X245.3712Y-376.2079
G1 Z0F20000
(Start Block)

G1X250.3936Y-46.7965
G1Z5.0F20000
(Plotting speed under)
G1 F8000

G1X244.3097Y-88.3377
G1X253.2618Y-144.9148
G1X240.4032Y-179.6812
G1X254.1950Y-241.0981
G1X253.4918Y-288.0200
G1X239.6798Y-321.8331
G1X246.5068Y-376.2850
G1 Z0F20000
(Start Block)

G1X251.0622Y-46.4068
G1Z5.0F20000
(Plotting speed under)
G1 F8000

G1X245.8778Y-88.8474
G1X254.5827Y-145.1774
G1X242.0274Y-180.2471
G1X255.0656Y-240.9103
G1X254.0135Y-287.4833
G1X241.0129Y-322.1078
G1X247.6422Y-376.3622
G1 Z0F20000
(Start Block)

G1X251.7308Y-46.0170
G1Z5.0F20000
(Plotting speed under)
G1 F8000

G1X247.4458Y-89.3571
G1X255.9037Y-145.4401
G1X243.6516Y-180.8130
G1X255.9361Y-240.7225
G1X254.5352Y-286.9467
G1X242.3460Y-322.3825
G1X248.7777Y-376.4393
G1 Z0F20000
(Start Block)

G1X252.3994Y-45.6273
G1Z5.0F20000
(Plotting speed under)
G1 F8000

G1X249.0139Y-89.8668
G1X257.2247Y-145.7027
G1X245.2759Y-181.3789
G1X256.8066Y-240.5347
G1X255.0568Y-286.4100
G1X243.6790Y-322.6572
G1X249.9132Y-376.5165
G1 Z0F20000
(Start Block)

G1X253.0681Y-45.2376
G1Z5.0F20000
(Plotting speed under)
G1 F8000

G1X250.5819Y-90.3766
G1X258.5457Y-145.9653
G1X246.9001Y-181.9448
G1X257.6771Y-240.3469
G1X255.5785Y-285.8733
G1X245.0121Y-322.9320
G1X251.0487Y-376.5936
G1 Z0F20000
(Start Block)

G1X253.7367Y-44.8479
G1Z5.0F20000
(Plotting speed under)
G1 F8000

G1X252.1500Y-90.8863
G1X259.8666Y-146.2280
G1X248.5243Y-182.5107
G1X258.5476Y-240.1591
G1X256.1001Y-285.3366
G1X246.3452Y-323.2067
G1X252.1842Y-376.6708
G1 Z0F20000
(Start Block)

G1X254.4053Y-44.4582
G1Z5.0F20000
(Plotting speed under)
G1 F8000

G1X253.7180Y-91.3960
G1X261.1876Y-146.4906
G1X250.1486Y-183.0766
G1X259.4181Y-239.9713
G1X256.6218Y-284.8000
G1X247.6782Y-323.4814
G1X253.3197Y-376.7480
G1 Z0F20000
(Start Block)

G1X255.0739Y-44.0685
G1Z5.0F20000
(Plotting speed under)
G1 F8000

G1X255.2861Y-91.9057
G1X262.5086Y-146.7532
G1X251.7728Y-183.6425
G1X260.2887Y-239.7834
G1X257.1434Y-284.2633
G1X249.0113Y-323.7561
G1X254.4552Y-376.8251
G1 Z0F20000
(Start Block)

G1X255.7426Y-43.6788
G1Z5.0F20000
(Plotting speed under)
G1 F8000

G1X256.8541Y-92.4154
G1X263.8295Y-147.0159
G1X253.3970Y-184.2084
G1X261.1592Y-239.5956
G1X257.6651Y-283.7266
G1X250.3443Y-324.0309
G1X255.5907Y-376.9023
G1 Z0F20000
(Start Block)

G1X256.4112Y-43.2891
G1Z5.0F20000
(Plotting speed under)
G1 F8000

G1X258.4222Y-92.9252
G1X265.1505Y-147.2785
G1X255.0213Y-184.7743
G1X262.0297Y-239.4078
G1X258.1868Y-283.1899
G1X251.6774Y-324.3056
G1X256.7261Y-376.9794
G1 Z0F20000
(Start Block)

G1X257.0798Y-42.8994
G1Z5.0F20000
(Plotting speed under)
G1 F8000

G1X259.9903Y-93.4349
G1X266.4715Y-147.5412
G1X256.6455Y-185.3402
G1X262.9002Y-239.2200
G1X258.7085Y-282.6533
G1X253.0104Y-324.5803
G1X257.8616Y-377.0566
G1 Z0F20000
(Start Block)

G1X257.7484Y-42.5097
G1Z5.0F20000
(Plotting speed under)
G1 F8000

G1X261.5583Y-93.9446
G1X267.7925Y-147.8038
G1X258.2697Y-185.9061
G1X263.7707Y-239.0322
G1X259.2301Y-282.1166
G1X254.3435Y-324.8550
G1X258.9971Y-377.1337
G1 Z0F20000
(Start Block)

G1X258.4171Y-42.1200
G1Z5.0F20000
(Plotting speed under)
G1 F8000

G1X263.1264Y-94.4543
G1X269.1134Y-148.0664
G1X259.8940Y-186.4721
G1X264.6412Y-238.8443
G1X259.7518Y-281.5799
G1X255.6766Y-325.1298
G1X260.1326Y-377.2109
G1 Z0F20000
(Start Block)

G1X259.0857Y-41.7303
G1Z5.0F20000
(Plotting speed under)
G1 F8000

G1X264.6944Y-94.9640
G1X270.4344Y-148.3291
G1X261.5182Y-187.0379
G1X265.5117Y-238.6565
G1X260.2734Y-281.0433
G1X257.0096Y-325.4045
G1X261.2681Y-377.2880
G1 Z0F20000
(Start Block)

G1X259.7543Y-41.3406
G1Z5.0F20000
(Plotting speed under)
G1 F8000

G1X266.2625Y-95.4738
G1X271.7554Y-148.5917
G1X263.1424Y-187.6038
G1X266.3823Y-238.4687
G1X260.7951Y-280.5066
G1X258.3427Y-325.6792
G1X262.4036Y-377.3652
G1 Z0F20000
(Start Block)

G1X260.4230Y-40.9509
G1Z5.0F20000
(Plotting speed under)
G1 F8000

G1X267.8305Y-95.9835
G1X273.0764Y-148.8543
G1X264.7667Y-188.1698
G1X267.2528Y-238.2809
G1X261.3167Y-279.9699
G1X259.6757Y-325.9540
G1X263.5391Y-377.4424
G1 Z0F20000
(Start Block)

G1X261.0916Y-40.5611
G1Z5.0F20000
(Plotting speed under)
G1 F8000

G1X269.3986Y-96.4932
G1X274.3974Y-149.1170
G1X266.3909Y-188.7356
G1X268.1233Y-238.0931
G1X261.8384Y-279.4333
G1X261.0088Y-326.2287
G1X264.6746Y-377.5195
G1 Z0F20000
(Start Block)

G1X261.7602Y-40.1714
G1Z5.0F20000
(Plotting speed under)
G1 F8000

G1X270.9666Y-97.0029
G1X275.7183Y-149.3796
G1X268.0152Y-189.3015
G1X268.9938Y-237.9053
G1X262.3601Y-278.8966
G1X262.3418Y-326.5034
G1X265.8101Y-377.5967
G1 Z0F20000
(Start Block)

G1X262.4288Y-39.7817
G1Z5.0F20000
(Plotting speed under)
G1 F8000

G1X272.5347Y-97.5126
G1X277.0393Y-149.6422
G1X269.6394Y-189.8675
G1X269.8644Y-237.7174
G1X262.8817Y-278.3599
G1X263.6749Y-326.7781
G1X266.9455Y-377.6738
G1 Z0F20000
(Start Block)

G1X263.0974Y-39.3920
G1Z5.0F20000
(Plotting speed under)
G1 F8000

G1X274.1027Y-98.0223
G1X278.3603Y-149.9049
G1X271.2637Y-190.4333
G1X270.7349Y-237.5296
G1X263.4034Y-277.8232
G1X265.0080Y-327.0529
G1X268.0810Y-377.7510
G1 Z0F20000
(Start Block)

G1X263.7661Y-39.0023
G1Z5.0F20000
(Plotting speed under)
G1 F8000

G1X275.6708Y-98.5321
G1X279.6812Y-150.1675
G1X272.8879Y-190.9993
G1X271.6054Y-237.3418
G1X263.9251Y-277.2866
G1X266.3410Y-327.3276
G1X269.2165Y-377.8281
G1 Z0F20000
(Start Block)

G1X264.4347Y-38.6126
G1Z5.0F20000
(Plotting speed under)
G1 F8000

G1X277.2388Y-99.0418
G1X281.0022Y-150.4302
G1X274.5121Y-191.5652
G1X272.4759Y-237.1540
G1X264.4467Y-276.7499
G1X267.6741Y-327.6023
G1X270.3520Y-377.9053
G1 Z0F20000

G00 X0.0000 Y0.0000

