$H
G21
G17
G90
G1 Z0F20000
G1 F15000

(Start Layer)

(Start Block)


G1X11.4728Y-114.2239
G1Z5F20000
(Plotting speed under)
G1 F4000


G1X13.3552Y-113.2328

G1X14.7147Y-112.6770

G1X16.0742Y-112.3423

G1X17.4337Y-112.2285

G1X19.4207Y-112.3587

G1X24.4405Y-113.0899

G1X27.3687Y-113.2461

G1X30.6106Y-113.0731

G1X36.7808Y-112.2897

G1X38.2449Y-112.2278

G1X39.4998Y-112.2849

G1X40.9639Y-112.5091

G1X42.4280Y-112.9097

G1X46.5066Y-114.5607

G1X47.8661Y-115.0305

G1X49.0164Y-115.2884

G1X50.0622Y-115.3802

G1X51.1080Y-115.3252

G1X52.2584Y-115.1050

G1X53.5133Y-114.7129

G1X57.2781Y-113.3133

G1X58.5331Y-113.0186

G1X59.7880Y-112.8857

G1X61.0430Y-112.9173

G1X62.4025Y-113.1095

G1X66.7948Y-114.1919

G1X68.4680Y-114.5249

G1X70.0367Y-114.7212

G1X71.6054Y-114.8023

G1X74.7427Y-114.6935

G1X81.4358Y-114.0505

G1X85.0960Y-113.7775

G1X93.5669Y-113.4799

G1 Z0F20000

(Start Block)


G1X11.4728Y-113.1941
G1Z5F20000
(Plotting speed under)
G1 F4000


G1X13.9827Y-111.8450

G1X15.2376Y-111.2960

G1X16.7017Y-110.8967

G1X18.1658Y-110.7594

G1X19.9436Y-110.8517

G1X24.5451Y-111.4351

G1X26.9504Y-111.5534

G1X29.7740Y-111.4319

G1X35.5258Y-110.8008

G1X36.9899Y-110.7595

G1X38.2449Y-110.8339

G1X39.6044Y-111.0552

G1X41.0685Y-111.4647

G1X46.2974Y-113.5437

G1X47.4478Y-113.8140

G1X48.4935Y-113.9103

G1X49.5393Y-113.8511

G1X50.6897Y-113.6155

G1X51.8401Y-113.2371

G1X55.3957Y-111.8488

G1X56.6507Y-111.5390

G1X57.8010Y-111.4147

G1X58.9514Y-111.4481

G1X60.2063Y-111.6407

G1X64.1803Y-112.7217

G1X65.7490Y-113.0716

G1X67.1085Y-113.2602

G1X68.4680Y-113.3344

G1X71.0825Y-113.2082

G1X77.6709Y-112.3584

G1X81.6449Y-112.0348

G1X86.5601Y-111.9093

G1X93.5669Y-111.9921

G1 Z0F20000

(Start Block)


G1X11.4728Y-112.2447
G1Z5F20000
(Plotting speed under)
G1 F4000


G1X12.5186Y-111.8393

G1X15.2376Y-110.4222

G1X16.5971Y-109.8469

G1X18.1658Y-109.4406

G1X19.9436Y-109.2892

G1X26.5321Y-109.6151

G1X28.7282Y-109.5692

G1X33.4342Y-109.2955

G1X36.0487Y-109.3983

G1X37.5128Y-109.6496

G1X38.9769Y-110.0620

G1X44.1013Y-112.0668

G1X45.2516Y-112.3402

G1X46.2974Y-112.4400

G1X47.3432Y-112.3819

G1X48.3890Y-112.1705

G1X49.6439Y-111.7525

G1X53.0950Y-110.3639

G1X54.2454Y-110.0700

G1X55.3957Y-109.9429

G1X56.3369Y-109.9692

G1X57.3827Y-110.1223

G1X62.2979Y-111.5126

G1X63.6574Y-111.7579

G1X65.0169Y-111.8621

G1X67.6314Y-111.7103

G1X74.2198Y-110.7027

G1X77.7755Y-110.4603

G1X82.6907Y-110.5041

G1X93.5669Y-111.0216

G1 Z0F20000

(Start Block)


G1X11.4728Y-110.9559
G1Z5F20000
(Plotting speed under)
G1 F4000


G1X12.5186Y-110.9164

G1X13.5643Y-110.6440

G1X17.3292Y-108.9156

G1X19.1070Y-108.3058

G1X21.0940Y-107.9488

G1X23.6039Y-107.8232

G1X30.4015Y-107.8382

G1X32.0747Y-107.9257

G1X33.5388Y-108.0997

G1X34.8983Y-108.3693

G1X36.2579Y-108.7512

G1X41.2776Y-110.5952

G1X42.4280Y-110.8629

G1X43.4738Y-110.9684

G1X44.5196Y-110.9223

G1X45.6699Y-110.6964

G1X46.9249Y-110.2756

G1X50.3760Y-108.8714

G1X51.5263Y-108.5812

G1X52.6767Y-108.4695

G1X53.6179Y-108.5176

G1X54.5591Y-108.6783

G1X59.0560Y-110.0438

G1X60.3109Y-110.2894

G1X61.4613Y-110.3898

G1X62.6116Y-110.3724

G1X63.8666Y-110.2416

G1X69.8275Y-109.1890

G1X73.0695Y-108.9718

G1X76.4160Y-109.0552

G1X86.9784Y-109.7351

G1X93.5669Y-109.9436

G1 Z0F20000

(Start Block)


G1X11.4728Y-108.9026
G1Z5F20000
(Plotting speed under)
G1 F4000


G1X12.3094Y-109.2421

G1X13.0415Y-109.4284

G1X13.7735Y-109.5006

G1X14.6101Y-109.4488

G1X15.9697Y-109.1188

G1X19.4207Y-107.8030

G1X21.3032Y-107.2538

G1X23.6039Y-106.8770

G1X26.1138Y-106.7487

G1X28.8328Y-106.8591

G1X31.2381Y-107.1984

G1X33.4342Y-107.7426

G1X37.8265Y-109.1385

G1X39.0815Y-109.4014

G1X40.1273Y-109.4981

G1X41.2776Y-109.4484

G1X42.5326Y-109.2010

G1X43.7875Y-108.7810

G1X47.2386Y-107.3868

G1X48.3890Y-107.1009

G1X49.4348Y-107.0000

G1X50.3760Y-107.0474

G1X51.3172Y-107.2146

G1X55.6049Y-108.5814

G1X56.7552Y-108.8204

G1X57.9056Y-108.9228

G1X58.9514Y-108.8969

G1X60.1018Y-108.7579

G1X65.3307Y-107.7093

G1X68.0497Y-107.5007

G1X70.5596Y-107.5790

G1X77.2526Y-108.1769

G1X81.5403Y-108.4158

G1X87.0830Y-108.5025

G1X93.5669Y-108.4083

G1 Z0F20000

(Start Block)


G1X11.4728Y-106.2704
G1Z5F20000
(Plotting speed under)
G1 F4000


G1X13.2506Y-107.1989

G1X14.2964Y-107.6440

G1X15.3422Y-107.9270

G1X16.4925Y-108.0317

G1X18.2704Y-107.8472

G1X23.0810Y-106.8032

G1X24.5451Y-106.6344

G1X26.0092Y-106.5775

G1X27.5779Y-106.6393

G1X29.2511Y-106.8351

G1X34.8983Y-107.9276

G1X36.0487Y-108.0251

G1X37.1991Y-108.0008

G1X38.3494Y-107.8359

G1X39.4998Y-107.5326

G1X43.9967Y-105.8326

G1X44.9379Y-105.6206

G1X45.8791Y-105.5311

G1X46.8203Y-105.5732

G1X47.7615Y-105.7388

G1X52.0492Y-107.1406

G1X53.0950Y-107.3598

G1X54.1408Y-107.4535

G1X55.9186Y-107.3288

G1X60.5201Y-106.3015

G1X61.8796Y-106.1086

G1X63.1345Y-106.0327

G1X65.6444Y-106.1355

G1X72.1283Y-106.8461

G1X75.7885Y-107.0167

G1X81.5403Y-106.9794

G1X93.5669Y-106.6105

G1 Z0F20000

(Start Block)


G1X11.4728Y-104.0682
G1Z5F20000
(Plotting speed under)
G1 F4000


G1X12.2048Y-104.1750

G1X13.0415Y-104.4226

G1X15.9697Y-105.7065

G1X17.2246Y-106.1473

G1X18.6887Y-106.4535

G1X20.2574Y-106.5604

G1X25.4863Y-106.3870

G1X31.0289Y-106.5606

G1X33.2251Y-106.4591

G1X34.3755Y-106.2754

G1X35.6304Y-105.9581

G1X40.1273Y-104.3774

G1X41.1731Y-104.1487

G1X42.1143Y-104.0616

G1X43.0555Y-104.0998

G1X43.9967Y-104.2596

G1X48.2844Y-105.6746

G1X49.3302Y-105.8975

G1X50.3760Y-105.9857

G1X52.0492Y-105.8459

G1X56.2323Y-104.8311

G1X57.3827Y-104.6468

G1X58.5331Y-104.5637

G1X60.7292Y-104.6634

G1X66.3765Y-105.4093

G1X69.5138Y-105.5605

G1X72.4420Y-105.5168

G1X83.4227Y-105.0986

G1X93.5669Y-104.9218

G1 Z0F20000

(Start Block)


G1X11.4728Y-103.0695
G1Z5F20000
(Plotting speed under)
G1 F4000


G1X13.0415Y-102.6388

G1X14.5056Y-102.6367

G1X15.7605Y-102.9017

G1X19.0024Y-103.9745

G1X20.7803Y-104.4253

G1X22.8718Y-104.7237

G1X25.3817Y-104.8353

G1X27.8916Y-104.7515

G1X30.1923Y-104.4694

G1X32.1793Y-104.0236

G1X36.1533Y-102.8682

G1X37.1991Y-102.6712

G1X38.2449Y-102.5900

G1X39.1861Y-102.6331

G1X40.2318Y-102.8113

G1X44.5196Y-104.2176

G1X45.5653Y-104.4369

G1X46.5066Y-104.5154

G1X48.1798Y-104.3695

G1X52.1538Y-103.3484

G1X53.3042Y-103.1591

G1X54.3499Y-103.0904

G1X56.3369Y-103.2130

G1X61.0430Y-103.9434

G1X63.5528Y-104.0912

G1X65.6444Y-104.0481

G1X72.0237Y-103.6491

G1X76.5206Y-103.4931

G1X83.6319Y-103.4372

G1X93.5669Y-103.4851

G1 Z0F20000

(Start Block)


G1X11.4728Y-102.6537
G1Z5F20000
(Plotting speed under)
G1 F4000


G1X14.7147Y-101.4209

G1X15.7605Y-101.1998

G1X16.9109Y-101.1192

G1X18.4795Y-101.2313

G1X22.8718Y-101.9101

G1X25.2771Y-102.0448

G1X27.9962Y-101.8841

G1X32.9114Y-101.1766

G1X34.8983Y-101.1488

G1X35.9441Y-101.2831

G1X36.9899Y-101.5236

G1X40.9639Y-102.8026

G1X42.7417Y-103.0455

G1X44.4150Y-102.8957

G1X48.2844Y-101.8655

G1X50.2714Y-101.6208

G1X52.1538Y-101.7479

G1X56.3369Y-102.4772

G1X58.4285Y-102.6212

G1X60.5201Y-102.5540

G1X66.1673Y-102.0876

G1X69.5138Y-101.9755

G1X93.5669Y-102.1822

G1 Z0F20000

(Start Block)


G1X11.4728Y-101.5653
G1Z5F20000
(Plotting speed under)
G1 F4000


G1X12.4140Y-101.5481

G1X13.3552Y-101.3883

G1X16.8063Y-100.2881

G1X18.2704Y-99.9316

G1X19.8391Y-99.7234

G1X21.6169Y-99.6514

G1X28.7282Y-99.6527

G1X31.0289Y-99.7769

G1X33.2251Y-100.1667

G1X37.4082Y-101.3629

G1X39.1861Y-101.5765

G1X40.8593Y-101.4186

G1X44.7287Y-100.3737

G1X46.6111Y-100.1496

G1X48.3890Y-100.2897

G1X52.2584Y-101.0214

G1X54.0362Y-101.1517

G1X55.9186Y-101.0760

G1X60.6246Y-100.5986

G1X63.2391Y-100.4991

G1X75.9977Y-100.7888

G1X93.5669Y-100.8459

G1 Z0F20000

(Start Block)


G1X11.4728Y-99.5643
G1Z5F20000
(Plotting speed under)
G1 F4000


G1X13.2506Y-100.0177

G1X14.9239Y-100.0899

G1X16.3880Y-99.8876

G1X19.4207Y-99.1887

G1X21.0940Y-98.8831

G1X22.9764Y-98.6817

G1X24.8588Y-98.6179

G1X26.7412Y-98.6778

G1X28.5191Y-98.8551

G1X30.2969Y-99.1573

G1X33.8526Y-99.9240

G1X35.7350Y-100.1069

G1X37.5128Y-99.9433

G1X41.3822Y-98.9083

G1X42.3234Y-98.7435

G1X43.2646Y-98.6795

G1X44.9379Y-98.8164

G1X48.5981Y-99.5515

G1X50.2714Y-99.6823

G1X51.9446Y-99.6041

G1X56.0232Y-99.1253

G1X58.2193Y-99.0281

G1X69.0955Y-99.3942

G1X93.5669Y-99.4093

G1 Z0F20000

(Start Block)


G1X11.4728Y-97.4271
G1Z5F20000
(Plotting speed under)
G1 F4000


G1X14.9239Y-98.3878

G1X16.0742Y-98.5732

G1X17.2246Y-98.6369

G1X18.7933Y-98.5681

G1X22.6627Y-98.1884

G1X24.6497Y-98.1158

G1X26.9504Y-98.2029

G1X31.2381Y-98.6062

G1X33.0159Y-98.6147

G1X35.0029Y-98.3342

G1X38.6632Y-97.3861

G1X40.3364Y-97.2093

G1X41.8005Y-97.3227

G1X45.2516Y-98.0471

G1X47.0294Y-98.2123

G1X48.7027Y-98.1223

G1X52.3629Y-97.6463

G1X54.1408Y-97.5585

G1X63.0299Y-97.9360

G1X76.5206Y-97.8412

G1X93.5669Y-97.9005

G1 Z0F20000

(Start Block)


G1X11.4728Y-95.7400
G1Z5F20000
(Plotting speed under)
G1 F4000


G1X13.2506Y-95.9084

G1X16.3880Y-96.6782

G1X17.8521Y-96.9565

G1X19.3162Y-97.1102

G1X20.9894Y-97.1658

G1X28.2053Y-97.1650

G1X30.1923Y-97.0824

G1X32.2839Y-96.7904

G1X36.1533Y-95.8961

G1X37.7220Y-95.7400

G1X39.1861Y-95.8410

G1X42.6372Y-96.5743

G1X44.4150Y-96.7430

G1X45.9837Y-96.6477

G1X49.3302Y-96.1770

G1X51.0034Y-96.0881

G1X58.6377Y-96.4688

G1X71.7100Y-96.2965

G1X93.5669Y-96.3722

G1 Z0F20000

(Start Block)


G1X11.4728Y-94.4437
G1Z5F20000
(Plotting speed under)
G1 F4000


G1X12.8323Y-94.2797

G1X14.0872Y-94.3053

G1X15.3422Y-94.4768

G1X19.8391Y-95.3252

G1X21.8260Y-95.5068

G1X24.1268Y-95.5749

G1X26.5321Y-95.5308

G1X28.6236Y-95.3705

G1X30.4015Y-95.1094

G1X33.8526Y-94.4289

G1X35.6304Y-94.2695

G1X37.1991Y-94.3864

G1X40.6502Y-95.1208

G1X42.3234Y-95.2733

G1X43.7875Y-95.1795

G1X46.9249Y-94.7116

G1X48.4935Y-94.6184

G1X55.3957Y-94.9998

G1X64.9124Y-94.8178

G1X93.5669Y-94.8568

G1 Z0F20000

(Start Block)


G1X11.4728Y-93.2446
G1Z5F20000
(Plotting speed under)
G1 F4000


G1X13.4598Y-92.8691

G1X15.1330Y-92.8087

G1X16.5971Y-92.9446

G1X21.3032Y-93.6310

G1X23.0810Y-93.7507

G1X24.9634Y-93.7675

G1X27.5779Y-93.6051

G1X32.2839Y-92.9138

G1X34.1663Y-92.8009

G1X35.9441Y-92.9758

G1X39.2906Y-93.6849

G1X40.7547Y-93.8034

G1X42.1143Y-93.7153

G1X45.2516Y-93.2330

G1X46.7157Y-93.1480

G1X52.9904Y-93.5299

G1X60.8338Y-93.3468

G1X93.5669Y-93.3617

G1 Z0F20000

(Start Block)


G1X11.4728Y-91.9696
G1Z5F20000
(Plotting speed under)
G1 F4000


G1X13.8781Y-91.4653

G1X15.6559Y-91.3295

G1X17.3292Y-91.4203

G1X21.7215Y-91.9338

G1X24.2313Y-92.0387

G1X27.0550Y-91.9091

G1X31.6564Y-91.3757

G1X33.3297Y-91.3410

G1X35.0029Y-91.5321

G1X38.1403Y-92.1994

G1X39.6044Y-92.3329

G1X40.8593Y-92.2653

G1X43.8921Y-91.7838

G1X45.4608Y-91.6781

G1X51.4217Y-92.0604

G1X58.3239Y-91.8764

G1X72.4420Y-91.9360

G1X93.5669Y-91.8812

G1 Z0F20000

(Start Block)


G1X11.4728Y-90.5874
G1Z5F20000
(Plotting speed under)
G1 F4000


G1X14.1918Y-90.0128

G1X16.1788Y-89.8595

G1X17.7475Y-89.9382

G1X21.8260Y-90.3671

G1X24.2313Y-90.4603

G1X26.7412Y-90.3566

G1X31.1335Y-89.9007

G1X32.8068Y-89.8718

G1X34.4800Y-90.0610

G1X37.7220Y-90.7464

G1X39.0815Y-90.8632

G1X40.3364Y-90.7899

G1X43.1600Y-90.3248

G1X44.7287Y-90.2085

G1X50.3760Y-90.5902

G1X56.7552Y-90.4063

G1X68.1543Y-90.4682

G1X93.5669Y-90.4080

G1 Z0F20000

(Start Block)


G1X11.4728Y-89.1115
G1Z5F20000
(Plotting speed under)
G1 F4000


G1X14.0872Y-88.5465

G1X15.9697Y-88.3898

G1X17.6429Y-88.4765

G1X21.8260Y-88.9476

G1X24.2313Y-89.0454

G1X26.8458Y-88.9300

G1X31.2381Y-88.4369

G1X32.9114Y-88.4010

G1X34.5846Y-88.5965

G1X37.7220Y-89.2778

G1X39.0815Y-89.3936

G1X40.4410Y-89.2964

G1X43.2646Y-88.8212

G1X44.5196Y-88.7386

G1X49.9576Y-89.1203

G1X55.9186Y-88.9364

G1X65.1215Y-88.9983

G1X93.5669Y-88.9384

G1 Z0F20000

(Start Block)


G1X11.4728Y-87.5425
G1Z5F20000
(Plotting speed under)
G1 F4000


G1X13.6689Y-87.0559

G1X15.3422Y-86.9197

G1X17.0154Y-87.0309

G1X21.4077Y-87.6493

G1X24.2313Y-87.7938

G1X26.9504Y-87.6698

G1X31.6564Y-87.0141

G1X33.5388Y-86.9268

G1X35.1075Y-87.1083

G1X38.1403Y-87.7992

G1X39.4998Y-87.9237

G1X40.8593Y-87.8205

G1X43.5784Y-87.3485

G1X44.8333Y-87.2683

G1X50.0622Y-87.6506

G1X55.7095Y-87.4664

G1X63.8666Y-87.5284

G1X93.5669Y-87.4726

G1 Z0F20000

(Start Block)


G1X11.4728Y-85.8724
G1Z5F20000
(Plotting speed under)
G1 F4000


G1X13.2506Y-85.5129

G1X14.8193Y-85.4658

G1X16.1788Y-85.6297

G1X20.5711Y-86.4366

G1X22.3489Y-86.5991

G1X24.3359Y-86.6571

G1X26.2183Y-86.6105

G1X27.9962Y-86.4605

G1X32.8068Y-85.5857

G1X34.3755Y-85.4498

G1X35.8396Y-85.5751

G1X38.8723Y-86.2999

G1X40.3364Y-86.4538

G1X41.5914Y-86.3572

G1X44.2058Y-85.8863

G1X45.4608Y-85.7985

G1X50.5851Y-86.1808

G1X56.0232Y-85.9964

G1X63.4483Y-86.0584

G1X93.5669Y-86.0159

G1 Z0F20000

(Start Block)


G1X11.4728Y-84.1421
G1Z5F20000
(Plotting speed under)
G1 F4000


G1X12.6231Y-83.9898

G1X13.7735Y-84.0229

G1X14.8193Y-84.1965

G1X17.5383Y-84.8842

G1X19.0024Y-85.1661

G1X20.7803Y-85.3451

G1X23.0810Y-85.4043

G1X27.1595Y-85.3886

G1X29.3557Y-85.2545

G1X31.1335Y-84.9635

G1X34.4800Y-84.1334

G1X35.9441Y-83.9799

G1X37.1991Y-84.0917

G1X40.1273Y-84.8343

G1X41.4868Y-84.9838

G1X42.5326Y-84.9129

G1X45.0425Y-84.4445

G1X46.4020Y-84.3291

G1X51.4217Y-84.7109

G1X56.8598Y-84.5261

G1X63.5528Y-84.5882

G1X91.0570Y-84.5258

G1X93.5669Y-84.5773

G1 Z0F20000

(Start Block)


G1X11.4728Y-82.5112
G1Z5F20000
(Plotting speed under)
G1 F4000


G1X13.0415Y-82.6865

G1X16.7017Y-83.7302

G1X17.7475Y-83.8851

G1X18.7933Y-83.9377

G1X24.6497Y-83.6374

G1X29.8786Y-83.9259

G1X31.4473Y-83.9028

G1X33.2251Y-83.6090

G1X36.3624Y-82.6762

G1X37.7220Y-82.5101

G1X38.8723Y-82.6217

G1X41.5914Y-83.3573

G1X42.9509Y-83.5141

G1X44.1013Y-83.4171

G1X46.6111Y-82.9373

G1X47.7615Y-82.8585

G1X52.5721Y-83.2409

G1X58.0102Y-83.0560

G1X65.3307Y-83.1187

G1X90.3249Y-83.0561

G1X93.5669Y-83.1618

G1 Z0F20000

(Start Block)


G1X11.4728Y-81.2160
G1Z5F20000
(Plotting speed under)
G1 F4000


G1X14.5056Y-82.2353

G1X15.3422Y-82.4048

G1X16.1788Y-82.4678

G1X17.7475Y-82.3294

G1X22.1398Y-81.4415

G1X23.4993Y-81.2975

G1X24.9634Y-81.2468

G1X27.5779Y-81.4230

G1X32.1793Y-82.3420

G1X33.9571Y-82.4584

G1X35.5258Y-82.1847

G1X38.4540Y-81.1930

G1X39.6044Y-81.0405

G1X40.7547Y-81.1612

G1X43.2646Y-81.8829

G1X44.5196Y-82.0435

G1X45.6699Y-81.9517

G1X48.0752Y-81.4752

G1X49.2256Y-81.3887

G1X53.9316Y-81.7707

G1X59.4743Y-81.5861

G1X67.0039Y-81.6488

G1X89.4883Y-81.5869

G1X93.5669Y-81.7525

G1 Z0F20000

(Start Block)


G1X11.4728Y-80.3128
G1Z5F20000
(Plotting speed under)
G1 F4000


G1X13.1460Y-80.8886

G1X13.8781Y-80.9903

G1X14.6101Y-80.9754

G1X15.7605Y-80.7455

G1X18.6887Y-79.7350

G1X20.2574Y-79.3517

G1X22.2444Y-79.1314

G1X25.1726Y-79.0770

G1X28.1007Y-79.1304

G1X30.0877Y-79.3475

G1X31.6564Y-79.7258

G1X34.7938Y-80.7896

G1X36.1533Y-80.9971

G1X37.5128Y-80.8294

G1X40.2318Y-79.8139

G1X40.9639Y-79.6318

G1X41.5914Y-79.5712

G1X42.6372Y-79.6779

G1X45.0425Y-80.3996

G1X46.2974Y-80.5733

G1X47.3432Y-80.4936

G1X49.7485Y-80.0072

G1X50.8988Y-79.9188

G1X55.5003Y-80.3004

G1X61.1475Y-80.1161

G1X69.4092Y-80.1789

G1X88.3379Y-80.1169

G1X93.5669Y-80.2963

G1 Z0F20000

(Start Block)


G1X11.4728Y-79.4254
G1Z5F20000
(Plotting speed under)
G1 F4000


G1X12.3094Y-79.5282

G1X13.2506Y-79.4116

G1X14.0872Y-79.1332

G1X16.9109Y-77.9172

G1X17.8521Y-77.6908

G1X18.8978Y-77.6011

G1X20.2574Y-77.6831

G1X23.6039Y-78.1493

G1X25.3817Y-78.2468

G1X27.3687Y-78.1452

G1X31.1335Y-77.6386

G1X32.7022Y-77.6354

G1X33.5388Y-77.7710

G1X34.3755Y-78.0144

G1X37.4082Y-79.2996

G1X38.6632Y-79.5277

G1X39.8135Y-79.3735

G1X42.4280Y-78.3268

G1X43.6829Y-78.1009

G1X44.6241Y-78.2008

G1X47.0294Y-78.9457

G1X48.1798Y-79.1035

G1X49.2256Y-79.0204

G1X51.6309Y-78.5274

G1X52.6767Y-78.4491

G1X57.3827Y-78.8310

G1X62.9254Y-78.6466

G1X74.2198Y-78.7089

G1X87.1876Y-78.6477

G1X91.8936Y-78.8315

G1X93.5669Y-78.7329

G1 Z0F20000

(Start Block)


G1X11.4728Y-77.9612
G1Z5F20000
(Plotting speed under)
G1 F4000


G1X12.3094Y-77.6541

G1X14.7147Y-76.4328

G1X15.4468Y-76.2144

G1X16.1788Y-76.1315

G1X16.9109Y-76.1811

G1X17.7475Y-76.3703

G1X20.6757Y-77.4406

G1X22.1398Y-77.8602

G1X23.7085Y-78.1277

G1X25.4863Y-78.2401

G1X27.3687Y-78.1452

G1X29.5648Y-77.8272

G1X30.9244Y-77.4391

G1X33.8526Y-76.3840

G1X35.3167Y-76.1322

G1X36.0487Y-76.1774

G1X36.7808Y-76.3526

G1X37.6174Y-76.6933

G1X39.7090Y-77.7507

G1X40.4410Y-77.9830

G1X41.0685Y-78.0578

G1X42.1143Y-77.9049

G1X44.6241Y-76.8436

G1X45.7745Y-76.6312

G1X46.7157Y-76.7367

G1X49.0164Y-77.4739

G1X50.1668Y-77.6339

G1X51.2126Y-77.5447

G1X53.5133Y-77.0650

G1X54.5591Y-76.9797

G1X55.6049Y-77.0247

G1X58.1148Y-77.3075

G1X59.4743Y-77.3615

G1X65.5398Y-77.1763

G1X75.5794Y-77.2330

G1X85.7235Y-77.1779

G1X90.7432Y-77.3611

G1X91.9982Y-77.2943

G1X93.5669Y-77.0838

G1 Z0F20000

(Start Block)


G1X11.4728Y-75.7576
G1Z5F20000
(Plotting speed under)
G1 F4000


G1X13.1460Y-74.8580

G1X13.7735Y-74.6942

G1X14.4010Y-74.6679

G1X15.0284Y-74.7761

G1X15.7605Y-75.0432

G1X18.8978Y-76.6501

G1X20.4665Y-77.0693

G1X22.0352Y-77.1629

G1X26.4275Y-76.9966

G1X30.5061Y-77.1634

G1X32.0747Y-77.0087

G1X34.4800Y-76.1906

G1X36.9899Y-74.9225

G1X37.6174Y-74.7363

G1X38.2449Y-74.6616

G1X38.8723Y-74.7133

G1X39.4998Y-74.8903

G1X42.1143Y-76.2709

G1X42.7417Y-76.4947

G1X43.3692Y-76.5871

G1X44.4150Y-76.4285

G1X46.7157Y-75.4015

G1X47.8661Y-75.1623

G1X48.8073Y-75.2637

G1X51.1080Y-76.0119

G1X52.2584Y-76.1645

G1X53.3042Y-76.0662

G1X55.5003Y-75.6044

G1X56.6507Y-75.5094

G1X61.4613Y-75.8899

G1X67.5268Y-75.7101

G1X83.3182Y-75.7064

G1X89.2791Y-75.8917

G1X90.5341Y-75.8381

G1X93.5669Y-75.5089

G1 Z0F20000

(Start Block)


G1X11.4728Y-73.4158
G1Z5F20000
(Plotting speed under)
G1 F4000


G1X12.4140Y-73.1927

G1X13.2506Y-73.3125

G1X14.1744Y-73.7454

G1X16.5971Y-75.2717

G1X17.4337Y-75.5779

G1X18.3750Y-75.6939

G1X19.8391Y-75.4700

G1X22.6627Y-74.5205

G1X23.9176Y-74.1839

G1X25.1726Y-73.9747

G1X26.5321Y-73.8999

G1X27.6824Y-73.9589

G1X28.9374Y-74.1499

G1X30.2969Y-74.4971

G1X33.4342Y-75.5120

G1X34.3755Y-75.6752

G1X35.3167Y-75.6714

G1X35.6304Y-75.5868

G1X36.8853Y-74.9628

G1X37.6174Y-74.7363

G1X39.7090Y-73.4794

G1X40.3364Y-73.2644

G1X40.8593Y-73.1927

G1X41.3822Y-73.2286

G1X42.0097Y-73.4097

G1X44.5196Y-74.8202

G1X45.1470Y-75.0437

G1X45.6699Y-75.1169

G1X46.6111Y-74.9782

G1X48.9119Y-73.9262

G1X49.5393Y-73.7463

G1X50.0622Y-73.6913

G1X51.1080Y-73.8346

G1X53.3042Y-74.5599

G1X54.3499Y-74.6943

G1X55.3957Y-74.6030

G1X57.6964Y-74.1299

G1X58.8468Y-74.0396

G1X62.6116Y-74.3657

G1X64.0757Y-74.4213

G1X72.6512Y-74.2365

G1X82.3770Y-74.2473

G1X87.9196Y-74.4212

G1X89.2791Y-74.3548

G1X91.9982Y-74.0446

G1X92.8348Y-74.0653

G1X93.5669Y-74.1796

G1 Z0F20000

(Start Block)


G1X11.4728Y-71.7747
G1Z5F20000
(Plotting speed under)
G1 F4000


G1X12.4314Y-72.1994

G1X14.8193Y-73.8717

G1X15.4468Y-74.1241

G1X16.0742Y-74.2225

G1X16.8063Y-74.1445

G1X17.5383Y-73.8898

G1X20.4665Y-72.2298

G1X21.9306Y-71.6142

G1X23.7085Y-71.2336

G1X26.0092Y-71.1009

G1X29.3557Y-71.1599

G1X30.5061Y-71.2834

G1X31.5518Y-71.4971

G1X33.3297Y-72.1593

G1X36.4670Y-73.8614

G1X37.1991Y-74.1181

G1X37.9311Y-74.2291

G1X38.5586Y-74.1060

G1X39.6044Y-73.5267

G1X40.4410Y-73.1925

G1X42.3234Y-71.9969

G1X42.8463Y-71.8018

G1X43.3692Y-71.7223

G1X43.8921Y-71.7671

G1X44.4150Y-71.9301

G1X46.8203Y-73.3482

G1X47.4478Y-73.5787

G1X47.9707Y-73.6481

G1X48.4935Y-73.6006

G1X49.0164Y-73.4488

G1X51.2126Y-72.4166

G1X52.2584Y-72.2209

G1X53.3042Y-72.3699

G1X55.5003Y-73.0925

G1X56.5461Y-73.2244

G1X57.5919Y-73.1371

G1X59.9972Y-72.6584

G1X61.2521Y-72.5691

G1X65.2261Y-72.8952

G1X67.0039Y-72.9518

G1X76.8343Y-72.7825

G1X86.4555Y-72.9481

G1X91.0570Y-72.5703

G1X92.1028Y-72.6738

G1X93.5669Y-73.0356

G1 Z0F20000

(Start Block)


G1X11.4728Y-71.0542
G1Z5F20000
(Plotting speed under)
G1 F4000


G1X13.2506Y-72.4112

G1X13.8781Y-72.6777

G1X14.4010Y-72.7535

G1X15.0284Y-72.6643

G1X15.7431Y-72.3528

G1X18.0961Y-70.6406

G1X19.1070Y-70.0481

G1X20.0482Y-69.7187

G1X21.0940Y-69.6005

G1X22.3489Y-69.7121

G1X25.5909Y-70.3302

G1X27.2641Y-70.4541

G1X29.2511Y-70.3119

G1X32.9114Y-69.6474

G1X33.7480Y-69.6005

G1X34.5846Y-69.6713

G1X35.4212Y-69.8890

G1X36.1533Y-70.2092

G1X39.2906Y-72.2975

G1X40.0227Y-72.6258

G1X40.6502Y-72.7534

G1X41.2776Y-72.6381

G1X42.1143Y-72.1027

G1X43.0206Y-71.7114

G1X44.8333Y-70.4945

G1X45.3562Y-70.3071

G1X45.7745Y-70.2522

G1X46.1928Y-70.2852

G1X46.7157Y-70.4437

G1X49.0164Y-71.8469

G1X49.6439Y-72.0961

G1X50.1668Y-72.1773

G1X51.1080Y-72.0242

G1X53.3042Y-70.9870

G1X53.9316Y-70.8056

G1X54.4545Y-70.7511

G1X55.3957Y-70.8688

G1X57.4873Y-71.5569

G1X58.7422Y-71.7526

G1X59.6834Y-71.6995

G1X62.1933Y-71.2223

G1X63.5528Y-71.1021

G1X69.5138Y-71.4737

G1X77.3572Y-71.4040

G1X83.7365Y-71.4819

G1X85.8280Y-71.4176

G1X89.4883Y-71.0993

G1X90.6387Y-71.1854

G1X92.7302Y-71.6620

G1X93.5669Y-71.7548

G1 Z0F20000

(Start Block)


G1X11.4728Y-70.6588
G1Z5F20000
(Plotting speed under)
G1 F4000


G1X11.9957Y-71.0034

G1X12.5186Y-71.2202

G1X13.0415Y-71.2831

G1X13.5643Y-71.1863

G1X14.5230Y-70.6497

G1X16.1788Y-69.2288

G1X16.9631Y-68.6531

G1X17.7475Y-68.2762

G1X18.5841Y-68.1312

G1X19.3162Y-68.2074

G1X20.0482Y-68.4341

G1X22.3489Y-69.5879

G1X22.9764Y-69.8274

G1X25.4863Y-70.3155

G1X27.3687Y-70.4543

G1X29.2511Y-70.3119

G1X33.3297Y-69.5942

G1X36.0487Y-68.3520

G1X36.8853Y-68.1579

G1X37.7220Y-68.1575

G1X38.3494Y-68.3064

G1X39.0815Y-68.6446

G1X41.9748Y-70.8258

G1X42.6372Y-71.1541

G1X43.2646Y-71.2897

G1X43.6829Y-71.1918

G1X44.7287Y-70.5475

G1X45.4608Y-70.2723

G1X47.0294Y-69.0923

G1X47.5523Y-68.8672

G1X48.0752Y-68.7817

G1X48.5981Y-68.8432

G1X49.0164Y-68.9909

G1X51.2126Y-70.3655

G1X51.8401Y-70.6219

G1X52.3629Y-70.7069

G1X53.3042Y-70.5569

G1X55.5003Y-69.5233

G1X56.1278Y-69.3402

G1X56.6507Y-69.2821

G1X57.6964Y-69.4125

G1X59.9972Y-70.1373

G1X61.1475Y-70.2838

G1X62.2979Y-70.2016

G1X65.0169Y-69.7212

G1X66.4810Y-69.6294

G1X72.0237Y-69.9593

G1X76.5206Y-70.0120

G1X82.5861Y-69.9734

G1X88.0242Y-69.6305

G1X89.3837Y-69.7517

G1X91.9982Y-70.2711

G1X92.8348Y-70.2507

G1X93.5669Y-70.0774

G1 Z0F20000

(Start Block)


G1X11.4728Y-69.7910
G1Z5F20000
(Plotting speed under)
G1 F4000


G1X12.1002Y-69.7721

G1X12.6929Y-69.5286

G1X13.3900Y-69.0150

G1X15.3945Y-67.2060

G1X16.0742Y-66.8246

G1X16.8063Y-66.6622

G1X17.4337Y-66.7306

G1X18.1658Y-67.0190

G1X18.9676Y-67.5169

G1X20.3619Y-68.5605

G1X22.6627Y-69.7231

G1X25.1726Y-70.2671

G1X27.1595Y-70.4529

G1X29.2511Y-70.3119

G1X33.4342Y-69.5661

G1X35.7350Y-68.4636

G1X36.4670Y-68.2338

G1X37.0945Y-68.1378

G1X38.3146Y-67.3193

G1X39.0815Y-66.9168

G1X40.1273Y-66.6627

G1X40.8593Y-66.7469

G1X41.5914Y-67.0610

G1X42.3234Y-67.5729

G1X44.4150Y-69.3498

G1X45.1470Y-69.7195

G1X45.7745Y-69.8279

G1X46.0708Y-69.7543

G1X46.9423Y-69.1419

G1X47.7267Y-68.7616

G1X49.2256Y-67.6415

G1X49.7485Y-67.4040

G1X50.2714Y-67.3122

G1X50.6897Y-67.3491

G1X51.2126Y-67.5227

G1X53.4087Y-68.9059

G1X54.0362Y-69.1575

G1X54.5591Y-69.2375

G1X55.5003Y-69.0836

G1X57.6964Y-68.0626

G1X58.8468Y-67.8141

G1X59.9972Y-67.9467

G1X62.5071Y-68.6920

G1X63.6574Y-68.8145

G1X64.8078Y-68.7369

G1X67.8406Y-68.2531

G1X69.6184Y-68.1594

G1X77.8801Y-68.4307

G1X86.2464Y-68.1647

G1X87.6059Y-68.2727

G1X90.1158Y-68.7424

G1X91.0570Y-68.8143

G1X92.1028Y-68.6704

G1X93.5669Y-68.1329

G1 Z0F20000

(Start Block)


G1X11.4728Y-68.1143
G1Z5F20000
(Plotting speed under)
G1 F4000


G1X12.1451Y-67.6315

G1X14.1744Y-65.7111

G1X14.8193Y-65.3357

G1X15.4468Y-65.1927

G1X16.1788Y-65.3128

G1X16.8760Y-65.6770

G1X19.3162Y-67.7531

G1X20.3619Y-68.4754

G1X21.4077Y-68.9107

G1X22.5581Y-69.0700

G1X23.8130Y-68.9695

G1X27.0550Y-68.3655

G1X28.8328Y-68.2418

G1X30.7152Y-68.3808

G1X34.4800Y-69.0353

G1X35.9441Y-68.3870

G1X37.0945Y-68.1378

G1X38.6632Y-67.1189

G1X40.2318Y-66.4912

G1X41.5914Y-65.5175

G1X42.1143Y-65.2948

G1X42.6372Y-65.1948

G1X43.2646Y-65.2566

G1X43.9793Y-65.5692

G1X44.6764Y-66.0865

G1X46.5937Y-67.8202

G1X47.2386Y-68.1967

G1X47.8661Y-68.3520

G1X48.2844Y-68.2604

G1X49.8182Y-67.3347

G1X51.4217Y-66.1361

G1X51.9446Y-65.9137

G1X52.3629Y-65.8435

G1X52.7813Y-65.8730

G1X53.3042Y-66.0392

G1X55.6049Y-67.4679

G1X56.2323Y-67.7019

G1X56.7552Y-67.7685

G1X57.8010Y-67.5659

G1X60.1018Y-66.5319

G1X61.1475Y-66.3430

G1X62.2979Y-66.4689

G1X65.0169Y-67.2248

G1X66.3765Y-67.3450

G1X67.5268Y-67.2675

G1X71.0825Y-66.7884

G1X73.8015Y-66.6894

G1X84.1548Y-66.7163

G1X85.9326Y-66.8675

G1X88.6517Y-67.2942

G1X89.6974Y-67.3411

G1X90.8478Y-67.1710

G1X92.8348Y-66.4951

G1X93.5669Y-66.3503

G1 Z0F20000

(Start Block)


G1X11.4728Y-65.8575
G1Z5F20000
(Plotting speed under)
G1 F4000


G1X13.2158Y-64.1703

G1X13.7735Y-63.8515

G1X14.4010Y-63.7213

G1X15.0284Y-63.8438

G1X15.7431Y-64.2534

G1X18.0089Y-66.3871

G1X18.8804Y-67.0568

G1X19.7345Y-67.4616

G1X20.5711Y-67.5999

G1X21.3032Y-67.5347

G1X22.1398Y-67.2998

G1X25.1726Y-65.9457

G1X26.5321Y-65.4589

G1X27.8916Y-65.1553

G1X29.3557Y-65.0442

G1X30.8198Y-65.1534

G1X32.2839Y-65.4773

G1X33.6434Y-65.9530

G1X36.5716Y-67.2153

G1X37.4082Y-67.4869

G1X37.8265Y-67.5098

G1X38.2274Y-67.3880

G1X39.0815Y-66.9168

G1X40.1273Y-66.5498

G1X41.3822Y-65.6366

G1X42.4977Y-65.1315

G1X43.8921Y-64.0654

G1X44.4150Y-63.8230

G1X44.9379Y-63.7226

G1X45.5653Y-63.8082

G1X46.1580Y-64.0914

G1X46.7680Y-64.5550

G1X48.7724Y-66.4092

G1X49.3302Y-66.7304

G1X49.9576Y-66.8789

G1X50.2714Y-66.8407

G1X50.6897Y-66.6480

G1X51.8226Y-65.9257

G1X53.4087Y-64.6973

G1X53.9316Y-64.4605

G1X54.4545Y-64.3720

G1X54.9774Y-64.4360

G1X55.5003Y-64.6352

G1X57.8010Y-66.0475

G1X58.3239Y-66.2288

G1X58.8468Y-66.2982

G1X59.8926Y-66.1174

G1X62.2979Y-65.0793

G1X63.4483Y-64.8734

G1X64.5986Y-64.9824

G1X67.5268Y-65.7338

G1X69.0955Y-65.8751

G1X70.3504Y-65.8188

G1X74.7427Y-65.3867

G1X78.6121Y-65.2838

G1X82.3770Y-65.3824

G1X86.6647Y-65.8266

G1X87.9196Y-65.8715

G1X89.3837Y-65.6803

G1X92.1028Y-64.9074

G1X92.8348Y-64.8819

G1X93.5669Y-65.0383

G1 Z0F20000

(Start Block)


G1X11.4728Y-63.4745
G1Z5F20000
(Plotting speed under)
G1 F4000


G1X12.2571Y-62.7487

G1X12.8323Y-62.3963

G1X13.4598Y-62.2514

G1X13.9827Y-62.3357

G1X14.5056Y-62.5937

G1X15.0459Y-63.0102

G1X16.8511Y-64.8514

G1X17.6603Y-65.5432

G1X18.4795Y-65.9851

G1X19.3162Y-66.1307

G1X20.0482Y-66.0209

G1X20.8848Y-65.6818

G1X24.0222Y-63.7007

G1X25.6954Y-62.8806

G1X27.4733Y-62.3692

G1X29.5648Y-62.1499

G1X30.8198Y-62.1752

G1X31.9702Y-62.3006

G1X33.0159Y-62.5114

G1X34.0617Y-62.8300

G1X35.8396Y-63.6439

G1X39.0815Y-65.6049

G1X39.9181Y-65.9641

G1X40.5456Y-66.0963

G1X40.8419Y-66.0296

G1X41.5914Y-65.5175

G1X42.4106Y-65.1888

G1X43.6307Y-64.2323

G1X44.5893Y-63.7037

G1X45.9837Y-62.5817

G1X46.5066Y-62.3381

G1X47.0294Y-62.2509

G1X47.5523Y-62.3320

G1X48.1624Y-62.6305

G1X48.8222Y-63.1560

G1X50.6025Y-64.8560

G1X51.2126Y-65.2366

G1X51.8401Y-65.4020

G1X52.2584Y-65.3709

G1X52.7813Y-65.1380

G1X53.8270Y-64.4336

G1X54.7857Y-63.6176

G1X55.3957Y-63.2045

G1X55.9186Y-62.9804

G1X56.4415Y-62.9016

G1X56.9644Y-62.9701

G1X57.4873Y-63.1677

G1X59.8926Y-64.5967

G1X60.4155Y-64.7649

G1X60.9384Y-64.8285

G1X61.4613Y-64.7887

G1X62.0887Y-64.6253

G1X64.5986Y-63.5982

G1X65.8536Y-63.4020

G1X67.1085Y-63.5231

G1X70.2459Y-64.2382

G1X72.0237Y-64.3993

G1X78.9259Y-64.1797

G1X84.5731Y-64.3943

G1X86.0372Y-64.3853

G1X87.5013Y-64.2115

G1X90.2203Y-63.5229

G1X91.2661Y-63.4012

G1X92.3119Y-63.5549

G1X93.5669Y-64.1007

G1 Z0F20000

(Start Block)


G1X11.4728Y-61.3014
G1Z5F20000
(Plotting speed under)
G1 F4000


G1X11.9957Y-60.9628

G1X12.5186Y-60.7953

G1X13.0415Y-60.8171

G1X13.4598Y-60.9695

G1X14.3113Y-61.5887

G1X16.0294Y-63.4003

G1X16.7017Y-64.0067

G1X17.5383Y-64.5040

G1X18.2704Y-64.6598

G1X19.0024Y-64.5593

G1X19.8391Y-64.1844

G1X23.1507Y-61.7335

G1X24.8588Y-60.8096

G1X25.8000Y-60.4878

G1X26.8458Y-60.2591

G1X29.5648Y-60.0475

G1X31.6564Y-60.0545

G1X33.3297Y-60.1553

G1X34.6892Y-60.3634

G1X35.8396Y-60.6843

G1X36.8853Y-61.1266

G1X37.8788Y-61.6912

G1X41.2776Y-64.1162

G1X42.0097Y-64.4722

G1X42.7417Y-64.6626

G1X43.1600Y-64.5417

G1X44.5021Y-63.7662

G1X45.5479Y-62.8872

G1X46.5066Y-62.2506

G1X47.2038Y-61.5768

G1X47.8138Y-61.1157

G1X48.2844Y-60.8850

G1X48.8073Y-60.7822

G1X49.3302Y-60.8529

G1X49.9054Y-61.1235

G1X50.6025Y-61.6723

G1X52.4327Y-63.4134

G1X53.0950Y-63.8042

G1X53.6179Y-63.9298

G1X54.1408Y-63.8818

G1X54.6637Y-63.6719

G1X57.0690Y-61.8383

G1X57.6964Y-61.5371

G1X58.3239Y-61.4322

G1X58.8468Y-61.4987

G1X59.3697Y-61.6871

G1X61.8796Y-63.1220

G1X62.9254Y-63.3569

G1X63.5528Y-63.3164

G1X64.1803Y-63.1622

G1X66.8993Y-62.1286

G1X68.3634Y-61.9315

G1X69.6184Y-62.0351

G1X72.4420Y-62.5810

G1X74.1153Y-62.8018

G1X76.1023Y-62.9110

G1X79.1350Y-62.9348

G1X82.3770Y-62.9123

G1X84.2594Y-62.8110

G1X85.9326Y-62.5865

G1X88.7562Y-62.0145

G1X90.0112Y-61.9374

G1X91.3707Y-62.2043

G1X93.5669Y-63.1563

G1 Z0F20000

(Start Block)


G1X11.4728Y-59.4443
G1Z5F20000
(Plotting speed under)
G1 F4000


G1X12.2048Y-59.3158

G1X12.6231Y-59.4077

G1X13.0415Y-59.6146

G1X13.7885Y-60.2169

G1X15.4318Y-61.9741

G1X16.0916Y-62.5699

G1X16.8063Y-63.0077

G1X17.5383Y-63.1877

G1X18.2704Y-63.0944

G1X19.1419Y-62.6798

G1X22.2792Y-60.1496

G1X23.7085Y-59.2676

G1X24.5451Y-58.9259

G1X25.3817Y-58.7027

G1X27.3687Y-58.5121

G1X34.8983Y-58.5171

G1X36.1533Y-58.6130

G1X37.1991Y-58.8219

G1X38.3494Y-59.2417

G1X39.4475Y-59.8561

G1X42.3234Y-62.1221

G1X43.1949Y-62.7232

G1X43.8921Y-63.0509

G1X44.6241Y-63.1942

G1X45.2516Y-63.0650

G1X46.4194Y-62.3161

G1X49.3825Y-59.6768

G1X49.9576Y-59.3952

G1X50.4805Y-59.3115

G1X51.0034Y-59.4017

G1X51.5612Y-59.6788

G1X52.2584Y-60.2337

G1X54.0885Y-61.9562

G1X54.6637Y-62.3004

G1X55.2911Y-62.4611

G1X55.8140Y-62.4107

G1X56.3369Y-62.2051

G1X58.7945Y-60.3790

G1X59.4743Y-60.0624

G1X60.1018Y-59.9618

G1X60.6246Y-60.0213

G1X61.2521Y-60.2403

G1X63.7620Y-61.6251

G1X64.9124Y-61.8859

G1X66.0627Y-61.7555

G1X68.8863Y-60.7710

G1X70.5596Y-60.4771

G1X72.2329Y-60.5221

G1X76.8343Y-61.0620

G1X79.6579Y-61.1631

G1X82.6907Y-61.0359

G1X86.6647Y-60.5412

G1X87.9196Y-60.4615

G1X88.8608Y-60.5167

G1X89.6974Y-60.6778

G1X92.4165Y-61.6836

G1X93.5669Y-61.8895

G1 Z0F20000

(Start Block)


G1X11.4728Y-57.8461
G1Z5F20000
(Plotting speed under)
G1 F4000


G1X12.1002Y-57.9277

G1X12.6929Y-58.2356

G1X13.3402Y-58.7786

G1X15.5688Y-61.0561

G1X16.3880Y-61.5585

G1X17.1200Y-61.7200

G1X17.9566Y-61.5693

G1X18.7933Y-61.1185

G1X21.6692Y-58.6937

G1X23.0810Y-57.7635

G1X24.5451Y-57.2209

G1X26.1138Y-57.0410

G1X31.1335Y-57.3326

G1X32.8068Y-57.3001

G1X36.5716Y-57.0403

G1X37.6174Y-57.0799

G1X38.5586Y-57.2345

G1X39.7090Y-57.6285

G1X40.8419Y-58.2664

G1X41.8005Y-58.9838

G1X43.8049Y-60.6874

G1X44.5893Y-61.2392

G1X45.3562Y-61.6013

G1X45.9837Y-61.7190

G1X46.7157Y-61.6212

G1X47.4652Y-61.2544

G1X48.2246Y-60.6463

G1X50.5154Y-58.3959

G1X51.2126Y-57.9816

G1X51.8401Y-57.8421

G1X52.3629Y-57.9107

G1X52.9556Y-58.1826

G1X53.5656Y-58.6396

G1X55.5700Y-60.4796

G1X56.2323Y-60.8566

G1X56.8598Y-60.9934

G1X57.3827Y-60.9336

G1X57.9056Y-60.7293

G1X60.4503Y-58.9056

G1X61.1475Y-58.5948

G1X61.7750Y-58.4925

G1X62.2979Y-58.5380

G1X62.8208Y-58.6890

G1X65.4353Y-60.0510

G1X66.1673Y-60.3025

G1X66.8993Y-60.4138

G1X68.2589Y-60.2753

G1X71.9191Y-59.2129

G1X73.0695Y-59.0491

G1X74.3244Y-58.9918

G1X79.8671Y-59.1596

G1X84.8868Y-58.9970

G1X86.3509Y-59.0192

G1X88.3379Y-59.3219

G1X91.7890Y-60.3609

G1X92.7302Y-60.4095

G1X93.5669Y-60.2417

G1 Z0F20000

(Start Block)


G1X11.4728Y-56.3940
G1Z5F20000
(Plotting speed under)
G1 F4000


G1X12.0828Y-56.6133

G1X12.6929Y-57.0382

G1X14.6101Y-58.9942

G1X15.3945Y-59.6821

G1X16.0742Y-60.0782

G1X16.8063Y-60.2490

G1X17.5383Y-60.1508

G1X18.4447Y-59.7092

G1X19.3162Y-59.0495

G1X21.4949Y-57.1619

G1X22.8718Y-56.2601

G1X24.2313Y-55.7494

G1X25.6954Y-55.5709

G1X27.0550Y-55.6318

G1X30.2969Y-55.9939

G1X31.7610Y-56.0606

G1X33.6434Y-55.9860

G1X37.5128Y-55.5804

G1X38.5586Y-55.5882

G1X39.4998Y-55.7183

G1X40.4410Y-56.0014

G1X41.4519Y-56.4992

G1X42.5849Y-57.2869

G1X45.3736Y-59.5852

G1X46.2974Y-60.0818

G1X47.0294Y-60.2466

G1X47.7615Y-60.1682

G1X48.5981Y-59.7749

G1X49.4198Y-59.1190

G1X51.6483Y-56.9683

G1X52.3629Y-56.5364

G1X53.0950Y-56.3718

G1X53.6179Y-56.4448

G1X54.2454Y-56.7305

G1X54.9475Y-57.2538

G1X56.8772Y-58.9777

G1X57.5919Y-59.3785

G1X58.2193Y-59.5212

G1X58.7422Y-59.4801

G1X59.2651Y-59.3039

G1X59.9275Y-58.9255

G1X62.0190Y-57.4423

G1X62.7162Y-57.1402

G1X63.4483Y-57.0225

G1X64.0757Y-57.0857

G1X64.7032Y-57.2775

G1X67.6314Y-58.6717

G1X68.3634Y-58.8666

G1X69.0955Y-58.9469

G1X70.5596Y-58.8137

G1X74.8473Y-57.8336

G1X76.4160Y-57.6558

G1X78.1938Y-57.5697

G1X82.1678Y-57.5646

G1X84.7823Y-57.7141

G1X86.4555Y-57.9670

G1X89.6974Y-58.7668

G1X90.9524Y-58.9443

G1X92.2073Y-58.8383

G1X93.5669Y-58.3380

G1 Z0F20000

(Start Block)


G1X11.4728Y-54.9901
G1Z5F20000
(Plotting speed under)
G1 F4000


G1X11.9957Y-55.2351

G1X12.5933Y-55.6760

G1X14.4607Y-57.5418

G1X15.2202Y-58.1889

G1X16.0742Y-58.6538

G1X16.8063Y-58.7812

G1X17.5383Y-58.6578

G1X18.4447Y-58.2103

G1X21.4949Y-55.7284

G1X22.8718Y-54.8352

G1X24.2313Y-54.3106

G1X25.6954Y-54.1057

G1X26.9504Y-54.1367

G1X30.2969Y-54.5023

G1X32.0747Y-54.5922

G1X33.9571Y-54.5207

G1X38.0357Y-54.1080

G1X39.0815Y-54.1205

G1X40.0227Y-54.2491

G1X41.0685Y-54.5615

G1X42.0620Y-55.0450

G1X43.1949Y-55.8081

G1X46.1580Y-58.1531

G1X47.0294Y-58.6013

G1X47.8661Y-58.7790

G1X48.7027Y-58.6626

G1X49.4696Y-58.2936

G1X50.3162Y-57.6429

G1X52.6070Y-55.5183

G1X53.3042Y-55.0987

G1X54.0362Y-54.9064

G1X54.6637Y-54.9670

G1X55.2911Y-55.2273

G1X56.0058Y-55.7195

G1X58.1845Y-57.5554

G1X58.9514Y-57.9397

G1X59.5789Y-58.0540

G1X60.1018Y-58.0055

G1X60.7292Y-57.7909

G1X63.5528Y-55.9767

G1X64.2849Y-55.6771

G1X65.0169Y-55.5548

G1X65.7490Y-55.6102

G1X66.4810Y-55.8132

G1X68.7818Y-56.8480

G1X69.7230Y-57.1930

G1X70.5596Y-57.3884

G1X71.5008Y-57.4771

G1X73.0695Y-57.3824

G1X77.5664Y-56.7045

G1X80.5991Y-56.5483

G1X83.6319Y-56.6971

G1X88.2334Y-57.3865

G1X89.9066Y-57.4723

G1X90.7432Y-57.3833

G1X91.5799Y-57.1841

G1X93.5669Y-56.3502

G1 Z0F20000

(Start Block)


G1X11.4728Y-53.5748
G1Z5F20000
(Plotting speed under)
G1 F4000


G1X11.9957Y-53.8468

G1X12.5933Y-54.2970

G1X14.4607Y-56.0971

G1X15.2202Y-56.7144

G1X16.0742Y-57.1680

G1X16.8063Y-57.3100

G1X17.6429Y-57.1918

G1X18.6190Y-56.7335

G1X21.8435Y-54.2547

G1X23.2901Y-53.3777

G1X24.7542Y-52.8503

G1X26.3229Y-52.6399

G1X27.6824Y-52.6541

G1X32.0747Y-52.9302

G1X33.8526Y-52.8952

G1X37.9311Y-52.6305

G1X39.0815Y-52.6713

G1X40.0227Y-52.8090

G1X41.2776Y-53.1856

G1X42.4977Y-53.7901

G1X43.6307Y-54.5446

G1X45.8965Y-56.2726

G1X46.8203Y-56.8506

G1X47.6569Y-57.1954

G1X48.3890Y-57.3104

G1X49.2256Y-57.1967

G1X50.0622Y-56.8199

G1X50.9511Y-56.1771

G1X53.3913Y-54.0501

G1X54.1408Y-53.6259

G1X54.8728Y-53.4391

G1X55.5003Y-53.4787

G1X56.2323Y-53.7500

G1X57.0516Y-54.2840

G1X59.3174Y-56.0797

G1X60.1018Y-56.4554

G1X60.8338Y-56.5843

G1X61.4613Y-56.5174

G1X62.0887Y-56.3037

G1X65.0169Y-54.5485

G1X65.8536Y-54.2208

G1X66.5856Y-54.0918

G1X67.3177Y-54.1105

G1X68.1543Y-54.2845

G1X70.9779Y-55.3600

G1X72.2329Y-55.7343

G1X73.3832Y-55.9330

G1X74.6382Y-56.0084

G1X80.8083Y-55.7588

G1X86.5601Y-56.0010

G1X88.3379Y-55.9637

G1X89.4883Y-55.8055

G1X90.5341Y-55.5466

G1X93.5669Y-54.4233

G1 Z0F20000

(Start Block)


G1X11.4728Y-52.1246
G1Z5F20000
(Plotting speed under)
G1 F4000


G1X11.9957Y-52.3920

G1X12.6057Y-52.8324

G1X14.5354Y-54.5986

G1X15.3945Y-55.2595

G1X16.2834Y-55.6997

G1X17.1200Y-55.8411

G1X17.9566Y-55.7204

G1X18.9676Y-55.2812

G1X22.3664Y-52.8844

G1X24.0222Y-51.9639

G1X25.6954Y-51.4178

G1X27.6824Y-51.1779

G1X36.9899Y-51.1656

G1X38.3494Y-51.2477

G1X39.6044Y-51.4525

G1X40.9639Y-51.8679

G1X42.2188Y-52.4544

G1X43.3692Y-53.1489

G1X45.8094Y-54.8173

G1X46.7157Y-55.3362

G1X47.6569Y-55.7068

G1X48.4935Y-55.8397

G1X49.4348Y-55.7291

G1X50.3411Y-55.3587

G1X51.2997Y-54.7265

G1X54.0014Y-52.5626

G1X54.8728Y-52.1238

G1X55.6049Y-51.9675

G1X56.3369Y-52.0257

G1X57.0690Y-52.2889

G1X57.9230Y-52.8062

G1X59.5789Y-54.0741

G1X60.4503Y-54.6447

G1X61.2521Y-54.9892

G1X62.0887Y-55.1150

G1X62.7162Y-55.0481

G1X63.3437Y-54.8576

G1X66.5856Y-53.0990

G1X67.5268Y-52.7623

G1X68.3634Y-52.6247

G1X69.2001Y-52.6357

G1X70.1413Y-52.7934

G1X73.6969Y-53.8664

G1X75.5794Y-54.2589

G1X77.7755Y-54.4671

G1X81.0174Y-54.5290

G1X84.7823Y-54.4736

G1X87.1876Y-54.2556

G1X88.9654Y-53.9029

G1X92.3119Y-52.9229

G1X93.5669Y-52.6666

G1 Z0F20000

(Start Block)


G1X11.4728Y-50.6402
G1Z5F20000
(Plotting speed under)
G1 F4000


G1X12.6057Y-51.2814

G1X14.7844Y-53.1398

G1X15.6559Y-53.7684

G1X16.5971Y-54.2137

G1X17.5383Y-54.3711

G1X18.4795Y-54.2472

G1X19.5253Y-53.8381

G1X23.3250Y-51.4824

G1X25.2771Y-50.5654

G1X27.3687Y-50.0174

G1X29.9832Y-49.7675

G1X32.8068Y-49.7265

G1X35.4212Y-49.7938

G1X37.1991Y-49.9593

G1X38.7677Y-50.2584

G1X40.1273Y-50.6773

G1X41.4868Y-51.2612

G1X46.1928Y-53.8658

G1X47.2386Y-54.2304

G1X48.2844Y-54.3711

G1X49.3302Y-54.2448

G1X50.3760Y-53.8454

G1X51.3869Y-53.2379

G1X54.3499Y-51.1004

G1X55.2911Y-50.6661

G1X56.1278Y-50.4982

G1X56.9644Y-50.5592

G1X57.8010Y-50.8401

G1X58.7074Y-51.3426

G1X60.5375Y-52.6148

G1X61.4613Y-53.1634

G1X62.4025Y-53.5280

G1X63.2391Y-53.6447

G1X63.9712Y-53.5821

G1X64.7032Y-53.3830

G1X68.3634Y-51.6299

G1X69.4092Y-51.3053

G1X70.3504Y-51.1627

G1X71.2916Y-51.1530

G1X72.3374Y-51.2648

G1X76.1023Y-52.0442

G1X77.9847Y-52.3435

G1X79.7625Y-52.5057

G1X81.6449Y-52.5620

G1X83.5273Y-52.5095

G1X85.3052Y-52.3556

G1X87.1876Y-52.0751

G1X91.3707Y-51.2630

G1X92.5211Y-51.1520

G1X93.5669Y-51.1647

G1 Z0F20000

(Start Block)


G1X11.4728Y-49.1350
G1Z5F20000
(Plotting speed under)
G1 F4000


G1X12.1002Y-49.3897

G1X12.7800Y-49.8010

G1X15.0459Y-51.5956

G1X16.0916Y-52.2973

G1X17.1200Y-52.7419

G1X18.1658Y-52.9012

G1X19.1070Y-52.8032

G1X20.2574Y-52.4341

G1X24.3359Y-50.3420

G1X26.3229Y-49.5497

G1X28.6236Y-49.0033

G1X31.1335Y-48.7622

G1X32.8068Y-48.7501

G1X34.4800Y-48.8453

G1X36.0487Y-49.0456

G1X37.5128Y-49.3500

G1X40.1273Y-50.2159

G1X45.0425Y-52.4158

G1X46.2974Y-52.7748

G1X47.4478Y-52.9012

G1X48.5981Y-52.7914

G1X49.8531Y-52.3902

G1X51.1254Y-51.7235

G1X54.4545Y-49.6240

G1X55.5003Y-49.1999

G1X56.4415Y-49.0294

G1X57.3827Y-49.0846

G1X58.3239Y-49.3580

G1X59.3697Y-49.8687

G1X62.4025Y-51.6566

G1X63.4483Y-52.0343

G1X64.4940Y-52.1747

G1X65.4353Y-52.0941

G1X66.3765Y-51.8463

G1X69.5138Y-50.5155

G1X70.6642Y-50.1083

G1X71.7100Y-49.8533

G1X72.8603Y-49.7047

G1X74.8473Y-49.7067

G1X79.1350Y-50.0919

G1X81.5403Y-50.1991

G1X84.3639Y-50.1262

G1X90.2203Y-49.6761

G1X91.8936Y-49.7259

G1X93.5669Y-49.9754

G1 Z0F20000

(Start Block)


G1X11.4728Y-47.6250
G1Z5F20000
(Plotting speed under)
G1 F4000


G1X12.2048Y-47.8721

G1X12.9543Y-48.2750

G1X15.5688Y-50.1589

G1X16.7017Y-50.8376

G1X17.8521Y-51.2757

G1X19.0024Y-51.4310

G1X19.9436Y-51.3649

G1X21.0940Y-51.0998

G1X25.3817Y-49.4829

G1X27.3687Y-48.8922

G1X29.4603Y-48.5171

G1X31.6564Y-48.3869

G1X33.6434Y-48.4840

G1X35.7350Y-48.7982

G1X38.0357Y-49.3789

G1X42.0097Y-50.7000

G1X43.5784Y-51.1410

G1X45.2516Y-51.4073

G1X46.7157Y-51.3891

G1X47.9707Y-51.1557

G1X49.3302Y-50.6804

G1X50.5851Y-50.0746

G1X53.3042Y-48.5705

G1X54.5591Y-48.0010

G1X55.6049Y-47.6844

G1X56.6507Y-47.5539

G1X57.6964Y-47.6277

G1X58.7422Y-47.8980

G1X59.8926Y-48.3810

G1X63.4483Y-50.1864

G1X64.5986Y-50.5494

G1X65.7490Y-50.7013

G1X66.7948Y-50.6529

G1X67.9451Y-50.4258

G1X71.8145Y-49.1238

G1X73.3832Y-48.6962

G1X74.9519Y-48.4171

G1X76.6251Y-48.2637

G1X79.4488Y-48.2025

G1X88.0242Y-48.2588

G1X90.8478Y-48.5333

G1X93.5669Y-49.0951

G1 Z0F20000

(Start Block)


G1X11.4728Y-46.1224
G1Z5F20000
(Plotting speed under)
G1 F4000


G1X12.3094Y-46.3472

G1X13.1286Y-46.7269

G1X16.0916Y-48.6368

G1X17.3292Y-49.3041

G1X18.6887Y-49.7761

G1X20.0482Y-49.9571

G1X20.9894Y-49.9352

G1X22.1398Y-49.7875

G1X27.7870Y-48.6111

G1X29.3557Y-48.4388

G1X30.8198Y-48.3813

G1X32.8068Y-48.4189

G1X34.4800Y-48.5838

G1X39.1861Y-49.5313

G1X41.2776Y-49.8569

G1X42.9509Y-49.9614

G1X44.4150Y-49.8887

G1X45.9837Y-49.6155

G1X47.5523Y-49.1447

G1X52.2584Y-47.1034

G1X53.7225Y-46.5575

G1X55.0820Y-46.2159

G1X56.3369Y-46.0848

G1X57.5919Y-46.1505

G1X58.9514Y-46.4378

G1X60.4155Y-46.9529

G1X64.4940Y-48.6805

G1X65.8536Y-49.0515

G1X67.1085Y-49.2176

G1X68.3634Y-49.2122

G1X69.7230Y-49.0430

G1X74.5336Y-47.9161

G1X76.7297Y-47.5109

G1X78.7167Y-47.2803

G1X80.9129Y-47.1545

G1X84.0502Y-47.1577

G1X87.0830Y-47.3530

G1X89.9066Y-47.7224

G1X93.5669Y-48.3976

G1 Z0F20000

(Start Block)


G1X11.4728Y-44.6318
G1Z5F20000
(Plotting speed under)
G1 F4000


G1X12.4140Y-44.8293

G1X13.3552Y-45.2035

G1X16.7017Y-47.0917

G1X18.2704Y-47.8139

G1X19.9436Y-48.2893

G1X21.7215Y-48.4823

G1X23.2901Y-48.4663

G1X27.3687Y-48.1787

G1X29.5648Y-48.1063

G1X31.9702Y-48.1586

G1X37.6174Y-48.4845

G1X39.2906Y-48.4716

G1X40.8593Y-48.3498

G1X42.6372Y-48.0610

G1X44.4150Y-47.6141

G1X49.9576Y-45.6947

G1X51.8401Y-45.1316

G1X53.7225Y-44.7520

G1X55.5003Y-44.6131

G1X57.1736Y-44.6974

G1X58.9514Y-45.0078

G1X60.7292Y-45.5049

G1X65.6444Y-47.1493

G1X67.2131Y-47.5110

G1X68.7818Y-47.7158

G1X70.1413Y-47.7655

G1X71.6054Y-47.7075

G1X78.2984Y-46.9513

G1X82.1678Y-46.7667

G1X86.2464Y-46.9135

G1X93.5669Y-47.5881

G1 Z0F20000

(Start Block)


G1X11.4728Y-43.1522
G1Z5F20000
(Plotting speed under)
G1 F4000


G1X12.4140Y-43.3000

G1X13.4598Y-43.6372

G1X17.4337Y-45.5262

G1X19.4207Y-46.2636

G1X21.6169Y-46.7416

G1X24.3359Y-46.9702

G1X32.0747Y-46.9854

G1X34.3755Y-46.8790

G1X36.3624Y-46.6774

G1X38.1403Y-46.3864

G1X39.9181Y-45.9896

G1X45.8791Y-44.2734

G1X48.1798Y-43.7088

G1X50.6897Y-43.2992

G1X53.1996Y-43.1435

G1X55.7095Y-43.2394

G1X58.3239Y-43.5772

G1X60.8338Y-44.0838

G1X67.2131Y-45.6156

G1X69.2001Y-45.9589

G1X71.1871Y-46.1769

G1X74.4290Y-46.2954

G1X81.7495Y-46.2030

G1X89.6974Y-46.2936

G1X93.5669Y-46.2620

G1 Z0F20000

(Start Block)


G1X11.4728Y-41.6798
G1Z5F20000
(Plotting speed under)
G1 F4000


G1X12.5186Y-41.8190

G1X13.5643Y-42.1012

G1X17.7475Y-43.7220

G1X19.9436Y-44.3922

G1X22.4535Y-44.8531

G1X25.2771Y-45.0649

G1X28.7282Y-45.0224

G1X32.0747Y-44.6888

G1X35.1075Y-44.1137

G1X40.6502Y-42.6904

G1X42.9509Y-42.1889

G1X45.5653Y-41.8169

G1X48.1798Y-41.6755

G1X51.4217Y-41.7596

G1X55.3957Y-42.0968

G1X60.3109Y-42.6878

G1X69.5138Y-43.9960

G1X74.7427Y-44.4568

G1X78.6121Y-44.5860

G1X82.8999Y-44.5808

G1X93.5669Y-44.1449

G1 Z0F20000

(Start Block)


G1X11.4728Y-40.2134
G1Z5F20000
(Plotting speed under)
G1 F4000


G1X13.4598Y-40.5429

G1X17.5383Y-41.7730

G1X19.5253Y-42.2575

G1X21.7215Y-42.5952

G1X24.0222Y-42.7313

G1X26.3229Y-42.6673

G1X28.6236Y-42.4212

G1X31.0289Y-41.9947

G1X37.4082Y-40.6022

G1X39.4998Y-40.3197

G1X41.4868Y-40.2070

G1X44.8333Y-40.3244

G1X51.8401Y-41.0404

G1X55.8140Y-41.3395

G1X73.1741Y-42.0617

G1X79.7625Y-42.0431

G1X89.8020Y-41.5154

G1X93.5669Y-41.4327

G1 Z0F20000

(Start Block)


G1X11.4728Y-38.7569
G1Z5F20000
(Plotting speed under)
G1 F4000


G1X13.1460Y-38.9939

G1X18.4795Y-40.1412

G1X20.3619Y-40.3636

G1X22.2444Y-40.4373

G1X24.1268Y-40.3670

G1X26.1138Y-40.1531

G1X33.5388Y-38.8794

G1X35.3167Y-38.7448

G1X36.9899Y-38.7544

G1X39.8135Y-39.0475

G1X45.2516Y-40.0256

G1X47.9707Y-40.4167

G1X50.8988Y-40.6702

G1X54.0362Y-40.7599

G1X59.2651Y-40.6003

G1X84.6777Y-39.0410

G1X89.2791Y-38.8939

G1X93.5669Y-38.8996

G1 Z0F20000

(Start Block)


G1X11.4728Y-37.3199
G1Z5F20000
(Plotting speed under)
G1 F4000


G1X17.0154Y-38.2027

G1X20.1528Y-38.4061

G1X23.2901Y-38.2231

G1X29.6694Y-37.3384

G1X31.1335Y-37.2639

G1X32.5976Y-37.3074

G1X35.3167Y-37.7133

G1X40.8593Y-39.1606

G1X43.5784Y-39.7077

G1X46.9249Y-40.0759

G1X51.0034Y-40.2038

G1X54.9774Y-40.1127

G1X58.6377Y-39.8199

G1X61.6704Y-39.4106

G1X70.3504Y-38.0082

G1X73.3832Y-37.6427

G1X76.2068Y-37.4061

G1X80.9129Y-37.2626

G1X89.4883Y-37.4869

G1X93.5669Y-37.4365

G1 Z0F20000

(Start Block)


G1X11.4728Y-35.9156
G1Z5F20000
(Plotting speed under)
G1 F4000


G1X15.6559Y-36.4917

G1X18.4795Y-36.6351

G1X21.0940Y-36.4932

G1X26.5321Y-35.8428

G1X27.9962Y-35.7932

G1X29.2511Y-35.8576

G1X30.6106Y-36.0538

G1X31.9702Y-36.3752

G1X36.5716Y-37.8984

G1X38.5586Y-38.4374

G1X40.7547Y-38.7986

G1X43.2646Y-38.9413

G1X49.6439Y-38.8678

G1X56.1278Y-38.9434

G1X59.1605Y-38.7862

G1X60.8338Y-38.5626

G1X62.6116Y-38.2120

G1X68.0497Y-36.7849

G1X70.1413Y-36.3089

G1X72.2329Y-35.9733

G1X74.3244Y-35.8088

G1X76.3114Y-35.8148

G1X78.5076Y-35.9834

G1X85.5143Y-37.0256

G1X88.2334Y-37.3177

G1X90.9524Y-37.4002

G1X93.5669Y-37.2280

G1 Z0F20000

(Start Block)


G1X11.4728Y-34.5549
G1Z5F20000
(Plotting speed under)
G1 F4000


G1X14.6101Y-34.9516

G1X17.0154Y-35.0492

G1X19.3162Y-34.9242

G1X24.2313Y-34.3620

G1X25.4863Y-34.3233

G1X26.7412Y-34.3970

G1X27.9962Y-34.6032

G1X29.3557Y-34.9745

G1X33.3297Y-36.5144

G1X34.6892Y-36.9687

G1X36.0487Y-37.2874

G1X37.4082Y-37.4501

G1X39.6044Y-37.4197

G1X45.4608Y-36.6988

G1X48.9119Y-36.5309

G1X51.8401Y-36.6648

G1X57.4873Y-37.3548

G1X59.6834Y-37.4761

G1X61.5658Y-37.3462

G1X63.3437Y-36.9864

G1X64.9124Y-36.5037

G1X68.6772Y-35.1377

G1X70.4550Y-34.6403

G1X72.1283Y-34.3741

G1X73.6969Y-34.3308

G1X75.1610Y-34.4652

G1X76.7297Y-34.7665

G1X82.6907Y-36.4871

G1X84.8868Y-36.9368

G1X87.2921Y-37.2366

G1X89.4883Y-37.3859

G1X91.5799Y-37.3829

G1X93.5669Y-37.2280

G1 Z0F20000

(Start Block)


G1X11.4728Y-33.2396
G1Z5F20000
(Plotting speed under)
G1 F4000


G1X13.8781Y-33.5226

G1X16.0742Y-33.5784

G1X18.0612Y-33.4448

G1X22.5581Y-32.8929

G1X23.8130Y-32.8545

G1X24.8588Y-32.9226

G1X26.1138Y-33.1484

G1X27.3687Y-33.5330

G1X30.9244Y-35.0874

G1X32.1793Y-35.5614

G1X33.3297Y-35.8587

G1X34.4800Y-35.9964

G1X35.6304Y-35.9754

G1X36.8853Y-35.8007

G1X41.3822Y-34.6813

G1X43.5784Y-34.2607

G1X45.8791Y-34.0121

G1X48.3890Y-33.9294

G1X50.8988Y-34.0181

G1X53.1996Y-34.2735

G1X55.2911Y-34.6760

G1X59.6834Y-35.7725

G1X60.8338Y-35.9510

G1X61.8796Y-36.0062

G1X63.2391Y-35.8895

G1X64.7032Y-35.5169

G1X65.9581Y-35.0291

G1X68.8863Y-33.6881

G1X70.3504Y-33.1659

G1X71.6054Y-32.9085

G1X72.8603Y-32.8613

G1X74.0107Y-33.0030

G1X75.2656Y-33.3328

G1X80.7037Y-35.5659

G1X82.1678Y-36.0360

G1X83.5273Y-36.3520

G1X85.0960Y-36.5794

G1X86.8738Y-36.6989

G1X93.5669Y-36.7295

G1 Z0F20000

(Start Block)


G1X11.4728Y-31.9571
G1Z5F20000
(Plotting speed under)
G1 F4000


G1X13.4598Y-32.1639

G1X15.3422Y-32.1770

G1X17.2246Y-32.0134

G1X21.3032Y-31.4349

G1X22.4535Y-31.3830

G1X23.4993Y-31.4461

G1X24.6497Y-31.6642

G1X25.8000Y-32.0424

G1X29.1465Y-33.6549

G1X30.2969Y-34.1328

G1X31.4473Y-34.4402

G1X32.4930Y-34.5363

G1X33.4342Y-34.4717

G1X34.3755Y-34.2828

G1X38.9769Y-32.7304

G1X40.2318Y-32.4229

G1X41.5914Y-32.2048

G1X44.6241Y-32.0378

G1X53.0950Y-32.0820

G1X54.7683Y-32.2308

G1X56.3369Y-32.5173

G1X57.9056Y-32.9666

G1X61.4613Y-34.2251

G1X62.5071Y-34.4590

G1X63.5528Y-34.5358

G1X64.7032Y-34.4028

G1X65.8536Y-34.0419

G1X67.0039Y-33.4996

G1X69.3047Y-32.2357

G1X70.4550Y-31.7321

G1X71.5008Y-31.4542

G1X72.5466Y-31.3871

G1X73.4878Y-31.5128

G1X74.5336Y-31.8387

G1X75.6839Y-32.3699

G1X79.3442Y-34.3345

G1X80.7037Y-34.8472

G1X81.9586Y-35.1367

G1X83.2136Y-35.2560

G1X84.5731Y-35.2291

G1X88.8608Y-34.7209

G1X90.6387Y-34.5855

G1X92.1028Y-34.5775

G1X93.5669Y-34.6714

G1 Z0F20000

(Start Block)


G1X11.4728Y-30.6786
G1Z5F20000
(Plotting speed under)
G1 F4000


G1X13.1460Y-30.8239

G1X14.8193Y-30.8021

G1X16.4925Y-30.6225

G1X20.3619Y-29.9823

G1X21.4077Y-29.9138

G1X22.4535Y-29.9656

G1X23.4993Y-30.1668

G1X24.6497Y-30.5686

G1X27.8916Y-32.2698

G1X28.8328Y-32.6880

G1X29.8786Y-32.9853

G1X30.8198Y-33.0661

G1X31.5518Y-33.0027

G1X32.3885Y-32.8088

G1X36.5716Y-31.1031

G1X37.7220Y-30.7848

G1X38.8723Y-30.6099

G1X40.8593Y-30.5926

G1X45.4608Y-31.0363

G1X48.0752Y-31.1359

G1X50.5851Y-31.0307

G1X54.8728Y-30.6050

G1X56.5461Y-30.5768

G1X57.6964Y-30.6985

G1X58.8468Y-30.9680

G1X59.9972Y-31.3828

G1X63.1345Y-32.7542

G1X64.0757Y-32.9990

G1X64.9124Y-33.0659

G1X65.8536Y-32.9447

G1X66.8993Y-32.5706

G1X67.8580Y-32.0510

G1X69.9496Y-30.7308

G1X70.8733Y-30.2672

G1X71.8145Y-29.9793

G1X72.6512Y-29.9155

G1X73.5924Y-30.0695

G1X74.6382Y-30.4907

G1X77.9672Y-32.6142

G1X79.2396Y-33.2771

G1X80.3900Y-33.6512

G1X81.6449Y-33.7926

G1X82.6907Y-33.7192

G1X83.7365Y-33.5120

G1X87.7105Y-32.2947

G1X89.5929Y-31.8601

G1X91.5799Y-31.6525

G1X93.5669Y-31.7394

G1 Z0F20000

(Start Block)


G1X11.4728Y-29.3644
G1Z5F20000
(Plotting speed under)
G1 F4000


G1X12.9369Y-29.4618

G1X14.4010Y-29.4140

G1X15.9697Y-29.2148

G1X19.7345Y-28.5141

G1X20.7803Y-28.4431

G1X21.7215Y-28.4999

G1X22.6627Y-28.6968

G1X23.7085Y-29.0867

G1X26.7412Y-30.7983

G1X27.6824Y-31.2471

G1X28.5191Y-31.5051

G1X29.3557Y-31.5965

G1X30.0877Y-31.5326

G1X30.9244Y-31.3095

G1X34.5846Y-29.5859

G1X35.6304Y-29.2598

G1X36.5716Y-29.1147

G1X37.5128Y-29.1047

G1X38.5586Y-29.2206

G1X42.4280Y-30.0634

G1X44.2058Y-30.3593

G1X46.0882Y-30.5383

G1X47.9707Y-30.5950

G1X49.9576Y-30.5342

G1X51.8401Y-30.3488

G1X53.6179Y-30.0432

G1X57.1736Y-29.2452

G1X58.9514Y-29.0973

G1X59.8926Y-29.2016

G1X60.8338Y-29.4576

G1X61.7750Y-29.8536

G1X64.4940Y-31.2472

G1X65.3307Y-31.5121

G1X66.1673Y-31.5957

G1X67.0039Y-31.4701

G1X67.9451Y-31.0858

G1X70.5596Y-29.3102

G1X71.5008Y-28.7772

G1X72.3374Y-28.5007

G1X73.0695Y-28.4472

G1X73.9061Y-28.6110

G1X74.8299Y-29.0413

G1X77.7058Y-31.1493

G1X78.8213Y-31.8229

G1X79.8671Y-32.2079

G1X80.9129Y-32.3221

G1X81.8541Y-32.2083

G1X82.8999Y-31.8896

G1X86.8738Y-30.0252

G1X88.9654Y-29.2825

G1X90.1158Y-29.0214

G1X91.2661Y-28.8628

G1X93.5669Y-28.8369

G1 Z0F20000

(Start Block)


G1X11.4728Y-27.9727
G1Z5F20000
(Plotting speed under)
G1 F4000


G1X12.7277Y-28.0328

G1X14.0872Y-27.9671

G1X15.5513Y-27.7590

G1X19.1070Y-27.0492

G1X20.1528Y-26.9731

G1X20.9894Y-27.0248

G1X21.9306Y-27.2300

G1X22.9764Y-27.6488

G1X25.7652Y-29.3269

G1X26.6367Y-29.7722

G1X27.4733Y-30.0452

G1X28.2053Y-30.1266

G1X28.9374Y-30.0514

G1X29.6694Y-29.8310

G1X33.0159Y-28.0816

G1X33.8526Y-27.7882

G1X34.6892Y-27.6413

G1X35.5258Y-27.6414

G1X36.4670Y-27.7906

G1X40.1273Y-28.9166

G1X42.2188Y-29.3431

G1X44.6241Y-29.5250

G1X48.9119Y-29.5514

G1X52.1538Y-29.4988

G1X54.2454Y-29.2887

G1X56.0232Y-28.8925

G1X59.4743Y-27.7988

G1X60.3109Y-27.6520

G1X61.0430Y-27.6286

G1X61.7750Y-27.7245

G1X62.6116Y-27.9868

G1X63.4483Y-28.3917

G1X65.8536Y-29.7780

G1X66.5856Y-30.0369

G1X67.3177Y-30.1266

G1X68.1543Y-29.9902

G1X68.9909Y-29.6083

G1X71.4311Y-27.7879

G1X72.2329Y-27.2993

G1X72.9649Y-27.0334

G1X73.5924Y-26.9749

G1X74.4290Y-27.1510

G1X75.2656Y-27.5885

G1X77.8801Y-29.7183

G1X78.8387Y-30.3610

G1X79.7625Y-30.7414

G1X80.7037Y-30.8513

G1X81.6449Y-30.6933

G1X82.5861Y-30.3178

G1X86.3509Y-28.0698

G1X88.3379Y-27.1937

G1X89.4883Y-26.8708

G1X90.7432Y-26.6494

G1X92.1028Y-26.5283

G1X93.5669Y-26.5041

G1 Z0F20000


G00 X0.0000 Y0.0000


