$H
G21
G17
G90
G1 Z0F20000
G1 F15000

(Start Layer)

(Start Block)


G1X62.7745Y-91.8713
G1Z6F20000
(Plotting speed under)
G1 F4000


G1X61.7601Y-91.2733

G1X60.9865Y-90.0506

G1X60.3656Y-89.9543

G1X59.3951Y-89.6138

G1X57.6166Y-88.6972

G1X57.1255Y-88.3409

G1X55.5772Y-86.9435

G1X54.4932Y-85.3813

G1X54.1858Y-85.1044

G1X53.5688Y-84.8712

G1X47.0963Y-83.0762

G1X46.3917Y-83.2504

G1X43.2758Y-84.5134

G1X32.5925Y-87.0189

G1X30.6901Y-87.3737

G1X29.0122Y-87.5253

G1X28.3301Y-88.4775

G1X27.8170Y-89.0145

G1X26.9002Y-89.6436

G1X26.3758Y-89.7617

G1X25.6520Y-89.6827

G1X22.8454Y-88.5251

G1X20.4095Y-87.9600

G1X18.3340Y-87.1592

G1X17.9286Y-86.8969

G1X16.9633Y-85.9219

G1X15.9163Y-85.6859

G1X15.2913Y-85.3419

G1X14.2601Y-84.3111

G1X13.9128Y-83.7176

G1X12.9847Y-80.1630

G1X12.9286Y-79.6290

G1X12.9937Y-79.1122

G1X13.4630Y-78.0025

G1X14.9932Y-74.8911

G1X16.6876Y-71.6288

G1X17.1773Y-70.8406

G1X17.7928Y-70.2045

G1X18.7372Y-69.6193

G1X22.4056Y-67.9805

G1X29.3574Y-64.5311

G1X29.3731Y-63.9697

G1X29.5552Y-63.5819

G1X31.2746Y-62.0402

G1X32.1650Y-61.0870

G1X31.8163Y-60.0361

G1X31.8556Y-59.7046

G1X32.3406Y-59.1008

G1X33.0921Y-58.8302

G1X33.3055Y-58.5317

G1X33.3575Y-58.2415

G1X33.1989Y-58.0397

G1X32.5677Y-57.7911

G1X31.0772Y-57.4716

G1X28.4684Y-57.2870

G1X25.5358Y-57.2921

G1X23.7990Y-57.3544

G1X22.4922Y-58.3495

G1X21.7847Y-58.6677

G1X20.4823Y-58.8171

G1X19.8399Y-58.6824

G1X19.4027Y-58.3663

G1X17.8834Y-56.9432

G1X17.2469Y-56.5733

G1X16.1058Y-56.1691

G1X15.4254Y-55.8345

G1X14.6967Y-55.3043

G1X14.2094Y-54.7550

G1X13.8368Y-53.9889

G1X13.7851Y-53.0660

G1X13.9118Y-52.3961

G1X14.4663Y-50.9011

G1X14.4746Y-49.9226

G1X14.2832Y-49.6570

G1X13.1283Y-49.0512

G1X12.0796Y-48.3139

G1X11.9035Y-47.9928

G1X11.8160Y-47.5562

G1X11.9124Y-46.9376

G1X12.3681Y-45.8758

G1X12.9615Y-45.0412

G1X17.5444Y-40.2391

G1X17.6282Y-39.7150

G1X17.2748Y-37.0787

G1X17.3142Y-36.2017

G1X17.4733Y-35.3653

G1X17.8355Y-34.3704

G1X18.3885Y-33.3727

G1X19.0496Y-32.4938

G1X19.8748Y-31.6086

G1X21.0319Y-30.6246

G1X22.8678Y-29.5067

G1X24.1450Y-28.8596

G1X25.7940Y-28.1743

G1X27.0372Y-27.7510

G1X28.2504Y-27.4599

G1X31.7851Y-27.0618

G1X32.3005Y-26.9002

G1X32.2935Y-26.6563

G1X31.9550Y-25.8983

G1X30.8123Y-23.9373

G1X30.7463Y-23.5653

G1X30.7781Y-22.8947

G1X30.8580Y-22.4393

G1X31.1731Y-21.6766

G1X31.7731Y-20.8475

G1X32.1791Y-20.6026

G1X32.9973Y-20.7687

G1X32.9056Y-17.0056

G1X33.0237Y-16.3599

G1X33.3868Y-15.3514

G1X33.8027Y-14.5604

G1X34.3564Y-13.8273

G1X36.1274Y-12.1868

G1X37.6992Y-11.0624

G1X38.5643Y-10.6637

G1X39.5953Y-10.3097

G1X40.3882Y-10.1426

G1X42.0217Y-10.0200

G1X43.0600Y-10.0429

G1X43.8531Y-10.1818

G1X44.9231Y-10.5874

G1X46.3532Y-11.2579

G1X47.4847Y-12.0142

G1X48.3254Y-12.7301

G1X48.8114Y-13.3564

G1X49.2877Y-14.1610

G1X50.0262Y-15.9644

G1X50.2213Y-17.3224

G1X50.3385Y-20.6076

G1X51.3044Y-20.6178

G1X51.6533Y-20.9883

G1X52.0396Y-21.7489

G1X52.3786Y-22.6843

G1X52.7123Y-24.4688

G1X56.6378Y-24.2625

G1X59.4842Y-23.7911

G1X60.1518Y-23.7598

G1X60.8866Y-23.9036

G1X61.7869Y-24.2523

G1X62.6092Y-24.6943

G1X63.2573Y-25.1896

G1X63.8034Y-25.8691

G1X64.2763Y-26.9978

G1X65.3595Y-33.0643

G1X65.7565Y-34.4382

G1X66.1416Y-35.3401

G1X66.7167Y-36.1178

G1X67.5761Y-37.0586

G1X71.1439Y-39.1023

G1X72.0322Y-39.7999

G1X72.3550Y-40.2885

G1X72.5236Y-41.2458

G1X72.5509Y-41.8946

G1X72.4560Y-42.4552

G1X72.2286Y-42.9834

G1X71.5637Y-43.8428

G1X69.7526Y-45.1082

G1X69.4371Y-45.4113

G1X69.5762Y-47.6825

G1X68.5160Y-49.6619

G1X68.9508Y-51.8493

G1X68.9947Y-52.6835

G1X68.8974Y-53.1693

G1X68.6959Y-53.4662

G1X68.3434Y-53.7747

G1X66.4000Y-55.0055

G1X65.7148Y-56.3516

G1X65.0589Y-57.0462

G1X64.3964Y-57.4548

G1X63.5111Y-57.5534

G1X62.8765Y-57.3131

G1X61.6956Y-56.5384

G1X61.0803Y-56.4996

G1X56.9391Y-57.0487

G1X52.1156Y-57.4206

G1X51.2449Y-57.6957

G1X51.0487Y-58.3110

G1X51.1993Y-58.5073

G1X52.4980Y-59.2158

G1X52.9858Y-59.6404

G1X53.4526Y-60.3709

G1X53.7920Y-61.5553

G1X54.0648Y-61.9350

G1X54.7953Y-62.3086

G1X57.7250Y-63.5061

G1X57.9799Y-64.2292

G1X58.2177Y-64.4992

G1X60.3438Y-65.7774

G1X68.9637Y-71.9579

G1X69.7089Y-72.7469

G1X70.2709Y-74.1937

G1X71.2581Y-77.7182

G1X71.7873Y-80.4498

G1X71.9101Y-81.9865

G1X71.7629Y-82.8682

G1X71.3184Y-83.7031

G1X70.8877Y-84.2926

G1X70.0583Y-85.1993

G1X69.1681Y-86.0010

G1X68.3909Y-86.4871

G1X67.1069Y-86.9707

G1X66.2991Y-87.1873

G1X66.2025Y-87.2769

G1X65.9573Y-87.8921

G1X65.2424Y-90.5984

G1X64.9351Y-91.3378

G1X64.4071Y-91.6731

G1X63.7469Y-91.8944

G1X63.1735Y-91.9673

G1X62.7745Y-91.8713

G1 Z0F20000

(Start Block)


G1X46.6299Y-56.0815
G1Z6F20000
(Plotting speed under)
G1 F4000


G1X46.6299Y-55.2179

G1X47.6610Y-55.1932

G1X47.9133Y-55.0281

G1X47.8859Y-53.5141

G1X46.3550Y-53.3729

G1X46.2475Y-51.8705

G1X46.1407Y-51.6595

G1X43.6851Y-53.7577

G1X43.2085Y-54.3267

G1X43.9288Y-54.9872

G1X46.4559Y-56.9537

G1X46.5906Y-56.8085

G1X46.6299Y-56.0815

G1 Z0F20000

(Start Block)


G1X39.2214Y-55.3280
G1Z6F20000
(Plotting speed under)
G1 F4000


G1X40.2736Y-54.0617

G1X40.4842Y-53.6946

G1X38.3022Y-52.1973

G1X37.5221Y-51.7744

G1X37.3840Y-53.1450

G1X35.9350Y-53.3981

G1X35.9131Y-55.0216

G1X37.1646Y-55.0676

G1X37.5927Y-55.1685

G1X37.8700Y-56.5693

G1X37.9823Y-56.7096

G1X39.2214Y-55.3280

G1 Z0F20000

(Start Block)


G1X32.0398Y-52.1167
G1Z6F20000
(Plotting speed under)
G1 F4000


G1X32.1659Y-51.3377

G1X32.1512Y-50.6247

G1X31.7958Y-48.9659

G1X31.6341Y-48.6112

G1X28.3720Y-47.7593

G1X27.8516Y-48.1440

G1X27.2246Y-48.9048

G1X26.8574Y-49.7640

G1X26.7157Y-50.8154

G1X26.8370Y-51.6261

G1X26.9865Y-51.9015

G1X27.1942Y-52.0702

G1X27.8443Y-52.3973

G1X28.2980Y-52.5274

G1X31.3683Y-52.7748

G1X31.9090Y-52.7448

G1X32.0398Y-52.1167

G1 Z0F20000

(Start Block)


G1X53.9315Y-51.8125
G1Z6F20000
(Plotting speed under)
G1 F4000


G1X57.4252Y-50.8580

G1X57.4676Y-49.3508

G1X57.8570Y-48.3334

G1X57.5405Y-48.2437

G1X55.8396Y-48.2304

G1X54.4845Y-47.3468

G1X52.7963Y-46.0528

G1X52.4241Y-45.8760

G1X52.2817Y-46.4550

G1X52.1408Y-48.2973

G1X52.0924Y-50.0386

G1X52.1554Y-51.2239

G1X52.5168Y-52.0934

G1X53.9315Y-51.8125

G1 Z0F20000

(Start Block)


G1X46.2347Y-26.1066
G1Z6F20000
(Plotting speed under)
G1 F4000


G1X46.7030Y-25.8874

G1X47.0169Y-25.6009

G1X47.5274Y-24.6299

G1X47.6990Y-24.0453

G1X47.7712Y-23.2982

G1X47.7325Y-22.6600

G1X47.6003Y-22.4399

G1X47.3158Y-22.4807

G1X46.8056Y-22.7298

G1X45.4847Y-23.7756

G1X44.7620Y-24.2210

G1X44.1792Y-24.4457

G1X43.4700Y-24.5257

G1X43.3403Y-24.6212

G1X43.3538Y-24.8751

G1X43.5709Y-25.2895

G1X43.9645Y-25.7412

G1X44.3705Y-26.0473

G1X45.1537Y-26.2930

G1X46.2347Y-26.1066

G1 Z0F20000

(Start Block)


G1X42.3923Y-23.8329
G1Z6F20000
(Plotting speed under)
G1 F4000


G1X43.8681Y-22.2673

G1X45.1421Y-20.7612

G1X46.5516Y-18.9885

G1X47.1486Y-17.8875

G1X46.6069Y-17.7851

G1X44.3297Y-17.6653

G1X44.0165Y-17.5567

G1X43.4848Y-11.0655

G1X43.2820Y-10.3883

G1X42.7545Y-10.2619

G1X40.7966Y-10.3633

G1X40.0601Y-10.4985

G1X39.6507Y-10.6700

G1X39.4771Y-12.4166

G1X39.3285Y-17.8728

G1X38.9257Y-17.9933

G1X36.7389Y-18.2867

G1X36.3449Y-18.4176

G1X36.7603Y-19.0405

G1X37.9823Y-20.4150

G1X41.1096Y-23.5286

G1X41.9874Y-24.2034

G1X42.3923Y-23.8329

G1 Z0F20000

(Start Block)


G1X38.7666Y-26.2275
G1Z6F20000
(Plotting speed under)
G1 F4000


G1X39.5138Y-25.5675

G1X40.0349Y-24.9188

G1X38.8434Y-24.5505

G1X37.2736Y-23.6719

G1X36.4404Y-23.3491

G1X35.7669Y-23.2817

G1X35.0377Y-23.4388

G1X35.0022Y-23.8109

G1X35.3210Y-24.6676

G1X35.7365Y-25.3831

G1X36.2172Y-25.8545

G1X36.8731Y-26.2181

G1X37.4995Y-26.3859

G1X38.2380Y-26.3905

G1X38.7666Y-26.2275

G1 Z0F20000


G00 X0.0000 Y0.0000


