$H
G21
G17
G90
G1 Z0F20000
G1 F15000
(Start Layer)
(Start Block)

G1X54.4021Y-140.4980
G1Z5.5F20000
(Plotting speed under)
G1 F8000

G1X57.9740Y-139.0451
G1X60.9210Y-138.0087
G1X63.7684Y-137.2088
G1X66.5149Y-136.6479
G1X69.1586Y-136.3036
G1X71.9097Y-136.1255
G1X74.6614Y-136.0889
G1X80.7997Y-136.1732
G1X83.9743Y-136.0355
G1X85.6666Y-135.8359
G1X87.3573Y-135.5221
G1X89.0454Y-135.0802
G1X90.6247Y-134.5434
G1X92.9337Y-133.5440
G1X95.2326Y-132.3132
G1X97.7290Y-130.7492
G1X100.5245Y-128.7734
G1X103.2042Y-126.6859
G1X105.9227Y-124.3831
G1X108.6799Y-121.8773
G1X112.1905Y-118.5242
G1 Z0F20000
(Start Block)

G1X54.4021Y-142.0855
G1Z5.5F20000
(Plotting speed under)
G1 F8000

G1X58.0674Y-140.3005
G1X61.1125Y-139.0196
G1X64.0610Y-138.0352
G1X66.9112Y-137.3548
G1X69.5543Y-136.9586
G1X72.4110Y-136.7507
G1X75.0569Y-136.7134
G1X81.1951Y-136.8109
G1X84.4755Y-136.6560
G1X86.2733Y-136.4214
G1X87.9634Y-136.0765
G1X89.6507Y-135.5988
G1X91.3339Y-134.9837
G1X93.5357Y-133.9741
G1X95.9364Y-132.6320
G1X98.5335Y-130.9439
G1X101.3254Y-128.9118
G1X103.8985Y-126.8551
G1X106.5876Y-124.5249
G1X109.3410Y-121.9724
G1X113.0757Y-118.3460
G1 Z0F20000
(Start Block)

G1X54.4021Y-143.6730
G1Z5.5F20000
(Plotting speed under)
G1 F8000

G1X58.1585Y-141.5480
G1X61.3002Y-140.0179
G1X64.2438Y-138.8818
G1X67.1971Y-138.0718
G1X69.8394Y-137.6212
G1X72.6959Y-137.3842
G1X75.3417Y-137.3401
G1X81.5858Y-137.4485
G1X84.8662Y-137.2806
G1X86.6637Y-137.0312
G1X88.4590Y-136.6411
G1X90.1455Y-136.1335
G1X91.8277Y-135.4871
G1X94.1323Y-134.3818
G1X96.5305Y-132.9905
G1X99.1250Y-131.2593
G1X101.9143Y-129.1872
G1X104.4847Y-127.0919
G1X107.1704Y-124.7190
G1X113.6507Y-118.4490
G1 Z0F20000
(Start Block)

G1X54.4021Y-145.2605
G1Z5.5F20000
(Plotting speed under)
G1 F8000

G1X58.1432Y-142.8527
G1X61.3797Y-141.0600
G1X64.4226Y-139.7271
G1X67.3731Y-138.8116
G1X70.0144Y-138.2997
G1X72.8706Y-138.0269
G1X75.6222Y-137.9716
G1X81.9721Y-138.0853
G1X85.2523Y-137.8982
G1X87.0497Y-137.6308
G1X88.8446Y-137.2184
G1X90.5304Y-136.6876
G1X92.3167Y-135.9706
G1X94.6194Y-134.8225
G1X97.0156Y-133.3928
G1X99.7116Y-131.5546
G1X102.4983Y-129.4438
G1X105.0658Y-127.3109
G1X107.6717Y-124.9674
G1X114.2207Y-118.5367
G1 Z0F20000
(Start Block)

G1X54.4021Y-146.8480
G1Z5.5F20000
(Plotting speed under)
G1 F8000

G1X58.2305Y-144.1024
G1X61.5611Y-142.0545
G1X64.5980Y-140.5779
G1X66.0701Y-140.0175
G1X67.6509Y-139.5311
G1X70.2913Y-138.9711
G1X73.1473Y-138.6729
G1X75.8989Y-138.6110
G1X82.2488Y-138.7234
G1X85.6347Y-138.5087
G1X87.4317Y-138.2198
G1X89.2261Y-137.7824
G1X91.0163Y-137.1868
G1X92.8013Y-136.4338
G1X95.1021Y-135.2428
G1X97.6001Y-133.7077
G1X100.2936Y-131.8299
G1X103.0778Y-129.6817
G1X105.5658Y-127.5799
G1X108.1689Y-125.2012
G1X114.7864Y-118.6095
G1 Z0F20000
(Start Block)

G1X54.4021Y-148.4355
G1Z5.5F20000
(Plotting speed under)
G1 F8000

G1X58.3165Y-145.3561
G1X61.6359Y-143.1155
G1X63.2005Y-142.2187
G1X64.7707Y-141.4386
G1X66.2408Y-140.8239
G1X67.8202Y-140.2890
G1X70.4594Y-139.6702
G1X73.3150Y-139.3360
G1X76.0666Y-139.2593
G1X82.5223Y-139.3610
G1X84.3213Y-139.2830
G1X86.0138Y-139.1101
G1X87.9161Y-138.7732
G1X89.7096Y-138.2988
G1X91.4987Y-137.6649
G1X93.3869Y-136.8237
G1X95.7894Y-135.5183
G1X98.2843Y-133.9288
G1X101.0784Y-131.9289
G1X103.8332Y-129.7508
G1X106.2922Y-127.6256
G1X108.8913Y-125.1989
G1X115.6517Y-118.3537
G1 Z0F20000
(Start Block)

G1X54.4021Y-150.0230
G1Z5.5F20000
(Plotting speed under)
G1 F8000

G1X58.4013Y-146.6152
G1X61.8129Y-144.1229
G1X63.3737Y-143.1551
G1X64.9410Y-142.3108
G1X66.4091Y-141.6433
G1X67.9869Y-141.0607
G1X70.6248Y-140.3830
G1X73.4800Y-140.0111
G1X76.2314Y-139.9167
G1X82.6872Y-139.9977
G1X84.5920Y-139.9032
G1X86.2843Y-139.7140
G1X88.1863Y-139.3561
G1X90.0846Y-138.8263
G1X91.9777Y-138.1178
G1X93.8643Y-137.2369
G1X96.2646Y-135.8879
G1X98.8612Y-134.1921
G1X101.6529Y-132.1559
G1X104.4053Y-129.9430
G1X106.8616Y-127.7845
G1X109.3813Y-125.3946
G1X116.2101Y-118.3885
G1 Z0F20000
(Start Block)

G1X54.4021Y-151.6105
G1Z5.5F20000
(Plotting speed under)
G1 F8000

G1X58.4597Y-147.9026
G1X61.8846Y-145.2081
G1X63.5451Y-144.1000
G1X65.1093Y-143.1944
G1X66.6801Y-142.4294
G1X68.1514Y-141.8463
G1X70.7878Y-141.1091
G1X73.6425Y-140.6972
G1X76.3939Y-140.5812
G1X82.9555Y-140.6252
G1X84.8602Y-140.5117
G1X86.6580Y-140.2860
G1X88.5594Y-139.8947
G1X90.4568Y-139.3301
G1X92.3488Y-138.5877
G1X94.3386Y-137.6203
G1X96.7367Y-136.2286
G1X99.4349Y-134.4260
G1X102.2243Y-132.3551
G1X104.9742Y-130.1085
G1X107.3515Y-127.9885
G1X109.8685Y-125.5675
G1X116.7656Y-118.4014
G1 Z0F20000
(Start Block)

G1X54.4021Y-153.1980
G1Z5.5F20000
(Plotting speed under)
G1 F8000

G1X58.5942Y-149.1299
G1X60.3602Y-147.5846
G1X62.0586Y-146.2298
G1X63.7148Y-145.0528
G1X65.2758Y-144.0885
G1X66.8443Y-143.2708
G1X68.4191Y-142.6050
G1X71.0544Y-141.8233
G1X73.9087Y-141.3821
G1X76.5542Y-141.2501
G1X83.1158Y-141.2453
G1X85.1261Y-141.1044
G1X86.9237Y-140.8543
G1X88.9300Y-140.4076
G1X90.8264Y-139.8060
G1X92.8220Y-138.9802
G1X94.8099Y-137.9706
G1X97.3098Y-136.4707
G1X100.0055Y-134.6279
G1X102.7927Y-132.5237
G1X105.5402Y-130.2444
G1X107.9150Y-128.0936
G1X110.3530Y-125.7143
G1X117.3184Y-118.3898
G1 Z0F20000
(Start Block)

G1X54.4021Y-154.7855
G1Z5.5F20000
(Plotting speed under)
G1 F8000

G1X58.7278Y-150.3593
G1X60.5638Y-148.6628
G1X62.2313Y-147.2573
G1X63.8832Y-146.0136
G1X65.4409Y-144.9921
G1X67.0068Y-144.1230
G1X68.5799Y-143.4117
G1X71.2135Y-142.5691
G1X74.0671Y-142.0821
G1X76.7124Y-141.9204
G1X83.3798Y-141.8463
G1X85.3900Y-141.6768
G1X87.1872Y-141.3993
G1X89.2983Y-140.8907
G1X91.2987Y-140.2098
G1X93.2924Y-139.3364
G1X95.3827Y-138.2254
G1X97.8799Y-136.6757
G1X100.6767Y-134.7199
G1X103.4612Y-132.5767
G1X106.1802Y-130.2806
G1X108.4758Y-128.1672
G1X110.8349Y-125.8322
G1X117.8687Y-118.3511
G1 Z0F20000
(Start Block)

G1X54.4021Y-156.3730
G1Z5.5F20000
(Plotting speed under)
G1 F8000

G1X58.7848Y-151.6680
G1X60.6134Y-149.8838
G1X62.3003Y-148.3771
G1X63.9470Y-147.0593
G1X65.6046Y-145.9043
G1X67.1679Y-144.9841
G1X68.7391Y-144.2275
G1X70.0006Y-143.7393
G1X71.3708Y-143.3224
G1X74.1178Y-142.7983
G1X76.7628Y-142.5925
G1X83.5359Y-142.4344
G1X85.5459Y-142.2396
G1X87.4484Y-141.9178
G1X89.5587Y-141.3739
G1X91.5581Y-140.6613
G1X93.6554Y-139.7071
G1X95.8483Y-138.5009
G1X98.4471Y-136.8427
G1X101.2416Y-134.8511
G1X104.0240Y-132.6773
G1X106.5872Y-130.4873
G1X108.8813Y-128.3552
G1X111.2385Y-125.9977
G1X118.1147Y-118.6118
G1 Z0F20000
(Start Block)

G1X54.4021Y-157.9606
G1Z5.5F20000
(Plotting speed under)
G1 F8000

G1X58.9175Y-152.9052
G1X60.7391Y-151.0430
G1X62.4968Y-149.3967
G1X64.1133Y-148.0387
G1X65.7671Y-146.8245
G1X67.3276Y-145.8530
G1X68.8968Y-145.0502
G1X70.1571Y-144.5290
G1X71.5263Y-144.0803
G1X74.2724Y-143.5034
G1X76.9171Y-143.2565
G1X83.7958Y-142.9937
G1X85.9111Y-142.7475
G1X87.8130Y-142.3832
G1X89.9221Y-141.7920
G1X92.0251Y-140.9919
G1X94.1203Y-139.9880
G1X96.4151Y-138.6748
G1X99.0113Y-136.9718
G1X101.9069Y-134.8685
G1X104.6096Y-132.7221
G1X107.1450Y-130.5245
G1X109.3604Y-128.4380
G1X111.7152Y-126.0542
G1X118.6603Y-118.5180
G1 Z0F20000
(Start Block)

G1X54.4021Y-159.5481
G1Z5.5F20000
(Plotting speed under)
G1 F8000

G1X59.0496Y-154.1437
G1X60.9401Y-152.1296
G1X62.6158Y-150.4892
G1X64.3043Y-149.0025
G1X65.9284Y-147.7510
G1X67.4860Y-146.7279
G1X69.0529Y-145.8780
G1X70.3119Y-145.3224
G1X71.6801Y-144.8401
G1X74.4251Y-144.2056
G1X77.0694Y-143.9121
G1X84.0533Y-143.5272
G1X86.1682Y-143.2409
G1X88.1749Y-142.8140
G1X90.3881Y-142.1371
G1X92.4891Y-141.2820
G1X94.6866Y-140.1723
G1X96.9788Y-138.8079
G1X99.6761Y-136.9911
G1X102.4660Y-134.9284
G1X105.1667Y-132.7540
G1X107.6998Y-130.5277
G1X109.9129Y-128.4133
G1X112.1893Y-126.0790
G1X119.2034Y-118.3947
G1 Z0F20000
(Start Block)

G1X54.4021Y-161.1356
G1Z5.5F20000
(Plotting speed under)
G1 F8000

G1X59.1810Y-155.3823
G1X61.0643Y-153.2945
G1X62.7341Y-151.5879
G1X64.4172Y-150.0349
G1X65.9853Y-148.7597
G1X67.6430Y-147.6070
G1X69.2075Y-146.7085
G1X70.4651Y-146.1172
G1X71.8321Y-145.5992
G1X73.2027Y-145.1989
G1X74.5756Y-144.9023
G1X77.2193Y-144.5567
G1X84.2026Y-144.0462
G1X86.4227Y-143.7050
G1X88.4286Y-143.2390
G1X90.6406Y-142.5217
G1X92.8453Y-141.5828
G1X95.1452Y-140.3742
G1X97.5391Y-138.9024
G1X100.2341Y-137.0476
G1X103.0221Y-134.9552
G1X105.6439Y-132.8189
G1X108.0987Y-130.6405
G1X110.2342Y-128.5844
G1X112.5091Y-126.2344
G1X119.4425Y-118.5787
G1 Z0F20000
(Start Block)

G1X54.4021Y-162.7231
G1Z5.5F20000
(Plotting speed under)
G1 F8000

G1X59.3117Y-156.6197
G1X61.1878Y-154.4611
G1X62.8516Y-152.6905
G1X64.5293Y-151.0725
G1X66.1443Y-149.6962
G1X67.7985Y-148.4877
G1X69.3603Y-147.5396
G1X70.6162Y-146.9109
G1X71.9819Y-146.3553
G1X73.3516Y-145.9202
G1X74.7239Y-145.5912
G1X77.3669Y-145.1886
G1X84.5606Y-144.5132
G1X86.7799Y-144.1186
G1X88.8902Y-143.5725
G1X91.1004Y-142.7941
G1X93.4074Y-141.7468
G1X95.7046Y-140.4799
G1X98.3034Y-138.8226
G1X100.9955Y-136.9213
G1X103.7807Y-134.7888
G1X106.3484Y-132.6572
G1X108.7236Y-130.5116
G1X110.7804Y-128.5002
G1X112.9771Y-126.2027
G1X119.9798Y-118.4037
G1 Z0F20000
(Start Block)

G1X54.4021Y-164.3106
G1Z5.5F20000
(Plotting speed under)
G1 F8000

G1X59.0695Y-158.3165
G1X62.2886Y-154.5298
G1X65.2522Y-151.5465
G1X66.7133Y-150.2991
G1X68.0560Y-149.2969
G1X69.3029Y-148.4926
G1X70.6608Y-147.7538
G1X72.0246Y-147.1486
G1X73.4982Y-146.6352
G1X74.9753Y-146.2475
G1X76.5602Y-145.9454
G1X83.8584Y-145.1117
G1X85.7611Y-144.7987
G1X87.4506Y-144.4235
G1X89.4537Y-143.8350
G1X91.4516Y-143.0763
G1X93.4430Y-142.1453
G1X95.4270Y-141.0536
G1X98.3381Y-139.2035
G1X101.7532Y-136.7628
G1X104.9469Y-134.2555
G1X107.8926Y-131.7106
G1X110.2594Y-129.4631
G1X112.6863Y-126.9608
G1X120.2133Y-118.5465
G1 Z0F20000
(Start Block)

G1X54.4021Y-165.8981
G1Z5.5F20000
(Plotting speed under)
G1 F8000

G1X59.4237Y-159.2887
G1X62.5582Y-155.4992
G1X64.1438Y-153.7819
G1X65.5904Y-152.3590
G1X66.9719Y-151.1425
G1X68.4156Y-150.0299
G1X69.6612Y-149.2033
G1X71.0180Y-148.4417
G1X72.3809Y-147.8146
G1X73.8538Y-147.2781
G1X76.8091Y-146.5571
G1X84.2111Y-145.5473
G1X86.1131Y-145.1883
G1X87.8018Y-144.7723
G1X89.8035Y-144.1363
G1X91.7999Y-143.3333
G1X93.7896Y-142.3631
G1X95.7720Y-141.2389
G1X98.7848Y-139.2835
G1X102.0948Y-136.8909
G1X105.2874Y-134.3681
G1X108.2065Y-131.8322
G1X110.5722Y-129.5728
G1X112.9978Y-127.0555
G1X120.4445Y-118.6750
G1 Z0F20000
(Start Block)

G1X54.4021Y-167.4856
G1Z5.5F20000
(Plotting speed under)
G1 F8000

G1X59.7775Y-160.2611
G1X62.8278Y-156.4736
G1X64.4087Y-154.7100
G1X65.8517Y-153.2454
G1X67.3069Y-151.9239
G1X68.7742Y-150.7606
G1X70.0184Y-149.9104
G1X71.3739Y-149.1242
G1X72.7358Y-148.4733
G1X74.1026Y-147.9470
G1X75.5782Y-147.5015
G1X77.1619Y-147.1366
G1X84.4561Y-145.9792
G1X88.0453Y-145.1297
G1X90.0459Y-144.4556
G1X92.0410Y-143.6178
G1X94.0294Y-142.6180
G1X96.1147Y-141.4058
G1X99.2291Y-139.3454
G1X102.6405Y-136.8466
G1X105.8311Y-134.2953
G1X108.6712Y-131.7993
G1X110.9589Y-129.5926
G1X113.3826Y-127.0552
G1X120.9739Y-118.4483
G1 Z0F20000
(Start Block)

G1X54.4021Y-169.0731
G1Z5.5F20000
(Plotting speed under)
G1 F8000

G1X60.3532Y-160.9460
G1X63.1728Y-157.3702
G1X64.7497Y-155.5663
G1X66.2655Y-153.9909
G1X67.7185Y-152.6427
G1X69.1324Y-151.4931
G1X70.3750Y-150.6176
G1X71.7291Y-149.8046
G1X73.0898Y-149.1274
G1X74.4557Y-148.5749
G1X77.4079Y-147.7270
G1X84.6994Y-146.3960
G1X86.5999Y-145.9560
G1X88.3923Y-145.4387
G1X90.3916Y-144.7190
G1X92.3850Y-143.8387
G1X94.3717Y-142.8018
G1X96.4553Y-141.5581
G1X99.5679Y-139.4664
G1X102.9780Y-136.9477
G1X106.1419Y-134.4040
G1X108.9811Y-131.8967
G1X111.2679Y-129.6786
G1X113.6902Y-127.1267
G1X121.2014Y-118.5567
G1 Z0F20000
(Start Block)

G1X54.4021Y-170.6606
G1Z5.5F20000
(Plotting speed under)
G1 F8000

G1X60.9290Y-161.6346
G1X63.5191Y-158.2799
G1X65.0916Y-156.4344
G1X66.6037Y-154.8201
G1X68.0536Y-153.4353
G1X69.4907Y-152.2307
G1X70.7316Y-151.3279
G1X71.9797Y-150.5456
G1X73.3387Y-149.8294
G1X74.7031Y-149.2388
G1X77.6532Y-148.3120
G1X85.0472Y-146.7762
G1X86.9466Y-146.2905
G1X88.7380Y-145.7315
G1X90.7357Y-144.9675
G1X92.7275Y-144.0458
G1X94.7124Y-142.9729
G1X96.8984Y-141.6322
G1X100.1122Y-139.4301
G1X103.5202Y-136.8807
G1X106.6053Y-134.3755
G1X109.3662Y-131.9161
G1X111.6515Y-129.6808
G1X113.9965Y-127.1920
G1X121.4278Y-118.6606
G1 Z0F20000
(Start Block)

G1X54.4021Y-172.2481
G1Z5.5F20000
(Plotting speed under)
G1 F8000

G1X57.2240Y-168.4003
G1X61.7258Y-162.0276
G1X64.0157Y-159.0209
G1X65.5851Y-157.1456
G1X67.0947Y-155.5056
G1X68.5427Y-154.0984
G1X69.9525Y-152.8937
G1X71.3994Y-151.8292
G1X72.8562Y-150.9283
G1X74.4257Y-150.1339
G1X76.0017Y-149.4955
G1X78.8476Y-148.6422
G1X86.2378Y-146.9172
G1X88.3456Y-146.2710
G1X90.2387Y-145.5621
G1X91.9173Y-144.8175
G1X93.6957Y-143.9072
G1X97.4438Y-141.6264
G1X100.7586Y-139.3088
G1X104.1643Y-136.7248
G1X107.1444Y-134.2749
G1X109.8266Y-131.8584
G1X112.1098Y-129.6001
G1X114.4525Y-127.0870
G1X121.9529Y-118.4115
G1 Z0F20000
(Start Block)

G1X54.4021Y-173.8356
G1Z5.5F20000
(Plotting speed under)
G1 F8000

G1X57.7512Y-169.2511
G1X62.4788Y-162.4841
G1X64.5877Y-159.6789
G1X66.0795Y-157.8662
G1X67.5864Y-156.1986
G1X69.0323Y-154.7668
G1X70.4145Y-153.5602
G1X71.8597Y-152.4701
G1X73.3151Y-151.5432
G1X74.7785Y-150.7699
G1X76.3529Y-150.0914
G1X79.1968Y-149.1643
G1X86.5829Y-147.2498
G1X88.6893Y-146.5552
G1X90.5810Y-145.8054
G1X92.2582Y-145.0268
G1X94.0350Y-144.0833
G1X97.8840Y-141.6796
G1X101.1968Y-139.3310
G1X104.6010Y-136.7259
G1X107.5287Y-134.3025
G1X110.2095Y-131.8698
G1X112.4154Y-129.6733
G1X114.7569Y-127.1469
G1X122.1774Y-118.5114
G1 Z0F20000
(Start Block)

G1X54.4021Y-175.4231
G1Z5.5F20000
(Plotting speed under)
G1 F8000

G1X57.9266Y-170.5899
G1X62.9980Y-163.2724
G1X65.1604Y-160.3430
G1X66.6495Y-158.5056
G1X68.0786Y-156.8969
G1X69.5220Y-155.4383
G1X70.9023Y-154.2070
G1X72.3199Y-153.1098
G1X73.7737Y-152.1541
G1X75.2356Y-151.3509
G1X76.8087Y-150.6387
G1X79.6506Y-149.6447
G1X87.0319Y-147.5366
G1X89.1366Y-146.7884
G1X91.0266Y-145.9919
G1X94.4771Y-144.1920
G1X98.4262Y-141.6550
G1X101.8402Y-139.1954
G1X105.1394Y-136.6423
G1X107.9885Y-134.2621
G1X110.5912Y-131.8804
G1X112.7957Y-129.6677
G1X115.0601Y-127.2075
G1X122.4008Y-118.6129
G1 Z0F20000
(Start Block)

G1X54.4021Y-177.0106
G1Z5.5F20000
(Plotting speed under)
G1 F8000

G1X58.6858Y-171.0942
G1X63.7508Y-163.7277
G1X65.8070Y-160.9109
G1X68.6461Y-157.5133
G1X70.0115Y-156.1081
G1X71.3896Y-154.8499
G1X72.7794Y-153.7443
G1X74.2312Y-152.7571
G1X75.6916Y-151.9216
G1X77.2632Y-151.1731
G1X80.1027Y-150.1083
G1X87.4789Y-147.8073
G1X89.5819Y-147.0071
G1X91.4701Y-146.1656
G1X93.2484Y-145.2528
G1X95.0212Y-144.2282
G1X99.0699Y-141.5500
G1X102.4815Y-139.0542
G1X105.7788Y-136.4729
G1X108.5233Y-134.1531
G1X110.9713Y-131.8912
G1X113.1743Y-129.6626
G1X115.4370Y-127.1850
G1X122.6228Y-118.7172
G1 Z0F20000
(Start Block)

G1X54.4021Y-178.5981
G1Z5.5F20000
(Plotting speed under)
G1 F8000

G1X59.4419Y-171.5744
G1X64.4433Y-164.2509
G1X66.3783Y-161.5648
G1X69.1368Y-158.2025
G1X70.4995Y-156.7688
G1X71.8753Y-155.4823
G1X73.2372Y-154.3676
G1X74.6870Y-153.3471
G1X76.1456Y-152.4772
G1X77.7154Y-151.6905
G1X80.6577Y-150.5148
G1X88.0283Y-148.0222
G1X90.1293Y-147.1655
G1X92.0155Y-146.2739
G1X93.7917Y-145.3163
G1X95.6663Y-144.1860
G1X100.0212Y-141.2134
G1X103.4297Y-138.6709
G1X106.5184Y-136.2153
G1X109.2089Y-133.9049
G1X111.5776Y-131.6788
G1X113.7018Y-129.4973
G1X115.9619Y-126.9924
G1X123.1414Y-118.4653
G1 Z0F20000
(Start Block)

G1X54.4021Y-180.1856
G1Z5.5F20000
(Plotting speed under)
G1 F8000

G1X60.2520Y-171.9367
G1X65.1322Y-164.7463
G1X67.0204Y-162.0988
G1X69.7754Y-158.7043
G1X71.1368Y-157.2577
G1X72.4349Y-156.0270
G1X73.7953Y-154.8915
G1X75.2436Y-153.8478
G1X76.7008Y-152.9527
G1X78.2693Y-152.1358
G1X81.2090Y-150.8931
G1X88.5738Y-148.2151
G1X90.6728Y-147.3042
G1X92.5569Y-146.3647
G1X94.3309Y-145.3646
G1X96.3073Y-144.1272
G1X100.8649Y-140.9375
G1X104.2709Y-138.3577
G1X107.2030Y-135.9950
G1X109.7378Y-133.7904
G1X112.0281Y-131.6137
G1X114.0750Y-129.4928
G1X116.3333Y-126.9715
G1X123.3582Y-118.5740
G1 Z0F20000
(Start Block)

G1X54.4021Y-181.7731
G1Z5.5F20000
(Plotting speed under)
G1 F8000

G1X56.3764Y-178.8559
G1X61.1726Y-172.0849
G1X67.5841Y-162.6969
G1X70.2591Y-159.3438
G1X71.6178Y-157.8689
G1X72.9135Y-156.6109
G1X74.2460Y-155.4671
G1X75.6920Y-154.3890
G1X77.1472Y-153.4584
G1X78.7138Y-152.6023
G1X81.6506Y-151.2829
G1X89.1145Y-148.3855
G1X91.1067Y-147.4741
G1X93.0934Y-146.4379
G1X96.8396Y-144.1225
G1X101.8071Y-140.5731
G1X105.1075Y-138.0365
G1X107.8832Y-135.7694
G1X110.2624Y-133.6733
G1X112.4745Y-131.5474
G1X114.5195Y-129.4067
G1X116.7008Y-126.9513
G1X123.5711Y-118.6853
G1 Z0F20000
(Start Block)

G1X54.4021Y-183.3606
G1Z5.5F20000
(Plotting speed under)
G1 F8000

G1X56.5969Y-180.0128
G1X61.6787Y-172.7755
G1X68.1424Y-163.2565
G1X70.8129Y-159.8638
G1X72.1697Y-158.3695
G1X73.4638Y-157.0929
G1X74.7947Y-155.9293
G1X76.2392Y-154.8283
G1X77.6929Y-153.8725
G1X79.2581Y-152.9863
G1X82.2972Y-151.5573
G1X89.5451Y-148.5826
G1X91.6402Y-147.5770
G1X93.6248Y-146.4953
G1X97.6779Y-143.8930
G1X103.1570Y-139.8834
G1X106.2480Y-137.4603
G1X108.7893Y-135.3408
G1X111.0118Y-133.3400
G1X113.1442Y-131.2485
G1X115.1104Y-129.1544
G1X117.2887Y-126.6700
G1X124.0779Y-118.4343
G1 Z0F20000
(Start Block)

G1X54.4021Y-184.9481
G1Z5.5F20000
(Plotting speed under)
G1 F8000

G1X57.2205Y-180.5467
G1X62.4117Y-173.0854
G1X68.5633Y-163.9617
G1X71.2867Y-160.4378
G1X72.6409Y-158.9175
G1X73.9327Y-157.6155
G1X75.3129Y-156.3817
G1X76.6781Y-155.3122
G1X78.1297Y-154.3221
G1X79.7973Y-153.3406
G1X82.7287Y-151.8943
G1X90.0757Y-148.7168
G1X92.1688Y-147.6644
G1X94.1512Y-146.5396
G1X98.4072Y-143.7202
G1X104.2951Y-139.3364
G1X107.1776Y-137.0400
G1X109.5368Y-135.0378
G1X111.6799Y-133.0731
G1X113.7333Y-131.0237
G1X117.7974Y-126.4768
G1X124.2826Y-118.5521
G1 Z0F20000
(Start Block)

G1X54.4021Y-186.5356
G1Z5.5F20000
(Plotting speed under)
G1 F8000

G1X57.8393Y-181.0487
G1X63.1387Y-173.3540
G1X68.9938Y-164.6130
G1X71.7557Y-160.9817
G1X73.1075Y-159.4368
G1X74.4733Y-158.0366
G1X75.8519Y-156.7839
G1X77.2156Y-155.6939
G1X78.6658Y-154.6799
G1X80.3318Y-153.6675
G1X83.2605Y-152.1623
G1X90.6015Y-148.8359
G1X92.6926Y-147.7389
G1X94.6729Y-146.5735
G1X99.1319Y-143.5383
G1X105.3255Y-138.8615
G1X110.2031Y-134.7999
G1X112.2674Y-132.8777
G1X114.2424Y-130.8785
G1X118.3019Y-126.2865
G1X124.4835Y-118.6768
G1 Z0F20000
(Start Block)

G1X54.4021Y-188.1231
G1Z5.5F20000
(Plotting speed under)
G1 F8000

G1X56.3863Y-184.7798
G1X58.4537Y-181.5222
G1X63.8599Y-173.5847
G1X69.3026Y-165.4000
G1X72.1456Y-161.5883
G1X73.5695Y-159.9294
G1X74.9331Y-158.5047
G1X76.3095Y-157.2260
G1X77.7486Y-156.0495
G1X79.1973Y-155.0122
G1X80.8616Y-153.9695
G1X83.7878Y-152.4094
G1X91.0184Y-148.9963
G1X93.1077Y-147.8632
G1X95.1902Y-146.5995
G1X100.0589Y-143.1987
G1X106.4544Y-138.2995
G1X111.0185Y-134.4226
G1X112.9271Y-132.6086
G1X114.8234Y-130.6559
G1X118.8028Y-126.1008
G1X124.9784Y-118.4373
G1 Z0F20000
(Start Block)

G1X54.4021Y-189.7106
G1Z5.5F20000
(Plotting speed under)
G1 F8000

G1X56.6595Y-185.8223
G1X58.9489Y-182.1488
G1X69.5490Y-166.2459
G1X72.5313Y-162.1715
G1X73.9521Y-160.4821
G1X75.3886Y-158.9497
G1X76.7630Y-157.6461
G1X78.1743Y-156.4622
G1X79.7246Y-155.3215
G1X81.3872Y-154.2495
G1X84.3109Y-152.6386
G1X91.5359Y-149.0951
G1X93.6232Y-147.9217
G1X95.7036Y-146.6202
G1X100.8785Y-142.9298
G1X107.3736Y-137.8990
G1X111.6770Y-134.1844
G1X113.5830Y-132.3403
G1X115.4006Y-130.4367
G1X119.3003Y-125.9214
G1X125.1728Y-118.5781
G1 Z0F20000
(Start Block)

G1X54.4021Y-191.2981
G1Z5.5F20000
(Plotting speed under)
G1 F8000

G1X56.8743Y-186.9508
G1X59.4411Y-182.7575
G1X69.7336Y-167.1564
G1X71.4240Y-164.7170
G1X72.9133Y-162.7335
G1X74.4060Y-160.9294
G1X75.8404Y-159.3741
G1X77.2127Y-158.0467
G1X78.6992Y-156.7746
G1X80.1444Y-155.6837
G1X81.8048Y-154.5754
G1X84.7257Y-152.9076
G1X92.0497Y-149.1864
G1X94.1350Y-147.9750
G1X96.2135Y-146.6380
G1X101.6946Y-142.6595
G1X108.0837Y-137.6678
G1X112.1793Y-134.0933
G1X114.0077Y-132.3073
G1X115.8240Y-130.3887
G1X119.6457Y-125.9323
G1X125.3646Y-118.7307
G1 Z0F20000
(Start Block)

G1X54.4021Y-192.8856
G1Z5.5F20000
(Plotting speed under)
G1 F8000

G1X57.0881Y-188.0744
G1X59.9306Y-183.3512
G1X69.8572Y-168.1371
G1X71.6591Y-165.4904
G1X73.2178Y-163.3723
G1X74.7814Y-161.4444
G1X76.2887Y-159.7805
G1X77.6590Y-158.4304
G1X79.1177Y-157.1527
G1X80.6643Y-155.9563
G1X82.3231Y-154.8221
G1X85.1373Y-153.1680
G1X92.4560Y-149.3320
G1X94.6438Y-148.0252
G1X96.7203Y-146.6554
G1X102.8172Y-142.1549
G1X108.9966Y-137.2719
G1X112.9081Y-133.7927
G1X116.3957Y-130.1848
G1X120.1379Y-125.7721
G1X125.8507Y-118.5170
G1 Z0F20000
(Start Block)

G1X54.4021Y-194.4731
G1Z5.5F20000
(Plotting speed under)
G1 F8000

G1X57.3013Y-189.1952
G1X60.3038Y-184.1185
G1X69.8053Y-169.3707
G1X71.7750Y-166.4190
G1X73.4456Y-164.0953
G1X75.0792Y-162.0340
G1X76.7339Y-160.1713
G1X78.1786Y-158.7275
G1X79.6360Y-157.4321
G1X81.1810Y-156.2136
G1X82.8384Y-155.0557
G1X85.6505Y-153.3637
G1X92.8597Y-149.4782
G1X94.9419Y-148.2086
G1X97.1209Y-146.7476
G1X103.7309Y-141.8102
G1X109.6502Y-137.0957
G1X113.4057Y-133.7191
G1X116.8899Y-130.0753
G1X120.5536Y-125.7163
G1X126.0384Y-118.6962
G1 Z0F20000
(Start Block)

G1X54.4021Y-196.0606
G1Z5.5F20000
(Plotting speed under)
G1 F8000

G1X56.6197Y-191.9246
G1X58.9200Y-187.8520
G1X61.3024Y-183.8485
G1X63.7657Y-179.9143
G1X72.4712Y-166.4922
G1X74.8538Y-163.2610
G1X77.1764Y-160.5492
G1X79.7672Y-158.0298
G1X82.5219Y-155.8516
G1X85.3271Y-154.0371
G1X92.5316Y-150.0548
G1X96.3799Y-147.6398
G1X99.1741Y-145.6432
G1X103.4052Y-142.4282
G1X107.5273Y-139.2087
G1X110.3791Y-136.8645
G1X114.0540Y-133.5090
G1X117.4577Y-129.8946
G1X121.0422Y-125.5827
G1X126.5207Y-118.5081
G1 Z0F20000
(Start Block)

G1X54.4021Y-197.6481
G1Z5.5F20000
(Plotting speed under)
G1 F8000

G1X56.8352Y-193.0614
G1X59.2408Y-188.7471
G1X61.7854Y-184.4049
G1X64.4124Y-180.1394
G1X72.8151Y-167.0570
G1X75.2228Y-163.7504
G1X77.5411Y-160.9989
G1X80.2040Y-158.3577
G1X83.0329Y-156.0773
G1X85.8363Y-154.2313
G1X92.9319Y-150.2176
G1X96.7778Y-147.7586
G1X99.6738Y-145.6617
G1X104.5219Y-141.9458
G1X108.2306Y-139.0313
G1X110.9527Y-136.7767
G1X114.5487Y-133.4623
G1X117.8743Y-129.9013
G1X121.4555Y-125.5593
G1X126.7061Y-118.7220
G1 Z0F20000
(Start Block)

G1X54.4021Y-199.2356
G1Z5.5F20000
(Plotting speed under)
G1 F8000

G1X56.9955Y-194.3028
G1X59.6179Y-189.5440
G1X62.3808Y-184.7653
G1X65.1141Y-180.2604
G1X70.9056Y-171.0575
G1X73.2734Y-167.4423
G1X75.6639Y-164.1361
G1X77.9796Y-161.3591
G1X80.7155Y-158.6092
G1X83.5422Y-156.2973
G1X86.2398Y-154.4872
G1X93.4351Y-150.3239
G1X97.1745Y-147.8876
G1X100.2756Y-145.6135
G1X105.7406Y-141.3938
G1X109.1388Y-138.7019
G1X111.6025Y-136.6382
G1X115.1189Y-133.3571
G1X118.4404Y-129.7551
G1X121.9424Y-125.4614
G1X127.1865Y-118.5679
G1 Z0F20000
(Start Block)

G1X54.4021Y-200.8231
G1Z5.5F20000
(Plotting speed under)
G1 F8000

G1X57.2672Y-195.3413
G1X60.0510Y-190.2420
G1X63.0315Y-185.0217
G1X65.8708Y-180.2763
G1X71.1351Y-171.8158
G1X73.6138Y-167.9913
G1X76.0296Y-164.6111
G1X78.3413Y-161.7979
G1X81.1490Y-158.9245
G1X82.6077Y-157.6467
G1X84.0500Y-156.5145
G1X86.7462Y-154.6800
G1X93.8332Y-150.5007
G1X97.5706Y-148.0292
G1X100.6704Y-145.7358
G1X106.9587Y-140.8549
G1X112.2519Y-136.5169
G1X115.6888Y-133.2710
G1X119.0064Y-129.6291
G1X122.4293Y-125.3850
G1X127.6665Y-118.4331
G1 Z0F20000
(Start Block)

G1X54.4021Y-202.4106
G1Z5.5F20000
(Plotting speed under)
G1 F8000

G1X57.5395Y-196.3830
G1X60.5402Y-190.8402
G1X63.6809Y-185.2706
G1X66.6253Y-180.2796
G1X71.4786Y-172.3905
G1X74.0692Y-168.3636
G1X76.4680Y-164.9852
G1X78.7772Y-162.1488
G1X81.5813Y-159.2374
G1X83.0385Y-157.9397
G1X84.5570Y-156.7312
G1X87.2518Y-154.8749
G1X94.2309Y-150.6883
G1X97.9664Y-148.1858
G1X101.0651Y-145.8758
G1X107.8675Y-140.5755
G1X112.8246Y-136.4834
G1X116.1831Y-133.2851
G1X119.4231Y-129.7035
G1X122.7687Y-125.5257
G1X127.8519Y-118.7164
G1 Z0F20000
(Start Block)

G1X54.4021Y-203.9981
G1Z5.5F20000
(Plotting speed under)
G1 F8000

G1X57.8677Y-197.3237
G1X61.0850Y-191.3367
G1X64.3852Y-185.4136
G1X67.3778Y-180.2713
G1X71.8214Y-172.9642
G1X74.4655Y-168.8189
G1X76.8315Y-165.4539
G1X79.1370Y-162.5835
G1X80.5686Y-161.0003
G1X82.0128Y-159.5496
G1X83.4685Y-158.2338
G1X84.9600Y-157.0277
G1X87.6529Y-155.1408
G1X94.6285Y-150.8886
G1X98.3623Y-148.3593
G1X101.4601Y-146.0355
G1X108.6737Y-140.3983
G1X113.3979Y-136.4733
G1X116.7538Y-133.2467
G1X119.9154Y-129.7173
G1X123.2568Y-125.5020
G1X128.3325Y-118.6304
G1 Z0F20000
(Start Block)

G1X54.4021Y-205.5856
G1Z5.5F20000
(Plotting speed under)
G1 F8000

G1X61.7962Y-191.5235
G1X65.1999Y-185.3479
G1X68.2414Y-180.0597
G1X72.2779Y-173.3520
G1X74.9189Y-169.1845
G1X77.2680Y-165.8223
G1X79.5710Y-162.9301
G1X81.0766Y-161.2499
G1X82.5198Y-159.7887
G1X83.9748Y-158.4638
G1X85.4656Y-157.2491
G1X88.1575Y-155.3460
G1X95.0260Y-151.1032
G1X98.8620Y-148.4765
G1X109.4804Y-140.2445
G1X114.0485Y-136.4199
G1X117.3255Y-133.2356
G1X120.4835Y-129.6707
G1X123.7459Y-125.5076
G1X128.8137Y-118.5708
G1 Z0F20000
(Start Block)

G1X54.4021Y-207.1731
G1Z5.5F20000
(Plotting speed under)
G1 F8000

G1X62.6725Y-191.3927
G1X66.0681Y-185.1677
G1X68.9894Y-180.0268
G1X72.6765Y-173.8313
G1X75.3135Y-169.6354
G1X77.6300Y-166.2884
G1X79.9293Y-163.3637
G1X81.4326Y-161.6600
G1X82.9499Y-160.1020
G1X84.4037Y-158.7628
G1X85.9709Y-157.4745
G1X88.5581Y-155.6266
G1X95.5277Y-151.2664
G1X99.3620Y-148.6136
G1X110.1850Y-140.1980
G1X114.6234Y-136.4626
G1X117.8983Y-133.2539
G1X121.0527Y-129.6540
G1X124.3098Y-125.4454
G1X129.2955Y-118.5394
G1 Z0F20000
(Start Block)

G1X54.4021Y-208.7606
G1Z5.5F20000
(Plotting speed under)
G1 F8000

G1X63.7677Y-190.8315
G1X67.0449Y-184.7681
G1X69.7914Y-179.8845
G1X73.2451Y-174.0273
G1X75.8227Y-169.9081
G1X78.1381Y-166.5530
G1X80.3617Y-163.7082
G1X81.8634Y-161.9896
G1X83.3795Y-160.4175
G1X84.9090Y-158.9985
G1X86.4757Y-157.7049
G1X89.0623Y-155.8469
G1X95.9257Y-151.5134
G1X99.8627Y-148.7722
G1X110.8906Y-140.1790
G1X115.1994Y-136.5345
G1X118.4723Y-133.3035
G1X121.5487Y-129.7608
G1X124.8015Y-125.5146
G1X129.7784Y-118.5378
G1 Z0F20000
(Start Block)

G1X54.4021Y-210.3481
G1Z5.5F20000
(Plotting speed under)
G1 F8000

G1X65.0246Y-189.9339
G1X70.5347Y-179.8275
G1X73.7557Y-174.3137
G1X76.2732Y-170.2666
G1X78.5719Y-166.9159
G1X80.7932Y-164.0518
G1X82.2936Y-162.3198
G1X83.8085Y-160.7359
G1X85.3371Y-159.3059
G1X86.9804Y-157.9413
G1X89.5665Y-156.0760
G1X96.4281Y-151.7105
G1X100.3641Y-148.9541
G1X111.4945Y-140.2713
G1X115.7768Y-136.6374
G1X119.0478Y-133.3855
G1X122.1207Y-129.8096
G1X125.2946Y-125.6184
G1X130.2622Y-118.5677
G1 Z0F20000
(Start Block)

G1X54.4021Y-211.9357
G1Z5.5F20000
(Plotting speed under)
G1 F8000

G1X66.2765Y-189.0077
G1X71.2195Y-179.8585
G1X74.2085Y-174.6923
G1X76.7228Y-170.6233
G1X78.9315Y-167.3793
G1X81.1494Y-164.4861
G1X82.7231Y-162.6516
G1X84.2372Y-161.0580
G1X85.7650Y-159.6191
G1X87.3818Y-158.2658
G1X89.9670Y-156.3853
G1X96.9310Y-151.9265
G1X100.8664Y-149.1607
G1X112.2025Y-140.3118
G1X114.5143Y-138.4051
G1X116.4320Y-136.7015
G1X119.6248Y-133.5009
G1X122.6943Y-129.8924
G1X125.8481Y-125.6764
G1X130.7472Y-118.6303
G1 Z0F20000
(Start Block)

G1X54.4021Y-213.5232
G1Z5.5F20000
(Plotting speed under)
G1 F8000

G1X67.5232Y-188.0528
G1X71.9023Y-179.8804
G1X74.7737Y-174.8781
G1X77.1715Y-170.9791
G1X79.3784Y-167.7210
G1X81.5796Y-164.8310
G1X83.1522Y-162.9863
G1X84.6655Y-161.3850
G1X86.2695Y-159.8706
G1X87.8864Y-158.5178
G1X90.4714Y-156.6360
G1X97.4346Y-152.1633
G1X101.3698Y-149.3937
G1X112.8091Y-140.4664
G1X115.0950Y-138.5781
G1X117.0123Y-136.8691
G1X120.2034Y-133.6504
G1X123.2695Y-130.0101
G1X126.4033Y-125.7696
G1X131.2336Y-118.7267
G1 Z0F20000
(Start Block)

G1X54.4021Y-215.1107
G1Z5.5F20000
(Plotting speed under)
G1 F8000

G1X56.7982Y-210.5928
G1X68.6550Y-187.2832
G1X72.5275Y-179.9956
G1X75.2247Y-175.2543
G1X77.5621Y-171.4253
G1X79.7661Y-168.1460
G1X81.9350Y-165.2710
G1X83.5059Y-163.4099
G1X85.0179Y-161.7950
G1X86.6207Y-160.2670
G1X88.2882Y-158.8611
G1X90.9763Y-156.8996
G1X97.9393Y-152.4227
G1X101.8746Y-149.6548
G1X113.3145Y-140.7364
G1X115.6006Y-138.8503
G1X117.5943Y-137.0708
G1X120.7839Y-133.8346
G1X123.8467Y-130.1633
G1X126.9604Y-125.8989
G1X131.7215Y-118.8582
G1 Z0F20000
(Start Block)

G1X54.4021Y-216.6982
G1Z5.5F20000
(Plotting speed under)
G1 F8000

G1X56.9879Y-211.8657
G1X69.0887Y-187.8501
G1X73.1514Y-180.1070
G1X75.7319Y-175.5358
G1X78.0100Y-171.7846
G1X80.1538Y-168.5752
G1X82.2906Y-165.7174
G1X83.8599Y-163.8412
G1X85.4467Y-162.1370
G1X87.0492Y-160.6053
G1X88.7936Y-159.1349
G1X91.4820Y-157.1781
G1X98.4453Y-152.7072
G1X102.4844Y-149.8696
G1X113.9248Y-140.9584
G1X116.2619Y-139.0251
G1X118.2548Y-137.2356
G1X121.4417Y-133.9701
G1X124.4998Y-130.2562
G1X127.5778Y-125.9806
G1X132.5009Y-118.5908
G1 Z0F20000
(Start Block)

G1X54.4021Y-218.2857
G1Z5.5F20000
(Plotting speed under)
G1 F8000

G1X57.4533Y-212.6130
G1X69.8405Y-187.7867
G1X73.7190Y-180.3201
G1X76.1826Y-175.9185
G1X78.4006Y-172.2402
G1X80.5419Y-169.0115
G1X82.6468Y-166.1732
G1X84.2897Y-164.1974
G1X85.8761Y-162.4899
G1X87.4785Y-160.9563
G1X89.1970Y-159.5046
G1X91.9890Y-157.4742
G1X99.0570Y-152.9508
G1X103.0963Y-150.1174
G1X114.4345Y-141.2983
G1X116.7718Y-139.3675
G1X118.7648Y-137.5793
G1X120.3641Y-136.0107
G1X121.9512Y-134.3093
G1X123.5240Y-132.4654
G1X125.0814Y-130.4815
G1X128.1975Y-126.0981
G1X132.9923Y-118.7904
G1 Z0F20000
(Start Block)

G1X54.4021Y-219.8732
G1Z5.5F20000
(Plotting speed under)
G1 F8000

G1X56.1400Y-216.7859
G1X57.9201Y-213.3693
G1X70.5453Y-187.8080
G1X74.3419Y-180.4333
G1X76.6901Y-176.2108
G1X78.8493Y-172.6135
G1X80.9307Y-169.4575
G1X83.0039Y-166.6407
G1X84.6454Y-164.6516
G1X86.2309Y-162.9336
G1X87.9091Y-161.3221
G1X89.6019Y-159.8909
G1X92.3938Y-157.8597
G1X99.6710Y-153.2253
G1X103.7108Y-150.4006
G1X115.0498Y-141.5923
G1X117.4379Y-139.6131
G1X119.4301Y-137.8142
G1X121.0283Y-136.2324
G1X122.6138Y-134.5144
G1X124.1844Y-132.6506
G1X125.7392Y-130.6442
G1X128.8775Y-126.1641
G1X133.7743Y-118.5814
G1 Z0F20000
(Start Block)

G1X54.4021Y-221.4607
G1Z5.5F20000
(Plotting speed under)
G1 F8000

G1X56.3696Y-218.0093
G1X58.3427Y-214.2249
G1X71.1586Y-188.0102
G1X74.9094Y-180.6545
G1X77.1984Y-176.5118
G1X79.2989Y-172.9971
G1X81.3207Y-169.9154
G1X83.3626Y-167.1222
G1X85.0027Y-165.1208
G1X86.6630Y-163.3154
G1X88.3413Y-161.7046
G1X90.1115Y-160.2139
G1X92.9043Y-158.1966
G1X100.2875Y-153.5325
G1X104.3281Y-150.7204
G1X115.5649Y-142.0043
G1X117.9531Y-140.0258
G1X119.9452Y-138.2268
G1X121.6191Y-136.5649
G1X123.2036Y-134.8368
G1X124.7729Y-132.9604
G1X126.3259Y-130.9384
G1X129.4441Y-126.4373
G1X134.2699Y-118.8485
G1 Z0F20000
(Start Block)

G1X54.4021Y-223.0482
G1Z5.5F20000
(Plotting speed under)
G1 F8000

G1X56.6559Y-219.1375
G1X58.8123Y-214.9998
G1X71.7266Y-188.3080
G1X75.4224Y-180.9886
G1X77.5954Y-177.0215
G1X79.6928Y-173.4859
G1X81.7124Y-170.3883
G1X83.7230Y-167.6205
G1X85.3619Y-165.6075
G1X87.0214Y-163.7928
G1X88.6990Y-162.1751
G1X90.5203Y-160.6387
G1X93.4173Y-158.5572
G1X100.9071Y-153.8743
G1X104.9487Y-151.0782
G1X115.9801Y-142.5339
G1X118.4711Y-140.4714
G1X120.5395Y-138.5983
G1X122.2125Y-136.9277
G1X123.8710Y-135.1027
G1X125.4382Y-133.2067
G1X126.9886Y-131.1628
G1X130.1289Y-126.5651
G1X135.0549Y-118.6917
G1 Z0F20000
(Start Block)

G1X54.4021Y-224.6357
G1Z5.5F20000
(Plotting speed under)
G1 F8000

G1X56.8876Y-220.3748
G1X59.2382Y-215.8767
G1X72.2955Y-188.6139
G1X75.9922Y-181.2309
G1X78.1069Y-177.3497
G1X80.1461Y-173.8997
G1X82.1065Y-170.8797
G1X84.0861Y-168.1386
G1X85.7237Y-166.1148
G1X87.3824Y-164.2914
G1X89.1361Y-162.5982
G1X90.9319Y-161.0863
G1X93.9332Y-158.9439
G1X101.4262Y-154.3191
G1X105.5729Y-151.4750
G1X116.5015Y-143.0153
G1X118.9922Y-140.9480
G1X121.1366Y-138.9983
G1X122.8087Y-137.3179
G1X124.4661Y-135.4815
G1X126.1061Y-133.4782
G1X127.6832Y-131.3719
G1X130.8735Y-126.6279
G1X135.8411Y-118.5544
G1 Z0F20000
(Start Block)

G1X54.4021Y-226.2232
G1Z5.5F20000
(Plotting speed under)
G1 F8000

G1X57.1763Y-221.5193
G1X59.7115Y-216.6756
G1X72.8658Y-188.9323
G1X76.5641Y-181.4895
G1X78.5648Y-177.7966
G1X80.5451Y-174.4271
G1X82.5036Y-171.3934
G1X84.4523Y-168.6802
G1X86.1637Y-166.5585
G1X87.8224Y-164.7361
G1X89.5764Y-163.0461
G1X91.3469Y-161.5595
G1X94.3487Y-159.4267
G1X102.0533Y-154.7344
G1X106.2012Y-151.9113
G1X109.9176Y-149.1072
G1X116.7179Y-143.7782
G1X119.3629Y-141.5868
G1X121.5842Y-139.5707
G1X123.3322Y-137.8124
G1X124.9891Y-135.9712
G1X126.6284Y-133.9622
G1X128.2632Y-131.7663
G1X131.5057Y-126.8928
G1X136.3442Y-118.9033
G1 Z0F20000
(Start Block)

G1X54.4021Y-227.8107
G1Z5.5F20000
(Plotting speed under)
G1 F8000

G1X57.4665Y-222.6740
G1X60.1872Y-217.4903
G1X73.3937Y-189.3622
G1X77.1390Y-181.7694
G1X79.0823Y-178.1681
G1X81.0049Y-174.8876
G1X82.9045Y-171.9340
G1X84.8224Y-169.2496
G1X86.5327Y-167.1174
G1X88.1906Y-165.2870
G1X89.9441Y-163.5911
G1X91.7659Y-162.0614
G1X94.8723Y-159.8728
G1X102.6848Y-155.1887
G1X106.9376Y-152.3125
G1X110.7573Y-149.4329
G1X116.9385Y-144.5753
G1X119.8142Y-142.1868
G1X122.1114Y-140.0937
G1X123.9345Y-138.2480
G1X125.5901Y-136.3936
G1X127.2278Y-134.3709
G1X128.9047Y-132.0979
G1X132.1980Y-127.0853
G1X137.1347Y-118.8036
G1 Z0F20000
(Start Block)

G1X54.4021Y-229.3982
G1Z5.5F20000
(Plotting speed under)
G1 F8000

G1X57.7584Y-223.8405
G1X60.7111Y-218.2324
G1X73.8804Y-189.9107
G1X77.6628Y-182.1821
G1X79.6041Y-178.5687
G1X81.4692Y-175.3786
G1X83.3681Y-172.4199
G1X85.1972Y-169.8510
G1X86.9063Y-167.7085
G1X88.5634Y-165.8699
G1X90.3164Y-164.1682
G1X92.1895Y-162.5953
G1X95.2967Y-160.4190
G1X103.2174Y-155.7474
G1X107.5755Y-152.8283
G1X111.4987Y-149.8750
G1X117.2665Y-145.3233
G1X120.2695Y-142.8129
G1X122.6423Y-140.6377
G1X124.4645Y-138.7825
G1X126.1941Y-136.8323
G1X127.9043Y-134.6987
G1X129.6075Y-132.3607
G1X132.8930Y-127.2921
G1X137.9279Y-118.7190
G1 Z0F20000
(Start Block)

G1X54.4021Y-230.9857
G1Z5.5F20000
(Plotting speed under)
G1 F8000

G1X58.1084Y-224.9221
G1X59.6694Y-222.0793
G1X61.2384Y-218.9973
G1X63.4744Y-214.2737
G1X74.3715Y-190.4895
G1X78.2464Y-182.5210
G1X80.1311Y-179.0038
G1X81.9388Y-175.9053
G1X83.7790Y-173.0279
G1X85.5775Y-170.4890
G1X87.2854Y-168.3359
G1X89.0175Y-166.4101
G1X90.7707Y-164.7118
G1X92.6185Y-163.1648
G1X94.1690Y-162.0276
G1X95.8305Y-160.9354
G1X103.8595Y-156.2813
G1X106.0426Y-154.8898
G1X108.2188Y-153.3825
G1X112.0391Y-150.5116
G1X117.4967Y-146.1867
G1X120.6524Y-143.5315
G1X123.1771Y-141.2009
G1X125.0736Y-139.2516
G1X126.8016Y-137.2845
G1X128.5100Y-135.1353
G1X130.2549Y-132.7185
G1X133.5911Y-127.5105
G1X138.7246Y-118.6504
G1 Z0F20000
(Start Block)

G1X54.4021Y-232.5732
G1Z5.5F20000
(Plotting speed under)
G1 F8000

G1X56.5865Y-229.1495
G1X58.4045Y-226.1183
G1X60.0808Y-223.0963
G1X61.7246Y-219.8810
G1X64.1368Y-214.7656
G1X74.9124Y-191.0077
G1X78.8357Y-182.8977
G1X80.6082Y-179.5794
G1X82.4147Y-176.4728
G1X84.2542Y-173.5906
G1X86.0377Y-171.0696
G1X87.7455Y-168.9152
G1X89.4776Y-166.9902
G1X91.2311Y-165.2950
G1X93.0536Y-163.7735
G1X94.6043Y-162.6404
G1X96.2662Y-161.5558
G1X104.4035Y-156.9182
G1X106.5875Y-155.5435
G1X108.8679Y-153.9739
G1X112.6881Y-151.1015
G1X117.8351Y-146.9977
G1X120.9637Y-144.3447
G1X123.5639Y-141.9320
G1X125.5358Y-139.8990
G1X127.3381Y-137.8387
G1X129.1193Y-135.5829
G1X130.9059Y-133.0865
G1X134.2358Y-127.8344
G1X139.5258Y-118.5999
G1 Z0F20000
(Start Block)

G1X54.4021Y-234.1607
G1Z5.5F20000
(Plotting speed under)
G1 F8000

G1X56.8799Y-230.3294
G1X58.8158Y-227.1378
G1X60.6065Y-223.9309
G1X62.3057Y-220.6116
G1X64.8040Y-215.2898
G1X75.4149Y-191.6622
G1X77.5559Y-187.0976
G1X79.4317Y-183.3180
G1X81.1482Y-180.1004
G1X82.8975Y-177.0860
G1X84.6784Y-174.2853
G1X86.4312Y-171.7941
G1X88.1376Y-169.6280
G1X89.8687Y-167.6931
G1X91.6216Y-165.9902
G1X93.4952Y-164.4244
G1X95.0463Y-163.2952
G1X96.8126Y-162.1533
G1X104.9538Y-157.5934
G1X107.1387Y-156.2342
G1X109.4197Y-154.6751
G1X113.1369Y-151.8840
G1X118.0766Y-147.9242
G1X121.2807Y-145.1872
G1X123.9559Y-142.6846
G1X126.0026Y-140.5631
G1X127.8789Y-138.4064
G1X129.7326Y-136.0421
G1X131.5027Y-133.5509
G1X134.8281Y-128.2672
G1X140.3325Y-118.5720
G1 Z0F20000
(Start Block)

G1X54.4021Y-235.7482
G1Z5.5F20000
(Plotting speed under)
G1 F8000

G1X58.7193Y-229.0351
G1X60.4122Y-226.1181
G1X62.0188Y-223.1129
G1X64.9469Y-217.0203
G1X75.0414Y-194.3110
G1X78.8717Y-186.1049
G1X80.8617Y-182.2063
G1X82.8207Y-178.7015
G1X84.8212Y-175.4689
G1X86.8323Y-172.5684
G1X88.5373Y-170.3899
G1X90.2673Y-168.4437
G1X92.0194Y-166.7321
G1X93.8410Y-165.2006
G1X95.4954Y-163.9944
G1X97.2621Y-162.8587
G1X105.5109Y-158.3066
G1X107.8005Y-156.8940
G1X110.0817Y-155.3374
G1X113.6952Y-152.6184
G1X118.4529Y-148.7770
G1X121.6041Y-146.0614
G1X124.3536Y-143.4632
G1X126.4747Y-141.2473
G1X128.4246Y-138.9907
G1X130.2771Y-136.6152
G1X132.1042Y-134.0305
G1X133.7187Y-131.5433
G1X135.4255Y-128.7179
G1X141.1462Y-118.5741
G1 Z0F20000
(Start Block)

G1X54.4021Y-237.3357
G1Z5.5F20000
(Plotting speed under)
G1 F8000

G1X57.0682Y-233.3501
G1X59.1349Y-230.0876
G1X60.9447Y-227.0021
G1X62.6638Y-223.8000
G1X65.6697Y-217.5237
G1X75.4278Y-195.3617
G1X79.3386Y-186.9201
G1X81.3625Y-182.9356
G1X83.3198Y-179.4199
G1X85.3192Y-176.1796
G1X87.3150Y-173.2947
G1X89.0196Y-171.1124
G1X90.7494Y-169.1642
G1X92.5015Y-167.4523
G1X94.4006Y-165.8633
G1X96.0557Y-164.6686
G1X97.8231Y-163.5459
G1X106.0750Y-159.0567
G1X108.3653Y-157.6569
G1X110.5434Y-156.1810
G1X114.0542Y-153.5468
G1X118.5538Y-149.8999
G1X121.8577Y-147.0396
G1X124.6059Y-144.4268
G1X126.8020Y-142.1236
G1X128.8268Y-139.7791
G1X130.7534Y-137.3084
G1X132.6532Y-134.6169
G1X134.2669Y-132.1240
G1X135.9724Y-129.2897
G1X141.9683Y-118.6162
G1 Z0F20000
(Start Block)

G1X54.4021Y-238.9232
G1Z5.5F20000
(Plotting speed under)
G1 F8000

G1X57.4797Y-234.3748
G1X59.6087Y-231.0559
G1X61.5352Y-227.8019
G1X63.3024Y-224.5247
G1X66.3958Y-218.0496
G1X75.8207Y-196.4517
G1X79.8123Y-187.7773
G1X81.8706Y-183.7089
G1X83.8262Y-180.1830
G1X85.8245Y-176.9348
G1X87.8049Y-174.0650
G1X89.5090Y-171.8783
G1X91.2385Y-169.9270
G1X92.9905Y-168.2138
G1X94.8639Y-166.6457
G1X96.5190Y-165.4521
G1X98.2867Y-164.3338
G1X106.6455Y-159.8364
G1X108.9363Y-158.4477
G1X111.1148Y-156.9782
G1X114.5224Y-154.4222
G1X118.8151Y-150.9265
G1X122.1179Y-148.0518
G1X124.8652Y-145.4273
G1X127.2110Y-142.9468
G1X129.3093Y-140.5015
G1X131.3087Y-137.9252
G1X133.2076Y-135.2263
G1X134.8779Y-132.6373
G1X136.5253Y-129.8890
G1X142.7996Y-118.7051
G1 Z0F20000
(Start Block)

G1X54.4021Y-240.5107
G1Z5.5F20000
(Plotting speed under)
G1 F8000

G1X58.0063Y-235.2200
G1X60.1393Y-231.9297
G1X62.1261Y-228.6042
G1X63.9601Y-225.2192
G1X65.4817Y-222.1477
G1X67.1231Y-218.5832
G1X76.2182Y-197.5675
G1X80.2464Y-188.7568
G1X82.2740Y-184.7235
G1X84.2822Y-181.0769
G1X86.2782Y-177.8129
G1X88.3010Y-174.8694
G1X90.0045Y-172.6780
G1X91.7336Y-170.7230
G1X93.4854Y-169.0076
G1X95.3330Y-167.4593
G1X96.9882Y-166.2656
G1X98.7560Y-165.1506
G1X107.2212Y-160.6380
G1X109.5127Y-159.2596
G1X111.6915Y-157.7964
G1X114.9960Y-155.3205
G1X119.0054Y-152.0477
G1X122.3844Y-149.0977
G1X125.1310Y-146.4660
G1X127.4757Y-143.9739
G1X129.7231Y-141.3455
G1X131.7960Y-138.6694
G1X133.7676Y-135.8638
G1X135.4376Y-133.2724
G1X137.0847Y-130.5224
G1X143.6409Y-118.8511
G1 Z0F20000
(Start Block)

G1X54.4021Y-242.0982
G1Z5.5F20000
(Plotting speed under)
G1 F8000

G1X60.6683Y-232.7918
G1X62.7158Y-229.3974
G1X64.5527Y-226.0304
G1X66.1209Y-222.8751
G1X67.8058Y-219.2099
G1X76.6624Y-198.5962
G1X80.7293Y-189.6606
G1X82.7921Y-185.5487
G1X84.7995Y-181.8965
G1X86.7945Y-178.6262
G1X88.8020Y-175.6985
G1X90.5050Y-173.5025
G1X92.2337Y-171.5435
G1X93.9852Y-169.8253
G1X95.8070Y-168.2961
G1X97.4621Y-167.1014
G1X99.3343Y-165.9275
G1X107.8015Y-161.4561
G1X110.0935Y-160.0880
G1X112.2728Y-158.6324
G1X115.5774Y-156.1594
G1X119.5090Y-152.9389
G1X122.8865Y-149.9700
G1X125.6312Y-147.3165
G1X127.9732Y-144.7961
G1X130.2919Y-142.0467
G1X132.4362Y-139.2518
G1X134.4494Y-136.3667
G1X137.7077Y-131.1056
G1X144.7765Y-118.5882
G1 Z0F20000
(Start Block)

G1X54.4021Y-243.6857
G1Z5.5F20000
(Plotting speed under)
G1 F8000

G1X61.3095Y-233.4544
G1X63.3593Y-230.0751
G1X65.1979Y-226.7184
G1X66.8028Y-223.4925
G1X68.5305Y-219.7227
G1X77.1080Y-199.6266
G1X81.1696Y-190.6648
G1X83.2581Y-186.4892
G1X85.2639Y-182.8274
G1X87.2570Y-179.5446
G1X89.3071Y-176.5445
G1X91.0096Y-174.3445
G1X92.7379Y-172.3817
G1X94.4892Y-170.6605
G1X96.3882Y-169.0702
G1X98.0438Y-167.8839
G1X99.8124Y-166.7813
G1X108.3856Y-162.2871
G1X110.6782Y-160.9308
G1X112.8581Y-159.4855
G1X116.0604Y-157.1028
G1X119.8639Y-153.9937
G1X123.2414Y-151.0256
G1X125.9863Y-148.3732
G1X128.3277Y-145.8478
G1X130.6448Y-143.0824
G1X132.8628Y-140.1893
G1X135.0222Y-137.0982
G1X138.3392Y-131.7548
G1X145.6431Y-118.9077
G1 Z0F20000
(Start Block)

G1X54.4021Y-245.2732
G1Z5.5F20000
(Plotting speed under)
G1 F8000

G1X61.9480Y-234.0958
G1X63.9998Y-230.7309
G1X65.8401Y-227.3841
G1X67.4817Y-224.0878
G1X69.2083Y-220.3128
G1X77.5974Y-200.5510
G1X81.6563Y-191.5752
G1X83.7811Y-187.3274
G1X85.8435Y-183.5696
G1X87.8954Y-180.2050
G1X89.8888Y-177.3019
G1X91.5921Y-175.1089
G1X93.3212Y-173.1534
G1X95.0732Y-171.4396
G1X96.9728Y-169.8579
G1X98.6289Y-168.6799
G1X100.3980Y-167.5866
G1X109.0774Y-163.0718
G1X111.3704Y-161.7234
G1X113.5508Y-160.2860
G1X116.7537Y-157.9125
G1X120.4548Y-154.8932
G1X123.8322Y-151.9228
G1X126.5762Y-149.2612
G1X128.8409Y-146.8040
G1X131.0809Y-144.1066
G1X133.4446Y-141.0019
G1X135.6614Y-137.8198
G1X139.0377Y-132.3986
G1X146.8095Y-118.8787
G1 Z0F20000
(Start Block)

G1X54.4021Y-246.8607
G1Z5.5F20000
(Plotting speed under)
G1 F8000

G1X56.5954Y-243.5012
G1X62.6409Y-234.6252
G1X64.6371Y-231.3631
G1X66.4788Y-228.0256
G1X68.1124Y-224.7529
G1X69.8391Y-220.9786
G1X78.1299Y-201.3649
G1X82.1435Y-192.4810
G1X84.2502Y-188.2700
G1X86.3124Y-184.5106
G1X88.3635Y-181.1406
G1X90.4000Y-178.1694
G1X92.1778Y-175.8845
G1X93.9077Y-173.9372
G1X95.6603Y-172.2314
G1X97.5606Y-170.6585
G1X99.2172Y-169.4888
G1X100.9868Y-168.4042
G1X109.7724Y-163.8702
G1X112.0661Y-162.5340
G1X114.3509Y-161.0393
G1X117.5546Y-158.6778
G1X121.2053Y-155.7129
G1X124.5062Y-152.8152
G1X127.2501Y-150.1513
G1X129.4384Y-147.7679
G1X131.6021Y-145.1446
G1X134.0953Y-141.8363
G1X136.3690Y-138.5588
G1X139.7493Y-133.1650
G1X148.2810Y-118.5509
G1 Z0F20000
(Start Block)

G1X54.4021Y-248.4482
G1Z5.5F20000
(Plotting speed under)
G1 F8000

G1X57.0514Y-244.3408
G1X63.3309Y-235.1341
G1X65.2713Y-231.9731
G1X67.0592Y-228.7491
G1X68.7397Y-225.3947
G1X70.4667Y-221.6218
G1X78.6183Y-202.2690
G1X80.7180Y-197.4958
G1X82.6311Y-193.3814
G1X84.7755Y-189.1055
G1X86.8394Y-185.3565
G1X88.9492Y-181.9049
G1X90.9873Y-178.9466
G1X92.7664Y-176.6722
G1X94.4972Y-174.7342
G1X96.2506Y-173.0372
G1X98.1516Y-171.4737
G1X99.8088Y-170.3126
G1X101.6831Y-169.1765
G1X110.4707Y-164.6865
G1X112.8694Y-163.3034
G1X115.1552Y-161.8247
G1X118.3606Y-159.4896
G1X121.9620Y-156.5963
G1X125.2646Y-153.7197
G1X127.9333Y-151.1417
G1X130.0469Y-148.8484
G1X132.1361Y-146.3169
G1X134.5831Y-143.0511
G1X136.9741Y-139.6105
G1X140.5340Y-133.9964
G1X149.4938Y-118.9183
G1 Z0F20000
(Start Block)

G1X54.4021Y-250.0357
G1Z5.5F20000
(Plotting speed under)
G1 F8000

G1X57.4480Y-245.2566
G1X64.0761Y-235.5365
G1X65.9593Y-232.4680
G1X67.6919Y-229.3482
G1X69.3643Y-226.0172
G1X71.1354Y-222.1466
G1X79.1063Y-203.1652
G1X81.2054Y-198.3890
G1X83.0742Y-194.3714
G1X85.1915Y-190.1506
G1X87.3117Y-186.3036
G1X89.4221Y-182.8561
G1X91.5042Y-179.8364
G1X93.2835Y-177.5642
G1X95.0143Y-175.6265
G1X96.8444Y-173.8607
G1X98.7461Y-172.3074
G1X100.4039Y-171.1549
G1X102.2786Y-170.0267
G1X111.2774Y-165.4712
G1X113.6769Y-164.1045
G1X116.0678Y-162.5807
G1X119.2756Y-160.2811
G1X122.9828Y-157.3462
G1X126.1851Y-154.5863
G1X128.8549Y-152.0217
G1X130.9684Y-149.7263
G1X132.9816Y-147.2731
G1X135.2050Y-144.2819
G1X137.7119Y-140.6674
G1X141.5102Y-134.7528
G1X151.3069Y-118.6265
G1 Z0F20000
(Start Block)

G1X54.4021Y-251.6232
G1Z5.5F20000
(Plotting speed under)
G1 F8000

G1X57.8438Y-246.1673
G1X64.8196Y-235.9269
G1X66.5890Y-233.0465
G1X68.2675Y-230.0381
G1X69.9870Y-226.6259
G1X71.7586Y-222.7580
G1X79.6379Y-203.9566
G1X81.6934Y-199.2804
G1X83.5631Y-195.2678
G1X85.7193Y-190.9886
G1X87.8425Y-187.1607
G1X89.9555Y-183.7306
G1X92.0980Y-180.6434
G1X93.8790Y-178.3862
G1X95.6870Y-176.3830
G1X97.5189Y-174.6395
G1X99.4481Y-173.0889
G1X101.1070Y-171.9551
G1X102.9826Y-170.8427
G1X112.1930Y-166.2348
G1X114.6976Y-164.8236
G1X117.0898Y-163.3214
G1X120.4039Y-160.9923
G1X124.1151Y-158.1136
G1X127.2693Y-155.4393
G1X129.8650Y-152.9728
G1X131.8293Y-150.8605
G1X133.7700Y-148.5173
G1X135.7301Y-145.8961
G1X138.2961Y-142.2043
G1X142.7412Y-135.4030
G1X153.1549Y-118.6635
G1 Z0F20000
(Start Block)

G1X54.4021Y-253.2107
G1Z5.5F20000
(Plotting speed under)
G1 F8000

G1X58.2976Y-246.9912
G1X65.5048Y-236.4014
G1X67.2178Y-233.6187
G1X68.8420Y-230.7208
G1X70.5638Y-227.3219
G1X72.3373Y-223.4632
G1X80.1704Y-204.7506
G1X82.2268Y-200.0786
G1X84.0986Y-196.0768
G1X86.2491Y-191.8350
G1X88.3760Y-188.0301
G1X90.5500Y-184.5344
G1X92.6960Y-181.4735
G1X94.5538Y-179.1461
G1X96.3644Y-177.1689
G1X98.2752Y-175.3835
G1X100.2585Y-173.8290
G1X101.9191Y-172.7226
G1X103.7959Y-171.6338
G1X113.1142Y-167.0451
G1X115.7244Y-165.6003
G1X118.2224Y-164.0640
G1X121.7472Y-161.6481
G1X125.4632Y-158.8397
G1X128.5188Y-156.3032
G1X131.0408Y-153.9418
G1X132.8563Y-152.0157
G1X134.5767Y-149.9759
G1X136.3497Y-147.6494
G1X138.4387Y-144.6824
G1X144.9257Y-134.9461
G1X155.3228Y-118.5847
G1 Z0F20000
(Start Block)

G1X54.4021Y-254.7982
G1Z5.5F20000
(Plotting speed under)
G1 F8000

G1X58.6945Y-247.9099
G1X66.2478Y-236.7880
G1X67.9035Y-234.0961
G1X69.4167Y-231.4044
G1X71.1860Y-227.9265
G1X72.9603Y-224.0724
G1X80.7052Y-205.5551
G1X82.7184Y-200.9858
G1X84.5916Y-196.9912
G1X86.7264Y-192.7998
G1X88.9130Y-188.9179
G1X91.0910Y-185.4496
G1X93.2988Y-182.3331
G1X95.1591Y-180.0275
G1X97.0474Y-177.9920
G1X98.9605Y-176.2336
G1X100.9714Y-174.6850
G1X102.7371Y-173.5327
G1X104.6151Y-172.4668
G1X114.1466Y-167.8599
G1X116.8627Y-166.3883
G1X119.5709Y-164.7625
G1X123.2039Y-162.3497
G1X126.9259Y-159.6312
G1X129.8576Y-157.2641
G1X132.3832Y-154.9447
G1X134.0498Y-153.2047
G1X135.6985Y-151.2833
G1X137.4012Y-149.0840
G1X139.3046Y-146.4209
G1X145.4128Y-137.4921
G1X150.2809Y-130.2108
G1X154.5489Y-123.6448
G1X157.5191Y-118.8274
G1 Z0F20000
(Start Block)

G1X54.4021Y-256.3857
G1Z5.5F20000
(Plotting speed under)
G1 F8000

G1X59.2095Y-248.6695
G1X66.9353Y-237.2770
G1X68.5346Y-234.6824
G1X69.9933Y-232.1009
G1X71.7654Y-228.6388
G1X73.5860Y-224.6982
G1X81.2439Y-206.3827
G1X83.2583Y-201.8191
G1X85.1338Y-197.8367
G1X87.2634Y-193.6858
G1X89.4548Y-189.8339
G1X91.6953Y-186.3116
G1X93.9079Y-183.2324
G1X95.8461Y-180.8668
G1X97.7375Y-178.8635
G1X99.7301Y-177.0708
G1X101.7951Y-175.5210
G1X103.5624Y-174.3962
G1X105.4416Y-173.3531
G1X115.3963Y-168.6443
G1X118.2185Y-167.1493
G1X121.1377Y-165.4469
G1X124.9834Y-162.9840
G1X128.6077Y-160.4299
G1X131.4405Y-158.2003
G1X133.8921Y-155.9835
G1X135.6355Y-154.1750
G1X137.2842Y-152.2537
G1X138.9876Y-150.0610
G1X141.0691Y-147.1712
G1X149.5969Y-135.0232
G1X153.0869Y-129.9182
G1X156.7168Y-124.3026
G1X160.0123Y-118.8109
G1 Z0F20000
(Start Block)

G1X54.4021Y-257.9732
G1Z5.5F20000
(Plotting speed under)
G1 F8000

G1X59.7288Y-249.4592
G1X67.5693Y-237.8836
G1X69.1698Y-235.2974
G1X70.6299Y-232.7245
G1X72.3947Y-229.2906
G1X74.2170Y-225.3591
G1X81.7893Y-207.2514
G1X83.8049Y-202.6936
G1X85.6826Y-198.7234
G1X87.8071Y-194.6129
G1X89.9465Y-190.8870
G1X92.1910Y-187.3931
G1X94.4511Y-184.2815
G1X96.4668Y-181.8519
G1X98.5131Y-179.7263
G1X100.5605Y-177.9353
G1X102.7321Y-176.3573
G1X104.5014Y-175.2680
G1X106.4867Y-174.2014
G1X116.7612Y-169.4750
G1X119.8990Y-167.8561
G1X123.1341Y-166.0321
G1X126.8811Y-163.7286
G1X130.3033Y-161.4023
G1X133.0878Y-159.2600
G1X135.4139Y-157.1853
G1X137.8365Y-154.6384
G1X140.3690Y-151.5265
G1X152.7117Y-134.5286
G1X155.2729Y-130.7995
G1X157.5767Y-127.2272
G1X159.7957Y-123.5554
G1X162.4959Y-118.8327
G1 Z0F20000
(Start Block)

G1X54.4021Y-259.5607
G1Z5.5F20000
(Plotting speed under)
G1 F8000

G1X60.4277Y-250.0281
G1X68.2095Y-238.5335
G1X69.8113Y-235.9568
G1X71.2175Y-233.4969
G1X73.0313Y-229.9928
G1X74.9000Y-225.9753
G1X82.3874Y-208.0796
G1X84.3606Y-203.6277
G1X86.1952Y-199.7603
G1X88.3037Y-195.6991
G1X90.4468Y-191.9966
G1X92.6957Y-188.5344
G1X94.9299Y-185.4914
G1X97.0227Y-182.9942
G1X99.1470Y-180.8152
G1X101.2992Y-178.9653
G1X103.5765Y-177.3478
G1X105.4516Y-176.2255
G1X107.4383Y-175.1892
G1X118.2431Y-170.3694
G1X121.9067Y-168.5449
G1X125.5632Y-166.5670
G1X129.0021Y-164.5310
G1X132.0124Y-162.5339
G1X134.5925Y-160.5784
G1X136.8691Y-158.5705
G1X139.3698Y-155.9696
G1X141.9070Y-152.8992
G1X155.0121Y-135.2662
G1X157.4527Y-131.6758
G1X159.6869Y-128.1085
G1X161.7734Y-124.5008
G1X164.9505Y-118.7093
G1 Z0F20000
(Start Block)

G1X54.4021Y-261.1482
G1Z5.5F20000
(Plotting speed under)
G1 F8000

G1X61.3655Y-250.3022
G1X68.8000Y-239.3306
G1X70.4043Y-236.7710
G1X71.8695Y-234.2304
G1X73.7226Y-230.6712
G1X75.5934Y-226.6651
G1X82.9975Y-208.9878
G1X84.9723Y-204.5438
G1X86.8096Y-200.6905
G1X88.8668Y-196.7568
G1X90.9574Y-193.1775
G1X93.1525Y-189.8320
G1X95.4196Y-186.7779
G1X97.6657Y-184.1385
G1X99.8698Y-181.9248
G1X102.1536Y-180.0109
G1X104.5375Y-178.3689
G1X106.4144Y-177.2802
G1X108.6120Y-176.1732
G1X119.9480Y-171.2901
G1X124.2439Y-169.2488
G1X128.0092Y-167.3058
G1X131.0338Y-165.5666
G1X133.6300Y-163.8637
G1X136.0037Y-162.0644
G1X138.2549Y-160.0812
G1X140.7574Y-157.4992
G1X143.4469Y-154.2776
G1X153.9339Y-140.4812
G1X157.0022Y-136.2648
G1X159.3792Y-132.7183
G1X161.5441Y-129.1605
G1X163.4451Y-125.7422
G1X167.0908Y-118.8379
G1 Z0F20000
(Start Block)

G1X54.4021Y-262.7357
G1Z5.5F20000
(Plotting speed under)
G1 F8000

G1X56.5489Y-259.5478
G1X62.6596Y-250.1212
G1X69.3999Y-240.1993
G1X71.0639Y-237.5651
G1X72.5879Y-234.9423
G1X74.4708Y-231.3439
G1X76.3437Y-227.3484
G1X83.6221Y-209.9958
G1X85.5536Y-205.6539
G1X87.3467Y-201.8978
G1X89.3865Y-198.0049
G1X91.4225Y-194.5349
G1X93.5622Y-191.2950
G1X95.7724Y-188.3360
G1X98.0947Y-185.6222
G1X100.4527Y-183.2759
G1X102.8150Y-181.3179
G1X105.4078Y-179.5601
G1X107.4949Y-178.3835
G1X109.9038Y-177.2162
G1X122.1914Y-172.1079
G1X126.4919Y-170.1769
G1X129.8426Y-168.5335
G1X132.5567Y-167.0219
G1X134.9464Y-165.4764
G1X137.2168Y-163.7542
G1X139.4166Y-161.8125
G1X142.0712Y-159.0787
G1X144.8360Y-155.7718
G1X155.3284Y-142.0220
G1X158.8500Y-137.1663
G1X161.2201Y-133.5688
G1X163.3159Y-130.0234
G1X164.9802Y-126.9284
G1X169.2016Y-118.6889
G1 Z0F20000
(Start Block)

G1X54.4021Y-264.3232
G1Z5.5F20000
(Plotting speed under)
G1 F8000

G1X57.0879Y-260.4892
G1X63.7318Y-250.3668
G1X69.8946Y-241.3266
G1X71.6775Y-238.5403
G1X73.2621Y-235.8478
G1X75.1870Y-232.2095
G1X77.1527Y-228.0433
G1X84.3503Y-210.9214
G1X86.2397Y-206.6868
G1X87.9898Y-203.0341
G1X89.9203Y-199.3575
G1X91.9005Y-195.9885
G1X93.9839Y-192.8477
G1X96.1368Y-189.9819
G1X98.6116Y-187.1177
G1X101.0485Y-184.7276
G1X103.5930Y-182.6546
G1X106.3957Y-180.7967
G1X108.6934Y-179.5409
G1X111.4187Y-178.2737
G1X125.4991Y-172.6226
G1X128.7531Y-171.2267
G1X131.3728Y-169.9865
G1X133.8796Y-168.6215
G1X136.1658Y-167.1504
G1X138.3326Y-165.5005
G1X140.4296Y-163.6427
G1X143.2347Y-160.7409
G1X146.1466Y-157.2335
G1X156.9230Y-142.9974
G1X160.6155Y-137.8578
G1X162.8638Y-134.3909
G1X164.8942Y-130.8847
G1X171.0165Y-118.8018
G1 Z0F20000
(Start Block)

G1X54.4021Y-265.9107
G1Z5.5F20000
(Plotting speed under)
G1 F8000

G1X58.2160Y-260.6427
G1X64.8721Y-250.6106
G1X70.3418Y-242.6292
G1X72.3598Y-239.5192
G1X74.0613Y-236.6581
G1X76.0537Y-232.9167
G1X78.0221Y-228.7646
G1X85.1408Y-211.8822
G1X86.9437Y-207.8514
G1X88.6496Y-204.2965
G1X90.5255Y-200.7277
G1X92.4495Y-197.4574
G1X94.4179Y-194.4965
G1X96.5127Y-191.7167
G1X99.0643Y-188.7835
G1X101.6561Y-186.2740
G1X104.3835Y-184.0957
G1X107.2921Y-182.2059
G1X109.9045Y-180.8060
G1X112.9459Y-179.4320
G1X128.0841Y-173.5577
G1X132.5961Y-171.5818
G1X134.9994Y-170.2914
G1X137.1818Y-168.8894
G1X139.3483Y-167.2355
G1X141.4443Y-165.3661
G1X144.3225Y-162.3559
G1X147.3049Y-158.7211
G1X158.7220Y-143.4099
G1X162.2464Y-138.4391
G1X164.4314Y-135.0212
G1X166.3983Y-131.5663
G1X168.0708Y-128.3053
G1X171.3564Y-121.5202
G1X172.8248Y-118.7041
G1 Z0F20000
(Start Block)

G1X54.4021Y-267.4982
G1Z5.5F20000
(Plotting speed under)
G1 F8000

G1X57.2156Y-263.8686
G1X60.1114Y-259.7863
G1X65.8483Y-251.2008
G1X71.7277Y-242.6433
G1X74.8172Y-237.6782
G1X76.8900Y-233.8372
G1X78.9528Y-229.5225
G1X80.8292Y-225.2244
G1X85.9947Y-212.8896
G1X87.7554Y-208.9660
G1X89.3725Y-205.6036
G1X91.2027Y-202.1237
G1X93.0700Y-198.9487
G1X94.9810Y-196.0789
G1X96.9735Y-193.4447
G1X99.5267Y-190.5267
G1X102.1967Y-187.9667
G1X104.9774Y-185.7731
G1X107.9911Y-183.8356
G1X111.0223Y-182.2298
G1X114.5888Y-180.6378
G1X120.5802Y-178.2893
G1X129.6264Y-174.9369
G1X133.6148Y-173.2174
G1X135.9138Y-171.9892
G1X138.0961Y-170.5840
G1X140.2363Y-168.9429
G1X142.3062Y-167.0888
G1X145.2583Y-163.9809
G1X148.3858Y-160.1273
G1X160.4218Y-143.7054
G1X163.7496Y-138.9521
G1X165.8731Y-135.5952
G1X167.8349Y-132.1083
G1X169.4295Y-128.9625
G1X172.7054Y-122.1252
G1X174.3561Y-118.9505
G1 Z0F20000
(Start Block)

G1X54.4021Y-269.0857
G1Z5.5F20000
(Plotting speed under)
G1 F8000

G1X57.6772Y-265.0367
G1X61.0268Y-260.4568
G1X66.9500Y-251.7045
G1X72.5453Y-243.6242
G1X75.6420Y-238.7086
G1X77.7864Y-234.7894
G1X79.9005Y-230.4158
G1X81.8256Y-226.0423
G1X86.9554Y-213.8449
G1X88.6745Y-210.0319
G1X90.2489Y-206.7743
G1X92.0631Y-203.3434
G1X93.8185Y-200.3698
G1X95.6137Y-197.6738
G1X97.5177Y-195.1570
G1X99.9962Y-192.3287
G1X102.5902Y-189.8448
G1X105.3711Y-187.6532
G1X108.3848Y-185.7165
G1X111.9392Y-183.8461
G1X116.3455Y-181.8935
G1X121.9153Y-179.6797
G1X130.8583Y-176.4290
G1X134.5316Y-174.8393
G1X136.8299Y-173.5952
G1X139.0108Y-172.1674
G1X141.1750Y-170.4798
G1X143.2426Y-168.5980
G1X146.2663Y-165.3672
G1X149.4631Y-161.3757
G1X162.1001Y-143.8407
G1X165.1881Y-139.3724
G1X167.2509Y-136.0831
G1X169.1542Y-132.6805
G1X170.7382Y-129.5440
G1X174.1928Y-122.3281
G1X176.1730Y-118.5861
G1 Z0F20000
(Start Block)

G1X54.4021Y-270.6733
G1Z5.5F20000
(Plotting speed under)
G1 F8000

G1X58.2891Y-266.0386
G1X61.9475Y-261.1813
G1X73.3719Y-244.6899
G1X76.5339Y-239.7396
G1X78.7687Y-235.7095
G1X80.9965Y-231.1439
G1X82.9253Y-226.7884
G1X87.9766Y-214.8325
G1X91.1853Y-207.9745
G1X92.9361Y-204.6721
G1X94.6924Y-201.7042
G1X96.4304Y-199.1003
G1X98.2912Y-196.6510
G1X100.6964Y-193.9273
G1X103.1395Y-191.6083
G1X105.7665Y-189.5478
G1X108.6765Y-187.6808
G1X112.5453Y-185.6628
G1X117.8966Y-183.3118
G1X123.2553Y-181.1530
G1X131.6719Y-178.0837
G1X135.1349Y-176.5738
G1X137.5370Y-175.2605
G1X139.7169Y-173.8165
G1X141.8801Y-172.1147
G1X143.9469Y-170.2218
G1X145.5398Y-168.5830
G1X147.1945Y-166.7199
G1X150.5355Y-162.5025
G1X163.5390Y-144.1856
G1X166.5062Y-139.8520
G1X168.5673Y-136.5510
G1X170.4144Y-133.2471
G1X171.9997Y-130.1178
G1X175.5937Y-122.6467
G1X177.7170Y-118.6734
G1 Z0F20000
(Start Block)

G1X54.4021Y-272.2608
G1Z5.5F20000
(Plotting speed under)
G1 F8000

G1X58.9023Y-267.0564
G1X62.9007Y-261.9012
G1X74.2047Y-245.8166
G1X77.4334Y-240.8426
G1X79.7880Y-236.6614
G1X82.0597Y-232.0644
G1X83.9931Y-227.7320
G1X89.0525Y-215.8143
G1X92.2215Y-209.0775
G1X93.9282Y-205.8736
G1X95.6289Y-203.0079
G1X97.3675Y-200.4087
G1X99.1400Y-198.0788
G1X101.3951Y-195.5271
G1X103.7624Y-193.2875
G1X106.2614Y-191.3385
G1X108.9639Y-189.6114
G1X112.3095Y-187.8584
G1X116.6107Y-185.9466
G1X123.5434Y-183.0978
G1X132.2725Y-179.8179
G1X135.6294Y-178.3227
G1X138.0306Y-176.9927
G1X140.3134Y-175.4642
G1X142.5012Y-173.7250
G1X144.6430Y-171.7450
G1X146.3104Y-170.0125
G1X148.0386Y-168.0474
G1X151.6718Y-163.4141
G1X164.8539Y-144.6024
G1X167.7592Y-140.3255
G1X169.7631Y-137.1164
G1X171.6128Y-133.8279
G1X173.2562Y-130.6105
G1X176.9489Y-123.0006
G1X179.2635Y-118.7222
G1 Z0F20000
(Start Block)

G1X54.4021Y-273.8483
G1Z5.5F20000
(Plotting speed under)
G1 F8000

G1X59.5899Y-267.9857
G1X63.8258Y-262.6788
G1X75.0398Y-246.9720
G1X78.3359Y-241.9802
G1X80.8117Y-237.6576
G1X83.1273Y-233.0307
G1X85.0645Y-228.7174
G1X90.1305Y-216.8310
G1X91.8136Y-213.1563
G1X93.3499Y-210.0294
G1X95.0320Y-206.8958
G1X96.6780Y-204.1390
G1X98.3595Y-201.6325
G1X100.1324Y-199.3058
G1X102.2380Y-196.9328
G1X104.4531Y-194.8444
G1X106.7460Y-193.0562
G1X109.3446Y-191.3957
G1X112.0625Y-189.9622
G1X115.3138Y-188.4977
G1X123.2973Y-185.2262
G1X132.1277Y-181.7950
G1X135.7986Y-180.1409
G1X138.3037Y-178.7426
G1X140.6897Y-177.1356
G1X142.9540Y-175.3258
G1X145.2476Y-173.1896
G1X147.0648Y-171.2802
G1X148.8659Y-169.2079
G1X150.7997Y-166.8018
G1X152.7908Y-164.1540
G1X155.5538Y-160.2479
G1X168.8827Y-140.8322
G1X170.9442Y-137.5335
G1X172.7959Y-134.2580
G1X178.2922Y-123.2226
G1X180.8019Y-118.6621
G1 Z0F20000
(Start Block)

G1X54.4021Y-275.4358
G1Z5.5F20000
(Plotting speed under)
G1 F8000

G1X60.5024Y-268.6547
G1X64.8252Y-263.3685
G1X75.8739Y-248.1298
G1X79.2945Y-243.0282
G1X81.8347Y-238.6599
G1X84.1930Y-233.9960
G1X86.1326Y-229.6948
G1X91.1147Y-218.0247
G1X92.8434Y-214.2600
G1X94.4262Y-211.0481
G1X96.0722Y-207.9891
G1X97.7186Y-205.2343
G1X99.4003Y-202.7293
G1X101.1141Y-200.4807
G1X103.0689Y-198.2731
G1X105.1305Y-196.3196
G1X107.3197Y-194.6023
G1X109.7098Y-193.0644
G1X112.0087Y-191.8344
G1X114.7349Y-190.5868
G1X131.3365Y-183.9049
G1X133.7505Y-182.8622
G1X135.8454Y-181.8508
G1X138.4540Y-180.3749
G1X140.9429Y-178.6850
G1X143.3861Y-176.7143
G1X145.7544Y-174.4859
G1X147.6458Y-172.4813
G1X149.5952Y-170.2190
G1X151.6757Y-167.6088
G1X153.8859Y-164.6490
G1X156.9092Y-160.3488
G1X169.8700Y-141.2976
G1X171.9327Y-138.0074
G1X173.7882Y-134.7558
G1X179.4097Y-123.5926
G1X182.0368Y-118.8658
G1 Z0F20000
(Start Block)

G1X54.4021Y-277.0233
G1Z5.5F20000
(Plotting speed under)
G1 F8000

G1X61.4911Y-269.2509
G1X63.8150Y-266.5496
G1X65.8250Y-264.0663
G1X68.2607Y-260.8486
G1X76.6461Y-249.3499
G1X78.5737Y-246.6052
G1X80.2490Y-244.0521
G1X82.8525Y-239.6316
G1X85.2068Y-235.0147
G1X87.1482Y-230.7229
G1X92.0867Y-219.1526
G1X93.8163Y-215.3930
G1X95.4446Y-212.0907
G1X97.0999Y-209.0145
G1X98.7458Y-206.2574
G1X100.4271Y-203.7495
G1X102.0818Y-201.5778
G1X103.9610Y-199.4510
G1X105.8691Y-197.6325
G1X107.8767Y-196.0384
G1X110.1617Y-194.5461
G1X112.2508Y-193.4107
G1X114.6616Y-192.2890
G1X129.7905Y-186.1545
G1X133.2534Y-184.6387
G1X135.8710Y-183.3528
G1X138.6865Y-181.7232
G1X141.2769Y-179.9259
G1X143.7948Y-177.8595
G1X146.2370Y-175.5297
G1X148.2019Y-173.4234
G1X150.2989Y-170.9645
G1X152.5255Y-168.1459
G1X154.8519Y-165.0142
G1X158.1212Y-160.3424
G1X170.6604Y-141.7775
G1X172.7819Y-138.4061
G1X174.6401Y-135.1718
G1X180.3852Y-123.8736
G1X183.2445Y-118.7976
G1 Z0F20000
(Start Block)

G1X54.4021Y-278.6108
G1Z5.5F20000
(Plotting speed under)
G1 F8000

G1X62.6321Y-269.6985
G1X66.7503Y-264.8612
G1X69.4126Y-261.3953
G1X77.3538Y-250.6105
G1X79.4019Y-247.7289
G1X81.1386Y-245.1146
G1X83.8055Y-240.6425
G1X86.2096Y-235.9607
G1X88.1511Y-231.6695
G1X93.0426Y-220.1833
G1X94.7733Y-216.4290
G1X96.4473Y-213.0380
G1X98.0557Y-210.0439
G1X99.6999Y-207.2750
G1X101.3214Y-204.8394
G1X102.9596Y-202.6732
G1X104.7620Y-200.6145
G1X106.5917Y-198.8451
G1X108.5204Y-197.2891
G1X110.7001Y-195.8412
G1X112.5792Y-194.7974
G1X114.7793Y-193.7468
G1X128.4352Y-188.1497
G1X132.7357Y-186.2212
G1X135.8754Y-184.6448
G1X138.7934Y-182.9227
G1X141.4857Y-181.0255
G1X144.1042Y-178.8462
G1X146.6205Y-176.4181
G1X148.6593Y-174.2123
G1X150.8295Y-171.6495
G1X153.1293Y-168.7274
G1X155.6906Y-165.2733
G1X159.1331Y-160.3370
G1X171.3125Y-142.2006
G1X173.4925Y-138.7464
G1X175.2965Y-135.6237
G1X181.1084Y-124.2866
G1X184.1402Y-118.9388
G1 Z0F20000
(Start Block)

G1X54.4021Y-280.1983
G1Z5.5F20000
(Plotting speed under)
G1 F8000

G1X63.7004Y-270.2570
G1X67.6749Y-265.6544
G1X70.5629Y-261.9321
G1X77.9955Y-251.8970
G1X80.1635Y-248.8730
G1X81.9611Y-246.1941
G1X84.7475Y-241.5725
G1X87.1552Y-236.9112
G1X89.0966Y-232.6197
G1X93.9818Y-221.1041
G1X95.7134Y-217.3540
G1X97.4428Y-213.8591
G1X99.1077Y-210.7677
G1X100.6957Y-208.0975
G1X102.2591Y-205.7483
G1X103.8972Y-203.5811
G1X105.6241Y-201.6046
G1X107.3764Y-199.8954
G1X109.2523Y-198.3610
G1X111.2228Y-197.0244
G1X112.9961Y-196.0096
G1X115.0900Y-194.9781
G1X128.0066Y-189.5759
G1X132.6188Y-187.4330
G1X136.0697Y-185.6399
G1X139.0892Y-183.8038
G1X141.7786Y-181.8634
G1X144.3945Y-179.6479
G1X147.0603Y-177.0383
G1X149.1719Y-174.7229
G1X151.4143Y-172.0472
G1X153.8602Y-168.9173
G1X156.5083Y-165.3313
G1X160.0653Y-160.2100
G1X171.8872Y-142.5212
G1X174.0110Y-139.1653
G1X175.8172Y-136.0568
G1X181.8046Y-124.4618
G1X185.0117Y-118.8612
G1 Z0F20000
(Start Block)

G1X54.4021Y-281.7858
G1Z5.5F20000
(Plotting speed under)
G1 F8000

G1X64.5445Y-271.0869
G1X68.4499Y-266.6282
G1X71.5634Y-262.6490
G1X78.4827Y-253.3247
G1X80.8576Y-250.0291
G1X82.8312Y-247.1062
G1X85.6226Y-242.5181
G1X88.0888Y-237.7718
G1X90.0291Y-233.4745
G1X94.8621Y-222.0187
G1X96.5482Y-218.3597
G1X98.3135Y-214.7897
G1X99.9768Y-211.6887
G1X101.5632Y-209.0079
G1X103.1255Y-206.6501
G1X104.7480Y-204.4948
G1X106.3985Y-202.5914
G1X108.1491Y-200.8634
G1X109.9718Y-199.3470
G1X111.9408Y-197.9858
G1X113.9222Y-196.8421
G1X116.2257Y-195.7111
G1X124.8356Y-192.0771
G1X129.3452Y-190.0373
G1X133.1146Y-188.1853
G1X136.2487Y-186.4886
G1X139.2658Y-184.6099
G1X142.0564Y-182.5598
G1X144.7461Y-180.2388
G1X147.4088Y-177.5943
G1X149.5936Y-175.1739
G1X151.9087Y-172.3902
G1X154.5013Y-169.0566
G1X157.1338Y-165.4832
G1X160.8644Y-160.0995
G1X172.3888Y-142.7868
G1X174.4556Y-139.5243
G1X176.2631Y-136.4246
G1X182.4244Y-124.5630
G1X184.0474Y-121.6573
G1X185.8645Y-118.6197
G1 Z0F20000
(Start Block)

G1X54.4021Y-283.3733
G1Z5.5F20000
(Plotting speed under)
G1 F8000

G1X65.1639Y-272.1841
G1X67.2762Y-269.8762
G1X69.2245Y-267.6024
G1X72.3402Y-263.6431
G1X78.5957Y-255.2008
G1X81.3679Y-251.3680
G1X83.6345Y-248.0361
G1X86.5442Y-243.2903
G1X88.9675Y-238.6496
G1X90.9076Y-234.3513
G1X95.7746Y-222.7501
G1X97.4157Y-219.1845
G1X99.1815Y-215.6171
G1X100.7789Y-212.6295
G1X102.3634Y-209.9360
G1X103.9239Y-207.5657
G1X105.5152Y-205.4350
G1X107.1640Y-203.5147
G1X108.8364Y-201.8388
G1X110.6825Y-200.2702
G1X112.5455Y-198.9439
G1X114.5249Y-197.7618
G1X116.8268Y-196.5931
G1X125.2217Y-192.9205
G1X129.5186Y-190.9030
G1X133.3894Y-188.9256
G1X136.5205Y-187.1696
G1X139.6385Y-185.1706
G1X142.4258Y-183.0709
G1X145.0865Y-180.7286
G1X147.8218Y-177.9686
G1X150.0789Y-175.4352
G1X152.4660Y-172.5371
G1X155.1309Y-169.0925
G1X157.8062Y-165.4481
G1X161.5932Y-159.9662
G1X172.8216Y-143.0403
G1X174.8880Y-139.7756
G1X176.6397Y-136.7763
G1X182.8626Y-124.8472
G1X184.5430Y-121.8505
G1X186.4179Y-118.7254
G1 Z0F20000
(Start Block)

G1X54.4021Y-284.9608
G1Z5.5F20000
(Plotting speed under)
G1 F8000

G1X65.4832Y-273.6310
G1X67.8249Y-271.1071
G1X69.8502Y-268.7675
G1X72.3769Y-265.6010
G1X75.6182Y-261.2569
G1X81.1110Y-253.7288
G1X84.4307Y-248.9125
G1X87.4025Y-244.1088
G1X89.8842Y-239.3823
G1X91.8226Y-235.0758
G1X96.6357Y-223.5267
G1X98.2753Y-219.9534
G1X99.9958Y-216.4776
G1X101.6301Y-213.4203
G1X103.2146Y-210.7271
G1X104.7751Y-208.3563
G1X106.3513Y-206.2431
G1X108.2263Y-204.0744
G1X110.1308Y-202.2154
G1X112.2130Y-200.5231
G1X114.3920Y-199.0641
G1X117.8400Y-197.2120
G1X125.8097Y-193.5856
G1X130.3120Y-191.3709
G1X135.0130Y-188.8249
G1X138.7597Y-186.5165
G1X141.2435Y-184.7440
G1X143.5056Y-182.9018
G1X145.8006Y-180.7825
G1X148.1516Y-178.3573
G1X150.4068Y-175.8051
G1X152.8672Y-172.8038
G1X155.6054Y-169.2578
G1X158.3536Y-165.5089
G1X162.2560Y-159.8495
G1X173.1318Y-143.4070
G1X175.1985Y-140.1447
G1X176.9513Y-137.1529
G1X183.2906Y-125.0488
G1X185.0289Y-121.9640
G1X186.9621Y-118.7541
G1 Z0F20000
(Start Block)

G1X54.4021Y-286.5483
G1Z5.5F20000
(Plotting speed under)
G1 F8000

G1X65.8054Y-275.1133
G1X68.3010Y-272.4561
G1X70.4780Y-269.9589
G1X72.8572Y-266.9895
G1X75.8036Y-263.0381
G1X81.5524Y-255.0804
G1X85.2222Y-249.7614
G1X88.3130Y-244.8053
G1X89.5968Y-242.4798
G1X90.8426Y-240.0032
G1X92.7784Y-235.6835
G1X97.5380Y-224.1895
G1X99.1318Y-220.7048
G1X100.8161Y-217.3025
G1X102.4789Y-214.1983
G1X104.0640Y-211.5087
G1X105.6246Y-209.1393
G1X107.2603Y-206.9508
G1X108.8336Y-205.1129
G1X110.5045Y-203.4200
G1X112.2969Y-201.8638
G1X114.1568Y-200.4889
G1X116.0285Y-199.3045
G1X118.2217Y-198.1044
G1X126.1839Y-194.2983
G1X130.2641Y-192.2177
G1X134.0233Y-190.1468
G1X137.1485Y-188.2776
G1X140.1572Y-186.2544
G1X142.8373Y-184.1736
G1X145.4434Y-181.8340
G1X148.1000Y-179.1209
G1X150.4314Y-176.4928
G1X152.8930Y-173.5029
G1X155.7072Y-169.8778
G1X158.4284Y-166.1886
G1X162.5091Y-160.3034
G1X172.1105Y-145.7729
G1X175.0479Y-141.2185
G1X177.2022Y-137.5891
G1X178.9809Y-134.3083
G1X182.8803Y-126.7503
G1X184.9451Y-123.0069
G1 Z0F20000
(Start Block)

G1X54.4021Y-288.1358
G1Z5.5F20000
(Plotting speed under)
G1 F8000

G1X66.1313Y-276.6415
G1X68.6306Y-274.0237
G1X70.9600Y-271.3766
G1X73.3405Y-268.4180
G1X76.0650Y-264.7559
G1X81.8765Y-256.6114
G1X86.0120Y-250.6143
G1X89.2229Y-245.5137
G1X90.5092Y-243.2039
G1X91.7572Y-240.7392
G1X93.6934Y-236.4225
G1X98.4433Y-224.8835
G1X99.9905Y-221.4842
G1X101.5744Y-218.2782
G1X103.2183Y-215.2062
G1X104.8018Y-212.5065
G1X106.3604Y-210.1216
G1X107.9490Y-207.9690
G1X109.8208Y-205.7704
G1X111.7218Y-203.8710
G1X113.7223Y-202.1801
G1X115.9998Y-200.5647
G1X119.3358Y-198.6188
G1X126.9757Y-194.7820
G1X131.4687Y-192.3667
G1X136.0554Y-189.6807
G1X139.6895Y-187.2882
G1X142.1670Y-185.4183
G1X144.3968Y-183.5107
G1X146.6847Y-181.3064
G1X149.0285Y-178.8048
G1X151.3530Y-176.1103
G1X153.9578Y-172.8843
G1X156.7672Y-169.2180
G1X159.4987Y-165.4726
G1X163.5151Y-159.6254
G1X173.5718Y-144.3405
G1X175.7537Y-140.8986
G1X177.5082Y-137.9179
G1X184.0781Y-125.4524
G1X185.9319Y-122.1899
G1X188.0387Y-118.7164
G1 Z0F20000
(Start Block)

G1X54.4021Y-289.7233
G1Z5.5F20000
(Plotting speed under)
G1 F8000

G1X66.3855Y-278.3019
G1X69.0411Y-275.5773
G1X71.3732Y-272.9567
G1X73.7554Y-270.0135
G1X76.3615Y-266.5053
G1X86.8034Y-251.5085
G1X90.1925Y-246.1783
G1X91.5367Y-243.7804
G1X92.7674Y-241.3571
G1X94.7032Y-237.0380
G1X99.4015Y-225.5629
G1X100.9026Y-222.2512
G1X102.4686Y-219.0829
G1X104.1337Y-215.9926
G1X105.7765Y-213.2145
G1X107.3373Y-210.8458
G1X108.9421Y-208.6855
G1X110.5884Y-206.7417
G1X112.2571Y-205.0242
G1X114.0206Y-203.4485
G1X115.8763Y-202.0115
G1X117.7433Y-200.7473
G1X119.9308Y-199.4360
G1X127.7693Y-195.2632
G1X131.8396Y-192.9753
G1X135.3814Y-190.8538
G1X138.2911Y-188.9803
G1X141.0852Y-186.9825
G1X143.6558Y-184.8901
G1X146.1027Y-182.6164
G1X148.6780Y-179.9224
G1X152.4245Y-175.5505
G1X156.7977Y-169.9563
G1X160.9799Y-164.1927
G1X165.1601Y-158.0081
G1X173.7089Y-144.9690
G1X176.6316Y-140.3113
G1X179.0441Y-136.0412
G1X184.6129Y-125.4171
G1 Z0F20000
(Start Block)

G1X54.4021Y-291.3108
G1Z5.5F20000
(Plotting speed under)
G1 F8000

G1X66.7207Y-279.9538
G1X69.4580Y-277.2160
G1X71.8692Y-274.5501
G1X74.2528Y-271.6199
G1X76.8284Y-268.1425
G1X87.3681Y-252.8314
G1X89.5106Y-249.6111
G1X91.1131Y-247.0392
G1X92.5182Y-244.5724
G1X93.7892Y-242.0988
G1X95.7712Y-237.6934
G1X100.5072Y-226.0914
G1X102.0094Y-222.7849
G1X103.5055Y-219.7778
G1X105.1191Y-216.8146
G1X106.7076Y-214.1477
G1X108.2690Y-211.7827
G1X109.7991Y-209.7126
G1X111.6689Y-207.4951
G1X113.5664Y-205.5568
G1X115.5621Y-203.8033
G1X117.8331Y-202.0893
G1X121.3672Y-199.8322
G1X128.8810Y-195.5961
G1X133.4655Y-192.8691
G1X137.6237Y-190.2187
G1X140.8333Y-187.9484
G1X143.1493Y-186.1004
G1X145.2961Y-184.1804
G1X147.4258Y-182.0580
G1X149.6889Y-179.5847
G1X152.1595Y-176.6783
G1X154.9107Y-173.2461
G1X157.6455Y-169.6711
G1X160.4216Y-165.8700
G1X164.5558Y-159.8638
G1X173.3922Y-146.3753
G1X176.1503Y-142.0421
G1X178.1889Y-138.5884
G1X184.3178Y-126.9640
G1X187.4113Y-121.5518
G1 Z0F20000
(Start Block)

G1X54.4021Y-292.8983
G1Z5.5F20000
(Plotting speed under)
G1 F8000

G1X65.6834Y-282.9470
G1X68.1311Y-280.6817
G1X70.1099Y-278.7252
G1X72.2247Y-276.4430
G1X74.2427Y-274.0337
G1X76.3116Y-271.3225
G1X78.7093Y-267.9346
G1X90.0327Y-251.1986
G1X91.7602Y-248.5175
G1X93.1783Y-246.1343
G1X94.6924Y-243.3018
G1X96.1225Y-240.2742
G1X101.3781Y-227.4539
G1X102.7830Y-224.2970
G1X104.1801Y-221.4261
G1X106.0125Y-218.0321
G1X108.0032Y-214.7329
G1X109.9370Y-211.9038
G1X111.8650Y-209.4470
G1X113.5971Y-207.5218
G1X115.3492Y-205.8098
G1X117.2195Y-204.2002
G1X119.2833Y-202.6303
G1X122.6046Y-200.4209
G1X130.6249Y-195.5991
G1X135.7202Y-192.3775
G1X139.6604Y-189.6882
G1X142.8054Y-187.2617
G1X145.7193Y-184.6625
G1X148.6019Y-181.6980
G1X151.9038Y-177.8980
G1X155.7708Y-173.0793
G1X159.8269Y-167.6873
G1X163.7283Y-162.1547
G1X167.8950Y-155.8690
G1X175.7917Y-143.6780
G1X177.6147Y-140.6804
G1X179.2430Y-137.8083
G1X185.6503Y-125.6740
G1X189.6781Y-118.9109
G1 Z0F20000
(Start Block)

G1X54.4021Y-294.4858
G1Z5.5F20000
(Plotting speed under)
G1 F8000

G1X65.4116Y-285.2622
G1X68.0985Y-282.9036
G1X70.2386Y-280.9013
G1X72.3638Y-278.7301
G1X74.3926Y-276.4245
G1X76.3230Y-273.9879
G1X78.3918Y-271.1333
G1X91.6709Y-251.3412
G1X94.5310Y-246.7403
G1X96.0750Y-243.8685
G1X97.5064Y-240.8481
G1X102.7207Y-228.1384
G1X104.0817Y-225.0803
G1X105.4346Y-222.3073
G1X107.2149Y-219.0366
G1X109.2111Y-215.7747
G1X111.1327Y-212.9846
G1X113.1350Y-210.4346
G1X114.7903Y-208.5778
G1X116.6156Y-206.7579
G1X118.5337Y-205.0592
G1X120.6449Y-203.3900
G1X124.1667Y-200.9267
G1X132.2738Y-195.7301
G1X137.3596Y-192.3445
G1X140.7740Y-189.8933
G1X143.6293Y-187.5977
G1X146.4605Y-184.9926
G1X149.2614Y-182.0442
G1X152.6327Y-178.1033
G1X156.5714Y-173.1678
G1X160.6996Y-167.6643
G1X164.6007Y-162.1283
G1X168.7085Y-155.9228
G1X175.9658Y-144.6719
G1X177.9026Y-141.4861
G1X179.5878Y-138.5192
G1X186.2178Y-125.9776
G1X188.1931Y-122.5752
G1X190.5327Y-118.7608
G1 Z0F20000
(Start Block)

G1X54.4021Y-296.0733
G1Z5.5F20000
(Plotting speed under)
G1 F8000

G1X64.9110Y-287.8278
G1X68.1473Y-285.1558
G1X70.6034Y-282.9934
G1X72.8149Y-280.8612
G1X74.8545Y-278.6650
G1X76.7952Y-276.3209
G1X78.7397Y-273.7131
G1X80.9515Y-270.4919
G1X87.3020Y-260.7763
G1X93.5095Y-251.5494
G1X96.0837Y-247.4089
G1X97.6762Y-244.4651
G1X99.1537Y-241.3577
G1X104.3299Y-228.7735
G1X105.6488Y-225.8229
G1X106.9592Y-223.1562
G1X108.6792Y-220.0335
G1X110.6252Y-216.9115
G1X112.6534Y-214.0102
G1X114.6575Y-211.4749
G1X116.3873Y-209.5268
G1X118.2104Y-207.6812
G1X120.2015Y-205.8690
G1X122.3339Y-204.1172
G1X126.1580Y-201.3035
G1X139.0112Y-192.4580
G1X142.0049Y-190.1985
G1X144.6224Y-188.0045
G1X147.2946Y-185.4686
G1X150.0145Y-182.5435
G1X153.4553Y-178.4641
G1X157.4664Y-173.4184
G1X161.6678Y-167.8112
G1X165.6717Y-162.1352
G1X169.7208Y-156.0112
G1X176.1659Y-145.9684
G1X178.2155Y-142.5870
G1X180.0129Y-139.4221
G1X186.8064Y-126.5529
G1X188.8945Y-122.9563
G1X191.4052Y-118.8621
G1 Z0F20000
(Start Block)

G1X54.4021Y-297.6608
G1Z5.5F20000
(Plotting speed under)
G1 F8000

G1X63.5077Y-291.1282
G1X67.5318Y-288.0635
G1X70.5921Y-285.5917
G1X72.8948Y-283.5664
G1X74.9519Y-281.5589
G1X76.8375Y-279.4946
G1X78.6257Y-277.3021
G1X80.4054Y-274.8883
G1X82.3815Y-271.9844
G1X88.9511Y-261.8300
G1X95.7316Y-251.6871
G1X98.0721Y-247.8805
G1X99.6900Y-244.8714
G1X101.2099Y-241.6570
G1X105.9158Y-230.2177
G1X108.0350Y-225.5438
G1X109.2894Y-223.1160
G1X110.5835Y-220.8552
G1X112.0181Y-218.5856
G1X113.5912Y-216.3089
G1X115.5400Y-213.7375
G1X117.4842Y-211.4268
G1X119.5250Y-209.2418
G1X121.7368Y-207.1131
G1X124.1438Y-205.0227
G1X126.9240Y-202.8180
G1X139.7488Y-193.5228
G1X142.2245Y-191.6269
G1X144.3308Y-189.8890
G1X146.7814Y-187.6599
G1X149.1350Y-185.2627
G1X151.5417Y-182.5513
G1X154.6764Y-178.7616
G1X159.9412Y-172.0484
G1X165.2597Y-164.7783
G1X169.1539Y-159.0564
G1X175.2006Y-149.6728
G1X177.5447Y-145.8897
G1X179.6354Y-142.3093
G1X181.5277Y-138.8382
G1X187.1995Y-127.9616
G1X189.5644Y-123.8439
G1X192.5864Y-118.8974
G1 Z0F20000
(Start Block)

G1X54.4021Y-299.2483
G1Z5.5F20000
(Plotting speed under)
G1 F8000

G1X59.6030Y-295.9902
G1X63.5488Y-293.3929
G1X68.0022Y-290.2652
G1X71.6160Y-287.5494
G1X74.2100Y-285.4060
G1X76.5041Y-283.2751
G1X78.6222Y-281.0283
G1X80.6368Y-278.5875
G1X82.4605Y-276.1138
G1X84.5515Y-273.0286
G1X90.9432Y-263.1055
G1X97.7690Y-252.7817
G1X100.2226Y-248.7816
G1X101.8510Y-245.7628
G1X103.4186Y-242.4700
G1X108.1365Y-231.0858
G1X110.0789Y-226.8004
G1X112.3621Y-222.5535
G1X113.6209Y-220.5305
G1X115.0162Y-218.4837
G1X117.4193Y-215.2800
G1X119.9600Y-212.2417
G1X122.5307Y-209.4995
G1X125.3549Y-206.8095
G1X127.9675Y-204.5513
G1X130.9004Y-202.1990
G1X142.8770Y-193.1899
G1X145.3677Y-191.1230
G1X147.5883Y-189.0986
G1X149.6405Y-187.0362
G1X151.7512Y-184.7122
G1X157.4944Y-177.7319
G1X162.5995Y-171.1076
G1X167.7520Y-164.0232
G1X171.4101Y-158.6158
G1X176.4134Y-150.7923
G1X178.8609Y-146.7497
G1X181.0469Y-142.8630
G1X186.6419Y-131.9663
G1X188.7504Y-128.0478
G1X191.2319Y-123.7597
G1X194.3683Y-118.6283
G1 Z0F20000
(Start Block)

G1X54.4021Y-300.8358
G1Z5.5F20000
(Plotting speed under)
G1 F8000

G1X60.3576Y-297.6276
G1X64.2161Y-295.3981
G1X68.6872Y-292.5657
G1X72.8324Y-289.6972
G1X75.9259Y-287.3113
G1X78.5347Y-285.0052
G1X80.8861Y-282.5853
G1X83.1279Y-279.9057
G1X85.4364Y-276.7691
G1X88.1623Y-272.7111
G1X99.1669Y-255.6807
G1X102.5312Y-250.1768
G1X104.2429Y-247.0031
G1X105.9031Y-243.5380
G1X110.7255Y-232.0336
G1X112.5815Y-227.9521
G1X114.7426Y-223.9170
G1X117.1617Y-220.1712
G1X119.7554Y-216.7028
G1X122.5174Y-213.3692
G1X125.3103Y-210.3370
G1X128.2052Y-207.5101
G1X130.8899Y-205.1237
G1X133.8445Y-202.6972
G1X142.4121Y-196.2221
G1X145.1934Y-194.0336
G1X147.6546Y-191.9370
G1X149.9470Y-189.7859
G1X152.1454Y-187.5075
G1X154.4010Y-184.9585
G1X160.5065Y-177.4278
G1X165.9750Y-170.2671
G1X170.7191Y-163.7688
G1X174.2040Y-158.6259
G1X178.2846Y-152.2242
G1X180.3821Y-148.6890
G1X182.2758Y-145.2264
G1X187.9544Y-133.8296
G1X190.1416Y-129.6582
G1X192.9505Y-124.7149
G1X196.4774Y-118.8724
G1 Z0F20000
(Start Block)

G1X54.4021Y-302.4233
G1Z5.5F20000
(Plotting speed under)
G1 F8000

G1X61.1165Y-299.4450
G1X65.0959Y-297.5063
G1X69.4811Y-295.0795
G1X73.8500Y-292.3461
G1X77.4731Y-289.7739
G1X80.5805Y-287.2037
G1X83.3210Y-284.5035
G1X86.0178Y-281.3512
G1X89.2673Y-276.9363
G1X93.4954Y-270.5899
G1X100.2664Y-259.8722
G1X104.5774Y-252.6286
G1X106.6032Y-248.8687
G1X108.4475Y-245.0535
G1X113.6445Y-232.8693
G1X115.4169Y-229.0063
G1X117.5783Y-224.9726
G1X119.9384Y-221.3057
G1X122.5178Y-217.8604
G1X125.5791Y-214.1737
G1X128.5228Y-210.9757
G1X131.4942Y-208.0776
G1X133.9496Y-205.9062
G1X136.5719Y-203.7773
G1X144.9414Y-197.5830
G1X147.9312Y-195.2682
G1X150.5732Y-193.0359
G1X153.0189Y-190.7474
G1X155.3699Y-188.3222
G1X157.7016Y-185.6975
G1X160.2392Y-182.6292
G1X163.8768Y-178.0314
G1X170.6074Y-169.2757
G1X174.5387Y-163.9835
G1X178.5044Y-158.2791
G1X181.6132Y-153.4478
G1X183.3627Y-150.4350
G1X184.9632Y-147.3941
G1X190.2410Y-136.2502
G1X192.6797Y-131.4140
G1X195.9720Y-125.4433
G1X199.8220Y-118.9143
G1 Z0F20000
(Start Block)

G1X54.4021Y-304.0108
G1Z5.5F20000
(Plotting speed under)
G1 F8000

G1X62.0874Y-301.3715
G1X65.9767Y-299.8554
G1X70.2742Y-297.8538
G1X74.5549Y-295.4847
G1X78.7101Y-292.7839
G1X80.5701Y-291.4094
G1X82.3956Y-289.9293
G1X84.0059Y-288.4918
G1X85.6049Y-286.9195
G1X88.6123Y-283.5231
G1X92.1686Y-278.8144
G1X96.4076Y-272.5509
G1X100.5819Y-265.8198
G1X104.9250Y-258.3189
G1X108.0368Y-252.5720
G1X110.4120Y-247.7946
G1X112.4879Y-243.2204
G1X116.6601Y-233.5412
G1X118.4878Y-229.6380
G1X120.6574Y-225.6534
G1X123.0229Y-222.0251
G1X125.6064Y-218.6147
G1X128.7482Y-214.8925
G1X131.6977Y-211.7549
G1X134.6001Y-209.0145
G1X137.0117Y-206.9852
G1X139.5912Y-205.0190
G1X148.4001Y-198.9261
G1X151.8115Y-196.4278
G1X155.2038Y-193.6555
G1X158.1840Y-190.8605
G1X160.6783Y-188.1907
G1X163.4475Y-184.9240
G1X178.8327Y-165.6615
G1X182.3198Y-161.2334
G1X184.6327Y-158.1324
G1X186.5504Y-155.3122
G1X188.1995Y-152.5767
G1X190.3993Y-148.3386
G1X195.0562Y-138.2170
G1X197.8989Y-132.4009
G1X202.1489Y-124.3275
G1X205.4107Y-118.6173
G1 Z0F20000
(Start Block)

G1X54.4021Y-305.5983
G1Z5.5F20000
(Plotting speed under)
G1 F8000

G1X62.7414Y-303.5964
G1X66.5375Y-302.5140
G1X70.6397Y-300.9942
G1X74.7260Y-299.0542
G1X77.0226Y-297.7745
G1X79.2080Y-296.4263
G1X81.3856Y-294.9416
G1X83.3470Y-293.4615
G1X85.1952Y-291.9203
G1X87.0313Y-290.2257
G1X88.7770Y-288.4411
G1X90.4317Y-286.5786
G1X93.6224Y-282.5332
G1X97.2434Y-277.3729
G1X100.5221Y-272.2537
G1X103.7393Y-266.7158
G1X107.8437Y-259.0752
G1X111.8463Y-251.1276
G1X114.5195Y-245.4069
G1X119.4358Y-234.3521
G1X121.2305Y-230.6052
G1X123.5768Y-226.3745
G1X124.8417Y-224.3945
G1X126.2137Y-222.4345
G1X128.8822Y-219.0236
G1X131.8880Y-215.6096
G1X134.7764Y-212.7092
G1X137.6438Y-210.2140
G1X140.1205Y-208.3328
G1X142.9211Y-206.4378
G1X152.2948Y-200.7911
G1X155.9324Y-198.4560
G1X158.9290Y-196.2441
G1X161.6406Y-193.8548
G1X163.6152Y-191.8516
G1X165.7984Y-189.4148
G1X173.5709Y-180.1274
G1X181.2881Y-171.1121
G1X188.8308Y-162.8564
G1X190.7832Y-160.6225
G1X192.4180Y-158.5729
G1X193.9398Y-156.4355
G1X195.3732Y-154.1579
G1X196.7728Y-151.6570
G1X198.6721Y-147.8713
G1X208.5288Y-127.1825
G1X210.8765Y-122.5963
G1X213.0085Y-118.8229
G1 Z0F20000
(Start Block)

G1X54.4021Y-307.1858
G1Z5.5F20000
(Plotting speed under)
G1 F8000

G1X63.3902Y-305.9470
G1X66.9829Y-305.2823
G1X68.9881Y-304.7774
G1X70.9902Y-304.1557
G1X72.8835Y-303.4519
G1X74.8776Y-302.5874
G1X77.1803Y-301.4368
G1X79.5799Y-300.0722
G1X81.9707Y-298.5446
G1X84.1441Y-296.9934
G1X86.2032Y-295.3568
G1X88.1216Y-293.6634
G1X90.0259Y-291.7996
G1X91.8379Y-289.8369
G1X94.8184Y-286.1848
G1X98.0143Y-281.7517
G1X101.3055Y-276.7228
G1X104.2501Y-271.7337
G1X107.5588Y-265.4975
G1X112.1353Y-256.2780
G1X116.0401Y-248.1334
G1X121.6376Y-236.0338
G1X123.4515Y-232.3228
G1X124.7810Y-229.8352
G1X126.0821Y-227.6196
G1X127.4654Y-225.4842
G1X128.9588Y-223.3942
G1X131.7127Y-219.9887
G1X134.6606Y-216.8350
G1X137.5689Y-214.1673
G1X140.5595Y-211.8657
G1X143.3648Y-210.0510
G1X146.3927Y-208.3769
G1X149.5344Y-206.8464
G1X156.2456Y-203.7899
G1X159.0698Y-202.3378
G1X161.9810Y-200.4939
G1X164.7601Y-198.2774
G1X166.6697Y-196.4761
G1X168.7140Y-194.3288
G1X186.9075Y-173.7471
G1X189.6269Y-170.8167
G1X194.2530Y-166.0429
G1X196.0625Y-164.0541
G1X197.9253Y-161.7715
G1X199.5652Y-159.4775
G1X201.1698Y-156.9210
G1X202.8479Y-153.9107
G1X206.7742Y-145.9526
G1X215.5881Y-127.0326
G1X217.8733Y-122.5800
G1X220.1265Y-118.6664
G1 Z0F20000
(Start Block)

G1X54.4021Y-308.7733
G1Z5.5F20000
(Plotting speed under)
G1 F8000

G1X57.2591Y-308.6029
G1X63.6088Y-308.4087
G1X67.1000Y-308.0980
G1X69.1084Y-307.7714
G1X71.1145Y-307.3109
G1X73.0118Y-306.7408
G1X74.9052Y-306.0388
G1X77.3177Y-304.9582
G1X79.7220Y-303.6906
G1X82.2218Y-302.1882
G1X84.6073Y-300.5710
G1X86.7744Y-298.9249
G1X88.9541Y-297.0763
G1X91.0162Y-295.1269
G1X92.9852Y-293.0626
G1X95.9760Y-289.5063
G1X99.0340Y-285.3475
G1X102.2150Y-280.5336
G1X105.1637Y-275.5723
G1X107.0537Y-272.0869
G1X109.0753Y-268.0890
G1X122.2510Y-240.7923
G1X125.1245Y-235.0096
G1X126.6774Y-232.1176
G1X128.2056Y-229.5225
G1X129.7644Y-227.1391
G1X131.3647Y-224.9415
G1X134.2053Y-221.5575
G1X135.6451Y-220.0599
G1X137.1727Y-218.6170
G1X138.7622Y-217.2632
G1X140.3096Y-216.0795
G1X141.8648Y-215.0165
G1X143.5311Y-214.0085
G1X146.4608Y-212.5246
G1X149.7182Y-211.2217
G1X152.8785Y-210.2022
G1X159.2058Y-208.4117
G1X162.1527Y-207.3742
G1X163.7267Y-206.6859
G1X165.1913Y-205.9367
G1X167.9984Y-204.1581
G1X170.8022Y-201.9062
G1X174.0844Y-198.7807
G1X182.4141Y-190.0385
G1X187.5491Y-184.4861
G1X194.3845Y-176.6879
G1X201.2430Y-169.1220
G1X203.6402Y-166.0149
G1X205.8310Y-162.6397
G1X208.6222Y-157.5895
G1X211.8629Y-150.9669
G1X214.7773Y-144.5398
G1X219.8662Y-132.7622
G1X222.0418Y-128.0516
G1X224.5481Y-123.1117
G1X227.0736Y-118.6482
G1 Z0F20000
(Start Block)

G1X54.4021Y-310.3608
G1Z5.5F20000
(Plotting speed under)
G1 F8000

G1X57.2594Y-310.4440
G1X63.1851Y-310.8057
G1X66.1484Y-310.8367
G1X69.6397Y-310.5577
G1X71.3308Y-310.2669
G1X73.0198Y-309.8634
G1X74.9165Y-309.2722
G1X76.9138Y-308.4949
G1X78.9055Y-307.5724
G1X80.9959Y-306.4627
G1X83.0798Y-305.2233
G1X85.1560Y-303.8482
G1X87.1200Y-302.4073
G1X88.9973Y-300.8916
G1X90.9917Y-299.1200
G1X92.8963Y-297.2598
G1X94.7861Y-295.2382
G1X96.5845Y-293.1402
G1X98.3658Y-290.8853
G1X100.2020Y-288.3733
G1X103.7271Y-283.0139
G1X106.3281Y-278.5758
G1X108.8011Y-273.9376
G1X118.2719Y-254.1899
G1X124.2134Y-242.5402
G1X127.5870Y-236.1834
G1X129.9036Y-232.2166
G1X132.1041Y-228.9127
G1X134.4137Y-225.9297
G1X136.7514Y-223.3670
G1X139.2782Y-221.0659
G1X141.8617Y-219.1618
G1X144.5725Y-217.5887
G1X147.5107Y-216.3053
G1X150.0390Y-215.4967
G1X152.8898Y-214.8454
G1X155.6383Y-214.4097
G1X162.9357Y-213.4967
G1X165.2607Y-213.0816
G1X167.3722Y-212.5895
G1X169.9018Y-211.8248
G1X172.3200Y-210.8965
G1X174.7306Y-209.7687
G1X176.9222Y-208.5379
G1X178.8955Y-207.2464
G1X180.8588Y-205.7950
G1X183.0180Y-204.0374
G1X185.4754Y-201.8913
G1X191.6690Y-196.1304
G1X201.1862Y-186.7633
G1X203.7148Y-184.4802
G1X208.9420Y-179.9888
G1X211.3851Y-177.6687
G1X212.8198Y-176.1177
G1X214.1634Y-174.4953
G1X215.5183Y-172.6748
G1X216.9119Y-170.6153
G1X220.8376Y-164.1185
G1X224.3559Y-157.6880
G1X226.1098Y-154.0570
G1X227.7602Y-150.2212
G1X232.7381Y-137.0563
G1X235.0892Y-131.3285
G1X237.8987Y-125.3378
G1X241.3969Y-118.7132
G1 Z0F20000
(Start Block)

G1X54.4021Y-311.9483
G1Z5.5F20000
(Plotting speed under)
G1 F8000

G1X62.6515Y-312.9573
G1X65.9315Y-313.1930
G1X67.8364Y-313.1948
G1X69.6353Y-313.0862
G1X71.4331Y-312.8596
G1X73.1236Y-312.5317
G1X75.0226Y-312.0258
G1X77.0227Y-311.3348
G1X79.0175Y-310.4908
G1X81.0068Y-309.5097
G1X83.0944Y-308.3440
G1X85.1747Y-307.0385
G1X87.2462Y-305.5868
G1X89.2047Y-304.0662
G1X91.1784Y-302.3791
G1X93.1651Y-300.5140
G1X95.0619Y-298.5671
G1X96.9439Y-296.4659
G1X98.8095Y-294.2081
G1X100.6572Y-291.7912
G1X102.3962Y-289.3266
G1X104.0704Y-286.7658
G1X106.6824Y-282.4000
G1X109.2399Y-277.6877
G1X111.6714Y-272.8113
G1X116.7072Y-262.0422
G1X119.3707Y-256.6028
G1X122.8448Y-249.9782
G1X127.7014Y-241.1839
G1X130.7558Y-235.9799
G1X133.2986Y-232.1152
G1X135.8567Y-228.7810
G1X137.2094Y-227.2454
G1X138.4996Y-225.9255
G1X141.0602Y-223.7063
G1X143.6533Y-221.9553
G1X145.0113Y-221.2166
G1X146.4791Y-220.5424
G1X147.9513Y-219.9847
G1X149.4267Y-219.5336
G1X151.9612Y-218.9783
G1X154.7108Y-218.6322
G1X157.4621Y-218.4766
G1X164.1295Y-218.3630
G1X167.5159Y-218.2181
G1X171.4303Y-217.8685
G1X175.1311Y-217.3414
G1X178.1936Y-216.6707
G1X181.0378Y-215.7561
G1X183.8707Y-214.5107
G1X186.6890Y-212.9377
G1X189.2854Y-211.2385
G1X192.1816Y-209.1432
G1X195.4803Y-206.5827
G1X198.7940Y-203.8519
G1X201.4816Y-201.5031
G1X203.9287Y-199.2295
G1X209.4717Y-193.5923
G1X214.7599Y-187.8994
G1X216.4065Y-185.9575
G1X217.8868Y-184.0433
G1X219.3022Y-182.0179
G1X220.7947Y-179.6609
G1X224.4996Y-173.1196
G1 Z0F20000
(Start Block)

G1X54.4021Y-313.5358
G1Z5.5F20000
(Plotting speed under)
G1 F8000

G1X62.3283Y-314.9451
G1X64.4434Y-315.2111
G1X66.4538Y-315.3528
G1X68.7821Y-315.3626
G1X71.0040Y-315.2036
G1X73.2242Y-314.8693
G1X75.3358Y-314.3801
G1X77.6536Y-313.6453
G1X79.9650Y-312.7097
G1X82.4781Y-311.4803
G1X84.8771Y-310.1032
G1X87.2649Y-308.5259
G1X89.5369Y-306.8258
G1X91.8208Y-304.9116
G1X94.1142Y-302.7724
G1X97.5193Y-299.1722
G1X100.8018Y-295.1909
G1X103.7042Y-291.1628
G1X106.5141Y-286.7020
G1X108.8710Y-282.5341
G1X111.2741Y-277.9144
G1X113.4826Y-273.3768
G1X118.3882Y-262.9124
G1X121.7151Y-256.3573
G1X123.8330Y-252.4955
G1X126.2567Y-248.2961
G1X131.9016Y-239.0572
G1X135.0276Y-234.4831
G1X136.5066Y-232.5569
G1X137.9277Y-230.8711
G1X139.3645Y-229.3409
G1X140.8159Y-227.9743
G1X142.2547Y-226.7931
G1X143.7043Y-225.7692
G1X145.9993Y-224.4629
G1X148.4147Y-223.4590
G1X151.0514Y-222.7320
G1X153.8000Y-222.3075
G1X156.1278Y-222.1551
G1X158.8795Y-222.1446
G1X171.3666Y-222.7093
G1X177.3990Y-222.8020
G1X179.8328Y-222.6734
G1X182.0540Y-222.4189
G1X184.2732Y-222.0168
G1X186.4895Y-221.4654
G1X189.7550Y-220.4076
G1X193.7488Y-218.8305
G1X198.5747Y-216.6897
G1X205.9112Y-213.2520
G1X209.3662Y-211.5481
G1X212.7116Y-209.7876
G1X221.4858Y-205.0085
G1X225.0313Y-202.9577
G1 Z0F20000
(Start Block)

G1X54.4021Y-315.1233
G1Z5.5F20000
(Plotting speed under)
G1 F8000

G1X61.6882Y-316.7526
G1X63.9081Y-317.1083
G1X66.0238Y-317.3191
G1X68.4578Y-317.3975
G1X70.8918Y-317.2954
G1X73.2186Y-317.0234
G1X75.5430Y-316.5726
G1X77.8634Y-315.9334
G1X80.2834Y-315.0591
G1X82.6960Y-313.9807
G1X84.9953Y-312.7576
G1X87.2845Y-311.3398
G1X89.5619Y-309.7226
G1X91.8516Y-307.8871
G1X94.0753Y-305.9007
G1X97.5692Y-302.3615
G1X100.9422Y-298.4391
G1X103.9640Y-294.4066
G1X106.7919Y-290.0749
G1X109.2178Y-285.8899
G1X111.8239Y-280.9612
G1X114.3119Y-275.9178
G1X119.5490Y-264.8892
G1X122.8185Y-258.5667
G1X124.8379Y-254.9886
G1X126.9989Y-251.4033
G1X129.6437Y-247.2623
G1X132.5411Y-242.9268
G1X134.8184Y-239.6765
G1X136.8224Y-236.9946
G1X138.6113Y-234.8076
G1X140.3469Y-232.9178
G1X142.1034Y-231.2566
G1X143.9045Y-229.8178
G1X145.6697Y-228.6575
G1X147.5517Y-227.6729
G1X148.9170Y-227.1072
G1X150.3915Y-226.6228
G1X151.8691Y-226.2556
G1X153.3486Y-225.9927
G1X156.7341Y-225.7134
G1X160.6497Y-225.7968
G1X164.0352Y-226.0910
G1X167.8424Y-226.5757
G1X171.6482Y-227.1800
G1X178.8344Y-228.4757
G1X183.0644Y-229.0319
G1X187.5084Y-229.3243
G1X204.5472Y-229.7470
G1X212.0604Y-230.1224
G1X214.8110Y-230.3863
G1X217.4546Y-230.7452
G1X226.7545Y-232.4137
G1X228.6583Y-232.6293
G1X230.3515Y-232.7142
G1X231.9389Y-232.6833
G1X233.5257Y-232.5302
G1X235.0052Y-232.2672
G1X236.4824Y-231.8829
G1X237.9563Y-231.3771
G1X239.4261Y-230.7545
G1X240.9961Y-229.9690
G1X242.6651Y-229.0147
G1 Z0F20000
(Start Block)

G1X54.4021Y-316.7108
G1Z5.5F20000
(Plotting speed under)
G1 F8000

G1X61.0488Y-318.4635
G1X63.2676Y-318.8902
G1X65.4885Y-319.1736
G1X68.0280Y-319.3229
G1X70.5680Y-319.2948
G1X73.1072Y-319.0931
G1X75.6446Y-318.7107
G1X78.0731Y-318.1593
G1X80.3916Y-317.4477
G1X82.8093Y-316.5041
G1X85.1143Y-315.4071
G1X87.4100Y-314.1121
G1X89.5908Y-312.6820
G1X91.7593Y-311.0566
G1X93.9653Y-309.1940
G1X97.6251Y-305.6595
G1X101.1630Y-301.7087
G1X104.2869Y-297.6746
G1X107.2445Y-293.2713
G1X109.7397Y-289.0741
G1X112.3486Y-284.2340
G1X114.9312Y-279.0989
G1X120.5163Y-267.5958
G1X123.5126Y-261.8844
G1X125.4831Y-258.4513
G1X127.4818Y-255.2061
G1X129.5066Y-252.1455
G1X131.8599Y-248.8150
G1X134.9550Y-244.6786
G1X137.8515Y-241.0305
G1X140.1772Y-238.3483
G1X142.2274Y-236.2646
G1X144.3795Y-234.4134
G1X146.4511Y-232.9658
G1X148.6447Y-231.7751
G1X150.8515Y-230.8996
G1X152.7499Y-230.3731
G1X154.7578Y-230.0104
G1X156.8735Y-229.8117
G1X159.2018Y-229.7798
G1X161.5297Y-229.9146
G1X164.0680Y-230.2239
G1X166.7099Y-230.7028
G1X169.3492Y-231.3241
G1X173.3551Y-232.5091
G1X182.4080Y-235.6529
G1X190.8352Y-238.3792
G1X197.1458Y-240.7377
G1X201.5555Y-242.6024
G1X205.8546Y-244.5681
G1X209.8317Y-246.5612
G1X218.0843Y-251.0382
G1X220.6009Y-252.1864
G1X223.0202Y-253.0795
G1X226.0799Y-253.8798
G1X229.1461Y-254.3139
G1X231.8974Y-254.4737
G1X242.5861Y-254.7985
G1 Z0F20000
(Start Block)

G1X54.4021Y-318.2983
G1Z5.5F20000
(Plotting speed under)
G1 F8000

G1X58.1952Y-319.4925
G1X60.6210Y-320.1660
G1X62.9444Y-320.6739
G1X65.1646Y-321.0059
G1X67.8096Y-321.2202
G1X70.5612Y-321.2605
G1X73.3126Y-321.1316
G1X76.0627Y-320.8284
G1X78.4934Y-320.3942
G1X80.8150Y-319.8082
G1X83.1319Y-319.0386
G1X85.4425Y-318.0824
G1X87.7452Y-316.9342
G1X89.9341Y-315.6479
G1X92.1116Y-314.1626
G1X94.1727Y-312.5543
G1X95.9392Y-311.0161
G1X97.7713Y-309.2727
G1X101.4006Y-305.4033
G1X104.5244Y-301.5184
G1X107.5409Y-297.1669
G1X110.1098Y-292.9886
G1X112.7394Y-288.2756
G1X115.2146Y-283.5068
G1X121.3235Y-271.3442
G1X124.4329Y-265.5833
G1X126.3598Y-262.3313
G1X128.3724Y-259.1825
G1X130.4690Y-256.1402
G1X132.5756Y-253.3155
G1X135.6311Y-249.5748
G1X139.1664Y-245.5971
G1X142.0490Y-242.6325
G1X144.5273Y-240.4068
G1X146.7996Y-238.7147
G1X149.0928Y-237.3717
G1X151.5068Y-236.3330
G1X154.0373Y-235.6057
G1X156.3626Y-235.2165
G1X158.7963Y-235.0680
G1X161.2302Y-235.1632
G1X163.7681Y-235.5005
G1X166.3026Y-236.0583
G1X169.0430Y-236.8837
G1X171.8827Y-237.9471
G1X175.1358Y-239.3680
G1X179.2217Y-241.3222
G1X182.8834Y-243.1893
G1X185.7019Y-244.7587
G1X188.3032Y-246.3728
G1X191.7205Y-248.7796
G1X198.9358Y-254.3908
G1X202.8654Y-257.2484
G1X220.7003Y-269.4178
G1X224.0247Y-271.5767
G1X226.6303Y-273.1109
G1X228.7225Y-274.1816
G1X230.8218Y-275.0848
G1X232.8222Y-275.7668
G1X234.7218Y-276.2410
G1X236.6246Y-276.5409
G1X238.5292Y-276.6654
G1X240.5399Y-276.6127
G1X242.5496Y-276.3844
G1 Z0F20000
(Start Block)

G1X54.4021Y-319.8858
G1Z5.5F20000
(Plotting speed under)
G1 F8000

G1X57.8750Y-321.1193
G1X60.4041Y-321.9032
G1X62.7261Y-322.4747
G1X65.1570Y-322.8945
G1X68.0131Y-323.1862
G1X71.0820Y-323.3089
G1X74.2569Y-323.2616
G1X77.2195Y-323.0468
G1X79.6516Y-322.7136
G1X81.9753Y-322.2268
G1X84.2951Y-321.5624
G1X86.7149Y-320.6812
G1X89.0229Y-319.6564
G1X91.3225Y-318.4408
G1X93.5075Y-317.0843
G1X95.5768Y-315.5969
G1X98.7814Y-312.8707
G1X101.9710Y-309.6348
G1X104.8859Y-306.1565
G1X107.7000Y-302.2482
G1X110.3428Y-298.0943
G1X113.1646Y-293.2347
G1X115.6115Y-288.7306
G1X121.6234Y-277.2747
G1X125.1593Y-271.0267
G1X127.1046Y-267.8994
G1X129.0779Y-264.9746
G1X131.1789Y-262.1032
G1X133.4058Y-259.2870
G1X136.4060Y-255.8183
G1X139.4379Y-252.6721
G1X143.1057Y-249.2292
G1X146.3141Y-246.5495
G1X148.9031Y-244.7310
G1X151.3040Y-243.3955
G1X153.7201Y-242.4127
G1X156.2522Y-241.7517
G1X158.4729Y-241.4561
G1X160.6952Y-241.4032
G1X163.0228Y-241.5857
G1X165.3480Y-241.9873
G1X167.8803Y-242.6442
G1X170.5127Y-243.5337
G1X173.4543Y-244.7274
G1X176.4943Y-246.1371
G1X180.6734Y-248.3897
G1X184.4124Y-250.8323
G1X187.4041Y-253.1202
G1X196.2421Y-260.3818
G1X210.1790Y-270.8888
G1X215.8740Y-274.9069
G1X218.6796Y-276.7176
G1X221.2835Y-278.2843
G1X224.2081Y-279.8790
G1X227.0370Y-281.2249
G1X229.7687Y-282.3280
G1X232.4021Y-283.1817
G1X234.9357Y-283.7808
G1X237.3674Y-284.1389
G1X239.9069Y-284.2916
G1X242.5527Y-284.2357
G1 Z0F20000
(Start Block)

G1X54.4021Y-321.4733
G1Z5.5F20000
(Plotting speed under)
G1 F8000

G1X57.6599Y-322.7676
G1X60.2916Y-323.6805
G1X62.7172Y-324.3580
G1X65.1467Y-324.8590
G1X68.2132Y-325.2875
G1X71.8103Y-325.5886
G1X75.5143Y-325.7233
G1X78.6892Y-325.6651
G1X81.1225Y-325.4571
G1X83.5538Y-325.0692
G1X86.0877Y-324.4790
G1X88.6171Y-323.7083
G1X91.0360Y-322.7991
G1X93.4481Y-321.7090
G1X95.6426Y-320.5344
G1X97.8268Y-319.1638
G1X100.7177Y-316.9923
G1X103.3456Y-314.5860
G1X105.7561Y-311.9146
G1X108.1634Y-308.7478
G1X110.3078Y-305.5422
G1X112.6444Y-301.7078
G1X121.7272Y-285.5782
G1X124.9626Y-280.1598
G1X126.8680Y-277.2481
G1X128.7997Y-274.5357
G1X130.8009Y-271.9753
G1X132.8247Y-269.6204
G1X136.2343Y-266.0678
G1X140.0573Y-262.5090
G1X144.8021Y-258.4942
G1X149.1338Y-255.1651
G1X152.0404Y-253.2405
G1X154.6532Y-251.8519
G1X157.1765Y-250.8863
G1X159.8156Y-250.2679
G1X161.7195Y-250.0572
G1X163.6244Y-250.0303
G1X165.6347Y-250.1863
G1X167.7487Y-250.5350
G1X169.9651Y-251.0802
G1X172.2829Y-251.8183
G1X174.7012Y-252.7456
G1X177.0083Y-253.7925
G1X180.3496Y-255.6334
G1X183.6700Y-257.8578
G1X191.7153Y-264.0316
G1X199.8746Y-270.1267
G1X210.1749Y-278.2448
G1X214.5249Y-281.2971
G1X218.5840Y-283.7936
G1X221.5103Y-285.3529
G1X224.5505Y-286.7559
G1X227.9137Y-288.0847
G1X231.1779Y-289.1848
G1X234.0260Y-289.9558
G1X236.7727Y-290.5052
G1X239.5223Y-290.8637
G1X242.5908Y-291.0718
G1 Z0F20000
(Start Block)

G1X54.4021Y-323.0608
G1Z5.5F20000
(Plotting speed under)
G1 F8000

G1X57.5494Y-324.4559
G1X60.1771Y-325.4889
G1X62.5995Y-326.2878
G1X65.1317Y-326.9509
G1X68.6178Y-327.6525
G1X72.9523Y-328.3257
G1X76.7599Y-328.7750
G1X79.9342Y-328.9824
G1X82.3684Y-328.9720
G1X84.9077Y-328.7857
G1X87.4455Y-328.4340
G1X90.0865Y-327.9044
G1X92.7242Y-327.2127
G1X95.2521Y-326.3872
G1X97.6692Y-325.4275
G1X99.8696Y-324.3833
G1X102.9975Y-322.5674
G1X105.7894Y-320.5383
G1X108.2664Y-318.2987
G1X110.5985Y-315.6813
G1X112.2194Y-313.5126
G1X113.8956Y-310.9674
G1X121.1961Y-298.5599
G1X123.1420Y-295.4367
G1X124.9942Y-292.6453
G1X127.1029Y-289.6986
G1X129.1053Y-287.1483
G1X131.1325Y-284.8269
G1X133.2585Y-282.6639
G1X135.7891Y-280.4072
G1X138.5467Y-278.2694
G1X141.4526Y-276.3329
G1X144.4782Y-274.6121
G1X147.5164Y-273.1630
G1X150.3555Y-272.0823
G1X153.0977Y-271.3286
G1X155.7405Y-270.9169
G1X157.2220Y-270.8384
G1X158.5978Y-270.8710
G1X160.0787Y-271.0247
G1X161.4523Y-271.2809
G1X162.8237Y-271.6480
G1X164.1921Y-272.1255
G1X165.5567Y-272.7110
G1X167.0214Y-273.4571
G1X169.4154Y-274.9246
G1X171.8967Y-276.7378
G1X174.2340Y-278.6678
G1X181.5291Y-285.0408
G1X184.0031Y-286.9610
G1X186.3870Y-288.6027
G1X188.8863Y-290.1146
G1X191.8125Y-291.6759
G1X201.7589Y-296.5800
G1X205.2202Y-298.1336
G1X207.8504Y-299.0914
G1X210.4874Y-299.8086
G1X219.1532Y-301.3625
G1X222.9548Y-302.2029
G1X226.0134Y-303.0513
G1X231.9146Y-304.8845
G1X234.6582Y-305.5870
G1X236.5602Y-305.9448
G1X238.4638Y-306.1848
G1X242.6967Y-306.3646
G1 Z0F20000
(Start Block)

G1X54.4021Y-324.6483
G1Z5.5F20000
(Plotting speed under)
G1 F8000

G1X57.4379Y-326.1540
G1X59.9548Y-327.2962
G1X62.3714Y-328.2702
G1X64.7924Y-329.1149
G1X68.7978Y-330.3208
G1X74.8104Y-331.9548
G1X78.3991Y-332.8348
G1X81.2515Y-333.4016
G1X83.6835Y-333.7453
G1X86.2226Y-333.9631
G1X88.6567Y-334.0361
G1X91.0907Y-333.9723
G1X93.4183Y-333.7772
G1X95.7445Y-333.4429
G1X97.9627Y-332.9842
G1X100.1777Y-332.3780
G1X102.1781Y-331.6958
G1X104.1743Y-330.8861
G1X106.1655Y-329.9519
G1X108.2558Y-328.8402
G1X110.3399Y-327.6045
G1X112.4171Y-326.2469
G1X114.3825Y-324.8269
G1X116.1576Y-323.4041
G1X118.6076Y-321.1667
G1X120.8767Y-318.7568
G1X122.8944Y-316.3450
G1X127.7177Y-310.2270
G1X130.6483Y-306.8996
G1X132.3201Y-305.2143
G1X134.0032Y-303.6612
G1X137.7055Y-300.6596
G1X139.3621Y-299.4893
G1X141.0258Y-298.4354
G1X142.5917Y-297.5632
G1X144.1630Y-296.8109
G1X145.7393Y-296.1828
G1X147.3197Y-295.6801
G1X148.9030Y-295.2998
G1X150.5943Y-295.0221
G1X153.4510Y-294.8203
G1X156.5200Y-294.9069
G1X160.0106Y-295.2846
G1X164.2385Y-295.9995
G1X171.1025Y-297.5185
G1X180.9120Y-300.2101
G1X190.3049Y-302.5578
G1X194.7396Y-303.5661
G1X198.2270Y-304.1959
G1X201.4000Y-304.5624
G1X204.6805Y-304.7057
G1X207.9613Y-304.6390
G1X213.0404Y-304.3219
G1 Z0F20000
(Start Block)

G1X54.4021Y-326.2358
G1Z5.5F20000
(Plotting speed under)
G1 F8000

G1X59.2063Y-328.8659
G1X63.3948Y-330.9150
G1X80.5999Y-338.5589
G1X83.7506Y-339.8685
G1X86.6952Y-340.9798
G1X91.2261Y-342.3956
G1X93.3374Y-342.9008
G1X95.4508Y-343.2928
G1X97.5658Y-343.5642
G1X99.5762Y-343.7063
G1X101.4812Y-343.7300
G1X103.3859Y-343.6302
G1X105.2895Y-343.3925
G1X107.0854Y-343.0323
G1X108.8784Y-342.5362
G1X110.7727Y-341.8651
G1X112.6622Y-341.0538
G1X114.6510Y-340.0636
G1X116.8430Y-338.8393
G1X119.2376Y-337.3796
G1X122.6608Y-335.0675
G1X126.5855Y-332.1373
G1X146.4607Y-316.4034
G1X149.3589Y-314.3414
G1X152.1687Y-312.6052
G1X155.8302Y-310.7379
G1X160.9754Y-308.5748
G1X166.7595Y-306.3959
G1X168.9717Y-305.6815
G1X170.8704Y-305.1656
G1X173.0887Y-304.7113
G1X175.4154Y-304.4252
G1X177.8493Y-304.3146
G1X180.4950Y-304.3790
G1X182.8227Y-304.5663
G1X185.2552Y-304.8658
G1X195.4036Y-306.4775
G1X198.0484Y-306.7288
G1X200.5882Y-306.8196
G1X202.9164Y-306.7658
G1X205.4558Y-306.5726
G1X214.6567Y-305.4219
G1X216.8789Y-305.3203
G1X219.1013Y-305.3797
G1X221.6399Y-305.6587
G1X224.2812Y-306.1744
G1X226.7079Y-306.8096
G1X232.2951Y-308.4656
G1X235.3566Y-309.1864
G1X238.6343Y-309.6571
G1X242.4437Y-309.8614
G1 Z0F20000
(Start Block)

G1X54.4021Y-327.8233
G1Z5.5F20000
(Plotting speed under)
G1 F8000

G1X60.2293Y-331.4347
G1X67.9402Y-336.0105
G1X71.2681Y-338.1079
G1X76.8662Y-341.9482
G1X85.9626Y-348.6218
G1X88.8620Y-350.6668
G1X92.8109Y-353.2093
G1X96.7747Y-355.4780
G1X99.7042Y-356.9685
G1X102.8510Y-358.3781
G1X119.6627Y-365.1446
G1X121.7682Y-365.8670
G1X123.5618Y-366.3410
G1X125.2528Y-366.6296
G1X126.8399Y-366.7344
G1X128.0040Y-366.6980
G1X129.1674Y-366.5596
G1X130.3293Y-366.3163
G1X131.4887Y-365.9671
G1X132.6449Y-365.5129
G1X133.9016Y-364.9012
G1X136.2944Y-363.4139
G1X138.4326Y-361.7440
G1X140.5738Y-359.7567
G1X142.4676Y-357.7771
G1X146.8382Y-352.9462
G1X149.1926Y-350.5580
G1X151.4146Y-348.5511
G1X154.1909Y-346.2933
G1X165.3303Y-337.7399
G1X170.8152Y-333.8204
G1X173.7253Y-331.9531
G1X176.1243Y-330.5755
G1X178.3239Y-329.5172
G1X180.4275Y-328.7356
G1X183.1719Y-328.0737
G1X186.1336Y-327.7650
G1X188.5677Y-327.7412
G1X196.5049Y-327.9654
G1X201.6903Y-327.7828
G1X205.9216Y-327.3473
G1X216.7074Y-325.8635
G1X220.0932Y-325.6145
G1X223.1624Y-325.5952
G1X225.4903Y-325.7331
G1X227.7114Y-325.9956
G1X229.9308Y-326.3867
G1X232.3592Y-326.9442
G1X234.9957Y-327.6828
G1X237.6288Y-328.5501
G1X240.1524Y-329.5100
G1X242.4610Y-330.5199
G1 Z0F20000
(Start Block)

G1X54.4021Y-330.9983
G1Z5.5F20000
(Plotting speed under)
G1 F8000

G1X60.5762Y-335.9537
G1X63.4186Y-338.4207
G1X66.0206Y-340.8127
G1X70.3553Y-345.1406
G1X77.0756Y-352.4147
G1X79.8057Y-355.2322
G1X82.7836Y-358.0549
G1X89.8393Y-364.3423
G1X91.9729Y-366.4201
G1X93.9409Y-368.4944
G1X95.8946Y-370.7156
G1X97.9075Y-373.1719
G1X99.9040Y-375.7742
G1X101.8092Y-378.4228
G1X105.4532Y-383.9349
G1X110.9907Y-392.9440
G1 Z0F20000
(Start Block)

G1X54.4021Y-361.1609
G1Z5.5F20000
(Plotting speed under)
G1 F8000

G1X59.4198Y-368.3585
G1X62.9827Y-373.9510
G1X65.9132Y-379.0321
G1X73.4361Y-392.7588
G1 Z0F20000
(Start Block)

G1X54.4021Y-359.5734
G1Z5.5F20000
(Plotting speed under)
G1 F8000

G1X60.0769Y-367.5720
G1X63.8198Y-373.3800
G1X66.9193Y-378.7543
G1X74.5889Y-392.9100
G1 Z0F20000
(Start Block)

G1X54.4021Y-357.9859
G1Z5.5F20000
(Plotting speed under)
G1 F8000

G1X60.8505Y-366.9525
G1X62.8800Y-369.9774
G1X64.7718Y-372.9873
G1X67.9831Y-378.5628
G1X73.4007Y-388.7886
G1X75.7438Y-393.0431
G1 Z0F20000
(Start Block)

G1X54.4021Y-356.3984
G1Z5.5F20000
(Plotting speed under)
G1 F8000

G1X61.6817Y-366.4218
G1X63.7722Y-369.5105
G1X65.7239Y-372.5931
G1X69.0478Y-378.3642
G1X74.5051Y-388.7860
G1X76.9008Y-393.1611
G1 Z0F20000
(Start Block)

G1X54.4021Y-354.8109
G1Z5.5F20000
(Plotting speed under)
G1 F8000

G1X62.5113Y-365.9034
G1X64.6632Y-369.0529
G1X66.7327Y-372.2954
G1X70.1687Y-378.2648
G1X75.5009Y-388.5625
G1X77.7798Y-392.7670
G1 Z0F20000
(Start Block)

G1X54.4021Y-353.2234
G1Z5.5F20000
(Plotting speed under)
G1 F8000

G1X63.4559Y-365.5658
G1X65.7265Y-368.8670
G1X67.7984Y-372.0932
G1X69.5580Y-375.0402
G1X71.2349Y-378.0584
G1X76.5547Y-388.4272
G1X78.9424Y-392.8505
G1 Z0F20000
(Start Block)

G1X54.4021Y-351.6359
G1Z5.5F20000
(Plotting speed under)
G1 F8000

G1X64.5162Y-365.4037
G1X66.7895Y-368.6844
G1X68.8643Y-371.8889
G1X70.6258Y-374.8234
G1X72.3583Y-377.9446
G1X77.6675Y-388.3736
G1X80.1097Y-392.9058
G1 Z0F20000
(Start Block)

G1X54.4021Y-350.0484
G1Z5.5F20000
(Plotting speed under)
G1 F8000

G1X59.0961Y-356.5352
G1X65.7521Y-365.4880
G1X68.0273Y-368.7541
G1X69.9891Y-371.7643
G1X71.7523Y-374.6871
G1X73.4293Y-377.7050
G1X78.7861Y-388.2819
G1X81.2835Y-392.9188
G1 Z0F20000
(Start Block)

G1X54.4021Y-348.4609
G1Z5.5F20000
(Plotting speed under)
G1 F8000

G1X59.9758Y-356.1674
G1X67.0484Y-365.6397
G1X69.2679Y-368.8014
G1X71.1746Y-371.7039
G1X72.9395Y-374.6154
G1X74.6165Y-377.6335
G1X79.9225Y-388.1496
G1X82.4662Y-392.8716
G1 Z0F20000
(Start Block)

G1X54.4021Y-346.8734
G1Z5.5F20000
(Plotting speed under)
G1 F8000

G1X60.9304Y-355.8885
G1X68.5247Y-366.0012
G1X70.6297Y-368.9781
G1X72.4232Y-371.6875
G1X74.1334Y-374.4898
G1X75.8116Y-377.5000
G1X81.0527Y-387.8969
G1X83.6606Y-392.7426
G1 Z0F20000
(Start Block)

G1X54.4021Y-345.2859
G1Z5.5F20000
(Plotting speed under)
G1 F8000

G1X61.9616Y-355.6843
G1X70.0815Y-366.4040
G1X73.6804Y-371.6000
G1X75.3938Y-374.3807
G1X77.0740Y-377.3785
G1X82.3732Y-387.8633
G1X85.1507Y-392.9994
G1 Z0F20000
(Start Block)

G1X54.4021Y-343.6984
G1Z5.5F20000
(Plotting speed under)
G1 F8000

G1X63.2194Y-355.7295
G1X71.7963Y-366.9140
G1X75.0652Y-371.5865
G1X76.7816Y-374.3462
G1X78.4639Y-377.3306
G1X83.7706Y-387.7735
G1X86.6611Y-393.1036
G1 Z0F20000
(Start Block)

G1X54.4021Y-342.1109
G1Z5.5F20000
(Plotting speed under)
G1 F8000

G1X57.2135Y-345.7595
G1X64.7079Y-355.9889
G1X73.4528Y-367.1924
G1X76.4671Y-371.4268
G1X78.2459Y-374.2418
G1X79.9325Y-377.1990
G1X85.3068Y-387.6757
G1X88.1984Y-392.9998
G1 Z0F20000
(Start Block)

G1X54.4021Y-340.5234
G1Z5.5F20000
(Plotting speed under)
G1 F8000

G1X57.8186Y-344.8237
G1X65.8402Y-355.6497
G1X74.7588Y-366.8184
G1X78.0649Y-371.3312
G1X79.9069Y-374.1959
G1X81.6545Y-377.2207
G1X87.1010Y-387.7048
G1X90.0512Y-393.1135
G1 Z0F20000
(Start Block)

G1X54.4021Y-338.9359
G1Z5.5F20000
(Plotting speed under)
G1 F8000

G1X56.4249Y-341.2999
G1X58.4321Y-343.8084
G1X67.8785Y-356.3000
G1X76.6065Y-366.8962
G1X79.8660Y-371.2276
G1X81.7730Y-374.1274
G1X83.6399Y-377.3049
G1X89.1089Y-387.6577
G1X91.9497Y-392.8511
G1 Z0F20000
(Start Block)

G1X54.4021Y-337.3484
G1Z5.5F20000
(Plotting speed under)
G1 F8000

G1X56.5882Y-339.7546
G1X58.6830Y-342.2348
G1X69.3467Y-355.9752
G1X72.4076Y-359.6671
G1X78.6335Y-366.8623
G1X81.8786Y-371.0262
G1X83.9109Y-374.0294
G1X85.8998Y-377.3408
G1X94.4665Y-393.0902
G1 Z0F20000
(Start Block)

G1X54.4021Y-335.7608
G1Z5.5F20000
(Plotting speed under)
G1 F8000

G1X57.1321Y-338.5789
G1X59.7643Y-341.5459
G1X62.4498Y-344.8069
G1X71.5889Y-356.2761
G1X74.5895Y-359.7421
G1X80.9223Y-366.7083
G1X84.1992Y-370.7402
G1X86.3882Y-373.8690
G1X88.6163Y-377.4780
G1X97.3382Y-393.1635
G1 Z0F20000
(Start Block)

G1X54.4021Y-334.1733
G1Z5.5F20000
(Plotting speed under)
G1 F8000

G1X57.8352Y-337.4654
G1X61.0884Y-340.9128
G1X64.6892Y-345.0703
G1X71.2501Y-353.0752
G1X74.0207Y-356.3293
G1X77.0378Y-359.6314
G1X83.4821Y-366.3034
G1X85.2123Y-368.2480
G1X86.7782Y-370.1559
G1X89.2759Y-373.5678
G1X91.8657Y-377.5997
G1X95.1456Y-383.1944
G1X100.5878Y-392.8294
G1 Z0F20000
(Start Block)

G1X54.4021Y-332.5858
G1Z5.5F20000
(Plotting speed under)
G1 F8000

G1X59.0060Y-336.6550
G1X63.2686Y-340.8620
G1X67.2698Y-345.2010
G1X73.9421Y-352.9521
G1X76.6532Y-355.9672
G1X79.7640Y-359.1597
G1X86.3221Y-365.4858
G1X88.1387Y-367.4007
G1X89.8657Y-369.3778
G1X92.9450Y-373.3562
G1X96.1961Y-378.1660
G1X100.0769Y-384.4882
G1X105.0976Y-393.1540
G1 Z0F20000
(Start Block)

G1X54.4021Y-329.4108
G1Z5.5F20000
(Plotting speed under)
G1 F8000

G1X63.7166Y-336.0609
G1X69.0502Y-340.2154
G1X73.9634Y-344.5259
G1X81.2878Y-351.5455
G1X84.3520Y-354.3220
G1X87.4583Y-356.9082
G1X96.7257Y-364.2572
G1X100.5474Y-367.4881
G1X103.3835Y-370.0352
G1X106.9570Y-373.6109
G1X110.4864Y-377.6458
G1X113.7517Y-381.7835
G1X119.7178Y-389.7865
G1X122.4734Y-393.1778
G1 Z0F20000

G00 X0.0000 Y0.0000

