$H
G21
G17
G90
G1 Z0F20000
G1 F15000

(Start Layer)

(Start Block)


G1X19.1663Y-106.7989
G1Z6F20000
(Plotting speed under)
G1 F4000


G1X20.8538Y-107.3809

G1X22.0450Y-107.6982

G1X23.2197Y-107.8803

G1X24.4936Y-107.9207

G1X26.6113Y-107.6468

G1X29.8871Y-106.7432

G1X31.0783Y-106.4869

G1X32.3687Y-106.3496

G1X33.6427Y-106.3892

G1X34.6519Y-106.5844

G1X35.5453Y-106.9203

G1X36.4511Y-107.4400

G1X38.2255Y-108.6708

G1X38.7218Y-108.8939

G1X39.2181Y-108.9843

G1X40.0123Y-108.7934

G1X41.9231Y-107.4690

G1X42.3947Y-107.2885

G1X42.7917Y-107.2330

G1X43.4866Y-107.3398

G1X45.0749Y-107.8701

G1X46.1502Y-107.9877

G1X48.9297Y-107.8176

G1X51.4775Y-107.7876

G1X54.2570Y-107.8128

G1X56.9207Y-107.9825

G1X57.5824Y-107.8797

G1X58.8729Y-107.3477

G1X59.4685Y-107.2356

G1X59.8656Y-107.3593

G1X60.2406Y-107.6049

G1X61.4759Y-108.8430

G1X61.9502Y-108.9699

G1X62.3175Y-108.8392

G1X62.6649Y-108.4890

G1X64.2694Y-106.1765

G1X64.6304Y-105.9078

G1X65.0274Y-105.7878

G1X65.3252Y-105.8271

G1X65.8092Y-106.0618

G1X66.9576Y-107.0366

G1X67.3106Y-107.2422

G1X68.6010Y-107.6280

G1X69.6599Y-107.7554

G1X70.6856Y-107.6665

G1X71.8768Y-107.3910

G1X74.2592Y-105.9901

G1X74.8714Y-105.8084

G1X75.4504Y-105.8165

G1X76.0460Y-106.0403

G1X76.5796Y-106.4209

G1X78.1604Y-108.0699

G1X78.7704Y-108.6069

G1X79.2226Y-108.8623

G1X79.7189Y-108.9826

G1X80.5130Y-108.8235

G1X82.3122Y-107.7400

G1X83.2925Y-107.3455

G1X84.3679Y-107.2345

G1X85.8734Y-107.3771

G1 Z0F20000

(Start Block)


G1X19.1663Y-105.0881
G1Z6F20000
(Plotting speed under)
G1 F4000


G1X22.2435Y-106.0721

G1X23.3355Y-106.2602

G1X24.3778Y-106.3053

G1X26.2142Y-106.0695

G1X29.4900Y-105.0851

G1X30.8797Y-104.7932

G1X33.0636Y-104.6555

G1X35.4460Y-104.7442

G1X36.3394Y-104.9524

G1X37.1335Y-105.3314

G1X37.9277Y-105.9289

G1X39.6648Y-107.5093

G1X40.1115Y-107.7490

G1X40.6079Y-107.8363

G1X41.0049Y-107.7547

G1X41.4020Y-107.5587

G1X43.0895Y-106.3052

G1X43.4866Y-106.1437

G1X43.8837Y-106.0902

G1X44.4793Y-106.1637

G1X46.2660Y-106.7376

G1X47.3083Y-106.8418

G1X52.0566Y-106.6628

G1X56.5732Y-106.8352

G1X57.3839Y-106.6814

G1X58.6744Y-106.1408

G1X59.1707Y-106.1008

G1X59.4685Y-106.1782

G1X59.8159Y-106.4132

G1X61.0568Y-107.6546

G1X61.5531Y-107.8351

G1X61.9005Y-107.6648

G1X62.3014Y-107.2405

G1X63.6377Y-105.0719

G1X63.9851Y-104.7678

G1X64.3326Y-104.6410

G1X64.6304Y-104.7053

G1X65.0274Y-104.9758

G1X66.2782Y-106.4167

G1X67.1120Y-107.1454

G1X68.4025Y-107.5795

G1X69.3124Y-107.7400

G1X70.4705Y-107.6996

G1X71.9761Y-107.3535

G1X74.3213Y-105.1503

G1X74.8548Y-104.8066

G1X75.3512Y-104.6502

G1X75.8475Y-104.6898

G1X76.4059Y-104.9656

G1X76.9791Y-105.4708

G1X78.6160Y-107.2889

G1X79.1233Y-107.6508

G1X79.6196Y-107.8234

G1X80.0167Y-107.8215

G1X80.5130Y-107.6813

G1X82.3122Y-106.6052

G1X83.2925Y-106.2126

G1X84.3679Y-106.0870

G1X85.8734Y-106.1954

G1 Z0F20000

(Start Block)


G1X19.1663Y-103.6916
G1Z6F20000
(Plotting speed under)
G1 F4000


G1X22.4420Y-104.6905

G1X23.3355Y-104.8478

G1X24.2620Y-104.8977

G1X25.1223Y-104.8365

G1X26.0157Y-104.6694

G1X28.7951Y-103.7935

G1X30.0856Y-103.5299

G1X31.2106Y-103.5085

G1X34.2217Y-103.8109

G1X35.1482Y-103.7550

G1X36.8854Y-103.5047

G1X37.5306Y-103.5179

G1X38.1262Y-103.6778

G1X38.6998Y-104.0075

G1X39.3869Y-104.6374

G1X40.7940Y-106.2018

G1X41.3151Y-106.5740

G1X41.7991Y-106.6864

G1X42.3947Y-106.5252

G1X44.0946Y-105.2286

G1X44.8763Y-104.9499

G1X45.5712Y-105.0028

G1X47.1595Y-105.5065

G1X48.2348Y-105.6795

G1X52.4040Y-105.5862

G1X55.6467Y-105.6957

G1X56.6890Y-105.5792

G1X57.9795Y-105.0802

G1X58.6744Y-104.9392

G1X58.9722Y-105.0081

G1X59.3692Y-105.2316

G1X60.6266Y-106.5087

G1X61.0568Y-106.6755

G1X61.3546Y-106.6045

G1X61.6689Y-106.3530

G1X63.0973Y-104.0003

G1X63.4833Y-103.6028

G1X63.8362Y-103.5007

G1X64.1340Y-103.6074

G1X64.4589Y-103.8730

G1X65.7918Y-105.8915

G1X66.9576Y-107.0406

G1X67.3106Y-107.2422

G1X68.4025Y-107.5795

G1X69.6599Y-107.7554

G1X70.7849Y-107.6394

G1X71.4356Y-107.3505

G1X72.3235Y-106.4949

G1X74.2923Y-104.1213

G1X74.8548Y-103.6763

G1X75.3512Y-103.5011

G1X75.8475Y-103.5678

G1X76.2997Y-103.8225

G1X76.9097Y-104.4157

G1X78.4036Y-106.1490

G1X78.9248Y-106.5268

G1X79.4211Y-106.6802

G1X79.8182Y-106.6702

G1X80.3145Y-106.5086

G1X82.1013Y-105.4431

G1X83.0940Y-105.0600

G1X84.1362Y-104.9401

G1X85.8734Y-105.0590

G1 Z0F20000

(Start Block)


G1X19.1663Y-102.4796
G1Z6F20000
(Plotting speed under)
G1 F4000


G1X22.4420Y-103.5106

G1X23.3355Y-103.6803

G1X24.2620Y-103.7310

G1X25.1223Y-103.6574

G1X25.9164Y-103.4901

G1X28.9937Y-102.4598

G1X29.5893Y-102.3632

G1X30.2841Y-102.3642

G1X31.3761Y-102.6162

G1X33.7585Y-103.5693

G1X34.9166Y-103.7553

G1X36.0416Y-103.5768

G1X38.3247Y-102.4910

G1X39.1189Y-102.3506

G1X39.6152Y-102.4821

G1X40.0895Y-102.7855

G1X40.7071Y-103.4317

G1X41.9579Y-104.9956

G1X42.3574Y-105.3284

G1X42.7917Y-105.5262

G1X43.1888Y-105.5158

G1X43.5735Y-105.3719

G1X45.2237Y-104.1008

G1X45.6705Y-103.8868

G1X46.0675Y-103.8047

G1X46.7624Y-103.8548

G1X48.3506Y-104.3190

G1X49.3929Y-104.5016

G1X54.3728Y-104.5496

G1X55.8949Y-104.4377

G1X57.6817Y-103.8562

G1X58.0788Y-103.7936

G1X58.4758Y-103.8581

G1X58.8509Y-104.0414

G1X60.0862Y-105.2746

G1X60.6597Y-105.5389

G1X60.9972Y-105.4318

G1X61.4141Y-104.9859

G1X62.8270Y-102.6442

G1X63.1414Y-102.4115

G1X63.4392Y-102.3657

G1X63.7767Y-102.5202

G1X64.1241Y-102.9190

G1X65.6154Y-105.4641

G1X66.4172Y-106.4755

G1X67.3106Y-107.0573

G1X67.9062Y-107.2195

G1X68.6176Y-107.2823

G1X69.3952Y-107.2421

G1X70.0900Y-107.0943

G1X70.6732Y-106.8497

G1X71.1944Y-106.5073

G1X72.1024Y-105.5890

G1X73.9975Y-103.0233

G1X74.4950Y-102.5737

G1X74.9541Y-102.3691

G1X75.4504Y-102.4038

G1X75.8847Y-102.6590

G1X76.3538Y-103.1071

G1X77.9211Y-104.9944

G1X78.4284Y-105.3717

G1X78.9248Y-105.5366

G1X79.7189Y-105.4018

G1X81.6174Y-104.2728

G1X82.5976Y-103.9050

G1X83.9046Y-103.7967

G1X85.8734Y-103.9762

G1 Z0F20000

(Start Block)


G1X19.1663Y-101.3815
G1Z6F20000
(Plotting speed under)
G1 F4000


G1X22.4420Y-102.5684

G1X23.3355Y-102.7545

G1X24.2620Y-102.8083

G1X25.1223Y-102.7240

G1X26.0157Y-102.5007

G1X28.8944Y-101.3297

G1X29.5893Y-101.2058

G1X30.1683Y-101.2363

G1X30.7805Y-101.4153

G1X31.3264Y-101.6909

G1X33.8577Y-103.4671

G1X34.3541Y-103.6942

G1X34.8008Y-103.7622

G1X35.7438Y-103.6598

G1X36.6372Y-103.3421

G1X38.5233Y-102.4059

G1X39.8385Y-101.3605

G1X40.5086Y-101.2054

G1X40.9677Y-101.3524

G1X41.4020Y-101.6826

G1X43.1778Y-103.9199

G1X43.5859Y-104.2461

G1X43.9829Y-104.3858

G1X44.2807Y-104.3826

G1X44.6778Y-104.2252

G1X46.2660Y-103.0228

G1X46.7624Y-102.7742

G1X47.1925Y-102.6656

G1X47.9536Y-102.6897

G1X50.5511Y-103.2744

G1X52.7515Y-103.3755

G1X55.0015Y-103.2437

G1X57.0861Y-102.6912

G1X57.4832Y-102.6503

G1X57.9795Y-102.7265

G1X58.3393Y-102.9126

G1X59.6422Y-104.1097

G1X60.1634Y-104.3928

G1X60.5604Y-104.2923

G1X60.9161Y-103.9913

G1X62.2480Y-101.7664

G1X62.7112Y-101.2968

G1X63.0297Y-101.2033

G1X63.3771Y-101.3593

G1X63.7535Y-101.7415

G1X65.2590Y-104.3432

G1X66.0311Y-105.3418

G1X66.5164Y-105.7332

G1X66.9135Y-105.9325

G1X67.4098Y-106.0835

G1X68.1543Y-106.1656

G1X68.9650Y-106.1370

G1X69.5937Y-106.0204

G1X70.1893Y-105.7897

G1X70.7408Y-105.4336

G1X71.6602Y-104.4738

G1X73.5203Y-101.8524

G1X73.9835Y-101.4126

G1X74.4578Y-101.2143

G1X74.9293Y-101.2788

G1X75.3636Y-101.5734

G1X77.2262Y-103.8305

G1X77.7336Y-104.2253

G1X78.2299Y-104.3920

G1X78.6270Y-104.3662

G1X79.0240Y-104.2366

G1X80.8356Y-103.1176

G1X81.9028Y-102.7263

G1X83.2098Y-102.6611

G1X85.8734Y-102.9627

G1 Z0F20000

(Start Block)


G1X19.1663Y-100.4215
G1Z6F20000
(Plotting speed under)
G1 F4000


G1X22.3428Y-101.8153

G1X23.3355Y-102.0449

G1X24.3778Y-102.1013

G1X25.3208Y-101.9817

G1X26.2142Y-101.7105

G1X29.1922Y-100.1921

G1X29.7051Y-100.0705

G1X30.2841Y-100.0862

G1X30.8797Y-100.2986

G1X31.5002Y-100.7181

G1X33.4496Y-102.6382

G1X34.1928Y-103.2645

G1X34.8504Y-103.6566

G1X35.2475Y-103.7563

G1X36.4387Y-103.4284

G1X38.5233Y-102.4059

G1X39.3174Y-101.7169

G1X40.0123Y-101.2486

G1X40.7940Y-100.4182

G1X41.1414Y-100.1785

G1X41.5013Y-100.0633

G1X41.8983Y-100.1109

G1X42.3285Y-100.3687

G1X42.8549Y-100.9350

G1X44.1814Y-102.7162

G1X44.7026Y-103.1289

G1X45.1741Y-103.2479

G1X45.8318Y-103.0475

G1X47.6558Y-101.7555

G1X48.1521Y-101.5745

G1X48.6981Y-101.5017

G1X49.3433Y-101.5460

G1X51.4775Y-101.9260

G1X52.8673Y-102.0095

G1X54.4059Y-101.9074

G1X56.4905Y-101.5130

G1X57.0861Y-101.5246

G1X57.4832Y-101.6334

G1X57.9795Y-101.9144

G1X59.3816Y-103.1173

G1X59.9648Y-103.2318

G1X60.3023Y-103.0670

G1X60.7193Y-102.6013

G1X62.1216Y-100.3884

G1X62.4465Y-100.1374

G1X62.7443Y-100.0645

G1X63.0973Y-100.1870

G1X63.5605Y-100.6799

G1X64.9740Y-103.0136

G1X65.8092Y-104.0617

G1X66.2434Y-104.4075

G1X66.7150Y-104.6580

G1X67.3106Y-104.8249

G1X67.9227Y-104.8763

G1X69.0974Y-104.7050

G1X69.6930Y-104.4368

G1X70.1231Y-104.1363

G1X71.0285Y-103.1806

G1X72.8254Y-100.6741

G1X73.2886Y-100.2433

G1X73.7629Y-100.0633

G1X74.1476Y-100.1157

G1X74.5818Y-100.4067

G1X76.4541Y-102.7357

G1X76.8402Y-103.0547

G1X77.3365Y-103.2385

G1X77.7336Y-103.2245

G1X78.1306Y-103.0762

G1X79.9174Y-101.9215

G1X80.4138Y-101.6956

G1X81.0094Y-101.5428

G1X82.0517Y-101.5201

G1X85.8734Y-102.0063

G1 Z0F20000

(Start Block)


G1X19.1663Y-99.6566
G1Z6F20000
(Plotting speed under)
G1 F4000


G1X21.0523Y-100.7047

G1X22.1443Y-101.1708

G1X23.3355Y-101.4526

G1X24.6094Y-101.5042

G1X25.6186Y-101.3592

G1X26.5120Y-101.0636

G1X27.5047Y-100.5232

G1X29.5024Y-99.1498

G1X30.0856Y-98.9380

G1X30.6812Y-98.9414

G1X31.2396Y-99.1744

G1X31.8129Y-99.6334

G1X33.6890Y-101.8618

G1X34.5402Y-102.6842

G1X35.4460Y-103.2354

G1X36.2401Y-103.4183

G1X36.7365Y-103.3142

G1X38.6225Y-102.3441

G1X39.3174Y-101.7169

G1X40.0818Y-101.1845

G1X41.9424Y-99.1758

G1X42.2954Y-98.9722

G1X42.5932Y-98.9113

G1X43.0523Y-99.0420

G1X43.5498Y-99.4568

G1X44.8132Y-101.1638

G1X45.3396Y-101.7348

G1X45.7697Y-102.0146

G1X46.1668Y-102.1025

G1X46.4646Y-102.0699

G1X46.9609Y-101.8528

G1X48.2638Y-100.9348

G1X48.8470Y-100.6183

G1X49.4426Y-100.4272

G1X50.2036Y-100.3545

G1X52.9831Y-100.5313

G1X55.6467Y-100.3561

G1X56.4905Y-100.4170

G1X57.3839Y-100.7900

G1X58.8729Y-101.9252

G1X59.2700Y-102.0910

G1X59.5554Y-102.0904

G1X59.9028Y-101.9385

G1X60.2897Y-101.5916

G1X61.4462Y-99.8133

G1X61.9391Y-99.2085

G1X62.2480Y-98.9776

G1X62.6450Y-98.9269

G1X63.0123Y-99.0837

G1X63.3598Y-99.4217

G1X64.9116Y-101.6571

G1X65.6528Y-102.4952

G1X66.5164Y-103.0620

G1X67.3436Y-103.2582

G1X67.9062Y-103.2360

G1X68.4025Y-103.1173

G1X69.3510Y-102.5855

G1X70.1694Y-101.7700

G1X71.9066Y-99.5128

G1X72.4104Y-99.0799

G1X72.8695Y-98.9157

G1X73.2666Y-98.9779

G1X73.6747Y-99.2487

G1X74.1870Y-99.8034

G1X75.4504Y-101.4579

G1X75.9909Y-101.9528

G1X76.3438Y-102.0943

G1X77.0387Y-101.9766

G1X78.8379Y-100.7398

G1X79.4211Y-100.4830

G1X79.9174Y-100.3748

G1X80.6619Y-100.3723

G1X83.5903Y-100.8628

G1X85.8734Y-101.0363

G1 Z0F20000

(Start Block)


G1X19.1663Y-99.0843
G1Z6F20000
(Plotting speed under)
G1 F4000


G1X20.7545Y-100.0369

G1X22.0450Y-100.5511

G1X23.5671Y-100.7985

G1X25.4201Y-100.7766

G1X26.4128Y-100.6007

G1X27.3062Y-100.2581

G1X28.2768Y-99.6215

G1X30.1104Y-98.0701

G1X30.6812Y-97.8062

G1X31.1775Y-97.7779

G1X31.7511Y-98.0136

G1X32.2915Y-98.4945

G1X34.2007Y-100.9973

G1X35.0710Y-101.8629

G1X35.5825Y-102.1960

G1X36.1409Y-102.4316

G1X36.7696Y-102.5698

G1X37.4644Y-102.6142

G1X38.0269Y-102.5628

G1X38.5233Y-102.4004

G1X39.3174Y-101.7169

G1X39.9254Y-101.3199

G1X41.3325Y-99.8099

G1X42.5833Y-98.2077

G1X42.9903Y-97.8936

G1X43.3873Y-97.7641

G1X43.7844Y-97.8421

G1X44.1814Y-98.1021

G1X46.0576Y-100.4182

G1X46.5639Y-100.8033

G1X47.0602Y-100.9571

G1X47.8543Y-100.7720

G1X49.4426Y-99.7926

G1X50.2367Y-99.4467

G1X51.2459Y-99.2479

G1X52.6357Y-99.2068

G1X54.8361Y-99.2240

G1X55.8949Y-99.3684

G1X56.7759Y-99.7162

G1X58.5751Y-100.8621

G1X58.9722Y-100.9509

G1X59.2700Y-100.9273

G1X59.7001Y-100.7102

G1X60.1634Y-100.2555

G1X61.6400Y-98.2291

G1X62.0742Y-97.8748

G1X62.4465Y-97.7656

G1X62.8436Y-97.8478

G1X63.2517Y-98.1127

G1X64.8885Y-99.9646

G1X65.5679Y-100.5918

G1X66.2186Y-100.9769

G1X66.9135Y-101.1494

G1X67.7076Y-101.0568

G1X68.5017Y-100.6598

G1X69.2661Y-100.0051

G1X70.9724Y-98.1767

G1X71.4798Y-97.8531

G1X71.8768Y-97.7614

G1X72.2739Y-97.8556

G1X72.6709Y-98.1178

G1X74.0607Y-99.6538

G1X74.6924Y-100.5057

G1X75.1030Y-100.8354

G1X75.4504Y-100.9589

G1X75.7482Y-100.9231

G1X76.2322Y-100.6887

G1X77.8328Y-99.5023

G1X78.2299Y-99.3241

G1X78.7262Y-99.2203

G1X79.6196Y-99.2748

G1X81.4064Y-99.6827

G1X82.5149Y-99.8471

G1X85.8734Y-99.9627

G1 Z0F20000

(Start Block)


G1X19.1663Y-98.5963
G1Z6F20000
(Plotting speed under)
G1 F4000


G1X20.5560Y-99.3625

G1X21.9457Y-99.7434

G1X25.8833Y-99.8133

G1X27.1076Y-99.7339

G1X27.8025Y-99.5488

G1X28.4601Y-99.2143

G1X29.1260Y-98.6954

G1X30.9018Y-96.9532

G1X31.4754Y-96.6547

G1X31.8724Y-96.6250

G1X32.3687Y-96.8093

G1X32.9092Y-97.2867

G1X34.8324Y-99.8917

G1X35.6887Y-100.7508

G1X36.1409Y-101.0498

G1X36.7365Y-101.3030

G1X37.3486Y-101.4348

G1X38.0435Y-101.4756

G1X39.3174Y-101.2799

G1X39.8137Y-101.0671

G1X40.3597Y-100.6991

G1X41.2630Y-99.7460

G1X43.1392Y-97.1699

G1X43.5859Y-96.7907

G1X44.0822Y-96.6173

G1X44.4793Y-96.6912

G1X45.0153Y-97.0533

G1X46.9609Y-99.3365

G1X47.4821Y-99.6815

G1X47.9536Y-99.8063

G1X48.7477Y-99.6676

G1X50.4352Y-98.8103

G1X51.3286Y-98.4749

G1X52.3213Y-98.2820

G1X53.4463Y-98.2216

G1X54.4886Y-98.2795

G1X55.4978Y-98.4788

G1X56.3912Y-98.8256

G1X57.9795Y-99.6632

G1X58.4758Y-99.7993

G1X58.8729Y-99.7918

G1X59.3692Y-99.5982

G1X59.7773Y-99.2757

G1X61.6400Y-97.0659

G1X62.0742Y-96.7533

G1X62.5458Y-96.6200

G1X62.9428Y-96.6640

G1X63.3399Y-96.8357

G1X64.9406Y-98.0135

G1X65.5238Y-98.3586

G1X66.1194Y-98.5692

G1X66.6157Y-98.6208

G1X67.2113Y-98.5302

G1X67.8938Y-98.2342

G1X69.9907Y-96.7803

G1X70.4871Y-96.6221

G1X70.8842Y-96.6492

G1X71.2812Y-96.8152

G1X71.5900Y-97.0683

G1X72.6709Y-98.1178

G1X73.9217Y-99.5511

G1X74.1600Y-99.7040

G1X74.4578Y-99.7724

G1X75.0162Y-99.6181

G1X76.7533Y-98.3011

G1X77.5350Y-98.0670

G1X78.3292Y-98.1363

G1X80.0167Y-98.5961

G1X81.1252Y-98.7647

G1X85.8734Y-98.7709

G1 Z0F20000

(Start Block)


G1X19.1663Y-98.0306
G1Z6F20000
(Plotting speed under)
G1 F4000


G1X20.1589Y-98.4651

G1X21.1516Y-98.6549

G1X22.0616Y-98.6381

G1X24.8410Y-98.3681

G1X27.7363Y-98.6585

G1X28.4973Y-98.6201

G1X28.9937Y-98.4738

G1X29.5893Y-98.1309

G1X30.2841Y-97.4929

G1X31.6739Y-95.9493

G1X32.1950Y-95.5796

G1X32.6665Y-95.4730

G1X33.1505Y-95.6041

G1X33.7585Y-96.1079

G1X35.5904Y-98.5228

G1X36.3835Y-99.3238

G1X37.3321Y-99.8832

G1X38.3909Y-100.1030

G1X38.9700Y-100.0915

G1X39.6152Y-99.9698

G1X40.1860Y-99.7466

G1X40.7071Y-99.4277

G1X41.6105Y-98.5734

G1X43.5638Y-96.0948

G1X44.1042Y-95.6460

G1X44.6778Y-95.4712

G1X45.1741Y-95.5857

G1X45.6484Y-95.9031

G1X47.2697Y-97.7163

G1X47.8295Y-98.2288

G1X48.3506Y-98.5351

G1X48.9462Y-98.6628

G1X49.8396Y-98.5203

G1X52.1228Y-97.7187

G1X53.5621Y-97.5437

G1X54.4886Y-97.6006

G1X55.2993Y-97.7610

G1X57.7810Y-98.6152

G1X58.6744Y-98.6151

G1X59.1707Y-98.4116

G1X59.6229Y-98.0981

G1X61.3215Y-96.3214

G1X61.8137Y-95.9015

G1X62.3472Y-95.5976

G1X62.9428Y-95.4701

G1X63.7370Y-95.5726

G1X65.3252Y-96.0517

G1X66.0697Y-96.1329

G1X66.9135Y-96.0314

G1X68.7996Y-95.4900

G1X69.5937Y-95.5476

G1X70.2389Y-95.9138

G1X73.0184Y-98.4483

G1X73.3658Y-98.6573

G1X73.6636Y-98.5977

G1X74.1379Y-98.2951

G1X75.4504Y-97.2374

G1X76.2611Y-96.9282

G1X76.9394Y-96.9599

G1X78.7262Y-97.4919

G1X79.8513Y-97.6535

G1X85.8734Y-97.5376

G1 Z0F20000

(Start Block)


G1X19.1663Y-97.2742
G1Z6F20000
(Plotting speed under)
G1 F4000


G1X19.9770Y-97.4848

G1X20.7876Y-97.5055

G1X21.5487Y-97.3796

G1X23.8318Y-96.7965

G1X25.3043Y-96.6702

G1X26.7105Y-96.8374

G1X28.8944Y-97.4597

G1X29.4735Y-97.5207

G1X29.8871Y-97.4706

G1X30.2841Y-97.3197

G1X30.5930Y-97.0783

G1X32.9092Y-94.6576

G1X33.3614Y-94.3937

G1X33.7585Y-94.3228

G1X34.1555Y-94.4261

G1X34.6850Y-94.7822

G1X36.4684Y-96.8464

G1X37.3197Y-97.6499

G1X38.2255Y-98.1665

G1X39.1189Y-98.3576

G1X40.1115Y-98.2427

G1X41.1414Y-97.7445

G1X42.0969Y-96.9190

G1X44.0270Y-94.8393

G1X44.5785Y-94.4711

G1X45.0749Y-94.3283

G1X45.6581Y-94.4145

G1X46.2660Y-94.7798

G1X48.0418Y-96.5598

G1X48.6981Y-97.0862

G1X49.3433Y-97.4014

G1X49.9720Y-97.5166

G1X50.7331Y-97.4660

G1X52.8176Y-97.0500

G1X53.7938Y-96.9754

G1X55.0015Y-97.0604

G1X57.2847Y-97.4953

G1X58.3766Y-97.4431

G1X58.9722Y-97.2277

G1X59.5554Y-96.8762

G1X61.3987Y-95.3064

G1X62.1611Y-94.7877

G1X63.0421Y-94.4415

G1X63.9851Y-94.3261

G1X66.9962Y-94.3257

G1X67.6084Y-94.3859

G1X68.2040Y-94.5549

G1X68.6755Y-94.7996

G1X70.1521Y-95.8656

G1X71.8217Y-97.3632

G1X72.0753Y-97.4819

G1X72.3732Y-97.4566

G1X72.7578Y-97.2963

G1X74.3213Y-96.0848

G1X74.7556Y-95.8662

G1X75.1526Y-95.7797

G1X75.7482Y-95.8136

G1X77.4358Y-96.3516

G1X78.4615Y-96.5118

G1X85.8734Y-96.3360

G1 Z0F20000

(Start Block)


G1X19.1663Y-96.3173
G1Z6F20000
(Plotting speed under)
G1 F4000


G1X19.8611Y-96.3711

G1X20.4567Y-96.2956

G1X23.5340Y-95.2380

G1X24.5267Y-95.0498

G1X25.6517Y-94.9831

G1X26.5782Y-95.0375

G1X27.5047Y-95.2078

G1X28.3981Y-95.5031

G1X30.0856Y-96.2415

G1X30.6812Y-96.3793

G1X30.9790Y-96.3628

G1X31.6739Y-95.9493

G1X32.4460Y-95.1152

G1X34.1928Y-93.4881

G1X34.6519Y-93.2369

G1X35.0489Y-93.1778

G1X35.4460Y-93.2603

G1X36.0168Y-93.5819

G1X37.7733Y-95.1807

G1X38.5357Y-95.7329

G1X39.3174Y-96.0786

G1X40.0123Y-96.1883

G1X40.8064Y-96.0912

G1X41.5757Y-95.7794

G1X42.3574Y-95.2658

G1X44.4420Y-93.5721

G1X44.9756Y-93.2989

G1X45.5712Y-93.1758

G1X46.2660Y-93.3055

G1X46.8741Y-93.6418

G1X48.8911Y-95.3929

G1X49.6535Y-95.9123

G1X50.4352Y-96.2325

G1X51.3617Y-96.3688

G1X54.1412Y-96.2641

G1X56.9207Y-96.3717

G1X57.9795Y-96.2625

G1X59.2700Y-95.7831

G1X61.4662Y-94.4013

G1X62.3472Y-93.9455

G1X63.4392Y-93.5987

G1X64.5642Y-93.4674

G1X65.8216Y-93.5487

G1X66.9135Y-93.8741

G1X68.5886Y-94.7451

G1X70.4995Y-96.1629

G1X70.9834Y-96.3036

G1X71.2812Y-96.2735

G1X71.6286Y-96.1065

G1X73.2790Y-94.8771

G1X74.0607Y-94.6263

G1X74.7556Y-94.6993

G1X76.2446Y-95.2034

G1X77.3034Y-95.3701

G1X81.0094Y-95.1972

G1X85.8734Y-95.1749

G1 Z0F20000

(Start Block)


G1X19.1663Y-95.2246
G1Z6F20000
(Plotting speed under)
G1 F4000


G1X19.7453Y-95.1864

G1X20.3575Y-95.0279

G1X22.4420Y-94.0967

G1X23.4347Y-93.7712

G1X24.6094Y-93.5820

G1X26.1149Y-93.5234

G1X27.7032Y-93.5940

G1X28.7951Y-93.7973

G1X29.6885Y-94.1332

G1X31.4754Y-95.0735

G1X32.2695Y-95.2234

G1X32.6004Y-95.0289

G1X33.8453Y-93.7938

G1X35.6693Y-92.3293

G1X36.0416Y-92.1302

G1X36.5379Y-92.0291

G1X36.9350Y-92.0760

G1X37.4313Y-92.2534

G1X39.1437Y-93.2933

G1X39.8137Y-93.6177

G1X40.4093Y-93.7970

G1X41.0546Y-93.8614

G1X41.6998Y-93.7901

G1X42.3947Y-93.5751

G1X45.1741Y-92.1782

G1X45.8028Y-92.0412

G1X46.4646Y-92.0682

G1X47.0602Y-92.2484

G1X47.6558Y-92.5608

G1X49.7404Y-94.0884

G1X50.7331Y-94.6583

G1X51.9242Y-95.0413

G1X53.3305Y-95.1911

G1X55.9942Y-95.1838

G1X57.6817Y-94.9849

G1X58.9722Y-94.6108

G1X61.9502Y-93.4069

G1X62.8436Y-93.1851

G1X63.6377Y-93.0979

G1X64.9282Y-93.2059

G1X66.6157Y-93.7615

G1X68.5017Y-94.6931

G1X69.1098Y-95.1442

G1X69.3952Y-95.2221

G1X70.1893Y-95.0512

G1X72.0753Y-93.7797

G1X72.5717Y-93.5566

G1X73.0184Y-93.4797

G1X73.6636Y-93.5494

G1X75.3512Y-94.1086

G1X76.2611Y-94.2284

G1X79.7355Y-94.0395

G1X85.8734Y-94.0310

G1 Z0F20000

(Start Block)


G1X19.1663Y-94.0742
G1Z6F20000
(Plotting speed under)
G1 F4000


G1X20.1589Y-93.8315

G1X21.9457Y-92.9243

G1X22.8391Y-92.5722

G1X23.7325Y-92.3868

G1X24.8410Y-92.3275

G1X28.7786Y-92.3305

G1X29.8871Y-92.4358

G1X31.0783Y-92.8397

G1X32.8651Y-93.8903

G1X33.4607Y-93.9620

G1X33.9322Y-93.7635

G1X35.5825Y-92.4123

G1X36.5379Y-91.7958

G1X37.2328Y-91.2221

G1X37.7291Y-90.9829

G1X38.2751Y-90.8845

G1X39.0196Y-90.9782

G1X41.1042Y-91.6581

G1X42.0969Y-91.7808

G1X43.2881Y-91.6393

G1X45.7697Y-90.9505

G1X46.4977Y-90.8829

G1X47.1595Y-90.9391

G1X48.4499Y-91.3802

G1X50.7331Y-92.7035

G1X51.8250Y-93.2154

G1X53.1155Y-93.5817

G1X54.6044Y-93.7459

G1X55.8784Y-93.7366

G1X57.0861Y-93.6216

G1X61.1560Y-92.7608

G1X62.8270Y-92.6297

G1X64.3326Y-92.8581

G1X67.0128Y-93.9020

G1X67.6084Y-94.0496

G1X68.1543Y-94.0731

G1X68.6010Y-93.9989

G1X69.1966Y-93.7615

G1X71.1820Y-92.5243

G1X71.9761Y-92.3298

G1X72.6709Y-92.4100

G1X74.2592Y-92.9345

G1X75.2188Y-93.0785

G1X78.5773Y-92.8903

G1X85.8734Y-92.8884

G1 Z0F20000

(Start Block)


G1X19.1663Y-92.9185
G1Z6F20000
(Plotting speed under)
G1 F4000


G1X20.0597Y-92.6593

G1X21.7472Y-91.7224

G1X22.4420Y-91.4177

G1X23.1369Y-91.2409

G1X23.9145Y-91.1822

G1X27.2731Y-91.3850

G1X30.4000Y-91.1892

G1X31.3761Y-91.2259

G1X31.9717Y-91.3640

G1X32.5673Y-91.6114

G1X34.3665Y-92.7235

G1X34.9497Y-92.8083

G1X35.3219Y-92.6591

G1X37.2328Y-91.2221

G1X37.9277Y-90.8440

G1X38.8211Y-90.1199

G1X39.4167Y-89.8471

G1X40.1281Y-89.7353

G1X43.3708Y-90.1139

G1X46.6135Y-89.7555

G1X47.8543Y-89.7757

G1X49.1448Y-90.0630

G1X52.3213Y-91.3690

G1X54.1081Y-91.8493

G1X56.2258Y-92.0137

G1X60.1634Y-91.7697

G1X61.6689Y-91.7956

G1X63.0421Y-92.0137

G1X65.5238Y-92.7680

G1X66.4172Y-92.9262

G1X67.1120Y-92.8935

G1X67.7076Y-92.7281

G1X69.8915Y-91.4895

G1X70.4871Y-91.2589

G1X70.9338Y-91.1878

G1X71.5790Y-91.2338

G1X73.3658Y-91.7884

G1X74.2923Y-91.9303

G1X77.7667Y-91.7408

G1X85.8734Y-91.7428

G1 Z0F20000

(Start Block)


G1X19.1663Y-91.7755
G1Z6F20000
(Plotting speed under)
G1 F4000


G1X20.0597Y-91.4974

G1X22.0450Y-90.3453

G1X23.0377Y-90.0622

G1X23.9145Y-90.0561

G1X26.4624Y-90.4203

G1X28.0837Y-90.4983

G1X29.5893Y-90.4162

G1X32.4846Y-90.0361

G1X33.1629Y-90.0997

G1X33.7585Y-90.2886

G1X35.7562Y-91.5436

G1X36.2401Y-91.7652

G1X36.5379Y-91.7850

G1X37.2328Y-91.2221

G1X38.0049Y-90.7868

G1X40.2108Y-89.0467

G1X41.0049Y-88.7009

G1X41.8652Y-88.5905

G1X44.5289Y-88.7591

G1X48.0032Y-88.5901

G1X49.5419Y-88.6823

G1X50.6338Y-88.8914

G1X53.4132Y-89.6663

G1X54.9022Y-89.9898

G1X56.3416Y-90.1829

G1X59.5678Y-90.4441

G1X60.9575Y-90.6539

G1X64.3326Y-91.6170

G1X65.3749Y-91.7837

G1X66.0201Y-91.7461

G1X66.7150Y-91.5570

G1X68.9981Y-90.3199

G1X70.0073Y-90.0421

G1X70.7849Y-90.0981

G1X72.5717Y-90.6366

G1X73.5975Y-90.7857

G1X77.0718Y-90.5947

G1X85.8734Y-90.5940

G1 Z0F20000

(Start Block)


G1X19.1663Y-90.6382
G1Z6F20000
(Plotting speed under)
G1 F4000


G1X20.0597Y-90.3752

G1X22.0450Y-89.1534

G1X22.6406Y-88.9515

G1X23.2197Y-88.8897

G1X24.0303Y-88.9691

G1X26.4128Y-89.4343

G1X28.5470Y-89.5545

G1X30.7474Y-89.4492

G1X33.4607Y-88.9313

G1X34.3375Y-88.9079

G1X35.3219Y-89.2432

G1X37.1459Y-90.4700

G1X37.6299Y-90.6324

G1X37.9277Y-90.6364

G1X38.2751Y-90.4811

G1X39.2305Y-89.8252

G1X40.7071Y-88.4552

G1X41.4020Y-87.9342

G1X42.1961Y-87.5823

G1X43.1392Y-87.4454

G1X46.1502Y-87.5698

G1X50.2036Y-87.4469

G1X52.3213Y-87.6348

G1X59.0714Y-88.9121

G1X60.7590Y-89.4091

G1X63.4392Y-90.4141

G1X64.5642Y-90.6340

G1X65.2260Y-90.6040

G1X65.9208Y-90.4190

G1X68.3032Y-89.1511

G1X69.3124Y-88.8938

G1X70.0900Y-88.9513

G1X71.9761Y-89.4956

G1X73.0184Y-89.6383

G1X76.8402Y-89.4462

G1X85.8734Y-89.4432

G1 Z0F20000

(Start Block)


G1X19.1663Y-89.4921
G1Z6F20000
(Plotting speed under)
G1 F4000


G1X19.5633Y-89.4539

G1X20.0348Y-89.2851

G1X22.0450Y-87.9820

G1X22.5413Y-87.8064

G1X23.1038Y-87.7438

G1X23.7325Y-87.8092

G1X26.3466Y-88.3872

G1X29.1260Y-88.4924

G1X31.9717Y-88.3935

G1X32.9643Y-88.2257

G1X34.6519Y-87.7991

G1X35.4460Y-87.7566

G1X35.9423Y-87.8689

G1X36.4387Y-88.1098

G1X38.2255Y-89.3490

G1X38.6225Y-89.4773

G1X39.0196Y-89.4739

G1X39.4911Y-89.3111

G1X40.0123Y-88.9424

G1X41.5564Y-87.4138

G1X42.3574Y-86.7949

G1X43.1888Y-86.4305

G1X44.1814Y-86.2972

G1X47.7716Y-86.4748

G1X52.7515Y-86.3026

G1X55.6964Y-86.5797

G1X57.2847Y-86.8925

G1X58.7736Y-87.3183

G1X60.1634Y-87.8677

G1X62.8436Y-89.1623

G1X63.5384Y-89.3931

G1X64.2333Y-89.4926

G1X64.8289Y-89.4461

G1X65.4245Y-89.2737

G1X67.7076Y-88.0372

G1X68.3032Y-87.8262

G1X68.8492Y-87.7460

G1X69.5937Y-87.8058

G1X71.5790Y-88.3532

G1X72.6709Y-88.4929

G1X76.7244Y-88.3018

G1X85.8734Y-88.2979

G1 Z0F20000

(Start Block)


G1X19.1663Y-88.3300
G1Z6F20000
(Plotting speed under)
G1 F4000


G1X19.5633Y-88.3290

G1X20.0348Y-88.1817

G1X21.8589Y-86.9131

G1X22.7564Y-86.6079

G1X23.5340Y-86.6501

G1X25.3208Y-87.1381

G1X26.3466Y-87.3005

G1X31.5581Y-87.3513

G1X33.3614Y-87.2403

G1X35.5453Y-86.6648

G1X36.1905Y-86.5983

G1X36.7365Y-86.6946

G1X37.2328Y-86.9247

G1X39.0196Y-88.2054

G1X39.3174Y-88.3130

G1X39.7145Y-88.3376

G1X40.1860Y-88.2009

G1X40.7071Y-87.8493

G1X42.3285Y-86.2367

G1X43.0523Y-85.6688

G1X43.8837Y-85.2876

G1X44.8763Y-85.1501

G1X48.9297Y-85.4657

G1X54.2570Y-85.1534

G1X55.6467Y-85.1830

G1X56.7883Y-85.3130

G1X57.9795Y-85.5805

G1X59.0714Y-85.9711

G1X60.1634Y-86.5100

G1X62.6450Y-87.9624

G1X63.3399Y-88.2332

G1X63.9851Y-88.3433

G1X64.5311Y-88.3105

G1X65.1267Y-88.1417

G1X67.4098Y-86.8897

G1X67.9062Y-86.7054

G1X68.5017Y-86.6011

G1X69.2959Y-86.6528

G1X71.2812Y-87.1819

G1X72.5551Y-87.3451

G1X77.1876Y-87.1578

G1X85.8734Y-87.1779

G1 Z0F20000

(Start Block)


G1X19.1663Y-87.1581
G1Z6F20000
(Plotting speed under)
G1 F4000


G1X19.5633Y-87.1926

G1X20.0348Y-87.0676

G1X21.8589Y-85.7559

G1X22.3428Y-85.5409

G1X22.7564Y-85.4551

G1X23.4347Y-85.5034

G1X25.2216Y-86.0200

G1X26.2308Y-86.1749

G1X32.8320Y-86.2049

G1X34.3541Y-86.0743

G1X36.2401Y-85.5214

G1X36.7696Y-85.4524

G1X37.2328Y-85.4990

G1X37.6299Y-85.6477

G1X39.4167Y-86.9456

G1X39.9130Y-87.1661

G1X40.3101Y-87.1910

G1X40.7940Y-87.0462

G1X41.2283Y-86.7515

G1X42.7917Y-85.1916

G1X43.5859Y-84.5423

G1X44.3800Y-84.1563

G1X45.3396Y-84.0049

G1X46.3653Y-84.0711

G1X48.8139Y-84.4215

G1X50.2036Y-84.5010

G1X51.7092Y-84.4319

G1X55.4151Y-84.0226

G1X56.4574Y-84.0102

G1X57.4832Y-84.1155

G1X58.3766Y-84.3326

G1X59.2700Y-84.6871

G1X60.2502Y-85.2331

G1X62.5458Y-86.7566

G1X63.2406Y-87.0660

G1X63.8693Y-87.1939

G1X64.4318Y-87.1659

G1X65.0274Y-86.9907

G1X67.3106Y-85.7370

G1X67.9062Y-85.5321

G1X68.5017Y-85.4506

G1X69.3952Y-85.5334

G1X71.5790Y-86.0725

G1X72.7868Y-86.1985

G1X78.5773Y-86.0214

G1X85.8734Y-86.0998

G1 Z0F20000

(Start Block)


G1X19.1663Y-85.9860
G1Z6F20000
(Plotting speed under)
G1 F4000


G1X19.5633Y-86.0488

G1X20.0597Y-85.9309

G1X21.8589Y-84.6019

G1X22.3428Y-84.3858

G1X22.7564Y-84.3053

G1X23.4347Y-84.3713

G1X25.1223Y-84.8835

G1X26.1149Y-85.0355

G1X30.2841Y-84.9779

G1X33.5269Y-85.0585

G1X34.8504Y-84.9418

G1X36.5379Y-84.4280

G1X37.2328Y-84.3031

G1X37.7291Y-84.3609

G1X38.1882Y-84.5471

G1X40.0123Y-85.8827

G1X40.4093Y-86.0252

G1X40.8064Y-86.0429

G1X41.2035Y-85.9174

G1X41.6336Y-85.6521

G1X43.3322Y-83.9806

G1X44.0946Y-83.3773

G1X44.8763Y-83.0070

G1X45.8028Y-82.8575

G1X46.8451Y-82.9295

G1X49.6411Y-83.3864

G1X50.8985Y-83.4689

G1X52.5198Y-83.3820

G1X56.1100Y-82.8816

G1X57.0365Y-82.8623

G1X57.8802Y-82.9545

G1X58.6744Y-83.1647

G1X59.4685Y-83.5089

G1X60.3371Y-84.0313

G1X62.5458Y-85.5910

G1X63.2406Y-85.9154

G1X63.8693Y-86.0474

G1X64.4318Y-86.0185

G1X64.9282Y-85.8796

G1X67.3106Y-84.6165

G1X67.9062Y-84.4087

G1X68.6176Y-84.3046

G1X69.5937Y-84.3849

G1X72.0753Y-84.9243

G1X73.3658Y-85.0455

G1X79.7355Y-84.9364

G1X85.8734Y-85.0353

G1 Z0F20000

(Start Block)


G1X19.1663Y-84.8219
G1Z6F20000
(Plotting speed under)
G1 F4000


G1X19.6626Y-84.8993

G1X20.0597Y-84.7963

G1X20.6332Y-84.4308

G1X21.8589Y-83.4510

G1X22.3428Y-83.2345

G1X22.7564Y-83.1573

G1X23.4347Y-83.2338

G1X25.3208Y-83.7986

G1X26.6940Y-83.9110

G1X30.1683Y-83.8137

G1X34.4533Y-83.8935

G1X35.3467Y-83.7609

G1X37.0343Y-83.2306

G1X37.5802Y-83.1583

G1X38.0269Y-83.2082

G1X38.4240Y-83.3583

G1X40.2108Y-84.6519

G1X40.7071Y-84.8706

G1X41.1042Y-84.8996

G1X41.5757Y-84.7727

G1X42.0969Y-84.4389

G1X43.7954Y-82.8153

G1X44.6158Y-82.2045

G1X45.4719Y-81.8395

G1X46.4977Y-81.7094

G1X47.5400Y-81.7888

G1X50.2036Y-82.1987

G1X51.4775Y-82.2744

G1X52.9831Y-82.1898

G1X56.3416Y-81.7288

G1X57.8802Y-81.7933

G1X58.6744Y-81.9998

G1X59.4685Y-82.3472

G1X60.3371Y-82.8778

G1X62.5458Y-84.4451

G1X63.2406Y-84.7664

G1X63.8693Y-84.8994

G1X64.4318Y-84.8787

G1X65.0274Y-84.7213

G1X67.5091Y-83.4851

G1X68.2040Y-83.2638

G1X68.9650Y-83.1608

G1X69.9907Y-83.2158

G1X72.6709Y-83.7045

G1X74.5240Y-83.8792

G1X85.8734Y-83.9039

G1 Z0F20000

(Start Block)


G1X19.1663Y-83.6707
G1Z6F20000
(Plotting speed under)
G1 F4000


G1X19.6626Y-83.7534

G1X20.0597Y-83.6527

G1X20.6332Y-83.2873

G1X21.8589Y-82.3034

G1X22.6406Y-82.0206

G1X23.3355Y-82.0683

G1X25.0230Y-82.5898

G1X26.1149Y-82.7517

G1X30.4000Y-82.6633

G1X34.1059Y-82.7647

G1X35.3467Y-82.6469

G1X37.1335Y-82.1040

G1X37.8284Y-82.0088

G1X38.3247Y-82.0908

G1X38.7962Y-82.2934

G1X40.6203Y-83.5892

G1X41.0049Y-83.7234

G1X41.4020Y-83.7573

G1X41.8983Y-83.6240

G1X42.3574Y-83.3618

G1X44.1814Y-81.7492

G1X45.1741Y-81.0678

G1X46.1668Y-80.6938

G1X47.3083Y-80.5640

G1X51.7092Y-80.8961

G1X53.0989Y-80.8476

G1X55.9942Y-80.5738

G1X57.6817Y-80.6738

G1X58.5751Y-80.9219

G1X59.4685Y-81.3317

G1X62.6450Y-83.3948

G1X63.2406Y-83.6325

G1X63.8693Y-83.7526

G1X64.4318Y-83.7397

G1X65.0274Y-83.6113

G1X67.9062Y-82.3621

G1X68.7996Y-82.1180

G1X69.6599Y-82.0173

G1X70.8180Y-82.0474

G1X74.4081Y-82.5031

G1X76.9560Y-82.6761

G1X80.6619Y-82.7263

G1X85.8734Y-82.6487

G1 Z0F20000

(Start Block)


G1X19.1663Y-82.5337
G1Z6F20000
(Plotting speed under)
G1 F4000


G1X19.5633Y-82.6093

G1X20.0597Y-82.5001

G1X21.8589Y-81.1591

G1X22.3428Y-80.9427

G1X22.7564Y-80.8646

G1X23.4347Y-80.9383

G1X25.0230Y-81.4335

G1X26.1149Y-81.6017

G1X30.4000Y-81.5248

G1X33.9901Y-81.6181

G1X35.3467Y-81.5006

G1X37.1335Y-80.9761

G1X37.9277Y-80.8630

G1X38.4240Y-80.9371

G1X38.9203Y-81.1398

G1X40.8064Y-82.4118

G1X41.3027Y-82.5863

G1X41.6998Y-82.6087

G1X42.1961Y-82.4991

G1X42.7917Y-82.1844

G1X44.7895Y-80.6282

G1X45.8690Y-79.9957

G1X47.1595Y-79.5799

G1X48.8139Y-79.4202

G1X52.0566Y-79.4725

G1X55.4151Y-79.4224

G1X57.1854Y-79.6174

G1X58.0788Y-79.8723

G1X59.0714Y-80.3019

G1X62.3472Y-82.2132

G1X63.1414Y-82.4972

G1X63.8693Y-82.6094

G1X64.5311Y-82.5860

G1X65.3252Y-82.4227

G1X68.8988Y-81.1791

G1X70.8180Y-80.8884

G1X72.7868Y-80.8900

G1X79.5038Y-81.2845

G1X85.8734Y-81.3075

G1 Z0F20000

(Start Block)


G1X19.1663Y-81.4083
G1Z6F20000
(Plotting speed under)
G1 F4000


G1X19.5633Y-81.4623

G1X20.0597Y-81.3383

G1X21.8589Y-80.0181

G1X22.3428Y-79.8022

G1X22.7564Y-79.7201

G1X23.4347Y-79.7806

G1X25.1223Y-80.2872

G1X26.2308Y-80.4534

G1X30.4000Y-80.3963

G1X33.6427Y-80.4720

G1X35.1482Y-80.3698

G1X37.1335Y-79.8286

G1X37.9277Y-79.7161

G1X38.5233Y-79.7959

G1X39.0196Y-79.9893

G1X40.6203Y-81.0273

G1X41.2035Y-81.3216

G1X42.0969Y-81.4625

G1X43.0895Y-81.1648

G1X45.5712Y-79.6420

G1X47.0602Y-78.9778

G1X48.9462Y-78.5345

G1X51.3617Y-78.3535

G1X54.3728Y-78.4239

G1X56.4905Y-78.7580

G1X58.2773Y-79.3658

G1X61.8509Y-81.0740

G1X62.7443Y-81.3406

G1X63.6377Y-81.4607

G1X64.4484Y-81.4459

G1X65.4245Y-81.3016

G1X70.1893Y-80.1505

G1X73.1342Y-79.8067

G1X77.1876Y-79.7224

G1X85.8734Y-79.9722

G1 Z0F20000

(Start Block)


G1X19.1663Y-80.2883
G1Z6F20000
(Plotting speed under)
G1 F4000


G1X19.5633Y-80.3110

G1X20.0348Y-80.1783

G1X21.8589Y-78.8802

G1X22.3428Y-78.6657

G1X22.8722Y-78.5713

G1X23.5340Y-78.6387

G1X25.6186Y-79.2072

G1X27.1572Y-79.3254

G1X34.2217Y-79.3008

G1X35.3467Y-79.1490

G1X37.3321Y-78.6335

G1X38.2255Y-78.5849

G1X38.7218Y-78.6827

G1X39.3174Y-78.9245

G1X41.3027Y-80.0620

G1X41.8983Y-80.2565

G1X42.4443Y-80.3203

G1X42.9903Y-80.2797

G1X43.6851Y-80.1041

G1X46.4646Y-78.9625

G1X48.1521Y-78.4261

G1X49.8396Y-78.0805

G1X51.5934Y-77.9196

G1X53.4463Y-77.9598

G1X55.2993Y-78.2202

G1X57.0861Y-78.6829

G1X60.9575Y-79.9880

G1X62.1487Y-80.2312

G1X63.2903Y-80.3196

G1X65.0274Y-80.2327

G1X70.3547Y-79.5528

G1X79.0406Y-78.6801

G1X82.2833Y-78.5699

G1X85.8734Y-78.7010

G1 Z0F20000

(Start Block)


G1X19.1663Y-79.1650
G1Z6F20000
(Plotting speed under)
G1 F4000


G1X19.5633Y-79.1504

G1X19.9480Y-79.0357

G1X21.8589Y-77.7453

G1X22.4420Y-77.5030

G1X22.9880Y-77.4249

G1X23.6333Y-77.4897

G1X25.9164Y-78.0623

G1X27.7363Y-78.1791

G1X33.9901Y-78.1421

G1X35.2475Y-77.9730

G1X37.2328Y-77.4974

G1X38.2751Y-77.4361

G1X39.4167Y-77.7293

G1X41.8983Y-78.9150

G1X42.6924Y-79.1144

G1X43.4866Y-79.1750

G1X45.0749Y-79.0115

G1X49.7404Y-78.0956

G1X51.4775Y-77.9242

G1X52.7515Y-77.9196

G1X54.0088Y-78.0149

G1X59.4685Y-78.9950

G1X60.9741Y-79.1429

G1X62.4796Y-79.1727

G1X74.4081Y-78.8276

G1X76.9394Y-78.5339

G1X82.2006Y-77.5370

G1X83.9046Y-77.4247

G1X85.8734Y-77.4951

G1 Z0F20000

(Start Block)


G1X19.1663Y-78.0285
G1Z6F20000
(Plotting speed under)
G1 F4000


G1X19.5633Y-77.9754

G1X20.0348Y-77.7990

G1X22.0450Y-76.5217

G1X22.5413Y-76.3465

G1X23.1038Y-76.2785

G1X23.8318Y-76.3542

G1X26.3135Y-76.9164

G1X28.6628Y-77.0322

G1X33.7585Y-76.9743

G1X35.0489Y-76.8056

G1X37.2328Y-76.3454

G1X38.3909Y-76.2887

G1X39.5159Y-76.5079

G1X41.8983Y-77.4269

G1X43.0895Y-77.7678

G1X44.5289Y-77.9716

G1X46.3819Y-78.0286

G1X52.1724Y-77.9092

G1X58.5420Y-78.0265

G1X63.9851Y-77.8726

G1X69.6599Y-78.0240

G1X76.4927Y-78.0081

G1X77.7336Y-77.9055

G1X78.9248Y-77.6843

G1X82.1013Y-76.6811

G1X83.1932Y-76.4167

G1X84.4837Y-76.2804

G1X85.8734Y-76.3320

G1 Z0F20000

(Start Block)


G1X19.1663Y-76.8681
G1Z6F20000
(Plotting speed under)
G1 F4000


G1X20.0597Y-76.5726

G1X22.0450Y-75.3872

G1X22.6406Y-75.1922

G1X23.2197Y-75.1313

G1X24.0303Y-75.2110

G1X25.8172Y-75.6159

G1X26.9256Y-75.7824

G1X30.1683Y-75.8826

G1X33.6427Y-75.7896

G1X37.2328Y-75.2010

G1X38.5067Y-75.1358

G1X39.8137Y-75.3107

G1X43.3873Y-76.1792

G1X46.1502Y-76.4813

G1X52.8673Y-76.6292

G1X61.6689Y-76.4025

G1X67.9227Y-76.8818

G1X69.3124Y-76.8167

G1X72.3235Y-76.4306

G1X73.7133Y-76.3556

G1X75.1030Y-76.4381

G1X77.8825Y-76.8503

G1X79.0240Y-76.8600

G1X80.4138Y-76.5479

G1X82.6969Y-75.5683

G1X83.5903Y-75.2817

G1X84.5995Y-75.1365

G1X85.8734Y-75.1967

G1 Z0F20000

(Start Block)


G1X19.1663Y-75.6707
G1Z6F20000
(Plotting speed under)
G1 F4000


G1X19.9604Y-75.3830

G1X22.0450Y-74.2389

G1X22.6406Y-74.0547

G1X23.3355Y-73.9835

G1X24.1296Y-74.0532

G1X26.8098Y-74.5629

G1X29.2418Y-74.7090

G1X33.2952Y-74.6278

G1X37.2328Y-74.0728

G1X38.6225Y-73.9835

G1X40.0123Y-74.0630

G1X43.1392Y-74.4343

G1X44.8763Y-74.5316

G1X59.8159Y-74.5893

G1X62.2480Y-74.8069

G1X66.0201Y-75.6043

G1X67.3436Y-75.7351

G1X68.1047Y-75.6883

G1X68.9981Y-75.5121

G1X72.3732Y-74.4312

G1X73.9449Y-74.2437

G1X74.7556Y-74.2945

G1X75.5497Y-74.4450

G1X78.6270Y-75.5674

G1X79.3218Y-75.7134

G1X79.9671Y-75.7214

G1X81.0094Y-75.4468

G1X82.8954Y-74.4616

G1X83.7888Y-74.1184

G1X84.7153Y-73.9847

G1X85.8734Y-74.0856

G1 Z0F20000

(Start Block)


G1X19.1663Y-74.4211
G1Z6F20000
(Plotting speed under)
G1 F4000


G1X19.9604Y-74.1065

G1X21.9457Y-73.1058

G1X22.6406Y-72.9056

G1X23.3355Y-72.8372

G1X24.2289Y-72.9061

G1X27.2731Y-73.4214

G1X30.2841Y-73.5463

G1X33.5269Y-73.4390

G1X37.4644Y-72.9482

G1X39.0858Y-72.8425

G1X43.4866Y-72.9197

G1X52.5198Y-72.8518

G1X59.3527Y-72.9281

G1X61.0899Y-73.0508

G1X62.4465Y-73.2690

G1X63.6377Y-73.5930

G1X65.9208Y-74.3948

G1X67.1120Y-74.5886

G1X67.8069Y-74.5267

G1X68.5017Y-74.3256

G1X71.6783Y-72.6940

G1X72.6709Y-72.3680

G1X73.5975Y-72.2208

G1X74.7556Y-72.2455

G1X75.9468Y-72.5280

G1X77.0139Y-73.0212

G1X79.0240Y-74.2463

G1X79.6196Y-74.4916

G1X80.1160Y-74.5833

G1X80.6123Y-74.5565

G1X81.2079Y-74.3740

G1X83.0071Y-73.3105

G1X83.8881Y-72.9417

G1X84.7153Y-72.8369

G1X85.8734Y-72.9952

G1 Z0F20000

(Start Block)


G1X19.1663Y-73.1099
G1Z6F20000
(Plotting speed under)
G1 F4000


G1X21.8465Y-71.9424

G1X22.5413Y-71.7604

G1X23.2197Y-71.6924

G1X24.2289Y-71.7581

G1X27.5047Y-72.2737

G1X30.6316Y-72.3886

G1X33.6427Y-72.2957

G1X38.1593Y-71.8323

G1X40.3597Y-71.7187

G1X44.1814Y-71.7099

G1X52.2882Y-71.8685

G1X60.6266Y-71.6908

G1X62.0164Y-71.7699

G1X63.0421Y-71.9686

G1X64.0348Y-72.3169

G1X66.1194Y-73.2656

G1X66.7150Y-73.4138

G1X67.2113Y-73.4381

G1X67.8069Y-73.3274

G1X68.5017Y-73.0139

G1X70.5863Y-71.5376

G1X71.5790Y-70.9838

G1X72.6709Y-70.6336

G1X73.9449Y-70.4981

G1X75.3512Y-70.6058

G1X76.5424Y-70.9846

G1X77.5350Y-71.5796

G1X79.4459Y-73.0704

G1X80.3145Y-73.4228

G1X80.8108Y-73.4203

G1X81.3072Y-73.2707

G1X83.0940Y-72.1246

G1X83.8881Y-71.7775

G1X84.7153Y-71.6949

G1X85.8734Y-71.9147

G1 Z0F20000

(Start Block)


G1X19.1663Y-71.7438
G1Z6F20000
(Plotting speed under)
G1 F4000


G1X21.6479Y-70.7829

G1X22.9880Y-70.5484

G1X24.1296Y-70.6118

G1X27.6205Y-71.1415

G1X30.8632Y-71.2523

G1X33.9901Y-71.1792

G1X38.8542Y-70.8014

G1X41.2862Y-70.7160

G1X43.7182Y-70.7592

G1X49.7404Y-71.0622

G1X54.1412Y-71.0741

G1X57.3839Y-70.9330

G1X62.0164Y-70.5435

G1X62.8270Y-70.6026

G1X63.6377Y-70.8016

G1X64.4318Y-71.1489

G1X66.1194Y-72.0810

G1X66.6157Y-72.2447

G1X67.1120Y-72.2944

G1X67.7076Y-72.1668

G1X68.2412Y-71.8877

G1X70.3258Y-70.1512

G1X71.2812Y-69.5620

G1X72.2739Y-69.2467

G1X73.7133Y-69.1241

G1X75.5497Y-69.1945

G1X76.7409Y-69.5150

G1X77.7667Y-70.1610

G1X79.6196Y-71.8438

G1X80.1160Y-72.1494

G1X80.5130Y-72.2738

G1X81.0094Y-72.2680

G1X81.4064Y-72.1300

G1X83.0940Y-70.9712

G1X83.8881Y-70.6130

G1X84.6822Y-70.5550

G1X85.8734Y-70.8317

G1 Z0F20000

(Start Block)


G1X19.1663Y-70.3501
G1Z6F20000
(Plotting speed under)
G1 F4000


G1X21.4494Y-69.5995

G1X22.8722Y-69.3983

G1X24.0303Y-69.4800

G1X27.0414Y-69.9672

G1X29.3577Y-70.1106

G1X33.8743Y-70.1054

G1X41.1704Y-69.8273

G1X48.2348Y-70.0906

G1X52.1724Y-70.1362

G1X57.8472Y-70.0061

G1X62.7112Y-69.3970

G1X63.3399Y-69.4560

G1X63.9355Y-69.6248

G1X64.5931Y-69.9443

G1X66.2186Y-70.9539

G1X66.7150Y-71.1175

G1X67.1120Y-71.1455

G1X67.6084Y-71.0195

G1X68.1543Y-70.6952

G1X69.8915Y-69.0436

G1X70.7849Y-68.3843

G1X71.6783Y-68.0470

G1X72.7868Y-67.9506

G1X75.7979Y-67.9625

G1X76.9394Y-68.2037

G1X77.9211Y-68.8236

G1X79.8802Y-70.7496

G1X80.3145Y-71.0238

G1X80.7116Y-71.1366

G1X81.1086Y-71.1221

G1X81.6050Y-70.9186

G1X83.0071Y-69.8743

G1X83.7888Y-69.4796

G1X84.6822Y-69.4195

G1X85.8734Y-69.7389

G1 Z0F20000

(Start Block)


G1X19.1663Y-68.9683
G1Z6F20000
(Plotting speed under)
G1 F4000


G1X21.2509Y-68.4077

G1X22.5248Y-68.2528

G1X23.7325Y-68.3298

G1X26.8098Y-68.8430

G1X28.8944Y-68.9810

G1X34.4533Y-69.0002

G1X41.1704Y-68.9056

G1X48.4665Y-69.0066

G1X58.3104Y-68.9602

G1X59.8656Y-68.8161

G1X62.2480Y-68.3369

G1X63.1745Y-68.2538

G1X63.7370Y-68.3289

G1X64.2333Y-68.5026

G1X66.2434Y-69.8044

G1X67.0128Y-70.0022

G1X67.5091Y-69.8840

G1X68.0385Y-69.5539

G1X69.7371Y-67.7988

G1X70.4126Y-67.2513

G1X71.1820Y-66.9024

G1X71.9761Y-66.8052

G1X74.0607Y-66.9330

G1X76.1453Y-66.8054

G1X77.0387Y-66.9497

G1X77.6219Y-67.2361

G1X78.1430Y-67.6476

G1X80.0057Y-69.6070

G1X80.4138Y-69.8732

G1X80.8108Y-69.9925

G1X81.2079Y-69.9665

G1X81.7042Y-69.7445

G1X83.0071Y-68.7242

G1X83.7888Y-68.3228

G1X84.5830Y-68.2684

G1X85.8734Y-68.6328

G1 Z0F20000

(Start Block)


G1X19.1663Y-67.6334
G1Z6F20000
(Plotting speed under)
G1 F4000


G1X21.1516Y-67.2075

G1X22.4090Y-67.1047

G1X23.5340Y-67.1946

G1X26.5120Y-67.7160

G1X28.5470Y-67.8504

G1X52.4040Y-67.7974

G1X58.3104Y-67.8576

G1X60.2626Y-67.7258

G1X62.6450Y-67.1812

G1X63.4061Y-67.1049

G1X63.9355Y-67.1821

G1X64.4194Y-67.3653

G1X66.2434Y-68.6409

G1X66.6157Y-68.7966

G1X67.0128Y-68.8551

G1X67.5091Y-68.7188

G1X67.9613Y-68.4186

G1X69.5826Y-66.6468

G1X70.1521Y-66.1429

G1X70.7849Y-65.7941

G1X71.5128Y-65.6587

G1X73.9449Y-65.9139

G1X76.3769Y-65.6608

G1X77.2372Y-65.7936

G1X77.7087Y-66.0297

G1X78.2299Y-66.4416

G1X80.0829Y-68.4657

G1X80.5130Y-68.7429

G1X80.9101Y-68.8522

G1X81.3072Y-68.8005

G1X81.7042Y-68.6153

G1X83.0071Y-67.5753

G1X83.7888Y-67.1701

G1X84.5830Y-67.1276

G1X85.8734Y-67.5120

G1 Z0F20000

(Start Block)


G1X19.1663Y-66.3644
G1Z6F20000
(Plotting speed under)
G1 F4000


G1X21.0523Y-66.0313

G1X22.1774Y-65.9583

G1X23.4347Y-66.0681

G1X26.2308Y-66.5847

G1X27.9679Y-66.7077

G1X52.6357Y-66.6051

G1X59.1211Y-66.7123

G1X60.7590Y-66.5837

G1X62.8436Y-66.0477

G1X63.6377Y-65.9595

G1X64.5063Y-66.1917

G1X66.2434Y-67.4612

G1X66.6157Y-67.6356

G1X67.0128Y-67.7093

G1X67.5091Y-67.5759

G1X67.9613Y-67.2660

G1X69.5440Y-65.4755

G1X70.1521Y-64.9342

G1X70.7849Y-64.6081

G1X71.3970Y-64.5107

G1X73.9449Y-64.8402

G1X76.3769Y-64.5194

G1X77.2372Y-64.6171

G1X77.7087Y-64.8385

G1X78.2994Y-65.3050

G1X80.1601Y-67.3607

G1X80.5130Y-67.5848

G1X80.9101Y-67.7042

G1X81.3072Y-67.6585

G1X81.7042Y-67.4757

G1X83.0071Y-66.4279

G1X83.7888Y-66.0212

G1X84.5830Y-65.9835

G1X85.8734Y-66.3759

G1 Z0F20000

(Start Block)


G1X19.1663Y-65.1661
G1Z6F20000
(Plotting speed under)
G1 F4000


G1X20.9531Y-64.8798

G1X22.0616Y-64.8116

G1X23.3355Y-64.9256

G1X26.0157Y-65.4469

G1X27.6205Y-65.5648

G1X35.2640Y-65.4214

G1X45.2237Y-65.4947

G1X53.9096Y-65.4309

G1X59.7001Y-65.5656

G1X61.1560Y-65.4351

G1X63.0421Y-64.9130

G1X63.7370Y-64.8133

G1X64.2333Y-64.8753

G1X64.6304Y-65.0324

G1X66.3303Y-66.3069

G1X66.7150Y-66.4921

G1X67.1120Y-66.5627

G1X67.5091Y-66.4634

G1X67.9613Y-66.1760

G1X69.8220Y-64.0927

G1X70.3258Y-63.6994

G1X70.7849Y-63.4753

G1X71.6286Y-63.3696

G1X73.2666Y-63.6241

G1X74.0607Y-63.6713

G1X76.4927Y-63.3660

G1X77.2372Y-63.4842

G1X77.8825Y-63.8327

G1X78.4384Y-64.3254

G1X80.0057Y-66.0902

G1X80.4138Y-66.3935

G1X80.8108Y-66.5438

G1X81.2079Y-66.5380

G1X81.7042Y-66.3259

G1X83.0071Y-65.2818

G1X83.7888Y-64.8758

G1X84.5830Y-64.8358

G1X85.8734Y-65.2244

G1 Z0F20000

(Start Block)


G1X19.1663Y-64.0421
G1Z6F20000
(Plotting speed under)
G1 F4000


G1X21.0523Y-63.7328

G1X22.1774Y-63.6657

G1X23.4347Y-63.7898

G1X25.9164Y-64.3033

G1X27.2731Y-64.4169

G1X32.0213Y-64.2580

G1X36.0747Y-64.2289

G1X46.2660Y-64.3189

G1X54.6044Y-64.2666

G1X60.0476Y-64.4208

G1X61.4538Y-64.2962

G1X63.3399Y-63.7473

G1X63.9851Y-63.6672

G1X64.4318Y-63.7309

G1X64.9282Y-63.9476

G1X66.4172Y-65.1111

G1X66.8142Y-65.3278

G1X67.2113Y-65.4142

G1X67.6084Y-65.3384

G1X68.0385Y-65.0867

G1X69.8915Y-63.0480

G1X70.4126Y-62.6203

G1X70.8842Y-62.3721

G1X71.7445Y-62.2206

G1X74.1765Y-62.4118

G1X76.2611Y-62.2207

G1X77.0387Y-62.3304

G1X77.7087Y-62.6574

G1X78.3689Y-63.2175

G1X80.0057Y-64.9950

G1X80.4138Y-65.2739

G1X80.8108Y-65.4037

G1X81.2079Y-65.3844

G1X81.7042Y-65.1657

G1X83.0071Y-64.1371

G1X83.7888Y-63.7341

G1X84.5830Y-63.6846

G1X85.8734Y-64.0575

G1 Z0F20000

(Start Block)


G1X19.1663Y-63.0078
G1Z6F20000
(Plotting speed under)
G1 F4000


G1X21.1516Y-62.6242

G1X22.4090Y-62.5185

G1X23.5340Y-62.6227

G1X26.0157Y-63.1645

G1X27.2731Y-63.2718

G1X31.7897Y-63.0894

G1X37.6961Y-63.0720

G1X46.9609Y-63.1578

G1X55.2993Y-63.1083

G1X60.5108Y-63.2734

G1X61.7516Y-63.1536

G1X63.5384Y-62.6132

G1X64.2333Y-62.5177

G1X65.0274Y-62.7292

G1X66.7646Y-64.0433

G1X67.1120Y-64.2116

G1X67.5091Y-64.2638

G1X67.9806Y-64.1339

G1X68.5017Y-63.7522

G1X69.8915Y-62.2166

G1X70.6856Y-61.5313

G1X71.4798Y-61.1713

G1X72.3235Y-61.0723

G1X74.0607Y-61.1301

G1X75.9137Y-61.0743

G1X76.9394Y-61.2624

G1X77.4358Y-61.5028

G1X77.9693Y-61.8969

G1X79.9671Y-63.9006

G1X80.3145Y-64.1247

G1X80.7116Y-64.2525

G1X81.1086Y-64.2485

G1X81.6050Y-64.0502

G1X83.0071Y-62.9937

G1X83.7888Y-62.5963

G1X84.6822Y-62.5442

G1X85.8734Y-62.8756

G1 Z0F20000

(Start Block)


G1X19.1663Y-62.0912
G1Z6F20000
(Plotting speed under)
G1 F4000


G1X21.6479Y-61.5004

G1X22.8722Y-61.3722

G1X24.0303Y-61.4951

G1X26.2142Y-62.0137

G1X27.3889Y-62.1253

G1X31.6739Y-61.9332

G1X40.3597Y-61.9254

G1X47.3083Y-62.0028

G1X55.8784Y-61.9521

G1X60.8582Y-62.1272

G1X62.0494Y-62.0126

G1X63.9355Y-61.4409

G1X64.5311Y-61.3762

G1X64.9282Y-61.4354

G1X65.3252Y-61.5995

G1X67.0252Y-62.8839

G1X67.4098Y-63.0591

G1X67.8069Y-63.1229

G1X68.2040Y-63.0304

G1X68.6562Y-62.7710

G1X70.4319Y-60.9961

G1X71.2812Y-60.3737

G1X72.2739Y-60.0261

G1X73.7133Y-59.9281

G1X75.7482Y-59.9895

G1X76.8402Y-60.2818

G1X77.8439Y-60.9261

G1X79.7065Y-62.6774

G1X80.1408Y-62.9596

G1X80.6123Y-63.1082

G1X81.0094Y-63.1034

G1X81.5057Y-62.9225

G1X83.0940Y-61.7962

G1X83.8881Y-61.4355

G1X84.6822Y-61.3865

G1X85.8734Y-61.6797

G1 Z0F20000

(Start Block)


G1X19.1663Y-61.3035
G1Z6F20000
(Plotting speed under)
G1 F4000


G1X22.3428Y-60.3778

G1X23.4513Y-60.2260

G1X24.3281Y-60.2990

G1X26.5120Y-60.8502

G1X27.6205Y-60.9779

G1X31.6739Y-60.7833

G1X41.2862Y-60.7789

G1X47.5400Y-60.8495

G1X56.4574Y-60.7979

G1X61.2057Y-60.9808

G1X62.3472Y-60.8739

G1X64.1340Y-60.3187

G1X64.7958Y-60.2260

G1X65.6230Y-60.4416

G1X67.4098Y-61.7448

G1X67.8069Y-61.9243

G1X68.2040Y-61.9722

G1X68.7003Y-61.8565

G1X69.1966Y-61.5564

G1X70.9338Y-59.9886

G1X71.8024Y-59.4105

G1X72.8695Y-59.0406

G1X74.1765Y-58.9204

G1X75.5497Y-59.0310

G1X76.7409Y-59.4211

G1X77.6219Y-59.9762

G1X79.5328Y-61.5769

G1X80.0167Y-61.8422

G1X80.4138Y-61.9580

G1X80.9101Y-61.9507

G1X81.4064Y-61.7819

G1X83.0940Y-60.6578

G1X83.8881Y-60.3053

G1X84.6822Y-60.2302

G1X85.8734Y-60.4729

G1 Z0F20000

(Start Block)


G1X19.1663Y-60.5731
G1Z6F20000
(Plotting speed under)
G1 F4000


G1X20.6553Y-60.2208

G1X23.1369Y-59.2666

G1X24.1461Y-59.0825

G1X24.9238Y-59.1327

G1X27.0083Y-59.6949

G1X28.1995Y-59.8338

G1X31.7897Y-59.6366

G1X41.6336Y-59.6324

G1X47.4242Y-59.6949

G1X57.0365Y-59.6457

G1X61.4373Y-59.8344

G1X62.6450Y-59.7341

G1X64.4318Y-59.1852

G1X65.1267Y-59.0806

G1X65.9208Y-59.2674

G1X67.7200Y-60.5396

G1X68.2040Y-60.7602

G1X68.7003Y-60.8272

G1X69.1966Y-60.7183

G1X69.6309Y-60.4951

G1X71.3681Y-59.1662

G1X72.2739Y-58.6183

G1X73.2666Y-58.2744

G1X74.4081Y-58.1565

G1X75.4504Y-58.2681

G1X76.4431Y-58.5909

G1X77.3613Y-59.1027

G1X79.3591Y-60.5104

G1X80.0167Y-60.7760

G1X80.5130Y-60.8280

G1X81.0094Y-60.7414

G1X81.4064Y-60.5780

G1X83.0071Y-59.5671

G1X83.8881Y-59.1787

G1X84.7153Y-59.0794

G1X85.8734Y-59.2613

G1 Z0F20000

(Start Block)


G1X19.1663Y-59.6798
G1Z6F20000
(Plotting speed under)
G1 F4000


G1X20.3575Y-59.5922

G1X21.2509Y-59.3974

G1X22.1443Y-59.0607

G1X23.9311Y-58.1964

G1X24.5267Y-58.0068

G1X25.0726Y-57.9353

G1X25.9164Y-58.0254

G1X27.9018Y-58.5976

G1X28.8944Y-58.6878

G1X32.8320Y-58.4859

G1X57.1523Y-58.4914

G1X62.0164Y-58.6869

G1X63.0421Y-58.5736

G1X64.8289Y-58.0174

G1X65.6065Y-57.9378

G1X66.5040Y-58.2265

G1X68.3280Y-59.4695

G1X68.7996Y-59.6388

G1X69.1966Y-59.6838

G1X69.6930Y-59.6027

G1X70.1893Y-59.4051

G1X72.6709Y-57.9629

G1X73.3658Y-57.7251

G1X74.0607Y-57.6002

G1X75.0534Y-57.6097

G1X76.0460Y-57.8362

G1X77.0387Y-58.2706

G1X79.0240Y-59.3951

G1X79.6196Y-59.6113

G1X80.1160Y-59.6821

G1X80.6123Y-59.6408

G1X81.2079Y-59.4511

G1X83.0071Y-58.4160

G1X83.8881Y-58.0520

G1X84.7153Y-57.9326

G1X85.8734Y-58.0534

G1 Z0F20000

(Start Block)


G1X19.1663Y-58.3117
G1Z6F20000
(Plotting speed under)
G1 F4000


G1X21.0193Y-58.5334

G1X22.1443Y-58.4444

G1X23.1369Y-58.0887

G1X25.1223Y-56.9961

G1X26.0157Y-56.7883

G1X26.8098Y-56.8801

G1X28.6959Y-57.4564

G1X29.5893Y-57.5413

G1X33.1794Y-57.3405

G1X56.2258Y-57.3393

G1X59.1211Y-57.3690

G1X62.1322Y-57.5418

G1X63.3399Y-57.4236

G1X65.0274Y-56.9020

G1X65.7223Y-56.7865

G1X66.2186Y-56.8340

G1X66.7150Y-57.0043

G1X68.5017Y-58.1586

G1X68.9981Y-58.3970

G1X69.4944Y-58.5199

G1X70.0900Y-58.5108

G1X70.6856Y-58.3538

G1X73.2666Y-57.2509

G1X74.6398Y-57.0490

G1X75.3346Y-57.1010

G1X76.0460Y-57.2568

G1X78.7262Y-58.3369

G1X79.8513Y-58.5364

G1X80.4138Y-58.4759

G1X81.0094Y-58.2905

G1X82.9947Y-57.2554

G1X83.7888Y-56.9469

G1X84.7153Y-56.7914

G1X85.8734Y-56.8566

G1 Z0F20000

(Start Block)


G1X19.1663Y-56.3274
G1Z6F20000
(Plotting speed under)
G1 F4000


G1X21.9457Y-57.2214

G1X22.9880Y-57.3899

G1X23.5340Y-57.3267

G1X24.0303Y-57.1618

G1X26.0281Y-55.9300

G1X26.6113Y-55.7027

G1X27.0414Y-55.6415

G1X27.7032Y-55.7169

G1X29.4900Y-56.2924

G1X30.5158Y-56.3950

G1X32.9478Y-56.2232

G1X34.6850Y-56.1927

G1X58.0788Y-56.1950

G1X62.5954Y-56.3915

G1X63.6377Y-56.2612

G1X65.4245Y-55.7182

G1X66.0697Y-55.6410

G1X66.5164Y-55.6876

G1X67.1120Y-55.8944

G1X68.9981Y-57.0465

G1X70.0073Y-57.3725

G1X70.8842Y-57.3370

G1X73.3658Y-56.6026

G1X74.7556Y-56.4408

G1X75.8475Y-56.5588

G1X78.2299Y-57.2357

G1X79.3880Y-57.3905

G1X80.0167Y-57.3285

G1X80.7116Y-57.1330

G1X82.8954Y-56.1084

G1X83.7888Y-55.7997

G1X84.7153Y-55.6522

G1X85.8734Y-55.6753

G1 Z0F20000

(Start Block)


G1X19.1663Y-54.0251
G1Z6F20000
(Plotting speed under)
G1 F4000


G1X19.9604Y-54.1817

G1X20.7545Y-54.4529

G1X21.5487Y-54.8440

G1X23.4347Y-55.9694

G1X23.9311Y-56.1667

G1X24.4936Y-56.2428

G1X25.3208Y-56.0256

G1X27.2069Y-54.7491

G1X27.6039Y-54.5793

G1X28.1003Y-54.4949

G1X28.8944Y-54.6197

G1X30.3834Y-55.1229

G1X31.3264Y-55.2458

G1X35.3798Y-55.0496

G1X57.8472Y-55.0462

G1X59.8159Y-55.0812

G1X62.4796Y-55.2475

G1X63.6377Y-55.1395

G1X65.5238Y-54.5827

G1X66.3013Y-54.4935

G1X67.3106Y-54.7396

G1X69.5937Y-56.0102

G1X70.1893Y-56.1857

G1X70.8180Y-56.2445

G1X71.5790Y-56.1742

G1X73.6636Y-55.7573

G1X74.6398Y-55.6864

G1X75.7482Y-55.7707

G1X78.1306Y-56.2084

G1X79.2226Y-56.2189

G1X80.4138Y-55.9372

G1X82.4984Y-55.0389

G1X83.4910Y-54.7051

G1X84.5995Y-54.5182

G1X85.8734Y-54.5090

G1 Z0F20000

(Start Block)


G1X19.1663Y-52.0370
G1Z6F20000
(Plotting speed under)
G1 F4000


G1X20.7545Y-52.1797

G1X21.9457Y-52.5601

G1X22.9012Y-53.1453

G1X24.8245Y-54.7387

G1X25.3208Y-55.0043

G1X25.8172Y-55.0945

G1X26.5120Y-54.9105

G1X28.1995Y-53.6760

G1X28.6959Y-53.4379

G1X29.1260Y-53.3513

G1X29.7878Y-53.4193

G1X31.5746Y-53.9994

G1X32.4846Y-54.1011

G1X37.0012Y-53.9099

G1X57.9630Y-53.8996

G1X62.4796Y-54.1010

G1X63.6377Y-53.9866

G1X65.5238Y-53.4361

G1X66.3013Y-53.3465

G1X67.3106Y-53.5702

G1X69.3952Y-54.7048

G1X70.4871Y-55.0499

G1X71.5128Y-55.0837

G1X73.4816Y-54.8343

G1X74.5240Y-54.7832

G1X77.9983Y-55.0979

G1X78.8090Y-55.0406

G1X79.6196Y-54.8617

G1X82.2006Y-53.8648

G1X83.2925Y-53.5462

G1X84.4837Y-53.3752

G1X85.8734Y-53.3537

G1 Z0F20000

(Start Block)


G1X19.1663Y-50.8387
G1Z6F20000
(Plotting speed under)
G1 F4000


G1X22.0616Y-50.7566

G1X22.6406Y-50.8087

G1X23.2362Y-50.9749

G1X23.7698Y-51.2564

G1X24.2620Y-51.6330

G1X26.1149Y-53.5285

G1X26.6361Y-53.8567

G1X27.0083Y-53.9456

G1X27.4054Y-53.9000

G1X27.7653Y-53.7435

G1X29.5024Y-52.4313

G1X29.9864Y-52.2470

G1X30.3834Y-52.1985

G1X31.0783Y-52.3157

G1X32.6665Y-52.8272

G1X33.8743Y-52.9556

G1X38.2751Y-52.7910

G1X49.0455Y-52.7532

G1X58.7736Y-52.7580

G1X62.3638Y-52.9539

G1X63.3399Y-52.8567

G1X65.3252Y-52.2922

G1X66.1855Y-52.2033

G1X67.2113Y-52.4499

G1X69.6930Y-53.7164

G1X70.3878Y-53.8927

G1X71.1654Y-53.9506

G1X74.0607Y-53.7582

G1X76.8402Y-53.9434

G1X77.9983Y-53.9044

G1X79.2226Y-53.6303

G1X81.6050Y-52.7353

G1X82.6969Y-52.4294

G1X84.0204Y-52.2408

G1X85.8734Y-52.2051

G1 Z0F20000

(Start Block)


G1X19.1663Y-50.4098
G1Z6F20000
(Plotting speed under)
G1 F4000


G1X20.0928Y-50.5378

G1X20.9531Y-50.5001

G1X21.8465Y-50.2896

G1X23.6333Y-49.6676

G1X24.0303Y-49.6099

G1X24.5267Y-49.6536

G1X25.0726Y-49.8922

G1X25.5591Y-50.2760

G1X27.4352Y-52.4340

G1X27.9018Y-52.7235

G1X28.2988Y-52.8044

G1X28.9813Y-52.5720

G1X30.6812Y-51.2729

G1X31.0783Y-51.1128

G1X31.4754Y-51.0571

G1X32.0709Y-51.1206

G1X33.9570Y-51.6719

G1X35.2640Y-51.8067

G1X44.7605Y-51.6242

G1X57.8472Y-51.6066

G1X61.9005Y-51.8082

G1X62.9428Y-51.7101

G1X64.9282Y-51.1384

G1X65.7223Y-51.0541

G1X66.3179Y-51.1421

G1X66.8142Y-51.3151

G1X69.2959Y-52.5718

G1X70.0073Y-52.7491

G1X70.8180Y-52.8052

G1X73.4816Y-52.6436

G1X76.1453Y-52.7979

G1X77.3034Y-52.7572

G1X78.4284Y-52.5136

G1X80.9101Y-51.5855

G1X82.1013Y-51.2634

G1X83.6730Y-51.0778

G1X85.8734Y-51.0614

G1 Z0F20000

(Start Block)


G1X19.1663Y-50.3734
G1Z6F20000
(Plotting speed under)
G1 F4000


G1X20.3244Y-50.5455

G1X21.6479Y-50.3497

G1X23.3355Y-49.7472

G1X24.9238Y-48.6832

G1X25.6186Y-48.4657

G1X26.1149Y-48.5520

G1X26.5492Y-48.8283

G1X26.9993Y-49.2750

G1X28.5084Y-51.1899

G1X28.8944Y-51.5016

G1X29.3908Y-51.6524

G1X29.6885Y-51.6225

G1X30.0856Y-51.4344

G1X31.7731Y-50.1620

G1X32.6004Y-49.9115

G1X33.2621Y-49.9589

G1X35.4460Y-50.5194

G1X36.8854Y-50.6545

G1X45.9186Y-50.4687

G1X57.2681Y-50.4601

G1X61.3215Y-50.6623

G1X62.3472Y-50.5651

G1X64.2333Y-50.0052

G1X65.1267Y-49.9109

G1X66.1194Y-50.1622

G1X68.5017Y-51.4096

G1X69.1966Y-51.5976

G1X70.0073Y-51.6586

G1X72.7868Y-51.4388

G1X75.6821Y-51.6506

G1X76.6086Y-51.6270

G1X77.7336Y-51.3881

G1X80.2152Y-50.4115

G1X81.5057Y-50.0678

G1X83.0940Y-49.9158

G1X85.8734Y-49.9261

G1 Z0F20000

(Start Block)


G1X19.1663Y-50.3177
G1Z6F20000
(Plotting speed under)
G1 F4000


G1X19.9770Y-50.5359

G1X20.8538Y-50.5130

G1X21.7472Y-50.3203

G1X23.1369Y-49.8327

G1X23.6829Y-49.5450

G1X25.3332Y-48.3928

G1X26.2142Y-47.5804

G1X26.6113Y-47.3677

G1X26.9091Y-47.3166

G1X27.3062Y-47.4024

G1X27.7363Y-47.6911

G1X28.2627Y-48.2792

G1X29.5261Y-49.9746

G1X30.0236Y-50.3729

G1X30.4827Y-50.5093

G1X31.1527Y-50.3170

G1X32.9768Y-49.0000

G1X33.8743Y-48.7622

G1X34.6519Y-48.8239

G1X37.1335Y-49.3714

G1X38.7384Y-49.5058

G1X46.3819Y-49.3205

G1X56.5732Y-49.3135

G1X58.1946Y-49.3438

G1X60.6266Y-49.5158

G1X61.6524Y-49.4088

G1X63.4392Y-48.8533

G1X64.2168Y-48.7613

G1X64.7296Y-48.8388

G1X65.2260Y-49.0161

G1X67.5091Y-50.2830

G1X68.1047Y-50.4542

G1X68.7334Y-50.5119

G1X72.0919Y-50.0820

G1X73.1342Y-50.1490

G1X75.2188Y-50.4860

G1X76.1453Y-50.4921

G1X77.1380Y-50.2765

G1X79.5204Y-49.2481

G1X80.8108Y-48.8846

G1X82.2833Y-48.7616

G1X85.8734Y-48.8065

G1 Z0F20000

(Start Block)


G1X19.1663Y-49.9971
G1Z6F20000
(Plotting speed under)
G1 F4000


G1X19.9604Y-50.4101

G1X20.6553Y-50.5401

G1X21.6479Y-50.3497

G1X23.2362Y-49.7929

G1X25.4201Y-48.3243

G1X27.3503Y-46.4111

G1X27.7032Y-46.2219

G1X28.0010Y-46.1710

G1X28.4601Y-46.3138

G1X28.9576Y-46.7381

G1X30.2210Y-48.4551

G1X30.7474Y-49.0203

G1X31.1775Y-49.2890

G1X31.5746Y-49.3617

G1X31.8724Y-49.3161

G1X32.3687Y-49.0757

G1X33.5847Y-48.1852

G1X34.1555Y-47.8640

G1X34.6519Y-47.6905

G1X35.2640Y-47.6130

G1X36.1409Y-47.6922

G1X38.9203Y-48.2423

G1X41.0546Y-48.3690

G1X48.3506Y-48.1671

G1X56.5732Y-48.1737

G1X59.9318Y-48.3672

G1X60.9575Y-48.2213

G1X62.6450Y-47.6742

G1X63.2903Y-47.6195

G1X63.7370Y-47.6944

G1X64.3326Y-47.9457

G1X66.3179Y-49.1579

G1X66.8142Y-49.3118

G1X67.3436Y-49.3649

G1X68.2040Y-49.2343

G1X70.2886Y-48.5825

G1X71.3970Y-48.4533

G1X72.6709Y-48.6200

G1X74.9541Y-49.2994

G1X75.9137Y-49.3484

G1X76.8402Y-49.1129

G1X78.9248Y-48.0840

G1X80.2152Y-47.6968

G1X81.3568Y-47.6132

G1X84.1362Y-47.7238

G1X85.8734Y-47.7117

G1 Z0F20000

(Start Block)


G1X19.1663Y-49.3542
G1Z6F20000
(Plotting speed under)
G1 F4000


G1X20.0597Y-49.7542

G1X21.0523Y-49.9657

G1X22.4090Y-50.0275

G1X23.1369Y-49.8395

G1X23.7698Y-49.4878

G1X25.4201Y-48.3243

G1X26.7326Y-47.0194

G1X28.0606Y-45.4358

G1X28.4973Y-45.1212

G1X28.8944Y-45.0212

G1X29.2915Y-45.1345

G1X29.7283Y-45.4602

G1X31.6044Y-47.8084

G1X32.0709Y-48.1154

G1X32.4680Y-48.2181

G1X33.2373Y-48.0222

G1X35.2475Y-46.7648

G1X35.8431Y-46.5593

G1X36.5379Y-46.4685

G1X37.5306Y-46.5454

G1X40.4093Y-47.1064

G1X42.2127Y-47.2226

G1X49.2771Y-47.0206

G1X55.5309Y-47.0312

G1X59.0053Y-47.2179

G1X59.9648Y-47.0780

G1X61.5531Y-46.5461

G1X62.2480Y-46.4706

G1X63.1165Y-46.7385

G1X64.9406Y-47.9738

G1X65.8216Y-48.2178

G1X66.3179Y-48.1654

G1X66.8142Y-48.0002

G1X69.1966Y-46.7684

G1X70.3878Y-46.4942

G1X71.1654Y-46.5173

G1X71.9761Y-46.7105

G1X72.7702Y-47.0504

G1X74.5570Y-48.0014

G1X75.5497Y-48.2181

G1X76.4431Y-48.0291

G1X78.6270Y-46.8335

G1X79.7355Y-46.5111

G1X80.7777Y-46.4756

G1X83.9046Y-46.6984

G1X85.8734Y-46.6464

G1 Z0F20000

(Start Block)


G1X19.1663Y-48.4408
G1Z6F20000
(Plotting speed under)
G1 F4000


G1X20.0597Y-48.7792

G1X21.2509Y-48.9426

G1X23.5671Y-48.9400

G1X24.7252Y-48.7470

G1X25.4973Y-48.2607

G1X26.7326Y-47.0224

G1X28.7554Y-44.3203

G1X29.1922Y-43.9946

G1X29.5893Y-43.8754

G1X29.9864Y-43.9600

G1X30.4926Y-44.3132

G1X32.0213Y-46.2149

G1X32.4556Y-46.6531

G1X32.8899Y-46.9403

G1X33.3614Y-47.0671

G1X33.7585Y-47.0376

G1X34.1555Y-46.9037

G1X36.5379Y-45.5756

G1X37.2328Y-45.3805

G1X37.9277Y-45.3203

G1X38.9203Y-45.4142

G1X41.6005Y-45.9573

G1X43.3708Y-46.0758

G1X47.5400Y-45.9074

G1X51.2459Y-45.8757

G1X54.6044Y-45.9023

G1X57.9630Y-46.0705

G1X58.8729Y-45.9384

G1X60.5604Y-45.3810

G1X61.1560Y-45.3271

G1X61.5531Y-45.3966

G1X62.0494Y-45.6277

G1X63.7370Y-46.8529

G1X64.2333Y-47.0439

G1X64.6304Y-47.0637

G1X65.1267Y-46.9352

G1X65.5238Y-46.7155

G1X67.1989Y-45.3930

G1X68.0054Y-44.8749

G1X68.8988Y-44.5267

G1X69.8915Y-44.3890

G1X70.8842Y-44.4775

G1X71.8768Y-44.8213

G1X72.7578Y-45.3733

G1X74.4950Y-46.7417

G1X74.9541Y-46.9667

G1X75.4504Y-47.0711

G1X76.2446Y-46.8987

G1X78.1430Y-45.7056

G1X79.2226Y-45.3522

G1X80.0829Y-45.3354

G1X83.3256Y-45.6939

G1X85.8734Y-45.6076

G1 Z0F20000

(Start Block)


G1X19.1663Y-47.3173
G1Z6F20000
(Plotting speed under)
G1 F4000


G1X20.1589Y-47.6648

G1X21.4825Y-47.8106

G1X24.0303Y-47.7929

G1X24.7252Y-47.7058

G1X25.3208Y-47.5355

G1X26.1149Y-47.0903

G1X26.8098Y-46.4486

G1X28.7049Y-43.8625

G1X29.2804Y-43.2007

G1X29.6885Y-42.8867

G1X30.1849Y-42.7299

G1X30.5819Y-42.8018

G1X31.1334Y-43.1567

G1X32.7162Y-44.9931

G1X33.2373Y-45.4878

G1X33.7585Y-45.8050

G1X34.3541Y-45.9240

G1X35.2475Y-45.7145

G1X37.7291Y-44.4258

G1X38.4240Y-44.2379

G1X39.2016Y-44.1746

G1X40.2108Y-44.2794

G1X42.7917Y-44.8159

G1X44.5289Y-44.9294

G1X50.8985Y-44.7550

G1X56.6890Y-44.9244

G1X57.5824Y-44.8163

G1X59.3692Y-44.2488

G1X60.0476Y-44.1775

G1X60.4612Y-44.2646

G1X60.9451Y-44.4942

G1X62.6450Y-45.7728

G1X62.9428Y-45.8885

G1X63.3399Y-45.9155

G1X63.7246Y-45.8144

G1X64.2457Y-45.4731

G1X65.7995Y-43.9052

G1X66.6157Y-43.2576

G1X67.5091Y-42.8786

G1X68.7334Y-42.7372

G1X70.7849Y-42.7865

G1X71.8768Y-43.1009

G1X72.7482Y-43.7187

G1X74.5240Y-45.5360

G1X74.9541Y-45.8038

G1X75.3512Y-45.9187

G1X75.7482Y-45.8862

G1X76.1453Y-45.7299

G1X77.8328Y-44.5349

G1X78.3292Y-44.3041

G1X78.8255Y-44.1931

G1X79.7189Y-44.2176

G1X81.6050Y-44.5631

G1X82.8623Y-44.6887

G1X84.3679Y-44.7015

G1X85.8734Y-44.5827

G1 Z0F20000

(Start Block)


G1X19.1663Y-45.9803
G1Z6F20000
(Plotting speed under)
G1 F4000


G1X20.3575Y-46.4237

G1X21.8299Y-46.6170

G1X24.0303Y-46.5885

G1X24.7252Y-46.4886

G1X25.4201Y-46.2863

G1X26.2018Y-45.8748

G1X26.9488Y-45.2562

G1X29.5893Y-42.1094

G1X30.1973Y-41.6905

G1X30.6812Y-41.5845

G1X31.1775Y-41.6900

G1X31.7511Y-42.0625

G1X33.4496Y-43.8534

G1X34.0191Y-44.3349

G1X34.6519Y-44.6705

G1X35.2475Y-44.7793

G1X35.8431Y-44.7077

G1X36.3394Y-44.5414

G1X39.0196Y-43.2508

G1X39.7145Y-43.0801

G1X40.3597Y-43.0277

G1X41.4020Y-43.1263

G1X44.0822Y-43.6750

G1X45.8028Y-43.7830

G1X50.5511Y-43.6791

G1X55.4151Y-43.7694

G1X56.3912Y-43.6442

G1X58.0788Y-43.1337

G1X58.8729Y-43.0323

G1X59.3692Y-43.1349

G1X59.7291Y-43.3087

G1X61.4662Y-44.6316

G1X62.1487Y-44.7694

G1X62.5085Y-44.6512

G1X63.0123Y-44.2844

G1X64.3326Y-42.7290

G1X65.0274Y-42.0451

G1X65.6230Y-41.7018

G1X66.2186Y-41.5854

G1X68.8492Y-42.0091

G1X69.5937Y-41.9432

G1X71.1820Y-41.5910

G1X71.9761Y-41.6780

G1X72.4104Y-41.9108

G1X72.8099Y-42.2467

G1X74.6166Y-44.4294

G1X74.9541Y-44.6582

G1X75.3512Y-44.7751

G1X75.6490Y-44.7428

G1X76.1453Y-44.4935

G1X77.6343Y-43.3191

G1X78.4615Y-43.0386

G1X79.1233Y-43.0615

G1X81.0094Y-43.4888

G1X82.2833Y-43.6453

G1X84.1362Y-43.6796

G1X85.8734Y-43.5536

G1 Z0F20000

(Start Block)


G1X19.1663Y-44.3446
G1Z6F20000
(Plotting speed under)
G1 F4000


G1X20.5560Y-44.9219

G1X21.9457Y-45.1845

G1X23.5671Y-45.1978

G1X25.0230Y-44.9171

G1X26.0157Y-44.4700

G1X26.8870Y-43.8481

G1X29.2804Y-41.3870

G1X29.8499Y-40.8958

G1X30.3834Y-40.5781

G1X30.9790Y-40.4357

G1X31.5746Y-40.5404

G1X32.1950Y-40.8863

G1X34.1445Y-42.6615

G1X34.8876Y-43.2081

G1X35.5453Y-43.5110

G1X36.1905Y-43.6291

G1X36.7365Y-43.5992

G1X37.4313Y-43.4161

G1X39.6152Y-42.3775

G1X40.4093Y-42.0750

G1X41.1042Y-41.9220

G1X41.7494Y-41.8813

G1X42.7917Y-41.9876

G1X45.5712Y-42.5244

G1X47.8874Y-42.6366

G1X54.0254Y-42.6021

G1X55.2993Y-42.4186

G1X57.0861Y-41.9289

G1X57.7810Y-41.8938

G1X58.2773Y-42.0190

G1X58.7736Y-42.2853

G1X60.2626Y-43.4435

G1X60.6597Y-43.6084

G1X60.9575Y-43.6259

G1X61.3546Y-43.4953

G1X61.8310Y-43.1242

G1X63.6377Y-40.9104

G1X64.1588Y-40.5518

G1X64.6304Y-40.4378

G1X65.0274Y-40.4857

G1X65.4245Y-40.6445

G1X67.2113Y-41.7361

G1X68.3032Y-41.9697

G1X68.8492Y-42.0046

G1X69.1966Y-41.9572

G1X69.5937Y-41.7761

G1X71.3805Y-40.5824

G1X71.7776Y-40.4470

G1X72.1746Y-40.4703

G1X72.5717Y-40.6608

G1X72.9489Y-41.0133

G1X74.6166Y-43.2991

G1X74.9541Y-43.5374

G1X75.2519Y-43.6224

G1X75.5373Y-43.5983

G1X75.8847Y-43.4123

G1X77.4482Y-42.1097

G1X78.1306Y-41.8909

G1X78.7262Y-41.9270

G1X80.5130Y-42.3996

G1X81.7042Y-42.5621

G1X84.0204Y-42.6075

G1X85.8734Y-42.5040

G1 Z0F20000

(Start Block)


G1X19.1663Y-42.3126
G1Z6F20000
(Plotting speed under)
G1 F4000


G1X20.5560Y-42.8950

G1X21.9457Y-43.2228

G1X23.2197Y-43.2832

G1X24.5267Y-43.0903

G1X25.5193Y-42.7449

G1X26.5492Y-42.1851

G1X29.1550Y-40.1693

G1X29.8871Y-39.6844

G1X30.5819Y-39.3840

G1X31.2106Y-39.2893

G1X31.8724Y-39.3891

G1X32.6293Y-39.7362

G1X34.9745Y-41.5095

G1X35.8431Y-42.0472

G1X36.6372Y-42.3630

G1X37.3486Y-42.4814

G1X38.0269Y-42.4482

G1X38.8211Y-42.2479

G1X41.8983Y-40.9215

G1X43.2550Y-40.7348

G1X44.2807Y-40.8248

G1X47.3083Y-41.3328

G1X50.3194Y-41.4572

G1X53.0989Y-41.3381

G1X55.7957Y-40.7784

G1X56.5732Y-40.7472

G1X57.4708Y-41.0510

G1X59.2079Y-42.3299

G1X59.8656Y-42.4759

G1X60.3178Y-42.3156

G1X60.7810Y-41.9144

G1X62.1216Y-40.1271

G1X62.5568Y-39.6666

G1X62.9428Y-39.3931

G1X63.3399Y-39.2940

G1X63.6377Y-39.3251

G1X63.9851Y-39.4802

G1X65.1143Y-40.4792

G1X66.9383Y-41.6125

G1X67.4098Y-41.7919

G1X68.4025Y-41.9828

G1X68.9981Y-42.0110

G1X69.4282Y-41.8136

G1X70.0305Y-41.2356

G1X71.2812Y-39.7831

G1X71.7155Y-39.4282

G1X72.0753Y-39.2988

G1X72.4724Y-39.3693

G1X72.8605Y-39.6646

G1X74.4081Y-41.9893

G1X74.7556Y-42.3380

G1X75.0534Y-42.4615

G1X75.3512Y-42.4549

G1X75.6241Y-42.3418

G1X77.0139Y-41.0767

G1X77.4482Y-40.8276

G1X77.8328Y-40.7413

G1X78.4284Y-40.7932

G1X79.9174Y-41.2566

G1X81.0094Y-41.4374

G1X83.6730Y-41.4894

G1X85.8734Y-41.4253

G1 Z0F20000


G00 X0.0000 Y0.0000


