$H
G21
G17
G90
G1 Z0F20000
G1 F15000

(Start Layer)

(Start Block)


G1X19.1162Y-105.9794
G1Z6F20000
(Plotting speed under)
G1 F4000


G1X20.7927Y-104.9571

G1X21.6340Y-104.6069

G1X22.5992Y-104.3283

G1X23.5911Y-104.1613

G1X24.6129Y-104.0958

G1X26.8958Y-104.2558

G1X29.2133Y-104.7446

G1X31.7635Y-105.5649

G1X34.1578Y-106.5364

G1X39.2176Y-108.8216

G1X41.5929Y-109.6807

G1X42.8989Y-109.9998

G1X44.2351Y-110.1847

G1X45.5495Y-110.2151

G1X46.8778Y-110.0870

G1X48.3591Y-109.7492

G1X49.7406Y-109.2350

G1X51.0716Y-108.5312

G1X52.2241Y-107.7150

G1X53.3074Y-106.7800

G1X54.4261Y-105.6756

G1X55.6841Y-104.2593

G1X58.2864Y-101.0607

G1X59.0527Y-100.3013

G1X59.7724Y-99.7559

G1X60.6460Y-99.2954

G1X61.6311Y-98.9749

G1X62.8532Y-98.7691

G1X64.2536Y-98.6965

G1X66.5253Y-98.8066

G1X68.9459Y-99.1386

G1X71.4118Y-99.6653

G1X73.9344Y-100.3922

G1X75.9808Y-101.1214

G1X78.0871Y-102.0000

G1X84.0827Y-104.9539

G1X85.7840Y-105.6891

G1 Z0F20000

(Start Block)


G1X19.1023Y-104.7227
G1Z6F20000
(Plotting speed under)
G1 F4000


G1X19.9991Y-104.1304

G1X20.8765Y-103.6729

G1X21.7188Y-103.3447

G1X22.6875Y-103.0893

G1X23.6846Y-102.9437

G1X24.7124Y-102.8987

G1X26.9911Y-103.0962

G1X29.3180Y-103.6199

G1X31.8723Y-104.4776

G1X34.2628Y-105.4838

G1X39.2899Y-107.8384

G1X41.6585Y-108.7303

G1X43.0633Y-109.0835

G1X44.3950Y-109.2676

G1X45.6594Y-109.2968

G1X47.0080Y-109.1674

G1X48.4985Y-108.8264

G1X49.9624Y-108.2757

G1X51.2775Y-107.5713

G1X52.5272Y-106.6775

G1X53.6952Y-105.6758

G1X54.7852Y-104.6084

G1X56.0467Y-103.2065

G1X58.6565Y-100.0402

G1X59.4310Y-99.2676

G1X60.1941Y-98.6809

G1X61.1133Y-98.1912

G1X62.0979Y-97.8662

G1X63.2140Y-97.6648

G1X64.6324Y-97.5715

G1X66.7363Y-97.6425

G1X69.0413Y-97.9155

G1X71.3945Y-98.3628

G1X73.8130Y-98.9859

G1X75.8641Y-99.6405

G1X77.9590Y-100.4228

G1X83.8702Y-103.0130

G1X85.6198Y-103.6931

G1 Z0F20000

(Start Block)


G1X19.0672Y-103.3329
G1Z6F20000
(Plotting speed under)
G1 F4000


G1X19.9529Y-102.7569

G1X20.8233Y-102.3139

G1X21.6618Y-101.9981

G1X22.6288Y-101.7552

G1X23.6266Y-101.6207

G1X24.6570Y-101.5856

G1X27.0504Y-101.8201

G1X29.5000Y-102.4071

G1X32.0673Y-103.3084

G1X34.4622Y-104.3522

G1X39.4736Y-106.7754

G1X41.7517Y-107.6674

G1X43.1470Y-108.0403

G1X44.4705Y-108.2424

G1X45.7288Y-108.2882

G1X47.0563Y-108.1787

G1X48.5464Y-107.8592

G1X50.0020Y-107.3356

G1X51.4038Y-106.6065

G1X52.6683Y-105.7263

G1X53.8558Y-104.7469

G1X55.0654Y-103.6053

G1X56.4293Y-102.1396

G1X59.0596Y-99.0709

G1X59.8579Y-98.2946

G1X60.6802Y-97.6719

G1X61.5670Y-97.1965

G1X62.6563Y-96.8293

G1X63.8545Y-96.6129

G1X65.2309Y-96.5195

G1X67.1317Y-96.5657

G1X69.3349Y-96.7946

G1X71.5868Y-97.1814

G1X73.8386Y-97.7056

G1X77.8020Y-98.9338

G1X83.6344Y-101.1914

G1X85.4142Y-101.8044

G1 Z0F20000

(Start Block)


G1X19.0063Y-101.8369
G1Z6F20000
(Plotting speed under)
G1 F4000


G1X19.8186Y-101.3149

G1X20.7368Y-100.8569

G1X21.6749Y-100.5249

G1X22.6424Y-100.3083

G1X23.6441Y-100.1967

G1X24.7980Y-100.1853

G1X27.2882Y-100.4898

G1X29.7643Y-101.1310

G1X32.3383Y-102.0743

G1X34.7575Y-103.1624

G1X39.5844Y-105.5641

G1X41.6605Y-106.4297

G1X42.8303Y-106.7947

G1X43.9127Y-107.0327

G1X45.0247Y-107.1683

G1X46.1089Y-107.1906

G1X47.5464Y-107.0510

G1X49.0476Y-106.6959

G1X50.5399Y-106.1178

G1X51.8799Y-105.3786

G1X53.5410Y-104.1761

G1X55.1853Y-102.7460

G1X56.6121Y-101.3100

G1X59.2549Y-98.4036

G1X60.4153Y-97.3191

G1X61.1857Y-96.7629

G1X62.0010Y-96.3211

G1X62.8841Y-95.9864

G1X63.8524Y-95.7501

G1X65.5975Y-95.5571

G1X67.6328Y-95.5700

G1X70.0431Y-95.7976

G1X72.5640Y-96.2203

G1X74.7663Y-96.7214

G1X77.0023Y-97.3420

G1X85.1905Y-100.0256

G1 Z0F20000

(Start Block)


G1X18.9144Y-100.2609
G1Z6F20000
(Plotting speed under)
G1 F4000


G1X19.8096Y-99.7078

G1X20.7173Y-99.2864

G1X21.6512Y-98.9858

G1X22.6194Y-98.7954

G1X23.7395Y-98.7019

G1X24.8717Y-98.7194

G1X27.3901Y-99.0689

G1X29.8956Y-99.7432

G1X32.5665Y-100.7448

G1X35.0593Y-101.8896

G1X39.8947Y-104.3444

G1X42.0173Y-105.2480

G1X43.1865Y-105.6195

G1X44.2681Y-105.8618

G1X45.3797Y-105.9999

G1X46.4136Y-106.0243

G1X47.8488Y-105.8904

G1X49.2394Y-105.5722

G1X50.7006Y-105.0269

G1X52.0197Y-104.3233

G1X53.6886Y-103.1794

G1X55.3775Y-101.8032

G1X56.8275Y-100.4506

G1X59.6747Y-97.5779

G1X60.9356Y-96.4864

G1X61.7458Y-95.9334

G1X62.5930Y-95.4878

G1X63.4977Y-95.1441

G1X64.4762Y-94.8952

G1X66.1692Y-94.6797

G1X68.0215Y-94.6519

G1X70.1854Y-94.8015

G1X72.4869Y-95.1190

G1X76.8115Y-96.0558

G1X84.9692Y-98.3558

G1 Z0F20000

(Start Block)


G1X18.7874Y-98.6301
G1Z6F20000
(Plotting speed under)
G1 F4000


G1X19.6637Y-98.1070

G1X20.5591Y-97.7101

G1X21.4858Y-97.4287

G1X22.5606Y-97.2393

G1X23.6863Y-97.1682

G1X24.8099Y-97.2012

G1X27.4616Y-97.5948

G1X30.0699Y-98.3162

G1X32.8721Y-99.3862

G1X35.3919Y-100.5603

G1X40.3095Y-103.0893

G1X42.3930Y-103.9904

G1X43.5640Y-104.3714

G1X44.6461Y-104.6210

G1X45.7569Y-104.7656

G1X46.8395Y-104.7936

G1X48.1696Y-104.6737

G1X49.5548Y-104.3656

G1X50.8717Y-103.8907

G1X52.1329Y-103.2495

G1X53.8254Y-102.1678

G1X55.4826Y-100.9253

G1X60.0314Y-96.8860

G1X61.4919Y-95.7338

G1X63.2392Y-94.7456

G1X64.1737Y-94.3958

G1X65.1692Y-94.1355

G1X66.7134Y-93.9073

G1X68.4852Y-93.8332

G1X70.4777Y-93.9154

G1X72.5740Y-94.1400

G1X76.6336Y-94.8694

G1X84.7675Y-96.7919

G1 Z0F20000

(Start Block)


G1X18.6240Y-96.9680
G1Z6F20000
(Plotting speed under)
G1 F4000


G1X19.4827Y-96.4781

G1X20.4672Y-96.0732

G1X21.3917Y-95.8232

G1X22.4690Y-95.6607

G1X23.7002Y-95.6097

G1X24.9232Y-95.6718

G1X27.6144Y-96.1098

G1X30.3180Y-96.8772

G1X33.1605Y-97.9735

G1X35.8063Y-99.2146

G1X40.7328Y-101.7658

G1X42.7833Y-102.6662

G1X43.9582Y-103.0593

G1X45.0414Y-103.3199

G1X46.1516Y-103.4746

G1X47.2816Y-103.5106

G1X48.6090Y-103.3938

G1X49.8815Y-103.1178

G1X51.1485Y-102.6751

G1X52.3050Y-102.1131

G1X53.9008Y-101.1765

G1X55.5804Y-100.0391

G1X60.3869Y-96.2557

G1X62.0061Y-95.1101

G1X63.9248Y-94.1024

G1X65.9139Y-93.4796

G1X67.4234Y-93.2322

G1X69.0542Y-93.1221

G1X70.8580Y-93.1395

G1X72.7770Y-93.2776

G1X76.5238Y-93.7999

G1X84.5990Y-95.3295

G1 Z0F20000

(Start Block)


G1X18.4262Y-95.2966
G1Z6F20000
(Plotting speed under)
G1 F4000


G1X19.2701Y-94.8420

G1X20.2443Y-94.4668

G1X21.2686Y-94.2160

G1X22.3493Y-94.0778

G1X23.5708Y-94.0443

G1X24.9073Y-94.1249

G1X27.7572Y-94.6091

G1X30.5442Y-95.4079

G1X33.5282Y-96.5609

G1X36.2101Y-97.8188

G1X41.2536Y-100.4299

G1X43.2893Y-101.3258

G1X44.4709Y-101.7242

G1X45.6685Y-102.0093

G1X46.7841Y-102.1552

G1X47.8181Y-102.1828

G1X49.0575Y-102.0762

G1X50.2160Y-101.8361

G1X51.3359Y-101.4691

G1X52.4808Y-100.9540

G1X55.6716Y-99.1461

G1X60.7316Y-95.6870

G1X62.5595Y-94.5535

G1X64.6315Y-93.5651

G1X66.7481Y-92.9222

G1X68.1697Y-92.6697

G1X69.6714Y-92.5258

G1X71.3711Y-92.4818

G1X73.1407Y-92.5394

G1X76.5810Y-92.8650

G1X84.4735Y-93.9635

G1 Z0F20000

(Start Block)


G1X18.1995Y-93.6351
G1Z6F20000
(Plotting speed under)
G1 F4000


G1X19.1267Y-93.1771

G1X20.0983Y-92.8438

G1X21.1240Y-92.6236

G1X22.3205Y-92.5003

G1X23.6225Y-92.4924

G1X24.9770Y-92.5938

G1X28.0218Y-93.1355

G1X30.9530Y-93.9882

G1X33.9788Y-95.1603

G1X36.6955Y-96.4292

G1X41.8705Y-99.0915

G1X43.9084Y-99.9797

G1X45.0988Y-100.3762

G1X46.1929Y-100.6371

G1X47.3103Y-100.7895

G1X48.3436Y-100.8220

G1X49.4074Y-100.7436

G1X50.4493Y-100.5544

G1X51.5154Y-100.2407

G1X52.5658Y-99.8177

G1X55.7567Y-98.2479

G1X61.0549Y-95.1787

G1X63.1041Y-94.0889

G1X65.3183Y-93.1455

G1X67.5905Y-92.4813

G1X70.4186Y-92.0406

G1X73.7569Y-91.9216

G1X76.9386Y-92.0658

G1X84.3972Y-92.6893

G1 Z0F20000

(Start Block)


G1X17.9523Y-92.0001
G1Z6F20000
(Plotting speed under)
G1 F4000


G1X18.8720Y-91.5824

G1X19.9388Y-91.2524

G1X21.0737Y-91.0454

G1X22.2815Y-90.9507

G1X23.6643Y-90.9643

G1X25.1428Y-91.0924

G1X28.2736Y-91.6660

G1X31.2454Y-92.5249

G1X34.4152Y-93.7375

G1X37.2648Y-95.0551

G1X42.3912Y-97.6680

G1X44.4674Y-98.5732

G1X46.7193Y-99.2332

G1X47.8383Y-99.3959

G1X48.8535Y-99.4377

G1X50.7909Y-99.2261

G1X52.6951Y-98.6416

G1X55.9118Y-97.3118

G1X63.7238Y-93.6746

G1X66.1610Y-92.7782

G1X68.5175Y-92.1353

G1X71.3717Y-91.6449

G1X74.4658Y-91.4016

G1X77.5349Y-91.3626

G1X84.3725Y-91.5025

G1 Z0F20000

(Start Block)


G1X17.6955Y-90.4053
G1Z6F20000
(Plotting speed under)
G1 F4000


G1X18.6880Y-90.0010

G1X19.7776Y-89.7037

G1X21.0240Y-89.5105

G1X22.3565Y-89.4360

G1X23.8088Y-89.4741

G1X25.3063Y-89.6171

G1X28.6189Y-90.2318

G1X31.7319Y-91.1281

G1X34.9395Y-92.3422

G1X37.8237Y-93.6567

G1X43.0999Y-96.3064

G1X45.1020Y-97.1684

G1X47.3545Y-97.8295

G1X48.3640Y-97.9838

G1X49.3938Y-98.0395

G1X51.1314Y-97.8863

G1X53.2179Y-97.3319

G1X56.3025Y-96.3025

G1X64.6284Y-93.2531

G1X67.2839Y-92.4382

G1X69.7202Y-91.8318

G1X72.5010Y-91.3129

G1X75.5520Y-90.9315

G1X78.6637Y-90.6917

G1X84.3989Y-90.3992

G1 Z0F20000

(Start Block)


G1X17.4416Y-88.8609
G1Z6F20000
(Plotting speed under)
G1 F4000


G1X18.5501Y-88.4624

G1X19.7282Y-88.1870

G1X20.9861Y-88.0246

G1X22.4268Y-87.9667

G1X23.9620Y-88.0221

G1X25.5843Y-88.1862

G1X29.0647Y-88.8373

G1X32.2108Y-89.7328

G1X35.4528Y-90.9368

G1X38.4696Y-92.2870

G1X43.8046Y-94.9233

G1X45.8272Y-95.7817

G1X47.9848Y-96.4151

G1X50.0271Y-96.6392

G1X51.6731Y-96.5119

G1X54.7548Y-95.8367

G1X67.2663Y-92.4990

G1X72.4878Y-91.2694

G1X77.9884Y-90.2605

G1X84.4727Y-89.3761

G1 Z0F20000

(Start Block)


G1X17.2037Y-87.3748
G1Z6F20000
(Plotting speed under)
G1 F4000


G1X18.4344Y-86.9866

G1X19.7037Y-86.7308

G1X21.0806Y-86.5843

G1X22.5508Y-86.5450

G1X24.1312Y-86.6101

G1X25.8738Y-86.7879

G1X29.5119Y-87.4594

G1X32.7899Y-88.3761

G1X36.1641Y-89.6103

G1X39.1072Y-90.9051

G1X44.6029Y-93.5740

G1X46.6433Y-94.4233

G1X48.8323Y-95.0475

G1X50.7674Y-95.2510

G1X52.0036Y-95.1818

G1X56.9601Y-94.4956

G1X64.4529Y-93.1797

G1X69.5881Y-92.0535

G1X80.3052Y-89.3736

G1X84.5877Y-88.4301

G1 Z0F20000

(Start Block)


G1X16.9946Y-85.9520
G1Z6F20000
(Plotting speed under)
G1 F4000


G1X18.3537Y-85.5767

G1X19.7151Y-85.3367

G1X21.2092Y-85.2006

G1X22.7705Y-85.1724

G1X24.5357Y-85.2542

G1X26.2910Y-85.4365

G1X30.0676Y-86.1229

G1X33.3657Y-87.0250

G1X36.8118Y-88.2572

G1X39.8367Y-89.5628

G1X45.3972Y-92.2232

G1X47.3579Y-93.0349

G1X49.4474Y-93.6486

G1X51.3827Y-93.8850

G1X57.5512Y-93.6716

G1X61.1177Y-93.4579

G1X64.5261Y-93.1025

G1X67.8286Y-92.5762

G1X70.9011Y-91.9099

G1X74.0095Y-91.0648

G1X82.3029Y-88.2947

G1X84.7356Y-87.5578

G1 Z0F20000

(Start Block)


G1X16.8262Y-84.5962
G1Z6F20000
(Plotting speed under)
G1 F4000


G1X18.2017Y-84.2579

G1X19.5655Y-84.0308

G1X22.5090Y-83.8442

G1X25.8368Y-84.0145

G1X29.3732Y-84.5393

G1X33.1873Y-85.4578

G1X36.9374Y-86.7068

G1X40.3608Y-88.1293

G1X46.7873Y-91.1470

G1X48.2609Y-91.7349

G1X49.5213Y-92.1384

G1X51.6441Y-92.5306

G1X60.4710Y-93.0925

G1X63.3656Y-93.0956

G1X66.1967Y-92.9011

G1X68.9366Y-92.5034

G1X71.5769Y-91.9176

G1X73.9864Y-91.2108

G1X76.4342Y-90.3341

G1X83.0215Y-87.4954

G1X84.9062Y-86.7550

G1 Z0F20000

(Start Block)


G1X16.7085Y-83.3098
G1Z6F20000
(Plotting speed under)
G1 F4000


G1X18.2612Y-82.9744

G1X19.8827Y-82.7349

G1X21.4862Y-82.6033

G1X23.2508Y-82.5661

G1X26.9588Y-82.7967

G1X30.7753Y-83.4075

G1X34.4655Y-84.3323

G1X38.0952Y-85.5594

G1X41.4877Y-86.9757

G1X47.5797Y-89.8322

G1X50.2310Y-90.8187

G1X51.4449Y-91.1130

G1X54.0565Y-91.5240

G1X59.4149Y-92.5346

G1X61.5390Y-92.8212

G1X63.4671Y-92.9617

G1X65.9195Y-92.9491

G1X68.3688Y-92.7123

G1X70.7619Y-92.2655

G1X73.2740Y-91.5721

G1X75.4469Y-90.7912

G1X77.7558Y-89.7864

G1X85.0886Y-86.0164

G1 Z0F20000

(Start Block)


G1X16.6493Y-82.0949
G1Z6F20000
(Plotting speed under)
G1 F4000


G1X18.5237Y-81.7382

G1X20.3645Y-81.4922

G1X22.1941Y-81.3589

G1X24.1521Y-81.3332

G1X26.1287Y-81.4187

G1X28.2196Y-81.6201

G1X30.3119Y-81.9289

G1X32.5120Y-82.3658

G1X36.0035Y-83.2947

G1X39.5412Y-84.5323

G1X42.7206Y-85.8841

G1X48.4712Y-88.5998

G1X50.7400Y-89.4863

G1X54.0586Y-90.3629

G1X60.3073Y-92.2761

G1X62.5690Y-92.7299

G1X64.6843Y-92.9349

G1X67.0119Y-92.9083

G1X69.4123Y-92.6198

G1X71.7852Y-92.0921

G1X74.2297Y-91.3074

G1X76.4035Y-90.4079

G1X78.5930Y-89.3145

G1X85.2714Y-85.3347

G1 Z0F20000

(Start Block)


G1X16.6540Y-80.9537
G1Z6F20000
(Plotting speed under)
G1 F4000


G1X19.1579Y-80.5289

G1X21.2211Y-80.2780

G1X23.2829Y-80.1478

G1X25.3933Y-80.1410

G1X27.6077Y-80.2626

G1X29.8868Y-80.5160

G1X32.1456Y-80.8899

G1X34.4828Y-81.4039

G1X37.8420Y-82.3720

G1X41.1845Y-83.6061

G1X43.9622Y-84.8233

G1X49.8643Y-87.6451

G1X54.1248Y-89.2166

G1X60.0386Y-91.8191

G1X62.5726Y-92.5712

G1X65.0546Y-92.8987

G1X67.3545Y-92.8695

G1X69.7101Y-92.5583

G1X72.2290Y-91.9481

G1X74.7473Y-91.0676

G1X76.9415Y-90.0801

G1X79.2391Y-88.8238

G1X81.1208Y-87.6345

G1X85.4436Y-84.7008

G1 Z0F20000

(Start Block)


G1X16.7245Y-79.8890
G1Z6F20000
(Plotting speed under)
G1 F4000


G1X22.1300Y-79.1147

G1X24.2980Y-78.9762

G1X26.5596Y-78.9717

G1X29.0011Y-79.1196

G1X31.4035Y-79.4107

G1X33.7922Y-79.8384

G1X36.2605Y-80.4250

G1X40.2757Y-81.7009

G1X44.4068Y-83.4277

G1X50.2582Y-86.3142

G1X53.9431Y-87.9488

G1X58.9983Y-90.9269

G1X60.7413Y-91.8007

G1X62.7451Y-92.4710

G1X64.9415Y-92.7964

G1X67.2591Y-92.7725

G1X69.7542Y-92.4253

G1X72.4455Y-91.7384

G1X75.0452Y-90.7841

G1X77.3971Y-89.6682

G1X79.6438Y-88.3668

G1X81.7223Y-86.9606

G1X85.5957Y-84.1029

G1 Z0F20000

(Start Block)


G1X16.8599Y-78.9045
G1Z6F20000
(Plotting speed under)
G1 F4000


G1X23.0792Y-77.9900

G1X25.3396Y-77.8290

G1X27.5395Y-77.8134

G1X30.0805Y-77.9612

G1X32.7340Y-78.2929

G1X35.3544Y-78.7922

G1X37.8813Y-79.4365

G1X40.9944Y-80.4563

G1X44.0475Y-81.7032

G1X46.4860Y-82.8635

G1X52.9168Y-86.1571

G1X54.8483Y-87.3467

G1X58.9804Y-90.4939

G1X60.7834Y-91.6041

G1X61.7173Y-92.0080

G1X62.5946Y-92.2821

G1X64.5971Y-92.5964

G1X66.9541Y-92.5711

G1X69.6668Y-92.1805

G1X72.4600Y-91.4525

G1X75.1881Y-90.4351

G1X77.6718Y-89.2295

G1X80.0673Y-87.7919

G1X82.1552Y-86.3135

G1X85.7201Y-83.5273

G1 Z0F20000

(Start Block)


G1X17.0555Y-78.0047
G1Z6F20000
(Plotting speed under)
G1 F4000


G1X24.1611Y-76.8816

G1X26.2897Y-76.7042

G1X28.5344Y-76.6689

G1X31.1738Y-76.8159

G1X33.8776Y-77.1615

G1X36.5128Y-77.6806

G1X39.1900Y-78.3941

G1X42.1242Y-79.3995

G1X45.0912Y-80.6613

G1X47.7716Y-82.0039

G1X52.4416Y-84.5815

G1X53.6799Y-85.3660

G1X55.0091Y-86.3910

G1X58.7699Y-89.9593

G1X60.0719Y-91.0003

G1X60.9826Y-91.5226

G1X61.8700Y-91.8748

G1X62.8459Y-92.1194

G1X64.0552Y-92.2707

G1X66.5798Y-92.2354

G1X69.4340Y-91.8194

G1X72.2992Y-91.0832

G1X75.2019Y-90.0142

G1X77.7939Y-88.7578

G1X80.2460Y-87.2749

G1X82.4881Y-85.6539

G1X85.8120Y-82.9578

G1 Z0F20000

(Start Block)


G1X17.3032Y-77.1945
G1Z6F20000
(Plotting speed under)
G1 F4000


G1X19.2969Y-76.9120

G1X25.0567Y-75.8183

G1X27.1475Y-75.6014

G1X29.3428Y-75.5354

G1X32.0644Y-75.6668

G1X34.8378Y-76.0198

G1X37.5914Y-76.5779

G1X40.3359Y-77.3420

G1X43.1881Y-78.3666

G1X46.0679Y-79.6513

G1X48.8742Y-81.1412

G1X52.4572Y-83.2762

G1X53.8693Y-84.3033

G1X55.2375Y-85.5541

G1X56.4236Y-86.8478

G1X58.6543Y-89.5500

G1X59.6759Y-90.5354

G1X60.3723Y-91.0083

G1X61.2124Y-91.3923

G1X62.1175Y-91.6411

G1X63.2524Y-91.7962

G1X64.5619Y-91.8373

G1X65.9517Y-91.7729

G1X69.0189Y-91.3507

G1X72.0851Y-90.5971

G1X75.1016Y-89.5207

G1X77.7912Y-88.2435

G1X80.3314Y-86.7214

G1X82.6680Y-85.0259

G1X85.8698Y-82.3768

G1 Z0F20000

(Start Block)


G1X17.5911Y-76.4786
G1Z6F20000
(Plotting speed under)
G1 F4000


G1X19.9128Y-76.1365

G1X25.9700Y-74.7750

G1X28.0225Y-74.5154

G1X30.0064Y-74.4210

G1X32.6515Y-74.5121

G1X35.5169Y-74.8568

G1X38.3788Y-75.4382

G1X41.2236Y-76.2524

G1X43.9936Y-77.2847

G1X46.6967Y-78.5361

G1X49.4257Y-80.0515

G1X52.4581Y-81.9863

G1X53.9516Y-83.1953

G1X55.3279Y-84.6391

G1X56.5185Y-86.1910

G1X58.3965Y-89.0273

G1X59.2021Y-89.9687

G1X59.8954Y-90.4936

G1X60.6004Y-90.8239

G1X61.4777Y-91.0587

G1X62.4430Y-91.1850

G1X63.8112Y-91.2293

G1X65.2849Y-91.1678

G1X68.6177Y-90.7436

G1X71.8773Y-89.9865

G1X74.9391Y-88.9396

G1X77.6886Y-87.6769

G1X80.3736Y-86.0996

G1X82.8584Y-84.3021

G1X85.8958Y-81.7651

G1 Z0F20000

(Start Block)


G1X17.9043Y-75.8610
G1Z6F20000
(Plotting speed under)
G1 F4000


G1X19.2084Y-75.7090

G1X20.5543Y-75.4408

G1X25.0782Y-74.1743

G1X26.7999Y-73.7689

G1X28.6025Y-73.4815

G1X30.5362Y-73.3366

G1X33.1638Y-73.3807

G1X36.0261Y-73.6979

G1X38.8786Y-74.2658

G1X41.7547Y-75.0918

G1X44.5401Y-76.1499

G1X47.1639Y-77.4007

G1X49.8176Y-78.9358

G1X52.5447Y-80.7921

G1X54.1067Y-82.1989

G1X55.4837Y-83.8608

G1X56.5698Y-85.5597

G1X58.1430Y-88.5385

G1X58.7357Y-89.3483

G1X59.2279Y-89.7704

G1X59.8484Y-90.0911

G1X60.6048Y-90.3058

G1X61.6046Y-90.4396

G1X62.9449Y-90.4860

G1X64.6627Y-90.4254

G1X68.2376Y-90.0126

G1X71.6081Y-89.2847

G1X74.7757Y-88.2556

G1X77.6161Y-86.9953

G1X80.2948Y-85.4610

G1X82.8630Y-83.6340

G1X85.8954Y-81.1028

G1 Z0F20000

(Start Block)


G1X18.2243Y-75.3435
G1Z6F20000
(Plotting speed under)
G1 F4000


G1X19.6492Y-75.1746

G1X21.1044Y-74.8493

G1X25.8474Y-73.2876

G1X27.6459Y-72.7860

G1X29.3139Y-72.4670

G1X31.1013Y-72.2872

G1X33.7154Y-72.2874

G1X36.4769Y-72.5685

G1X39.3143Y-73.1210

G1X42.1292Y-73.9282

G1X44.9258Y-75.0026

G1X47.5636Y-76.2929

G1X50.2239Y-77.8995

G1X52.6991Y-79.7018

G1X54.2113Y-81.2025

G1X55.5547Y-83.0324

G1X56.5762Y-84.9426

G1X57.7733Y-87.8460

G1X58.2671Y-88.6436

G1X58.6964Y-89.0263

G1X59.2382Y-89.2945

G1X59.9573Y-89.4772

G1X60.7953Y-89.5766

G1X62.3355Y-89.6211

G1X64.1254Y-89.5621

G1X67.9596Y-89.1639

G1X71.4152Y-88.4680

G1X74.5997Y-87.4842

G1X77.4697Y-86.2586

G1X80.2682Y-84.6958

G1X82.7910Y-82.9314

G1X85.8770Y-80.3696

G1 Z0F20000

(Start Block)


G1X18.5306Y-74.9253
G1Z6F20000
(Plotting speed under)
G1 F4000


G1X20.0777Y-74.7339

G1X21.7492Y-74.3072

G1X26.6284Y-72.4352

G1X28.3947Y-71.8590

G1X29.9522Y-71.5028

G1X31.4899Y-71.2958

G1X34.0015Y-71.2265

G1X36.6774Y-71.4501

G1X39.4769Y-71.9611

G1X42.2518Y-72.7348

G1X45.0516Y-73.8005

G1X47.8002Y-75.1604

G1X50.3805Y-76.7654

G1X52.6991Y-78.5334

G1X53.5195Y-79.3311

G1X54.2668Y-80.1978

G1X55.5529Y-82.1355

G1X56.3929Y-83.9362

G1X57.3748Y-86.9947

G1X57.7576Y-87.7722

G1X58.1203Y-88.1320

G1X58.6061Y-88.3756

G1X60.0845Y-88.6190

G1X63.8211Y-88.5942

G1X67.7603Y-88.2233

G1X71.2204Y-87.5728

G1X74.4133Y-86.6336

G1X77.3521Y-85.4212

G1X80.2092Y-83.8607

G1X82.7894Y-82.0784

G1X85.8512Y-79.5447

G1 Z0F20000

(Start Block)


G1X18.8012Y-74.6015
G1Z6F20000
(Plotting speed under)
G1 F4000


G1X20.2551Y-74.4250

G1X21.8562Y-74.0073

G1X23.5730Y-73.3577

G1X28.5020Y-71.1921

G1X30.1766Y-70.6836

G1X31.9260Y-70.3617

G1X34.3451Y-70.2265

G1X36.8838Y-70.3912

G1X39.5929Y-70.8496

G1X42.3282Y-71.5870

G1X45.1192Y-72.6357

G1X47.8732Y-74.0020

G1X50.4620Y-75.6437

G1X52.7761Y-77.4873

G1X53.5852Y-78.3259

G1X54.3749Y-79.3172

G1X54.9991Y-80.2650

G1X55.5847Y-81.3517

G1X56.3510Y-83.3102

G1X57.0277Y-86.1194

G1X57.2899Y-86.7949

G1X57.5555Y-87.1127

G1X57.9716Y-87.3504

G1X58.5109Y-87.4903

G1X59.3932Y-87.5826

G1X63.4524Y-87.5621

G1X67.4262Y-87.2368

G1X70.9652Y-86.6233

G1X74.2359Y-85.7052

G1X77.2620Y-84.4898

G1X80.1978Y-82.9069

G1X82.8507Y-81.0784

G1X85.8290Y-78.6070

G1 Z0F20000

(Start Block)


G1X19.0143Y-74.3625
G1Z6F20000
(Plotting speed under)
G1 F4000


G1X20.7053Y-74.1310

G1X22.4349Y-73.6137

G1X24.2760Y-72.8260

G1X29.0736Y-70.4547

G1X30.7278Y-69.8687

G1X32.3061Y-69.5086

G1X34.5516Y-69.2991

G1X36.9119Y-69.3844

G1X39.5666Y-69.7774

G1X42.1702Y-70.4353

G1X45.0346Y-71.4749

G1X47.7843Y-72.8220

G1X50.3806Y-74.4732

G1X52.6987Y-76.3553

G1X53.5050Y-77.2104

G1X54.2878Y-78.2227

G1X54.9513Y-79.2797

G1X55.4627Y-80.2892

G1X56.2059Y-82.3892

G1X56.7228Y-85.1594

G1X56.9321Y-85.8039

G1X57.1686Y-86.0979

G1X57.5139Y-86.2931

G1X58.0829Y-86.4284

G1X58.9544Y-86.5015

G1X63.3556Y-86.4715

G1X67.2714Y-86.1761

G1X70.7947Y-85.5949

G1X74.1040Y-84.6928

G1X77.1946Y-83.4693

G1X80.0975Y-81.9166

G1X82.8021Y-80.0573

G1X85.8201Y-77.5346

G1 Z0F20000

(Start Block)


G1X19.1497Y-74.1937
G1Z6F20000
(Plotting speed under)
G1 F4000


G1X20.8619Y-73.9489

G1X22.8530Y-73.3086

G1X24.8439Y-72.3818

G1X29.6553Y-69.7810

G1X31.1933Y-69.1586

G1X32.7305Y-68.7357

G1X34.8223Y-68.4605

G1X37.0175Y-68.4739

G1X39.4143Y-68.7672

G1X41.9157Y-69.3404

G1X44.8062Y-70.3346

G1X47.6335Y-71.6857

G1X50.2257Y-73.3233

G1X52.5444Y-75.2136

G1X53.3503Y-76.0667

G1X54.1323Y-77.0809

G1X54.7937Y-78.1440

G1X55.3348Y-79.2381

G1X56.0328Y-81.3195

G1X56.4810Y-84.1507

G1X56.6662Y-84.7629

G1X56.8926Y-85.0349

G1X57.2332Y-85.2105

G1X58.6807Y-85.3861

G1X63.4597Y-85.3433

G1X67.3151Y-85.0515

G1X70.7827Y-84.4790

G1X74.1043Y-83.5701

G1X77.1963Y-82.3367

G1X80.0990Y-80.7678

G1X82.8174Y-78.8718

G1X85.8301Y-76.3041

G1 Z0F20000

(Start Block)


G1X19.1907Y-74.0754
G1Z6F20000
(Plotting speed under)
G1 F4000


G1X21.0756Y-73.7786

G1X23.2187Y-73.0362

G1X25.3508Y-71.9829

G1X30.2748Y-69.1568

G1X31.6589Y-68.5400

G1X33.0920Y-68.0772

G1X35.0414Y-67.7321

G1X37.0933Y-67.6677

G1X39.3338Y-67.8750

G1X41.6728Y-68.3514

G1X44.5431Y-69.2765

G1X47.3312Y-70.5580

G1X49.9113Y-72.1459

G1X52.2362Y-74.0075

G1X53.1200Y-74.9097

G1X53.9062Y-75.9046

G1X54.5750Y-76.9548

G1X55.1542Y-78.1076

G1X55.8476Y-80.1551

G1X56.3105Y-83.0963

G1X56.5033Y-83.6767

G1X56.7407Y-83.9309

G1X57.2441Y-84.1299

G1X59.1405Y-84.2586

G1X63.8042Y-84.1808

G1X67.5822Y-83.8611

G1X71.0871Y-83.2381

G1X74.3239Y-82.3021

G1X77.4170Y-81.0112

G1X80.3048Y-79.3812

G1X82.9035Y-77.4968

G1X85.8575Y-74.8902

G1 Z0F20000

(Start Block)


G1X19.1258Y-73.9857
G1Z6F20000
(Plotting speed under)
G1 F4000


G1X20.1306Y-73.8731

G1X21.2449Y-73.6248

G1X23.5588Y-72.7783

G1X25.8676Y-71.5931

G1X30.8128Y-68.6422

G1X32.2204Y-67.9665

G1X33.5651Y-67.4806

G1X35.2896Y-67.0965

G1X37.1590Y-66.9502

G1X39.1627Y-67.0497

G1X41.3710Y-67.4145

G1X43.9532Y-68.1466

G1X46.5702Y-69.2284

G1X48.9740Y-70.5641

G1X51.2117Y-72.1744

G1X52.3839Y-73.2007

G1X53.2362Y-74.1129

G1X54.0452Y-75.1938

G1X54.7647Y-76.4202

G1X55.2512Y-77.4918

G1X55.6362Y-78.6085

G1X55.9528Y-79.9413

G1X56.2728Y-81.9696

G1X56.5717Y-82.6266

G1X56.9960Y-82.8933

G1X57.6551Y-83.0301

G1X60.6264Y-83.1024

G1X64.8574Y-82.9500

G1X68.4267Y-82.5529

G1X71.8297Y-81.8431

G1X74.9273Y-80.8441

G1X77.7942Y-79.5544

G1X80.5463Y-77.9165

G1X83.0835Y-75.9944

G1X85.8800Y-73.4417

G1 Z0F20000

(Start Block)


G1X18.9507Y-73.8942
G1Z6F20000
(Plotting speed under)
G1 F4000


G1X20.0697Y-73.7674

G1X21.3158Y-73.4810

G1X22.5720Y-73.0654

G1X23.9235Y-72.4991

G1X26.4260Y-71.1873

G1X31.6138Y-68.0370

G1X32.9571Y-67.3713

G1X34.2224Y-66.8828

G1X35.8462Y-66.4695

G1X37.5824Y-66.2749

G1X39.4214Y-66.3060

G1X41.3589Y-66.5612

G1X42.8588Y-66.8988

G1X44.3902Y-67.3642

G1X45.9001Y-67.9439

G1X47.2836Y-68.5866

G1X48.7356Y-69.3873

G1X50.0505Y-70.2391

G1X51.2973Y-71.1772

G1X52.4552Y-72.1895

G1X53.8632Y-73.8249

G1X55.0044Y-75.7596

G1X55.7793Y-77.8204

G1X56.4447Y-80.8538

G1X56.6037Y-81.2099

G1X56.8588Y-81.4997

G1X57.4234Y-81.7547

G1X58.2342Y-81.8746

G1X62.0427Y-81.9021

G1X65.9008Y-81.6710

G1X69.2417Y-81.2037

G1X72.3955Y-80.4589

G1X75.4269Y-79.4003

G1X78.1485Y-78.1042

G1X80.7491Y-76.4972

G1X83.1480Y-74.6403

G1X85.8892Y-72.1153

G1 Z0F20000

(Start Block)


G1X18.6709Y-73.7680
G1Z6F20000
(Plotting speed under)
G1 F4000


G1X19.9051Y-73.6348

G1X21.1819Y-73.3488

G1X22.6582Y-72.8688

G1X24.1740Y-72.2375

G1X27.0061Y-70.7536

G1X32.3910Y-67.4667

G1X33.6692Y-66.8140

G1X34.9548Y-66.2884

G1X36.4844Y-65.8555

G1X38.0977Y-65.6195

G1X39.8690Y-65.5910

G1X41.6530Y-65.7720

G1X43.0841Y-66.0528

G1X44.5897Y-66.4712

G1X46.0077Y-66.9801

G1X47.4088Y-67.5971

G1X48.7495Y-68.3024

G1X50.0528Y-69.1096

G1X51.2962Y-70.0094

G1X52.4576Y-70.9915

G1X53.8827Y-72.5845

G1X55.0629Y-74.4742

G1X55.8738Y-76.4033

G1X56.7073Y-79.4358

G1X56.9415Y-79.9162

G1X57.2294Y-80.2258

G1X57.8311Y-80.5094

G1X58.8828Y-80.6702

G1X60.6416Y-80.7202

G1X62.9251Y-80.6678

G1X66.5058Y-80.3888

G1X69.7963Y-79.8623

G1X72.7796Y-79.0994

G1X75.6361Y-78.0595

G1X78.2991Y-76.7637

G1X80.8385Y-75.1774

G1X83.1112Y-73.4226

G1X85.8920Y-70.8956

G1 Z0F20000

(Start Block)


G1X18.3011Y-73.5787
G1Z6F20000
(Plotting speed under)
G1 F4000


G1X19.6486Y-73.4481

G1X21.1747Y-73.1135

G1X22.7588Y-72.6047

G1X24.4345Y-71.9186

G1X27.5764Y-70.2950

G1X33.3393Y-66.8037

G1X34.6487Y-66.1381

G1X35.8584Y-65.6385

G1X37.4059Y-65.1843

G1X38.9150Y-64.9411

G1X40.4903Y-64.8798

G1X42.1368Y-65.0017

G1X43.5352Y-65.2396

G1X44.8662Y-65.5738

G1X46.2519Y-66.0318

G1X47.6477Y-66.6098

G1X48.9346Y-67.2538

G1X50.2140Y-68.0119

G1X51.3708Y-68.8139

G1X52.4631Y-69.6959

G1X53.8587Y-71.1563

G1X55.0596Y-72.8871

G1X56.0310Y-74.8676

G1X57.1849Y-78.1403

G1X57.4850Y-78.6207

G1X57.8743Y-78.9655

G1X58.6028Y-79.2590

G1X59.6706Y-79.4132

G1X61.4248Y-79.4623

G1X63.6768Y-79.3885

G1X67.0463Y-79.0723

G1X70.1912Y-78.5187

G1X73.0864Y-77.7388

G1X75.8545Y-76.7020

G1X78.4370Y-75.4308

G1X80.8472Y-73.9329

G1X83.0992Y-72.2266

G1X85.8914Y-69.7675

G1 Z0F20000

(Start Block)


G1X17.8627Y-73.3044
G1Z6F20000
(Plotting speed under)
G1 F4000


G1X19.4263Y-73.1695

G1X21.0707Y-72.8226

G1X22.8948Y-72.2544

G1X24.7364Y-71.5188

G1X28.1977Y-69.7672

G1X34.3515Y-66.0911

G1X36.8338Y-64.9457

G1X38.2938Y-64.5007

G1X39.6959Y-64.2449

G1X41.2755Y-64.1468

G1X42.7979Y-64.2251

G1X44.0644Y-64.4082

G1X45.3681Y-64.7022

G1X47.9439Y-65.5936

G1X50.3646Y-66.8376

G1X52.5438Y-68.3833

G1X53.9138Y-69.7255

G1X55.1807Y-71.3845

G1X56.2711Y-73.3181

G1X57.6912Y-76.5735

G1X58.0852Y-77.1497

G1X58.5221Y-77.5334

G1X59.2928Y-77.8758

G1X60.4852Y-78.0781

G1X62.2207Y-78.1363

G1X64.3495Y-78.0533

G1X67.4903Y-77.7214

G1X70.4547Y-77.1685

G1X73.2845Y-76.3865

G1X75.9708Y-75.3734

G1X78.4802Y-74.1482

G1X80.8179Y-72.7275

G1X83.0262Y-71.1142

G1X85.8874Y-68.7168

G1 Z0F20000

(Start Block)


G1X17.3814Y-72.9303
G1Z6F20000
(Plotting speed under)
G1 F4000


G1X18.9367Y-72.8324

G1X20.5947Y-72.5318

G1X22.3520Y-72.0507

G1X24.2896Y-71.3606

G1X26.2524Y-70.5105

G1X28.3357Y-69.4589

G1X34.5001Y-65.8302

G1X36.6321Y-64.7126

G1X37.8835Y-64.1905

G1X39.0407Y-63.8183

G1X40.2222Y-63.5541

G1X41.4394Y-63.4027

G1X42.7001Y-63.3684

G1X43.9382Y-63.4477

G1X45.3053Y-63.6574

G1X46.5875Y-63.9658

G1X47.9326Y-64.4051

G1X49.1878Y-64.9259

G1X50.4320Y-65.5564

G1X51.5537Y-66.2347

G1X53.3976Y-67.6610

G1X54.2680Y-68.5320

G1X55.1176Y-69.5366

G1X56.3174Y-71.2919

G1X58.1116Y-74.6501

G1X58.7674Y-75.5680

G1X59.2598Y-75.9934

G1X59.8790Y-76.3175

G1X60.6322Y-76.5354

G1X61.5124Y-76.6625

G1X62.8420Y-76.7227

G1X64.5582Y-76.6741

G1X68.1011Y-76.2886

G1X71.4404Y-75.5991

G1X74.5893Y-74.6198

G1X77.4193Y-73.4201

G1X80.1060Y-71.9562

G1X82.6993Y-70.2126

G1X85.8788Y-67.7295

G1 Z0F20000

(Start Block)


G1X16.8849Y-72.4486
G1Z6F20000
(Plotting speed under)
G1 F4000


G1X18.5286Y-72.3796

G1X20.4880Y-72.0571

G1X22.5826Y-71.5080

G1X24.7103Y-70.7724

G1X26.9228Y-69.8362

G1X29.1546Y-68.7297

G1X35.6242Y-64.9801

G1X37.7440Y-63.8818

G1X39.0116Y-63.3546

G1X40.1801Y-62.9779

G1X41.3695Y-62.7098

G1X42.4786Y-62.5650

G1X43.6203Y-62.5182

G1X44.8319Y-62.5765

G1X47.1455Y-62.9783

G1X49.5370Y-63.7873

G1X51.8028Y-64.9611

G1X53.6668Y-66.3325

G1X55.3695Y-68.0435

G1X56.7480Y-69.8334

G1X58.7875Y-73.0036

G1X59.6311Y-73.9920

G1X60.2347Y-74.4478

G1X60.9314Y-74.7826

G1X61.7481Y-75.0114

G1X62.6165Y-75.1396

G1X65.2112Y-75.1728

G1X68.3855Y-74.8379

G1X71.5719Y-74.1897

G1X74.6543Y-73.2525

G1X77.3978Y-72.1292

G1X80.0307Y-70.7631

G1X82.5253Y-69.1932

G1X85.8637Y-66.7923

G1 Z0F20000

(Start Block)


G1X16.4001Y-71.8577
G1Z6F20000
(Plotting speed under)
G1 F4000


G1X18.2266Y-71.8151

G1X20.3705Y-71.4971

G1X22.7437Y-70.9140

G1X25.2206Y-70.0910

G1X27.5872Y-69.1163

G1X29.9670Y-67.9624

G1X36.8323Y-64.0338

G1X38.9741Y-62.9360

G1X40.2225Y-62.4210

G1X41.3994Y-62.0434

G1X42.5953Y-61.7760

G1X43.7088Y-61.6339

G1X45.7939Y-61.6357

G1X47.9868Y-61.9938

G1X50.1580Y-62.7021

G1X52.1371Y-63.6854

G1X53.9337Y-64.9336

G1X55.6221Y-66.4724

G1X57.0653Y-68.1006

G1X59.4756Y-71.2214

G1X60.4870Y-72.2466

G1X61.1691Y-72.7242

G1X61.9273Y-73.0847

G1X62.8651Y-73.3554

G1X63.8636Y-73.5056

G1X66.1674Y-73.5447

G1X68.9878Y-73.2545

G1X71.8975Y-72.6719

G1X74.8114Y-71.8120

G1X77.4065Y-70.7979

G1X79.9367Y-69.5670

G1X82.3440Y-68.1719

G1X85.8404Y-65.8927

G1 Z0F20000

(Start Block)


G1X15.9519Y-71.1607
G1Z6F20000
(Plotting speed under)
G1 F4000


G1X18.0510Y-71.1469

G1X20.4702Y-70.8154

G1X23.1037Y-70.1984

G1X25.8340Y-69.3207

G1X28.3500Y-68.3089

G1X30.9665Y-67.0583

G1X33.3318Y-65.7730

G1X38.1290Y-62.9769

G1X40.1889Y-61.9224

G1X42.4858Y-61.0609

G1X43.6825Y-60.7801

G1X44.7954Y-60.6285

G1X46.7261Y-60.6121

G1X48.5923Y-60.8823

G1X50.5752Y-61.4753

G1X52.3698Y-62.3063

G1X54.1053Y-63.4093

G1X55.8646Y-64.8340

G1X57.3634Y-66.2928

G1X60.1570Y-69.3259

G1X61.3252Y-70.3598

G1X62.1998Y-70.9191

G1X63.0534Y-71.2987

G1X63.9948Y-71.5681

G1X65.0818Y-71.7392

G1X67.2301Y-71.7932

G1X69.7040Y-71.5587

G1X72.3471Y-71.0543

G1X75.0639Y-70.2920

G1X77.4731Y-69.4093

G1X79.9246Y-68.3087

G1X82.2160Y-67.1042

G1X85.8077Y-65.0186

G1 Z0F20000

(Start Block)


G1X15.5615Y-70.3639
G1Z6F20000
(Plotting speed under)
G1 F4000


G1X17.8021Y-70.3999

G1X20.4838Y-70.0810

G1X23.4768Y-69.4255

G1X26.5607Y-68.4671

G1X29.3219Y-67.3719

G1X32.0706Y-66.0624

G1X34.5489Y-64.7114

G1X39.4207Y-61.8482

G1X41.4810Y-60.7859

G1X43.7640Y-59.9311

G1X44.8531Y-59.6770

G1X45.9673Y-59.5270

G1X47.6327Y-59.5086

G1X49.3903Y-59.7501

G1X51.0751Y-60.2331

G1X52.6854Y-60.9381

G1X54.4413Y-61.9605

G1X56.1692Y-63.2044

G1X57.7112Y-64.4982

G1X60.7542Y-67.2818

G1X62.2227Y-68.4122

G1X63.1924Y-68.9726

G1X64.1134Y-69.3626

G1X65.1011Y-69.6476

G1X66.2742Y-69.8440

G1X68.2602Y-69.9242

G1X70.4092Y-69.7624

G1X72.7819Y-69.3626

G1X75.2299Y-68.7442

G1X77.5289Y-67.9865

G1X79.9139Y-67.0282

G1X82.1233Y-66.0009

G1X85.7654Y-64.1586

G1 Z0F20000

(Start Block)


G1X15.2461Y-69.4753
G1Z6F20000
(Plotting speed under)
G1 F4000


G1X16.3907Y-69.5753

G1X17.7082Y-69.5673

G1X20.7382Y-69.2469

G1X24.0721Y-68.5500

G1X27.4081Y-67.5355

G1X30.3212Y-66.3889

G1X33.2864Y-64.9686

G1X35.8670Y-63.5391

G1X40.7066Y-60.6354

G1X42.6658Y-59.6020

G1X44.9111Y-58.7422

G1X45.9989Y-58.4875

G1X47.0013Y-58.3533

G1X48.5174Y-58.3336

G1X49.9613Y-58.5160

G1X51.4560Y-58.9116

G1X52.9896Y-59.5316

G1X54.6718Y-60.4036

G1X56.4522Y-61.5183

G1X61.4904Y-65.3022

G1X63.1600Y-66.3983

G1X64.2406Y-66.9509

G1X65.2300Y-67.3369

G1X66.2869Y-67.6311

G1X67.4069Y-67.8273

G1X69.1649Y-67.9437

G1X71.0819Y-67.8656

G1X73.2115Y-67.5867

G1X75.4609Y-67.1120

G1X77.5663Y-66.5215

G1X79.7879Y-65.7619

G1X85.7141Y-63.3020

G1 Z0F20000

(Start Block)


G1X15.0182Y-68.5028
G1Z6F20000
(Plotting speed under)
G1 F4000


G1X16.2123Y-68.6443

G1X17.6696Y-68.6666

G1X21.0242Y-68.3611

G1X24.6897Y-67.6345

G1X28.2547Y-66.5741

G1X31.3720Y-65.3500

G1X34.4266Y-63.8697

G1X37.1119Y-62.3481

G1X41.9846Y-59.3297

G1X43.8337Y-58.3258

G1X45.9277Y-57.4995

G1X46.9017Y-57.2605

G1X47.9005Y-57.1187

G1X49.2828Y-57.0949

G1X50.6240Y-57.2597

G1X51.9079Y-57.5902

G1X53.4695Y-58.1696

G1X55.0672Y-58.9046

G1X56.7940Y-59.8367

G1X62.1706Y-63.2270

G1X64.0913Y-64.3040

G1X66.3099Y-65.2102

G1X68.5564Y-65.7197

G1X70.1977Y-65.8688

G1X72.0073Y-65.8592

G1X73.9017Y-65.6912

G1X75.8795Y-65.3736

G1X77.8993Y-64.9231

G1X79.9993Y-64.3410

G1X85.6556Y-62.4391

G1 Z0F20000

(Start Block)


G1X14.8857Y-67.4529
G1Z6F20000
(Plotting speed under)
G1 F4000


G1X16.1152Y-67.6441

G1X17.6416Y-67.7069

G1X19.3858Y-67.6365

G1X21.2354Y-67.4463

G1X25.1196Y-66.7352

G1X29.0051Y-65.6183

G1X32.2597Y-64.3491

G1X35.4923Y-62.7630

G1X38.2842Y-61.1330

G1X43.2499Y-57.9281

G1X44.9818Y-56.9607

G1X46.9220Y-56.1828

G1X48.7807Y-55.8285

G1X49.9324Y-55.8091

G1X51.1710Y-55.9551

G1X52.4571Y-56.2731

G1X54.0280Y-56.7917

G1X57.3755Y-58.2374

G1X62.9509Y-61.1647

G1X65.0417Y-62.1587

G1X67.3918Y-63.0210

G1X69.8101Y-63.5673

G1X71.3445Y-63.7423

G1X72.9357Y-63.8012

G1X74.6525Y-63.7440

G1X76.5305Y-63.5603

G1X80.2995Y-62.8916

G1X85.5926Y-61.5607

G1 Z0F20000

(Start Block)


G1X14.8520Y-66.3304
G1Z6F20000
(Plotting speed under)
G1 F4000


G1X16.1419Y-66.5866

G1X17.6637Y-66.6936

G1X19.5215Y-66.6596

G1X21.4787Y-66.4927

G1X23.6191Y-66.1867

G1X25.6727Y-65.7803

G1X27.8251Y-65.2348

G1X29.8743Y-64.5960

G1X33.2666Y-63.2615

G1X36.5823Y-61.5927

G1X39.0274Y-60.1230

G1X44.0380Y-56.7280

G1X45.9289Y-55.6068

G1X47.7889Y-54.8390

G1X49.5328Y-54.5099

G1X50.5709Y-54.4980

G1X51.6049Y-54.6180

G1X53.2059Y-54.9700

G1X54.9291Y-55.4672

G1X58.2269Y-56.6754

G1X64.0789Y-59.2036

G1X66.3263Y-60.0952

G1X68.7863Y-60.8864

G1X71.1596Y-61.4155

G1X74.1603Y-61.7481

G1X77.4224Y-61.7409

G1X81.0279Y-61.3938

G1X85.5285Y-60.6590

G1 Z0F20000

(Start Block)


G1X14.9164Y-65.1377
G1Z6F20000
(Plotting speed under)
G1 F4000


G1X16.2317Y-65.4717

G1X17.7533Y-65.6334

G1X19.5972Y-65.6486

G1X21.7518Y-65.5073

G1X23.9867Y-65.2212

G1X26.2443Y-64.8001

G1X28.4002Y-64.2719

G1X30.5707Y-63.6080

G1X34.1102Y-62.2126

G1X37.5597Y-60.4341

G1X40.0533Y-58.8725

G1X44.9992Y-55.3365

G1X46.7830Y-54.2291

G1X48.5326Y-53.4861

G1X50.1614Y-53.1797

G1X51.2033Y-53.1788

G1X52.6605Y-53.3657

G1X56.2790Y-54.1634

G1X59.7752Y-55.2356

G1X68.3107Y-58.2087

G1X70.8475Y-58.9269

G1X73.1583Y-59.4326

G1X75.9382Y-59.8329

G1X78.8900Y-60.0177

G1X82.0124Y-59.9810

G1X85.4670Y-59.7268

G1 Z0F20000

(Start Block)


G1X15.0740Y-63.8750
G1Z6F20000
(Plotting speed under)
G1 F4000


G1X16.2994Y-64.2815

G1X17.9080Y-64.5324

G1X19.8233Y-64.6014

G1X21.9509Y-64.5044

G1X24.2745Y-64.2465

G1X26.7276Y-63.8200

G1X28.9938Y-63.2832

G1X31.2900Y-62.5890

G1X33.0966Y-61.9271

G1X34.8828Y-61.1635

G1X36.6223Y-60.3069

G1X38.3817Y-59.3186

G1X41.0035Y-57.6083

G1X45.7660Y-54.0071

G1X47.5323Y-52.8527

G1X49.1586Y-52.1415

G1X50.6718Y-51.8536

G1X52.0371Y-51.8758

G1X54.2056Y-52.0982

G1X56.4130Y-52.4560

G1X58.7426Y-52.9487

G1X62.9474Y-54.0603

G1X72.2724Y-56.8785

G1X76.7161Y-57.9505

G1X78.9363Y-58.3329

G1X81.0639Y-58.5878

G1X83.2204Y-58.7308

G1X85.4123Y-58.7576

G1 Z0F20000

(Start Block)


G1X15.3158Y-62.5409
G1Z6F20000
(Plotting speed under)
G1 F4000


G1X16.5270Y-63.0536

G1X17.9920Y-63.3773

G1X19.8631Y-63.5250

G1X22.0528Y-63.4851

G1X24.5558Y-63.2532

G1X27.1207Y-62.8406

G1X29.5069Y-62.2971

G1X31.9319Y-61.5741

G1X35.1269Y-60.3261

G1X38.2070Y-58.7556

G1X39.9423Y-57.6906

G1X41.6418Y-56.5134

G1X46.4337Y-52.6983

G1X47.8022Y-51.7254

G1X48.6633Y-51.2372

G1X49.4683Y-50.8915

G1X50.3034Y-50.6543

G1X51.1820Y-50.5364

G1X53.6510Y-50.5459

G1X56.3071Y-50.7332

G1X59.1227Y-51.1010

G1X61.9698Y-51.6275

G1X64.7122Y-52.2641

G1X67.6345Y-53.0617

G1X76.4271Y-55.8461

G1X79.4024Y-56.7039

G1X82.4710Y-57.3827

G1X85.3683Y-57.7461

G1 Z0F20000

(Start Block)


G1X15.6296Y-61.1332
G1Z6F20000
(Plotting speed under)
G1 F4000


G1X16.8679Y-61.7927

G1X18.2008Y-62.1894

G1X19.9148Y-62.4134

G1X22.0549Y-62.4457

G1X24.5318Y-62.2766

G1X27.1075Y-61.9180

G1X29.7359Y-61.3653

G1X32.1833Y-60.6679

G1X34.1502Y-59.9657

G1X36.1118Y-59.1250

G1X38.0197Y-58.1574

G1X39.8127Y-57.0985

G1X42.5061Y-55.2086

G1X47.2634Y-51.2212

G1X48.9907Y-50.0315

G1X49.7816Y-49.6542

G1X50.6040Y-49.3923

G1X52.8156Y-49.1483

G1X56.0184Y-49.0595

G1X59.2305Y-49.2137

G1X62.4717Y-49.6124

G1X65.7751Y-50.2605

G1X68.6601Y-51.0167

G1X71.6112Y-51.9594

G1X81.6703Y-55.7659

G1X83.6017Y-56.3282

G1X85.3386Y-56.6872

G1 Z0F20000

(Start Block)


G1X15.9996Y-59.6501
G1Z6F20000
(Plotting speed under)
G1 F4000


G1X17.1590Y-60.4351

G1X18.4663Y-60.9659

G1X19.9106Y-61.2566

G1X21.7872Y-61.3783

G1X24.2295Y-61.2975

G1X26.9066Y-60.9981

G1X29.5761Y-60.5024

G1X32.1334Y-59.8321

G1X34.2806Y-59.1048

G1X36.2822Y-58.2746

G1X38.2375Y-57.3040

G1X40.1913Y-56.1562

G1X41.8662Y-55.0144

G1X43.4566Y-53.7859

G1X48.2430Y-49.5943

G1X49.8068Y-48.5745

G1X50.7066Y-48.2140

G1X51.7681Y-47.9900

G1X54.3700Y-47.6121

G1X56.6963Y-47.4044

G1X59.6847Y-47.3613

G1X62.6758Y-47.5799

G1X65.7867Y-48.0778

G1X68.8313Y-48.8234

G1X71.2337Y-49.5875

G1X73.5967Y-50.4847

G1X76.2555Y-51.6488

G1X82.1701Y-54.4633

G1X83.8493Y-55.1282

G1X85.3262Y-55.5766

G1 Z0F20000

(Start Block)


G1X16.4075Y-58.0914
G1Z6F20000
(Plotting speed under)
G1 F4000


G1X17.5988Y-59.0816

G1X18.8003Y-59.7184

G1X20.2004Y-60.1037

G1X21.9148Y-60.2842

G1X24.3234Y-60.2629

G1X27.1319Y-59.9925

G1X29.8274Y-59.5237

G1X32.4811Y-58.8529

G1X34.7085Y-58.1107

G1X36.7455Y-57.2696

G1X38.7368Y-56.2769

G1X40.7241Y-55.0943

G1X43.5217Y-53.0550

G1X45.1128Y-51.6860

G1X48.4717Y-48.5675

G1X49.3788Y-47.8606

G1X50.2369Y-47.3408

G1X51.2364Y-46.9511

G1X54.7667Y-46.1141

G1X56.9828Y-45.7361

G1X59.0631Y-45.5407

G1X61.8727Y-45.5360

G1X64.7253Y-45.8192

G1X67.6830Y-46.3972

G1X70.6773Y-47.2656

G1X73.0678Y-48.1624

G1X75.4934Y-49.2558

G1X77.8935Y-50.5057

G1X82.8652Y-53.3158

G1X84.2020Y-53.9640

G1X85.3330Y-54.4103

G1 Z0F20000

(Start Block)


G1X16.8335Y-56.4600
G1Z6F20000
(Plotting speed under)
G1 F4000


G1X18.0639Y-57.6917

G1X19.1659Y-58.4452

G1X20.4634Y-58.9272

G1X22.0092Y-59.1710

G1X24.4199Y-59.2147

G1X27.3655Y-58.9737

G1X30.1896Y-58.5081

G1X32.9877Y-57.8126

G1X35.2504Y-57.0585

G1X37.3212Y-56.1963

G1X39.3435Y-55.1727

G1X41.2670Y-54.0075

G1X42.7222Y-52.9850

G1X44.1597Y-51.8439

G1X45.7363Y-50.4392

G1X48.8701Y-47.4258

G1X49.7566Y-46.7066

G1X50.5820Y-46.1875

G1X51.2701Y-45.8836

G1X53.6647Y-45.0724

G1X56.1267Y-44.3295

G1X58.2594Y-43.8876

G1X60.4154Y-43.6700

G1X63.1884Y-43.7053

G1X66.0224Y-44.0581

G1X68.9630Y-44.7264

G1X71.9899Y-45.7260

G1X74.3623Y-46.7360

G1X76.7711Y-47.9714

G1X79.0199Y-49.3078

G1X83.3709Y-52.1271

G1X85.3600Y-53.1847

G1 Z0F20000

(Start Block)


G1X17.2571Y-54.7631
G1Z6F20000
(Plotting speed under)
G1 F4000


G1X18.6226Y-56.3568

G1X19.6411Y-57.2110

G1X20.8346Y-57.7675

G1X22.2226Y-58.0556

G1X24.6325Y-58.1536

G1X27.6050Y-57.9445

G1X30.6639Y-57.4593

G1X33.5106Y-56.7557

G1X35.7093Y-56.0239

G1X37.8144Y-55.1463

G1X39.8769Y-54.0935

G1X41.8184Y-52.9001

G1X43.2878Y-51.8477

G1X44.7177Y-50.6863

G1X46.2783Y-49.2603

G1X49.2738Y-46.3074

G1X50.1854Y-45.5550

G1X50.9418Y-45.0737

G1X54.8990Y-43.3301

G1X56.7861Y-42.6261

G1X58.9163Y-42.0967

G1X61.1386Y-41.8555

G1X63.8558Y-41.9157

G1X66.8105Y-42.3322

G1X69.8502Y-43.0934

G1X72.7662Y-44.1368

G1X75.2644Y-45.2892

G1X77.7368Y-46.6812

G1X79.8843Y-48.0920

G1X83.8718Y-50.9603

G1X85.4066Y-51.8963

G1 Z0F20000

(Start Block)


G1X17.6590Y-53.0126
G1Z6F20000
(Plotting speed under)
G1 F4000


G1X19.1692Y-55.0229

G1X20.0261Y-55.9131

G1X21.1001Y-56.5694

G1X22.4422Y-56.9369

G1X24.7446Y-57.0887

G1X27.8356Y-56.9082

G1X30.9433Y-56.4408

G1X33.9491Y-55.7133

G1X36.1818Y-54.9729

G1X38.3369Y-54.0709

G1X40.3396Y-53.0423

G1X42.2404Y-51.8692

G1X43.6894Y-50.8273

G1X45.1399Y-49.6414

G1X46.6160Y-48.2827

G1X49.6854Y-45.2201

G1X50.4919Y-44.5409

G1X51.2221Y-44.0574

G1X55.4615Y-41.7668

G1X57.2189Y-40.9698

G1X59.3162Y-40.3716

G1X61.6074Y-40.1193

G1X64.4247Y-40.2194

G1X67.4358Y-40.6930

G1X70.4687Y-41.5025

G1X73.4184Y-42.6152

G1X75.9507Y-43.8507

G1X78.4728Y-45.3654

G1X80.6235Y-46.8873

G1X84.1992Y-49.6737

G1X85.4707Y-50.5420

G1 Z0F20000

(Start Block)


G1X18.0223Y-51.2261
G1Z6F20000
(Plotting speed under)
G1 F4000


G1X19.7642Y-53.8044

G1X20.4808Y-54.6864

G1X20.9441Y-55.0938

G1X21.4606Y-55.4152

G1X22.6119Y-55.8085

G1X23.6014Y-55.9556

G1X24.9072Y-56.0192

G1X28.0427Y-55.8671

G1X31.2295Y-55.4120

G1X34.3997Y-54.6582

G1X36.5974Y-53.9333

G1X38.6827Y-53.0676

G1X40.6274Y-52.0806

G1X42.5642Y-50.8979

G1X44.1755Y-49.7387

G1X45.7907Y-48.3975

G1X49.6894Y-44.5612

G1X50.6755Y-43.6804

G1X56.2699Y-40.0224

G1X57.5179Y-39.3782

G1X58.8457Y-38.9024

G1X60.2742Y-38.6065

G1X61.8554Y-38.4761

G1X64.6964Y-38.5965

G1X67.8551Y-39.1165

G1X70.9414Y-39.9672

G1X73.9231Y-41.1258

G1X76.5428Y-42.4508

G1X78.9977Y-43.9874

G1X80.9856Y-45.4531

G1X84.2794Y-48.1637

G1X85.5488Y-49.1188

G1 Z0F20000

(Start Block)


G1X18.3343Y-49.4261
G1Z6F20000
(Plotting speed under)
G1 F4000


G1X20.4465Y-52.8368

G1X20.9738Y-53.5611

G1X21.8262Y-54.2915

G1X22.8673Y-54.7042

G1X23.8602Y-54.8745

G1X25.0634Y-54.9479

G1X28.2370Y-54.8207

G1X31.6261Y-54.3547

G1X34.7584Y-53.6214

G1X37.1098Y-52.8495

G1X39.3190Y-51.9218

G1X41.3735Y-50.8545

G1X43.3980Y-49.5774

G1X44.9170Y-48.4497

G1X46.3639Y-47.2269

G1X50.8651Y-42.8797

G1X53.1234Y-41.2985

G1X55.8728Y-39.0802

G1X57.0935Y-38.2238

G1X58.1839Y-37.6586

G1X59.2743Y-37.2836

G1X60.6104Y-37.0266

G1X62.0226Y-36.9246

G1X64.9341Y-37.0641

G1X68.1625Y-37.6062

G1X71.2906Y-38.4758

G1X74.2651Y-39.6398

G1X76.8843Y-40.9763

G1X79.4187Y-42.5892

G1X81.5126Y-44.1777

G1X85.6353Y-47.6244

G1 Z0F20000

(Start Block)


G1X18.5876Y-47.6400
G1Z6F20000
(Plotting speed under)
G1 F4000


G1X19.5279Y-49.0881

G1X21.3534Y-52.3904

G1X22.0772Y-53.1338

G1X22.9951Y-53.5785

G1X23.8897Y-53.7716

G1X25.1032Y-53.8725

G1X28.3439Y-53.7757

G1X31.8183Y-53.3278

G1X35.1076Y-52.5799

G1X37.5350Y-51.7913

G1X39.8692Y-50.8095

G1X42.0348Y-49.6696

G1X44.1478Y-48.3079

G1X46.4694Y-46.4807

G1X50.8193Y-42.3415

G1X53.3457Y-40.4147

G1X56.4055Y-37.5547

G1X57.6127Y-36.6258

G1X58.5833Y-36.1122

G1X59.6196Y-35.7657

G1X60.8307Y-35.5477

G1X62.1328Y-35.4608

G1X65.1083Y-35.6084

G1X68.3287Y-36.1418

G1X71.5734Y-37.0322

G1X74.5968Y-38.2108

G1X77.2333Y-39.5570

G1X79.7566Y-41.1683

G1X81.8417Y-42.7584

G1X85.7230Y-46.0572

G1 Z0F20000

(Start Block)


G1X18.7804Y-45.8987
G1Z6F20000
(Plotting speed under)
G1 F4000


G1X19.9913Y-47.8175

G1X21.7401Y-51.3438

G1X22.3909Y-52.0708

G1X23.2015Y-52.4938

G1X24.0819Y-52.6972

G1X25.2157Y-52.7995

G1X28.5456Y-52.7165

G1X32.0143Y-52.2924

G1X35.3940Y-51.5492

G1X37.6708Y-50.8326

G1X39.7428Y-50.0039

G1X41.7671Y-49.0080

G1X43.7791Y-47.8077

G1X45.2255Y-46.7978

G1X46.6347Y-45.6850

G1X50.9811Y-41.6787

G1X53.4082Y-39.7624

G1X54.5749Y-38.6246

G1X56.7883Y-36.2061

G1X57.7896Y-35.3234

G1X58.6896Y-34.7782

G1X59.7149Y-34.3985

G1X60.8847Y-34.1725

G1X62.2064Y-34.0779

G1X65.1524Y-34.2113

G1X68.4566Y-34.7349

G1X71.6939Y-35.5941

G1X74.7451Y-36.7502

G1X77.4533Y-38.1044

G1X79.9784Y-39.6902

G1X82.2253Y-41.3874

G1X85.8030Y-44.4161

G1 Z0F20000

(Start Block)


G1X18.9163Y-44.2357
G1Z6F20000
(Plotting speed under)
G1 F4000


G1X19.6461Y-45.3011

G1X20.3019Y-46.4516

G1X22.0931Y-50.3977

G1X22.6488Y-51.0334

G1X23.2784Y-51.3884

G1X24.1018Y-51.6060

G1X25.2503Y-51.7241

G1X28.6341Y-51.6601

G1X32.2139Y-51.2485

G1X35.6232Y-50.5264

G1X38.0056Y-49.7947

G1X40.2977Y-48.8835

G1X42.4296Y-47.8254

G1X44.5286Y-46.5555

G1X47.1127Y-44.6384

G1X51.0426Y-41.1443

G1X53.4831Y-39.1963

G1X54.9368Y-37.6910

G1X57.2778Y-34.8326

G1X58.2155Y-33.9446

G1X59.0793Y-33.4101

G1X59.9659Y-33.0801

G1X61.1419Y-32.8532

G1X62.4824Y-32.7632

G1X65.4954Y-32.9081

G1X68.7997Y-33.4289

G1X71.9121Y-34.2374

G1X74.9193Y-35.3444

G1X77.5883Y-36.6376

G1X80.0907Y-38.1568

G1X82.3552Y-39.8084

G1X85.8648Y-42.7017

G1 Z0F20000

(Start Block)


G1X19.0028Y-42.6859
G1Z6F20000
(Plotting speed under)
G1 F4000


G1X19.8825Y-43.9717

G1X20.6057Y-45.2927

G1X22.2527Y-49.2999

G1X22.7592Y-49.9487

G1X23.3480Y-50.3082

G1X24.2093Y-50.5404

G1X25.3046Y-50.6508

G1X28.7192Y-50.5970

G1X32.4184Y-50.1965

G1X35.8394Y-49.4997

G1X38.3445Y-48.7502

G1X40.7488Y-47.8071

G1X43.0905Y-46.6450

G1X45.2703Y-45.3160

G1X47.5811Y-43.6213

G1X51.0776Y-40.6592

G1X53.7076Y-38.5704

G1X55.1424Y-37.0435

G1X57.6825Y-33.6729

G1X58.7053Y-32.6315

G1X59.4482Y-32.1592

G1X60.3120Y-31.8281

G1X61.3876Y-31.6134

G1X62.7508Y-31.5155

G1X65.6169Y-31.6362

G1X68.8137Y-32.1029

G1X71.8920Y-32.8515

G1X74.9239Y-33.9051

G1X77.6326Y-35.1521

G1X80.1884Y-36.6311

G1X82.5464Y-38.2748

G1X85.8966Y-40.9162

G1 Z0F20000


G00 X0.0000 Y0.0000


