$H
G21
G17
G90
G1 Z0F20000
G1 F15000

(Start Layer)

(Start Block)


G1X18.3128Y-108.1099
G1Z5F20000
(Plotting speed under)
G1 F4000


G1X18.8674Y-108.4108

G1X19.6032Y-108.6174

G1X21.6508Y-108.7434

G1X24.7012Y-108.5580

G1X27.5439Y-108.0672

G1X30.2754Y-107.2441

G1X33.7090Y-105.8239

G1X38.7880Y-103.2392

G1X39.9427Y-102.8790

G1X41.1528Y-102.7196

G1X42.2922Y-102.7541

G1X43.4597Y-102.9494

G1X44.7184Y-103.3268

G1X45.8611Y-103.8213

G1X46.9496Y-104.4415

G1X48.0262Y-105.2219

G1X50.7383Y-107.7339

G1X51.4289Y-108.0807

G1X52.2995Y-108.2298

G1X53.4961Y-108.2156

G1X54.9717Y-108.0435

G1X56.4315Y-107.7523

G1X57.9021Y-107.3457

G1X60.6550Y-106.2778

G1X65.4291Y-103.9131

G1X66.6506Y-103.5095

G1X67.7641Y-103.3244

G1X68.5697Y-103.3050

G1X69.5040Y-103.4006

G1X70.3407Y-103.5932

G1X71.2368Y-103.9178

G1X72.3977Y-104.5567

G1X74.6813Y-106.3344

G1X75.5906Y-106.9444

G1X76.6255Y-107.4077

G1X77.8013Y-107.6585

G1X79.7875Y-107.6740

G1X82.1614Y-107.2915

G1X84.4364Y-106.5890

G1X86.7798Y-105.5121

G1 Z0F20000

(Start Block)


G1X18.6822Y-106.6709
G1Z5F20000
(Plotting speed under)
G1 F4000


G1X19.2768Y-107.0176

G1X19.9335Y-107.2515

G1X21.5746Y-107.4603

G1X24.2681Y-107.3853

G1X27.1393Y-107.0002

G1X29.8195Y-106.3502

G1X33.6496Y-105.0702

G1X39.0489Y-102.8371

G1X40.2778Y-102.5244

G1X41.4126Y-102.4042

G1X42.4452Y-102.4383

G1X43.4675Y-102.6011

G1X44.4974Y-102.8913

G1X45.6095Y-103.3504

G1X46.5669Y-103.8774

G1X47.5226Y-104.5431

G1X50.1628Y-106.9198

G1X50.8569Y-107.2505

G1X51.7479Y-107.3837

G1X53.1625Y-107.3584

G1X54.8029Y-107.1809

G1X56.4403Y-106.8767

G1X58.1297Y-106.4255

G1X60.9365Y-105.3504

G1X65.7464Y-102.9595

G1X66.9210Y-102.5616

G1X68.0413Y-102.3675

G1X69.6424Y-102.4287

G1X70.4705Y-102.6167

G1X71.3023Y-102.9197

G1X72.4773Y-103.5842

G1X74.6259Y-105.3038

G1X75.5080Y-105.9174

G1X76.5124Y-106.3855

G1X77.6606Y-106.6438

G1X78.6290Y-106.7088

G1X79.7295Y-106.6726

G1X82.1057Y-106.3111

G1X84.4029Y-105.6355

G1X86.7095Y-104.6228

G1 Z0F20000

(Start Block)


G1X19.0659Y-105.1426
G1Z5F20000
(Plotting speed under)
G1 F4000


G1X20.2822Y-105.7745

G1X21.7792Y-106.0837

G1X23.8590Y-106.1291

G1X26.4322Y-105.9072

G1X29.3422Y-105.3765

G1X33.5701Y-104.2712

G1X39.4516Y-102.3431

G1X40.8112Y-102.1021

G1X42.0843Y-102.0571

G1X43.0287Y-102.1459

G1X44.0175Y-102.3532

G1X45.8204Y-103.0473

G1X47.1885Y-103.8803

G1X49.3692Y-105.7173

G1X50.1665Y-106.1905

G1X51.2380Y-106.3949

G1X53.2790Y-106.3477

G1X56.0882Y-105.9721

G1X58.7517Y-105.2824

G1X61.3761Y-104.2497

G1X66.0526Y-101.9394

G1X67.3997Y-101.5125

G1X68.6484Y-101.3607

G1X70.0776Y-101.4965

G1X71.5146Y-101.9832

G1X72.5507Y-102.6065

G1X74.7283Y-104.3989

G1X75.5124Y-104.9498

G1X76.4868Y-105.4047

G1X77.5946Y-105.6520

G1X79.6301Y-105.6910

G1X81.9995Y-105.3656

G1X84.3192Y-104.7358

G1X86.5943Y-103.8064

G1 Z0F20000

(Start Block)


G1X19.4238Y-103.5368
G1Z5F20000
(Plotting speed under)
G1 F4000


G1X20.6726Y-104.2064

G1X22.0334Y-104.5919

G1X23.8730Y-104.7489

G1X26.0496Y-104.6658

G1X28.9401Y-104.2913

G1X33.4957Y-103.4029

G1X39.6838Y-101.8065

G1X41.0023Y-101.6278

G1X42.2792Y-101.6055

G1X44.0891Y-101.8711

G1X45.7827Y-102.4696

G1X47.2535Y-103.2996

G1X49.2580Y-104.7721

G1X50.0703Y-105.1648

G1X51.1236Y-105.3214

G1X53.0520Y-105.2809

G1X55.9772Y-104.9316

G1X58.6811Y-104.2741

G1X61.3575Y-103.2628

G1X66.3530Y-100.8501

G1X67.6453Y-100.4674

G1X68.8849Y-100.3407

G1X70.2969Y-100.5070

G1X71.6172Y-100.9844

G1X72.5746Y-101.5794

G1X75.4186Y-103.9175

G1X76.3492Y-104.3841

G1X77.4125Y-104.6446

G1X79.3938Y-104.7172

G1X81.7432Y-104.4512

G1X84.0872Y-103.8919

G1X86.4305Y-103.0270

G1 Z0F20000

(Start Block)


G1X19.7247Y-101.8774
G1Z5F20000
(Plotting speed under)
G1 F4000


G1X21.0934Y-102.5809

G1X22.5077Y-103.0318

G1X24.2034Y-103.2642

G1X26.1685Y-103.2816

G1X28.7822Y-103.0703

G1X33.7028Y-102.4131

G1X40.0723Y-101.1218

G1X41.4974Y-100.9928

G1X42.7498Y-101.0119

G1X44.4117Y-101.2671

G1X45.9515Y-101.7670

G1X47.3213Y-102.4426

G1X49.3375Y-103.6853

G1X50.0841Y-104.0126

G1X51.1218Y-104.1754

G1X52.9199Y-104.1485

G1X55.9284Y-103.8117

G1X58.7289Y-103.1480

G1X61.4051Y-102.1536

G1X66.3557Y-99.8015

G1X67.6560Y-99.4138

G1X68.9139Y-99.2810

G1X70.3055Y-99.4405

G1X71.7155Y-99.9628

G1X72.7421Y-100.6438

G1X75.4180Y-102.9279

G1X76.2160Y-103.3499

G1X77.2297Y-103.6237

G1X79.1459Y-103.7282

G1X81.5720Y-103.5051

G1X83.9242Y-103.0105

G1X86.2227Y-102.2501

G1 Z0F20000

(Start Block)


G1X19.9495Y-100.1978
G1Z5F20000
(Plotting speed under)
G1 F4000


G1X21.5761Y-100.9498

G1X23.1111Y-101.4311

G1X24.7416Y-101.7021

G1X26.7387Y-101.7975

G1X28.8713Y-101.7276

G1X33.6123Y-101.3932

G1X40.2541Y-100.3220

G1X41.8882Y-100.1960

G1X43.3312Y-100.2328

G1X44.8643Y-100.4601

G1X46.3864Y-100.9028

G1X47.4309Y-101.3376

G1X49.6165Y-102.4720

G1X50.5027Y-102.8356

G1X51.3333Y-102.9626

G1X52.6940Y-102.9623

G1X55.6496Y-102.6653

G1X58.4905Y-102.0291

G1X61.3479Y-100.9995

G1X66.3560Y-98.6757

G1X67.7728Y-98.2785

G1X69.0352Y-98.1759

G1X70.5126Y-98.3900

G1X71.8119Y-98.9134

G1X72.9887Y-99.7488

G1X75.3627Y-101.8750

G1X76.0980Y-102.2959

G1X77.0602Y-102.5822

G1X78.9049Y-102.7139

G1X81.2867Y-102.5479

G1X83.6412Y-102.1280

G1X85.9863Y-101.4448

G1 Z0F20000

(Start Block)


G1X20.0944Y-98.5372
G1Z5F20000
(Plotting speed under)
G1 F4000


G1X22.0502Y-99.3118

G1X23.7767Y-99.8032

G1X25.6637Y-100.1178

G1X27.7610Y-100.2615

G1X34.0124Y-100.2425

G1X35.7240Y-100.0671

G1X41.1029Y-99.2879

G1X42.7270Y-99.1982

G1X44.3057Y-99.2639

G1X45.8228Y-99.5011

G1X47.2340Y-99.8926

G1X51.1227Y-101.5610

G1X51.8335Y-101.6649

G1X52.8640Y-101.6772

G1X55.6589Y-101.3980

G1X58.3829Y-100.7877

G1X61.1379Y-99.8157

G1X66.2565Y-97.5064

G1X67.6562Y-97.1237

G1X69.0009Y-97.0201

G1X70.5130Y-97.2493

G1X71.9082Y-97.8323

G1X73.0680Y-98.6835

G1X75.4056Y-100.8552

G1X76.1112Y-101.2655

G1X76.9183Y-101.5159

G1X78.6911Y-101.6693

G1X81.1311Y-101.5389

G1X83.4758Y-101.1750

G1X85.7463Y-100.5865

G1 Z0F20000

(Start Block)


G1X20.1694Y-96.9350
G1Z5F20000
(Plotting speed under)
G1 F4000


G1X22.9898Y-97.8178

G1X25.5571Y-98.3521

G1X28.0695Y-98.6431

G1X33.3970Y-99.0088

G1X35.9379Y-98.8975

G1X42.2284Y-98.0575

G1X43.8927Y-97.9878

G1X45.3712Y-98.0593

G1X46.8945Y-98.2913

G1X48.3207Y-98.6705

G1X49.5837Y-99.1406

G1X51.7578Y-100.1180

G1X52.4744Y-100.2399

G1X53.3654Y-100.2614

G1X55.7484Y-100.0215

G1X58.2403Y-99.4618

G1X60.8989Y-98.5433

G1X64.8554Y-96.7648

G1X66.1542Y-96.2559

G1X67.6458Y-95.8856

G1X68.9930Y-95.8146

G1X69.7987Y-95.9031

G1X70.6121Y-96.0977

G1X72.0059Y-96.7169

G1X73.1549Y-97.5847

G1X75.4698Y-99.8071

G1X76.0494Y-100.1609

G1X76.8179Y-100.4221

G1X78.5251Y-100.5926

G1X80.9142Y-100.4994

G1X83.2454Y-100.1884

G1X85.5348Y-99.6580

G1 Z0F20000

(Start Block)


G1X20.1951Y-95.4280
G1Z5F20000
(Plotting speed under)
G1 F4000


G1X22.7942Y-96.0597

G1X25.3472Y-96.5379

G1X34.2159Y-97.6761

G1X35.3976Y-97.6649

G1X36.8635Y-97.5387

G1X43.3206Y-96.6270

G1X45.0319Y-96.5486

G1X46.5170Y-96.6163

G1X47.9517Y-96.8260

G1X49.4145Y-97.2050

G1X50.5716Y-97.6338

G1X52.5626Y-98.5451

G1X53.1819Y-98.6559

G1X54.0726Y-98.6868

G1X56.0276Y-98.4874

G1X58.1976Y-97.9971

G1X60.7165Y-97.1407

G1X64.5657Y-95.4730

G1X65.8498Y-94.9902

G1X67.3976Y-94.6197

G1X68.7760Y-94.5487

G1X69.6850Y-94.6485

G1X70.5032Y-94.8437

G1X71.3176Y-95.1473

G1X72.0094Y-95.5074

G1X73.2509Y-96.4509

G1X75.4740Y-98.6569

G1X76.1310Y-99.0737

G1X76.7722Y-99.2985

G1X78.4270Y-99.4838

G1X80.7730Y-99.4148

G1X83.0890Y-99.1389

G1X85.3870Y-98.6475

G1 Z0F20000

(Start Block)


G1X20.1962Y-94.0480
G1Z5F20000
(Plotting speed under)
G1 F4000


G1X23.3069Y-94.5360

G1X29.9798Y-95.3906

G1X33.7521Y-96.1164

G1X34.9658Y-96.2342

G1X36.2726Y-96.2031

G1X37.7378Y-96.0505

G1X44.2366Y-94.9994

G1X45.9601Y-94.8929

G1X47.4566Y-94.9441

G1X48.9197Y-95.1499

G1X50.2195Y-95.4811

G1X51.3406Y-95.8955

G1X53.2418Y-96.7871

G1X53.9723Y-96.9230

G1X54.7413Y-96.9543

G1X56.6157Y-96.7584

G1X58.8670Y-96.2051

G1X60.9006Y-95.4888

G1X64.4683Y-94.0155

G1X65.9018Y-93.5416

G1X67.2478Y-93.2785

G1X68.6292Y-93.2369

G1X69.5608Y-93.3491

G1X70.3862Y-93.5479

G1X71.2106Y-93.8492

G1X72.0132Y-94.2599

G1X73.3564Y-95.2814

G1X75.6093Y-97.5439

G1X76.1652Y-97.9054

G1X76.7923Y-98.1419

G1X78.4151Y-98.3416

G1X80.7335Y-98.2847

G1X83.1449Y-98.0049

G1X85.3370Y-97.5443

G1 Z0F20000

(Start Block)


G1X20.1938Y-92.8234
G1Z5F20000
(Plotting speed under)
G1 F4000


G1X26.4457Y-93.2186

G1X28.9756Y-93.4543

G1X31.5766Y-93.8708

G1X34.2821Y-94.5435

G1X35.6250Y-94.6653

G1X36.8668Y-94.6211

G1X38.4248Y-94.4312

G1X44.9094Y-93.2160

G1X46.4856Y-93.0855

G1X47.9906Y-93.1075

G1X49.2585Y-93.2566

G1X50.3951Y-93.5052

G1X51.8174Y-93.9932

G1X53.7117Y-94.8854

G1X54.5513Y-95.0622

G1X55.4063Y-95.1036

G1X57.0816Y-94.9320

G1X58.9410Y-94.4878

G1X60.6655Y-93.9124

G1X64.0561Y-92.6070

G1X65.5159Y-92.1587

G1X66.9647Y-91.9025

G1X68.2970Y-91.8721

G1X69.2154Y-91.9726

G1X70.1528Y-92.1828

G1X71.0947Y-92.5138

G1X71.9646Y-92.9466

G1X73.4707Y-94.0764

G1X75.6991Y-96.3187

G1X76.3577Y-96.7465

G1X77.0018Y-96.9775

G1X78.6124Y-97.1644

G1X80.9239Y-97.0944

G1X83.2258Y-96.8100

G1X85.4127Y-96.3316

G1 Z0F20000

(Start Block)


G1X20.1967Y-91.7813
G1Z5F20000
(Plotting speed under)
G1 F4000


G1X25.9810Y-91.6027

G1X28.8799Y-91.6809

G1X31.6089Y-92.0427

G1X34.6783Y-92.8420

G1X36.3867Y-92.9614

G1X37.6491Y-92.8731

G1X38.9816Y-92.6740

G1X44.9588Y-91.4073

G1X46.4445Y-91.2400

G1X47.9464Y-91.2144

G1X49.2517Y-91.3272

G1X50.5649Y-91.5814

G1X51.9593Y-92.0273

G1X54.0992Y-92.9864

G1X54.9726Y-93.1728

G1X55.9994Y-93.2215

G1X57.4504Y-93.0740

G1X59.0248Y-92.7188

G1X63.6848Y-91.1366

G1X65.1070Y-90.7378

G1X66.5455Y-90.5036

G1X67.9257Y-90.4736

G1X68.9520Y-90.5822

G1X70.0070Y-90.8154

G1X71.0452Y-91.1783

G1X71.9594Y-91.6286

G1X73.5089Y-92.7634

G1X75.9287Y-95.1211

G1X76.5172Y-95.4913

G1X77.2514Y-95.7530

G1X78.9290Y-95.9340

G1X81.1515Y-95.8406

G1X83.4572Y-95.5115

G1X85.6293Y-94.9781

G1 Z0F20000

(Start Block)


G1X20.1906Y-90.9488
G1Z5F20000
(Plotting speed under)
G1 F4000


G1X26.0688Y-90.1468

G1X28.9413Y-89.9886

G1X30.3745Y-90.0556

G1X31.6864Y-90.2235

G1X35.1229Y-91.0596

G1X37.0530Y-91.1236

G1X39.3545Y-90.8115

G1X44.7330Y-89.6257

G1X46.1899Y-89.4460

G1X47.5654Y-89.3985

G1X49.0157Y-89.4919

G1X50.3643Y-89.7212

G1X51.9319Y-90.1797

G1X54.3356Y-91.1883

G1X55.3515Y-91.3872

G1X56.4711Y-91.4213

G1X57.6809Y-91.2951

G1X59.1005Y-90.9935

G1X63.2766Y-89.6827

G1X64.6796Y-89.3166

G1X66.1066Y-89.0959

G1X67.4316Y-89.0572

G1X68.5618Y-89.1573

G1X69.7343Y-89.3959

G1X70.8196Y-89.7507

G1X71.7602Y-90.1814

G1X72.5723Y-90.6708

G1X73.4018Y-91.2979

G1X76.0903Y-93.7797

G1X76.7402Y-94.1749

G1X77.5171Y-94.4454

G1X79.1475Y-94.6211

G1X81.4215Y-94.4924

G1X83.7348Y-94.0884

G1X85.9774Y-93.4307

G1 Z0F20000

(Start Block)


G1X20.1380Y-90.2833
G1Z5F20000
(Plotting speed under)
G1 F4000


G1X26.3605Y-88.6621

G1X27.9124Y-88.3721

G1X29.2626Y-88.2366

G1X30.4160Y-88.2217

G1X31.6355Y-88.3153

G1X32.7796Y-88.5133

G1X34.9592Y-89.0496

G1X36.8559Y-89.1552

G1X39.0273Y-88.9095

G1X44.5032Y-87.7958

G1X46.1688Y-87.6373

G1X47.7592Y-87.6418

G1X49.1092Y-87.7728

G1X50.3966Y-88.0121

G1X51.9378Y-88.4609

G1X54.4433Y-89.4530

G1X55.4360Y-89.6520

G1X56.5594Y-89.7101

G1X57.7197Y-89.6213

G1X59.0075Y-89.3922

G1X64.3838Y-87.9872

G1X65.7006Y-87.8051

G1X66.9561Y-87.7623

G1X68.2032Y-87.8549

G1X69.3773Y-88.0704

G1X70.5116Y-88.4073

G1X71.5613Y-88.8514

G1X72.3923Y-89.3164

G1X73.2525Y-89.9237

G1X76.1619Y-92.3941

G1X76.9887Y-92.8433

G1X77.8108Y-93.0892

G1X79.6316Y-93.2249

G1X81.8927Y-93.0057

G1X84.2040Y-92.4713

G1X86.3719Y-91.6745

G1 Z0F20000

(Start Block)


G1X20.0175Y-89.6663
G1Z5F20000
(Plotting speed under)
G1 F4000


G1X22.1563Y-88.8954

G1X26.5765Y-87.0199

G1X27.8161Y-86.6253

G1X28.9756Y-86.3827

G1X30.1904Y-86.2705

G1X31.3795Y-86.2974

G1X32.5506Y-86.4521

G1X34.8369Y-86.9356

G1X36.7704Y-87.0276

G1X38.7833Y-86.8241

G1X43.5658Y-85.9778

G1X46.1139Y-85.8083

G1X48.1231Y-85.9143

G1X50.0232Y-86.2185

G1X51.7248Y-86.6780

G1X54.4862Y-87.6963

G1X55.4072Y-87.8968

G1X56.4274Y-88.0018

G1X57.5845Y-87.9912

G1X58.8439Y-87.8586

G1X63.2761Y-86.9822

G1X65.0395Y-86.7401

G1X66.9080Y-86.6970

G1X68.6736Y-86.8990

G1X70.1686Y-87.2789

G1X71.5824Y-87.8530

G1X72.9969Y-88.7145

G1X75.2698Y-90.4986

G1X76.1482Y-91.0874

G1X77.1629Y-91.5270

G1X78.3383Y-91.7543

G1X80.2511Y-91.7455

G1X82.4504Y-91.3873

G1X84.6448Y-90.7143

G1X86.6905Y-89.7785

G1 Z0F20000

(Start Block)


G1X19.8330Y-89.0325
G1Z5F20000
(Plotting speed under)
G1 F4000


G1X22.4199Y-87.8280

G1X26.8620Y-85.1802

G1X27.8935Y-84.7396

G1X28.8360Y-84.4795

G1X29.9868Y-84.3313

G1X31.1139Y-84.3338

G1X34.4732Y-84.8419

G1X36.3257Y-84.9198

G1X38.2018Y-84.7756

G1X42.4765Y-84.1844

G1X44.6609Y-84.0513

G1X47.1126Y-84.1366

G1X49.5348Y-84.4762

G1X51.5296Y-84.9738

G1X54.5616Y-86.0076

G1X56.6375Y-86.3723

G1X59.1348Y-86.3681

G1X63.4097Y-85.8897

G1X65.1081Y-85.7750

G1X66.9070Y-85.8095

G1X68.5634Y-86.0249

G1X70.2552Y-86.4675

G1X71.7127Y-87.0800

G1X72.5974Y-87.5957

G1X74.9725Y-89.2538

G1X75.9688Y-89.8040

G1X76.9556Y-90.1496

G1X78.0478Y-90.3273

G1X79.1171Y-90.3513

G1X80.1878Y-90.2673

G1X82.4664Y-89.8034

G1X84.7090Y-88.9810

G1X86.8724Y-87.8007

G1 Z0F20000

(Start Block)


G1X19.6109Y-88.3319
G1Z5F20000
(Plotting speed under)
G1 F4000


G1X21.1924Y-87.5641

G1X22.7162Y-86.6250

G1X23.9965Y-85.6711

G1X26.1778Y-83.8456

G1X27.0653Y-83.2353

G1X28.3496Y-82.7111

G1X29.8405Y-82.5162

G1X31.0076Y-82.5445

G1X33.7035Y-82.8840

G1X35.4731Y-82.9645

G1X37.1233Y-82.8952

G1X42.2369Y-82.4371

G1X44.1211Y-82.4021

G1X46.0170Y-82.4775

G1X48.0375Y-82.6868

G1X49.9664Y-83.0284

G1X51.5815Y-83.4434

G1X54.7132Y-84.4403

G1X57.0538Y-84.8970

G1X59.5591Y-85.0487

G1X65.0937Y-84.9546

G1X67.5378Y-85.1375

G1X69.1849Y-85.4502

G1X70.6191Y-85.8922

G1X71.9965Y-86.5194

G1X74.0645Y-87.8103

G1X75.0782Y-88.3428

G1X76.3116Y-88.7615

G1X77.5630Y-88.9406

G1X78.6524Y-88.9439

G1X79.9223Y-88.8116

G1X81.1358Y-88.5688

G1X82.3936Y-88.2022

G1X83.5885Y-87.7418

G1X84.6834Y-87.2153

G1X86.8941Y-85.8115

G1 Z0F20000

(Start Block)


G1X19.3907Y-87.5335
G1Z5F20000
(Plotting speed under)
G1 F4000


G1X21.2173Y-86.5827

G1X22.8779Y-85.4105

G1X23.9847Y-84.4205

G1X26.0428Y-82.1985

G1X26.7839Y-81.5629

G1X27.7324Y-81.1244

G1X28.9929Y-80.9322

G1X30.3555Y-80.9353

G1X33.0775Y-81.1753

G1X34.8500Y-81.2296

G1X40.5738Y-80.9323

G1X43.1869Y-80.9011

G1X45.6798Y-81.0097

G1X48.0022Y-81.2537

G1X50.7376Y-81.7736

G1X55.1226Y-83.0672

G1X57.7148Y-83.6370

G1X60.3839Y-83.9615

G1X66.0111Y-84.3227

G1X68.7326Y-84.7378

G1X70.0279Y-85.0800

G1X71.1886Y-85.5036

G1X73.5584Y-86.7653

G1X74.5087Y-87.1799

G1X75.5947Y-87.4819

G1X76.7697Y-87.6221

G1X78.0062Y-87.6055

G1X79.2956Y-87.4463

G1X80.6024Y-87.1560

G1X81.9427Y-86.7256

G1X83.1696Y-86.2069

G1X84.4374Y-85.5312

G1X85.5973Y-84.7753

G1X86.7686Y-83.8774

G1 Z0F20000

(Start Block)


G1X19.2140Y-86.6228
G1Z5F20000
(Plotting speed under)
G1 F4000


G1X21.2560Y-85.5135

G1X22.9622Y-84.1848

G1X24.1824Y-82.8990

G1X25.8322Y-80.6594

G1X26.3654Y-80.1016

G1X27.0708Y-79.7282

G1X28.1447Y-79.5473

G1X29.6626Y-79.5265

G1X34.0741Y-79.7194

G1X39.7190Y-79.5452

G1X42.6263Y-79.5438

G1X45.6292Y-79.6791

G1X48.2379Y-79.9592

G1X51.1907Y-80.5441

G1X56.4132Y-82.0878

G1X59.0750Y-82.7381

G1X61.7463Y-83.2018

G1X66.9517Y-83.8693

G1X69.0480Y-84.2641

G1X71.0334Y-84.8572

G1X73.6952Y-86.0381

G1X74.7017Y-86.2856

G1X75.7836Y-86.3975

G1X77.0777Y-86.3685

G1X78.4944Y-86.1757

G1X79.9140Y-85.8336

G1X81.3418Y-85.3399

G1X82.6385Y-84.7512

G1X83.9479Y-84.0035

G1X85.1665Y-83.1552

G1X86.5360Y-82.0477

G1 Z0F20000

(Start Block)


G1X19.1149Y-85.5956
G1Z5F20000
(Plotting speed under)
G1 F4000


G1X20.2159Y-85.0431

G1X21.2390Y-84.4082

G1X22.1612Y-83.7105

G1X22.9668Y-82.9756

G1X24.2112Y-81.5110

G1X25.5864Y-79.2853

G1X26.0056Y-78.7711

G1X26.6202Y-78.4316

G1X27.4536Y-78.2963

G1X29.1496Y-78.2652

G1X33.4488Y-78.3840

G1X42.4180Y-78.2953

G1X45.6219Y-78.4343

G1X48.4018Y-78.7321

G1X50.1317Y-79.0383

G1X51.8268Y-79.4517

G1X58.3669Y-81.5401

G1X60.7732Y-82.2139

G1X63.3774Y-82.7703

G1X69.1709Y-83.7507

G1X70.9908Y-84.2340

G1X73.0463Y-85.0099

G1X73.8624Y-85.1821

G1X74.7344Y-85.2607

G1X76.1919Y-85.2110

G1X77.6666Y-84.9825

G1X79.1816Y-84.5856

G1X80.7054Y-84.0198

G1X82.0759Y-83.3549

G1X83.3426Y-82.5922

G1X84.5228Y-81.7447

G1X86.2494Y-80.3485

G1 Z0F20000

(Start Block)


G1X19.1136Y-84.4506
G1Z5F20000
(Plotting speed under)
G1 F4000


G1X20.8450Y-83.4919

G1X22.4096Y-82.2718

G1X23.1848Y-81.4835

G1X23.9441Y-80.5323

G1X25.7111Y-77.5897

G1X26.2615Y-77.2449

G1X27.0208Y-77.1154

G1X42.5484Y-77.1125

G1X45.8483Y-77.2614

G1X48.5017Y-77.5571

G1X50.7689Y-77.9923

G1X52.9391Y-78.5971

G1X55.1494Y-79.3594

G1X59.8892Y-81.1687

G1X62.4638Y-81.9661

G1X64.9114Y-82.4948

G1X69.7633Y-83.2631

G1X71.0207Y-83.5496

G1X72.5938Y-84.0273

G1X73.8766Y-84.1796

G1X75.2614Y-84.1176

G1X76.8817Y-83.8411

G1X78.4143Y-83.4078

G1X79.9432Y-82.8095

G1X81.3064Y-82.1239

G1X82.5582Y-81.3547

G1X85.9611Y-78.7849

G1 Z0F20000

(Start Block)


G1X19.2131Y-83.1843
G1Z5F20000
(Plotting speed under)
G1 F4000


G1X20.9146Y-82.1955

G1X22.3761Y-81.0153

G1X23.2018Y-80.1471

G1X23.8783Y-79.2736

G1X25.5545Y-76.4845

G1X26.0966Y-76.1190

G1X26.8700Y-75.9728

G1X42.4842Y-75.9566

G1X45.7319Y-76.1029

G1X48.4062Y-76.4051

G1X51.0184Y-76.9337

G1X53.4782Y-77.6866

G1X55.7123Y-78.5674

G1X60.3917Y-80.6621

G1X62.9010Y-81.5204

G1X65.1795Y-81.9960

G1X69.9027Y-82.5463

G1X72.2670Y-83.0169

G1X73.1315Y-83.1000

G1X74.5269Y-83.0262

G1X75.9683Y-82.7671

G1X77.5183Y-82.3195

G1X79.0626Y-81.7031

G1X80.3396Y-81.0564

G1X81.5191Y-80.3411

G1X84.6979Y-77.9820

G1X85.7136Y-77.3472

G1 Z0F20000

(Start Block)


G1X19.3982Y-81.7901
G1Z5F20000
(Plotting speed under)
G1 F4000


G1X21.1547Y-80.6922

G1X22.6974Y-79.3389

G1X23.7735Y-78.0590

G1X25.1463Y-75.9167

G1X25.6039Y-75.3661

G1X26.2217Y-75.0137

G1X27.0608Y-74.8617

G1X28.7677Y-74.8152

G1X32.9116Y-74.9021

G1X38.1551Y-74.8006

G1X42.0955Y-74.8166

G1X45.3565Y-74.9594

G1X48.1680Y-75.2790

G1X50.9784Y-75.8713

G1X53.5292Y-76.7071

G1X55.8330Y-77.7209

G1X60.4199Y-80.0797

G1X61.5742Y-80.5589

G1X62.7169Y-80.9263

G1X63.9791Y-81.2106

G1X65.2737Y-81.3934

G1X70.0824Y-81.6791

G1X72.6456Y-81.9828

G1X73.9119Y-81.9060

G1X75.3546Y-81.6297

G1X76.8170Y-81.1862

G1X78.2709Y-80.5890

G1X80.6508Y-79.2556

G1X84.2684Y-76.6448

G1X85.5348Y-76.0184

G1 Z0F20000

(Start Block)


G1X19.6360Y-80.2616
G1Z5F20000
(Plotting speed under)
G1 F4000


G1X21.0625Y-79.3378

G1X22.4354Y-78.1779

G1X23.3975Y-77.1515

G1X25.0015Y-75.0754

G1X25.6099Y-74.4462

G1X26.4150Y-74.0129

G1X27.5686Y-73.8084

G1X29.2693Y-73.7676

G1X33.2384Y-73.8913

G1X38.1680Y-73.7130

G1X41.6043Y-73.7053

G1X44.8177Y-73.8407

G1X47.6478Y-74.1555

G1X50.6339Y-74.7893

G1X53.3575Y-75.7225

G1X55.6887Y-76.8422

G1X60.0784Y-79.3805

G1X61.1722Y-79.8729

G1X62.2694Y-80.2346

G1X63.5059Y-80.4942

G1X65.0236Y-80.6497

G1X70.1182Y-80.6512

G1X72.3297Y-80.7953

G1X73.4424Y-80.7228

G1X74.7582Y-80.4649

G1X76.1075Y-80.0500

G1X77.4071Y-79.5162

G1X79.6925Y-78.2503

G1X83.4835Y-75.5682

G1X84.4800Y-75.0726

G1X85.4374Y-74.7808

G1 Z0F20000

(Start Block)


G1X19.8797Y-78.6011
G1Z5F20000
(Plotting speed under)
G1 F4000


G1X21.0075Y-77.8531

G1X22.1273Y-76.9589

G1X24.7637Y-74.3187

G1X25.5380Y-73.6647

G1X26.5942Y-73.1455

G1X28.1268Y-72.8806

G1X29.8369Y-72.8536

G1X33.6383Y-73.0320

G1X38.6795Y-72.7036

G1X41.8344Y-72.6652

G1X45.2221Y-72.8477

G1X48.1268Y-73.2534

G1X50.9518Y-73.9636

G1X53.4988Y-74.9526

G1X55.6312Y-76.0961

G1X59.2125Y-78.4053

G1X60.6334Y-79.1146

G1X62.3961Y-79.6138

G1X64.5655Y-79.8007

G1X66.3548Y-79.7573

G1X70.3299Y-79.4857

G1X72.6015Y-79.5026

G1X73.5798Y-79.3765

G1X74.7107Y-79.1032

G1X76.3550Y-78.5056

G1X78.0781Y-77.6369

G1X79.5160Y-76.7240

G1X82.0155Y-74.9147

G1X82.9973Y-74.3237

G1X84.1439Y-73.8642

G1X85.4199Y-73.6185

G1 Z0F20000

(Start Block)


G1X20.0774Y-76.8276
G1Z5F20000
(Plotting speed under)
G1 F4000


G1X21.6734Y-75.7343

G1X24.9221Y-73.1987

G1X25.9816Y-72.6437

G1X27.0185Y-72.3254

G1X28.1624Y-72.1562

G1X29.5636Y-72.1066

G1X33.0849Y-72.3674

G1X34.3560Y-72.3788

G1X39.7115Y-71.7910

G1X41.5326Y-71.7214

G1X43.3457Y-71.7564

G1X45.3788Y-71.9099

G1X47.2018Y-72.1619

G1X48.9619Y-72.5278

G1X50.5405Y-72.9777

G1X52.4001Y-73.6823

G1X54.1452Y-74.5514

G1X55.7141Y-75.5270

G1X58.5386Y-77.5086

G1X60.0215Y-78.2876

G1X61.0155Y-78.6052

G1X62.1243Y-78.7985

G1X63.4433Y-78.8749

G1X64.9767Y-78.8273

G1X70.4298Y-78.1880

G1X72.7753Y-78.0866

G1X74.4882Y-77.7133

G1X76.0192Y-77.1280

G1X77.4875Y-76.3683

G1X78.8180Y-75.5207

G1X81.2220Y-73.8020

G1X82.3039Y-73.1790

G1X83.7104Y-72.6998

G1X85.4696Y-72.5171

G1 Z0F20000

(Start Block)


G1X20.1851Y-74.9825
G1Z5F20000
(Plotting speed under)
G1 F4000


G1X24.1964Y-72.5650

G1X25.4683Y-72.0388

G1X26.8450Y-71.7023

G1X28.2171Y-71.5570

G1X29.6629Y-71.5464

G1X31.2537Y-71.6555

G1X33.5784Y-71.9448

G1X34.8188Y-71.9661

G1X36.2088Y-71.8189

G1X39.2864Y-71.2103

G1X40.6724Y-71.0115

G1X42.4848Y-70.9050

G1X44.4541Y-70.9604

G1X46.4124Y-71.1709

G1X48.3500Y-71.5383

G1X50.0654Y-72.0160

G1X51.7689Y-72.6586

G1X54.1004Y-73.8749

G1X57.9524Y-76.6336

G1X58.7831Y-77.1223

G1X59.5216Y-77.4440

G1X60.2989Y-77.6726

G1X61.2577Y-77.8316

G1X63.5028Y-77.8688

G1X65.7959Y-77.6256

G1X70.3815Y-76.7851

G1X72.8820Y-76.5516

G1X73.9907Y-76.3134

G1X75.3730Y-75.8136

G1X76.7149Y-75.1450

G1X78.0568Y-74.3123

G1X80.5008Y-72.6034

G1X81.6962Y-71.9624

G1X82.5662Y-71.6681

G1X83.4089Y-71.5057

G1X84.3765Y-71.4319

G1X85.5648Y-71.4613

G1 Z0F20000

(Start Block)


G1X20.1811Y-73.1273
G1Z5F20000
(Plotting speed under)
G1 F4000


G1X21.9886Y-72.2595

G1X23.4029Y-71.6923

G1X24.7200Y-71.3163

G1X26.0888Y-71.0891

G1X27.6521Y-71.0011

G1X29.2954Y-71.0589

G1X31.2114Y-71.2687

G1X33.8096Y-71.6925

G1X35.1217Y-71.7423

G1X36.8616Y-71.4992

G1X40.0149Y-70.6534

G1X41.5823Y-70.3403

G1X43.3931Y-70.1902

G1X45.4026Y-70.2586

G1X47.0694Y-70.4765

G1X48.6575Y-70.8189

G1X50.1789Y-71.2821

G1X51.7094Y-71.9026

G1X53.7879Y-73.0498

G1X57.2066Y-75.5871

G1X58.6271Y-76.3715

G1X59.3810Y-76.6155

G1X60.2364Y-76.7761

G1X62.2808Y-76.8431

G1X63.8103Y-76.7129

G1X65.3696Y-76.4702

G1X70.8025Y-75.1642

G1X73.7315Y-74.7244

G1X74.9328Y-74.3078

G1X76.1285Y-73.7298

G1X79.8450Y-71.3146

G1X81.1719Y-70.6786

G1X82.0694Y-70.4350

G1X83.1218Y-70.3040

G1X84.3601Y-70.3016

G1X85.6786Y-70.4305

G1 Z0F20000

(Start Block)


G1X20.0782Y-71.3352
G1Z5F20000
(Plotting speed under)
G1 F4000


G1X21.6621Y-70.8233

G1X23.0379Y-70.5068

G1X24.4548Y-70.3235

G1X26.0349Y-70.2755

G1X28.7241Y-70.4954

G1X33.9135Y-71.5086

G1X35.4149Y-71.5746

G1X37.3104Y-71.2386

G1X40.8798Y-70.0769

G1X42.3764Y-69.7132

G1X44.1941Y-69.5191

G1X46.2428Y-69.5977

G1X47.6244Y-69.8047

G1X49.0556Y-70.1459

G1X50.4084Y-70.5951

G1X51.6400Y-71.1255

G1X53.3701Y-72.1082

G1X56.5867Y-74.5167

G1X57.9047Y-75.2577

G1X59.3972Y-75.6560

G1X61.2355Y-75.7427

G1X63.1288Y-75.5775

G1X65.1198Y-75.2094

G1X67.0528Y-74.6915

G1X71.0992Y-73.3939

G1X73.2522Y-73.0448

G1X74.0747Y-72.8281

G1X75.9689Y-71.9796

G1X79.3497Y-69.8881

G1X80.8418Y-69.3130

G1X81.9339Y-69.1288

G1X83.0985Y-69.0880

G1X84.3804Y-69.1750

G1X85.7818Y-69.3967

G1 Z0F20000

(Start Block)


G1X19.9252Y-69.6776
G1Z5F20000
(Plotting speed under)
G1 F4000


G1X21.3250Y-69.4146

G1X22.7651Y-69.2725

G1X24.2142Y-69.2583

G1X25.6514Y-69.3589

G1X28.6263Y-69.8679

G1X33.7968Y-71.2189

G1X35.1355Y-71.3303

G1X36.2785Y-71.2041

G1X37.4602Y-70.9198

G1X41.3926Y-69.4895

G1X43.0222Y-69.0306

G1X44.9660Y-68.7960

G1X46.9435Y-68.8892

G1X48.1510Y-69.0909

G1X49.3424Y-69.3942

G1X50.5461Y-69.8118

G1X51.6315Y-70.2955

G1X53.0280Y-71.0961

G1X56.0321Y-73.3249

G1X57.2753Y-74.0324

G1X58.6663Y-74.4346

G1X60.3983Y-74.5468

G1X62.5049Y-74.3610

G1X64.7307Y-73.8952

G1X66.9981Y-73.1685

G1X71.1096Y-71.5356

G1X74.0886Y-70.9051

G1X75.5839Y-70.2560

G1X78.5425Y-68.5800

G1X79.9198Y-68.0746

G1X81.1230Y-67.8751

G1X82.5955Y-67.8459

G1X84.1438Y-67.9913

G1X85.8443Y-68.3224

G1 Z0F20000

(Start Block)


G1X19.8063Y-68.2385
G1Z5F20000
(Plotting speed under)
G1 F4000


G1X21.1435Y-68.1254

G1X22.5291Y-68.1169

G1X23.9667Y-68.2189

G1X25.4468Y-68.4323

G1X28.1243Y-69.0651

G1X33.1289Y-70.6575

G1X34.0256Y-70.8494

G1X34.8107Y-70.8989

G1X36.0225Y-70.7823

G1X37.4548Y-70.4333

G1X41.8803Y-68.7274

G1X43.5457Y-68.2339

G1X45.3992Y-67.9964

G1X47.3332Y-68.0908

G1X49.4661Y-68.5557

G1X51.4971Y-69.3620

G1X53.0254Y-70.2584

G1X55.6665Y-72.2115

G1X56.7706Y-72.8218

G1X58.1538Y-73.2225

G1X59.7798Y-73.3302

G1X61.0573Y-73.2473

G1X62.3004Y-73.0629

G1X64.9599Y-72.3640

G1X67.0480Y-71.5290

G1X70.9021Y-69.6395

G1X71.7909Y-69.3469

G1X73.2519Y-69.1136

G1X74.2234Y-68.8330

G1X77.5570Y-67.2372

G1X79.0272Y-66.7394

G1X80.4328Y-66.5393

G1X82.1056Y-66.5407

G1X83.9549Y-66.7495

G1X85.8275Y-67.1562

G1 Z0F20000

(Start Block)


G1X19.7751Y-67.0238
G1Z5F20000
(Plotting speed under)
G1 F4000


G1X22.3909Y-67.1000

G1X25.0370Y-67.5259

G1X27.5895Y-68.2348

G1X32.3564Y-69.9358

G1X33.5514Y-70.2290

G1X34.4527Y-70.3089

G1X35.8003Y-70.1779

G1X37.3874Y-69.7746

G1X38.8476Y-69.2462

G1X42.0832Y-67.8993

G1X43.6741Y-67.4050

G1X45.4263Y-67.1501

G1X47.3608Y-67.2258

G1X49.3751Y-67.6637

G1X51.3557Y-68.4587

G1X52.8363Y-69.3402

G1X55.3036Y-71.1747

G1X56.3178Y-71.7207

G1X57.6476Y-72.0956

G1X59.1741Y-72.1931

G1X60.4565Y-72.1059

G1X61.8019Y-71.8913

G1X63.1003Y-71.5753

G1X64.3768Y-71.1588

G1X66.7536Y-70.0839

G1X70.0473Y-68.0736

G1X70.9560Y-67.6034

G1X71.7871Y-67.3267

G1X72.9829Y-67.1352

G1X73.8054Y-66.9130

G1X76.5766Y-65.7735

G1X77.7074Y-65.4170

G1X79.4216Y-65.1677

G1X81.4034Y-65.1762

G1X83.5705Y-65.4240

G1X85.7343Y-65.9043

G1 Z0F20000

(Start Block)


G1X19.8272Y-65.9928
G1Z5F20000
(Plotting speed under)
G1 F4000


G1X22.1910Y-66.1913

G1X24.6256Y-66.6714

G1X27.0309Y-67.3977

G1X31.6850Y-69.1254

G1X32.9585Y-69.4483

G1X34.0671Y-69.5667

G1X35.4642Y-69.4299

G1X37.1372Y-68.9993

G1X38.7134Y-68.4189

G1X42.0193Y-67.0065

G1X43.6334Y-66.4863

G1X45.3976Y-66.2212

G1X47.2437Y-66.2939

G1X49.1546Y-66.7115

G1X51.1107Y-67.5036

G1X52.5214Y-68.3463

G1X54.8572Y-70.1155

G1X55.8347Y-70.6542

G1X57.1296Y-71.0247

G1X58.6982Y-71.1184

G1X59.9689Y-71.0226

G1X61.3222Y-70.7953

G1X62.7089Y-70.4360

G1X64.0115Y-69.9766

G1X65.3858Y-69.3487

G1X66.6745Y-68.6096

G1X69.8478Y-66.2606

G1X70.7629Y-65.7056

G1X71.5352Y-65.4339

G1X73.2292Y-65.0970

G1X76.3383Y-64.0811

G1X78.2404Y-63.8056

G1X80.6319Y-63.8104

G1X83.1881Y-64.0874

G1X85.5910Y-64.6081

G1 Z0F20000

(Start Block)


G1X19.9341Y-65.1161
G1Z5F20000
(Plotting speed under)
G1 F4000


G1X21.9013Y-65.3646

G1X23.9946Y-65.8170

G1X26.2509Y-66.5024

G1X31.0204Y-68.2239

G1X32.4924Y-68.5702

G1X33.6915Y-68.6867

G1X35.1569Y-68.5334

G1X36.8955Y-68.0699

G1X38.5353Y-67.4479

G1X41.8891Y-65.9758

G1X43.4374Y-65.4649

G1X45.2081Y-65.1935

G1X46.9859Y-65.2667

G1X48.8856Y-65.6915

G1X50.7685Y-66.4649

G1X52.1154Y-67.2659

G1X54.3835Y-69.0235

G1X55.4443Y-69.6365

G1X56.7382Y-70.0017

G1X58.2691Y-70.0838

G1X59.8030Y-69.9490

G1X61.4275Y-69.6283

G1X62.9558Y-69.1603

G1X64.4549Y-68.5235

G1X65.7457Y-67.8071

G1X66.8908Y-67.0151

G1X70.0741Y-64.2111

G1X70.6678Y-63.8721

G1X71.2141Y-63.6921

G1X72.5105Y-63.4449

G1X75.3731Y-62.6862

G1X77.7793Y-62.4518

G1X79.7234Y-62.4745

G1X81.7316Y-62.6284

G1X83.5845Y-62.8960

G1X85.4233Y-63.3027

G1 Z0F20000

(Start Block)


G1X20.0566Y-64.3683
G1Z5F20000
(Plotting speed under)
G1 F4000


G1X21.9118Y-64.6802

G1X23.8581Y-65.1540

G1X30.5749Y-67.3134

G1X32.0577Y-67.5949

G1X33.3974Y-67.6857

G1X34.9007Y-67.5052

G1X36.6964Y-66.9957

G1X38.2603Y-66.3753

G1X41.5003Y-64.8897

G1X42.9861Y-64.3633

G1X44.7483Y-64.0574

G1X46.4853Y-64.1071

G1X48.4897Y-64.5494

G1X50.4727Y-65.3843

G1X52.0689Y-66.3844

G1X54.2260Y-68.1087

G1X55.1592Y-68.6432

G1X56.4318Y-68.9938

G1X58.0082Y-69.0638

G1X59.6946Y-68.8970

G1X61.3739Y-68.5399

G1X63.0761Y-67.9733

G1X64.5724Y-67.2710

G1X65.6299Y-66.6317

G1X66.6596Y-65.8660

G1X67.7523Y-64.8615

G1X69.7060Y-62.7403

G1X70.2201Y-62.3716

G1X70.8115Y-62.1387

G1X74.4514Y-61.3644

G1X75.7457Y-61.2253

G1X77.2627Y-61.1731

G1X79.4357Y-61.2164

G1X81.4848Y-61.3677

G1X83.3744Y-61.6234

G1X85.2576Y-62.0143

G1 Z0F20000

(Start Block)


G1X20.1549Y-63.7206
G1Z5F20000
(Plotting speed under)
G1 F4000


G1X23.0758Y-64.3696

G1X29.4035Y-66.1962

G1X31.3276Y-66.5129

G1X33.1932Y-66.5781

G1X34.6440Y-66.3752

G1X36.3433Y-65.8651

G1X37.9167Y-65.2097

G1X41.1851Y-63.6234

G1X42.6057Y-63.0962

G1X44.2438Y-62.7934

G1X45.9435Y-62.8268

G1X46.9953Y-63.0032

G1X48.0684Y-63.2967

G1X50.0731Y-64.1576

G1X51.6832Y-65.1805

G1X54.0879Y-67.1425

G1X54.9895Y-67.6577

G1X56.2440Y-67.9874

G1X57.9352Y-68.0396

G1X59.7292Y-67.8406

G1X61.4598Y-67.4486

G1X63.1160Y-66.8701

G1X64.6462Y-66.1150

G1X65.7993Y-65.3649

G1X66.8265Y-64.5223

G1X67.8766Y-63.4289

G1X69.5805Y-61.2834

G1X70.0425Y-60.9278

G1X70.5992Y-60.7097

G1X73.8324Y-60.0894

G1X77.0712Y-59.9526

G1X79.3074Y-60.0079

G1X81.4059Y-60.1581

G1X83.3198Y-60.4068

G1X85.1203Y-60.7602

G1 Z0F20000

(Start Block)


G1X20.1970Y-63.1381
G1Z5F20000
(Plotting speed under)
G1 F4000


G1X26.3021Y-64.7039

G1X28.2132Y-65.1185

G1X30.4976Y-65.4006

G1X32.7129Y-65.4035

G1X34.3236Y-65.1751

G1X36.0264Y-64.6317

G1X37.6881Y-63.8835

G1X40.7496Y-62.2706

G1X42.0746Y-61.7351

G1X43.6844Y-61.4063

G1X45.3463Y-61.4236

G1X46.4078Y-61.5941

G1X47.5421Y-61.8999

G1X48.5975Y-62.2981

G1X49.7161Y-62.8468

G1X51.2234Y-63.8165

G1X53.8138Y-65.9906

G1X54.8501Y-66.6316

G1X55.4237Y-66.8314

G1X56.1843Y-66.9732

G1X57.9584Y-67.0058

G1X59.8469Y-66.7817

G1X61.7005Y-66.3406

G1X63.4029Y-65.7095

G1X64.8643Y-64.9470

G1X66.0235Y-64.1477

G1X66.9831Y-63.3071

G1X68.0840Y-62.0545

G1X69.4892Y-60.0420

G1X69.9032Y-59.6675

G1X70.4132Y-59.4356

G1X72.1524Y-59.0544

G1X73.3544Y-58.8817

G1X76.8934Y-58.7736

G1X81.3130Y-58.9772

G1X83.2372Y-59.2164

G1X85.0350Y-59.5511

G1 Z0F20000

(Start Block)


G1X20.1646Y-62.5803
G1Z5F20000
(Plotting speed under)
G1 F4000


G1X24.6344Y-63.6800

G1X27.0960Y-64.1212

G1X29.7718Y-64.3075

G1X32.3612Y-64.1755

G1X34.0386Y-63.8976

G1X35.7338Y-63.3137

G1X37.3709Y-62.5077

G1X40.2914Y-60.8094

G1X41.5907Y-60.2391

G1X43.0540Y-59.9162

G1X44.6731Y-59.9121

G1X45.8584Y-60.0941

G1X46.9820Y-60.3922

G1X48.1752Y-60.8406

G1X49.3379Y-61.4166

G1X51.0064Y-62.5175

G1X53.8438Y-64.9747

G1X54.7735Y-65.5743

G1X55.3953Y-65.7981

G1X56.1410Y-65.9354

G1X58.0836Y-65.9593

G1X59.9345Y-65.7372

G1X61.7999Y-65.3002

G1X63.5833Y-64.6403

G1X65.1190Y-63.8234

G1X66.2224Y-63.0428

G1X67.2389Y-62.1208

G1X68.2573Y-60.9074

G1X69.6701Y-58.7663

G1X70.0973Y-58.4058

G1X70.5274Y-58.2295

G1X71.9323Y-57.8890

G1X73.1442Y-57.7159

G1X76.8593Y-57.6217

G1X81.2202Y-57.8251

G1X83.1548Y-58.0593

G1X85.0203Y-58.3941

G1 Z0F20000

(Start Block)


G1X20.0569Y-62.0059
G1Z5F20000
(Plotting speed under)
G1 F4000


G1X23.5743Y-62.8385

G1X26.1591Y-63.1989

G1X28.8573Y-63.2507

G1X31.6964Y-62.9726

G1X33.7722Y-62.5619

G1X35.4484Y-61.9349

G1X37.0444Y-61.0666

G1X39.8085Y-59.2633

G1X40.9364Y-58.7099

G1X42.3386Y-58.3577

G1X43.9037Y-58.3244

G1X45.2157Y-58.5056

G1X46.5414Y-58.8491

G1X47.7800Y-59.3131

G1X49.0480Y-59.9439

G1X50.8504Y-61.1587

G1X53.9959Y-63.9670

G1X54.9292Y-64.5680

G1X55.5909Y-64.7858

G1X56.3445Y-64.9018

G1X58.3699Y-64.8968

G1X60.3063Y-64.6516

G1X62.1611Y-64.2048

G1X63.8343Y-63.5814

G1X65.3161Y-62.8003

G1X66.6518Y-61.8421

G1X67.7251Y-60.8154

G1X68.5457Y-59.7944

G1X69.6960Y-57.9727

G1X70.0720Y-57.5135

G1X70.5424Y-57.2053

G1X71.4404Y-56.9136

G1X72.4702Y-56.6832

G1X73.7388Y-56.5443

G1X77.8508Y-56.5126

G1X81.6608Y-56.7583

G1X85.0874Y-57.2962

G1 Z0F20000

(Start Block)


G1X19.8899Y-61.3773
G1Z5F20000
(Plotting speed under)
G1 F4000


G1X22.8086Y-62.0388

G1X25.3018Y-62.3031

G1X28.0784Y-62.2346

G1X30.9012Y-61.8281

G1X33.6067Y-61.1570

G1X35.0610Y-60.5680

G1X36.6123Y-59.6479

G1X39.2666Y-57.6877

G1X40.3231Y-57.1122

G1X41.6367Y-56.7612

G1X43.2363Y-56.7191

G1X44.7258Y-56.9197

G1X46.1765Y-57.2926

G1X47.5486Y-57.8069

G1X48.8894Y-58.4805

G1X50.8573Y-59.8408

G1X54.1851Y-62.9113

G1X55.1128Y-63.5304

G1X55.7786Y-63.7427

G1X56.5362Y-63.8493

G1X58.7313Y-63.8257

G1X60.6148Y-63.5862

G1X62.3723Y-63.1771

G1X64.0348Y-62.5824

G1X65.5555Y-61.8084

G1X66.9315Y-60.8480

G1X68.0735Y-59.7772

G1X68.9027Y-58.7672

G1X70.0202Y-57.0545

G1X70.4360Y-56.5406

G1X70.9210Y-56.2079

G1X72.1254Y-55.7620

G1X73.1347Y-55.5507

G1X74.4226Y-55.4302

G1X78.2129Y-55.4311

G1X81.7908Y-55.7030

G1X85.2387Y-56.2663

G1 Z0F20000

(Start Block)


G1X19.6927Y-60.6649
G1Z5F20000
(Plotting speed under)
G1 F4000


G1X22.2476Y-61.2173

G1X24.6541Y-61.4030

G1X27.3758Y-61.2411

G1X30.1684Y-60.7294

G1X32.9443Y-59.9076

G1X34.0002Y-59.5157

G1X34.8484Y-59.0988

G1X36.3490Y-58.0970

G1X38.7346Y-56.0786

G1X39.6723Y-55.5196

G1X40.9489Y-55.1738

G1X42.4664Y-55.1291

G1X44.1363Y-55.3296

G1X45.7890Y-55.7291

G1X47.3536Y-56.2991

G1X48.8193Y-57.0321

G1X49.9227Y-57.7363

G1X50.9248Y-58.5076

G1X53.1233Y-60.5097

G1X54.5974Y-61.9942

G1X55.3135Y-62.4720

G1X55.9509Y-62.6800

G1X56.7634Y-62.7886

G1X59.1685Y-62.7479

G1X61.0541Y-62.5070

G1X62.8791Y-62.0817

G1X64.4775Y-61.5099

G1X65.9340Y-60.7803

G1X67.2603Y-59.8842

G1X68.4137Y-58.8521

G1X69.1805Y-57.9822

G1X70.5752Y-56.0351

G1X70.9989Y-55.5818

G1X71.8295Y-55.0936

G1X72.8286Y-54.7135

G1X73.8046Y-54.5060

G1X75.0128Y-54.3881

G1X78.4936Y-54.4010

G1X81.9211Y-54.7032

G1X85.4664Y-55.3162

G1 Z0F20000

(Start Block)


G1X19.5023Y-59.8492
G1Z5F20000
(Plotting speed under)
G1 F4000


G1X21.9165Y-60.3460

G1X24.2964Y-60.4619

G1X26.8744Y-60.2315

G1X29.6164Y-59.6388

G1X32.2555Y-58.7407

G1X33.7895Y-58.0889

G1X34.6119Y-57.6486

G1X35.8613Y-56.7417

G1X37.9898Y-54.6754

G1X38.9125Y-54.0189

G1X40.0665Y-53.6713

G1X41.7255Y-53.6055

G1X43.5360Y-53.7914

G1X45.4026Y-54.1981

G1X47.1020Y-54.7779

G1X48.7614Y-55.5803

G1X50.0137Y-56.3756

G1X51.1532Y-57.2675

G1X53.3854Y-59.2970

G1X54.9409Y-60.9927

G1X55.6145Y-61.4450

G1X56.2358Y-61.6314

G1X57.0761Y-61.7254

G1X59.6093Y-61.6686

G1X61.4615Y-61.4402

G1X63.2476Y-61.0410

G1X64.8807Y-60.4792

G1X66.3355Y-59.7750

G1X67.6399Y-58.9303

G1X68.8116Y-57.9398

G1X69.6673Y-57.0325

G1X70.9933Y-55.3543

G1X71.4759Y-54.8512

G1X72.5455Y-54.1731

G1X73.6598Y-53.7367

G1X74.5878Y-53.5403

G1X75.7937Y-53.4218

G1X78.8657Y-53.4516

G1X82.2315Y-53.8014

G1X85.7517Y-54.4582

G1 Z0F20000

(Start Block)


G1X19.3570Y-58.9177
G1Z5F20000
(Plotting speed under)
G1 F4000


G1X20.5216Y-59.2055

G1X21.7396Y-59.3960

G1X24.1622Y-59.4568

G1X26.8339Y-59.1354

G1X29.5617Y-58.4338

G1X31.8340Y-57.5510

G1X34.1809Y-56.3670

G1X34.9381Y-55.8389

G1X35.6475Y-55.2206

G1X37.4367Y-53.2140

G1X37.9196Y-52.7729

G1X38.7010Y-52.3765

G1X39.7209Y-52.1977

G1X41.7390Y-52.2117

G1X44.0820Y-52.5158

G1X46.1261Y-53.0370

G1X48.0435Y-53.8009

G1X49.8191Y-54.8129

G1X51.4599Y-56.0689

G1X53.6153Y-58.0009

G1X55.0591Y-59.7515

G1X55.4946Y-60.1749

G1X56.2876Y-60.5298

G1X57.4330Y-60.6532

G1X59.7932Y-60.6031

G1X62.0594Y-60.3415

G1X64.1066Y-59.8663

G1X65.9392Y-59.1816

G1X67.4686Y-58.3647

G1X68.8322Y-57.3869

G1X69.9490Y-56.3561

G1X71.6782Y-54.4555

G1X72.2415Y-53.9871

G1X73.4596Y-53.2439

G1X74.6624Y-52.8154

G1X75.6686Y-52.6331

G1X76.7456Y-52.5479

G1X79.4948Y-52.6157

G1X82.5707Y-52.9963

G1X86.0659Y-53.7014

G1 Z0F20000

(Start Block)


G1X19.2906Y-57.8612
G1Z5F20000
(Plotting speed under)
G1 F4000


G1X20.4315Y-58.1616

G1X21.5332Y-58.3417

G1X22.7246Y-58.4212

G1X23.9737Y-58.3978

G1X26.7087Y-58.0353

G1X29.3875Y-57.2884

G1X31.5859Y-56.3603

G1X34.0058Y-55.0156

G1X34.7355Y-54.4691

G1X35.4612Y-53.7724

G1X36.9604Y-51.8409

G1X37.3975Y-51.3827

G1X38.0886Y-51.0226

G1X39.0709Y-50.8684

G1X41.5376Y-50.8952

G1X44.0576Y-51.1959

G1X46.1757Y-51.7117

G1X48.1831Y-52.4948

G1X49.4079Y-53.1482

G1X50.5201Y-53.8786

G1X53.3325Y-56.1892

G1X54.1744Y-57.0508

G1X55.3299Y-58.6673

G1X55.7628Y-59.1350

G1X56.4120Y-59.4369

G1X57.3124Y-59.5485

G1X59.9459Y-59.5237

G1X62.2774Y-59.2973

G1X64.3080Y-58.8759

G1X66.1538Y-58.2491

G1X67.7281Y-57.4773

G1X69.1170Y-56.5656

G1X70.2837Y-55.5977

G1X72.1089Y-53.8287

G1X73.1649Y-53.0371

G1X74.3915Y-52.3704

G1X75.5860Y-51.9973

G1X77.5970Y-51.7784

G1X80.1144Y-51.8845

G1X82.9064Y-52.2891

G1X86.3723Y-53.0461

G1 Z0F20000

(Start Block)


G1X19.3266Y-56.6664
G1Z5F20000
(Plotting speed under)
G1 F4000


G1X20.4435Y-57.0018

G1X21.5245Y-57.2036

G1X22.5900Y-57.2923

G1X23.8406Y-57.2831

G1X25.1528Y-57.1659

G1X26.5916Y-56.9246

G1X27.9525Y-56.5889

G1X29.3087Y-56.1451

G1X31.5562Y-55.1447

G1X33.9955Y-53.6791

G1X34.6959Y-53.1050

G1X35.3061Y-52.4654

G1X36.6856Y-50.4658

G1X37.0390Y-50.0621

G1X37.5425Y-49.7798

G1X38.4300Y-49.6323

G1X41.3072Y-49.6465

G1X43.8886Y-49.9040

G1X46.1669Y-50.4112

G1X48.3560Y-51.2370

G1X49.5116Y-51.8398

G1X50.6744Y-52.5821

G1X53.5673Y-54.8711

G1X54.5202Y-55.9084

G1X55.6406Y-57.6771

G1X56.0109Y-58.0929

G1X56.5093Y-58.3294

G1X57.2546Y-58.4308

G1X59.9521Y-58.4304

G1X62.3202Y-58.2527

G1X64.3997Y-57.8834

G1X66.2920Y-57.3072

G1X67.8176Y-56.6336

G1X69.3072Y-55.7541

G1X70.4919Y-54.8719

G1X72.4374Y-53.2045

G1X73.8005Y-52.2466

G1X74.9903Y-51.6443

G1X76.2388Y-51.2756

G1X78.1666Y-51.0846

G1X80.5632Y-51.2207

G1X83.0936Y-51.6386

G1X86.6325Y-52.4793

G1 Z0F20000

(Start Block)


G1X19.4720Y-55.3101
G1Z5F20000
(Plotting speed under)
G1 F4000


G1X20.5670Y-55.7116

G1X21.5974Y-55.9597

G1X22.6513Y-56.0878

G1X23.8701Y-56.1088

G1X25.1575Y-56.0145

G1X26.5798Y-55.7918

G1X27.9341Y-55.4682

G1X29.2912Y-55.0305

G1X31.6395Y-53.9748

G1X33.9941Y-52.5137

G1X34.6876Y-51.9194

G1X35.3497Y-51.1761

G1X36.8758Y-48.8335

G1X37.3373Y-48.5693

G1X38.1839Y-48.4431

G1X41.4254Y-48.4625

G1X44.1093Y-48.7182

G1X46.4997Y-49.2541

G1X48.6230Y-50.0630

G1X50.7208Y-51.2507

G1X53.5247Y-53.3524

G1X54.2000Y-53.9969

G1X54.7550Y-54.6812

G1X56.0913Y-56.9092

G1X56.5187Y-57.1804

G1X57.1782Y-57.2957

G1X60.0094Y-57.3115

G1X62.4525Y-57.1636

G1X64.5154Y-56.8372

G1X66.4098Y-56.3114

G1X67.9591Y-55.6802

G1X69.4349Y-54.8776

G1X70.7116Y-54.0081

G1X72.8881Y-52.3352

G1X74.2783Y-51.4391

G1X75.4452Y-50.8987

G1X76.7584Y-50.5476

G1X78.6180Y-50.4017

G1X80.9151Y-50.5820

G1X83.2306Y-51.0244

G1X86.8136Y-51.9715

G1 Z0F20000

(Start Block)


G1X19.7082Y-53.7556
G1Z5F20000
(Plotting speed under)
G1 F4000


G1X20.7938Y-54.2649

G1X21.7884Y-54.6002

G1X22.7924Y-54.7990

G1X23.8697Y-54.8820

G1X25.1808Y-54.8444

G1X26.5533Y-54.6756

G1X27.9119Y-54.3919

G1X29.3153Y-53.9773

G1X31.6768Y-52.9746

G1X34.0058Y-51.5750

G1X34.7254Y-50.9679

G1X35.4155Y-50.2005

G1X35.9792Y-49.3794

G1X36.7559Y-47.9773

G1X37.0252Y-47.6484

G1X37.5988Y-47.3704

G1X38.4827Y-47.2814

G1X41.8471Y-47.3225

G1X44.3765Y-47.5770

G1X46.7410Y-48.1142

G1X48.9541Y-48.9684

G1X50.9779Y-50.1160

G1X53.7078Y-52.1053

G1X54.3824Y-52.7659

G1X54.9646Y-53.5097

G1X56.2567Y-55.7928

G1X56.5764Y-56.0176

G1X57.1819Y-56.1486

G1X60.1634Y-56.1731

G1X62.5154Y-56.0473

G1X64.5791Y-55.7462

G1X66.4753Y-55.2512

G1X68.0357Y-54.6496

G1X69.5689Y-53.8576

G1X73.1911Y-51.3584

G1X74.4814Y-50.5837

G1X75.6988Y-50.0619

G1X76.9530Y-49.7567

G1X78.8494Y-49.6467

G1X81.0462Y-49.8766

G1X83.3264Y-50.3900

G1X86.8979Y-51.4782

G1 Z0F20000

(Start Block)


G1X19.9049Y-52.1662
G1Z5F20000
(Plotting speed under)
G1 F4000


G1X21.0029Y-52.7853

G1X21.9744Y-53.2168

G1X22.9904Y-53.5108

G1X24.0561Y-53.6632

G1X25.2893Y-53.6884

G1X26.6904Y-53.5700

G1X28.1193Y-53.3157

G1X29.4699Y-52.9574

G1X31.8420Y-52.0361

G1X34.0900Y-50.7802

G1X34.9364Y-50.0918

G1X35.7148Y-49.2417

G1X37.4093Y-46.5741

G1X37.6695Y-46.3854

G1X38.1113Y-46.2360

G1X39.3453Y-46.1411

G1X42.4097Y-46.2117

G1X45.0240Y-46.5201

G1X47.2919Y-47.0796

G1X49.4794Y-47.9537

G1X51.4013Y-49.0362

G1X53.9779Y-50.8359

G1X54.6650Y-51.5258

G1X55.2782Y-52.3273

G1X56.5478Y-54.6191

G1X56.8677Y-54.8536

G1X57.4372Y-54.9899

G1X60.1884Y-55.0270

G1X62.6312Y-54.9067

G1X64.6949Y-54.6203

G1X66.4980Y-54.1750

G1X68.0531Y-53.6132

G1X69.5951Y-52.8687

G1X73.3530Y-50.4555

G1X74.6177Y-49.7483

G1X75.8222Y-49.2656

G1X77.1128Y-48.9776

G1X79.0377Y-48.9082

G1X81.2286Y-49.2019

G1X83.4596Y-49.7885

G1X86.8875Y-50.9662

G1 Z0F20000

(Start Block)


G1X20.0138Y-50.6969
G1Z5F20000
(Plotting speed under)
G1 F4000


G1X22.2077Y-51.9365

G1X23.1970Y-52.2846

G1X24.2026Y-52.4841

G1X25.4002Y-52.5639

G1X26.8209Y-52.4972

G1X28.2861Y-52.2857

G1X29.7616Y-51.9409

G1X31.2064Y-51.4740

G1X32.6140Y-50.8900

G1X33.8418Y-50.2706

G1X34.7846Y-49.6387

G1X35.5471Y-48.9678

G1X36.1947Y-48.2513

G1X36.7953Y-47.4227

G1X37.7281Y-45.8806

G1X38.2259Y-45.3752

G1X38.9732Y-45.1180

G1X40.5056Y-45.0311

G1X43.3419Y-45.1473

G1X45.9452Y-45.5211

G1X48.2791Y-46.1627

G1X50.4963Y-47.1013

G1X53.3389Y-48.7088

G1X54.3989Y-49.5113

G1X55.0519Y-50.1711

G1X55.6642Y-50.9561

G1X57.0082Y-53.3567

G1X57.4193Y-53.6789

G1X58.0507Y-53.8272

G1X60.3652Y-53.8711

G1X62.8667Y-53.7525

G1X64.8375Y-53.4952

G1X66.6684Y-53.0732

G1X68.1978Y-52.5583

G1X69.6681Y-51.9066

G1X73.5217Y-49.6704

G1X74.7763Y-49.0317

G1X76.0505Y-48.5678

G1X77.3813Y-48.3088

G1X79.2097Y-48.2783

G1X81.2654Y-48.5858

G1X83.3229Y-49.1604

G1X86.7960Y-50.4086

G1 Z0F20000

(Start Block)


G1X20.0723Y-49.3323
G1Z5F20000
(Plotting speed under)
G1 F4000


G1X21.5838Y-50.2709

G1X22.5107Y-50.7526

G1X23.4897Y-51.1205

G1X24.5366Y-51.3519

G1X25.8236Y-51.4573

G1X27.1541Y-51.4171

G1X28.6374Y-51.2366

G1X30.2015Y-50.9100

G1X31.7597Y-50.4478

G1X33.2638Y-49.8681

G1X34.2681Y-49.3742

G1X35.1455Y-48.7997

G1X35.9452Y-48.1362

G1X36.6923Y-47.3661

G1X37.3886Y-46.4816

G1X38.4583Y-44.9041

G1X38.9979Y-44.3865

G1X39.4060Y-44.1860

G1X39.9380Y-44.0549

G1X41.5941Y-43.9618

G1X44.7754Y-44.1645

G1X47.5714Y-44.6894

G1X50.0894Y-45.5147

G1X53.1037Y-46.9077

G1X54.4481Y-47.7766

G1X55.6718Y-48.9514

G1X56.4690Y-50.0346

G1X57.7189Y-52.2015

G1X58.1793Y-52.5104

G1X58.7555Y-52.6433

G1X60.6735Y-52.7032

G1X63.1664Y-52.5922

G1X65.1653Y-52.3431

G1X66.8957Y-51.9703

G1X68.3218Y-51.5326

G1X69.7884Y-50.9481

G1X74.8920Y-48.3888

G1X76.1724Y-47.9639

G1X77.4892Y-47.7266

G1X79.3233Y-47.7088

G1X81.2378Y-48.0040

G1X83.1255Y-48.5321

G1X86.6480Y-49.7757

G1 Z0F20000

(Start Block)


G1X20.1027Y-48.0509
G1Z5F20000
(Plotting speed under)
G1 F4000


G1X22.6918Y-49.5411

G1X23.6661Y-49.9277

G1X24.7716Y-50.2020

G1X26.0261Y-50.3394

G1X27.4888Y-50.3328

G1X29.0822Y-50.1744

G1X30.7293Y-49.8705

G1X32.2161Y-49.4784

G1X33.6090Y-49.0042

G1X34.5571Y-48.5591

G1X35.5657Y-47.9394

G1X36.4079Y-47.2896

G1X37.1842Y-46.5616

G1X39.2559Y-44.0181

G1X40.0202Y-43.3673

G1X40.5178Y-43.1549

G1X41.1058Y-43.0234

G1X42.8477Y-42.9338

G1X45.5701Y-43.1235

G1X48.1930Y-43.5924

G1X50.6784Y-44.3226

G1X53.4433Y-45.4287

G1X54.7046Y-46.2079

G1X55.7895Y-47.1352

G1X56.9681Y-48.5539

G1X58.3443Y-50.8498

G1X58.7787Y-51.2191

G1X59.5006Y-51.4400

G1X61.0734Y-51.5210

G1X63.3456Y-51.4389

G1X65.2551Y-51.2332

G1X67.0413Y-50.8946

G1X68.5283Y-50.4864

G1X69.9812Y-49.9679

G1X75.0530Y-47.7243

G1X76.3774Y-47.3439

G1X77.6397Y-47.1513

G1X79.3768Y-47.1494

G1X81.1386Y-47.4128

G1X82.7941Y-47.8483

G1X86.4745Y-49.0497

G1 Z0F20000

(Start Block)


G1X20.1177Y-46.8296
G1Z5F20000
(Plotting speed under)
G1 F4000


G1X23.0932Y-48.4189

G1X24.1914Y-48.8190

G1X25.2294Y-49.0612

G1X26.5858Y-49.2116

G1X28.0516Y-49.2180

G1X29.6744Y-49.0842

G1X31.4564Y-48.7932

G1X33.0314Y-48.4172

G1X33.9425Y-48.1169

G1X35.1122Y-47.5877

G1X36.1456Y-46.9782

G1X37.8171Y-45.6591

G1X40.1552Y-43.1380

G1X41.0376Y-42.4473

G1X41.5719Y-42.2135

G1X42.2844Y-42.0415

G1X44.3207Y-41.9383

G1X46.7136Y-42.1185

G1X49.1311Y-42.5286

G1X52.3375Y-43.3973

G1X53.8574Y-44.0196

G1X55.1225Y-44.7852

G1X56.3254Y-45.7795

G1X57.5537Y-47.1982

G1X59.1271Y-49.6428

G1X59.6017Y-50.0128

G1X60.3674Y-50.2412

G1X61.7487Y-50.3269

G1X63.8436Y-50.2587

G1X65.6153Y-50.0806

G1X67.3708Y-49.7760

G1X70.1008Y-49.0043

G1X75.0602Y-47.0644

G1X76.3194Y-46.7371

G1X77.6375Y-46.5508

G1X79.2268Y-46.5419

G1X80.9307Y-46.7640

G1X82.4727Y-47.1267

G1X86.3064Y-48.2240

G1 Z0F20000

(Start Block)


G1X20.1247Y-45.6455
G1Z5F20000
(Plotting speed under)
G1 F4000


G1X23.4466Y-47.2265

G1X24.6421Y-47.6307

G1X25.8278Y-47.8939

G1X27.2923Y-48.0538

G1X28.8462Y-48.0711

G1X30.5547Y-47.9513

G1X32.2772Y-47.7051

G1X33.3983Y-47.4667

G1X34.5721Y-47.0866

G1X35.7584Y-46.5629

G1X36.8963Y-45.9215

G1X38.6910Y-44.5923

G1X41.3435Y-42.0872

G1X42.2859Y-41.4694

G1X42.9405Y-41.2169

G1X43.7842Y-41.0380

G1X45.8115Y-40.9457

G1X48.2769Y-41.1347

G1X50.8980Y-41.5771

G1X52.7774Y-42.0478

G1X54.4140Y-42.7379

G1X55.8930Y-43.6602

G1X57.2565Y-44.8508

G1X58.2541Y-46.0317

G1X59.5180Y-47.9541

G1X59.9833Y-48.5055

G1X60.4823Y-48.8314

G1X61.2031Y-49.0334

G1X62.4146Y-49.1244

G1X64.2255Y-49.0826

G1X65.9544Y-48.9279

G1X67.5721Y-48.6762

G1X70.2407Y-48.0026

G1X75.0362Y-46.3300

G1X76.3199Y-46.0348

G1X77.6522Y-45.8715

G1X79.1423Y-45.8668

G1X80.7177Y-46.0456

G1X86.1691Y-47.3001

G1 Z0F20000

(Start Block)


G1X20.1286Y-44.4769
G1Z5F20000
(Plotting speed under)
G1 F4000


G1X23.9514Y-46.0128

G1X25.2574Y-46.4080

G1X26.4793Y-46.6679

G1X27.9344Y-46.8450

G1X29.4659Y-46.9012

G1X31.1154Y-46.8405

G1X32.8795Y-46.6524

G1X34.0288Y-46.4067

G1X35.2106Y-46.0346

G1X36.3981Y-45.5429

G1X37.5436Y-44.9512

G1X39.4797Y-43.6619

G1X42.4815Y-41.1652

G1X43.5899Y-40.5003

G1X44.3795Y-40.2140

G1X45.2507Y-40.0335

G1X46.2890Y-39.9373

G1X47.6166Y-39.9293

G1X49.8196Y-40.0959

G1X52.0655Y-40.4478

G1X53.6200Y-40.9119

G1X55.1086Y-41.5909

G1X56.5965Y-42.5459

G1X57.8742Y-43.6626

G1X58.8138Y-44.7341

G1X60.1901Y-46.6833

G1X60.6761Y-47.2321

G1X61.2947Y-47.6230

G1X62.0520Y-47.8261

G1X63.1831Y-47.9161

G1X64.6991Y-47.8914

G1X67.8961Y-47.5348

G1X70.3281Y-46.9726

G1X74.8723Y-45.5308

G1X76.2033Y-45.2495

G1X77.5469Y-45.0977

G1X79.0381Y-45.0910

G1X80.4947Y-45.2320

G1X86.0800Y-46.2840

G1 Z0F20000

(Start Block)


G1X20.1332Y-43.3038
G1Z5F20000
(Plotting speed under)
G1 F4000


G1X24.9014Y-44.8272

G1X27.4878Y-45.4265

G1X28.9398Y-45.6168

G1X30.4739Y-45.7068

G1X32.1124Y-45.6895

G1X33.4458Y-45.5661

G1X34.6806Y-45.3159

G1X35.9487Y-44.9427

G1X37.2209Y-44.4532

G1X38.4524Y-43.8642

G1X40.5218Y-42.6027

G1X43.8126Y-40.1402

G1X45.0716Y-39.4464

G1X45.8859Y-39.1647

G1X46.8847Y-38.9628

G1X49.2217Y-38.8595

G1X51.3027Y-39.0198

G1X52.7588Y-39.2909

G1X54.3558Y-39.8176

G1X55.8527Y-40.5392

G1X57.2342Y-41.4472

G1X58.4921Y-42.5408

G1X59.2874Y-43.4069

G1X60.7670Y-45.3473

G1X61.3449Y-45.9666

G1X61.9962Y-46.3730

G1X62.7957Y-46.5962

G1X63.8491Y-46.6928

G1X65.1784Y-46.6838

G1X68.1429Y-46.3788

G1X70.3924Y-45.8938

G1X74.7650Y-44.6061

G1X76.1051Y-44.3462

G1X77.3519Y-44.2135

G1X78.7166Y-44.1933

G1X80.1778Y-44.3014

G1X84.5455Y-45.0105

G1X86.0472Y-45.1832

G1 Z0F20000

(Start Block)


G1X20.1414Y-42.1077
G1Z5F20000
(Plotting speed under)
G1 F4000


G1X22.4621Y-42.6150

G1X27.2311Y-43.8454

G1X29.2481Y-44.2523

G1X32.0071Y-44.5323

G1X33.1173Y-44.5306

G1X34.2156Y-44.4189

G1X35.5760Y-44.1601

G1X36.9650Y-43.7758

G1X38.3102Y-43.2891

G1X39.6144Y-42.7046

G1X41.8249Y-41.4442

G1X45.3392Y-38.9901

G1X46.6203Y-38.3209

G1X47.4456Y-38.0452

G1X48.3387Y-37.8650

G1X50.4872Y-37.7650

G1X52.0048Y-37.8944

G1X53.5562Y-38.2438

G1X55.0669Y-38.7862

G1X56.5525Y-39.5336

G1X57.8065Y-40.3674

G1X59.0326Y-41.4129

G1X61.9019Y-44.6315

G1X62.6893Y-45.1163

G1X63.5462Y-45.3521

G1X64.5371Y-45.4478

G1X65.6784Y-45.4478

G1X68.3722Y-45.1861

G1X70.4527Y-44.7555

G1X74.6271Y-43.5778

G1X75.9440Y-43.3343

G1X77.1939Y-43.2067

G1X79.7856Y-43.2565

G1X84.3136Y-43.8644

G1X86.0695Y-44.0057

G1 Z0F20000

(Start Block)


G1X20.1548Y-40.8715
G1Z5F20000
(Plotting speed under)
G1 F4000


G1X22.2029Y-41.0935

G1X24.2068Y-41.4413

G1X29.8055Y-42.8306

G1X31.6082Y-43.1905

G1X33.4232Y-43.3587

G1X35.3152Y-43.2223

G1X36.7409Y-42.9672

G1X38.2206Y-42.5811

G1X39.6466Y-42.0902

G1X41.0440Y-41.4885

G1X43.1269Y-40.3503

G1X46.6479Y-37.9367

G1X48.0302Y-37.1957

G1X49.5359Y-36.7862

G1X51.2886Y-36.6968

G1X52.6709Y-36.8507

G1X54.1686Y-37.2206

G1X55.6435Y-37.7691

G1X56.9895Y-38.4465

G1X58.2303Y-39.2486

G1X59.3398Y-40.1404

G1X62.4743Y-43.3282

G1X63.2733Y-43.7996

G1X64.2097Y-44.0647

G1X66.1307Y-44.1716

G1X68.5969Y-43.9427

G1X70.4649Y-43.5634

G1X74.4292Y-42.4520

G1X75.7344Y-42.2108

G1X76.9857Y-42.0819

G1X79.4386Y-42.1090

G1X84.0148Y-42.6424

G1X86.1384Y-42.7602

G1 Z0F20000

(Start Block)


G1X20.1726Y-39.5797
G1Z5F20000
(Plotting speed under)
G1 F4000


G1X22.8320Y-39.6181

G1X25.4436Y-39.9581

G1X27.4141Y-40.4171

G1X31.5437Y-41.6826

G1X33.2131Y-42.0629

G1X34.7446Y-42.1621

G1X36.5747Y-42.0403

G1X39.2062Y-41.5249

G1X41.7189Y-40.6674

G1X43.1226Y-40.0136

G1X44.4276Y-39.2797

G1X47.8663Y-36.8928

G1X48.8232Y-36.3229

G1X50.1826Y-35.8394

G1X51.7381Y-35.6986

G1X52.9834Y-35.8275

G1X54.4608Y-36.1759

G1X55.8940Y-36.6866

G1X57.2027Y-37.3099

G1X58.4437Y-38.0587

G1X59.5675Y-38.8904

G1X62.9481Y-41.9604

G1X63.8559Y-42.4587

G1X64.8966Y-42.7379

G1X66.6410Y-42.8360

G1X68.8655Y-42.6271

G1X70.6301Y-42.2586

G1X74.3144Y-41.1976

G1X75.5848Y-40.9605

G1X76.8312Y-40.8335

G1X79.0257Y-40.8477

G1X83.9693Y-41.3805

G1X86.2391Y-41.4576

G1 Z0F20000

(Start Block)


G1X20.1900Y-38.2184
G1Z5F20000
(Plotting speed under)
G1 F4000


G1X22.9766Y-37.9874

G1X24.3659Y-38.0293

G1X25.6357Y-38.1709

G1X27.0053Y-38.4353

G1X28.4501Y-38.8349

G1X32.5675Y-40.3917

G1X33.8052Y-40.7629

G1X35.6844Y-41.0012

G1X37.8422Y-40.9202

G1X40.4660Y-40.4443

G1X41.8361Y-40.0382

G1X43.0932Y-39.5619

G1X44.4085Y-38.9462

G1X45.7277Y-38.1959

G1X48.9031Y-35.9514

G1X49.8170Y-35.3899

G1X50.9910Y-34.9482

G1X52.3514Y-34.8131

G1X53.4976Y-34.9345

G1X54.7770Y-35.2271

G1X56.0805Y-35.6657

G1X57.3747Y-36.2408

G1X58.5101Y-36.8686

G1X59.7180Y-37.6734

G1X63.3045Y-40.5287

G1X64.2857Y-41.0305

G1X65.4507Y-41.3357

G1X67.1955Y-41.4268

G1X69.1603Y-41.2277

G1X70.8717Y-40.8480

G1X74.1850Y-39.8361

G1X75.3768Y-39.6014

G1X76.6177Y-39.4694

G1X78.7623Y-39.4865

G1X83.8386Y-40.0533

G1X86.3541Y-40.1134

G1 Z0F20000


G00 X0.0000 Y0.0000


