$H
G21
G17
G90
G1 Z0F20000
G1 F15000

(Start Layer)

(Start Block)


G1X24.8067Y-59.8085
G1Z5F20000
(Plotting speed under)
G1 F4000


G1X20.8372Y-50.7439

G1X66.3983Y-8.0000

G1 Z0F20000

(Start Block)


G1X71.6194Y-8.0000
G1Z5F20000
(Plotting speed under)
G1 F4000


G1X85.9050Y-35.8931

G1X24.8172Y-61.1497

G1X20.8463Y-52.0982

G1X67.7562Y-8.0000

G1 Z0F20000

(Start Block)


G1X70.9245Y-8.0000
G1Z5F20000
(Plotting speed under)
G1 F4000


G1X85.9017Y-37.1610

G1X24.8488Y-62.5273

G1X20.8675Y-53.4940

G1X69.0544Y-8.0000

G1 Z0F20000

(Start Block)


G1X70.2066Y-8.0000
G1Z5F20000
(Plotting speed under)
G1 F4000


G1X85.8955Y-38.3852

G1X24.9013Y-63.9409

G1X20.9009Y-54.9309

G1X69.7334Y-8.5238

G1X85.8862Y-39.5665

G1X24.9748Y-65.3897

G1X20.9467Y-56.4081

G1X69.6066Y-9.7577

G1X85.8735Y-40.7056

G1X25.0691Y-66.8727

G1X21.0049Y-57.9243

G1X69.4491Y-10.9711

G1X85.8570Y-41.8038

G1X25.1841Y-68.3885

G1X21.0757Y-59.4783

G1X69.2616Y-12.1655

G1X85.8363Y-42.8624

G1X25.3195Y-69.9356

G1X21.1594Y-61.0683

G1X69.0448Y-13.3422

G1X85.8106Y-43.8833

G1X25.4751Y-71.5120

G1X21.2559Y-62.6925

G1X68.7999Y-14.5029

G1X85.7796Y-44.8682

G1X25.6506Y-73.1158

G1X21.3656Y-64.3487

G1X68.5277Y-15.6493

G1X85.7425Y-45.8193

G1X25.8455Y-74.7448

G1X21.4883Y-66.0346

G1X68.2296Y-16.7833

G1X85.6989Y-46.7390

G1X26.0594Y-76.3964

G1X21.6242Y-67.7476

G1X67.9070Y-17.9069

G1X85.6481Y-47.6298

G1X26.2916Y-78.0683

G1X21.7733Y-69.4852

G1X67.5615Y-19.0221

G1X85.5898Y-48.4943

G1X26.5413Y-79.7578

G1X21.9353Y-71.2444

G1X67.1945Y-20.1309

G1X85.5233Y-49.3352

G1X26.8078Y-81.4622

G1X22.1100Y-73.0226

G1X66.8080Y-21.2353

G1X85.4485Y-50.1556

G1X27.0900Y-83.1788

G1X22.2971Y-74.8166

G1X66.4038Y-22.3373

G1X85.3651Y-50.9584

G1X27.3869Y-84.9048

G1X22.4961Y-76.6236

G1X65.9839Y-23.4388

G1X85.2728Y-51.7466

G1X27.6973Y-86.6377

G1X22.7064Y-78.4407

G1X65.5504Y-24.5417

G1X85.1718Y-52.5232

G1X28.0199Y-88.3747

G1X22.9274Y-80.2648

G1X65.1054Y-25.6475

G1X85.0621Y-53.2912

G1X28.3533Y-90.1135

G1X23.1582Y-82.0932

G1X64.6511Y-26.7578

G1X84.9440Y-54.0537

G1X28.6960Y-91.8515

G1X23.3979Y-83.9232

G1X64.1897Y-27.8740

G1X84.8178Y-54.8134

G1X29.0464Y-93.5865

G1X23.6454Y-85.7520

G1X63.7234Y-28.9972

G1X84.6841Y-55.5732

G1X29.4030Y-95.3166

G1X23.8997Y-87.5773

G1X63.2544Y-30.1285

G1X84.5433Y-56.3356

G1X29.7641Y-97.0397

G1X24.1596Y-89.3968

G1X62.7848Y-31.2686

G1X84.3963Y-57.1033

G1X30.1280Y-98.7542

G1X24.4239Y-91.2084

G1X62.3166Y-32.4183

G1X84.2436Y-57.8785

G1X30.4931Y-100.4586

G1X24.6913Y-93.0101

G1X61.8519Y-33.5780

G1X84.0863Y-58.6633

G1X30.8578Y-102.1516

G1X24.9605Y-94.8003

G1X61.3924Y-34.7480

G1X83.9251Y-59.4595

G1X31.2206Y-103.8321

G1X25.2304Y-96.5776

G1X60.9400Y-35.9284

G1X83.7610Y-60.2689

G1X31.5799Y-105.4993

G1X25.4996Y-98.3406

G1X60.4961Y-37.1192

G1X83.5949Y-61.0929

G1X31.9345Y-107.1526

G1X25.7671Y-100.0885

G1X60.0622Y-38.3203

G1X83.4276Y-61.9327

G1X32.2831Y-108.7914

G1X26.0317Y-101.8204

G1X59.6394Y-39.5314

G1X83.2601Y-62.7892

G1X32.6245Y-110.4156

G1X26.2925Y-103.5358

G1X59.2279Y-40.7520

G1X83.0916Y-63.6592

G1X32.9645Y-112.0307

G1X26.5579Y-105.2479

G1X58.8085Y-41.9772

G1X82.9135Y-64.5194

G1X33.3192Y-113.6503

G1X26.8369Y-106.9695

G1X58.3735Y-43.2056

G1X82.7241Y-65.3669

G1X33.6890Y-115.2739

G1X27.1296Y-108.6994

G1X57.9238Y-44.4381

G1X82.5232Y-66.2030

G1X34.0734Y-116.9004

G1X27.4357Y-110.4362

G1X57.4602Y-45.6756

G1X82.3109Y-67.0289

G1X34.4720Y-118.5286

G1X27.7550Y-112.1788

G1X56.9837Y-46.9189

G1X82.0871Y-67.8461

G1X34.8840Y-120.1573

G1X28.0871Y-113.9256

G1X56.4952Y-48.1687

G1X81.8520Y-68.6560

G1X35.3087Y-121.7853

G1X28.4315Y-115.6754

G1X55.9961Y-49.4258

G1X81.6056Y-69.4603

G1X35.7453Y-123.4113

G1X28.7876Y-117.4265

G1X55.4875Y-50.6907

G1X81.3484Y-70.2604

G1X36.1928Y-125.0341

G1X29.1547Y-119.1777

G1X54.9708Y-51.9642

G1X81.0807Y-71.0582

G1X36.6502Y-126.6525

G1X29.5321Y-120.9273

G1X54.4474Y-53.2467

G1X80.8031Y-71.8551

G1X37.1162Y-128.2655

G1X29.9189Y-122.6739

G1X53.9188Y-54.5387

G1X80.5160Y-72.6529

G1X37.5896Y-129.8719

G1X30.3141Y-124.4162

G1X53.3865Y-55.8404

G1X80.2202Y-73.4533

G1X38.0691Y-131.4708

G1X30.7165Y-126.1528

G1X52.8521Y-57.1520

G1X79.9166Y-74.2578

G1X38.5534Y-133.0611

G1X31.1252Y-127.8823

G1X52.3172Y-58.4737

G1X79.6059Y-75.0681

G1X39.0409Y-134.6422

G1X31.5387Y-129.6036

G1X51.7835Y-59.8054

G1X79.2892Y-75.8856

G1X39.5303Y-136.2132

G1X31.9559Y-131.3154

G1X51.2524Y-61.1471

G1X78.9675Y-76.7118

G1X40.0198Y-137.7736

G1X32.3753Y-133.0169

G1X50.7257Y-62.4984

G1X78.6418Y-77.5481

G1X40.5082Y-139.3229

G1X32.7957Y-134.7070

G1X50.2048Y-63.8591

G1X78.3133Y-78.3957

G1X41.5078Y-140.0001

G1 Z0F20000

(Start Block)


G1X39.4982Y-140.0001
G1Z5F20000
(Plotting speed under)
G1 F4000


G1X33.2157Y-136.3848

G1X49.6913Y-65.2286

G1X77.9833Y-79.2558

G1X42.8549Y-140.0001

G1 Z0F20000

(Start Block)


G1X37.1599Y-140.0001
G1Z5F20000
(Plotting speed under)
G1 F4000


G1X33.6337Y-138.0498

G1X49.1866Y-66.6065

G1X77.6530Y-80.1295

G1X44.1338Y-140.0001

G1 Z0F20000

(Start Block)


G1X34.6106Y-140.0001
G1Z5F20000
(Plotting speed under)
G1 F4000


G1X34.0485Y-139.7013

G1X48.6921Y-67.9921

G1X77.3235Y-81.0176

G1X45.3471Y-140.0001

G1 Z0F20000

(Start Block)


G1X34.7144Y-140.0001
G1Z5F20000
(Plotting speed under)
G1 F4000


G1X48.2090Y-69.3847

G1X76.9961Y-81.9210

G1X46.4971Y-140.0001

G1 Z0F20000

(Start Block)


G1X35.3911Y-140.0001
G1Z5F20000
(Plotting speed under)
G1 F4000


G1X47.7387Y-70.7835

G1X76.6720Y-82.8404

G1 Z0F20000


G00 X0.0000 Y0.0000


