$H
G21
G17
G90
G1 Z0F20000
G1 F15000

(Start Layer)

(Start Block)


G1X18.9796Y-36.8713
G1Z6F20000
(Plotting speed under)
G1 F4000


G1X19.2156Y-30.5356

G1X24.1156Y-21.4255

G1X29.6111Y-16.8364

G1X53.5986Y-10.5223

G1X75.5167Y-17.1894

G1X78.2303Y-19.3865

G1X81.6781Y-23.0511

G1X83.2012Y-45.5586

G1X18.9300Y-37.8380

G1X19.3175Y-31.4273

G1X24.5082Y-22.3166

G1X30.2235Y-17.7605

G1X54.5316Y-11.8761

G1X76.2684Y-19.0336

G1X78.9603Y-21.3513

G1X82.2905Y-25.1673

G1X82.6085Y-47.7692

G1X18.8259Y-38.1013

G1X19.6329Y-31.6346

G1X25.4807Y-22.6481

G1X31.5961Y-18.2566

G1X56.4162Y-13.3186

G1X77.6431Y-21.3997

G1X80.2109Y-23.8889

G1X83.2607Y-27.9137

G1X81.4997Y-50.5453

G1X18.7937Y-37.6937

G1X20.2788Y-31.2170

G1X27.1110Y-22.5146

G1X33.7719Y-18.4369

G1X59.1684Y-14.9560

G1X79.4722Y-24.3285

G1X81.8001Y-27.0256

G1X84.3950Y-31.2918

G1X79.7590Y-53.7680

G1X19.0215Y-36.6804

G1X21.4160Y-30.2787

G1X29.4887Y-22.0632

G1X36.7837Y-18.4651

G1X62.6450Y-16.9238

G1X81.5176Y-27.8520

G1X83.4800Y-30.7703

G1X85.4421Y-35.2751

G1X77.2727Y-57.2692

G1X19.7256Y-35.1714

G1X23.2113Y-28.9722

G1X32.6779Y-21.4863

G1X40.6204Y-18.5421

G1X66.6356Y-19.3579

G1X83.4931Y-31.9681

G1X84.9638Y-35.0918

G1X86.1266Y-39.7910

G1X73.9702Y-60.8412

G1X21.1074Y-33.3263

G1X25.7945Y-27.4942

G1X36.6806Y-21.0033

G1X45.1986Y-18.8805

G1X70.8680Y-22.3627

G1X85.0988Y-36.6197

G1X85.9650Y-39.9020

G1X86.1918Y-44.7105

G1X69.8586Y-64.2574

G1X23.3092Y-31.3479

G1X29.2185Y-26.0692

G1X41.4113Y-20.8339

G1X50.3495Y-19.6737

G1X75.0313Y-25.9829

G1X86.0653Y-41.6862

G1X86.2424Y-45.0525

G1X85.4452Y-49.8518

G1X65.0424Y-67.3024

G1X26.3785Y-29.4615

G1X33.4349Y-24.9222

G1X46.6914Y-21.1652

G1X55.8281Y-21.0635

G1X78.8153Y-30.1868

G1X86.1977Y-46.9914

G1X85.6413Y-50.3482

G1X83.7939Y-55.0015

G1X59.7186Y-69.8038

G1X30.2518Y-27.8849

G1X38.2922Y-24.2460

G1X52.2693Y-22.1228

G1X61.3441Y-23.1166

G1X81.9555Y-34.8672

G1X85.4066Y-52.3272

G1X84.1191Y-55.5743

G1X81.2604Y-59.9440

G1X54.1487Y-71.6590

G1X34.7641Y-26.7956

G1X43.5591Y-24.1725

G1X57.8585Y-23.7518

G1X66.6067Y-25.8159

G1X84.2721Y-39.8597

G1X83.7188Y-57.4861

G1X81.7471Y-60.5301

G1X77.9741Y-64.4958

G1X48.6150Y-72.8467

G1X39.6799Y-26.3061

G1X48.9655Y-24.7565

G1X63.1842Y-26.0163

G1X71.3694Y-29.0694

G1X85.6907Y-44.9728

G1X81.2624Y-62.2935

G1X78.6888Y-65.0587

G1X74.1403Y-68.5299

G1X43.3751Y-73.4219

G1X44.7376Y-26.4535

G1X54.2483Y-25.9759

G1X68.0250Y-28.8144

G1X75.4626Y-32.7342

G1X86.2401Y-50.0210

G1X78.2336Y-66.6298

G1X75.1618Y-69.0648

G1X69.9977Y-71.9874

G1X38.6259Y-73.4958

G1X49.6933Y-27.2054

G1X59.1907Y-27.7475

G1X72.2371Y-32.0046

G1X78.8066Y-36.6465

G1X86.0300Y-54.8518

G1X74.8540Y-70.4394

G1X71.3940Y-72.5187

G1X65.7738Y-74.8747

G1X34.4814Y-73.2069

G1X54.3613Y-28.4791

G1X63.6547Y-29.9539

G1X75.7698Y-35.4412

G1X81.4125Y-40.6604

G1X85.2124Y-59.3752

G1X71.3150Y-73.7330

G1X67.5672Y-75.4524

G1X61.6331Y-77.2500

G1X30.9634Y-72.6840

G1X58.6403Y-30.1696

G1X67.5868Y-32.4754

G1X78.6446Y-39.0011

G1X83.3472Y-44.6629

G1X83.9448Y-63.5469

G1X67.7723Y-76.5539

G1X63.8258Y-77.9232

G1X57.6995Y-79.1893

G1X28.0538Y-72.0420

G1X62.4714Y-32.1718

G1X70.9741Y-35.2008

G1X80.9148Y-42.5819

G1X84.7004Y-48.5686

G1X82.3715Y-67.3561

G1X64.3391Y-78.9640

G1X60.2661Y-80.0035

G1X54.0443Y-80.7760

G1X25.6961Y-71.3674

G1X65.8492Y-34.3923

G1X73.8499Y-38.0420

G1X82.6616Y-46.1163

G1X85.5743Y-52.3315

G1X80.6061Y-70.8245

G1X61.0752Y-81.0340

G1X56.9308Y-81.7679

G1X50.6859Y-82.0878

G1X23.8116Y-70.7123

G1X68.8093Y-36.7603

G1X76.2766Y-40.9412

G1X83.9742Y-49.5731

G1X86.0648Y-55.9411

G1X78.7225Y-73.9952

G1X57.9925Y-82.8303

G1X53.8165Y-83.2818

G1X47.6014Y-83.1866

G1X22.3175Y-70.0954

G1X71.4125Y-39.2328

G1X78.3294Y-43.8716

G1X84.9351Y-52.9525

G1X86.2491Y-59.4152

G1X76.7542Y-76.9202

G1X55.0651Y-84.4063

G1X50.8860Y-84.5941

G1X44.7398Y-84.1135

G1X21.1391Y-69.5079

G1X73.7301Y-41.7935

G1X80.0822Y-46.8340

G1X85.6093Y-56.2787

G1X86.1788Y-62.7906

G1X74.6983Y-79.6515

G1X52.2414Y-85.7978

G1X48.0805Y-85.7339

G1X42.0353Y-84.8871

G1X20.2196Y-68.9199

G1X75.8311Y-44.4499

G1X81.5973Y-49.8508

G1X86.0387Y-59.5914

G1X85.8774Y-66.1141

G1X72.5236Y-82.2332

G1X49.4568Y-87.0209

G1X45.3332Y-86.7097

G1X39.4203Y-85.5053

G1X19.5249Y-68.2896

G1X77.7722Y-47.2277

G1X82.9173Y-52.9589

G1X86.2393Y-62.9372

G1X85.3414Y-69.4332

G1X70.1797Y-84.6956

G1X46.6463Y-88.0726

G1X42.5807Y-87.5109

G1X36.8368Y-85.9480

G1X19.0473Y-67.5710

G1X79.5895Y-50.1651

G1X84.0601Y-56.2023

G1X86.2003Y-66.3607

G1X84.5421Y-72.7880

G1X67.6066Y-87.0505

G1X43.7555Y-88.9315

G1X39.7748Y-88.1102

G1X34.2463Y-86.1807

G1X18.8063Y-66.7226

G1X81.2916Y-53.3050

G1X85.0150Y-59.6236

G1X85.8856Y-69.8966

G1X83.4305Y-76.2036

G1X64.7457Y-89.2884

G1X40.7520Y-89.5612

G1X36.8920Y-88.4677

G1X31.6389Y-86.1607

G1X18.8473Y-65.7155

G1X82.8554Y-56.6885

G1X85.7417Y-63.2565

G1X85.2375Y-73.5618

G1X81.9439Y-79.6830

G1X61.5514Y-91.3776

G1X37.6340Y-89.9151

G1X33.9420Y-88.5364

G1X29.0396Y-85.8431

G1X19.2374Y-64.5410

G1X84.2256Y-60.3455

G1X86.1729Y-67.1170

G1X84.1844Y-77.3488

G1X80.0158Y-83.2031

G1X58.0019Y-93.2655

G1X34.4373Y-89.9437

G1X30.9727Y-88.2707

G1X26.5111Y-85.1904

G1X20.0545Y-63.2215

G1X85.3135Y-64.2740

G1X86.2234Y-71.1706

G1X82.6785Y-81.1829

G1X77.6477Y-86.6643

G1X54.2349Y-94.8806

G1X31.3662Y-89.6787

G1X28.2170Y-87.7463

G1X24.2931Y-84.3410

G1X21.2598Y-62.0077

G1X85.9818Y-68.2179

G1X85.8672Y-75.1294

G1X80.8706Y-84.7913

G1X75.0884Y-89.8384

G1X50.6345Y-96.1969

G1X28.7027Y-89.2788

G1X25.8907Y-87.1308

G1X22.5172Y-83.4626

G1X22.7450Y-61.0387

G1X86.2446Y-72.0468

G1X85.1700Y-78.8971

G1X78.8641Y-88.1264

G1X72.4403Y-92.7137

G1X47.2654Y-97.2608

G1X26.4415Y-88.8042

G1X23.9730Y-86.4801

G1X21.1477Y-82.6057

G1X24.4330Y-60.3214

G1X86.1643Y-75.7280

G1X84.2036Y-82.4556

G1X76.7340Y-91.1933

G1X69.7729Y-95.3094

G1X44.1568Y-98.1209

G1X24.5590Y-88.3044

G1X22.4314Y-85.8401

G1X20.1409Y-81.8107

G1X26.2539Y-59.8524

G1X85.8034Y-79.2404

G1X83.0356Y-85.7976

G1X74.5449Y-94.0056

G1X67.1426Y-97.6510

G1X41.3224Y-98.8236

G1X23.0226Y-87.8199

G1X21.2267Y-85.2475

G1X19.4491Y-81.1075

G1X28.1475Y-59.6202

G1X85.2217Y-82.5735

G1X81.7264Y-88.9251

G1X72.3500Y-96.5830

G1X64.5925Y-99.7675

G1X38.7636Y-99.4108

G1X21.7949Y-87.3818

G1X20.3165Y-84.7291

G1X19.0241Y-80.5160

G1X30.0644Y-59.6076

G1X84.4731Y-85.7250

G1X80.3280Y-91.8471

G1X70.1906Y-98.9488

G1X62.1531Y-101.6890

G1X36.4719Y-99.9188

G1X20.8363Y-87.0127

G1X19.6582Y-84.3028

G1X18.8198Y-80.0478

G1X31.9663Y-59.7939

G1X83.6043Y-88.6997

G1X78.8825Y-94.5774

G1X68.0966Y-101.1281

G1X59.8433Y-103.4449

G1X34.4314Y-100.3773

G1X20.1079Y-86.7265

G1X19.2110Y-83.9788

G1X18.7945Y-79.7069

G1X33.8254Y-60.1565

G1X82.6539Y-91.5076

G1X77.4225Y-97.1332

G1X66.0872Y-103.1460

G1X57.6721Y-105.0628

G1X32.6215Y-100.8098

G1X19.5732Y-86.5304

G1X18.9380Y-83.7603

G1X18.9116Y-79.4913

G1X35.6239Y-60.6731

G1X81.6522Y-94.1620

G1X75.9713Y-99.5333

G1X64.1723Y-105.0260

G1X55.6401Y-106.5669

G1X31.0186Y-101.2333

G1X19.1994Y-86.4255

G1X18.8072Y-83.6451

G1X19.1407Y-79.3944

G1X37.3525Y-61.3220

G1X80.6213Y-96.6784

G1X74.5435Y-101.7970

G1X62.3542Y-106.7899

G1X53.7411Y-107.9783

G1X29.5980Y-101.6589

G1X18.9583Y-86.4079

G1X18.7916Y-83.6268

G1X19.4575Y-79.4060

G1X39.0095Y-62.0832

G1X79.5757Y-99.0736

G1X73.1464Y-103.9428

G1X60.6285Y-108.4565

G1X51.9639Y-109.3138

G1X28.3352Y-102.0925

G1X18.8265Y-86.4702

G1X18.8698Y-83.6955

G1X19.8439Y-79.5137

G1X40.5990Y-62.9391

G1X78.5232Y-101.3642

G1X71.7807Y-105.9884

G1X58.9856Y-110.0418

G1X50.2933Y-110.5870

G1X27.2065Y-102.5356

G1X18.7854Y-86.6018

G1X19.0257Y-83.8393

G1X20.2876Y-79.7034

G1X42.1303Y-63.8748

G1X77.4659Y-103.5665

G1X70.4418Y-107.9497

G1X57.4096Y-111.5589

G1X48.7028Y-111.8066

G1X26.1782Y-102.9748

G1X18.8230Y-86.7668

G1X19.2565Y-84.0085

G1X20.8059Y-79.9116

G1X43.7098Y-64.8593

G1X76.3116Y-105.7601

G1X68.9830Y-109.8964

G1X55.6989Y-113.0306

G1X46.9693Y-112.9541

G1X25.1044Y-103.2751

G1X18.9564Y-86.7903

G1X19.6108Y-84.0334

G1X21.4884Y-79.9850

G1X45.5464Y-65.8632

G1X74.9148Y-108.0303

G1X67.2589Y-111.8685

G1X53.7306Y-114.4461

G1X45.0070Y-113.9975

G1X23.9729Y-103.3839

G1X19.2253Y-86.6430

G1X20.1312Y-83.9012

G1X22.3762Y-79.9269

G1X47.6501Y-66.9153

G1X73.2513Y-110.3517

G1X65.2586Y-113.8355

G1X51.5137Y-115.7739

G1X42.8380Y-114.9077

G1X22.8291Y-103.2927

G1X19.6715Y-86.3417

G1X20.8562Y-83.6340

G1X23.5012Y-79.7651

G1X50.0055Y-68.0510

G1X71.3118Y-112.6872

G1X62.9885Y-115.7589

G1X49.0777Y-116.9806

G1X40.5047Y-115.6583

G1X21.7299Y-103.0058

G1X20.3333Y-85.9181

G1X21.8179Y-83.2675

G1X24.8849Y-79.5404

G1X52.5770Y-69.3062

G1X69.1040Y-114.9920

G1X60.4747Y-117.5971

G1X46.4714Y-118.0361

G1X38.0664Y-116.2302

G1X20.7365Y-102.5410

G1X21.2393Y-85.4158

G1X23.0360Y-82.8485

G1X26.5337Y-79.3021

G1X55.3106Y-70.7126

G1X66.6550Y-117.2196

G1X57.7624Y-119.3107

G1X43.7595Y-118.9184

G1X35.5944Y-116.6150

G1X19.9069Y-101.9299

G1X22.4025Y-84.8869

G1X24.5132Y-82.4305

G1X28.4349Y-79.1030

G1X58.1380Y-72.2920

G1X64.0107Y-119.3268

G1X54.9132Y-120.8681

G1X41.0169Y-119.6176

G1X33.1647Y-116.8183

G1X19.2884Y-101.2163

G1X23.8166Y-84.3867

G1X26.2321Y-82.0676

G1X30.5564Y-78.9939

G1X60.9827Y-74.0534

G1X61.2326Y-121.2795

G1X52.0000Y-122.2494

G1X38.3212Y-120.1382

G1X30.8501Y-116.8601

G1X18.9112Y-100.4517

G1X25.4551Y-83.9682

G1X28.1561Y-81.8094

G1X32.8483Y-79.0179

G1X63.7674Y-75.9907

G1X58.3926Y-123.0566

G1X49.0997Y-123.4498

G1X35.7448Y-120.4993

G1X28.7127Y-116.7733

G1X18.7854Y-99.6912

G1X27.2739Y-83.6762

G1X30.2327Y-81.6957

G1X35.2483Y-79.2061

G1X66.4219Y-78.0839

G1X55.5653Y-124.6518

G1X46.2860Y-124.4790

G1X33.3481Y-120.7321

G1X26.7980Y-116.5998

G1X18.9007Y-98.9871

G1X29.2163Y-83.5442

G1X32.3997Y-81.7532

G1X37.6885Y-79.5755

G1X68.8896Y-80.3017

G1X52.8205Y-126.0731

G1X43.6219Y-125.3591

G1X31.1747Y-120.8757

G1X25.1324Y-116.3855

G1X19.2293Y-98.3845

G1X31.2205Y-83.5911

G1X34.5926Y-81.9944

G1X40.1029Y-80.1286

G1X71.1314Y-82.6065

G1X50.2167Y-127.3402

G1X41.1543Y-126.1209

G1X29.2488Y-120.9719

G1X23.7226Y-116.1747

G1X19.7322Y-97.9170

G1X33.2267Y-83.8225

G1X36.7523Y-82.4181

G1X42.4348Y-80.8558

G1X73.1276Y-84.9594

G1X47.7959Y-128.4801

G1X38.9121Y-126.7987

G1X27.5756Y-121.0598

G1X22.5586Y-116.0054

G1X20.3650Y-97.6050

G1X35.1842Y-84.2315

G1X38.8297Y-83.0130

G1X44.6389Y-81.7391

G1X74.8719Y-87.3227

G1X45.5910Y-129.5239

G1X36.9173Y-127.4298

G1X26.1563Y-121.1819

G1X21.6277Y-115.9217

G1X21.0738Y-97.4766

G1X37.0223Y-84.8151

G1X40.7525Y-83.7704

G1X46.6442Y-82.7605

G1X76.3445Y-89.6438

G1X43.6539Y-130.5101

G1X35.2025Y-128.0607

G1X24.9918Y-121.3880

G1X20.9105Y-115.9679

G1X21.8037Y-97.5480

G1X38.6922Y-85.5562

G1X42.4813Y-84.6671

G1X48.4242Y-83.8914

G1X77.5661Y-91.8936

G1X41.9819Y-131.4706

G1X33.7503Y-128.7200

G1X24.0484Y-121.6970

G1X20.3672Y-116.1543

G1X22.5178Y-97.8058

G1X40.1796Y-86.4274

G1X44.0081Y-85.6748

G1X49.9790Y-85.1034

G1X78.5695Y-94.0567

G1X40.5567Y-132.4296

G1X32.5332Y-129.4264

G1X23.2910Y-122.1173

G1X19.9614Y-116.4819

G1X23.1904Y-98.2314

G1X41.4833Y-87.4027

G1X45.3369Y-86.7684

G1X51.3199Y-86.3726

G1X79.3880Y-96.1267

G1X39.3529Y-133.4038

G1X31.5208Y-130.1905

G1X22.6859Y-122.6489

G1X19.6610Y-116.9436

G1X23.8065Y-98.8036

G1X42.6126Y-88.4595

G1X46.4814Y-87.9262

G1X52.4663Y-87.6801

G1X80.0541Y-98.1051

G1X38.3413Y-134.4031

G1X30.6810Y-131.0153

G1X22.2024Y-123.2847

G1X19.4394Y-117.5265

G1X24.3609Y-99.4995

G1X43.5850Y-89.5783

G1X47.4628Y-89.1311

G1X53.4439Y-89.0121

G1X80.5980Y-99.9995

G1X37.4902Y-135.4310

G1 Z0F20000


G00 X0.0000 Y0.0000


