$H
G21
G17
G90
G1 Z0F20000
G1 F15000

(Start Layer)

(Start Block)


G1X60.2063Y-69.5864
G1Z5F20000
(Plotting speed under)
G1 F4000


G1X34.7069Y-63.1159

G1X26.5567Y-37.3428

G1X34.3496Y-19.9095

G1X66.4290Y-16.3135

G1X77.3220Y-51.6387

G1X60.7025Y-70.7284

G1X35.2215Y-64.9717

G1X26.4563Y-39.6515

G1X33.6170Y-22.0740

G1X65.3913Y-16.9285

G1X77.7304Y-51.4541

G1X62.1553Y-71.4486

G1X36.5432Y-67.5418

G1X26.3364Y-43.1219

G1X32.2629Y-25.1469

G1X63.4295Y-17.1044

G1X78.2683Y-50.1404

G1X64.4508Y-71.5811

G1X38.7433Y-70.6086

G1X26.4097Y-47.6856

G1X30.5088Y-29.2292

G1X60.5149Y-17.1317

G1X78.6670Y-47.7410

G1X67.3817Y-70.8983

G1X41.8846Y-73.8339

G1X26.9624Y-53.1897

G1X28.6769Y-34.3973

G1X56.6719Y-17.4012

G1X78.5927Y-44.3900

G1X70.6383Y-69.1799

G1X45.9632Y-76.7875

G1X28.2968Y-59.3616

G1X27.1606Y-40.6345

G1X52.0286Y-18.3497

G1X77.7075Y-40.3522

G1X73.8205Y-66.2930

G1X50.8564Y-79.0058

G1X30.6583Y-65.7986

G1X26.3682Y-47.7744

G1X46.8461Y-20.3803

G1X75.7451Y-36.0321

G1X76.4835Y-62.2640

G1X56.2975Y-80.0754

G1X34.1622Y-72.0007

G1X26.6463Y-55.4813

G1X41.5092Y-23.7723

G1X72.5829Y-31.9345

G1X78.2114Y-57.3139

G1X61.8936Y-79.7235

G1X38.7454Y-77.4452

G1X28.2023Y-63.2838

G1X36.4731Y-28.6082

G1X68.2859Y-28.5827

G1X78.7007Y-51.8404

G1X67.1874Y-77.8855

G1X44.1624Y-81.6861

G1X31.0540Y-70.6556

G1X32.1793Y-34.7453

G1X63.1030Y-26.4169

G1X77.8237Y-46.3460

G1X71.7461Y-74.7228

G1X50.0312Y-84.4427

G1X35.0255Y-77.1193

G1X28.9681Y-41.8460

G1X57.4145Y-25.7085

G1X75.6492Y-41.3353

G1X75.2462Y-70.5824

G1X55.9154Y-85.6481

G1X39.7923Y-82.3386

G1X27.0178Y-49.4563

G1X51.6477Y-26.5191

G1X72.4128Y-37.2168

G1X77.5262Y-65.9129

G1X61.4134Y-85.4405

G1X44.9600Y-86.1670

G1X26.3302Y-57.1061

G1X46.1910Y-28.7151

G1X68.4513Y-34.2390

G1X78.5937Y-61.1670

G1X66.2274Y-84.1071

G1X50.1463Y-88.6443

G1X26.7592Y-64.3964

G1X41.3169Y-32.0335

G1X64.0752Y-32.4489

G1X78.5800Y-56.5900

G1X70.3399Y-81.8497

G1X55.3494Y-89.9150

G1X28.2278Y-71.5145

G1X36.7550Y-36.5191

G1X59.0123Y-31.6288

G1X77.4656Y-51.7834

G1X73.9699Y-78.3984

G1X60.8064Y-89.8713

G1X30.8915Y-78.5441

G1X32.6009Y-42.3228

G1X53.3088Y-32.0283

G1X75.0884Y-47.0224

G1X76.7782Y-73.8148

G1X66.1735Y-88.3341

G1X34.7972Y-85.0397

G1X29.2460Y-49.3687

G1X47.2716Y-33.9465

G1X71.3996Y-42.7722

G1X78.4126Y-68.3488

G1X71.0318Y-85.2751

G1X39.8428Y-90.5287

G1X27.0609Y-57.4072

G1X41.3108Y-37.5490

G1X66.5071Y-39.5209

G1X78.6056Y-62.4064

G1X74.9549Y-80.8521

G1X45.7670Y-94.5878

G1X26.3269Y-66.0268

G1X35.8857Y-42.8159

G1X60.6820Y-37.6990

G1X77.2335Y-56.5028

G1X77.5816Y-75.4080

G1X52.1740Y-96.9232

G1X27.1764Y-74.7056

G1X31.4310Y-49.5248

G1X54.3287Y-37.5985

G1X74.3518Y-51.1841

G1X78.6839Y-69.4282

G1X58.5909Y-97.4310

G1X29.5601Y-82.8937

G1X28.2808Y-57.2763

G1X47.9224Y-39.3159

G1X70.1925Y-46.9351

G1X78.2102Y-63.4618

G1X64.5458Y-96.2196

G1X33.2522Y-90.1055

G1X26.6116Y-65.5604

G1X41.9295Y-42.7365

G1X65.1248Y-44.0988

G1X76.2909Y-58.0300

G1X69.6464Y-93.5862

G1X37.8937Y-95.9974

G1X26.4199Y-73.8444

G1X36.7319Y-47.5635

G1X59.5861Y-42.8294

G1X73.2051Y-53.5434

G1X73.6366Y-89.9555

G1X43.0604Y-100.4113

G1X27.5387Y-81.6595

G1X32.5748Y-53.3821

G1X54.0076Y-43.0874

G1X69.3210Y-50.2507

G1X76.4202Y-85.7987

G1X48.3361Y-103.3754

G1X29.6850Y-88.6636

G1X29.5494Y-59.7392

G1X48.7496Y-44.6745

G1X65.0271Y-48.2269

G1X78.0487Y-81.5564

G1X53.3725Y-105.0679

G1X32.5213Y-94.6683

G1X27.6079Y-66.2154

G1X44.0643Y-47.2924

G1X60.6729Y-47.3970

G1X78.6840Y-77.5831

G1X57.9231Y-105.7608

G1X35.7145Y-99.6319

G1X26.6013Y-72.4755

G1X40.0857Y-50.6069

G1X56.5279Y-47.5818

G1X78.5482Y-74.1090

G1X61.8692Y-105.7516

G1X39.0077Y-103.6461

G1X26.3267Y-78.3484

G1X36.7881Y-54.3500

G1X52.6866Y-48.5517

G1X77.8510Y-71.1585

G1X65.2508Y-105.2670

G1X42.2770Y-106.8818

G1X26.6005Y-83.7987

G1X34.0997Y-58.3333

G1X49.1998Y-50.1162

G1X76.7604Y-68.7459

G1X68.0924Y-104.4921

G1X45.4136Y-109.4697

G1X27.2740Y-88.7920

G1X31.9542Y-62.4083

G1X46.0862Y-52.1168

G1X75.4081Y-66.8447

G1X70.4523Y-103.5575

G1X48.3711Y-111.5398

G1X28.2326Y-93.3563

G1X30.2635Y-66.4948

G1X43.3136Y-54.4357

G1X73.8779Y-65.3855

G1X72.4105Y-102.5307

G1X51.1582Y-113.2012

G1X29.4060Y-97.5602

G1X28.9396Y-70.5765

G1X40.8183Y-57.0059

G1X72.2030Y-64.2797

G1X74.0488Y-101.4197

G1X53.8238Y-114.5275

G1X30.7706Y-101.4903

G1X27.9107Y-74.6889

G1X38.5238Y-59.8121

G1X70.3711Y-63.4400

G1X75.4354Y-100.1835

G1X56.4396Y-115.5495

G1X32.3461Y-105.2321

G1X27.1325Y-78.9044

G1X36.3578Y-62.8865

G1X68.3320Y-62.7980

G1X76.6119Y-98.7459

G1X59.0840Y-116.2523

G1X34.1883Y-108.8512

G1X26.5968Y-83.3154

G1X34.2683Y-66.3018

G1X66.0081Y-62.3196

G1X77.5830Y-97.0104

G1X61.8239Y-116.5752

G1X36.3805Y-112.3764

G1X26.3386Y-88.0152

G1X32.2388Y-70.1599

G1X63.3077Y-62.0200

G1X78.3066Y-94.8792

G1X64.6966Y-116.4142

G1X39.0215Y-115.7823

G1X26.4410Y-93.0768

G1X30.3039Y-74.5784

G1X60.1412Y-61.9771

G1X78.6873Y-92.2747

G1X67.6898Y-115.6304

G1X42.2080Y-118.9748

G1X27.0345Y-98.5270

G1X28.5624Y-79.6692

G1X56.4432Y-62.3395

G1X78.5752Y-89.1678

G1X70.7215Y-114.0673

G1X46.0109Y-121.7808

G1X28.2888Y-104.3183

G1X27.1847Y-85.5078

G1X52.2012Y-63.3259

G1X77.7755Y-85.6095

G1X73.6253Y-111.5808

G1X50.4435Y-123.9511

G1X30.3894Y-110.3010

G1X26.4072Y-92.0948

G1X47.4875Y-65.2060

G1X76.0747Y-81.7613

G1X76.1452Y-108.0864

G1X55.4051Y-125.1858

G1X33.4593Y-116.1572

G1X26.4950Y-99.1844

G1X42.6607Y-68.1779

G1X73.4543Y-78.1708

G1X77.8626Y-104.0336

G1X60.2621Y-125.3497

G1X37.1619Y-121.2085

G1X27.5019Y-105.9987

G1X38.3468Y-72.0682

G1X70.2106Y-75.3968

G1X78.6449Y-99.9372

G1X64.6593Y-124.5947

G1X41.2198Y-125.2967

G1X29.2844Y-112.2886

G1X34.6760Y-76.6612

G1X66.5481Y-73.5056

G1X78.5762Y-96.0147

G1X68.4840Y-123.1154

G1X45.4333Y-128.4379

G1X31.6757Y-117.9344

G1X31.7011Y-81.7439

G1X62.6565Y-72.4985

G1X77.7727Y-92.4329

G1X71.6771Y-121.1101

G1X49.6324Y-130.6977

G1X34.5084Y-122.8749

G1X29.4267Y-87.1189

G1X58.6995Y-72.3293

G1X76.3660Y-89.3063

G1X74.2248Y-118.7637

G1X53.6838Y-132.1740

G1X37.6278Y-127.0985

G1X27.8205Y-92.6160

G1X54.8090Y-72.9195

G1X74.4892Y-86.7021

G1X76.1482Y-116.2373

G1X57.4904Y-132.9809

G1X40.8997Y-130.6303

G1X26.8261Y-98.0974

G1X51.0841Y-74.1727

G1X72.2667Y-84.6479

G1X77.4918Y-113.6634

G1X60.9886Y-133.2366

G1X44.2141Y-133.5203

G1X26.3733Y-103.4580

G1X47.5935Y-75.9863

G1X69.8089Y-83.1417

G1X78.3142Y-111.1459

G1X64.1423Y-133.0543

G1X47.4852Y-135.8329

G1X26.3865Y-108.6221

G1X44.3807Y-78.2599

G1 Z0F20000


G00 X0.0000 Y0.0000


