$H
G21
G17
G90
G1 Z0F20000
G1 F15000

(Start Layer)

(Start Block)


G1X45.3168Y-40.8751
G1Z6F20000
(Plotting speed under)
G1 F4000


G1X44.1760Y-43.0067

G1X42.7706Y-45.1518

G1X41.1855Y-47.1705

G1X39.4632Y-49.0126

G1X37.7202Y-50.5682

G1X35.9696Y-51.8475

G1X33.9543Y-53.0373

G1X31.8246Y-54.0385

G1X29.6348Y-54.8314

G1X27.4393Y-55.3960

G1X25.3466Y-55.7075

G1X23.1561Y-55.7909

G1X20.8272Y-55.6378

G1X18.5201Y-55.2515

G1X16.2970Y-54.6443

G1X14.2205Y-53.8287

G1X12.2371Y-52.7712

G1X10.2356Y-51.4133

G1X8.3578Y-49.8435

G1X8.0000Y-49.4786

G1 Z0F20000

(Start Block)


G1X8.0000Y-14.0147
G1Z6F20000
(Plotting speed under)
G1 F4000


G1X8.5216Y-13.5011

G1X9.8895Y-12.3765

G1X11.3875Y-11.3450

G1X13.0746Y-10.3776

G1X14.8376Y-9.5530

G1X16.5472Y-8.9202

G1X18.2661Y-8.4478

G1X19.9773Y-8.1473

G1X21.8015Y-8.0000

G1 Z0F20000

(Start Block)


G1X22.3984Y-8.0000
G1Z6F20000
(Plotting speed under)
G1 F4000


G1X23.7709Y-8.0094

G1X25.7083Y-8.1856

G1X27.5242Y-8.5013

G1X29.2894Y-8.9606

G1X30.9550Y-9.5546

G1X32.6106Y-10.3161

G1X34.2534Y-11.2372

G1X35.9398Y-12.3602

G1X37.4735Y-13.5546

G1X38.9865Y-14.9268

G1X40.2997Y-16.3213

G1X41.5035Y-17.8294

G1X42.6712Y-19.5487

G1X43.6914Y-21.3034

G1X44.6488Y-23.2369

G1X45.4362Y-25.1350

G1X46.0863Y-27.0590

G1X46.5817Y-28.9680

G1X46.9398Y-30.9097

G1X47.2562Y-34.0395

G1X47.2795Y-37.2150

G1X47.0063Y-40.3219

G1X46.4418Y-43.2256

G1X45.5120Y-46.2460

G1X44.2751Y-49.1840

G1X42.7810Y-51.9305

G1X41.0514Y-54.4124

G1X39.0820Y-56.6166

G1X36.7817Y-58.6733

G1X34.3103Y-60.4298

G1X31.8501Y-61.7725

G1X29.2345Y-62.7764

G1X26.4624Y-63.4558

G1X23.5444Y-63.8038

G1X20.7961Y-63.7833

G1X19.4571Y-63.6339

G1X18.0002Y-63.3595

G1X15.1872Y-62.5198

G1X12.3898Y-61.2716

G1X9.9184Y-59.7553

G1X8.0000Y-58.1702

G1 Z0F20000

(Start Block)


G1X8.0000Y-21.5053
G1Z6F20000
(Plotting speed under)
G1 F4000


G1X9.0638Y-20.5734

G1X10.5171Y-19.4911

G1X12.0128Y-18.5606

G1X13.4831Y-17.8186

G1X15.1451Y-17.1500

G1X16.9838Y-16.5836

G1X18.8744Y-16.1702

G1X20.6811Y-15.9285

G1X22.4722Y-15.8411

G1X24.1150Y-15.9068

G1X25.8458Y-16.1293

G1X27.7004Y-16.5271

G1X29.5509Y-17.0830

G1X31.2706Y-17.7470

G1X32.9292Y-18.5364

G1X34.4988Y-19.4433

G1X35.9989Y-20.4901

G1X37.4409Y-21.6764

G1X38.8310Y-22.9977

G1X40.2150Y-24.5106

G1X41.4328Y-26.0412

G1X42.5349Y-27.6407

G1X43.4509Y-29.1957

G1X44.3050Y-30.9250

G1X45.0613Y-32.7653

G1X45.7404Y-34.7846

G1X46.2917Y-36.8590

G1X46.6886Y-38.8544

G1X47.0409Y-42.0119

G1X47.0352Y-45.2023

G1X46.6782Y-48.5642

G1X45.9616Y-51.9595

G1X45.0214Y-54.8680

G1X43.7803Y-57.6070

G1X42.1602Y-60.3453

G1X40.2099Y-62.9576

G1X38.1287Y-65.1765

G1X35.9135Y-67.0129

G1X33.3118Y-68.6657

G1X30.5425Y-69.9855

G1X27.8197Y-70.8936

G1X25.2411Y-71.3862

G1X22.4190Y-71.5381

G1X19.4722Y-71.3184

G1X17.9805Y-71.0596

G1X16.5344Y-70.7047

G1X15.1524Y-70.2561

G1X13.9031Y-69.7433

G1X12.5743Y-69.0838

G1X11.2697Y-68.3215

G1X10.0037Y-67.4675

G1X8.7119Y-66.4679

G1X8.0000Y-65.7993

G1 Z0F20000

(Start Block)


G1X8.0000Y-29.1960
G1Z6F20000
(Plotting speed under)
G1 F4000


G1X8.0390Y-29.1580

G1X9.3485Y-28.0694

G1X10.8409Y-27.0098

G1X12.4164Y-26.0625

G1X14.0489Y-25.2444

G1X15.6193Y-24.6055

G1X17.1950Y-24.1110

G1X18.8023Y-23.7581

G1X20.4774Y-23.5306

G1X22.1952Y-23.4296

G1X23.9298Y-23.4556

G1X25.6559Y-23.6096

G1X27.3478Y-23.8924

G1X28.9799Y-24.3047

G1X30.5176Y-24.8336

G1X32.1501Y-25.5396

G1X33.7636Y-26.3827

G1X35.3341Y-27.3494

G1X36.8377Y-28.4264

G1X38.1750Y-29.5327

G1X39.4111Y-30.7140

G1X40.5690Y-31.9985

G1X41.7314Y-33.4845

G1X42.8176Y-35.0805

G1X43.8621Y-36.8524

G1X44.7446Y-38.5978

G1X45.5049Y-40.3789

G1X46.0968Y-42.0709

G1X46.5868Y-43.8541

G1X46.9725Y-45.7134

G1X47.3877Y-49.0459

G1X47.4689Y-52.3921

G1X47.2292Y-55.4305

G1X46.6425Y-58.4907

G1X45.6568Y-61.7317

G1X44.3058Y-64.9127

G1X42.7738Y-67.6282

G1X40.9014Y-70.1515

G1X38.7119Y-72.4690

G1X36.3075Y-74.4913

G1X33.7905Y-76.1292

G1X31.2474Y-77.3258

G1X29.8005Y-77.8392

G1X28.2191Y-78.2828

G1X26.6191Y-78.6152

G1X25.1208Y-78.8222

G1X23.6419Y-78.9247

G1X22.1980Y-78.9193

G1X20.8326Y-78.8089

G1X19.3509Y-78.5784

G1X17.8668Y-78.2383

G1X16.3978Y-77.7951

G1X14.8673Y-77.2161

G1X13.4850Y-76.5808

G1X12.1716Y-75.8626

G1X11.0286Y-75.1271

G1X9.8663Y-74.2524

G1X8.7384Y-73.2741

G1X8.0000Y-72.5423

G1 Z0F20000

(Start Block)


G1X8.0000Y-37.2713
G1Z6F20000
(Plotting speed under)
G1 F4000


G1X8.5360Y-36.7186

G1X9.8148Y-35.5758

G1X11.1436Y-34.5544

G1X12.5197Y-33.6648

G1X14.0016Y-32.8729

G1X15.5707Y-32.1841

G1X17.3001Y-31.5768

G1X18.9722Y-31.1276

G1X20.6569Y-30.8079

G1X22.2324Y-30.6332

G1X23.7747Y-30.5875

G1X25.3302Y-30.6653

G1X27.0141Y-30.8763

G1X28.8060Y-31.2386

G1X30.4817Y-31.7065

G1X32.1167Y-32.2915

G1X33.6873Y-32.9886

G1X35.0691Y-33.7329

G1X36.5227Y-34.6662

G1X37.9484Y-35.7342

G1X39.3276Y-36.9200

G1X40.6413Y-38.2063

G1X41.8708Y-39.5761

G1X42.9972Y-41.0125

G1X43.9450Y-42.4079

G1X44.8203Y-43.9092

G1X45.6211Y-45.5086

G1X46.3397Y-47.1843

G1X47.0002Y-49.0120

G1X47.5247Y-50.7766

G1X47.9426Y-52.5513

G1X48.2462Y-54.3145

G1X48.4315Y-56.0674

G1X48.5101Y-57.9696

G1X48.4770Y-59.8028

G1X48.3312Y-61.7451

G1X48.0744Y-63.6687

G1X47.7313Y-65.4496

G1X47.2936Y-67.1671

G1X46.7479Y-68.8429

G1X46.0677Y-70.5326

G1X45.2709Y-72.1964

G1X44.3709Y-73.8136

G1X43.3238Y-75.4467

G1X42.2539Y-76.9021

G1X41.1219Y-78.2470

G1X39.9764Y-79.4271

G1X38.6853Y-80.5708

G1X37.2988Y-81.6305

G1X35.7506Y-82.6484

G1X34.1448Y-83.5458

G1X32.5982Y-84.2704

G1X31.0441Y-84.8640

G1X29.5693Y-85.2987

G1X28.0064Y-85.6224

G1X26.3966Y-85.8266

G1X24.6600Y-85.9137

G1X22.9227Y-85.8685

G1X21.2116Y-85.6924

G1X19.5536Y-85.3866

G1X18.0648Y-84.9814

G1X16.5086Y-84.4087

G1X14.9656Y-83.6928

G1X13.4583Y-82.8486

G1X12.0923Y-81.9504

G1X10.8749Y-81.0284

G1X9.7346Y-80.0395

G1X8.6868Y-78.9942

G1X8.0000Y-78.2011

G1 Z0F20000

(Start Block)


G1X8.0000Y-45.6046
G1Z6F20000
(Plotting speed under)
G1 F4000


G1X8.0376Y-45.5565

G1X9.0183Y-44.4662

G1X11.2608Y-42.4264

G1X12.5741Y-41.4441

G1X13.8595Y-40.6048

G1X16.4399Y-39.2457

G1X17.7966Y-38.6994

G1X19.0906Y-38.2865

G1X20.5397Y-37.9339

G1X22.0360Y-37.6761

G1X25.1000Y-37.4525

G1X28.0429Y-37.6178

G1X30.7270Y-38.1383

G1X33.5230Y-39.0860

G1X36.3596Y-40.4584

G1X38.9363Y-42.1116

G1X41.1409Y-43.9423

G1X43.2801Y-46.2290

G1X45.2176Y-48.8356

G1X46.8275Y-51.5615

G1X48.0997Y-54.3767

G1X49.0569Y-57.3813

G1X49.7351Y-60.6715

G1X49.9847Y-62.7023

G1X50.1067Y-64.7232

G1X50.0963Y-66.7034

G1X49.9560Y-68.5665

G1X49.6655Y-70.5647

G1X49.2377Y-72.5677

G1X48.6825Y-74.5444

G1X48.0097Y-76.4640

G1X47.2704Y-78.2064

G1X46.4421Y-79.8426

G1X45.5088Y-81.3906

G1X44.4475Y-82.8964

G1X43.2795Y-84.3365

G1X41.9518Y-85.7646

G1X40.5486Y-87.0762

G1X39.0921Y-88.2491

G1X37.6678Y-89.2220

G1X36.1825Y-90.0637

G1X34.6130Y-90.7965

G1X32.8871Y-91.4462

G1X31.1242Y-91.9585

G1X29.3538Y-92.3255

G1X27.6056Y-92.5393

G1X25.9687Y-92.5934

G1X24.2802Y-92.4970

G1X22.4721Y-92.2371

G1X20.7733Y-91.8508

G1X19.0141Y-91.3017

G1X17.4179Y-90.6591

G1X15.9125Y-89.9042

G1X14.5177Y-89.0440

G1X13.0839Y-87.9816

G1X10.9032Y-85.9893

G1X8.9622Y-83.7350

G1X8.0000Y-82.2956

G1 Z0F20000

(Start Block)


G1X8.0000Y-54.7916
G1Z6F20000
(Plotting speed under)
G1 F4000


G1X8.6796Y-53.7684

G1X9.6739Y-52.4558

G1X11.8042Y-50.1212

G1X12.9096Y-49.1197

G1X14.0495Y-48.2203

G1X16.4779Y-46.6883

G1X19.0550Y-45.4802

G1X21.7558Y-44.5844

G1X24.4767Y-44.0462

G1X27.0898Y-43.8919

G1X29.9989Y-44.0925

G1X33.0089Y-44.6808

G1X35.7957Y-45.6009

G1X38.3232Y-46.8292

G1X40.8239Y-48.4572

G1X43.1873Y-50.4056

G1X45.3194Y-52.6003

G1X47.1122Y-54.9419

G1X48.7321Y-57.6725

G1X50.0929Y-60.6430

G1X51.1416Y-63.7325

G1X51.8255Y-66.8193

G1X52.0710Y-68.7855

G1X52.1920Y-70.9075

G1X52.1786Y-72.9507

G1X52.0311Y-75.0845

G1X51.7484Y-77.1709

G1X51.3551Y-79.0808

G1X50.8417Y-80.8956

G1X50.1864Y-82.7152

G1X49.3615Y-84.5976

G1X48.3639Y-86.5055

G1X47.2509Y-88.3091

G1X46.1013Y-89.8981

G1X44.9081Y-91.3021

G1X43.6139Y-92.5960

G1X42.1293Y-93.8661

G1X40.5515Y-95.0204

G1X38.9091Y-96.0406

G1X37.2308Y-96.9085

G1X35.5455Y-97.6062

G1X33.9452Y-98.1041

G1X32.1724Y-98.4903

G1X30.2527Y-98.7382

G1X28.3202Y-98.8212

G1X26.4124Y-98.7386

G1X24.6621Y-98.5068

G1X22.9753Y-98.1193

G1X21.2865Y-97.5605

G1X19.6142Y-96.8442

G1X17.8982Y-95.9350

G1X16.3488Y-94.9457

G1X14.8259Y-93.7847

G1X13.5271Y-92.5991

G1X11.6493Y-90.4525

G1X9.9822Y-88.0067

G1X8.5933Y-85.3721

G1X8.0000Y-83.8302

G1 Z0F20000

(Start Block)


G1X8.0000Y-65.8904
G1Z6F20000
(Plotting speed under)
G1 F4000


G1X8.3896Y-64.7793

G1X9.7100Y-62.0310

G1X11.2871Y-59.5361

G1X13.1235Y-57.3295

G1X15.2851Y-55.2960

G1X17.6704Y-53.5260

G1X20.0961Y-52.1439

G1X22.6258Y-51.1228

G1X25.4580Y-50.3935

G1X28.3963Y-50.0151

G1X31.2194Y-50.0034

G1X33.8238Y-50.3361

G1X36.5144Y-51.0376

G1X39.2742Y-52.1156

G1X41.8122Y-53.4569

G1X44.1159Y-55.0459

G1X46.2922Y-56.9861

G1X48.3836Y-59.3208

G1X50.1814Y-61.8085

G1X51.5943Y-64.2546

G1X52.7405Y-66.8493

G1X53.6737Y-69.7295

G1X54.3588Y-72.8335

G1X54.6492Y-74.9519

G1X54.7870Y-76.9427

G1X54.7825Y-78.9048

G1X54.6334Y-80.9090

G1X54.3291Y-83.0322

G1X53.8824Y-85.1385

G1X53.3025Y-87.1913

G1X52.5985Y-89.1542

G1X51.8571Y-90.8321

G1X50.9490Y-92.5256

G1X49.9024Y-94.1724

G1X48.6742Y-95.8292

G1X47.3400Y-97.3801

G1X45.9968Y-98.7299

G1X44.5262Y-99.9943

G1X43.0952Y-101.0249

G1X41.5293Y-101.9618

G1X39.7842Y-102.8197

G1X37.9781Y-103.5315

G1X36.1450Y-104.0855

G1X34.4143Y-104.4541

G1X32.7017Y-104.6617

G1X30.9250Y-104.7055

G1X29.1134Y-104.5878

G1X27.2992Y-104.3158

G1X25.4169Y-103.8691

G1X23.6053Y-103.2666

G1X21.9886Y-102.5597

G1X20.3952Y-101.6707

G1X18.8371Y-100.6062

G1X17.3418Y-99.3914

G1X15.9366Y-98.0516

G1X14.0277Y-95.8228

G1X12.5331Y-93.5389

G1X11.2141Y-90.8370

G1X10.1850Y-87.9295

G1X9.5094Y-85.0462

G1X9.1932Y-82.3099

G1X9.2013Y-79.3186

G1X9.5568Y-76.1739

G1X10.2214Y-73.2115

G1X11.1539Y-70.5346

G1X12.4334Y-67.9312

G1X14.0867Y-65.3501

G1X15.9360Y-63.0662

G1X17.9657Y-61.0913

G1X20.1879Y-59.4348

G1X22.6585Y-58.0185

G1X25.2775Y-56.8951

G1X27.8518Y-56.1375

G1X30.3406Y-55.7416

G1X33.0449Y-55.6486

G1X35.8964Y-55.8843

G1X38.6885Y-56.4517

G1X41.2077Y-57.2998

G1X43.7628Y-58.5423

G1X46.2456Y-60.1249

G1X48.4891Y-61.9173

G1X50.4987Y-63.9130

G1X52.2549Y-66.1186

G1X53.9211Y-68.7575

G1X55.3340Y-71.6028

G1X56.4380Y-74.5460

G1X57.1669Y-77.4046

G1X57.5002Y-79.4862

G1X57.6951Y-81.6222

G1X57.7501Y-83.8779

G1X57.6599Y-86.0096

G1X57.4437Y-87.9858

G1X57.0926Y-89.9110

G1X56.5818Y-91.8657

G1X55.9251Y-93.8082

G1X55.1374Y-95.7074

G1X54.1855Y-97.6210

G1X53.1228Y-99.4165

G1X52.0194Y-100.9891

G1X50.7861Y-102.4658

G1X49.4178Y-103.8592

G1X47.9421Y-105.1489

G1X46.3031Y-106.3726

G1X44.6935Y-107.3865

G1X43.0608Y-108.2353

G1X41.4269Y-108.9030

G1X39.6829Y-109.4369

G1X37.7778Y-109.8424

G1X35.8444Y-110.0819

G1X33.9212Y-110.1519

G1X32.0467Y-110.0487

G1X30.3298Y-109.7845

G1X28.5058Y-109.3174

G1X26.7849Y-108.7091

G1X25.0097Y-107.9083

G1X23.3117Y-106.9614

G1X21.8063Y-105.9449

G1X20.4444Y-104.8387

G1X19.1227Y-103.5496

G1X17.3134Y-101.3872

G1X15.7285Y-98.9964

G1X14.4343Y-96.4720

G1X13.4895Y-93.9071

G1X12.7864Y-90.9745

G1X12.3970Y-87.9196

G1X12.3400Y-84.8741

G1X12.6192Y-82.0440

G1X13.2642Y-79.1033

G1X14.2395Y-76.1978

G1X15.4590Y-73.5379

G1X16.9232Y-71.1225

G1X18.7262Y-68.8463

G1X20.8956Y-66.6831

G1X23.1984Y-64.8636

G1X25.6166Y-63.3963

G1X28.1491Y-62.2951

G1X30.8714Y-61.4890

G1X33.6777Y-61.0052

G1X36.4621Y-60.8706

G1X39.0656Y-61.0909

G1X41.8080Y-61.6697

G1X44.5212Y-62.5758

G1X47.1056Y-63.7785

G1X49.4403Y-65.2304

G1X51.6586Y-67.0169

G1X53.8095Y-69.1740

G1X55.7358Y-71.5618

G1X57.2615Y-73.9238

G1X58.4906Y-76.3735

G1X59.5750Y-79.2162

G1X60.3936Y-82.1876

G1X60.7926Y-84.2874

G1X61.0288Y-86.2644

G1X61.1185Y-88.2266

G1X61.0612Y-90.3394

G1X60.8554Y-92.4742

G1X60.4884Y-94.6936

G1X59.9740Y-96.8535

G1X59.3529Y-98.8204

G1X58.6243Y-100.6304

G1X57.7222Y-102.4430

G1X56.6761Y-104.2029

G1X55.5083Y-105.8815

G1X54.2406Y-107.4500

G1X52.8953Y-108.8796

G1X51.5496Y-110.0958

G1X50.0212Y-111.2478

G1X48.3757Y-112.2786

G1X46.5537Y-113.2172

G1X44.6777Y-113.9893

G1X42.8808Y-114.5535

G1X41.1961Y-114.9226

G1X39.4330Y-115.1343

G1X37.6156Y-115.1835

G1X35.6754Y-115.0643

G1X33.7513Y-114.7751

G1X31.9790Y-114.3493

G1X30.2897Y-113.7808

G1X28.6230Y-113.0308

G1X26.9876Y-112.1003

G1X25.3195Y-110.9464

G1X23.7398Y-109.6411

G1X22.3526Y-108.2859

G1X20.5806Y-106.1460

G1X19.0688Y-103.7374

G1X17.7564Y-100.9748

G1X16.7533Y-98.0619

G1X16.1439Y-95.3195

G1X15.8652Y-92.5816

G1X15.8856Y-89.5252

G1X16.2121Y-86.5666

G1X16.8336Y-83.7228

G1X17.7667Y-81.0294

G1X19.0413Y-78.3740

G1X20.6612Y-75.7644

G1X22.3935Y-73.5531

G1X24.2418Y-71.6885

G1X26.4508Y-69.9465

G1X28.8839Y-68.4436

G1X31.3556Y-67.2744

G1X33.8667Y-66.4319

G1X36.4672Y-65.9245

G1X39.1980Y-65.7267

G1X42.0626Y-65.8498

G1X44.7559Y-66.2865

G1X47.1853Y-66.9962

G1X49.7419Y-68.0929

G1X52.2301Y-69.5044

G1X54.5629Y-71.1800

G1X56.5837Y-72.9981

G1X58.3839Y-75.0360

G1X60.1403Y-77.5065

G1X61.6617Y-80.1795

G1X62.8903Y-82.9582

G1X63.7772Y-85.7605

G1X64.2263Y-87.8132

G1X64.5517Y-90.0283

G1X64.7257Y-92.2677

G1X64.7450Y-94.4889

G1X64.6256Y-96.4566

G1X64.3640Y-98.4024

G1X63.9454Y-100.3848

G1X63.3515Y-102.4571

G1X62.6522Y-104.3887

G1X61.7922Y-106.3368

G1X60.8179Y-108.1666

G1X59.7753Y-109.7969

G1X58.5433Y-111.4019

G1X57.1678Y-112.9195

G1X55.6787Y-114.3247

G1X54.1060Y-115.5922

G1X52.4796Y-116.6967

G1X50.8952Y-117.5804

G1X49.2429Y-118.3087

G1X47.5041Y-118.8992

G1X45.6106Y-119.3667

G1X43.5943Y-119.6792

G1X41.6965Y-119.7987

G1X39.8547Y-119.7387

G1X38.0241Y-119.4879

G1X36.1739Y-119.0506

G1X34.3402Y-118.4412

G1X32.5594Y-117.6743

G1X30.8678Y-116.7643

G1X29.3804Y-115.7833

G1X27.9552Y-114.6373

G1X26.5893Y-113.3267

G1X25.4337Y-112.0363

G1X24.2979Y-110.5726

G1X23.3254Y-109.1197

G1X22.4670Y-107.6195

G1X21.7822Y-106.1919

G1X21.1775Y-104.6526

G1X20.6632Y-103.0292

G1X20.2225Y-101.2449

G1X19.8944Y-99.4208

G1X19.6931Y-97.6870

G1X19.6004Y-95.8662

G1X19.6318Y-94.1869

G1X19.7920Y-92.4330

G1X20.0785Y-90.6486

G1X20.4846Y-88.8603

G1X21.0034Y-87.0945

G1X21.6281Y-85.3776

G1X22.3519Y-83.7360

G1X23.1204Y-82.2786

G1X24.0119Y-80.8517

G1X25.0837Y-79.3804

G1X26.2685Y-77.9702

G1X27.5475Y-76.6424

G1X28.8251Y-75.4830

G1X30.1542Y-74.4334

G1X31.4379Y-73.5620

G1X32.8001Y-72.7812

G1X34.2504Y-72.0844

G1X35.8624Y-71.4454

G1X37.5247Y-70.9186

G1X39.2140Y-70.5116

G1X40.8079Y-70.2451

G1X42.2879Y-70.1038

G1X43.7360Y-70.0721

G1X45.1981Y-70.1454

G1X46.7830Y-70.3340

G1X48.3754Y-70.6324

G1X49.9565Y-71.0362

G1X51.5074Y-71.5410

G1X52.9171Y-72.1023

G1X54.2680Y-72.7449

G1X55.5280Y-73.4540

G1X58.0291Y-75.2025

G1X60.4589Y-77.3693

G1X62.6310Y-79.8073

G1X64.3819Y-82.3191

G1X65.9037Y-85.2010

G1X67.1679Y-88.4212

G1X68.0722Y-91.7470

G1X68.5408Y-94.7612

G1X68.6675Y-97.9843

G1X68.4506Y-101.2663

G1X67.9069Y-104.4711

G1X67.0118Y-107.5786

G1X66.4194Y-109.0776

G1X65.6817Y-110.6490

G1X63.9768Y-113.5681

G1X62.9821Y-114.9682

G1X61.9246Y-116.2734

G1X59.8824Y-118.3427

G1X58.7067Y-119.3102

G1X57.4568Y-120.2060

G1X56.1487Y-121.0220

G1X54.7071Y-121.7953

G1X53.3290Y-122.4204

G1X51.9415Y-122.9408

G1X50.5605Y-123.3481

G1X49.2239Y-123.6327

G1X47.7359Y-123.8323

G1X46.2152Y-123.9229

G1X44.6812Y-123.9058

G1X43.1535Y-123.7824

G1X41.6514Y-123.5541

G1X40.1945Y-123.2221

G1X38.8949Y-122.8209

G1X37.5457Y-122.2852

G1X34.9715Y-120.9281

G1X32.4572Y-119.1488

G1X30.2867Y-117.1470

G1X29.3122Y-116.0417

G1X28.3778Y-114.8109

G1X27.5036Y-113.4811

G1X26.6986Y-112.0708

G1X25.3345Y-109.0834

G1X24.7940Y-107.5434

G1X24.3603Y-105.9973

G1X24.0432Y-104.4754

G1X23.8218Y-102.9140

G1X23.6490Y-99.5721

G1X23.8594Y-96.2066

G1X24.4302Y-93.0807

G1X25.4005Y-90.0537

G1X26.7625Y-87.0753

G1X28.4480Y-84.2854

G1X29.3909Y-83.0047

G1X30.3909Y-81.8214

G1X31.4250Y-80.7570

G1X32.6226Y-79.6760

G1X33.9020Y-78.6627

G1X35.2469Y-77.7284

G1X37.9791Y-76.1870

G1X39.4233Y-75.5524

G1X40.7851Y-75.0686

G1X43.6689Y-74.3779

G1X46.6943Y-74.0542

G1X49.7311Y-74.1086

G1X51.2131Y-74.2810

G1X52.6441Y-74.5509

G1X54.0422Y-74.9198

G1X55.5409Y-75.4257

G1X58.4047Y-76.7056

G1X61.1136Y-78.3300

G1X62.4111Y-79.2834

G1X63.5384Y-80.2321

G1X65.7262Y-82.4730

G1X67.7127Y-85.0479

G1X69.4671Y-87.9319

G1X70.8002Y-90.8276

G1X71.7932Y-93.9381

G1X72.4589Y-97.2375

G1X72.7777Y-100.5802

G1X72.7290Y-103.8290

G1X72.2722Y-107.1222

G1X71.4296Y-110.4045

G1X70.2507Y-113.5276

G1X69.5283Y-115.0260

G1X68.7645Y-116.3769

G1X67.8727Y-117.7288

G1X66.8823Y-119.0351

G1X65.8077Y-120.2819

G1X64.6635Y-121.4551

G1X63.4643Y-122.5409

G1X62.2244Y-123.5251

G1X60.9585Y-124.3937

G1X59.6852Y-125.1322

G1X58.3175Y-125.7932

G1X56.8901Y-126.3615

G1X55.4217Y-126.8326

G1X53.8311Y-127.2229

G1X52.3367Y-127.4788

G1X50.8581Y-127.6235

G1X49.4114Y-127.6525

G1X48.0461Y-127.5702

G1X46.5601Y-127.3674

G1X44.9693Y-127.0272

G1X43.3948Y-126.5659

G1X41.9538Y-126.0299

G1X40.4757Y-125.3548

G1X39.1649Y-124.6311

G1X37.9616Y-123.8389

G1X36.7265Y-122.8836

G1X35.6047Y-121.8852

G1X34.4607Y-120.7261

G1X33.3856Y-119.4854

G1X32.3940Y-118.1793

G1X30.8115Y-115.6101

G1X30.1470Y-114.2314

G1X29.5552Y-112.7688

G1X29.0121Y-111.1440

G1X28.5630Y-109.4686

G1X28.2143Y-107.7654

G1X27.9720Y-106.0569

G1X27.8466Y-104.4646

G1X27.8256Y-102.9027

G1X27.9061Y-101.3180

G1X28.0982Y-99.6055

G1X28.3956Y-97.8858

G1X28.7941Y-96.1814

G1X29.2891Y-94.5149

G1X29.8394Y-93.0014

G1X30.4678Y-91.5605

G1X31.1929Y-90.1635

G1X32.9556Y-87.4389

G1X34.0336Y-86.0657

G1X35.1913Y-84.7678

G1X36.4141Y-83.5636

G1X37.6118Y-82.5323

G1X38.8527Y-81.6085

G1X40.1071Y-80.8075

G1X41.5246Y-80.0313

G1X43.0061Y-79.3435

G1X44.5331Y-78.7517

G1X45.9894Y-78.2909

G1X47.4542Y-77.9276

G1X48.9122Y-77.6681

G1X51.7296Y-77.4717

G1X54.7516Y-77.6644

G1X56.3706Y-77.9243

G1X57.8703Y-78.2637

G1X60.7516Y-79.2106

G1X63.3686Y-80.4862

G1X66.0399Y-82.2490

G1X68.5350Y-84.3617

G1X70.6778Y-86.6551

G1X72.4516Y-89.0983

G1X74.0618Y-91.9850

G1X75.4062Y-95.1825

G1X76.3469Y-98.3624

G1X76.8777Y-101.4634

G1X77.0612Y-104.8110

G1X76.8771Y-108.2851

G1X76.3245Y-111.6218

G1X75.9299Y-113.1316

G1X75.4233Y-114.6638

G1X74.1212Y-117.6738

G1X72.4415Y-120.5865

G1X71.4694Y-121.9650

G1X70.5017Y-123.1637

G1X69.4986Y-124.2446

G1X68.3845Y-125.2893

G1X67.1921Y-126.2680

G1X65.8511Y-127.2287

G1X64.4572Y-128.0923

G1X63.1190Y-128.8037

G1X61.6757Y-129.4470

G1X60.3241Y-129.9321

G1X58.9945Y-130.2960

G1X57.5161Y-130.5831

G1X56.0011Y-130.7637

G1X54.4690Y-130.8378

G1X52.9392Y-130.8054

G1X51.4314Y-130.6663

G1X49.9650Y-130.4207

G1X48.5623Y-130.0693

G1X47.1831Y-129.6026

G1X45.8074Y-129.0208

G1X44.4513Y-128.3337

G1X43.0448Y-127.4956

G1X41.6990Y-126.5606

G1X40.5099Y-125.6064

G1X39.4076Y-124.5871

G1X38.4257Y-123.5356

G1X37.4422Y-122.3218

G1X36.4615Y-120.9280

G1X35.5594Y-119.4479

G1X34.7935Y-117.9953

G1X34.1187Y-116.5032

G1X33.5456Y-114.9894

G1X32.7540Y-112.0566

G1X32.2906Y-108.7592

G1X32.2054Y-105.3694

G1X32.4944Y-102.1538

G1X32.7804Y-100.6142

G1X33.1709Y-99.0719

G1X33.6958Y-97.4293

G1X34.3256Y-95.8032

G1X35.8148Y-92.7730

G1X37.4870Y-90.1932

G1X38.3974Y-89.0481

G1X39.4756Y-87.8618

G1X40.6449Y-86.7304

G1X41.8903Y-85.6661

G1X44.4633Y-83.8420

G1X45.8449Y-83.0472

G1X47.1557Y-82.4076

G1X48.5055Y-81.8645

G1X49.9238Y-81.4051

G1X51.4908Y-81.0116

G1X53.0944Y-80.7210

G1X54.7151Y-80.5362

G1X56.2326Y-80.4619

G1X59.1001Y-80.5996

G1X60.5262Y-80.8201

G1X61.9650Y-81.1451

G1X64.8415Y-82.0874

G1X67.7092Y-83.4283

G1X70.2633Y-85.0320

G1X72.5785Y-86.9538

G1X74.8562Y-89.3782

G1X76.8681Y-92.0887

G1X78.4300Y-94.7868

G1X79.5942Y-97.4868

G1X80.5453Y-100.5892

G1X81.1921Y-103.9060

G1X81.3916Y-105.7135

G1X81.4753Y-107.3918

G1X81.4521Y-109.0599

G1X81.3189Y-110.7655

G1X81.0808Y-112.4854

G1X80.7205Y-114.2990

G1X80.2553Y-116.0809

G1X79.6917Y-117.8066

G1X79.0750Y-119.3625

G1X78.4165Y-120.7584

G1X77.6287Y-122.1711

G1X76.7370Y-123.5484

G1X75.7553Y-124.8754

G1X74.6971Y-126.1368

G1X73.5043Y-127.3885

G1X72.3315Y-128.4674

G1X71.1240Y-129.4348

G1X69.8382Y-130.3126

G1X68.5303Y-131.0653

G1X67.0636Y-131.7730

G1X65.5441Y-132.3759

G1X63.9934Y-132.8668

G1X62.4329Y-133.2388

G1X60.9802Y-133.4734

G1X59.5490Y-133.5920

G1X58.0801Y-133.5923

G1X56.5823Y-133.4765

G1X55.0747Y-133.2493

G1X53.5762Y-132.9153

G1X52.1059Y-132.4790

G1X50.6829Y-131.9450

G1X49.3262Y-131.3179

G1X47.9901Y-130.5636

G1X46.6202Y-129.6353

G1X45.3659Y-128.6432

G1X44.0884Y-127.4804

G1X42.8860Y-126.2232

G1X41.7779Y-124.8896

G1X40.8377Y-123.5809

G1X39.9775Y-122.1731

G1X39.1799Y-120.6139

G1X38.4727Y-118.9567

G1X37.8650Y-117.2278

G1X37.3656Y-115.4537

G1X36.9834Y-113.6606

G1X36.7382Y-111.9736

G1X36.6123Y-110.3169

G1X36.6010Y-108.5357

G1X36.7082Y-106.7154

G1X36.9305Y-104.8824

G1X37.2643Y-103.0634

G1X37.7062Y-101.2849

G1X38.2196Y-99.6664

G1X38.8268Y-98.1215

G1X39.5557Y-96.5904

G1X40.4517Y-94.9935

G1X41.4604Y-93.4437

G1X42.5665Y-91.9636

G1X43.7545Y-90.5755

G1X45.0091Y-89.3021

G1X46.2482Y-88.2194

G1X47.5996Y-87.2104

G1X49.0468Y-86.2846

G1X50.5686Y-85.4526

G1X53.3718Y-84.2452

G1X56.2261Y-83.4207

G1X59.0220Y-83.0210

G1X62.0509Y-82.9925

G1X63.6811Y-83.1334

G1X65.1961Y-83.3623

G1X68.1211Y-84.0958

G1X69.4875Y-84.5930

G1X70.8165Y-85.1838

G1X73.5199Y-86.7078

G1X76.1528Y-88.6410

G1X78.4381Y-90.7826

G1X80.3094Y-93.0365

G1X82.0613Y-95.7448

G1X83.5765Y-98.7771

G1X84.7280Y-101.9153

G1X85.4480Y-104.9738

G1X85.8251Y-108.1855

G1X85.8604Y-111.6524

G1X85.5197Y-115.0140

G1X84.8440Y-118.0026

G1X83.7477Y-121.0929

G1X82.2650Y-124.1224

G1X81.3856Y-125.5727

G1X80.4981Y-126.8451

G1X79.5844Y-127.9841

G1X78.5566Y-129.0994

G1X77.4458Y-130.1571

G1X76.1858Y-131.2103

G1X74.8653Y-132.1739

G1X73.5882Y-132.9850

G1X72.2006Y-133.7401

G1X70.8914Y-134.3341

G1X69.6092Y-134.8026

G1X68.1614Y-135.2106

G1X66.6668Y-135.5153

G1X65.1448Y-135.7153

G1X63.6149Y-135.8091

G1X62.0966Y-135.7951

G1X60.6091Y-135.6721

G1X59.2674Y-135.4578

G1X57.8661Y-135.1181

G1X56.4568Y-134.6611

G1X55.0562Y-134.0952

G1X53.5910Y-133.3812

G1X52.1752Y-132.5635

G1X50.9111Y-131.7119

G1X49.7253Y-130.7866

G1X48.6512Y-129.8135

G1X47.5845Y-128.6947

G1X46.5674Y-127.4722

G1X45.6116Y-126.1630

G1X44.6761Y-124.6962

G1X43.8831Y-123.2622

G1X43.1866Y-121.7939

G1X42.6315Y-120.4012

G1X42.1564Y-118.9329

G1X41.4421Y-115.7224

G1X41.2143Y-114.0017

G1X41.0855Y-112.2650

G1X41.1289Y-108.9318

G1X41.2945Y-107.3725

G1X41.5615Y-105.8164

G1X41.9549Y-104.1461

G1X42.4540Y-102.4793

G1X43.0517Y-100.8370

G1X43.7406Y-99.2404

G1X45.2598Y-96.4331

G1X46.9839Y-94.0328

G1X49.1969Y-91.6389

G1X51.6838Y-89.5257

G1X54.2489Y-87.8458

G1X55.5376Y-87.1801

G1X56.9068Y-86.5897

G1X58.3348Y-86.0821

G1X59.9049Y-85.6362

G1X61.5045Y-85.2932

G1X63.1141Y-85.0578

G1X64.6151Y-84.9388

G1X66.0921Y-84.9221

G1X68.9012Y-85.1897

G1X71.8510Y-85.8656

G1X74.8305Y-86.9492

G1X77.5220Y-88.3291

G1X78.7437Y-89.1180

G1X79.9882Y-90.0475

G1X82.3679Y-92.2010

G1X84.5839Y-94.7380

G1X86.3520Y-97.3101

G1X87.7134Y-99.9094

G1X88.8803Y-102.9276

G1X89.7554Y-106.1952

G1X90.0636Y-107.8922

G1X90.2678Y-109.5718

G1X90.3576Y-112.7282

G1X90.0462Y-116.1794

G1X89.7227Y-117.9945

G1X89.3224Y-119.6719

G1X88.3340Y-122.6571

G1X87.0012Y-125.4436

G1X85.2311Y-128.2027

G1X83.1658Y-130.7010

G1X82.0533Y-131.8133

G1X80.9043Y-132.8136

G1X79.7926Y-133.6473

G1X78.5160Y-134.4711

G1X77.1724Y-135.2123

G1X75.6850Y-135.9041

G1X74.1623Y-136.4853

G1X72.7215Y-136.9224

G1X71.2855Y-137.2478

G1X69.9582Y-137.4455

G1X68.5901Y-137.5427

G1X67.1897Y-137.5407

G1X65.6712Y-137.4314

G1X64.1528Y-137.2145

G1X62.6538Y-136.8930

G1X61.2893Y-136.5014

G1X59.7912Y-135.9491

G1X58.3924Y-135.2955

G1X57.0376Y-134.5225

G1X55.6257Y-133.5686

G1X54.2622Y-132.4949

G1X52.9675Y-131.3183

G1X51.7620Y-130.0559

G1X50.7272Y-128.8046

G1X49.8204Y-127.5287

G1X48.9680Y-126.1224

G1X48.1892Y-124.6192

G1X47.4548Y-122.9458

G1X46.8234Y-121.2137

G1X46.3312Y-119.5469

G1X45.9490Y-117.8723

G1X45.6861Y-116.2151

G1X45.5392Y-114.5619

G1X45.4952Y-112.7576

G1X45.5640Y-110.9233

G1X45.7439Y-109.0854

G1X46.0330Y-107.2699

G1X46.4047Y-105.5994

G1X46.8706Y-103.9942

G1X47.4471Y-102.4212

G1X48.1428Y-100.8506

G1X48.9955Y-99.2148

G1X49.9544Y-97.6295

G1X51.0058Y-96.1179

G1X52.1360Y-94.7028

G1X53.2635Y-93.4758

G1X54.3980Y-92.4069

G1X55.7158Y-91.3317

G1X58.2508Y-89.6355

G1X60.8676Y-88.2921

G1X63.5480Y-87.2991

G1X66.2057Y-86.6999

G1X69.2189Y-86.4238

G1X70.8520Y-86.4312

G1X72.3766Y-86.5358

G1X75.3410Y-87.0277

G1X78.0205Y-87.8605

G1X80.7427Y-89.1106

G1X83.4359Y-90.7615

G1X85.8175Y-92.6403

G1X87.8722Y-94.7255

G1X89.8208Y-97.2683

G1X91.5101Y-100.0788

G1X92.8686Y-103.0323

G1X93.8333Y-106.0253

G1X94.4521Y-109.1896

G1X94.7408Y-112.5541

G1X94.6737Y-115.7709

G1X94.2613Y-118.7880

G1X93.4327Y-121.9457

G1X92.2461Y-125.0101

G1X90.7604Y-127.8411

G1X89.9240Y-129.1254

G1X89.0151Y-130.3291

G1X86.9303Y-132.5888

G1X85.7819Y-133.6223

G1X84.4998Y-134.6373

G1X81.9942Y-136.2505

G1X80.7114Y-136.8963

G1X79.4245Y-137.4254

G1X77.9824Y-137.8979

G1X76.4938Y-138.2697

G1X74.9779Y-138.5382

G1X73.4542Y-138.7002

G1X71.9420Y-138.7530

G1X70.4605Y-138.6937

G1X69.1201Y-138.5345

G1X67.6796Y-138.2475

G1X66.1332Y-137.8138

G1X64.5979Y-137.2571

G1X63.0952Y-136.5865

G1X61.6465Y-135.8113

G1X60.2734Y-134.9402

G1X59.0782Y-134.0483

G1X57.9309Y-133.0466

G1X56.7546Y-131.8588

G1X55.6370Y-130.5627

G1X54.5343Y-129.0937

G1X53.5321Y-127.5480

G1X52.6939Y-126.0386

G1X51.9762Y-124.5008

G1X51.3924Y-122.9684

G1X50.8965Y-121.3554

G1X50.4700Y-119.5801

G1X50.1500Y-117.7613

G1X49.9413Y-115.9252

G1X49.8489Y-114.0981

G1X49.8730Y-112.4043

G1X50.0089Y-110.7463

G1X50.2744Y-108.9639

G1X50.6343Y-107.2690

G1X51.1243Y-105.4860

G1X51.7197Y-103.7397

G1X52.3724Y-102.1465

G1X53.1072Y-100.6295

G1X53.9285Y-99.1922

G1X54.8737Y-97.7778

G1X55.9920Y-96.3269

G1X57.2133Y-94.9433

G1X58.4448Y-93.7162

G1X59.6591Y-92.6471

G1X60.9139Y-91.6754

G1X62.1158Y-90.8652

G1X63.3935Y-90.1272

G1X64.7490Y-89.4618

G1X66.2578Y-88.8405

G1X67.8128Y-88.3165

G1X69.2957Y-87.9189

G1X72.2708Y-87.4154

G1X73.7315Y-87.3194

G1X75.0920Y-87.3273

G1X78.0822Y-87.6473

G1X79.5845Y-87.9545

G1X81.1685Y-88.3842

G1X84.0211Y-89.4578

G1X85.3577Y-90.1175

G1X86.6066Y-90.8466

G1X87.9135Y-91.7328

G1X89.1879Y-92.7218

G1X91.5857Y-94.9562

G1X93.6320Y-97.3645

G1X95.2572Y-99.8244

G1X96.6846Y-102.6879

G1X97.0001Y-103.5498

G1 Z0F20000

(Start Block)


G1X97.0001Y-124.7374
G1Z6F20000
(Plotting speed under)
G1 F4000


G1X96.8439Y-125.1649

G1X96.1407Y-126.6370

G1X95.3420Y-128.0752

G1X93.5038Y-130.7840

G1X92.4873Y-132.0216

G1X91.4210Y-133.1594

G1X90.3645Y-134.1396

G1X89.1932Y-135.0776

G1X87.9424Y-135.9438

G1X86.5390Y-136.7796

G1X85.0837Y-137.5147

G1X83.6902Y-138.1039

G1X80.9779Y-138.9378

G1X79.6560Y-139.1882

G1X78.2785Y-139.3432

G1X76.8683Y-139.4021

G1X75.3392Y-139.3602

G1X73.8102Y-139.2113

G1X72.3008Y-138.9574

G1X70.7341Y-138.5726

G1X69.3267Y-138.1069

G1X67.9164Y-137.5071

G1X66.5192Y-136.7791

G1X65.1462Y-135.9332

G1X63.7338Y-134.9196

G1X62.3901Y-133.8029

G1X61.2074Y-132.6715

G1X60.1869Y-131.5520

G1X59.2286Y-130.3355

G1X58.3013Y-128.9669

G1X57.4434Y-127.4998

G1X56.6652Y-125.9553

G1X55.9766Y-124.3542

G1X55.3879Y-122.7175

G1X54.9340Y-121.1631

G1X54.5865Y-119.6161

G1X54.3328Y-117.9864

G1X54.1767Y-116.2989

G1X54.1176Y-114.4730

G1X54.1673Y-112.6320

G1X54.3140Y-110.9025

G1X54.5748Y-109.1055

G1X54.9203Y-107.4632

G1X55.3694Y-105.8667

G1X55.9345Y-104.2652

G1X56.6062Y-102.6759

G1X57.3748Y-101.1180

G1X58.2306Y-99.6110

G1X59.1635Y-98.1739

G1X60.1640Y-96.8261

G1X61.1611Y-95.6533

G1X62.2038Y-94.5820

G1X63.4083Y-93.4946

G1X65.9543Y-91.5905

G1X68.6830Y-90.0212

G1X71.3899Y-88.8961

G1X72.8004Y-88.4790

G1X74.2643Y-88.1530

G1X75.7654Y-87.9192

G1X77.3890Y-87.7726

G1X79.0166Y-87.7335

G1X80.5286Y-87.7955

G1X82.0103Y-87.9542

G1X83.4448Y-88.2104

G1X86.2792Y-89.0377

G1X89.1723Y-90.3057

G1X91.9034Y-91.9286

G1X93.2079Y-92.8834

G1X94.3381Y-93.8337

G1X95.4514Y-94.9082

G1X96.5212Y-96.0826

G1X97.0001Y-96.7121

G1 Z0F20000

(Start Block)


G1X97.0001Y-131.7541
G1Z6F20000
(Plotting speed under)
G1 F4000


G1X96.7225Y-132.0837

G1X95.5859Y-133.2690

G1X94.3834Y-134.3725

G1X93.1303Y-135.3797

G1X91.9234Y-136.2238

G1X90.6984Y-136.9588

G1X89.3732Y-137.6207

G1X87.9763Y-138.1918

G1X86.4280Y-138.6963

G1X84.8419Y-139.0877

G1X83.3407Y-139.3475

G1X81.8446Y-139.4992

G1X80.3722Y-139.5387

G1X78.9320Y-139.4614

G1X77.4720Y-139.2643

G1X75.9969Y-138.9525

G1X74.5250Y-138.5323

G1X73.0744Y-138.0098

G1X71.6633Y-137.3910

G1X70.3097Y-136.6823

G1X69.1143Y-135.9449

G1X67.9452Y-135.0997

G1X66.7451Y-134.0925

G1X65.5860Y-132.9775

G1X64.4149Y-131.6922

G1X63.3223Y-130.3215

G1X62.3805Y-128.9703

G1X61.5367Y-127.5757

G1X60.8531Y-126.2560

G1X60.1995Y-124.7540

G1X59.6268Y-123.1678

G1X58.7457Y-119.8275

G1X58.4481Y-118.1161

G1X58.2531Y-116.4055

G1X58.1820Y-113.2541

G1X58.3028Y-111.5678

G1X58.5281Y-109.8580

G1X58.8756Y-108.0454

G1X59.3021Y-106.3533

G1X59.8528Y-104.6066

G1X60.4618Y-103.0213

G1X61.1537Y-101.5179

G1X61.9143Y-100.1207

G1X62.7756Y-98.7480

G1X63.7882Y-97.3325

G1X65.9883Y-94.7749

G1X67.1420Y-93.6556

G1X68.3366Y-92.6347

G1X69.5771Y-91.7149

G1X70.8354Y-90.9122

G1X73.6386Y-89.4863

G1X75.1578Y-88.8868

G1X76.7026Y-88.3895

G1X78.2546Y-88.0017

G1X79.7000Y-87.7437

G1X81.1355Y-87.5927

G1X82.7086Y-87.5455

G1X84.2115Y-87.6050

G1X85.8260Y-87.7759

G1X87.4332Y-88.0544

G1X89.0134Y-88.4369

G1X90.5472Y-88.9202

G1X91.9255Y-89.4618

G1X93.2275Y-90.0833

G1X94.5939Y-90.8573

G1X95.9352Y-91.7393

G1X97.0001Y-92.5390

G1 Z0F20000

(Start Block)


G1X97.0001Y-134.9958
G1Z6F20000
(Plotting speed under)
G1 F4000


G1X96.1203Y-135.6181

G1X94.3554Y-136.6565

G1X92.6262Y-137.4853

G1X90.8786Y-138.1412

G1X89.2032Y-138.5941

G1X87.3347Y-138.9070

G1X85.4061Y-139.0479

G1X83.3544Y-139.0112

G1X81.3262Y-138.7853

G1X79.4631Y-138.3964

G1X77.7135Y-137.8444

G1X75.9098Y-137.0730

G1X74.1326Y-136.1149

G1X72.4182Y-134.9928

G1X70.8028Y-133.7293

G1X69.3928Y-132.4186

G1X68.1576Y-131.0492

G1X66.9768Y-129.4929

G1X65.8357Y-127.7126

G1X64.8169Y-125.8198

G1X63.9416Y-123.8527

G1X63.2313Y-121.8490

G1X62.7293Y-119.9539

G1X62.3577Y-117.9078

G1X62.1306Y-115.7858

G1X62.0496Y-113.5257

G1X62.1176Y-111.4768

G1X62.3220Y-109.4697

G1X62.6446Y-107.6318

G1X63.1332Y-105.7127

G1X63.7714Y-103.7913

G1X64.5876Y-101.8060

G1X65.5377Y-99.8899

G1X66.5526Y-98.1630

G1X67.6035Y-96.6402

G1X68.7830Y-95.1907

G1X70.1110Y-93.7963

G1X71.5540Y-92.4886

G1X73.0868Y-91.2873

G1X74.6847Y-90.2123

G1X76.3226Y-89.2836

G1X77.9870Y-88.5162

G1X79.6631Y-87.9144

G1X81.5135Y-87.4166

G1X83.4149Y-87.0645

G1X85.3344Y-86.8626

G1X87.2392Y-86.8156

G1X89.0004Y-86.9181

G1X90.7227Y-87.1709

G1X92.4643Y-87.5795

G1X94.2997Y-88.1681

G1X96.1952Y-88.9479

G1X97.0001Y-89.3560

G1 Z0F20000

(Start Block)


G1X97.0001Y-136.1749
G1Z6F20000
(Plotting speed under)
G1 F4000


G1X96.7185Y-136.3084

G1X95.0914Y-136.9283

G1X93.3211Y-137.4471

G1X91.6322Y-137.7985

G1X89.9542Y-138.0072

G1X88.4092Y-138.0661

G1X86.7611Y-137.9820

G1X85.0821Y-137.7541

G1X83.2995Y-137.3634

G1X81.5428Y-136.8271

G1X79.9352Y-136.1944

G1X78.4921Y-135.4929

G1X77.0730Y-134.6524

G1X75.6464Y-133.6355

G1X74.2611Y-132.4764

G1X72.9380Y-131.1959

G1X71.6981Y-129.8146

G1X70.5623Y-128.3534

G1X69.5517Y-126.8329

G1X68.7018Y-125.3092

G1X67.9147Y-123.6157

G1X67.2275Y-121.8266

G1X66.6495Y-119.9709

G1X66.1900Y-118.0779

G1X65.8724Y-116.2763

G1X65.6774Y-114.4919

G1X65.6089Y-112.6360

G1X65.6636Y-110.8347

G1X65.8431Y-108.9067

G1X66.1432Y-106.9799

G1X66.5349Y-105.1820

G1X67.0274Y-103.4358

G1X67.6171Y-101.7661

G1X68.2806Y-100.2327

G1X69.1131Y-98.6175

G1X70.1178Y-96.9525

G1X71.2346Y-95.3531

G1X72.4458Y-93.8440

G1X73.6644Y-92.5203

G1X74.8652Y-91.3842

G1X76.1583Y-90.3315

G1X77.5669Y-89.3492

G1X79.1484Y-88.4078

G1X80.7979Y-87.5797

G1X82.3955Y-86.9127

G1X84.1049Y-86.3397

G1X85.7140Y-85.9349

G1X87.3419Y-85.6653

G1X89.0310Y-85.5246

G1X90.7541Y-85.5111

G1X92.4870Y-85.6225

G1X94.2054Y-85.8564

G1X95.8852Y-86.2103

G1X97.0001Y-86.5354

G1 Z0F20000

(Start Block)


G1X97.0001Y-135.7852
G1Z6F20000
(Plotting speed under)
G1 F4000


G1X96.4703Y-135.9219

G1X94.9846Y-136.1899

G1X93.3651Y-136.3622

G1X91.7321Y-136.4160

G1X90.1086Y-136.3498

G1X88.5178Y-136.1626

G1X87.0764Y-135.8759

G1X85.6000Y-135.4536

G1X84.1166Y-134.9018

G1X82.6452Y-134.2309

G1X81.1167Y-133.3990

G1X79.7310Y-132.5145

G1X78.4164Y-131.5421

G1X77.1919Y-130.4921

G1X76.1008Y-129.4039

G1X75.0117Y-128.1505

G1X73.9226Y-126.7090

G1X72.9140Y-125.1721

G1X72.0487Y-123.6537

G1X71.2810Y-122.0898

G1X70.6588Y-120.5939

G1X70.1486Y-119.1047

G1X69.7138Y-117.5027

G1X69.3679Y-115.8350

G1X69.1011Y-114.0208

G1X68.9394Y-112.1811

G1X68.8855Y-110.3409

G1X68.9421Y-108.5249

G1X69.0995Y-106.8544

G1X69.3640Y-105.2083

G1X69.7379Y-103.5440

G1X70.2453Y-101.7831

G1X70.8592Y-100.0464

G1X71.5712Y-98.3570

G1X72.3261Y-96.8259

G1X73.1539Y-95.3773

G1X74.0100Y-94.0830

G1X74.9829Y-92.8041

G1X76.0491Y-91.5707

G1X77.1948Y-90.3956

G1X78.4839Y-89.2249

G1X79.8307Y-88.1492

G1X81.1360Y-87.2372

G1X82.4638Y-86.4354

G1X83.8595Y-85.7275

G1X85.2531Y-85.1422

G1X86.7985Y-84.6132

G1X88.3853Y-84.1866

G1X89.9935Y-83.8667

G1X91.6033Y-83.6579

G1X93.1947Y-83.5643

G1X94.6524Y-83.5850

G1X96.1089Y-83.7156

G1X97.0001Y-83.8596

G1 Z0F20000

(Start Block)


G1X97.0001Y-134.1304
G1Z6F20000
(Plotting speed under)
G1 F4000


G1X96.9408Y-134.1395

G1X94.9122Y-134.2238

G1X92.8193Y-134.0909

G1X90.7088Y-133.7503

G1X88.6309Y-133.2111

G1X86.6356Y-132.4826

G1X84.8746Y-131.6309

G1X83.0661Y-130.5155

G1X81.3087Y-129.1899

G1X79.5689Y-127.6163

G1X78.0391Y-125.9672

G1X76.6806Y-124.2118

G1X75.5406Y-122.4107

G1X74.4920Y-120.3788

G1X73.5521Y-118.1176

G1X72.7916Y-115.7687

G1X72.2518Y-113.4882

G1X71.9274Y-111.3330

G1X71.7821Y-109.0677

G1X71.8154Y-106.7352

G1X72.0360Y-104.2847

G1X72.4209Y-101.9730

G1X72.9710Y-99.7487

G1X73.6632Y-97.7059

G1X74.5949Y-95.5743

G1X75.7121Y-93.4948

G1X77.0457Y-91.4294

G1X78.5194Y-89.5217

G1X80.0340Y-87.8888

G1 Z0F20000


G00 X0.0000 Y0.0000


