$H
G21
G17
G90
G1 Z0F20000
G1 F15000
(Start Layer)
(Start Block)

G1X52.5437Y-73.9285
G1Z6F20000
(Plotting speed under)
G1 F8000

G1X52.6221Y-73.8540
G1X51.8997Y-74.5337
G1X53.6676Y-72.9407
G1X52.8006Y-73.5909
G1X51.0160Y-75.3951
G1X50.6797Y-75.6411
G1X51.2932Y-74.9155
G1X52.6514Y-73.6652
G1X54.7724Y-72.1488
G1X53.8463Y-72.5770
G1X52.9746Y-73.2079
G1X50.0949Y-76.2839
G1X49.6409Y-76.6865
G1X49.3780Y-76.7718
G1X49.6469Y-76.2793
G1X50.3149Y-75.5259
G1X52.5500Y-73.5278
G1X54.1528Y-72.4157
G1X55.8816Y-71.5430
G1X54.3469Y-72.0159
G1X53.6462Y-72.3905
G1X53.0180Y-72.8386
G1X52.0456Y-73.7888
G1X49.1617Y-77.1897
G1X48.3755Y-77.8478
G1X48.1088Y-77.9498
G1X48.0158Y-77.9094
G1X48.0226Y-77.6909
G1X48.2696Y-77.2221
G1X49.1734Y-76.1316
G1X50.5827Y-74.8077
G1X52.4235Y-73.3159
G1X53.5789Y-72.5298
G1X54.7078Y-71.9153
G1X55.8979Y-71.4208
G1X57.0063Y-71.1064
G1X55.6675Y-71.3049
G1X54.6872Y-71.5662
G1X53.7870Y-71.9522
G1X52.9587Y-72.4809
G1X51.8616Y-73.5400
G1X49.3420Y-76.8342
G1X48.3520Y-77.9802
G1X47.2624Y-78.9039
G1X46.9073Y-79.0670
G1X46.6158Y-79.0416
G1X46.5522Y-78.7537
G1X46.7886Y-78.1524
G1X47.2605Y-77.4509
G1X47.9594Y-76.6385
G1X49.7180Y-75.0020
G1X52.1896Y-73.0901
G1X53.6448Y-72.1756
G1X55.1822Y-71.4638
G1X56.8209Y-70.9738
G1X58.1462Y-70.8190
G1X56.1556Y-70.9781
G1X54.9788Y-71.1856
G1X53.8553Y-71.5622
G1X52.8284Y-72.1355
G1X52.1042Y-72.7379
G1X51.4923Y-73.4270
G1X48.7425Y-77.3313
G1X47.4667Y-78.8638
G1X46.7476Y-79.5335
G1X46.0302Y-80.0213
G1X45.4750Y-80.2080
G1X45.1107Y-80.0777
G1X45.0491Y-79.6141
G1X45.3214Y-78.8756
G1X45.8529Y-78.0361
G1X46.6914Y-77.0327
G1X48.7971Y-75.0943
G1X51.8150Y-72.8685
G1X53.6653Y-71.7849
G1X55.5839Y-71.0393
G1X57.6659Y-70.6306
G1X58.7161Y-70.5798
G1X59.2923Y-70.6597
G1X59.0883Y-70.7595
G1X56.7761Y-70.7386
G1X55.1533Y-70.9020
G1X53.7613Y-71.2734
G1X52.5524Y-71.8806
G1X51.8005Y-72.4777
G1X51.0622Y-73.3200
G1X48.1462Y-77.8336
G1X46.5877Y-79.7623
G1X45.6400Y-80.6098
G1X44.8037Y-81.1224
G1X44.0800Y-81.3106
G1X43.7941Y-81.2585
G1X43.6113Y-81.1223
G1X43.4900Y-80.8353
G1X43.4858Y-80.5024
G1X43.7900Y-79.5481
G1X44.4302Y-78.4811
G1X45.4303Y-77.2615
G1X46.5656Y-76.1441
G1X47.9903Y-74.9545
G1X49.6370Y-73.7524
G1X51.7454Y-72.3627
G1X52.7262Y-71.7923
G1X53.8301Y-71.2737
G1X54.9719Y-70.8670
G1X56.0477Y-70.5988
G1X57.2519Y-70.4210
G1X58.5333Y-70.3630
G1X59.7492Y-70.4361
G1X60.4287Y-70.6066
G1X60.4617Y-70.6979
G1X60.1026Y-70.7898
G1X57.1176Y-70.6053
G1X55.1204Y-70.7236
G1X53.5412Y-71.0770
G1X52.1654Y-71.7108
G1X51.3450Y-72.3492
G1X50.6718Y-73.1201
G1X47.6119Y-78.2630
G1X46.7393Y-79.5001
G1X45.7878Y-80.6056
G1X44.7037Y-81.5653
G1X43.6241Y-82.1929
G1X43.0568Y-82.3615
G1X42.6121Y-82.3788
G1X42.3068Y-82.2905
G1X42.0491Y-82.0712
G1X41.9076Y-81.6932
G1X41.9027Y-81.2576
G1X42.2657Y-80.0641
G1X43.0486Y-78.7296
G1X44.2152Y-77.3002
G1X45.5346Y-76.0181
G1X47.1215Y-74.7343
G1X49.0721Y-73.3829
G1X51.5629Y-71.8450
G1X52.8523Y-71.1817
G1X54.0232Y-70.7182
G1X55.2615Y-70.3756
G1X56.5285Y-70.1707
G1X58.0275Y-70.0989
G1X59.6316Y-70.1995
G1X61.1302Y-70.4780
G1X61.5358Y-70.6390
G1X61.6530Y-70.7739
G1X61.5601Y-70.9018
G1X61.2378Y-70.9418
G1X57.8144Y-70.5753
G1X55.3941Y-70.5904
G1X53.3664Y-70.9319
G1X52.5684Y-71.1968
G1X51.7478Y-71.5948
G1X50.8201Y-72.2944
G1X50.1441Y-73.1019
G1X49.4888Y-74.1712
G1X47.0197Y-78.8108
G1X46.0078Y-80.2953
G1X44.9998Y-81.4690
G1X43.6916Y-82.5920
G1X42.3941Y-83.2753
G1X41.7772Y-83.4250
G1X41.2949Y-83.4322
G1X40.8555Y-83.3077
G1X40.5181Y-83.0263
G1X40.3449Y-82.6501
G1X40.2986Y-82.0622
G1X40.4191Y-81.3651
G1X40.6575Y-80.6725
G1X41.5442Y-79.0487
G1X42.8789Y-77.3513
G1X44.3848Y-75.8716
G1X46.1576Y-74.4591
G1X48.2381Y-73.0733
G1X50.9922Y-71.4674
G1X52.4839Y-70.7331
G1X53.7637Y-70.2619
G1X55.1890Y-69.9271
G1X56.6345Y-69.7747
G1X58.3977Y-69.8103
G1X60.1546Y-70.0435
G1X62.0433Y-70.5077
G1X62.5917Y-70.7367
G1X62.8197Y-70.9253
G1X62.8112Y-71.1086
G1X62.7126Y-71.1723
G1X62.3624Y-71.2065
G1X58.3369Y-70.6381
G1X56.8498Y-70.5549
G1X55.3830Y-70.5780
G1X54.2415Y-70.6837
G1X53.0835Y-70.8965
G1X52.0638Y-71.2095
G1X51.3046Y-71.5567
G1X50.3266Y-72.2481
G1X49.4903Y-73.2658
G1X46.4356Y-79.3972
G1X45.3568Y-81.0350
G1X44.1547Y-82.4270
G1X42.6773Y-83.6346
G1X41.8581Y-84.0874
G1X41.1635Y-84.3469
G1X40.4426Y-84.4761
G1X39.8107Y-84.4323
G1X39.3167Y-84.2357
G1X38.9555Y-83.8841
G1X38.7511Y-83.4040
G1X38.7074Y-82.6870
G1X38.8503Y-81.8700
G1X39.1236Y-81.0576
G1X39.5407Y-80.1629
G1X40.1165Y-79.1833
G1X41.5898Y-77.2556
G1X43.2675Y-75.5830
G1X45.2086Y-74.0513
G1X47.4313Y-72.6267
G1X50.3978Y-71.0130
G1X52.1866Y-70.1682
G1X53.5821Y-69.7095
G1X55.0911Y-69.4245
G1X56.7100Y-69.3452
G1X58.8402Y-69.5381
G1X61.0285Y-70.0059
G1X63.1939Y-70.7038
G1X63.7880Y-71.0082
G1X64.0237Y-71.2568
G1X63.9913Y-71.4819
G1X63.8669Y-71.5603
G1X63.5297Y-71.5745
G1X59.0265Y-70.8065
G1X57.1805Y-70.6588
G1X55.5566Y-70.6463
G1X54.1280Y-70.7438
G1X52.9186Y-70.9282
G1X51.7410Y-71.2370
G1X50.7996Y-71.6300
G1X49.7768Y-72.3219
G1X48.9614Y-73.2837
G1X48.2511Y-74.6794
G1X46.6620Y-78.4532
G1X45.8681Y-80.0226
G1X44.6641Y-81.8872
G1X43.3983Y-83.3364
G1X42.5589Y-84.0730
G1X41.6413Y-84.7038
G1X40.7365Y-85.1554
G1X39.9363Y-85.4081
G1X39.1082Y-85.5046
G1X38.3841Y-85.4056
G1X37.8798Y-85.1768
G1X37.4252Y-84.7338
G1X37.1860Y-84.1656
G1X37.1283Y-83.3199
G1X37.2724Y-82.4282
G1X37.6259Y-81.3427
G1X38.1610Y-80.1936
G1X38.8577Y-79.0128
G1X39.7105Y-77.8137
G1X40.6396Y-76.7022
G1X42.5040Y-74.8839
G1X44.6716Y-73.2469
G1X47.1395Y-71.7832
G1X50.6534Y-70.0484
G1X52.2941Y-69.3912
G1X53.8971Y-68.9889
G1X55.5738Y-68.8367
G1X57.2485Y-68.9242
G1X59.4390Y-69.3271
G1X62.1910Y-70.1454
G1X64.4617Y-71.0528
G1X64.9863Y-71.3765
G1X65.2275Y-71.6828
G1X65.1698Y-71.9675
G1X64.6850Y-72.0379
G1X61.6261Y-71.3798
G1X59.8892Y-71.0866
G1X57.8494Y-70.8726
G1X55.8620Y-70.8089
G1X54.1086Y-70.8889
G1X52.6814Y-71.0754
G1X51.4901Y-71.3478
G1X50.3159Y-71.7837
G1X49.1838Y-72.5127
G1X48.7487Y-72.9524
G1X48.4074Y-73.4361
G1X47.8074Y-74.6143
G1X46.2946Y-78.6114
G1X45.3772Y-80.5855
G1X44.1706Y-82.5333
G1X42.7122Y-84.2224
G1X41.7454Y-85.0517
G1X40.7928Y-85.6822
G1X39.7870Y-86.1627
G1X38.8111Y-86.4426
G1X37.8788Y-86.5168
G1X37.0650Y-86.3790
G1X36.4201Y-86.0575
G1X35.9284Y-85.5625
G1X35.6310Y-84.8154
G1X35.5726Y-83.9702
G1X35.7324Y-82.9068
G1X36.1009Y-81.7269
G1X36.7009Y-80.3813
G1X37.4768Y-79.0129
G1X38.3920Y-77.6710
G1X39.4917Y-76.3065
G1X41.5318Y-74.2736
G1X43.8052Y-72.5605
G1X46.3805Y-71.0912
G1X49.9766Y-69.4413
G1X51.9010Y-68.7246
G1X53.5007Y-68.3489
G1X55.3431Y-68.2427
G1X57.1867Y-68.4327
G1X58.6114Y-68.7454
G1X60.0613Y-69.1748
G1X63.5853Y-70.4968
G1X65.7915Y-71.5420
G1X66.2900Y-71.9439
G1X66.4390Y-72.2802
G1X66.2929Y-72.5557
G1X65.8721Y-72.5841
G1X62.8878Y-71.8650
G1X60.8272Y-71.4655
G1X58.5999Y-71.1863
G1X56.3416Y-71.0685
G1X54.4018Y-71.1111
G1X52.6515Y-71.2895
G1X51.1223Y-71.5997
G1X49.8544Y-72.0358
G1X49.1181Y-72.4214
G1X48.5645Y-72.8294
G1X48.1431Y-73.2700
G1X47.7350Y-73.8591
G1X47.2533Y-74.8928
G1X45.8166Y-79.1090
G1X44.9311Y-81.1455
G1X44.2909Y-82.3068
G1X43.6132Y-83.3343
G1X42.8284Y-84.3237
G1X42.0291Y-85.1556
G1X40.9971Y-86.0196
G1X39.9515Y-86.6853
G1X38.8381Y-87.1866
G1X37.7718Y-87.4651
G1X36.7480Y-87.5243
G1X35.8414Y-87.3596
G1X35.1130Y-87.0028
G1X34.5128Y-86.4171
G1X34.1663Y-85.6751
G1X34.0482Y-84.8477
G1X34.1521Y-83.7203
G1X34.4568Y-82.5326
G1X34.9823Y-81.1648
G1X35.7160Y-79.6909
G1X36.6189Y-78.1907
G1X37.6174Y-76.7766
G1X38.5658Y-75.6067
G1X39.6158Y-74.4724
G1X40.7476Y-73.4126
G1X41.8751Y-72.5025
G1X44.2629Y-70.9682
G1X47.3191Y-69.5326
G1X49.9339Y-68.5082
G1X52.2875Y-67.7619
G1X53.2083Y-67.6159
G1X54.2996Y-67.5531
G1X56.1923Y-67.7107
G1X57.3920Y-67.9607
G1X58.9817Y-68.4365
G1X62.8657Y-70.0132
G1X66.6240Y-71.8113
G1X67.3094Y-72.2996
G1X67.6215Y-72.8127
G1X67.6131Y-73.0229
G1X67.5055Y-73.1785
G1X67.1072Y-73.2113
G1X63.6157Y-72.3061
G1X61.5908Y-71.8932
G1X59.1778Y-71.5676
G1X56.7476Y-71.4179
G1X54.6142Y-71.4394
G1X52.5373Y-71.6212
G1X50.7707Y-71.9500
G1X49.3950Y-72.3956
G1X48.6740Y-72.7450
G1X48.0988Y-73.1393
G1X47.5977Y-73.6201
G1X47.1924Y-74.1759
G1X46.5527Y-75.7532
G1X45.3489Y-79.6987
G1X44.4517Y-81.8705
G1X43.7578Y-83.1562
G1X43.0104Y-84.2765
G1X42.1716Y-85.3105
G1X41.2833Y-86.1996
G1X40.1600Y-87.0900
G1X39.0340Y-87.7580
G1X37.8934Y-88.2275
G1X36.7173Y-88.4968
G1X35.6202Y-88.5280
G1X34.6162Y-88.3205
G1X33.7337Y-87.8552
G1X33.1079Y-87.2066
G1X32.7163Y-86.4198
G1X32.5721Y-85.5347
G1X32.6501Y-84.3579
G1X32.9494Y-83.0727
G1X33.4820Y-81.5851
G1X34.2897Y-79.8657
G1X35.2467Y-78.1825
G1X36.3301Y-76.5506
G1X37.3929Y-75.1574
G1X38.4869Y-73.9016
G1X39.6579Y-72.7379
G1X40.8179Y-71.7490
G1X41.9793Y-70.9091
G1X43.2920Y-70.1119
G1X44.7745Y-69.3734
G1X46.2554Y-68.7633
G1X50.4631Y-67.3085
G1X51.9402Y-66.9347
G1X53.9963Y-66.7751
G1X56.0185Y-67.0365
G1X57.9312Y-67.5940
G1X59.8531Y-68.3698
G1X66.1979Y-71.4698
G1X67.4074Y-72.1127
G1X68.2186Y-72.6438
G1X68.6816Y-73.1422
G1X68.8109Y-73.5683
G1X68.7836Y-73.7510
G1X68.6553Y-73.8792
G1X68.2548Y-73.8991
G1X64.7807Y-72.9109
G1X62.5585Y-72.4220
G1X59.9286Y-72.0383
G1X57.3871Y-71.8559
G1X54.9485Y-71.8531
G1X52.6362Y-72.0255
G1X50.6398Y-72.3560
G1X48.9698Y-72.8518
G1X48.1658Y-73.2324
G1X47.5609Y-73.6284
G1X47.0583Y-74.0986
G1X46.7044Y-74.6062
G1X46.1349Y-75.9498
G1X44.8404Y-80.5904
G1X43.9562Y-82.7583
G1X43.2828Y-84.0076
G1X42.4318Y-85.2703
G1X41.5871Y-86.2827
G1X40.6313Y-87.2130
G1X39.4179Y-88.1337
G1X38.1054Y-88.8601
G1X36.7670Y-89.3379
G1X35.5649Y-89.5434
G1X34.3747Y-89.5134
G1X33.3074Y-89.2307
G1X32.4049Y-88.7014
G1X31.7126Y-87.9472
G1X31.3044Y-87.1218
G1X31.1362Y-86.0316
G1X31.2118Y-84.8462
G1X31.5304Y-83.4533
G1X32.1092Y-81.7941
G1X32.9246Y-79.9927
G1X33.9475Y-78.1038
G1X35.0978Y-76.2681
G1X36.2342Y-74.6801
G1X37.3980Y-73.2502
G1X38.5974Y-71.9731
G1X39.7978Y-70.8784
G1X41.0338Y-69.9344
G1X42.3308Y-69.1193
G1X43.7825Y-68.3911
G1X45.1890Y-67.8330
G1X49.8744Y-66.4048
G1X51.7002Y-66.0230
G1X52.7120Y-65.9118
G1X53.6348Y-65.9137
G1X55.6649Y-66.2487
G1X57.5940Y-66.9030
G1X59.5351Y-67.7965
G1X67.8870Y-72.2923
G1X68.8539Y-72.8657
G1X69.4523Y-73.3238
G1X69.7987Y-73.7347
G1X69.9740Y-74.2662
G1X69.8830Y-74.5945
G1X69.5546Y-74.6611
G1X66.1116Y-73.6262
G1X63.6509Y-73.0392
G1X60.7663Y-72.5869
G1X57.9940Y-72.3693
G1X55.3153Y-72.3507
G1X52.8482Y-72.5120
G1X50.6155Y-72.8470
G1X48.7647Y-73.3435
G1X47.8747Y-73.7195
G1X47.1889Y-74.1257
G1X46.6703Y-74.5817
G1X46.2014Y-75.2189
G1X45.7299Y-76.3065
G1X44.4590Y-81.3151
G1X43.5553Y-83.5923
G1X42.8205Y-84.9463
G1X41.9473Y-86.2271
G1X41.0198Y-87.3085
G1X39.9987Y-88.2674
G1X38.7172Y-89.1950
G1X37.3547Y-89.9094
G1X35.9386Y-90.3834
G1X34.5233Y-90.5845
G1X33.2285Y-90.5021
G1X32.0957Y-90.1579
G1X31.1233Y-89.5476
G1X30.3781Y-88.7024
G1X29.9351Y-87.7427
G1X29.7440Y-86.5450
G1X29.8206Y-85.3082
G1X30.1360Y-83.8887
G1X30.7130Y-82.1617
G1X31.6160Y-80.0813
G1X32.7106Y-77.9704
G1X33.9558Y-75.8745
G1X35.2087Y-74.0187
G1X36.4464Y-72.4014
G1X37.7302Y-70.9481
G1X38.9532Y-69.7675
G1X40.2176Y-68.7510
G1X41.4907Y-67.9219
G1X42.9215Y-67.1948
G1X44.3480Y-66.6529
G1X45.7883Y-66.2273
G1X48.4498Y-65.6009
G1X51.7780Y-64.9736
G1X52.5706Y-64.9315
G1X53.4818Y-64.9919
G1X55.4508Y-65.4177
G1X57.2778Y-66.1387
G1X59.1262Y-67.0994
G1X65.0090Y-70.6384
G1X69.5598Y-73.2005
G1X70.3318Y-73.7419
G1X70.7620Y-74.1721
G1X71.0642Y-74.7113
G1X71.1290Y-75.1813
G1X71.0802Y-75.3502
G1X70.9501Y-75.4449
G1X70.5862Y-75.4335
G1X67.6065Y-74.4581
G1X64.8976Y-73.7537
G1X62.0040Y-73.2513
G1X58.9024Y-72.9670
G1X55.9355Y-72.9205
G1X53.0643Y-73.0875
G1X50.4416Y-73.4650
G1X48.3954Y-74.0071
G1X47.4612Y-74.3914
G1X46.7880Y-74.7930
G1X46.1836Y-75.3164
G1X45.7211Y-75.9401
G1X45.3214Y-77.0439
G1X44.2331Y-81.7436
G1X43.2605Y-84.3500
G1X42.4968Y-85.7775
G1X41.5894Y-87.1127
G1X40.5689Y-88.2903
G1X39.4279Y-89.3297
G1X38.0699Y-90.2709
G1X36.6107Y-90.9911
G1X35.0858Y-91.4580
G1X33.5907Y-91.6313
G1X32.2364Y-91.5170
G1X30.9661Y-91.1057
G1X29.9369Y-90.4397
G1X29.1420Y-89.5312
G1X28.6285Y-88.4276
G1X28.3973Y-87.2066
G1X28.4548Y-85.9190
G1X28.7650Y-84.3910
G1X29.3313Y-82.6071
G1X30.2635Y-80.3479
G1X31.3836Y-78.0659
G1X32.6834Y-75.7259
G1X33.9847Y-73.6408
G1X35.3083Y-71.7518
G1X36.6509Y-70.0818
G1X37.9547Y-68.6987
G1X39.2483Y-67.5592
G1X40.5820Y-66.6208
G1X41.9968Y-65.8625
G1X43.4456Y-65.3124
G1X45.7443Y-64.7593
G1X51.2718Y-63.8954
G1X53.2016Y-63.9825
G1X54.1871Y-64.1756
G1X55.1392Y-64.4754
G1X56.7020Y-65.1574
G1X58.2083Y-66.0021
G1X65.1059Y-70.5671
G1X70.8687Y-73.9583
G1X71.5205Y-74.4708
G1X71.9384Y-74.9448
G1X72.1795Y-75.4469
G1X72.2633Y-75.9633
G1X72.1232Y-76.2671
G1X71.8598Y-76.2926
G1X68.0814Y-75.0331
G1X65.5943Y-74.4042
G1X62.6391Y-73.9002
G1X59.5574Y-73.6187
G1X56.4127Y-73.5655
G1X53.2995Y-73.7437
G1X50.4887Y-74.1346
G1X48.2309Y-74.7017
G1X47.3698Y-75.0365
G1X46.4903Y-75.5137
G1X45.9383Y-75.9504
G1X45.5011Y-76.4920
G1X45.1995Y-77.1351
G1X44.8868Y-78.1245
G1X43.9963Y-82.4240
G1X43.5001Y-83.9716
G1X42.9878Y-85.2138
G1X42.1720Y-86.7417
G1X41.2468Y-88.0807
G1X40.1705Y-89.3034
G1X38.9508Y-90.3824
G1X37.4321Y-91.3903
G1X35.9059Y-92.0940
G1X34.3376Y-92.5352
G1X32.7659Y-92.6907
G1X31.2890Y-92.5441
G1X29.9378Y-92.0900
G1X28.8430Y-91.3809
G1X27.9849Y-90.4174
G1X27.4132Y-89.2779
G1X27.1158Y-88.0032
G1X27.1288Y-86.6455
G1X27.4164Y-84.9743
G1X27.9811Y-83.0906
G1X28.9218Y-80.6885
G1X30.1438Y-78.0697
G1X31.5276Y-75.4280
G1X32.9704Y-72.9549
G1X34.3308Y-70.8639
G1X35.7470Y-68.9497
G1X37.1399Y-67.3506
G1X38.4963Y-66.0650
G1X39.8429Y-65.0610
G1X41.2596Y-64.2701
G1X42.7782Y-63.7045
G1X43.8668Y-63.4331
G1X45.4026Y-63.2098
G1X50.6121Y-62.7551
G1X51.9603Y-62.7770
G1X52.9830Y-62.8857
G1X53.8664Y-63.0910
G1X54.9042Y-63.4753
G1X56.4503Y-64.2382
G1X58.2729Y-65.4013
G1X63.6312Y-69.3884
G1X65.9854Y-71.0100
G1X71.9298Y-74.5800
G1X72.6224Y-75.1492
G1X73.0167Y-75.6418
G1X73.3122Y-76.3494
G1X73.3762Y-76.9449
G1X73.2422Y-77.1450
G1X72.8307Y-77.1154
G1X69.3560Y-75.8892
G1X66.1825Y-75.0766
G1X63.3684Y-74.6116
G1X60.6062Y-74.3532
G1X57.3296Y-74.2716
G1X53.9860Y-74.4340
G1X50.9381Y-74.8214
G1X48.3790Y-75.4052
G1X47.1935Y-75.8365
G1X46.3681Y-76.2531
G1X45.7444Y-76.7244
G1X45.2237Y-77.3638
G1X44.7052Y-78.5595
G1X44.0722Y-82.0836
G1X43.6714Y-83.6817
G1X43.2270Y-85.0528
G1X42.6577Y-86.3677
G1X41.8073Y-87.9039
G1X40.8386Y-89.2388
G1X39.7257Y-90.4489
G1X38.4066Y-91.5547
G1X36.8669Y-92.5190
G1X35.1653Y-93.2464
G1X33.5432Y-93.6472
G1X31.9016Y-93.7651
G1X30.3502Y-93.5771
G1X28.9182Y-93.0698
G1X27.7554Y-92.2999
G1X26.8037Y-91.2173
G1X26.1877Y-89.9684
G1X25.8999Y-88.7439
G1X25.8783Y-87.1203
G1X26.1512Y-85.3811
G1X26.7468Y-83.3632
G1X27.6845Y-80.8808
G1X29.0607Y-77.8109
G1X30.5472Y-74.8337
G1X32.1709Y-71.8789
G1X33.6598Y-69.4527
G1X35.0975Y-67.3840
G1X36.5321Y-65.6391
G1X37.8495Y-64.3203
G1X39.2886Y-63.2019
G1X40.6811Y-62.4162
G1X42.1886Y-61.8704
G1X43.3695Y-61.6274
G1X44.9726Y-61.4892
G1X51.6414Y-61.5448
G1X53.1205Y-61.7820
G1X54.9051Y-62.5006
G1X56.2064Y-63.2383
G1X57.8582Y-64.4024
G1X63.3300Y-68.9090
G1X65.8665Y-70.8119
G1X68.0329Y-72.2405
G1X72.0270Y-74.5750
G1X73.1550Y-75.3388
G1X73.7458Y-75.8902
G1X74.1684Y-76.5085
G1X74.4060Y-77.1053
G1X74.4806Y-77.7956
G1X74.3491Y-78.0288
G1X73.9841Y-78.0212
G1X70.2238Y-76.6718
G1X66.9801Y-75.8476
G1X64.3402Y-75.4066
G1X61.2329Y-75.1177
G1X57.8833Y-75.0471
G1X54.4125Y-75.2198
G1X51.0733Y-75.6453
G1X48.4529Y-76.2370
G1X47.2424Y-76.6458
G1X46.3176Y-77.0941
G1X45.5542Y-77.6514
G1X44.9897Y-78.3156
G1X44.5858Y-79.3030
G1X43.9624Y-82.8261
G1X43.5136Y-84.6834
G1X43.0978Y-85.9599
G1X42.4657Y-87.4185
G1X41.6264Y-88.9083
G1X40.5386Y-90.3739
G1X39.3456Y-91.6171
G1X37.9799Y-92.7104
G1X36.4013Y-93.6507
G1X34.6215Y-94.3716
G1X32.7918Y-94.7774
G1X31.0418Y-94.8525
G1X29.4267Y-94.6160
G1X27.9113Y-94.0470
G1X26.6827Y-93.2075
G1X25.7406Y-92.1435
G1X25.0913Y-90.8945
G1X24.7263Y-89.4712
G1X24.6447Y-87.7957
G1X24.8710Y-86.0623
G1X25.4225Y-84.0270
G1X26.3367Y-81.4398
G1X27.8190Y-77.9439
G1X29.4161Y-74.5432
G1X31.2157Y-71.0138
G1X32.8618Y-68.1095
G1X34.2349Y-65.9632
G1X35.7492Y-63.9466
G1X37.1287Y-62.4573
G1X38.6014Y-61.2321
G1X39.9951Y-60.4105
G1X41.5611Y-59.8350
G1X42.7905Y-59.6223
G1X44.3161Y-59.5634
G1X48.9591Y-60.0614
G1X51.3333Y-60.1729
G1X53.0091Y-60.5823
G1X54.7683Y-61.3724
G1X55.9509Y-62.1385
G1X57.4736Y-63.3133
G1X63.0899Y-68.4196
G1X65.8618Y-70.6679
G1X68.5421Y-72.5152
G1X72.5939Y-74.8958
G1X74.1411Y-75.9236
G1X74.7760Y-76.5362
G1X75.1813Y-77.1209
G1X75.4875Y-78.0624
G1X75.5472Y-78.8123
G1X75.3884Y-78.9564
G1X75.0507Y-78.9082
G1X71.2216Y-77.5178
G1X68.2568Y-76.7544
G1X65.4300Y-76.2695
G1X62.3744Y-75.9662
G1X58.7168Y-75.8763
G1X55.1598Y-76.0459
G1X51.6242Y-76.4757
G1X48.6378Y-77.1217
G1X47.3246Y-77.5546
G1X46.2873Y-78.0463
G1X45.5373Y-78.5568
G1X44.9680Y-79.1985
G1X44.6469Y-79.8997
G1X44.3449Y-80.9957
G1X43.9686Y-83.3786
G1X43.4390Y-85.7122
G1X42.9495Y-87.1403
G1X42.3371Y-88.5308
G1X41.4113Y-90.1073
G1X40.2811Y-91.5740
G1X39.0599Y-92.7905
G1X37.6211Y-93.8947
G1X35.9446Y-94.8372
G1X34.0601Y-95.5452
G1X32.1524Y-95.9200
G1X30.2939Y-95.9598
G1X28.5822Y-95.6766
G1X27.0262Y-95.0776
G1X25.7023Y-94.1730
G1X24.7043Y-93.0578
G1X23.9661Y-91.6505
G1X23.5645Y-90.0992
G1X23.4548Y-88.4833
G1X23.6553Y-86.6988
G1X24.1991Y-84.5054
G1X24.9876Y-82.1250
G1X26.5135Y-78.3050
G1X28.2013Y-74.4693
G1X30.0936Y-70.4344
G1X31.9220Y-66.8810
G1X33.3949Y-64.3569
G1X34.8651Y-62.1949
G1X36.3273Y-60.4682
G1X37.7854Y-59.1464
G1X39.2704Y-58.2120
G1X40.8245Y-57.6160
G1X41.8182Y-57.4353
G1X42.9123Y-57.3698
G1X44.7938Y-57.5663
G1X48.1260Y-58.3176
G1X50.4042Y-58.6339
G1X51.4901Y-58.8747
G1X53.1514Y-59.3931
G1X54.4170Y-60.0288
G1X55.5868Y-60.8520
G1X57.0772Y-62.0940
G1X62.7540Y-67.7767
G1X65.7404Y-70.4030
G1X68.7229Y-72.5660
G1X74.0445Y-75.7273
G1X75.2896Y-76.6371
G1X75.8268Y-77.1974
G1X76.2065Y-77.8621
G1X76.5562Y-78.8672
G1X76.6278Y-79.6855
G1X76.4396Y-79.8661
G1X76.0911Y-79.8176
G1X72.7382Y-78.5658
G1X69.3116Y-77.6547
G1X66.2515Y-77.1385
G1X63.2162Y-76.8509
G1X59.5649Y-76.7609
G1X55.7432Y-76.9477
G1X52.1953Y-77.3783
G1X49.0141Y-78.0418
G1X47.5308Y-78.5221
G1X46.3936Y-79.0281
G1X45.6354Y-79.5369
G1X45.0303Y-80.2120
G1X44.6582Y-80.9112
G1X44.3971Y-81.6658
G1X44.0900Y-83.7510
G1X43.4756Y-86.6547
G1X42.9182Y-88.2703
G1X42.2890Y-89.6719
G1X41.2959Y-91.3066
G1X40.1690Y-92.7283
G1X38.8302Y-94.0132
G1X37.3489Y-95.1018
G1X35.5249Y-96.0672
G1X33.6021Y-96.7341
G1X31.6234Y-97.0814
G1X29.6570Y-97.0917
G1X27.8464Y-96.7704
G1X26.2176Y-96.1376
G1X24.7715Y-95.1587
G1X24.1841Y-94.5832
G1X23.6873Y-93.9534
G1X22.9114Y-92.5137
G1X22.4452Y-90.7807
G1X22.3301Y-88.9870
G1X22.5570Y-86.9617
G1X23.0960Y-84.6586
G1X23.8421Y-82.3714
G1X25.3618Y-78.3775
G1X27.4192Y-73.4286
G1X29.1889Y-69.3639
G1X31.1219Y-65.2376
G1X32.6677Y-62.3471
G1X34.0201Y-60.1821
G1X35.5129Y-58.2605
G1X36.9290Y-56.8764
G1X38.5458Y-55.7930
G1X39.3427Y-55.4276
G1X40.1188Y-55.1821
G1X41.1959Y-54.9961
G1X42.2844Y-54.9547
G1X43.2955Y-55.0664
G1X44.6057Y-55.3473
G1X48.3579Y-56.5910
G1X52.4064Y-57.7347
G1X53.2528Y-58.0950
G1X54.1220Y-58.6179
G1X55.5257Y-59.6921
G1X56.6364Y-60.7011
G1X58.3793Y-62.5341
G1X62.4452Y-67.0737
G1X64.2326Y-68.8513
G1X65.8314Y-70.2713
G1X67.5111Y-71.6037
G1X69.2829Y-72.8435
G1X71.0093Y-73.9306
G1X74.5786Y-75.9821
G1X76.2410Y-77.1567
G1X76.9074Y-77.9407
G1X77.3759Y-78.8206
G1X77.6066Y-79.6988
G1X77.6775Y-80.6239
G1X77.5103Y-80.7819
G1X77.2236Y-80.7535
G1X73.5036Y-79.4162
G1X70.3971Y-78.6095
G1X67.4365Y-78.0984
G1X64.0565Y-77.7823
G1X60.4935Y-77.7024
G1X56.6318Y-77.8835
G1X52.9779Y-78.3161
G1X49.7533Y-78.9552
G1X48.0610Y-79.4569
G1X46.7917Y-79.9804
G1X45.7765Y-80.6388
G1X45.0916Y-81.3656
G1X44.7860Y-81.8814
G1X44.5753Y-82.5055
G1X43.9336Y-86.2070
G1X43.6207Y-87.5148
G1X43.0118Y-89.3383
G1X42.3259Y-90.8299
G1X41.2430Y-92.5699
G1X40.0778Y-93.9827
G1X38.5743Y-95.3575
G1X36.9893Y-96.4426
G1X35.0767Y-97.3709
G1X33.0508Y-97.9918
G1X30.9678Y-98.2837
G1X28.8326Y-98.2194
G1X26.9210Y-97.8107
G1X25.2417Y-97.0943
G1X24.4590Y-96.6038
G1X23.7422Y-96.0312
G1X22.6382Y-94.7603
G1X22.1712Y-93.9856
G1X21.8336Y-93.2348
G1X21.5222Y-92.2396
G1X21.3336Y-91.2723
G1X21.2424Y-90.2294
G1X21.2515Y-89.1755
G1X21.5465Y-86.8097
G1X22.1455Y-84.4034
G1X23.4382Y-80.5976
G1X27.2478Y-70.7405
G1X29.4417Y-65.3720
G1X30.8536Y-62.2260
G1X32.2222Y-59.5085
G1X33.5774Y-57.2899
G1X34.9497Y-55.4909
G1X36.3962Y-54.0984
G1X37.9578Y-53.0803
G1X39.4895Y-52.5320
G1X40.5587Y-52.3612
G1X41.5647Y-52.3528
G1X42.6818Y-52.5082
G1X43.9716Y-52.8319
G1X45.3036Y-53.3595
G1X49.1784Y-55.1449
G1X52.1093Y-56.1093
G1X53.0746Y-56.6268
G1X54.1617Y-57.3585
G1X55.3412Y-58.3207
G1X56.4186Y-59.4050
G1X57.9072Y-61.0912
G1X62.4311Y-66.6084
G1X64.1026Y-68.3990
G1X65.8830Y-70.0740
G1X67.6198Y-71.5087
G1X69.7011Y-73.0079
G1X72.2634Y-74.5972
G1X75.9691Y-76.7303
G1X77.3237Y-77.7912
G1X77.9036Y-78.4763
G1X78.2342Y-79.0984
G1X78.6797Y-80.8185
G1X78.7338Y-81.5091
G1X78.5944Y-81.6804
G1X78.0856Y-81.6151
G1X74.3907Y-80.3168
G1X71.0033Y-79.4924
G1X68.0893Y-79.0394
G1X64.9306Y-78.7615
G1X61.2008Y-78.6984
G1X57.4483Y-78.8870
G1X53.6136Y-79.3411
G1X50.2370Y-80.0159
G1X48.5084Y-80.5135
G1X47.1532Y-81.0763
G1X46.0741Y-81.7260
G1X45.3949Y-82.3960
G1X45.0556Y-82.9868
G1X44.8066Y-83.7510
G1X44.4728Y-85.1668
G1X44.0855Y-87.4961
G1X43.6041Y-89.2525
G1X43.0385Y-90.8168
G1X42.3643Y-92.1721
G1X41.2641Y-93.8853
G1X40.0151Y-95.3306
G1X38.5031Y-96.6595
G1X36.8178Y-97.7549
G1X34.7205Y-98.7016
G1X32.6353Y-99.2647
G1X30.5217Y-99.5042
G1X28.3220Y-99.3960
G1X26.3081Y-98.9453
G1X25.3671Y-98.5925
G1X24.4559Y-98.1409
G1X22.9669Y-97.0977
G1X22.2626Y-96.3913
G1X21.6969Y-95.6781
G1X21.1631Y-94.7995
G1X20.7710Y-93.9015
G1X20.4590Y-92.8808
G1X20.2553Y-91.7732
G1X20.1690Y-90.5820
G1X20.1914Y-89.3385
G1X20.5490Y-86.7375
G1X21.1520Y-84.4282
G1X22.3796Y-80.6188
G1X28.0558Y-64.9553
G1X29.5970Y-60.9955
G1X30.7344Y-58.3457
G1X32.0015Y-55.8583
G1X33.1888Y-53.9351
G1X34.4882Y-52.3223
G1X35.7875Y-51.1261
G1X37.1684Y-50.2719
G1X38.6937Y-49.7372
G1X39.7636Y-49.5778
G1X40.9594Y-49.6079
G1X42.4477Y-49.8738
G1X43.5886Y-50.2591
G1X45.7256Y-51.2785
G1X48.5058Y-52.9271
G1X51.4585Y-54.2790
G1X53.0348Y-55.1776
G1X54.2096Y-55.9961
G1X55.4540Y-57.1601
G1X57.1292Y-59.0949
G1X60.9660Y-64.2669
G1X62.8518Y-66.6212
G1X64.3300Y-68.2565
G1X65.9023Y-69.8033
G1X67.8084Y-71.4326
G1X69.8502Y-72.9442
G1X72.2707Y-74.4919
G1X76.5901Y-76.9474
G1X77.6728Y-77.7035
G1X78.3400Y-78.2842
G1X78.8791Y-79.0017
G1X79.3033Y-79.9899
G1X79.6838Y-81.3292
G1X79.7596Y-82.4043
G1X79.6002Y-82.5816
G1X79.2170Y-82.5612
G1X75.9370Y-81.4488
G1X72.3123Y-80.5532
G1X68.9913Y-80.0468
G1X65.7702Y-79.7919
G1X62.0138Y-79.7429
G1X58.1439Y-79.9576
G1X54.3680Y-80.4144
G1X50.9590Y-81.0853
G1X49.1682Y-81.5939
G1X47.6017Y-82.2158
G1X46.5128Y-82.8526
G1X45.8118Y-83.5355
G1X45.3470Y-84.2981
G1X44.9345Y-85.3672
G1X44.4710Y-88.0856
G1X43.7261Y-90.8476
G1X43.1902Y-92.1845
G1X42.4024Y-93.6997
G1X41.2710Y-95.3625
G1X39.9088Y-96.8426
G1X38.3695Y-98.1159
G1X36.6960Y-99.1311
G1X34.6437Y-100.0054
G1X32.3803Y-100.5623
G1X30.1329Y-100.7599
G1X27.7917Y-100.5884
G1X25.6156Y-100.0526
G1X23.6884Y-99.1825
G1X22.8414Y-98.6419
G1X22.1464Y-98.0858
G1X21.4382Y-97.3915
G1X20.8050Y-96.6160
G1X20.0946Y-95.4112
G1X19.5546Y-94.0123
G1X19.2401Y-92.5516
G1X19.1200Y-90.8567
G1X19.1930Y-89.2238
G1X19.4496Y-87.4300
G1X19.9061Y-85.4459
G1X20.6586Y-82.7789
G1X27.9473Y-60.7458
G1X28.9076Y-58.0037
G1X29.7119Y-55.9749
G1X31.0393Y-53.0753
G1X32.3304Y-50.9200
G1X33.7766Y-49.1306
G1X34.4765Y-48.4803
G1X35.2382Y-47.9105
G1X36.7552Y-47.1228
G1X37.5939Y-46.8594
G1X38.3819Y-46.7203
G1X39.2920Y-46.6721
G1X40.2108Y-46.7262
G1X41.1069Y-46.8692
G1X41.9752Y-47.1104
G1X43.4203Y-47.6914
G1X44.8748Y-48.4399
G1X50.1349Y-51.9291
G1X52.7432Y-53.4115
G1X53.5746Y-53.9743
G1X54.8826Y-55.1971
G1X56.4757Y-57.0583
G1X62.2907Y-65.3890
G1X64.0936Y-67.5702
G1X65.9184Y-69.4683
G1X68.1368Y-71.4236
G1X70.4232Y-73.1198
G1X72.5704Y-74.4989
G1X77.6703Y-77.4201
G1X78.5910Y-78.0447
G1X79.2333Y-78.6326
G1X79.8931Y-79.5309
G1X80.3599Y-80.5182
G1X80.6124Y-81.5971
G1X80.8017Y-83.2708
G1X80.6139Y-83.4732
G1X80.2092Y-83.4436
G1X75.7514Y-82.1132
G1X72.4789Y-81.4459
G1X69.7206Y-81.0815
G1X66.4201Y-80.8576
G1X62.7707Y-80.8466
G1X59.0138Y-81.0677
G1X55.3578Y-81.5149
G1X51.9745Y-82.1605
G1X49.8557Y-82.7521
G1X48.2328Y-83.3684
G1X47.0912Y-84.0319
G1X46.2043Y-84.8424
G1X45.7047Y-85.5794
G1X45.4124Y-86.2722
G1X44.9433Y-88.6868
G1X44.0637Y-92.0572
G1X43.3450Y-93.7467
G1X42.5565Y-95.2075
G1X41.3744Y-96.8496
G1X39.9057Y-98.3762
G1X38.3188Y-99.6125
G1X36.5377Y-100.6186
G1X34.3768Y-101.4488
G1X31.9329Y-101.9485
G1X29.5784Y-102.0497
G1X27.2673Y-101.7997
G1X25.0397Y-101.1952
G1X23.0312Y-100.2676
G1X22.1958Y-99.7328
G1X21.3336Y-99.0462
G1X20.6043Y-98.3389
G1X19.9549Y-97.5524
G1X19.1844Y-96.2744
G1X18.6405Y-94.9587
G1X18.2934Y-93.5460
G1X18.1192Y-91.9188
G1X18.1343Y-90.2340
G1X18.3221Y-88.4822
G1X18.7046Y-86.4754
G1X19.3406Y-83.9037
G1X23.5589Y-70.3181
G1X27.2991Y-57.2093
G1X28.8734Y-52.5922
G1X30.0592Y-49.9121
G1X31.3726Y-47.6729
G1X32.0607Y-46.7665
G1X32.7626Y-46.0091
G1X33.5451Y-45.3192
G1X34.2836Y-44.7979
G1X35.1393Y-44.3346
G1X35.9798Y-44.0144
G1X36.8715Y-43.8017
G1X37.7901Y-43.6966
G1X38.7205Y-43.6950
G1X39.6826Y-43.8053
G1X41.7124Y-44.3832
G1X43.1989Y-45.0388
G1X44.6010Y-45.8818
G1X46.7913Y-47.4342
G1X49.6442Y-49.7231
G1X52.0522Y-51.2090
G1X52.8704Y-51.7996
G1X54.4710Y-53.3038
G1X56.0498Y-55.1477
G1X57.3665Y-57.0594
G1X60.1278Y-61.4958
G1X62.1034Y-64.4974
G1X64.0291Y-66.9903
G1X66.0055Y-69.1351
G1X68.1614Y-71.1032
G1X70.7396Y-73.0706
G1X73.9068Y-75.0727
G1X78.6777Y-77.7506
G1X79.5326Y-78.3709
G1X80.3468Y-79.1348
G1X80.9190Y-79.9171
G1X81.2309Y-80.6575
G1X81.7942Y-83.2602
G1X81.8245Y-84.0796
G1X81.7512Y-84.2489
G1X81.6122Y-84.3334
G1X81.1740Y-84.3388
G1X77.1053Y-83.2202
G1X74.7375Y-82.7262
G1X72.7418Y-82.4117
G1X69.0088Y-82.0548
G1X65.3578Y-81.9635
G1X61.0861Y-82.1357
G1X56.6557Y-82.6296
G1X52.8075Y-83.3558
G1X50.9662Y-83.8479
G1X49.6280Y-84.3018
G1X48.4871Y-84.8275
G1X47.5100Y-85.4245
G1X46.8546Y-85.9928
G1X46.3357Y-86.6757
G1X45.9114Y-87.7422
G1X44.8438Y-92.1436
G1X44.2714Y-93.7985
G1X43.1144Y-96.2182
G1X42.5104Y-97.1590
G1X41.7081Y-98.2011
G1X40.0872Y-99.8680
G1X38.2817Y-101.1998
G1X36.1206Y-102.3094
G1X35.0517Y-102.6988
G1X33.8594Y-103.0208
G1X31.8630Y-103.3497
G1X29.8358Y-103.4113
G1X27.6435Y-103.2005
G1X25.5938Y-102.7251
G1X23.6941Y-102.0129
G1X21.9903Y-101.0895
G1X20.4013Y-99.8637
G1X19.1850Y-98.5266
G1X18.3830Y-97.2732
G1X17.7892Y-95.9615
G1X17.3900Y-94.5314
G1X17.1655Y-92.9991
G1X17.1126Y-91.3158
G1X17.2292Y-89.6044
G1X17.5432Y-87.5315
G1X18.0549Y-85.1357
G1X22.2000Y-70.7372
G1X25.7968Y-55.9990
G1X26.7669Y-52.3822
G1X27.4599Y-50.1382
G1X28.6396Y-47.1725
G1X29.8314Y-44.9641
G1X30.5545Y-43.9628
G1X31.2971Y-43.1159
G1X32.0898Y-42.3878
G1X32.9353Y-41.7870
G1X33.8213Y-41.3227
G1X34.7613Y-40.9775
G1X35.7414Y-40.7538
G1X36.7406Y-40.6544
G1X37.7115Y-40.6792
G1X38.8177Y-40.8326
G1X39.9359Y-41.1030
G1X41.1057Y-41.5035
G1X42.9849Y-42.4440
G1X45.2212Y-43.9047
G1X48.6269Y-46.8128
G1X52.0647Y-49.4942
G1X54.2850Y-51.5307
G1X55.7134Y-53.2260
G1X57.7139Y-56.3099
G1X60.7941Y-61.6834
G1X62.1470Y-63.8240
G1X64.0100Y-66.3743
G1X66.2113Y-68.8510
G1X68.5713Y-71.0315
G1X71.1260Y-72.9949
G1X74.0149Y-74.8566
G1X79.2373Y-77.7518
G1X80.6107Y-78.7059
G1X81.3303Y-79.3814
G1X81.9521Y-80.4082
G1X82.5130Y-82.1450
G1X82.7893Y-83.6351
G1X82.8401Y-84.9535
G1X82.5733Y-85.1971
G1X82.1217Y-85.1942
G1X76.7237Y-83.9768
G1X72.8730Y-83.4325
G1X69.5855Y-83.1974
G1X65.9357Y-83.1562
G1X61.6731Y-83.3821
G1X57.4048Y-83.8898
G1X53.4158Y-84.6739
G1X51.8339Y-85.0996
G1X50.5118Y-85.5571
G1X49.2213Y-86.1251
G1X48.2895Y-86.6703
G1X47.5751Y-87.2724
G1X46.9895Y-88.0349
G1X46.5918Y-88.8145
G1X46.1428Y-89.9783
G1X45.4023Y-93.2301
G1X44.4522Y-95.8067
G1X43.4093Y-97.8269
G1X41.8818Y-99.8821
G1X40.3022Y-101.4509
G1X38.3986Y-102.7958
G1X36.3427Y-103.8173
G1X34.1789Y-104.4745
G1X31.9909Y-104.8128
G1X29.7830Y-104.8295
G1X27.4799Y-104.5535
G1X25.2198Y-103.9679
G1X23.0434Y-103.0909
G1X21.2092Y-102.0247
G1X19.5289Y-100.6830
G1X18.2717Y-99.2399
G1X17.5036Y-98.0478
G1X16.9345Y-96.8150
G1X16.4939Y-95.3595
G1X16.2220Y-93.7776
G1X16.1355Y-92.2128
G1X16.2128Y-90.4356
G1X16.4507Y-88.5014
G1X16.8636Y-86.2638
G1X21.0710Y-70.3252
G1X22.6914Y-62.9037
G1X24.9143Y-51.5563
G1X25.4432Y-49.2913
G1X26.0318Y-47.2330
G1X27.1179Y-44.2095
G1X27.6958Y-43.0184
G1X28.3481Y-41.9041
G1X29.0559Y-40.9065
G1X29.7615Y-40.1029
G1X30.5502Y-39.3957
G1X31.4679Y-38.7638
G1X32.2702Y-38.3445
G1X33.1132Y-38.0184
G1X33.9915Y-37.7907
G1X34.9272Y-37.6622
G1X36.9249Y-37.7008
G1X39.0054Y-38.1317
G1X41.1506Y-38.9872
G1X43.4031Y-40.2441
G1X45.1027Y-41.5067
G1X47.7834Y-43.8257
G1X51.0755Y-46.9362
G1X53.6082Y-49.1207
G1X55.0023Y-50.6974
G1X55.9941Y-52.1170
G1X57.3325Y-54.2677
G1X60.7622Y-60.6737
G1X62.3618Y-63.3399
G1X64.3366Y-66.1007
G1X66.4544Y-68.5220
G1X69.0423Y-70.9413
G1X71.9252Y-73.1392
G1X74.7946Y-74.9544
G1X80.6802Y-78.2301
G1X81.5599Y-78.8444
G1X82.1925Y-79.4661
G1X82.8883Y-80.4734
G1X83.4019Y-81.6809
G1X83.6403Y-82.9395
G1X83.9115Y-85.1150
G1X83.9013Y-85.5992
G1X83.7893Y-85.8567
G1X83.6496Y-85.9745
G1X83.0174Y-86.0551
G1X78.3282Y-85.1596
G1X74.2890Y-84.6267
G1X69.9684Y-84.3869
G1X65.8063Y-84.4396
G1X61.5459Y-84.7607
G1X57.4449Y-85.3375
G1X53.7932Y-86.1228
G1X50.8797Y-87.0908
G1X49.7172Y-87.6450
G1X48.8391Y-88.2323
G1X48.0406Y-88.9764
G1X47.4017Y-89.8501
G1X46.8633Y-90.9947
G1X46.1320Y-93.9774
G1X44.8872Y-97.4169
G1X44.4310Y-98.3496
G1X43.7561Y-99.4702
G1X42.2782Y-101.4393
G1X41.4526Y-102.3140
G1X40.6112Y-103.0619
G1X38.6699Y-104.4096
G1X36.6896Y-105.3797
G1X34.4712Y-106.0365
G1X32.1862Y-106.3620
G1X29.7395Y-106.3203
G1X27.4359Y-105.9803
G1X24.9238Y-105.2566
G1X22.6004Y-104.2530
G1X20.5319Y-102.9987
G1X18.8845Y-101.6545
G1X17.4207Y-99.9812
G1X16.6434Y-98.7659
G1X16.0669Y-97.5055
G1X15.6140Y-96.1137
G1X15.3155Y-94.5840
G1X15.1972Y-93.0463
G1X15.2252Y-91.3211
G1X15.4137Y-89.3269
G1X15.7185Y-87.4080
G1X17.1598Y-81.2589
G1X19.0432Y-73.9229
G1X20.1519Y-68.7927
G1X21.3241Y-62.4362
G1X23.2865Y-49.4006
G1X23.8552Y-46.5512
G1X24.4078Y-44.2581
G1X24.8488Y-42.7954
G1X25.3744Y-41.4097
G1X25.9904Y-40.0682
G1X26.6271Y-38.9436
G1X27.2840Y-38.0166
G1X28.0145Y-37.1999
G1X28.8513Y-36.4530
G1X29.7604Y-35.8263
G1X30.5575Y-35.4108
G1X31.4700Y-35.0672
G1X32.4166Y-34.8292
G1X33.4155Y-34.6858
G1X34.4517Y-34.6412
G1X35.5105Y-34.6999
G1X37.6098Y-35.1090
G1X39.7708Y-35.8627
G1X41.8469Y-36.9090
G1X44.0386Y-38.3993
G1X46.4854Y-40.3926
G1X49.8937Y-43.8320
G1X52.9927Y-46.6543
G1X53.9327Y-47.7020
G1X54.9877Y-49.0637
G1X56.1824Y-50.8181
G1X57.1158Y-52.3808
G1X60.5362Y-59.1618
G1X62.3637Y-62.4331
G1X64.4002Y-65.4062
G1X66.6071Y-68.0066
G1X69.2436Y-70.5326
G1X72.2281Y-72.8640
G1X75.8503Y-75.1591
G1X81.5149Y-78.2174
G1X82.6299Y-79.0419
G1X83.4795Y-79.8805
G1X84.0597Y-80.7877
G1X84.3652Y-81.7474
G1X84.9141Y-85.1029
G1X84.9641Y-85.8128
G1X84.9109Y-86.3795
G1X84.7998Y-86.6226
G1X84.5860Y-86.7906
G1X83.8943Y-86.8867
G1X77.7437Y-86.0444
G1X74.4215Y-85.7610
G1X70.4460Y-85.6414
G1X65.9888Y-85.7872
G1X61.7218Y-86.1932
G1X57.7832Y-86.8136
G1X54.5917Y-87.5530
G1X51.7444Y-88.5084
G1X50.6401Y-89.0584
G1X49.5286Y-89.7825
G1X48.7435Y-90.4975
G1X48.1543Y-91.2736
G1X47.6882Y-92.2932
G1X46.1079Y-97.2311
G1X45.5049Y-98.7878
G1X44.1542Y-101.1674
G1X42.6731Y-103.1206
G1X40.9677Y-104.7356
G1X38.9505Y-106.1258
G1X37.0343Y-107.0435
G1X34.7986Y-107.6949
G1X33.6242Y-107.9026
G1X32.4960Y-108.0022
G1X29.8619Y-107.9098
G1X27.4812Y-107.4910
G1X24.9073Y-106.6805
G1X22.4411Y-105.5564
G1X20.1321Y-104.1330
G1X18.3551Y-102.6681
G1X16.7447Y-100.8840
G1X16.0151Y-99.7840
G1X15.3185Y-98.3953
G1X14.8329Y-97.0768
G1X14.5113Y-95.7359
G1X14.3157Y-94.1692
G1X14.2653Y-92.3970
G1X14.3732Y-90.4457
G1X14.6102Y-88.6041
G1X15.7653Y-82.9282
G1X17.7211Y-74.7908
G1X19.2064Y-66.9880
G1X20.0495Y-61.0513
G1X21.4221Y-48.1676
G1X21.9616Y-44.4478
G1X22.4456Y-41.9770
G1X23.3913Y-38.8416
G1X23.9237Y-37.5669
G1X24.4946Y-36.4900
G1X25.1779Y-35.4724
G1X25.9683Y-34.5279
G1X26.8482Y-33.7109
G1X27.7408Y-33.0853
G1X28.6840Y-32.5931
G1X29.6078Y-32.2343
G1X30.5888Y-31.9666
G1X31.6183Y-31.7986
G1X32.7291Y-31.7381
G1X33.8768Y-31.7862
G1X36.3072Y-32.1891
G1X38.5578Y-32.9218
G1X40.9870Y-34.1162
G1X43.6728Y-35.8397
G1X45.6230Y-37.4611
G1X51.7003Y-43.4814
G1X53.8246Y-45.8941
G1X55.3556Y-47.8732
G1X56.2378Y-49.2272
G1X57.1289Y-50.8421
G1X60.7859Y-58.4233
G1X62.2791Y-61.2442
G1X63.3308Y-62.9544
G1X64.4089Y-64.5189
G1X65.5709Y-66.0133
G1X66.8219Y-67.4543
G1X68.2198Y-68.8900
G1X69.7718Y-70.3154
G1X71.3272Y-71.5955
G1X72.9511Y-72.7902
G1X76.1922Y-74.8551
G1X82.0203Y-77.9583
G1X83.6490Y-79.0311
G1X84.4734Y-79.8202
G1X84.8428Y-80.3901
G1X85.1258Y-81.0403
G1X85.6830Y-83.1217
G1X85.9180Y-84.8533
G1X85.9981Y-86.8813
G1X85.8764Y-87.2488
G1X85.6409Y-87.5027
G1X85.1926Y-87.6672
G1X84.5833Y-87.7297
G1X78.9306Y-87.2071
G1X74.4392Y-86.9590
G1X69.8075Y-86.9919
G1X65.5313Y-87.2745
G1X61.7875Y-87.7234
G1X58.2676Y-88.3421
G1X55.0503Y-89.1447
G1X52.7464Y-89.9727
G1X51.4932Y-90.5823
G1X50.4811Y-91.2212
G1X49.6808Y-91.9283
G1X49.0920Y-92.6814
G1X48.5335Y-93.7047
G1X47.7873Y-95.4426
G1X46.8038Y-98.6179
G1X46.2504Y-99.9845
G1X44.7811Y-102.6466
G1X44.0231Y-103.7473
G1X43.2599Y-104.6776
G1X41.4069Y-106.4381
G1X39.3648Y-107.8632
G1X37.4242Y-108.7835
G1X35.1185Y-109.4578
G1X33.9270Y-109.6601
G1X32.7954Y-109.7431
G1X31.4676Y-109.7273
G1X30.0700Y-109.6071
G1X27.7513Y-109.1408
G1X25.1455Y-108.2616
G1X22.4747Y-106.9777
G1X19.9211Y-105.3704
G1X17.8415Y-103.6423
G1X16.1881Y-101.8491
G1X15.2903Y-100.5188
G1X14.5817Y-99.1981
G1X14.0827Y-97.9490
G1X13.7031Y-96.5148
G1X13.4507Y-94.9197
G1X13.3481Y-93.2846
G1X13.3855Y-91.5359
G1X13.5808Y-89.5943
G1X14.4396Y-84.6025
G1X15.9312Y-78.0698
G1X16.6061Y-74.6981
G1X17.4034Y-70.3032
G1X17.9765Y-66.5899
G1X18.3821Y-63.1333
G1X18.7639Y-58.7996
G1X19.3975Y-48.6262
G1X19.7265Y-44.4984
G1X20.0185Y-41.8698
G1X20.4151Y-39.6042
G1X20.8136Y-37.8760
G1X21.2673Y-36.3802
G1X21.7498Y-35.1763
G1X22.4216Y-33.8686
G1X23.1355Y-32.7758
G1X23.8870Y-31.8804
G1X24.7410Y-31.1016
G1X25.6963Y-30.4270
G1X26.7467Y-29.8637
G1X27.7904Y-29.4599
G1X28.8920Y-29.1804
G1X30.1912Y-29.0017
G1X31.5872Y-28.9503
G1X32.9408Y-29.0280
G1X34.2154Y-29.2164
G1X35.6184Y-29.5543
G1X37.1203Y-30.0426
G1X38.5494Y-30.6165
G1X39.9584Y-31.2884
G1X41.2872Y-32.0332
G1X43.8288Y-33.8454
G1X46.8627Y-36.4770
G1X48.6296Y-38.2630
G1X53.4498Y-43.6434
G1X54.4517Y-44.8354
G1X55.2669Y-45.9621
G1X56.3736Y-47.8004
G1X57.8602Y-50.6546
G1X61.0345Y-57.6291
G1X62.4642Y-60.3816
G1X63.4878Y-62.1012
G1X64.5565Y-63.6870
G1X65.7159Y-65.2248
G1X66.9734Y-66.7132
G1X68.5042Y-68.3287
G1X70.0832Y-69.8123
G1X71.7955Y-71.2413
G1X73.6832Y-72.6484
G1X75.5567Y-73.8814
G1X77.8978Y-75.2516
G1X83.9194Y-78.4144
G1X84.7877Y-79.0282
G1X85.4813Y-79.7527
G1X86.2244Y-80.9453
G1X86.6921Y-82.2865
G1X86.8450Y-83.3528
G1X87.0887Y-86.4381
G1X87.0820Y-87.3155
G1X86.9373Y-87.8275
G1X86.6435Y-88.2008
G1X86.1479Y-88.4453
G1X85.4269Y-88.5560
G1X83.8846Y-88.5753
G1X77.4772Y-88.2740
G1X73.4539Y-88.2728
G1X68.8569Y-88.4991
G1X64.4901Y-88.9492
G1X61.0085Y-89.4912
G1X57.7267Y-90.1980
G1X55.4791Y-90.8462
G1X53.1892Y-91.7507
G1X52.0756Y-92.3449
G1X51.1508Y-93.0160
G1X50.3208Y-93.8262
G1X49.5617Y-94.8417
G1X48.7978Y-96.2577
G1X47.6206Y-99.8517
G1X46.5175Y-102.2365
G1X45.1920Y-104.5746
G1X43.7580Y-106.3999
G1X41.9125Y-108.1739
G1X39.9777Y-109.5633
G1X37.8385Y-110.5992
G1X35.4624Y-111.3137
G1X34.3485Y-111.4979
G1X33.1314Y-111.5808
G1X30.4489Y-111.4327
G1X28.1451Y-110.9279
G1X25.4695Y-109.9644
G1X22.7483Y-108.5749
G1X20.0026Y-106.8004
G1X17.5094Y-104.7341
G1X16.5094Y-103.7402
G1X15.7231Y-102.8233
G1X14.6850Y-101.3691
G1X13.9323Y-100.0595
G1X13.4008Y-98.8150
G1X12.9301Y-97.2644
G1X12.6198Y-95.6847
G1X12.4678Y-94.0572
G1X12.4671Y-92.2976
G1X12.6198Y-90.2699
G1X13.1988Y-86.1798
G1X14.5925Y-79.5086
G1X15.7385Y-73.2153
G1X16.2863Y-69.7716
G1X16.6493Y-66.8630
G1X17.0299Y-62.4792
G1X17.3488Y-56.8995
G1X17.6945Y-42.4904
G1X17.9145Y-39.8661
G1X18.2865Y-37.1619
G1X18.6223Y-35.5504
G1X19.0250Y-34.1707
G1X19.5896Y-32.6829
G1X20.2162Y-31.4207
G1X20.9069Y-30.3640
G1X21.6692Y-29.4672
G1X22.5400Y-28.6477
G1X23.5120Y-27.9355
G1X24.5931Y-27.3473
G1X25.7655Y-26.8997
G1X27.0632Y-26.5579
G1X28.4622Y-26.3421
G1X29.7258Y-26.2745
G1X31.0608Y-26.3315
G1X32.5568Y-26.5204
G1X34.1280Y-26.8368
G1X35.6286Y-27.2506
G1X37.0193Y-27.7405
G1X38.2976Y-28.2963
G1X39.7062Y-29.0266
G1X41.2930Y-29.9756
G1X42.8376Y-31.0166
G1X44.4483Y-32.2270
G1X45.6161Y-33.2326
G1X47.3002Y-34.9149
G1X52.3046Y-40.3416
G1X53.6816Y-41.9852
G1X54.8663Y-43.6387
G1X56.1492Y-45.7280
G1X57.5401Y-48.3019
G1X61.0980Y-56.3418
G1X62.7977Y-59.6725
G1X63.7749Y-61.3169
G1X64.9508Y-63.0744
G1X66.1112Y-64.6184
G1X67.4623Y-66.2281
G1X68.9958Y-67.8612
G1X70.6668Y-69.4403
G1X72.4368Y-70.9360
G1X74.2222Y-72.2751
G1X76.1053Y-73.5301
G1X78.1158Y-74.7391
G1X84.7614Y-78.1326
G1X86.0666Y-79.0877
G1X86.8963Y-79.9341
G1X87.4402Y-80.8745
G1X87.7380Y-82.0324
G1X88.1672Y-85.9105
G1X88.1687Y-87.6743
G1X88.0201Y-88.3446
G1X87.6670Y-88.8456
G1X87.1062Y-89.1710
G1X86.2321Y-89.3924
G1X84.3824Y-89.5181
G1X74.6488Y-89.6365
G1X70.5686Y-89.8950
G1X66.9402Y-90.2729
G1X63.2494Y-90.8156
G1X59.4300Y-91.5956
G1X56.4317Y-92.4657
G1X54.1888Y-93.3558
G1X53.0086Y-94.0239
G1X51.9587Y-94.7775
G1X51.1082Y-95.5809
G1X50.4078Y-96.4686
G1X49.8370Y-97.5208
G1X48.6821Y-100.5111
G1X46.7295Y-104.7270
G1X45.6562Y-106.4596
G1X44.0313Y-108.4297
G1X42.1856Y-110.1800
G1X40.3658Y-111.4527
G1X38.1490Y-112.5315
G1X36.9369Y-112.9569
G1X35.7858Y-113.2564
G1X34.5762Y-113.4420
G1X33.3701Y-113.5136
G1X31.9891Y-113.4802
G1X30.7021Y-113.3481
G1X29.5937Y-113.1256
G1X28.3163Y-112.7574
G1X25.5802Y-111.6738
G1X24.1369Y-110.9102
G1X22.4014Y-109.8597
G1X19.6527Y-107.9013
G1X16.8475Y-105.4526
G1X15.8838Y-104.4396
G1X14.8066Y-103.1279
G1X13.9894Y-101.9861
G1X13.3213Y-100.8439
G1X12.7199Y-99.5093
G1X12.2646Y-98.2356
G1X11.9326Y-96.9652
G1X11.7208Y-95.6937
G1X11.5842Y-92.7936
G1X11.6955Y-90.6090
G1X11.9475Y-88.2776
G1X14.5973Y-73.3234
G1X15.0436Y-70.0564
G1X15.3985Y-66.2340
G1X15.6554Y-61.9624
G1X15.7968Y-57.6486
G1X15.5586Y-42.5542
G1X15.7693Y-37.3818
G1X16.0135Y-35.2509
G1X16.3739Y-33.4080
G1X16.8778Y-31.5978
G1X17.4528Y-30.1350
G1X18.1973Y-28.7829
G1X19.0789Y-27.5697
G1X20.0389Y-26.5681
G1X21.1568Y-25.7125
G1X22.3012Y-25.0694
G1X23.5476Y-24.5391
G1X24.8101Y-24.1587
G1X26.1690Y-23.9089
G1X27.7820Y-23.7929
G1X29.4337Y-23.8127
G1X31.0675Y-23.9623
G1X32.7386Y-24.2565
G1X34.3879Y-24.7023
G1X36.1296Y-25.3176
G1X37.9091Y-26.0783
G1X39.6661Y-26.9617
G1X41.1700Y-27.8375
G1X42.4109Y-28.6753
G1X43.7822Y-29.7463
G1X45.2634Y-31.0402
G1X48.4324Y-34.0893
G1X50.4806Y-36.2908
G1X53.1256Y-39.5394
G1X55.1954Y-42.4434
G1X56.4697Y-44.5142
G1X57.3826Y-46.2599
G1X60.9856Y-54.5288
G1X62.9568Y-58.5194
G1X64.0819Y-60.4277
G1X65.2492Y-62.1875
G1X66.5613Y-63.9474
G1X67.9688Y-65.6399
G1X69.6924Y-67.4774
G1X71.5420Y-69.2312
G1X73.3402Y-70.7349
G1X75.3946Y-72.2566
G1X77.1742Y-73.4333
G1X79.1356Y-74.5658
G1X81.6183Y-75.8740
G1X84.6850Y-77.3068
G1X86.2959Y-78.2108
G1X87.2887Y-78.8724
G1X87.9563Y-79.5519
G1X88.3077Y-80.1305
G1X88.6058Y-80.8847
G1X89.1238Y-83.2354
G1X89.2950Y-85.1565
G1X89.2985Y-87.9604
G1X89.1289Y-88.7381
G1X88.7013Y-89.4189
G1X87.9315Y-89.9341
G1X86.9888Y-90.2285
G1X84.5923Y-90.5509
G1X77.7505Y-90.9109
G1X73.1431Y-91.2438
G1X66.5683Y-92.0290
G1X62.6706Y-92.7246
G1X59.7676Y-93.4188
G1X57.0130Y-94.2695
G1X54.9376Y-95.1906
G1X53.7946Y-95.8394
G1X52.9146Y-96.4665
G1X52.1130Y-97.2079
G1X51.4574Y-98.0230
G1X50.7621Y-99.1884
G1X49.5721Y-101.5597
G1X48.0915Y-105.0414
G1X47.3903Y-106.4393
G1X45.9866Y-108.5153
G1X44.3473Y-110.4793
G1X42.6168Y-112.0999
G1X40.6597Y-113.4406
G1X38.4061Y-114.5530
G1X37.3271Y-114.9454
G1X36.2249Y-115.2371
G1X35.0134Y-115.4362
G1X33.7110Y-115.5303
G1X32.3458Y-115.5133
G1X31.1518Y-115.3936
G1X29.9657Y-115.1484
G1X28.7165Y-114.7750
G1X27.1383Y-114.1790
G1X25.9369Y-113.6147
G1X24.5170Y-112.8029
G1X22.6459Y-111.5860
G1X19.7777Y-109.3815
G1X16.6562Y-106.5576
G1X14.1986Y-103.7646
G1X13.3743Y-102.6076
G1X12.6708Y-101.3917
G1X12.0234Y-100.0706
G1X11.5134Y-98.7501
G1X11.1734Y-97.5204
G1X10.9217Y-96.1301
G1X10.7067Y-93.1680
G1X10.7736Y-90.9082
G1X11.0328Y-88.5282
G1X13.4943Y-73.1711
G1X13.8850Y-69.1848
G1X14.1601Y-64.9153
G1X14.2974Y-60.8468
G1X14.2867Y-57.7172
G1X13.9110Y-49.2203
G1X13.4842Y-42.0000
G1X13.4314Y-38.3809
G1X13.5058Y-35.7289
G1X13.7240Y-33.5105
G1X14.0779Y-31.4365
G1X14.5317Y-29.7299
G1X15.1376Y-28.1864
G1X15.9060Y-26.7299
G1X16.7826Y-25.5032
G1X17.7661Y-24.4983
G1X19.0469Y-23.5149
G1X20.3375Y-22.7734
G1X21.6908Y-22.2202
G1X23.2975Y-21.7990
G1X25.0004Y-21.5237
G1X26.7357Y-21.4047
G1X28.3428Y-21.4427
G1X30.0470Y-21.6432
G1X32.0279Y-22.0275
G1X33.8954Y-22.5204
G1X35.6745Y-23.1165
G1X37.3167Y-23.7963
G1X38.8146Y-24.5518
G1X40.5540Y-25.5878
G1X42.3544Y-26.8116
G1X44.2344Y-28.2372
G1X45.9902Y-29.7085
G1X47.7738Y-31.4681
G1X49.8426Y-33.8342
G1X53.4819Y-38.2639
G1X55.5049Y-41.1078
G1X56.4422Y-42.7075
G1X57.4489Y-44.7165
G1X58.9090Y-47.8943
G1X61.3525Y-53.6444
G1X63.0339Y-57.0704
G1X64.2494Y-59.1704
G1X65.5194Y-61.1099
G1X66.9452Y-63.0535
G1X68.4337Y-64.8618
G1X70.2545Y-66.8460
G1X72.0090Y-68.5392
G1X74.0576Y-70.2903
G1X76.1520Y-71.8659
G1X78.2896Y-73.2519
G1X80.8105Y-74.6945
G1X87.5663Y-77.9341
G1X88.4085Y-78.5238
G1X89.1604Y-79.3326
G1X89.8974Y-80.6271
G1X90.3083Y-82.0804
G1X90.4262Y-83.5696
G1X90.4878Y-87.8037
G1X90.2145Y-89.1355
G1X89.9572Y-89.6540
G1X89.6568Y-90.0319
G1X88.7554Y-90.6722
G1X87.2971Y-91.1974
G1X85.9784Y-91.4711
G1X83.8005Y-91.7841
G1X75.7703Y-92.5807
G1X71.4615Y-93.0899
G1X65.6265Y-94.0122
G1X62.4682Y-94.6925
G1X59.6151Y-95.4588
G1X57.3892Y-96.2738
G1X55.4694Y-97.1757
G1X54.4771Y-97.7912
G1X53.5675Y-98.5213
G1X52.6997Y-99.4114
G1X51.9173Y-100.4223
G1X50.6967Y-102.4291
G1X49.2032Y-105.9579
G1X48.4736Y-107.3754
G1X46.5392Y-110.3095
G1X44.7908Y-112.4393
G1X42.9108Y-114.1293
G1X40.7716Y-115.5743
G1X38.5913Y-116.6562
G1X36.5108Y-117.2961
G1X35.2123Y-117.5190
G1X33.9360Y-117.6266
G1X32.6852Y-117.6313
G1X31.5627Y-117.5213
G1X30.3690Y-117.2798
G1X29.0206Y-116.8764
G1X27.5378Y-116.3081
G1X26.3713Y-115.7319
G1X24.9974Y-114.8991
G1X23.1833Y-113.6462
G1X20.6642Y-111.5941
G1X17.0496Y-108.2127
G1X14.0263Y-104.8556
G1X13.1284Y-103.6461
G1X12.1735Y-102.1326
G1X11.5040Y-100.9030
G1X10.9708Y-99.6768
G1X10.5241Y-98.2642
G1X10.1834Y-96.7966
G1X9.9602Y-95.3189
G1X9.8481Y-93.8156
G1X9.8815Y-91.3691
G1X10.2082Y-88.0212
G1X10.7174Y-84.1223
G1X11.8318Y-77.3426
G1X12.1908Y-74.4209
G1X12.6555Y-68.9207
G1X12.8863Y-63.9248
G1X12.8910Y-60.6595
G1X12.7417Y-57.0398
G1X12.2551Y-50.0609
G1X11.4864Y-42.0491
G1X11.2405Y-37.7076
G1X11.2231Y-34.8549
G1X11.3872Y-32.3204
G1X11.6795Y-30.2314
G1X12.0995Y-28.4694
G1X12.7483Y-26.6070
G1X13.4485Y-25.1804
G1X14.2755Y-23.9646
G1X15.4528Y-22.6696
G1X16.7703Y-21.5966
G1X17.9459Y-20.9017
G1X19.5104Y-20.2347
G1X21.0772Y-19.7436
G1X22.6898Y-19.4095
G1X24.2033Y-19.2495
G1X26.0336Y-19.2285
G1X27.9773Y-19.3370
G1X29.8134Y-19.5628
G1X31.4762Y-19.8823
G1X33.1344Y-20.3282
G1X34.8583Y-20.9358
G1X36.7023Y-21.7157
G1X38.6482Y-22.6722
G1X40.4533Y-23.6862
G1X42.2370Y-24.8299
G1X43.6117Y-25.8549
G1X46.3594Y-28.3473
G1X50.3370Y-32.5469
G1X52.6496Y-35.2891
G1X54.6859Y-38.1005
G1X56.1755Y-40.5740
G1X58.0087Y-44.1454
G1X61.6550Y-52.5539
G1X63.4043Y-56.0241
G1X64.6613Y-58.1588
G1X66.0378Y-60.2410
G1X67.4730Y-62.1872
G1X69.1876Y-64.2853
G1X71.0536Y-66.3252
G1X73.3057Y-68.4898
G1X75.3449Y-70.2056
G1X77.5562Y-71.8146
G1X79.4278Y-73.0218
G1X81.0294Y-73.9374
G1X85.0313Y-75.8804
G1X88.0359Y-77.1680
G1X89.7931Y-78.2968
G1X90.5082Y-78.9630
G1X91.0093Y-79.7100
G1X91.2997Y-80.4961
G1X91.4959Y-81.6949
G1X91.7382Y-86.2892
G1X91.6896Y-87.5824
G1X91.5219Y-88.7875
G1X91.2596Y-89.6187
G1X90.8128Y-90.3594
G1X90.1876Y-90.9795
G1X89.3915Y-91.5005
G1X88.5432Y-91.8915
G1X87.5544Y-92.2292
G1X84.8163Y-92.8847
G1X81.6898Y-93.4087
G1X72.4383Y-94.7209
G1X66.3833Y-95.7902
G1X61.8580Y-96.8704
G1X58.1973Y-98.1422
G1X56.7543Y-98.8250
G1X55.4933Y-99.6119
G1X54.2590Y-100.5765
G1X53.2720Y-101.5740
G1X52.1542Y-103.1020
G1X49.9765Y-107.5146
G1X48.0311Y-110.7592
G1X46.7521Y-112.6323
G1X45.7284Y-113.8631
G1X44.3410Y-115.2123
G1X42.8159Y-116.4567
G1X41.3115Y-117.4859
G1X39.5158Y-118.4598
G1X37.6702Y-119.1522
G1X35.6114Y-119.6226
G1X33.6136Y-119.8116
G1X31.8794Y-119.7044
G1X30.1166Y-119.3293
G1X28.1659Y-118.6611
G1X26.5610Y-117.8463
G1X23.6746Y-115.8443
G1X21.4717Y-113.9266
G1X17.6271Y-110.0888
G1X15.0639Y-107.2660
G1X13.7103Y-105.6561
G1X11.8065Y-102.9762
G1X10.6831Y-100.9468
G1X9.6869Y-98.2421
G1X9.3718Y-96.9809
G1X9.1451Y-95.6123
G1X8.9902Y-92.8161
G1X9.1550Y-89.2338
G1X9.4209Y-86.5228
G1X10.4447Y-79.7485
G1X10.8902Y-75.7051
G1X11.4102Y-69.4472
G1X11.5725Y-64.5876
G1X11.4109Y-59.6634
G1X10.8758Y-52.7757
G1X9.7187Y-43.5698
G1X9.1234Y-37.6022
G1X8.9966Y-34.6441
G1X9.0799Y-31.6109
G1X9.2812Y-29.7017
G1X9.6265Y-27.8468
G1X10.0823Y-26.1667
G1X10.6477Y-24.7021
G1X11.3845Y-23.3286
G1X12.2832Y-22.0243
G1X13.2150Y-20.9845
G1X14.3261Y-20.0559
G1X15.6622Y-19.2100
G1X17.0458Y-18.5197
G1X18.3918Y-18.0154
G1X19.8748Y-17.6326
G1X21.9114Y-17.3197
G1X23.9704Y-17.1604
G1X25.9529Y-17.1671
G1X27.8983Y-17.3448
G1X30.0009Y-17.7320
G1X32.2913Y-18.3120
G1X34.5433Y-19.0374
G1X36.5740Y-19.8418
G1X38.3338Y-20.6845
G1X39.8772Y-21.5728
G1X41.5782Y-22.7120
G1X43.4028Y-24.0895
G1X46.8165Y-27.0116
G1X49.1174Y-29.2931
G1X51.5115Y-32.1442
G1X54.3581Y-36.0086
G1X55.9682Y-38.5808
G1X57.5872Y-41.5208
G1X61.7082Y-50.8504
G1X63.6425Y-54.6135
G1X64.9242Y-56.7676
G1X66.3608Y-58.9318
G1X68.0810Y-61.2698
G1X69.7755Y-63.3713
G1X71.9945Y-65.8199
G1X74.0875Y-67.8719
G1X76.4082Y-69.8314
G1X78.7999Y-71.5837
G1X80.7859Y-72.8180
G1X83.1931Y-74.1076
G1X85.0102Y-74.9822
G1X88.4607Y-76.3915
G1X90.4442Y-77.3522
G1X91.3287Y-77.9291
G1X91.8988Y-78.5580
G1X92.3543Y-79.4949
G1X92.6442Y-80.5867
G1X92.9212Y-82.3599
G1X93.0239Y-83.9144
G1X92.9888Y-85.9871
G1X92.8584Y-87.9691
G1X92.6279Y-89.1697
G1X92.2554Y-90.1008
G1X91.7076Y-90.9362
G1X90.9994Y-91.6516
G1X90.0346Y-92.3251
G1X88.9685Y-92.8749
G1X87.8953Y-93.3166
G1X84.7274Y-94.2572
G1X80.4712Y-95.1549
G1X70.9399Y-96.8560
G1X66.2892Y-97.8207
G1X62.0022Y-98.9776
G1X59.0736Y-100.0454
G1X57.5484Y-100.8179
G1X56.2609Y-101.5969
G1X55.2204Y-102.3849
G1X54.2631Y-103.3131
G1X52.9861Y-105.0681
G1X50.8107Y-108.7178
G1X48.8336Y-112.2628
G1X47.5598Y-114.1597
G1X46.3058Y-115.6020
G1X44.8354Y-117.0557
G1X43.3465Y-118.3245
G1X41.8258Y-119.4157
G1X40.1353Y-120.3642
G1X38.1973Y-121.1571
G1X36.2606Y-121.6963
G1X34.3444Y-121.9866
G1X32.6922Y-121.9834
G1X30.9035Y-121.7226
G1X28.9356Y-121.1650
G1X27.4822Y-120.5077
G1X26.2001Y-119.7272
G1X24.6552Y-118.6085
G1X23.5643Y-117.7209
G1X22.4537Y-116.6717
G1X18.9043Y-112.8869
G1X13.6785Y-106.7180
G1X11.4118Y-103.6479
G1X10.0884Y-101.3026
G1X9.4404Y-99.8812
G1X8.9885Y-98.6525
G1X8.6523Y-97.4253
G1X8.3800Y-95.9270
G1X8.1366Y-93.0605
G1X8.1832Y-89.7441
G1X8.3943Y-87.4852
G1X9.1586Y-81.5053
G1X9.9919Y-73.1639
G1X10.2469Y-69.0282
G1X10.2557Y-65.2927
G1X10.0119Y-60.1790
G1X9.4842Y-54.1353
G1X9.0764Y-51.1006
G1X8.0627Y-44.7599
G1X8.0000Y-44.2958
G1 Z0F20000
(Start Block)

G1X8.0000Y-24.6530
G1Z6F20000
(Plotting speed under)
G1 F8000

G1X8.6102Y-23.1333
G1X9.3973Y-21.6295
G1X10.3168Y-20.3316
G1X11.4097Y-19.2060
G1X12.7276Y-18.1346
G1X14.1759Y-17.2422
G1X15.6615Y-16.5860
G1X17.8681Y-15.9056
G1X20.0093Y-15.4604
G1X21.8048Y-15.2604
G1X23.4802Y-15.2230
G1X25.9889Y-15.3659
G1X28.4753Y-15.6714
G1X30.5234Y-16.0625
G1X32.4651Y-16.5741
G1X34.2049Y-17.1780
G1X36.1761Y-18.0275
G1X38.3606Y-19.1375
G1X40.5095Y-20.3881
G1X42.6308Y-21.7839
G1X44.5374Y-23.2114
G1X46.7048Y-25.1871
G1X49.1396Y-27.8315
G1X52.5422Y-31.9130
G1X54.8936Y-35.1911
G1X56.3182Y-37.4729
G1X57.3117Y-39.3167
G1X61.5791Y-48.7142
G1X63.5603Y-52.5385
G1X64.7720Y-54.5892
G1X66.1447Y-56.6873
G1X67.8954Y-59.1468
G1X69.5633Y-61.3135
G1X71.9745Y-64.1557
G1X74.0146Y-66.3005
G1X76.6916Y-68.7418
G1X79.1059Y-70.6049
G1X81.4278Y-72.1083
G1X83.8863Y-73.4791
G1X85.9971Y-74.4264
G1X91.2923Y-76.5262
G1X92.1021Y-76.9637
G1X92.6943Y-77.4526
G1X93.2205Y-78.0442
G1X93.6365Y-78.7077
G1X93.9572Y-79.4681
G1X94.1816Y-80.2839
G1X94.3350Y-81.9600
G1X94.2778Y-84.9637
G1 Z0F20000

G00 X0.0000 Y0.0000

