$H
G21
G17
G90
G1 Z0F20000
G1 F15000

(Start Layer)

(Start Block)


G1X19.7666Y-107.8662
G1Z5F20000
(Plotting speed under)
G1 F4000


G1X21.0929Y-108.0003

G1X22.4272Y-108.2714

G1X25.6525Y-109.4004

G1X26.5211Y-109.5064

G1X27.4267Y-109.4853

G1X28.9357Y-109.2386

G1X30.4555Y-108.7558

G1X31.7439Y-108.1569

G1X33.7235Y-107.0249

G1X34.5133Y-106.7100

G1X35.6122Y-106.5324

G1X37.1753Y-106.5301

G1X39.0910Y-106.7493

G1X40.8654Y-107.1732

G1X42.3861Y-107.7200

G1X45.0573Y-108.8914

G1X46.1084Y-109.2402

G1X47.2792Y-109.4569

G1X48.6369Y-109.5133

G1X50.6315Y-109.3390

G1X53.2715Y-108.8488

G1X54.5977Y-108.4122

G1X56.9723Y-107.4098

G1X57.9869Y-107.1141

G1X59.1538Y-106.9546

G1X60.4849Y-106.9463

G1X62.5869Y-107.1946

G1X64.6192Y-107.7130

G1X67.1960Y-108.6571

G1X69.4149Y-109.7756

G1X70.3062Y-110.1179

G1X71.3888Y-110.3078

G1X72.7081Y-110.3522

G1X74.7083Y-110.2302

G1X76.5333Y-109.9281

G1X78.0182Y-109.5228

G1X80.6034Y-108.5790

G1X82.6771Y-107.9566

G1X84.4921Y-107.5423

G1X86.2078Y-107.3075

G1 Z0F20000

(Start Block)


G1X19.7792Y-106.7630
G1Z5F20000
(Plotting speed under)
G1 F4000


G1X21.0803Y-106.8023

G1X22.3068Y-106.9663

G1X23.7266Y-107.3288

G1X25.8351Y-108.1087

G1X26.7073Y-108.2292

G1X27.6878Y-108.2204

G1X29.0618Y-108.0226

G1X30.5561Y-107.6016

G1X31.8516Y-107.0733

G1X33.8901Y-106.0723

G1X34.8200Y-105.7351

G1X35.9903Y-105.5460

G1X37.3199Y-105.5491

G1X38.9227Y-105.7711

G1X40.5334Y-106.2111

G1X42.0302Y-106.8210

G1X44.3083Y-107.9486

G1X45.3055Y-108.3194

G1X46.4371Y-108.5409

G1X47.7089Y-108.5877

G1X50.0751Y-108.3111

G1X52.9958Y-107.5650

G1X54.1899Y-107.1046

G1X56.3498Y-106.0034

G1X57.2767Y-105.6889

G1X58.4238Y-105.5262

G1X60.0025Y-105.5208

G1X62.0183Y-105.7298

G1X63.8861Y-106.1480

G1X67.2048Y-107.3477

G1X70.2924Y-108.8703

G1X71.3604Y-109.1016

G1X72.7958Y-109.1644

G1X74.6922Y-109.0388

G1X76.5205Y-108.7145

G1X77.9823Y-108.2862

G1X80.5072Y-107.2840

G1X82.7141Y-106.5647

G1X84.3610Y-106.1701

G1X86.0462Y-105.9522

G1 Z0F20000

(Start Block)


G1X19.7797Y-105.6182
G1Z5F20000
(Plotting speed under)
G1 F4000


G1X21.1589Y-105.5816

G1X22.5851Y-105.7220

G1X23.9214Y-106.0440

G1X26.0055Y-106.8158

G1X26.8798Y-106.9575

G1X27.9307Y-106.9762

G1X29.2791Y-106.8229

G1X30.6479Y-106.5048

G1X35.1606Y-104.8913

G1X36.2798Y-104.7163

G1X37.5257Y-104.7216

G1X38.9105Y-104.9487

G1X40.2854Y-105.3862

G1X41.4673Y-105.9198

G1X43.6146Y-107.0844

G1X44.4507Y-107.4182

G1X45.5290Y-107.6406

G1X46.8887Y-107.6854

G1X49.1424Y-107.4167

G1X51.3703Y-106.8085

G1X53.5002Y-106.0137

G1X55.7849Y-104.6965

G1X56.5403Y-104.3953

G1X57.7834Y-104.2163

G1X59.7220Y-104.2199

G1X61.9026Y-104.4287

G1X63.8580Y-104.8615

G1X67.3040Y-106.1332

G1X70.3413Y-107.6795

G1X71.4073Y-107.9269

G1X72.8407Y-107.9948

G1X74.7394Y-107.8602

G1X76.4689Y-107.5395

G1X78.0214Y-107.0622

G1X80.5019Y-106.0183

G1X82.6541Y-105.2801

G1X84.2654Y-104.8920

G1X85.9478Y-104.7016

G1 Z0F20000

(Start Block)


G1X19.7713Y-104.4423
G1Z5F20000
(Plotting speed under)
G1 F4000


G1X21.3308Y-104.3520

G1X22.7576Y-104.4716

G1X24.0076Y-104.7627

G1X26.2625Y-105.5875

G1X27.2513Y-105.7490

G1X28.2484Y-105.7809

G1X29.4749Y-105.6841

G1X30.8310Y-105.4424

G1X35.5256Y-104.1476

G1X36.6168Y-104.0169

G1X37.6696Y-104.0362

G1X38.8062Y-104.2329

G1X39.9682Y-104.6300

G1X40.8985Y-105.0767

G1X42.8399Y-106.1923

G1X43.5593Y-106.4952

G1X44.6708Y-106.7248

G1X46.0999Y-106.7644

G1X48.4069Y-106.5112

G1X50.6692Y-105.8980

G1X53.2954Y-104.8007

G1X55.4280Y-103.4460

G1X56.1603Y-103.1420

G1X57.3783Y-102.9987

G1X59.8013Y-103.0196

G1X61.8630Y-103.2135

G1X63.7931Y-103.6397

G1X67.4037Y-105.0101

G1X70.3305Y-106.5430

G1X71.3859Y-106.7934

G1X72.8137Y-106.8624

G1X74.7164Y-106.7295

G1X76.4557Y-106.4077

G1X78.0175Y-105.9237

G1X80.5966Y-104.8199

G1X82.7408Y-104.0753

G1X84.2495Y-103.7256

G1X85.9545Y-103.5618

G1 Z0F20000

(Start Block)


G1X19.7575Y-103.2508
G1Z5F20000
(Plotting speed under)
G1 F4000


G1X21.3428Y-103.1470

G1X22.8405Y-103.2687

G1X24.0998Y-103.5684

G1X26.3850Y-104.4162

G1X27.3681Y-104.6001

G1X28.3848Y-104.6654

G1X29.6459Y-104.6141

G1X30.9943Y-104.4391

G1X35.6786Y-103.4610

G1X36.6998Y-103.3686

G1X37.6655Y-103.3928

G1X38.5890Y-103.5421

G1X39.6087Y-103.8802

G1X42.1178Y-105.2568

G1X42.8823Y-105.5658

G1X43.9482Y-105.7523

G1X45.5994Y-105.7771

G1X48.1680Y-105.5052

G1X50.3869Y-104.9045

G1X53.1975Y-103.6632

G1X55.2503Y-102.2964

G1X55.9559Y-101.9825

G1X57.1496Y-101.8403

G1X59.7635Y-101.8642

G1X61.8731Y-102.0726

G1X63.7354Y-102.5063

G1X64.9490Y-102.9375

G1X67.4016Y-103.9717

G1X69.5602Y-105.1821

G1X70.2298Y-105.4833

G1X71.2617Y-105.7158

G1X72.6785Y-105.7788

G1X74.6959Y-105.6515

G1X76.5539Y-105.3212

G1X78.1411Y-104.8378

G1X80.6055Y-103.8081

G1X82.7981Y-103.0487

G1X84.4447Y-102.6838

G1X86.0835Y-102.5561

G1 Z0F20000

(Start Block)


G1X19.7512Y-102.0847
G1Z5F20000
(Plotting speed under)
G1 F4000


G1X21.3182Y-102.0234

G1X22.8558Y-102.1741

G1X24.1087Y-102.4875

G1X26.4692Y-103.3748

G1X27.4397Y-103.5625

G1X28.4452Y-103.6415

G1X29.6798Y-103.6201

G1X31.0272Y-103.4892

G1X35.8366Y-102.6905

G1X37.6893Y-102.6682

G1X38.6142Y-102.8291

G1X39.3953Y-103.0897

G1X41.5937Y-104.2541

G1X42.3909Y-104.5507

G1X43.5256Y-104.7051

G1X45.3686Y-104.7130

G1X48.0238Y-104.4616

G1X49.1815Y-104.2153

G1X50.4173Y-103.8354

G1X53.2055Y-102.6174

G1X55.3343Y-101.2242

G1X56.0714Y-100.8900

G1X57.3026Y-100.7245

G1X59.5299Y-100.7474

G1X61.5358Y-100.9541

G1X63.3633Y-101.3853

G1X64.6807Y-101.8752

G1X67.2780Y-103.0598

G1X69.8335Y-104.4497

G1X70.8794Y-104.6746

G1X72.3890Y-104.7301

G1X74.6342Y-104.6256

G1X76.6251Y-104.3226

G1X78.2661Y-103.8712

G1X81.0000Y-102.8488

G1X83.1255Y-102.1681

G1X84.7394Y-101.8419

G1X86.3098Y-101.7422

G1 Z0F20000

(Start Block)


G1X19.7983Y-101.1038
G1Z5F20000
(Plotting speed under)
G1 F4000


G1X21.3851Y-101.0977

G1X22.9104Y-101.2841

G1X24.0242Y-101.5722

G1X26.2783Y-102.4235

G1X27.2215Y-102.6177

G1X28.3179Y-102.7177

G1X30.9997Y-102.6072

G1X36.0107Y-101.9044

G1X37.7812Y-101.9036

G1X39.2086Y-102.2277

G1X41.3024Y-103.2072

G1X42.1051Y-103.4595

G1X43.3978Y-103.5932

G1X45.4009Y-103.5845

G1X47.9758Y-103.3453

G1X49.1437Y-103.1044

G1X50.2888Y-102.7661

G1X53.2078Y-101.5246

G1X55.4185Y-100.1611

G1X56.2177Y-99.8250

G1X57.3102Y-99.6604

G1X59.0182Y-99.6625

G1X61.3340Y-99.9294

G1X63.3112Y-100.4803

G1X64.5007Y-100.9956

G1X69.2449Y-103.4405

G1X70.1368Y-103.6082

G1X71.7351Y-103.6466

G1X74.5454Y-103.5943

G1X76.6629Y-103.3650

G1X78.3666Y-102.9898

G1X83.5815Y-101.4818

G1X85.0280Y-101.2419

G1X86.5211Y-101.1747

G1 Z0F20000

(Start Block)


G1X19.8486Y-100.2753
G1Z5F20000
(Plotting speed under)
G1 F4000


G1X21.3404Y-100.3157

G1X22.7329Y-100.4952

G1X23.8807Y-100.7769

G1X26.1248Y-101.5601

G1X28.1246Y-101.8214

G1X30.5914Y-101.7624

G1X35.8222Y-101.1150

G1X37.8220Y-101.0716

G1X39.1177Y-101.3111

G1X41.8051Y-102.2735

G1X42.7390Y-102.4043

G1X43.9729Y-102.4474

G1X47.0900Y-102.2976

G1X48.3445Y-102.1064

G1X49.6008Y-101.8071

G1X50.9978Y-101.3315

G1X53.0107Y-100.4522

G1X55.7630Y-98.9426

G1X56.5816Y-98.7099

G1X57.5503Y-98.6126

G1X58.7892Y-98.6289

G1X59.9652Y-98.7429

G1X61.1550Y-98.9605

G1X62.2702Y-99.2771

G1X63.8322Y-99.9465

G1X66.2862Y-101.4072

G1X68.2164Y-102.2875

G1X69.1154Y-102.4865

G1X74.5837Y-102.4984

G1X76.5217Y-102.3898

G1X78.3726Y-102.1105

G1X83.7191Y-100.9469

G1X85.1458Y-100.7692

G1X86.5403Y-100.7382

G1 Z0F20000

(Start Block)


G1X19.8422Y-99.5218
G1Z5F20000
(Plotting speed under)
G1 F4000


G1X21.2222Y-99.5963

G1X22.5771Y-99.7751

G1X23.7669Y-100.0434

G1X25.7282Y-100.6346

G1X27.4635Y-100.8665

G1X29.0112Y-100.9000

G1X30.6849Y-100.8274

G1X36.0141Y-100.2187

G1X37.6236Y-100.1396

G1X39.0515Y-100.2941

G1X41.2685Y-100.9403

G1X42.3178Y-101.1484

G1X43.7061Y-101.2445

G1X45.5355Y-101.2170

G1X47.7568Y-100.9936

G1X49.6823Y-100.5627

G1X52.0444Y-99.6706

G1X55.6024Y-97.9163

G1X56.5812Y-97.6627

G1X57.8590Y-97.5815

G1X59.9269Y-97.7741

G1X61.9162Y-98.3091

G1X63.5344Y-99.0845

G1X65.8010Y-100.6031

G1X67.3065Y-101.1610

G1X68.0885Y-101.3381

G1X71.0423Y-101.2270

G1X74.8865Y-101.3519

G1X76.7237Y-101.3143

G1X78.5632Y-101.1309

G1X83.7883Y-100.3506

G1X86.3270Y-100.2485

G1 Z0F20000

(Start Block)


G1X19.7600Y-98.7643
G1Z5F20000
(Plotting speed under)
G1 F4000


G1X22.2171Y-99.0010

G1X25.4308Y-99.6745

G1X27.3697Y-99.8759

G1X29.1067Y-99.8970

G1X31.1273Y-99.8056

G1X36.5394Y-99.2006

G1X38.0241Y-99.1206

G1X39.3512Y-99.2290

G1X42.7727Y-99.9050

G1X44.0920Y-99.9835

G1X45.6905Y-99.9518

G1X47.7787Y-99.7278

G1X49.6299Y-99.3167

G1X51.7809Y-98.5392

G1X55.3970Y-96.8566

G1X56.4558Y-96.6048

G1X57.6027Y-96.5387

G1X59.4998Y-96.7200

G1X61.4159Y-97.2425

G1X63.1090Y-98.0822

G1X65.3579Y-99.6989

G1X65.7769Y-99.8593

G1X67.2646Y-100.1851

G1X67.9839Y-100.2004

G1X70.9371Y-99.9835

G1X75.0990Y-100.1887

G1X77.0127Y-100.1954

G1X83.5573Y-99.6223

G1X85.9874Y-99.5742

G1 Z0F20000

(Start Block)


G1X19.6279Y-97.9400
G1Z5F20000
(Plotting speed under)
G1 F4000


G1X22.1459Y-98.1818

G1X25.5812Y-98.6857

G1X27.6743Y-98.8226

G1X29.6852Y-98.8178

G1X31.7496Y-98.7103

G1X37.2276Y-98.0652

G1X38.6019Y-97.9763

G1X39.9445Y-98.0590

G1X43.4430Y-98.5755

G1X46.1023Y-98.5930

G1X47.9901Y-98.3772

G1X49.7412Y-97.9897

G1X51.7089Y-97.3070

G1X55.1640Y-95.7677

G1X56.1854Y-95.5301

G1X57.3860Y-95.4614

G1X59.3208Y-95.6644

G1X61.1159Y-96.1765

G1X62.7630Y-97.0126

G1X64.9166Y-98.6299

G1X65.4385Y-98.8307

G1X66.6446Y-99.0258

G1X67.6201Y-99.0525

G1X69.6921Y-98.8514

G1X70.9995Y-98.8087

G1X75.3651Y-99.0353

G1X77.2255Y-99.0576

G1X83.3679Y-98.7105

G1X85.6777Y-98.6923

G1 Z0F20000

(Start Block)


G1X19.4967Y-97.0143
G1Z5F20000
(Plotting speed under)
G1 F4000


G1X25.9490Y-97.6025

G1X28.6551Y-97.7073

G1X30.7941Y-97.6620

G1X32.8019Y-97.5221

G1X38.0912Y-96.7938

G1X39.2465Y-96.6966

G1X40.6141Y-96.7441

G1X44.4084Y-97.1533

G1X46.8055Y-97.1349

G1X48.4302Y-96.9424

G1X50.0298Y-96.5965

G1X51.8132Y-96.0054

G1X55.0291Y-94.6263

G1X56.0879Y-94.4022

G1X57.1898Y-94.3472

G1X59.0801Y-94.5424

G1X60.9625Y-95.0801

G1X62.5881Y-95.9104

G1X64.7173Y-97.5019

G1X65.2535Y-97.7063

G1X66.1599Y-97.8381

G1X67.5392Y-97.9128

G1X71.2258Y-97.7261

G1X77.0266Y-97.9141

G1X83.2175Y-97.6562

G1X85.5153Y-97.6480

G1 Z0F20000

(Start Block)


G1X19.4167Y-95.9773
G1Z5F20000
(Plotting speed under)
G1 F4000


G1X27.0867Y-96.4685

G1X29.7810Y-96.5266

G1X31.9038Y-96.4464

G1X33.9171Y-96.2578

G1X38.8947Y-95.3955

G1X39.9219Y-95.2892

G1X41.5361Y-95.3130

G1X45.4507Y-95.6528

G1X47.7327Y-95.6224

G1X49.4122Y-95.4095

G1X50.9985Y-95.0349

G1X52.1159Y-94.6528

G1X54.2315Y-93.7196

G1X55.1223Y-93.4203

G1X55.9755Y-93.2594

G1X57.0276Y-93.2037

G1X58.8918Y-93.3775

G1X60.7652Y-93.8776

G1X62.4147Y-94.6637

G1X64.7703Y-96.3143

G1X65.3366Y-96.5167

G1X66.4946Y-96.6743

G1X67.9925Y-96.7691

G1X71.3304Y-96.6962

G1X76.2537Y-96.7672

G1X82.9441Y-96.4959

G1X85.5497Y-96.4815

G1 Z0F20000

(Start Block)


G1X19.4187Y-94.8282
G1Z5F20000
(Plotting speed under)
G1 F4000


G1X22.1808Y-94.9825

G1X25.2440Y-95.0466

G1X28.6748Y-95.2691

G1X30.8276Y-95.2896

G1X32.8670Y-95.1799

G1X34.7766Y-94.9500

G1X36.5935Y-94.6068

G1X39.2731Y-93.9546

G1X40.5898Y-93.7811

G1X42.4246Y-93.7957

G1X46.6320Y-94.1659

G1X48.7559Y-94.1455

G1X50.1898Y-93.9685

G1X51.5189Y-93.6570

G1X55.1099Y-92.2584

G1X55.9622Y-92.0994

G1X57.0100Y-92.0408

G1X58.8615Y-92.1957

G1X60.6264Y-92.6205

G1X62.4079Y-93.3854

G1X65.0760Y-95.0533

G1X65.6816Y-95.2423

G1X67.5527Y-95.4990

G1X69.5277Y-95.6152

G1X74.9202Y-95.6092

G1X82.6420Y-95.2230

G1X85.7665Y-95.1873

G1 Z0F20000

(Start Block)


G1X19.5051Y-93.5623
G1Z5F20000
(Plotting speed under)
G1 F4000


G1X22.3173Y-93.6774

G1X25.5859Y-93.6434

G1X30.2228Y-94.0042

G1X32.5495Y-93.9672

G1X35.5564Y-93.5878

G1X37.1513Y-93.2145

G1X39.7082Y-92.4484

G1X41.5036Y-92.2296

G1X43.3784Y-92.3041

G1X47.6167Y-92.7803

G1X49.7008Y-92.7830

G1X50.8132Y-92.6455

G1X51.9177Y-92.3829

G1X54.3218Y-91.3806

G1X55.2262Y-91.0848

G1X56.1578Y-90.9173

G1X57.1419Y-90.8641

G1X58.8902Y-90.9862

G1X60.6459Y-91.3529

G1X62.4668Y-92.0321

G1X64.8065Y-93.3294

G1X65.5638Y-93.6742

G1X66.1921Y-93.8337

G1X69.1667Y-94.2557

G1X71.3606Y-94.3734

G1X74.1802Y-94.3537

G1X82.2461Y-93.8087

G1X86.0893Y-93.7272

G1 Z0F20000

(Start Block)


G1X19.6468Y-92.1695
G1Z5F20000
(Plotting speed under)
G1 F4000


G1X22.4874Y-92.2438

G1X25.8137Y-92.1075

G1X30.4460Y-92.6434

G1X33.1108Y-92.6604

G1X34.5187Y-92.5205

G1X35.9226Y-92.2721

G1X37.4890Y-91.8525

G1X39.8911Y-91.0126

G1X40.7733Y-90.8434

G1X41.7989Y-90.7705

G1X43.8431Y-90.8904

G1X48.2120Y-91.5286

G1X50.2077Y-91.5740

G1X51.2146Y-91.4538

G1X52.2154Y-91.2072

G1X54.5397Y-90.2104

G1X55.4737Y-89.9027

G1X56.4587Y-89.7282

G1X57.5223Y-89.6751

G1X59.4800Y-89.8205

G1X61.3466Y-90.2161

G1X62.8695Y-90.7435

G1X65.2827Y-91.8550

G1X66.2011Y-92.1731

G1X68.9133Y-92.6230

G1X70.5734Y-92.8165

G1X72.4371Y-92.9028

G1X74.4860Y-92.8657

G1X81.0340Y-92.2815

G1X83.9941Y-92.1217

G1X86.3918Y-92.0873

G1 Z0F20000

(Start Block)


G1X19.7866Y-90.6467
G1Z5F20000
(Plotting speed under)
G1 F4000


G1X22.5542Y-90.6895

G1X26.0771Y-90.4801

G1X27.4328Y-90.6365

G1X30.9631Y-91.2801

G1X32.2812Y-91.3790

G1X33.5328Y-91.3649

G1X34.8069Y-91.2471

G1X36.1310Y-91.0111

G1X37.6725Y-90.5744

G1X39.9638Y-89.7033

G1X40.9578Y-89.5139

G1X41.9816Y-89.4570

G1X44.1163Y-89.6290

G1X48.5550Y-90.4152

G1X50.4950Y-90.4895

G1X51.5066Y-90.3667

G1X52.4149Y-90.1306

G1X54.7792Y-89.0778

G1X55.7374Y-88.7400

G1X56.7609Y-88.5420

G1X57.9511Y-88.4752

G1X59.5287Y-88.5572

G1X61.0587Y-88.7864

G1X62.8264Y-89.2393

G1X66.3812Y-90.4692

G1X69.5788Y-90.9861

G1X71.5520Y-91.1946

G1X74.7406Y-91.2020

G1X80.6521Y-90.5860

G1X83.8799Y-90.3966

G1X86.5507Y-90.3372

G1 Z0F20000

(Start Block)


G1X19.8546Y-89.0168
G1Z5F20000
(Plotting speed under)
G1 F4000


G1X22.5172Y-89.0512

G1X25.2924Y-88.8198

G1X26.2032Y-88.8312

G1X27.6951Y-89.0624

G1X31.4184Y-89.9563

G1X32.6081Y-90.0979

G1X33.9003Y-90.1206

G1X35.3695Y-89.9919

G1X36.7925Y-89.7112

G1X40.2988Y-88.4995

G1X41.1893Y-88.3676

G1X42.0901Y-88.3384

G1X44.2308Y-88.5502

G1X48.5297Y-89.4089

G1X50.4548Y-89.5194

G1X51.5774Y-89.3939

G1X52.5060Y-89.1525

G1X55.2613Y-87.8853

G1X56.2388Y-87.5349

G1X57.2707Y-87.3398

G1X58.4552Y-87.2744

G1X59.9468Y-87.3364

G1X61.4800Y-87.5299

G1X63.1477Y-87.8847

G1X66.5041Y-88.8090

G1X70.0813Y-89.3553

G1X72.2345Y-89.5521

G1X74.9731Y-89.5213

G1X80.5381Y-88.8819

G1X83.7633Y-88.6902

G1X86.5326Y-88.6246

G1 Z0F20000

(Start Block)


G1X19.7922Y-87.3207
G1Z5F20000
(Plotting speed under)
G1 F4000


G1X22.1046Y-87.3061

G1X25.1473Y-87.0517

G1X26.1683Y-87.0817

G1X27.9508Y-87.4017

G1X32.0077Y-88.5289

G1X33.0965Y-88.6972

G1X34.2270Y-88.7542

G1X35.4511Y-88.6861

G1X36.6172Y-88.5001

G1X37.8956Y-88.1532

G1X39.9590Y-87.3873

G1X40.7309Y-87.2363

G1X41.6361Y-87.1694

G1X42.7914Y-87.2123

G1X44.0257Y-87.3727

G1X48.8445Y-88.3919

G1X50.0871Y-88.4927

G1X51.1273Y-88.4482

G1X51.9590Y-88.3137

G1X52.7965Y-88.0705

G1X56.4576Y-86.4756

G1X57.4556Y-86.2488

G1X58.5979Y-86.1468

G1X60.0075Y-86.1611

G1X61.5666Y-86.2995

G1X63.1995Y-86.5627

G1X66.4261Y-87.2422

G1X69.8795Y-87.6700

G1X72.0858Y-87.8255

G1X75.0950Y-87.7363

G1X80.8586Y-87.0673

G1X83.5965Y-86.9695

G1X86.3812Y-86.9811

G1 Z0F20000

(Start Block)


G1X19.5930Y-85.6734
G1Z5F20000
(Plotting speed under)
G1 F4000


G1X24.7680Y-85.2988

G1X26.0185Y-85.3477

G1X28.3234Y-85.7579

G1X32.6891Y-86.9734

G1X33.8126Y-87.1561

G1X34.8397Y-87.2160

G1X35.9792Y-87.1586

G1X37.1066Y-86.9740

G1X40.2367Y-85.9945

G1X41.2364Y-85.8844

G1X42.2316Y-85.8902

G1X44.5137Y-86.1911

G1X48.8571Y-87.1994

G1X50.6632Y-87.3550

G1X51.6284Y-87.2875

G1X52.5698Y-87.0983

G1X56.6724Y-85.5182

G1X57.7371Y-85.2586

G1X58.9800Y-85.1185

G1X61.5868Y-85.1716

G1X66.4210Y-85.8175

G1X70.9564Y-86.0865

G1X73.9322Y-85.9797

G1X80.1476Y-85.3236

G1X82.8597Y-85.3035

G1X86.1541Y-85.4479

G1 Z0F20000

(Start Block)


G1X19.3368Y-84.1656
G1Z5F20000
(Plotting speed under)
G1 F4000


G1X23.9195Y-83.7464

G1X25.9433Y-83.7978

G1X28.6692Y-84.2108

G1X33.4495Y-85.3886

G1X35.3731Y-85.5879

G1X36.4162Y-85.5434

G1X37.3385Y-85.4058

G1X40.1426Y-84.6238

G1X41.1373Y-84.5331

G1X42.2385Y-84.5498

G1X44.7701Y-84.8981

G1X49.2252Y-85.9665

G1X51.0321Y-86.1426

G1X51.9412Y-86.0892

G1X52.8752Y-85.9142

G1X57.5578Y-84.4899

G1X59.7753Y-84.1890

G1X61.9361Y-84.1815

G1X66.1304Y-84.4942

G1X68.5931Y-84.5488

G1X71.5343Y-84.4297

G1X76.8444Y-83.9015

G1X79.2933Y-83.7558

G1X82.3348Y-83.7949

G1X85.9467Y-84.0630

G1 Z0F20000

(Start Block)


G1X19.1326Y-82.8184
G1Z5F20000
(Plotting speed under)
G1 F4000


G1X22.8493Y-82.4156

G1X26.1653Y-82.4567

G1X29.1085Y-82.8076

G1X33.9636Y-83.7950

G1X35.7927Y-83.9616

G1X37.4992Y-83.8354

G1X40.1260Y-83.2468

G1X42.3193Y-83.2118

G1X45.1077Y-83.5909

G1X49.8242Y-84.7133

G1X51.5265Y-84.8846

G1X53.1818Y-84.7183

G1X58.3973Y-83.6432

G1X61.0418Y-83.3600

G1X67.6984Y-83.2611

G1X74.1609Y-82.5882

G1X77.5734Y-82.4130

G1X81.7480Y-82.4542

G1X85.8423Y-82.8206

G1 Z0F20000

(Start Block)


G1X19.0619Y-81.6140
G1Z5F20000
(Plotting speed under)
G1 F4000


G1X20.6701Y-81.3354

G1X21.9508Y-81.2171

G1X26.5335Y-81.2356

G1X29.1670Y-81.4574

G1X34.0919Y-82.2447

G1X36.1613Y-82.4152

G1X37.5980Y-82.3374

G1X40.2189Y-81.9145

G1X42.4981Y-81.9098

G1X45.2050Y-82.2357

G1X50.2250Y-83.3915

G1X51.3304Y-83.5631

G1X52.2483Y-83.6133

G1X55.5883Y-83.3462

G1X67.1335Y-82.1366

G1X71.3729Y-81.4635

G1X73.4304Y-81.2674

G1X76.5158Y-81.1905

G1X81.0208Y-81.2221

G1X83.3932Y-81.3795

G1X85.8832Y-81.7101

G1 Z0F20000

(Start Block)


G1X19.1539Y-80.5438
G1Z5F20000
(Plotting speed under)
G1 F4000


G1X20.4168Y-80.2311

G1X21.3496Y-80.0917

G1X24.7386Y-80.0322

G1X29.0133Y-80.1909

G1X34.4270Y-80.8495

G1X36.1072Y-80.9815

G1X37.5817Y-80.9591

G1X40.4610Y-80.6516

G1X42.7985Y-80.6564

G1X44.5144Y-80.8010

G1X46.1733Y-81.0470

G1X51.8106Y-82.2794

G1X56.9883Y-82.5086

G1X59.3369Y-82.4224

G1X61.5461Y-82.1563

G1X67.3890Y-81.0286

G1X70.3920Y-80.3121

G1X72.2035Y-80.0892

G1X75.2886Y-80.0307

G1X81.1261Y-80.0796

G1X83.4932Y-80.2897

G1X86.0598Y-80.7442

G1 Z0F20000

(Start Block)


G1X19.3794Y-79.6293
G1Z5F20000
(Plotting speed under)
G1 F4000


G1X21.3318Y-79.0289

G1X23.4451Y-78.8942

G1X28.9276Y-79.0106

G1X36.6034Y-79.6930

G1X37.9489Y-79.6786

G1X41.3244Y-79.4432

G1X43.8595Y-79.4787

G1X45.5892Y-79.6333

G1X47.2569Y-79.8863

G1X51.9182Y-80.9590

G1X55.8626Y-81.6559

G1X57.1786Y-81.8319

G1X58.5340Y-81.9009

G1X60.4730Y-81.7918

G1X62.3751Y-81.4619

G1X67.4627Y-80.0151

G1X69.8101Y-79.2366

G1X71.6164Y-78.9354

G1X76.9622Y-78.8863

G1X81.0047Y-78.9723

G1X83.5726Y-79.2944

G1X86.3066Y-79.9524

G1 Z0F20000

(Start Block)


G1X19.6489Y-78.9016
G1Z5F20000
(Plotting speed under)
G1 F4000


G1X21.7946Y-78.0449

G1X22.5999Y-77.8896

G1X23.6025Y-77.8258

G1X29.1473Y-77.9128

G1X37.2903Y-78.5363

G1X38.6357Y-78.5218

G1X42.4705Y-78.2855

G1X44.9412Y-78.3222

G1X46.8992Y-78.5108

G1X48.9132Y-78.8628

G1X53.3161Y-79.9852

G1X56.4307Y-80.9773

G1X57.5435Y-81.1806

G1X58.7472Y-81.2549

G1X60.7693Y-81.1239

G1X62.8104Y-80.7139

G1X67.4431Y-79.0897

G1X69.7363Y-78.1360

G1X70.5660Y-77.9129

G1X71.4997Y-77.7940

G1X76.3497Y-77.7572

G1X80.9787Y-77.9482

G1X83.5483Y-78.4056

G1X86.5106Y-79.3420

G1 Z0F20000

(Start Block)


G1X19.8323Y-78.3485
G1Z5F20000
(Plotting speed under)
G1 F4000


G1X22.4519Y-77.2002

G1X23.2080Y-77.0101

G1X24.1218Y-76.9199

G1X26.9159Y-76.8588

G1X29.7288Y-76.9191

G1X38.3939Y-77.5219

G1X39.7537Y-77.4776

G1X43.3087Y-77.1649

G1X45.8310Y-77.1722

G1X48.3540Y-77.4501

G1X50.9295Y-78.0342

G1X53.3036Y-78.7841

G1X55.8034Y-79.9562

G1X56.7399Y-80.2679

G1X57.8692Y-80.4313

G1X59.2115Y-80.4489

G1X61.4209Y-80.2328

G1X63.6039Y-79.7056

G1X67.2957Y-78.2405

G1X69.5274Y-77.1641

G1X70.4021Y-76.8582

G1X71.7140Y-76.6671

G1X73.9554Y-76.6250

G1X77.2926Y-76.7456

G1X81.3693Y-77.1265

G1X83.6409Y-77.7101

G1X86.5527Y-78.8517

G1 Z0F20000

(Start Block)


G1X19.8225Y-77.8730
G1Z5F20000
(Plotting speed under)
G1 F4000


G1X22.9871Y-76.5683

G1X23.6807Y-76.3674

G1X24.5227Y-76.2488

G1X27.9480Y-76.0600

G1X30.7748Y-76.0576

G1X39.1227Y-76.6456

G1X40.4673Y-76.5536

G1X43.9524Y-76.0831

G1X46.3365Y-76.0345

G1X49.0146Y-76.3253

G1X51.5736Y-76.9688

G1X53.4011Y-77.6587

G1X55.6313Y-78.9965

G1X56.4637Y-79.3265

G1X57.5641Y-79.4736

G1X59.4225Y-79.4716

G1X61.8706Y-79.2203

G1X63.9542Y-78.6900

G1X67.1980Y-77.3364

G1X69.5131Y-76.1476

G1X70.3884Y-75.8125

G1X71.5453Y-75.6072

G1X73.3357Y-75.5489

G1X76.6183Y-75.7408

G1X81.4018Y-76.4420

G1X83.1933Y-76.9820

G1X86.3833Y-78.3483

G1 Z0F20000

(Start Block)


G1X19.6193Y-77.3191
G1Z5F20000
(Plotting speed under)
G1 F4000


G1X23.9661Y-75.8748

G1X27.8690Y-75.4568

G1X30.2255Y-75.3159

G1X32.4818Y-75.3268

G1X39.4890Y-75.8918

G1X40.8417Y-75.7555

G1X44.4144Y-75.0674

G1X46.7954Y-74.9513

G1X48.0605Y-75.0349

G1X49.3943Y-75.2264

G1X50.6842Y-75.5196

G1X51.8632Y-75.8887

G1X53.4931Y-76.5909

G1X55.4258Y-77.9413

G1X56.1222Y-78.2601

G1X57.3070Y-78.3994

G1X59.9639Y-78.3681

G1X62.1507Y-78.1257

G1X64.1432Y-77.6015

G1X67.1057Y-76.3269

G1X69.3594Y-75.1585

G1X70.2741Y-74.7923

G1X71.3582Y-74.5757

G1X72.8993Y-74.5081

G1X74.6143Y-74.5906

G1X76.2934Y-74.7998

G1X81.4491Y-75.9052

G1X82.6897Y-76.3006

G1X85.0436Y-77.3361

G1X86.0773Y-77.6902

G1 Z0F20000

(Start Block)


G1X19.3587Y-76.5571
G1Z5F20000
(Plotting speed under)
G1 F4000


G1X20.9010Y-76.2119

G1X24.1211Y-75.3197

G1X28.8444Y-74.7907

G1X31.0102Y-74.6507

G1X33.0814Y-74.6619

G1X35.1004Y-74.8018

G1X38.7323Y-75.2014

G1X39.6588Y-75.2307

G1X41.1561Y-75.0299

G1X44.9062Y-74.1243

G1X46.0840Y-73.9831

G1X47.2200Y-73.9540

G1X49.5601Y-74.1882

G1X50.7159Y-74.4479

G1X51.8790Y-74.8152

G1X53.3889Y-75.4834

G1X55.3282Y-76.8719

G1X56.0043Y-77.1595

G1X57.2535Y-77.2686

G1X60.1048Y-77.2244

G1X61.8328Y-77.0415

G1X63.5445Y-76.6421

G1X65.0694Y-76.0647

G1X69.7604Y-73.8209

G1X70.9665Y-73.5352

G1X72.3719Y-73.4534

G1X74.5796Y-73.6001

G1X76.7000Y-74.0012

G1X80.0010Y-75.0171

G1X81.8016Y-75.4381

G1X84.5833Y-76.5009

G1X85.8137Y-76.8049

G1 Z0F20000

(Start Block)


G1X19.1484Y-75.6229
G1Z5F20000
(Plotting speed under)
G1 F4000


G1X20.7893Y-75.3614

G1X24.2392Y-74.6478

G1X30.6255Y-74.0564

G1X33.7524Y-74.0669

G1X38.8960Y-74.5932

G1X39.9411Y-74.5824

G1X41.5812Y-74.3006

G1X45.5077Y-73.2401

G1X46.6982Y-73.0712

G1X47.8325Y-73.0292

G1X49.9558Y-73.2348

G1X51.9966Y-73.7769

G1X53.2909Y-74.3282

G1X55.2544Y-75.6461

G1X56.0696Y-75.9885

G1X57.3656Y-76.1080

G1X59.9304Y-76.0619

G1X61.7397Y-75.8620

G1X63.2471Y-75.5150

G1X64.8317Y-74.9323

G1X69.3537Y-72.8573

G1X70.6080Y-72.5486

G1X71.9889Y-72.4559

G1X73.7544Y-72.5667

G1X75.6072Y-72.9056

G1X77.1452Y-73.3661

G1X80.1479Y-74.4941

G1X81.6695Y-74.8262

G1X84.1166Y-75.5610

G1X85.6379Y-75.7887

G1 Z0F20000

(Start Block)


G1X18.9888Y-74.6024
G1Z5F20000
(Plotting speed under)
G1 F4000


G1X23.9518Y-73.9441

G1X31.3131Y-73.4029

G1X34.1508Y-73.4347

G1X38.8265Y-73.9118

G1X39.9614Y-73.8936

G1X42.1026Y-73.5157

G1X46.2940Y-72.3459

G1X47.5024Y-72.1558

G1X48.6370Y-72.0993

G1X50.5176Y-72.2566

G1X52.4058Y-72.7294

G1X53.6746Y-73.2747

G1X55.6459Y-74.4610

G1X56.4200Y-74.7451

G1X57.6668Y-74.8915

G1X59.6531Y-74.8660

G1X61.3904Y-74.6931

G1X62.9583Y-74.3727

G1X64.4770Y-73.8781

G1X66.6100Y-72.9569

G1X68.9959Y-72.0466

G1X70.3222Y-71.7366

G1X71.7221Y-71.6394

G1X73.4016Y-71.7637

G1X75.2059Y-72.1446

G1X76.7184Y-72.6613

G1X79.2122Y-73.7403

G1X80.0145Y-73.9831

G1X83.4738Y-74.6012

G1X85.4811Y-74.7363

G1 Z0F20000

(Start Block)


G1X18.9137Y-73.5068
G1Z5F20000
(Plotting speed under)
G1 F4000


G1X23.5328Y-73.1118

G1X26.0772Y-73.0342

G1X32.1677Y-72.6507

G1X34.5797Y-72.6922

G1X38.7047Y-73.1108

G1X40.0264Y-73.0938

G1X42.5769Y-72.6794

G1X47.4868Y-71.3372

G1X48.6004Y-71.1668

G1X49.7237Y-71.1104

G1X51.2477Y-71.2242

G1X52.8022Y-71.5785

G1X53.9848Y-72.0447

G1X56.0665Y-73.0947

G1X56.8925Y-73.3776

G1X58.0883Y-73.5594

G1X59.7087Y-73.5695

G1X61.2290Y-73.4364

G1X62.7410Y-73.1701

G1X64.1453Y-72.7918

G1X66.6052Y-71.9155

G1X68.4525Y-71.3548

G1X69.8771Y-71.0696

G1X71.2159Y-70.9818

G1X72.8501Y-71.1027

G1X74.4237Y-71.4360

G1X75.8369Y-71.9108

G1X78.3777Y-72.9983

G1X79.3791Y-73.2796

G1X82.8854Y-73.6149

G1X85.3780Y-73.6420

G1 Z0F20000

(Start Block)


G1X18.9386Y-72.3439
G1Z5F20000
(Plotting speed under)
G1 F4000


G1X23.1740Y-72.1335

G1X26.3622Y-72.1225

G1X33.1845Y-71.7577

G1X35.6729Y-71.8436

G1X38.7149Y-72.1883

G1X40.3069Y-72.1704

G1X41.8304Y-71.9991

G1X43.4472Y-71.6897

G1X48.6579Y-70.2544

G1X49.7754Y-70.0778

G1X50.8020Y-70.0240

G1X51.9481Y-70.0982

G1X52.9836Y-70.2971

G1X54.1017Y-70.6443

G1X56.9416Y-71.7325

G1X57.9224Y-71.9727

G1X58.9614Y-72.1001

G1X60.5239Y-72.1091

G1X62.2733Y-71.9336

G1X63.8972Y-71.6233

G1X67.9002Y-70.6287

G1X69.2973Y-70.4346

G1X70.5666Y-70.3910

G1X71.9659Y-70.4977

G1X73.4692Y-70.7885

G1X74.7888Y-71.1848

G1X77.3129Y-72.1155

G1X78.5984Y-72.4059

G1X82.4259Y-72.5673

G1X85.3534Y-72.5068

G1 Z0F20000

(Start Block)


G1X19.0593Y-71.1102
G1Z5F20000
(Plotting speed under)
G1 F4000


G1X22.8658Y-71.0267

G1X26.4016Y-71.1129

G1X34.0341Y-70.7207

G1X36.1597Y-70.8146

G1X38.9049Y-71.1651

G1X40.9528Y-71.1440

G1X42.5847Y-70.9715

G1X44.1287Y-70.6948

G1X45.8477Y-70.2584

G1X49.5858Y-69.1167

G1X50.6958Y-68.9097

G1X51.7184Y-68.8459

G1X53.4599Y-69.0468

G1X57.7216Y-70.1738

G1X59.8869Y-70.5033

G1X61.1371Y-70.5437

G1X62.5804Y-70.4794

G1X67.4780Y-69.8020

G1X69.4075Y-69.7281

G1X70.6676Y-69.8235

G1X72.0081Y-70.0429

G1X75.9147Y-71.0981

G1X77.5327Y-71.3770

G1X78.8624Y-71.4510

G1X82.1112Y-71.4593

G1X85.4192Y-71.3289

G1 Z0F20000

(Start Block)


G1X19.2518Y-69.7935
G1Z5F20000
(Plotting speed under)
G1 F4000


G1X22.6108Y-69.7931

G1X24.9369Y-69.9857

G1X26.4421Y-70.0103

G1X32.9274Y-69.5936

G1X34.7484Y-69.5479

G1X36.6285Y-69.6616

G1X39.2869Y-70.0736

G1X41.7488Y-70.0649

G1X43.5715Y-69.8759

G1X45.2474Y-69.5625

G1X46.9884Y-69.0826

G1X50.4953Y-67.8842

G1X51.4801Y-67.6791

G1X52.3850Y-67.6179

G1X54.4311Y-67.8098

G1X59.2092Y-68.6331

G1X61.4671Y-68.9040

G1X63.6383Y-68.9976

G1X67.3810Y-68.8774

G1X68.9777Y-68.9610

G1X70.6123Y-69.2207

G1X74.1613Y-70.0161

G1X76.0593Y-70.2645

G1X78.1483Y-70.3419

G1X81.6322Y-70.3075

G1X85.5718Y-70.0981

G1 Z0F20000

(Start Block)


G1X19.4743Y-68.3833
G1Z5F20000
(Plotting speed under)
G1 F4000


G1X22.5660Y-68.4314

G1X25.0300Y-68.7651

G1X26.5776Y-68.8245

G1X28.9084Y-68.7153

G1X33.5307Y-68.2942

G1X35.4285Y-68.2484

G1X37.0703Y-68.3935

G1X39.7390Y-68.9340

G1X41.0120Y-69.0024

G1X42.5680Y-68.9643

G1X44.5911Y-68.7497

G1X46.5154Y-68.3428

G1X47.8621Y-67.9225

G1X50.6296Y-66.8305

G1X51.5960Y-66.5334

G1X52.4728Y-66.3995

G1X53.6229Y-66.3808

G1X55.5520Y-66.4460

G1X57.4945Y-66.6136

G1X64.4994Y-67.6779

G1X67.8825Y-67.9611

G1X72.0758Y-68.8702

G1X73.9828Y-69.1149

G1X76.1782Y-69.1957

G1X79.0103Y-69.1731

G1X83.2636Y-69.0215

G1X85.7905Y-68.7981

G1 Z0F20000

(Start Block)


G1X19.6746Y-66.8863
G1Z5F20000
(Plotting speed under)
G1 F4000


G1X22.6564Y-66.9490

G1X23.7310Y-67.1028

G1X25.3057Y-67.4679

G1X26.8363Y-67.5572

G1X29.2513Y-67.4235

G1X33.9728Y-66.8778

G1X35.9137Y-66.8269

G1X37.5528Y-67.0329

G1X39.3234Y-67.5760

G1X40.3067Y-67.7797

G1X41.6493Y-67.8860

G1X43.1781Y-67.8653

G1X45.3235Y-67.6447

G1X47.1960Y-67.2309

G1X48.7601Y-66.6938

G1X51.4093Y-65.5399

G1X52.2550Y-65.2881

G1X54.5666Y-65.0334

G1X56.5760Y-64.9617

G1X58.6227Y-65.0686

G1X60.7412Y-65.3748

G1X65.4240Y-66.5382

G1X67.8159Y-66.9623

G1X70.6637Y-67.7394

G1X72.2845Y-67.9799

G1X74.6274Y-68.0595

G1X77.7968Y-68.0030

G1X83.4918Y-67.6640

G1X86.0382Y-67.4165

G1 Z0F20000

(Start Block)


G1X19.8074Y-65.3370
G1Z5F20000
(Plotting speed under)
G1 F4000


G1X21.4370Y-65.2973

G1X22.8077Y-65.3835

G1X23.9051Y-65.5868

G1X25.5079Y-66.0739

G1X27.2235Y-66.2114

G1X29.5266Y-66.0521

G1X34.2939Y-65.3653

G1X36.2585Y-65.3094

G1X37.9206Y-65.5795

G1X39.9400Y-66.3722

G1X40.8720Y-66.6272

G1X42.1685Y-66.7683

G1X43.7919Y-66.7595

G1X45.8617Y-66.5523

G1X47.7912Y-66.1158

G1X49.1661Y-65.6261

G1X51.5810Y-64.4971

G1X52.4993Y-64.1728

G1X55.4227Y-63.6100

G1X57.6087Y-63.4788

G1X59.6138Y-63.6164

G1X61.6902Y-64.0006

G1X63.1811Y-64.4298

G1X65.8907Y-65.3786

G1X67.6856Y-65.8442

G1X69.7507Y-66.5498

G1X71.4023Y-66.8506

G1X73.6681Y-66.9198

G1X76.6003Y-66.8370

G1X81.8316Y-66.3108

G1X86.2680Y-65.9578

G1 Z0F20000

(Start Block)


G1X19.8545Y-63.7966
G1Z5F20000
(Plotting speed under)
G1 F4000


G1X21.4761Y-63.7091

G1X22.8657Y-63.7940

G1X24.0052Y-64.0295

G1X25.7874Y-64.6470

G1X27.4374Y-64.8091

G1X29.6817Y-64.6341

G1X34.4461Y-63.8179

G1X35.4896Y-63.7384

G1X36.5318Y-63.7618

G1X37.4534Y-63.8916

G1X38.3474Y-64.1429

G1X40.5236Y-65.1980

G1X41.4036Y-65.4964

G1X42.5636Y-65.6521

G1X44.2953Y-65.6542

G1X46.3663Y-65.4517

G1X48.2000Y-65.0394

G1X49.6776Y-64.5053

G1X52.3383Y-63.2581

G1X55.0843Y-62.4179

G1X56.5103Y-62.1564

G1X58.0297Y-62.0896

G1X60.2147Y-62.2577

G1X62.2966Y-62.6900

G1X63.7172Y-63.1532

G1X69.5007Y-65.3819

G1X70.2829Y-65.5905

G1X71.1222Y-65.7045

G1X73.3538Y-65.7589

G1X75.8324Y-65.6509

G1X77.8094Y-65.4173

G1X82.1828Y-64.6567

G1X86.4382Y-64.4539

G1 Z0F20000

(Start Block)


G1X19.8380Y-62.3381
G1Z5F20000
(Plotting speed under)
G1 F4000


G1X21.4372Y-62.2021

G1X22.9073Y-62.2814

G1X24.0226Y-62.5189

G1X26.0097Y-63.2349

G1X27.6841Y-63.4045

G1X29.8916Y-63.2014

G1X34.4284Y-62.3244

G1X35.5715Y-62.2302

G1X36.6023Y-62.2595

G1X37.6158Y-62.4171

G1X38.6125Y-62.7310

G1X40.9514Y-64.0411

G1X41.6613Y-64.3401

G1X42.4917Y-64.5067

G1X43.6729Y-64.5666

G1X46.1893Y-64.4345

G1X48.3026Y-64.0400

G1X49.8187Y-63.5377

G1X52.3050Y-62.4009

G1X55.3179Y-61.2209

G1X56.3957Y-60.9389

G1X57.6194Y-60.8152

G1X60.1545Y-60.9185

G1X62.5222Y-61.3620

G1X64.3100Y-61.9581

G1X67.5749Y-63.2686

G1X69.6741Y-64.2080

G1X70.4684Y-64.4196

G1X71.3428Y-64.5286

G1X73.7884Y-64.5423

G1X76.2262Y-64.3182

G1X78.1111Y-63.9478

G1X81.1348Y-63.1257

G1X82.4699Y-62.9065

G1X84.1168Y-62.8376

G1X86.5305Y-62.9634

G1 Z0F20000

(Start Block)


G1X19.8110Y-61.0320
G1Z5F20000
(Plotting speed under)
G1 F4000


G1X21.5032Y-60.8562

G1X22.9649Y-60.9347

G1X24.1054Y-61.1867

G1X26.0607Y-61.8997

G1X26.8365Y-62.0364

G1X27.7484Y-62.0840

G1X29.9376Y-61.8739

G1X34.3886Y-60.9677

G1X35.5203Y-60.8697

G1X36.6554Y-60.9049

G1X37.7918Y-61.1003

G1X38.8143Y-61.4538

G1X39.6596Y-61.9009

G1X41.2064Y-62.9169

G1X41.8142Y-63.2072

G1X42.6741Y-63.3968

G1X43.8924Y-63.4568

G1X46.6155Y-63.3249

G1X48.9220Y-62.8912

G1X50.3433Y-62.4223

G1X53.3887Y-61.1818

G1X55.9332Y-59.9910

G1X56.8700Y-59.7353

G1X57.9910Y-59.6187

G1X60.5936Y-59.7166

G1X63.0197Y-60.1601

G1X64.3950Y-60.5876

G1X67.2910Y-61.6912

G1X69.9697Y-62.9216

G1X70.8012Y-63.1541

G1X71.7998Y-63.2796

G1X73.9866Y-63.2598

G1X76.2545Y-62.9658

G1X78.0120Y-62.5255

G1X80.9024Y-61.5317

G1X82.1536Y-61.2759

G1X84.0695Y-61.2430

G1X86.5596Y-61.5601

G1 Z0F20000

(Start Block)


G1X19.7917Y-59.8022
G1Z5F20000
(Plotting speed under)
G1 F4000


G1X21.4693Y-59.6079

G1X22.9304Y-59.6707

G1X24.0841Y-59.9105

G1X26.1978Y-60.6440

G1X27.8987Y-60.8168

G1X29.9547Y-60.6334

G1X34.3828Y-59.7977

G1X35.6320Y-59.7095

G1X36.7563Y-59.7639

G1X37.8945Y-59.9762

G1X38.9136Y-60.3425

G1X39.8353Y-60.8491

G1X41.2777Y-61.8348

G1X41.8802Y-62.1238

G1X42.6850Y-62.2922

G1X43.9555Y-62.3456

G1X46.9641Y-62.2285

G1X48.2262Y-62.0579

G1X49.5042Y-61.7802

G1X53.6045Y-60.3841

G1X56.7280Y-58.8063

G1X57.5570Y-58.5836

G1X58.5733Y-58.4737

G1X61.1818Y-58.5574

G1X63.7777Y-59.0083

G1X67.3968Y-60.1404

G1X70.6841Y-61.5983

G1X71.5861Y-61.8244

G1X72.4666Y-61.9234

G1X74.3155Y-61.8861

G1X76.3106Y-61.5794

G1X78.0746Y-61.0803

G1X80.8836Y-60.0221

G1X81.9804Y-59.7941

G1X82.8933Y-59.7446

G1X84.0183Y-59.8065

G1X86.5614Y-60.2515

G1 Z0F20000

(Start Block)


G1X19.7191Y-58.4264
G1Z5F20000
(Plotting speed under)
G1 F4000


G1X21.3696Y-58.2306

G1X22.9365Y-58.2882

G1X24.0099Y-58.4890

G1X26.3072Y-59.2085

G1X28.1777Y-59.4179

G1X30.0737Y-59.3180

G1X34.4050Y-58.7476

G1X35.5533Y-58.7023

G1X36.6920Y-58.7671

G1X37.8132Y-58.9664

G1X38.9067Y-59.3368

G1X39.8846Y-59.8610

G1X41.1859Y-60.7385

G1X41.7848Y-61.0258

G1X42.5498Y-61.1798

G1X43.7528Y-61.2226

G1X47.6454Y-61.1152

G1X49.1357Y-60.9221

G1X50.6081Y-60.6111

G1X52.9563Y-59.9740

G1X53.9388Y-59.6200

G1X54.8957Y-59.1553

G1X56.7603Y-58.0296

G1X57.5490Y-57.6474

G1X58.3658Y-57.4211

G1X59.3531Y-57.3117

G1X60.7772Y-57.3043

G1X62.3070Y-57.4086

G1X65.1956Y-57.8975

G1X67.8084Y-58.5975

G1X71.4850Y-60.1536

G1X72.2866Y-60.3541

G1X73.2433Y-60.4670

G1X74.8127Y-60.4284

G1X76.5925Y-60.1320

G1X78.1606Y-59.6702

G1X80.8222Y-58.6496

G1X81.9071Y-58.4194

G1X82.9303Y-58.3722

G1X83.9485Y-58.4368

G1X86.5485Y-58.9256

G1 Z0F20000

(Start Block)


G1X19.5821Y-56.9908
G1Z5F20000
(Plotting speed under)
G1 F4000


G1X21.3163Y-56.8068

G1X22.8765Y-56.8610

G1X24.0475Y-57.0567

G1X26.5852Y-57.7303

G1X28.5405Y-57.9735

G1X30.3936Y-57.9848

G1X34.5495Y-57.7800

G1X36.7265Y-57.8896

G1X37.9194Y-58.1109

G1X38.9217Y-58.4324

G1X41.5907Y-59.8886

G1X42.2080Y-60.0321

G1X43.1403Y-60.0798

G1X46.7138Y-60.0730

G1X48.5065Y-59.9896

G1X50.2974Y-59.7735

G1X52.6529Y-59.3272

G1X53.8161Y-58.9846

G1X54.9796Y-58.4808

G1X58.2383Y-56.4957

G1X59.0235Y-56.2516

G1X60.0733Y-56.1235

G1X61.5514Y-56.1049

G1X63.2305Y-56.1938

G1X66.6974Y-56.6755

G1X68.5913Y-57.2090

G1X72.2143Y-58.6610

G1X73.1666Y-58.8884

G1X74.0456Y-58.9841

G1X75.5251Y-58.9381

G1X77.0226Y-58.6792

G1X78.4056Y-58.2772

G1X80.7892Y-57.3883

G1X81.9631Y-57.1338

G1X82.9628Y-57.0808

G1X84.0853Y-57.1432

G1X86.5154Y-57.5797

G1 Z0F20000

(Start Block)


G1X19.3975Y-55.5743
G1Z5F20000
(Plotting speed under)
G1 F4000


G1X21.1124Y-55.4197

G1X22.7769Y-55.4647

G1X24.0541Y-55.6429

G1X27.1238Y-56.3116

G1X28.8661Y-56.5677

G1X30.8523Y-56.7286

G1X35.0261Y-56.9007

G1X36.8680Y-57.0862

G1X38.1037Y-57.3195

G1X39.0629Y-57.5990

G1X41.5376Y-58.7658

G1X42.1605Y-58.8954

G1X42.8643Y-58.9330

G1X48.9610Y-58.8860

G1X51.1097Y-58.6924

G1X53.0019Y-58.3927

G1X54.2423Y-58.0289

G1X55.5114Y-57.4734

G1X58.9002Y-55.2897

G1X59.6312Y-55.0551

G1X60.6030Y-54.9297

G1X63.7958Y-54.9481

G1X67.0548Y-55.2818

G1X69.1351Y-55.8206

G1X72.8661Y-57.2246

G1X73.8529Y-57.4588

G1X74.7472Y-57.5586

G1X76.0302Y-57.5320

G1X77.4837Y-57.2998

G1X78.8187Y-56.9280

G1X81.0974Y-56.1288

G1X82.2669Y-55.9002

G1X84.2264Y-55.8833

G1X86.4564Y-56.2175

G1 Z0F20000

(Start Block)


G1X19.2101Y-54.2248
G1Z5F20000
(Plotting speed under)
G1 F4000


G1X21.6114Y-54.0986

G1X23.9532Y-54.2765

G1X30.4607Y-55.4675

G1X38.2379Y-56.4888

G1X39.3754Y-56.7670

G1X41.5574Y-57.6106

G1X43.0158Y-57.7863

G1X49.6094Y-57.7528

G1X51.8394Y-57.5967

G1X53.3058Y-57.3591

G1X54.7659Y-56.9290

G1X56.0439Y-56.3528

G1X56.9411Y-55.8164

G1X58.7669Y-54.4794

G1X59.3894Y-54.1173

G1X60.0713Y-53.8839

G1X61.0566Y-53.7489

G1X64.7640Y-53.7536

G1X67.5129Y-54.0152

G1X69.6684Y-54.5427

G1X73.5797Y-55.9447

G1X74.5857Y-56.1656

G1X75.4910Y-56.2539

G1X76.6739Y-56.2219

G1X78.0048Y-56.0145

G1X79.2161Y-55.6925

G1X81.4303Y-54.9466

G1X82.5916Y-54.7126

G1X84.3671Y-54.6372

G1X86.3661Y-54.8454

G1 Z0F20000

(Start Block)


G1X19.0729Y-52.9594
G1Z5F20000
(Plotting speed under)
G1 F4000


G1X22.1375Y-52.8767

G1X24.9128Y-53.1344

G1X27.3360Y-53.5709

G1X33.2668Y-54.8799

G1X35.4974Y-55.2358

G1X39.0064Y-55.6567

G1X42.0165Y-56.4902

G1X43.8365Y-56.6401

G1X50.4532Y-56.5939

G1X52.2981Y-56.4601

G1X53.7226Y-56.2139

G1X55.0974Y-55.8030

G1X56.4311Y-55.2035

G1X57.4647Y-54.5819

G1X59.0927Y-53.3983

G1X59.7675Y-52.9961

G1X60.5622Y-52.7220

G1X61.4593Y-52.5983

G1X65.3706Y-52.5813

G1X67.9108Y-52.8266

G1X70.1984Y-53.3811

G1X74.0475Y-54.7490

G1X75.0587Y-54.9733

G1X76.0794Y-55.0706

G1X77.2807Y-55.0282

G1X78.6076Y-54.8110

G1X81.8847Y-53.7782

G1X83.1339Y-53.5030

G1X84.5641Y-53.3881

G1X86.2412Y-53.4717

G1 Z0F20000

(Start Block)


G1X19.0277Y-51.7781
G1Z5F20000
(Plotting speed under)
G1 F4000


G1X22.3271Y-51.7241

G1X25.2284Y-51.9559

G1X27.9588Y-52.4746

G1X32.6814Y-53.7736

G1X34.6477Y-54.1956

G1X36.5048Y-54.4309

G1X39.4033Y-54.6117

G1X43.1997Y-55.3820

G1X45.8099Y-55.4915

G1X51.3403Y-55.3962

G1X52.7133Y-55.2627

G1X54.0812Y-55.0010

G1X55.3934Y-54.5995

G1X56.6789Y-54.0359

G1X60.1706Y-51.8980

G1X61.0252Y-51.6178

G1X61.9708Y-51.4823

G1X65.5944Y-51.4420

G1X68.1612Y-51.6915

G1X70.4371Y-52.2449

G1X74.4372Y-53.6746

G1X75.5056Y-53.9026

G1X76.5258Y-53.9879

G1X77.8676Y-53.9186

G1X79.2023Y-53.6716

G1X82.5396Y-52.5425

G1X83.6498Y-52.2590

G1X84.8137Y-52.1137

G1X86.0811Y-52.1061

G1 Z0F20000

(Start Block)


G1X19.0932Y-50.6827
G1Z5F20000
(Plotting speed under)
G1 F4000


G1X22.5301Y-50.6530

G1X25.3129Y-50.8316

G1X28.0648Y-51.3658

G1X32.7594Y-52.8035

G1X34.6831Y-53.2256

G1X36.6604Y-53.4107

G1X39.7804Y-53.4211

G1X44.3764Y-54.1531

G1X47.6648Y-54.2964

G1X51.7572Y-54.1545

G1X53.0791Y-53.9891

G1X54.3155Y-53.7300

G1X55.5306Y-53.3608

G1X56.6763Y-52.8978

G1X60.4647Y-50.9067

G1X61.4984Y-50.5915

G1X62.6118Y-50.4291

G1X65.7928Y-50.3616

G1X68.3660Y-50.6337

G1X70.5786Y-51.1958

G1X74.5999Y-52.6551

G1X75.7021Y-52.8863

G1X76.7179Y-52.9667

G1X78.0307Y-52.8996

G1X79.3819Y-52.6534

G1X80.7052Y-52.2495

G1X83.6706Y-51.0764

G1X84.7075Y-50.8485

G1X85.8888Y-50.7589

G1 Z0F20000

(Start Block)


G1X19.2595Y-49.6871
G1Z5F20000
(Plotting speed under)
G1 F4000


G1X23.9486Y-49.7113

G1X26.0967Y-49.9038

G1X28.5091Y-50.4479

G1X32.8271Y-51.8154

G1X34.8510Y-52.1943

G1X36.7662Y-52.2794

G1X39.3683Y-52.1051

G1X40.5723Y-52.1118

G1X41.9972Y-52.2493

G1X45.9508Y-52.8336

G1X48.9570Y-52.9752

G1X51.8959Y-52.8269

G1X54.2328Y-52.4267

G1X56.4159Y-51.7510

G1X60.6534Y-50.0059

G1X61.8031Y-49.7052

G1X63.1785Y-49.5054

G1X66.1531Y-49.3982

G1X68.2745Y-49.6287

G1X70.4289Y-50.1750

G1X74.5644Y-51.6671

G1X75.7603Y-51.9031

G1X76.8903Y-51.9704

G1X78.3930Y-51.8549

G1X79.9775Y-51.5061

G1X81.2982Y-51.0341

G1X83.9623Y-49.7731

G1X84.7201Y-49.5621

G1X85.6712Y-49.4392

G1 Z0F20000

(Start Block)


G1X19.4851Y-48.8119
G1Z5F20000
(Plotting speed under)
G1 F4000


G1X24.7782Y-48.8589

G1X26.1447Y-48.9847

G1X28.2130Y-49.4230

G1X32.4718Y-50.6915

G1X34.5145Y-51.0293

G1X36.7337Y-51.0536

G1X39.7854Y-50.6886

G1X41.4068Y-50.6408

G1X43.3198Y-50.7893

G1X47.5864Y-51.3678

G1X49.9970Y-51.4760

G1X52.0009Y-51.3525

G1X53.9787Y-51.0153

G1X55.8109Y-50.5528

G1X59.5055Y-49.4474

G1X61.4195Y-49.0185

G1X63.4564Y-48.7605

G1X66.3455Y-48.6113

G1X67.7433Y-48.6986

G1X69.3864Y-49.0279

G1X70.7677Y-49.4469

G1X73.5392Y-50.4527

G1X74.7134Y-50.7685

G1X76.1348Y-50.9495

G1X77.7107Y-50.9090

G1X79.2012Y-50.6693

G1X80.6911Y-50.2370

G1X81.7840Y-49.7588

G1X83.9903Y-48.5097

G1X84.6765Y-48.2780

G1X85.4389Y-48.1539

G1 Z0F20000

(Start Block)


G1X19.7020Y-48.0643
G1Z5F20000
(Plotting speed under)
G1 F4000


G1X25.1651Y-48.1151

G1X26.2026Y-48.1952

G1X27.9694Y-48.5203

G1X31.9018Y-49.5191

G1X34.0921Y-49.8091

G1X36.5171Y-49.7579

G1X40.1820Y-49.1508

G1X42.0817Y-49.0384

G1X43.9234Y-49.1340

G1X48.3900Y-49.7011

G1X50.4181Y-49.8155

G1X52.4382Y-49.6754

G1X57.4889Y-48.7038

G1X59.8681Y-48.3603

G1X62.2469Y-48.1773

G1X67.2219Y-47.9970

G1X68.2550Y-48.0931

G1X69.4233Y-48.3308

G1X73.9880Y-49.6931

G1X75.1708Y-49.8712

G1X76.4187Y-49.9154

G1X78.4274Y-49.7172

G1X80.4784Y-49.1867

G1X81.7842Y-48.6154

G1X84.0156Y-47.2057

G1X84.5754Y-47.0104

G1X85.2059Y-46.9057

G1 Z0F20000

(Start Block)


G1X19.8355Y-47.4143
G1Z5F20000
(Plotting speed under)
G1 F4000


G1X22.6256Y-47.5064

G1X26.0994Y-47.5000

G1X27.5978Y-47.6952

G1X31.4305Y-48.3954

G1X33.7944Y-48.5622

G1X36.3132Y-48.3900

G1X40.1197Y-47.5974

G1X42.0701Y-47.4063

G1X44.3618Y-47.4745

G1X48.9012Y-48.0014

G1X50.7371Y-48.0998

G1X52.0902Y-48.0277

G1X55.2855Y-47.5187

G1X57.6903Y-47.3192

G1X60.1206Y-47.3106

G1X65.0139Y-47.5221

G1X67.5541Y-47.4479

G1X69.2895Y-47.6685

G1X73.3614Y-48.6447

G1X74.5539Y-48.7882

G1X75.8089Y-48.8179

G1X78.0185Y-48.5953

G1X80.1806Y-48.0412

G1X81.6769Y-47.4022

G1X83.7617Y-46.0004

G1X84.2758Y-45.8039

G1X84.9878Y-45.6930

G1 Z0F20000

(Start Block)


G1X19.8388Y-46.8102
G1Z5F20000
(Plotting speed under)
G1 F4000


G1X22.8324Y-46.9232

G1X26.0808Y-46.8909

G1X30.3726Y-47.2910

G1X32.5998Y-47.3480

G1X34.1252Y-47.2548

G1X35.5742Y-47.0628

G1X37.2192Y-46.7273

G1X39.7206Y-46.0828

G1X41.6172Y-45.8406

G1X44.2607Y-45.8774

G1X48.9337Y-46.3887

G1X50.6600Y-46.4906

G1X52.0470Y-46.4301

G1X54.7654Y-46.0390

G1X56.8314Y-45.9714

G1X59.4227Y-46.1484

G1X64.6547Y-46.8328

G1X68.2403Y-46.8641

G1X72.6181Y-47.5866

G1X73.8291Y-47.6883

G1X75.1002Y-47.6925

G1X77.3208Y-47.4545

G1X79.5869Y-46.8818

G1X81.4550Y-46.1226

G1X83.5886Y-44.7463

G1X84.0993Y-44.5904

G1X84.8225Y-44.5132

G1 Z0F20000

(Start Block)


G1X19.6812Y-46.2339
G1Z5F20000
(Plotting speed under)
G1 F4000


G1X23.1783Y-46.4198

G1X25.7559Y-46.3654

G1X29.6162Y-46.4162

G1X31.6532Y-46.3182

G1X33.3284Y-46.1156

G1X34.9028Y-45.8134

G1X39.7816Y-44.4685

G1X41.0775Y-44.3034

G1X42.5381Y-44.2598

G1X44.8003Y-44.3871

G1X49.1833Y-44.9325

G1X50.7459Y-45.0500

G1X52.0145Y-45.0207

G1X54.7077Y-44.7048

G1X56.9715Y-44.7443

G1X59.3316Y-45.0448

G1X63.3469Y-45.8696

G1X64.7873Y-46.0931

G1X67.8874Y-46.1648

G1X71.8996Y-46.6499

G1X74.1980Y-46.6941

G1X76.4510Y-46.4496

G1X78.6561Y-45.9155

G1X81.0765Y-44.9894

G1X83.4054Y-43.5948

G1X84.0406Y-43.4255

G1X84.8007Y-43.3633

G1 Z0F20000

(Start Block)


G1X19.3893Y-45.5643
G1Z5F20000
(Plotting speed under)
G1 F4000


G1X21.5198Y-45.7631

G1X23.3128Y-45.8173

G1X28.0314Y-45.6708

G1X30.4822Y-45.4678

G1X32.2389Y-45.1914

G1X33.9830Y-44.7806

G1X39.0546Y-43.0752

G1X40.3827Y-42.8555

G1X42.0464Y-42.7802

G1X45.0061Y-42.9596

G1X50.9656Y-43.7676

G1X52.1077Y-43.7693

G1X54.6994Y-43.5355

G1X56.8793Y-43.6192

G1X59.3465Y-43.9966

G1X63.3848Y-44.9818

G1X64.8807Y-45.2549

G1X67.6960Y-45.3876

G1X71.2127Y-45.7537

G1X73.3990Y-45.7670

G1X75.7099Y-45.5183

G1X77.9139Y-44.9960

G1X80.9544Y-43.8119

G1X83.3024Y-42.4894

G1X83.9674Y-42.3111

G1X84.8961Y-42.2332

G1 Z0F20000

(Start Block)


G1X19.0660Y-44.7347
G1Z5F20000
(Plotting speed under)
G1 F4000


G1X21.0520Y-44.9468

G1X23.1944Y-44.9983

G1X27.2535Y-44.8427

G1X30.0315Y-44.5606

G1X31.8699Y-44.2143

G1X33.5672Y-43.7414

G1X35.1417Y-43.1550

G1X37.6357Y-42.0637

G1X38.6400Y-41.7286

G1X40.0204Y-41.4828

G1X41.7631Y-41.4028

G1X43.4495Y-41.4611

G1X45.2940Y-41.6386

G1X50.1315Y-42.4799

G1X51.3651Y-42.6308

G1X52.3455Y-42.6488

G1X54.8498Y-42.4895

G1X57.1165Y-42.6061

G1X59.5589Y-43.0041

G1X63.5371Y-44.0196

G1X64.9909Y-44.3021

G1X70.3856Y-44.8089

G1X73.0527Y-44.8180

G1X75.3739Y-44.5584

G1X77.4719Y-44.0596

G1X78.9636Y-43.5255

G1X80.8622Y-42.6969

G1X83.2533Y-41.4236

G1X84.0547Y-41.2119

G1X85.0688Y-41.1284

G1 Z0F20000

(Start Block)


G1X18.8234Y-43.7524
G1Z5F20000
(Plotting speed under)
G1 F4000


G1X20.7077Y-43.9533

G1X23.3953Y-43.9810

G1X27.2545Y-43.8393

G1X29.9813Y-43.5412

G1X31.8035Y-43.1665

G1X33.5580Y-42.6230

G1X35.0426Y-42.0010

G1X37.4335Y-40.8172

G1X38.2820Y-40.4978

G1X39.7224Y-40.2098

G1X41.6438Y-40.1188

G1X43.6702Y-40.1957

G1X45.7405Y-40.4224

G1X51.6871Y-41.6009

G1X55.5962Y-41.5390

G1X58.2590Y-41.7413

G1X60.3832Y-42.1179

G1X64.7502Y-43.1685

G1X69.0348Y-43.7274

G1X70.8550Y-43.8535

G1X72.8984Y-43.8188

G1X75.1996Y-43.5701

G1X77.2894Y-43.0788

G1X79.4185Y-42.2596

G1X83.3030Y-40.3673

G1X84.2088Y-40.1386

G1X85.2801Y-40.0552

G1 Z0F20000


G00 X0.0000 Y0.0000


