$H
G21
G17
G90
G1 Z0F20000
G1 F15000

(Start Layer)

(Start Block)


G1X26.1197Y-121.6211
G1Z6F20000
(Plotting speed under)
G1 F4000


G1X27.7140Y-120.6579

G1X29.0227Y-119.3651

G1X30.2638Y-117.6207

G1X31.5149Y-115.2717

G1X32.5386Y-112.9207

G1X33.7630Y-109.6702

G1X36.8980Y-100.1604

G1X38.4369Y-95.7676

G1X39.7418Y-92.6884

G1X40.9211Y-90.6208

G1X41.4561Y-89.9318

G1X42.0201Y-89.3784

G1X42.6426Y-88.9910

G1X43.2576Y-88.7892

G1X43.8897Y-88.7743

G1X44.7197Y-88.9771

G1X46.9283Y-89.9606

G1X47.7196Y-90.1107

G1X48.2340Y-90.0684

G1X48.7421Y-89.8814

G1X49.2543Y-89.5029

G1X49.7962Y-88.9044

G1X50.7591Y-87.2642

G1X51.7715Y-84.7816

G1X52.7814Y-81.6619

G1X54.7210Y-75.0181

G1X55.6673Y-72.2553

G1X56.5186Y-70.4663

G1X56.8792Y-69.9538

G1X57.2578Y-69.6065

G1X57.6218Y-69.4567

G1X57.9805Y-69.4702

G1X58.5757Y-69.8811

G1X59.2512Y-70.7998

G1X60.6987Y-73.6696

G1X61.4748Y-74.9590

G1X61.8576Y-75.3263

G1X62.1259Y-75.4603

G1X62.4614Y-75.4346

G1X62.7436Y-75.2287

G1X63.3066Y-74.3230

G1X63.9387Y-72.4965

G1X65.5661Y-65.6356

G1X66.0195Y-64.0370

G1X66.4456Y-63.0552

G1X66.7252Y-62.8062

G1X66.9068Y-62.8238

G1X67.2583Y-63.3230

G1X67.6466Y-64.5673

G1X68.0788Y-66.7344

G1X69.0596Y-72.6620

G1X69.3260Y-73.7234

G1X69.5842Y-74.1742

G1X69.6931Y-74.1411

G1X69.8497Y-73.8423

G1X70.0556Y-72.9778

G1X70.7651Y-67.2917

G1X70.9599Y-66.5528

G1X71.0611Y-66.9210

G1X71.1552Y-68.0614

G1X71.3415Y-75.2912

G1X71.3349Y-82.7519

G1X71.3033Y-82.8590

G1X70.9743Y-79.1092

G1X70.7732Y-78.2584

G1X70.6008Y-78.7886

G1X70.4361Y-80.1358

G1X69.4715Y-92.9909

G1X69.1807Y-95.7930

G1X68.8780Y-97.5971

G1X68.6392Y-98.2605

G1X68.5023Y-98.3976

G1X68.3529Y-98.3593

G1X68.0509Y-97.8756

G1X67.1745Y-95.6733

G1X66.9208Y-95.3897

G1X66.6605Y-95.4692

G1X66.4610Y-95.7697

G1X66.2435Y-96.3721

G1X65.7679Y-98.5534

G1X63.9428Y-111.8445

G1X63.4799Y-114.5063

G1X63.0828Y-116.1695

G1X62.6290Y-117.3227

G1X62.3704Y-117.6322

G1X62.1087Y-117.7266

G1X61.8663Y-117.6598

G1X61.6324Y-117.4456

G1X60.4299Y-115.7188

G1X60.0050Y-115.3404

G1X59.7183Y-115.2733

G1X59.4288Y-115.4036

G1X59.1141Y-115.8041

G1X58.8495Y-116.3361

G1X58.3527Y-117.8533

G1X57.8064Y-120.1783

G1X55.3886Y-133.2433

G1X54.8217Y-135.4544

G1X54.2824Y-136.9252

G1X53.9844Y-137.4443

G1X53.6847Y-137.7775

G1X53.3682Y-137.9361

G1X53.0726Y-137.9007

G1X52.4858Y-137.4924

G1X51.2903Y-135.9468

G1X50.7558Y-135.4185

G1X50.3441Y-135.2091

G1X49.8838Y-135.2803

G1X49.3741Y-135.7739

G1X48.8609Y-136.7519

G1X48.3817Y-138.0779

G1X47.8433Y-140.0001

G1 Z0F20000


G00 X0.0000 Y0.0000


