$H
G21
G17
G90
G1 Z0F20000
G1 F15000

(Start Layer)

(Start Block)


G1X23.0877Y-137.6801
G1Z6F20000
(Plotting speed under)
G1 F4000


G1X22.5670Y-138.5119

G1X22.3633Y-138.6457

G1X22.0968Y-138.6439

G1X21.7187Y-138.2269

G1X21.3035Y-137.1580

G1X20.5400Y-133.6434

G1X18.8677Y-123.2386

G1X18.3833Y-121.2577

G1X18.1477Y-120.6756

G1X17.9151Y-120.3489

G1X17.7463Y-120.2817

G1X17.5792Y-120.3510

G1X17.2793Y-120.7384

G1X16.2218Y-123.6543

G1X15.9037Y-124.2785

G1X15.7250Y-124.4426

G1X15.5485Y-124.4225

G1X15.2019Y-123.7646

G1X14.8869Y-122.3946

G1X14.5373Y-120.0436

G1X13.1701Y-107.4844

G1X12.8238Y-105.5907

G1X12.6584Y-105.1246

G1X12.5136Y-104.9550

G1X12.3554Y-105.0182

G1X12.1120Y-105.5786

G1X11.5446Y-108.0136

G1X11.2318Y-108.9080

G1X11.0913Y-108.9395

G1X11.0222Y-108.8528

G1X10.8997Y-108.4835

G1X10.6687Y-107.0232

G1X10.4268Y-104.3930

G1X9.6101Y-92.0960

G1X9.4337Y-90.5491

G1X9.2735Y-90.0056

G1X9.1510Y-90.1936

G1X9.0622Y-90.6410

G1X8.6819Y-94.0146

G1X8.5163Y-94.7902

G1X8.3630Y-94.0237

G1X8.0000Y-84.3828

G1 Z0F20000

(Start Block)


G1X8.0000Y-80.2802
G1Z6F20000
(Plotting speed under)
G1 F4000


G1X8.0860Y-81.3079

G1X8.2223Y-80.1269

G1X8.5594Y-73.6209

G1X8.7211Y-72.3617

G1X8.8292Y-72.7097

G1X9.0237Y-75.3370

G1X9.5248Y-85.3703

G1X9.6890Y-87.1467

G1X9.8586Y-87.7108

G1X10.0389Y-87.1248

G1X10.4904Y-83.8653

G1X10.6696Y-83.3748

G1X10.8720Y-84.0479

G1X11.1660Y-87.4338

G1X11.8597Y-100.5856

G1X12.1883Y-105.0079

G1X12.3631Y-106.2890

G1X12.5392Y-106.8952

G1X12.6553Y-106.9947

G1X12.7331Y-106.9640

G1X13.0484Y-106.5007

G1X13.2082Y-106.4412

G1X13.3695Y-106.6983

G1X13.4820Y-107.1718

G1X13.7881Y-109.8302

G1X14.1122Y-114.8393

G1 Z0F20000


G00 X0.0000 Y0.0000


