$H
G21
G17
G90
G1 Z0F20000
G1 F15000

(Start Layer)

(Start Block)


G1X45.4277Y-96.0389
G1Z5F20000
(Plotting speed under)
G1 F4000


G1X36.9001Y-90.8679

G1X56.3282Y-19.2519

G1X45.5433Y-97.4055

G1X37.0649Y-92.3515

G1X56.0521Y-20.5217

G1X45.8901Y-98.8548

G1X37.4289Y-94.0207

G1X55.5404Y-21.7570

G1X46.4677Y-100.3731

G1X37.9956Y-95.8596

G1X54.7956Y-22.9770

G1X47.2751Y-101.9379

G1X38.7696Y-97.8436

G1X53.8219Y-24.2093

G1X48.3098Y-103.5186

G1X39.7556Y-99.9401

G1X52.6259Y-25.4885

G1X49.5671Y-105.0773

G1X40.9577Y-102.1085

G1X51.2180Y-26.8552

G1X51.0391Y-106.5702

G1X42.3778Y-104.3017

G1X49.6126Y-28.3541

G1X52.7136Y-107.9491

G1X44.0144Y-106.4666

G1X47.8289Y-30.0324

G1X54.5736Y-109.1634

G1X45.8616Y-108.5460

G1X45.8921Y-31.9370

G1X56.5962Y-110.1623

G1X47.9075Y-110.4808

G1X43.8329Y-34.1125

G1X58.7523Y-110.8974

G1X50.1341Y-112.2118

G1X41.6879Y-36.5982

G1X61.0072Y-111.3257

G1X52.5161Y-113.6828

G1X39.4985Y-39.4255

G1X63.3204Y-111.4114

G1X55.0216Y-114.8429

G1X37.3103Y-42.6159

G1X65.6472Y-111.1291

G1X57.6124Y-115.6496

G1X35.1715Y-46.1791

G1X67.9399Y-110.4652

G1X60.2449Y-116.0709

G1X33.1307Y-50.1115

G1X70.1493Y-109.4193

G1X62.8723Y-116.0874

G1X31.2356Y-54.3960

G1X72.2276Y-108.0049

G1X65.4458Y-115.6933

G1X29.5302Y-59.0024

G1X74.1298Y-106.2490

G1X67.9169Y-114.8970

G1X28.0531Y-63.8884

G1X75.8156Y-104.1908

G1X70.2399Y-113.7209

G1X26.8360Y-69.0017

G1X77.2520Y-101.8802

G1X72.3737Y-112.2000

G1X25.9019Y-74.2825

G1X78.4138Y-99.3750

G1X74.2833Y-110.3801

G1X25.2649Y-79.6663

G1X79.2850Y-96.7380

G1X75.9416Y-108.3151

G1X24.9293Y-85.0873

G1X79.8587Y-94.0341

G1X77.3300Y-106.0643

G1X24.8905Y-90.4814

G1X80.1372Y-91.3275

G1X78.4385Y-103.6897

G1 Z0F20000


G00 X0.0000 Y0.0000


