$H
G21
G17
G90
G1 Z0F20000
G1 F15000

(Start Layer)

(Start Block)


G1X11.3447Y-114.4572
G1Z5F20000
(Plotting speed under)
G1 F4000


G1X12.1948Y-114.5123

G1X12.9386Y-114.4136

G1X13.6824Y-114.1721

G1X15.3825Y-113.4197

G1X16.3388Y-113.2781

G1X16.7639Y-113.3549

G1X17.2774Y-113.5684

G1X19.1016Y-114.7347

G1X19.8453Y-114.8616

G1X20.2704Y-114.7363

G1X20.6423Y-114.5127

G1X22.2362Y-113.0995

G1X22.6081Y-112.9181

G1X22.9268Y-112.8733

G1X23.2456Y-112.9475

G1X23.6403Y-113.1925

G1X24.6270Y-114.3182

G1X25.1583Y-114.4682

G1X25.9552Y-115.1388

G1X26.2209Y-115.2483

G1X26.4865Y-115.0994

G1X26.8186Y-114.7435

G1X28.2796Y-112.7115

G1X28.6117Y-112.4637

G1X28.9836Y-112.3872

G1X29.4750Y-112.6500

G1X30.4712Y-113.8559

G1X30.8962Y-113.9844

G1X31.1353Y-114.1662

G1X31.5338Y-114.6849

G1X32.0120Y-115.5406

G1X32.2776Y-115.6710

G1X32.5964Y-115.5313

G1X32.8325Y-115.2618

G1X34.0936Y-113.0134

G1X34.5887Y-112.2765

G1X34.9872Y-111.9157

G1X35.3591Y-111.8024

G1X35.6779Y-111.8907

G1X35.9359Y-112.0781

G1X36.8467Y-113.2784

G1X37.3780Y-113.4252

G1X37.6816Y-113.6992

G1X38.1454Y-114.3191

G1X39.2670Y-116.2247

G1X39.5917Y-116.4864

G1X40.1104Y-116.1898

G1X40.6322Y-115.6980

G1X42.6245Y-113.0797

G1X43.7535Y-111.9621

G1X44.3910Y-111.5646

G1X45.0286Y-111.3187

G1X45.7724Y-111.1775

G1X46.6225Y-111.1322

G1X50.3415Y-111.1627

G1X51.0853Y-111.2915

G1X51.8114Y-111.5916

G1X52.4819Y-112.0851

G1X53.1175Y-112.7792

G1X55.3091Y-116.0017

G1X55.7076Y-116.3460

G1X56.0795Y-116.4726

G1X56.5045Y-116.3415

G1X56.9694Y-115.8343

G1X57.4222Y-115.0223

G1X58.5814Y-112.5195

G1X58.9617Y-111.9961

G1X59.2672Y-111.8137

G1X59.5860Y-111.8854

G1X59.9284Y-112.2638

G1X60.3053Y-112.9688

G1X61.2419Y-115.1602

G1X61.6182Y-115.6992

G1X61.9060Y-115.8465

G1X62.1716Y-115.7391

G1X62.4453Y-115.4264

G1X63.5884Y-112.9748

G1X63.8836Y-112.5392

G1X64.1551Y-112.3960

G1X64.3676Y-112.4392

G1X64.5920Y-112.6325

G1X65.7726Y-114.8711

G1X66.0087Y-115.1771

G1X66.2803Y-115.3023

G1X66.4928Y-115.2550

G1X66.7171Y-115.0733

G1X67.7376Y-113.3602

G1X68.0411Y-113.0017

G1X68.2992Y-112.8794

G1X68.5117Y-112.9190

G1X68.7906Y-113.1127

G1X69.7278Y-114.4475

G1X70.0525Y-114.7526

G1X70.3181Y-114.8672

G1X70.6369Y-114.7873

G1X70.9253Y-114.5780

G1X71.9120Y-113.4853

G1X72.4433Y-113.2724

G1X72.9746Y-113.4806

G1X74.0372Y-114.3448

G1X74.5684Y-114.5141

G1X75.1883Y-114.3579

G1X76.3748Y-113.7018

G1X76.9061Y-113.5858

G1X77.5437Y-113.6679

G1X79.0313Y-114.1635

G1X79.7751Y-114.2486

G1X83.2816Y-113.8103

G1X88.9133Y-113.9430

G1X93.6950Y-113.8122

G1 Z0F20000

(Start Block)


G1X11.3447Y-112.8230
G1Z5F20000
(Plotting speed under)
G1 F4000


G1X13.3636Y-111.9768

G1X13.8949Y-111.8366

G1X14.4262Y-111.8068

G1X14.8512Y-111.8778

G1X15.3825Y-112.0844

G1X17.2952Y-113.2587

G1X17.7202Y-113.3839

G1X18.1452Y-113.3820

G1X18.5702Y-113.2427

G1X18.9599Y-113.0054

G1X20.5537Y-111.6341

G1X20.9079Y-111.4579

G1X21.3330Y-111.4077

G1X21.6517Y-111.4965

G1X22.0464Y-111.7480

G1X23.0331Y-112.8424

G1X23.5644Y-113.1334

G1X24.0957Y-113.6570

G1X24.4145Y-113.7993

G1X24.6270Y-113.8022

G1X24.8926Y-113.6684

G1X25.2911Y-113.2908

G1X26.7521Y-111.3072

G1X27.1063Y-111.0190

G1X27.4960Y-110.9153

G1X27.8147Y-111.0081

G1X28.1183Y-111.2509

G1X28.8773Y-112.3238

G1X29.4750Y-112.6528

G1X30.4048Y-113.7987

G1X30.6837Y-113.9878

G1X31.0025Y-114.0440

G1X31.3567Y-113.8794

G1X31.6400Y-113.5685

G1X32.8089Y-111.4744

G1X33.2795Y-110.7943

G1X33.6590Y-110.4484

G1X34.0840Y-110.3349

G1X34.3673Y-110.4217

G1X34.7215Y-110.7031

G1X35.2528Y-111.4204

G1X36.3154Y-112.5161

G1X36.8467Y-113.2784

G1X37.3780Y-113.4252

G1X37.6057Y-113.6183

G1X37.9683Y-114.0619

G1X38.3225Y-114.6894

G1X38.5291Y-114.8281

G1X38.7948Y-114.6926

G1X39.2375Y-114.2688

G1X41.2299Y-111.5276

G1X42.1596Y-110.5196

G1X42.6909Y-110.1267

G1X43.2222Y-109.8652

G1X43.7535Y-109.7190

G1X44.3910Y-109.6615

G1X47.4725Y-109.9068

G1X50.5540Y-109.6637

G1X51.0853Y-109.7290

G1X51.6166Y-109.9112

G1X52.1656Y-110.2617

G1X52.7855Y-110.8889

G1X53.4230Y-111.7861

G1X54.9106Y-114.2469

G1X55.3660Y-114.7700

G1X55.8670Y-115.0053

G1X56.2389Y-114.8917

G1X56.6639Y-114.4506

G1X57.1243Y-113.6346

G1X58.3109Y-111.0150

G1X58.6297Y-110.5535

G1X58.9839Y-110.3392

G1X59.3128Y-110.4474

G1X59.6923Y-110.9355

G1X60.9142Y-113.7143

G1X61.2330Y-114.2055

G1X61.4986Y-114.3634

G1X61.7112Y-114.3370

G1X61.9945Y-114.0738

G1X62.3896Y-113.3566

G1X63.2664Y-111.3829

G1X63.4998Y-111.0764

G1X63.7655Y-110.9246

G1X64.0090Y-110.9815

G1X64.2082Y-111.1909

G1X65.3771Y-113.4363

G1X65.6427Y-113.7375

G1X65.8553Y-113.8305

G1X66.0678Y-113.7971

G1X66.2670Y-113.6274

G1X67.3960Y-111.7599

G1X67.6616Y-111.4837

G1X67.8742Y-111.4142

G1X68.0867Y-111.4551

G1X68.3258Y-111.6270

G1X69.2555Y-112.9582

G1X69.6097Y-113.3008

G1X69.8931Y-113.3974

G1X70.3940Y-113.1599

G1X71.3807Y-112.0487

G1X71.9120Y-111.8027

G1X72.4433Y-111.9948

G1X73.5059Y-112.8728

G1X74.0372Y-113.0444

G1X74.6570Y-112.8782

G1X75.7373Y-112.2556

G1X76.3748Y-112.1141

G1X76.9061Y-112.1893

G1X78.2875Y-112.6742

G1X79.0313Y-112.7784

G1X82.4316Y-112.3376

G1X88.4883Y-112.5335

G1X93.6950Y-112.3694

G1 Z0F20000

(Start Block)


G1X11.3447Y-110.6798
G1Z5F20000
(Plotting speed under)
G1 F4000


G1X12.4073Y-110.3544

G1X13.2573Y-110.3984

G1X14.0011Y-110.7010

G1X15.7013Y-111.7539

G1X16.1263Y-111.8979

G1X16.5513Y-111.9246

G1X16.9764Y-111.8203

G1X17.3660Y-111.6159

G1X19.1370Y-110.1494

G1X19.5266Y-109.9759

G1X19.9516Y-109.9421

G1X20.3767Y-110.0911

G1X20.7308Y-110.3496

G1X22.4259Y-112.1363

G1X22.8206Y-112.3424

G1X23.1394Y-112.3689

G1X23.5644Y-112.2023

G1X23.9439Y-111.8657

G1X25.6137Y-109.7239

G1X26.0083Y-109.4833

G1X26.3271Y-109.4494

G1X26.6459Y-109.5727

G1X26.9798Y-109.8606

G1X27.8147Y-111.0081

G1X28.3460Y-111.5110

G1X28.8773Y-112.3238

G1X29.8336Y-112.7662

G1X30.0917Y-112.6453

G1X30.5243Y-112.0933

G1X32.1410Y-109.4090

G1X32.5964Y-108.9816

G1X33.0214Y-108.8639

G1X33.3933Y-108.9916

G1X33.7254Y-109.2723

G1X35.2528Y-111.4204

G1X36.2395Y-112.4250

G1X36.7877Y-113.2196

G1X37.0592Y-113.4017

G1X37.2717Y-113.4327

G1X37.6436Y-113.3318

G1X38.1370Y-112.9371

G1X40.6416Y-109.5983

G1X41.3627Y-108.9001

G1X42.1596Y-108.4195

G1X42.7972Y-108.2361

G1X43.5410Y-108.1955

G1X45.9849Y-108.5363

G1X47.0475Y-108.5860

G1X49.7040Y-108.2262

G1X50.4478Y-108.1993

G1X51.3687Y-108.4554

G1X52.1783Y-109.0874

G1X52.9035Y-110.0290

G1X54.6450Y-112.9075

G1X55.0877Y-113.3668

G1X55.5482Y-113.5328

G1X55.9732Y-113.3420

G1X56.3053Y-112.9479

G1X56.7259Y-112.1957

G1X57.9535Y-109.4835

G1X58.2755Y-109.0545

G1X58.6297Y-108.8620

G1X58.8953Y-108.9624

G1X59.2093Y-109.3143

G1X60.5616Y-112.3387

G1X60.8434Y-112.7356

G1X61.1976Y-112.9048

G1X61.4854Y-112.7313

G1X61.8174Y-112.2343

G1X62.8800Y-109.8833

G1X63.1836Y-109.5305

G1X63.4113Y-109.4423

G1X63.6390Y-109.5515

G1X63.9869Y-109.9911

G1X64.9569Y-111.9609

G1X65.1823Y-112.2234

G1X65.4479Y-112.3695

G1X65.6883Y-112.3011

G1X65.9160Y-112.0689

G1X66.9532Y-110.3082

G1X67.2366Y-110.0221

G1X67.4491Y-109.9453

G1X67.6616Y-109.9775

G1X67.8893Y-110.1567

G1X69.0278Y-111.7136

G1X69.2555Y-111.8823

G1X69.4680Y-111.9219

G1X69.9386Y-111.7000

G1X70.9380Y-110.5782

G1X71.2036Y-110.3997

G1X71.4869Y-110.3339

G1X72.0005Y-110.5336

G1X72.9746Y-111.3650

G1X73.5059Y-111.5714

G1X74.0372Y-111.4695

G1X75.0997Y-110.8468

G1X75.8435Y-110.6446

G1X76.3748Y-110.7175

G1X77.7562Y-111.2108

G1X78.5000Y-111.3090

G1X81.6878Y-110.8680

G1X87.9570Y-111.0976

G1X90.9322Y-111.0650

G1X93.6950Y-110.9244

G1 Z0F20000

(Start Block)


G1X11.3447Y-108.8706
G1Z5F20000
(Plotting speed under)
G1 F4000


G1X11.8760Y-108.8896

G1X12.4073Y-109.0392

G1X14.4439Y-110.2536

G1X14.8512Y-110.4063

G1X15.2762Y-110.4589

G1X15.7013Y-110.3868

G1X16.2149Y-110.1330

G1X18.0744Y-108.6311

G1X18.4640Y-108.4865

G1X18.8890Y-108.4843

G1X19.3141Y-108.6589

G1X19.6683Y-108.9304

G1X21.2621Y-110.6103

G1X21.6517Y-110.8391

G1X21.9705Y-110.9055

G1X22.3956Y-110.7947

G1X22.8054Y-110.4862

G1X24.5511Y-108.3040

G1X24.9458Y-108.0389

G1X25.3708Y-107.9852

G1X25.7655Y-108.1643

G1X26.2209Y-108.6270

G1X27.8147Y-110.9771

G1X28.2575Y-111.3473

G1X28.6648Y-111.4359

G1X29.0544Y-111.2859

G1X29.5267Y-110.8171

G1X30.8962Y-108.5615

G1X31.4010Y-107.8661

G1X31.8880Y-107.4721

G1X32.2776Y-107.3962

G1X32.7482Y-107.5953

G1X33.2457Y-108.1153

G1X34.7806Y-110.6417

G1X35.4046Y-111.4908

G1X35.8904Y-111.9052

G1X36.4217Y-112.0658

G1X37.0238Y-111.8846

G1X37.6057Y-111.4017

G1X39.7688Y-108.5749

G1X40.7428Y-107.5657

G1X41.7346Y-106.9595

G1X42.7972Y-106.7292

G1X46.4100Y-107.0098

G1X49.5977Y-106.7227

G1X50.1290Y-106.7772

G1X50.6603Y-106.9437

G1X51.2675Y-107.3173

G1X51.8557Y-107.8976

G1X52.4903Y-108.7655

G1X54.1137Y-111.3951

G1X54.5565Y-111.8646

G1X55.0169Y-112.0630

G1X55.4419Y-111.9203

G1X55.8404Y-111.4795

G1X56.2630Y-110.7346

G1X57.4705Y-108.0881

G1X57.8707Y-107.5527

G1X58.1869Y-107.3957

G1X58.4526Y-107.4809

G1X58.7891Y-107.8531

G1X60.1350Y-110.8451

G1X60.4513Y-111.2783

G1X60.7548Y-111.4407

G1X60.9825Y-111.3481

G1X61.2861Y-110.9961

G1X62.3487Y-108.6610

G1X62.6808Y-108.1570

G1X62.9686Y-107.9787

G1X63.2342Y-108.0722

G1X63.4596Y-108.3008

G1X64.4739Y-110.3209

G1X64.8534Y-110.8067

G1X65.0937Y-110.9023

G1X65.3594Y-110.7838

G1X65.5896Y-110.5487

G1X66.5991Y-108.8065

G1X66.8647Y-108.5538

G1X67.1304Y-108.4632

G1X67.3960Y-108.5860

G1X67.6616Y-108.8518

G1X68.5914Y-110.1890

G1X69.0430Y-110.4484

G1X69.4326Y-110.3332

G1X70.5838Y-109.0912

G1X71.0619Y-108.8698

G1X71.4692Y-108.9665

G1X72.6204Y-109.9068

G1X73.1871Y-110.1015

G1X73.7184Y-109.9690

G1X74.8872Y-109.2960

G1X75.4185Y-109.1763

G1X75.9498Y-109.2431

G1X77.3312Y-109.7379

G1X78.0750Y-109.8386

G1X80.3064Y-109.4754

G1X81.2627Y-109.3961

G1X87.4257Y-109.6417

G1X90.8260Y-109.6134

G1X93.6950Y-109.4665

G1 Z0F20000

(Start Block)


G1X11.3447Y-107.4922
G1Z5F20000
(Plotting speed under)
G1 F4000


G1X12.0531Y-107.8153

G1X13.5761Y-108.7766

G1X14.1074Y-108.9618

G1X14.5324Y-108.9832

G1X14.9575Y-108.8750

G1X15.4179Y-108.6216

G1X17.1889Y-107.1849

G1X17.6139Y-107.0170

G1X18.0390Y-107.0121

G1X18.4286Y-107.1568

G1X18.8587Y-107.4698

G1X20.4652Y-109.1395

G1X20.8194Y-109.3561

G1X21.2267Y-109.4331

G1X21.6163Y-109.3261

G1X22.1223Y-108.9341

G1X23.4316Y-107.2487

G1X23.8680Y-106.7961

G1X24.2020Y-106.5799

G1X24.6270Y-106.5078

G1X25.0520Y-106.6863

G1X25.4619Y-107.0712

G1X27.2170Y-109.5500

G1X27.6376Y-109.8772

G1X28.0272Y-109.9682

G1X28.4978Y-109.7903

G1X28.9364Y-109.3617

G1X30.4181Y-107.0188

G1X30.9361Y-106.3523

G1X31.4452Y-105.9825

G1X31.8526Y-105.9316

G1X32.3307Y-106.1499

G1X32.7956Y-106.6168

G1X34.4854Y-109.2579

G1X35.0251Y-109.9580

G1X35.6070Y-110.4409

G1X36.2091Y-110.5944

G1X36.8467Y-110.3858

G1X37.4539Y-109.8963

G1X39.7309Y-107.1353

G1X40.8314Y-106.1065

G1X41.9471Y-105.5081

G1X42.5847Y-105.3414

G1X43.3285Y-105.2605

G1X45.9849Y-105.3092

G1X48.4289Y-105.2567

G1X49.2789Y-105.3610

G1X49.9165Y-105.5782

G1X50.6603Y-106.0567

G1X51.3244Y-106.7296

G1X53.6488Y-110.0917

G1X54.1137Y-110.4861

G1X54.4856Y-110.5939

G1X54.9106Y-110.4475

G1X55.3755Y-109.9354

G1X55.8283Y-109.1308

G1X56.9875Y-106.6605

G1X57.4343Y-106.0693

G1X57.7796Y-105.9281

G1X58.0984Y-106.0623

G1X58.3935Y-106.4307

G1X59.6514Y-109.2001

G1X60.0243Y-109.7711

G1X60.3121Y-109.9597

G1X60.5778Y-109.8983

G1X60.8611Y-109.6145

G1X62.1362Y-106.9519

G1X62.3487Y-106.6667

G1X62.6675Y-106.5137

G1X62.9390Y-106.6205

G1X63.1752Y-106.9179

G1X64.3558Y-109.1580

G1X64.5801Y-109.3635

G1X64.7927Y-109.4230

G1X65.0052Y-109.3603

G1X65.2708Y-109.0809

G1X66.3998Y-107.2269

G1X66.5991Y-107.0543

G1X66.8116Y-107.0026

G1X67.2632Y-107.2465

G1X68.3700Y-108.7646

G1X68.6357Y-108.9534

G1X68.8305Y-108.9878

G1X69.3314Y-108.7273

G1X70.3181Y-107.6162

G1X70.8494Y-107.3927

G1X71.3807Y-107.6083

G1X72.4433Y-108.4876

G1X72.9746Y-108.6347

G1X73.5059Y-108.4825

G1X74.5684Y-107.8577

G1X75.2060Y-107.7035

G1X75.7373Y-107.7770

G1X77.1186Y-108.2744

G1X77.8624Y-108.3697

G1X80.0939Y-108.0033

G1X81.0502Y-107.9255

G1X87.3195Y-108.1742

G1X90.8260Y-108.1427

G1X93.6950Y-107.9924

G1 Z0F20000

(Start Block)


G1X11.3447Y-106.2544
G1Z5F20000
(Plotting speed under)
G1 F4000


G1X13.0448Y-107.3187

G1X13.4698Y-107.4754

G1X14.0011Y-107.5104

G1X14.7981Y-107.1946

G1X16.6576Y-105.7065

G1X17.0826Y-105.5448

G1X17.5077Y-105.5436

G1X17.8973Y-105.6886

G1X18.3274Y-105.9984

G1X20.0225Y-107.7158

G1X20.3767Y-107.9078

G1X20.8017Y-107.9586

G1X21.1736Y-107.8331

G1X21.5910Y-107.5189

G1X23.4126Y-105.3413

G1X23.7769Y-105.1094

G1X24.2020Y-105.0376

G1X24.6270Y-105.2002

G1X25.0824Y-105.6154

G1X26.4865Y-107.6123

G1X26.9293Y-108.1233

G1X27.2835Y-108.3913

G1X27.7085Y-108.4998

G1X28.1689Y-108.3442

G1X28.6781Y-107.8712

G1X30.2351Y-105.5132

G1X30.6989Y-104.9378

G1X31.2150Y-104.5438

G1X31.6400Y-104.4534

G1X32.1536Y-104.6353

G1X32.7292Y-105.1723

G1X34.4854Y-107.7656

G1X35.1010Y-108.5108

G1X35.6956Y-108.9667

G1X36.3154Y-109.1260

G1X36.9352Y-108.9751

G1X37.6057Y-108.5236

G1X40.1863Y-105.7829

G1X41.4512Y-104.7646

G1X42.1596Y-104.3874

G1X42.9034Y-104.1237

G1X43.7535Y-103.9504

G1X44.8161Y-103.8571

G1X46.3037Y-103.8456

G1X47.5788Y-103.9447

G1X48.5351Y-104.1666

G1X49.3321Y-104.5302

G1X50.0405Y-105.0434

G1X50.6603Y-105.6601

G1X52.9373Y-108.5981

G1X53.4230Y-108.9914

G1X53.8481Y-109.1255

G1X54.2731Y-109.0119

G1X54.7778Y-108.5320

G1X55.2825Y-107.7137

G1X56.5709Y-105.1368

G1X56.9694Y-104.6255

G1X57.3546Y-104.4563

G1X57.6999Y-104.5982

G1X58.0320Y-105.0038

G1X59.4266Y-107.9367

G1X59.6923Y-108.3063

G1X60.0111Y-108.4902

G1X60.2900Y-108.4205

G1X60.5556Y-108.1287

G1X60.8877Y-107.5611

G1X61.7732Y-105.6241

G1X62.1210Y-105.1679

G1X62.3487Y-105.0375

G1X62.6144Y-105.1101

G1X62.8800Y-105.3690

G1X63.9426Y-107.4058

G1X64.3221Y-107.8690

G1X64.5624Y-107.9626

G1X64.8281Y-107.8565

G1X65.0583Y-107.6367

G1X66.0146Y-106.0061

G1X66.3334Y-105.6550

G1X66.5991Y-105.5245

G1X66.8647Y-105.5976

G1X67.1894Y-105.8795

G1X68.1929Y-107.2766

G1X68.5117Y-107.4841

G1X68.7242Y-107.5177

G1X69.2555Y-107.1989

G1X70.2422Y-106.1136

G1X70.7431Y-105.9267

G1X71.2036Y-106.0905

G1X72.3547Y-107.0143

G1X72.8683Y-107.1625

G1X73.3996Y-107.0295

G1X74.5684Y-106.3679

G1X75.2060Y-106.2332

G1X75.7373Y-106.3142

G1X77.1186Y-106.8040

G1X77.8624Y-106.8998

G1X80.2001Y-106.5295

G1X81.1565Y-106.4558

G1X87.5320Y-106.6932

G1X90.7197Y-106.6570

G1X93.6950Y-106.5027

G1 Z0F20000

(Start Block)


G1X11.3447Y-104.9558
G1Z5F20000
(Plotting speed under)
G1 F4000


G1X12.8323Y-105.8886

G1X13.3636Y-106.0400

G1X13.7886Y-106.0276

G1X14.6210Y-105.6513

G1X16.3034Y-104.2846

G1X16.7639Y-104.0877

G1X17.1889Y-104.0629

G1X17.6139Y-104.2053

G1X17.9858Y-104.4541

G1X19.7568Y-106.2171

G1X20.1641Y-106.4370

G1X20.5892Y-106.4889

G1X20.9965Y-106.3554

G1X21.5056Y-105.9520

G1X22.8339Y-104.3122

G1X23.2987Y-103.8540

G1X23.6707Y-103.6302

G1X24.0957Y-103.5678

G1X24.5207Y-103.7288

G1X25.0065Y-104.1574

G1X26.4201Y-106.1024

G1X26.9293Y-106.6713

G1X27.3897Y-106.9701

G1X27.8147Y-107.0227

G1X28.3460Y-106.7766

G1X28.8014Y-106.3219

G1X30.2941Y-104.1429

G1X30.8507Y-103.4720

G1X31.4452Y-103.0547

G1X31.9588Y-102.9950

G1X32.5078Y-103.2385

G1X33.0518Y-103.7468

G1X34.8543Y-106.2251

G1X35.5564Y-107.0182

G1X36.2268Y-107.4928

G1X36.9530Y-107.6559

G1X37.5905Y-107.5175

G1X38.3520Y-107.0798

G1X40.9200Y-104.8197

G1X42.2482Y-103.8887

G1X43.6473Y-103.2907

G1X45.2411Y-103.0209

G1X46.1974Y-103.0340

G1X47.0475Y-103.1612

G1X47.8976Y-103.4223

G1X48.6237Y-103.7799

G1X49.9013Y-104.7678

G1X52.1783Y-107.1758

G1X52.6969Y-107.5296

G1X53.2105Y-107.6566

G1X53.7418Y-107.4862

G1X54.3035Y-106.9384

G1X54.8575Y-106.0656

G1X56.1724Y-103.6264

G1X56.5045Y-103.2169

G1X56.9296Y-102.9855

G1X57.3015Y-103.0980

G1X57.6734Y-103.4930

G1X59.1127Y-106.3948

G1X59.4646Y-106.8566

G1X59.7985Y-107.0267

G1X60.0111Y-106.9727

G1X60.3298Y-106.6837

G1X61.6581Y-104.0657

G1X61.9945Y-103.6737

G1X62.2602Y-103.5656

G1X62.5005Y-103.6507

G1X62.8041Y-103.9860

G1X63.8943Y-106.0204

G1X64.2082Y-106.3742

G1X64.4739Y-106.4954

G1X64.7395Y-106.4000

G1X65.0052Y-106.1450

G1X66.0146Y-104.4814

G1X66.3334Y-104.1614

G1X66.5991Y-104.0529

G1X66.8647Y-104.1361

G1X67.1894Y-104.4194

G1X68.1929Y-105.7887

G1X68.4586Y-105.9803

G1X68.7242Y-106.0501

G1X69.2555Y-105.7732

G1X70.3181Y-104.6427

G1X70.8494Y-104.4536

G1X71.3807Y-104.6669

G1X72.4433Y-105.5198

G1X72.9746Y-105.6939

G1X73.5059Y-105.5871

G1X74.6747Y-104.9398

G1X75.3123Y-104.7684

G1X75.9498Y-104.8395

G1X77.4374Y-105.3386

G1X78.1812Y-105.4291

G1X81.5815Y-104.9893

G1X87.9570Y-105.1846

G1X93.6950Y-105.0031

G1 Z0F20000

(Start Block)


G1X11.3447Y-103.5406
G1Z5F20000
(Plotting speed under)
G1 F4000


G1X12.7260Y-104.4042

G1X13.2573Y-104.5646

G1X13.6824Y-104.5645

G1X14.0897Y-104.4498

G1X14.5324Y-104.2045

G1X16.3388Y-102.7798

G1X16.7639Y-102.6137

G1X17.1889Y-102.5942

G1X17.6139Y-102.7352

G1X17.9858Y-102.9775

G1X19.8453Y-104.7716

G1X20.2704Y-104.9822

G1X20.6954Y-105.0152

G1X21.0850Y-104.8833

G1X21.5910Y-104.4972

G1X23.4126Y-102.4188

G1X23.8832Y-102.1457

G1X24.3082Y-102.1022

G1X24.7155Y-102.2502

G1X25.2247Y-102.6764

G1X26.6857Y-104.6113

G1X27.2075Y-105.1778

G1X27.7262Y-105.5035

G1X28.1335Y-105.5555

G1X28.6117Y-105.3827

G1X29.1050Y-104.9650

G1X30.8033Y-102.6538

G1X31.3820Y-102.0017

G1X31.9765Y-101.6007

G1X32.4901Y-101.5159

G1X33.0214Y-101.6838

G1X33.4818Y-102.0156

G1X34.1143Y-102.6847

G1X36.1636Y-105.2217

G1X36.8467Y-105.7885

G1X37.5905Y-106.1246

G1X38.4406Y-106.1575

G1X39.3969Y-105.8348

G1X40.3886Y-105.2499

G1X41.8940Y-104.1027

G1X43.1159Y-103.4732

G1X44.2848Y-103.1362

G1X45.7724Y-102.9785

G1X46.9413Y-103.1232

G1X48.2163Y-103.5626

G1X49.0664Y-104.0684

G1X51.3687Y-105.8255

G1X51.9354Y-106.0984

G1X52.4667Y-106.1849

G1X53.0511Y-106.0258

G1X53.6963Y-105.4901

G1X54.3793Y-104.5358

G1X55.7961Y-102.1497

G1X56.2389Y-101.6820

G1X56.6108Y-101.5181

G1X57.0358Y-101.6351

G1X57.3679Y-101.9645

G1X57.7603Y-102.5707

G1X59.0016Y-105.0037

G1X59.3381Y-105.3988

G1X59.6923Y-105.5611

G1X59.9579Y-105.4705

G1X60.2767Y-105.1583

G1X61.6581Y-102.5484

G1X61.9945Y-102.1904

G1X62.2602Y-102.0952

G1X62.5764Y-102.2374

G1X62.8800Y-102.5914

G1X64.0185Y-104.6265

G1X64.3221Y-104.9386

G1X64.5801Y-105.0228

G1X64.7927Y-104.9554

G1X65.0642Y-104.7339

G1X66.0678Y-103.1393

G1X66.4473Y-102.7133

G1X66.7053Y-102.5927

G1X66.9178Y-102.6131

G1X67.1968Y-102.7696

G1X68.3447Y-104.2398

G1X68.6483Y-104.4972

G1X68.9367Y-104.5746

G1X69.4073Y-104.3955

G1X70.4952Y-103.2765

G1X70.7608Y-103.0840

G1X71.0619Y-102.9915

G1X71.5578Y-103.0976

G1X72.7975Y-104.0302

G1X73.3996Y-104.2227

G1X73.9309Y-104.1181

G1X75.0997Y-103.4974

G1X75.8435Y-103.2979

G1X76.4811Y-103.3616

G1X78.1812Y-103.8864

G1X78.9250Y-103.9600

G1X82.6441Y-103.5228

G1X88.3820Y-103.6296

G1X93.6950Y-103.5138

G1 Z0F20000

(Start Block)


G1X11.3447Y-102.0194
G1Z5F20000
(Plotting speed under)
G1 F4000


G1X12.8323Y-102.9334

G1X13.3636Y-103.0932

G1X13.7886Y-103.0980

G1X14.6210Y-102.7762

G1X16.4805Y-101.3406

G1X16.9764Y-101.1435

G1X17.4014Y-101.1235

G1X17.8087Y-101.2424

G1X18.3274Y-101.5764

G1X20.1110Y-103.2676

G1X20.5892Y-103.5072

G1X21.0142Y-103.5495

G1X21.4392Y-103.4176

G1X21.9705Y-103.0281

G1X23.4126Y-101.3767

G1X23.9186Y-100.9131

G1X24.4145Y-100.6600

G1X24.8395Y-100.6368

G1X25.2468Y-100.7878

G1X25.7655Y-101.2042

G1X27.2170Y-103.0340

G1X27.8147Y-103.6715

G1X28.3460Y-104.0117

G1X28.8773Y-104.0824

G1X29.4086Y-103.8754

G1X29.9399Y-103.4248

G1X31.6666Y-101.2152

G1X32.3307Y-100.5203

G1X32.9151Y-100.1496

G1X33.5527Y-100.0484

G1X34.1902Y-100.2577

G1X34.7974Y-100.6998

G1X37.0744Y-103.2055

G1X37.9978Y-104.0257

G1X38.9719Y-104.5481

G1X40.0344Y-104.7159

G1X41.0970Y-104.5622

G1X42.5138Y-103.7454

G1X43.5410Y-103.3231

G1X44.4973Y-103.0995

G1X45.6662Y-102.9785

G1X46.5162Y-103.0394

G1X47.4725Y-103.2728

G1X49.2789Y-104.0774

G1X50.6603Y-104.5915

G1X51.4041Y-104.7148

G1X52.0417Y-104.6382

G1X52.6084Y-104.3773

G1X53.2409Y-103.8410

G1X53.9071Y-103.0111

G1X55.4419Y-100.7311

G1X55.8973Y-100.2657

G1X56.3982Y-100.0447

G1X56.8587Y-100.1708

G1X57.2350Y-100.5135

G1X57.6734Y-101.1506

G1X58.9839Y-103.5389

G1X59.3381Y-103.9289

G1X59.6923Y-104.0902

G1X60.0465Y-103.9715

G1X60.3416Y-103.6841

G1X61.7643Y-101.1282

G1X62.1716Y-100.7052

G1X62.4373Y-100.6246

G1X62.7915Y-100.7860

G1X63.0571Y-101.0792

G1X64.3558Y-103.2553

G1X64.5801Y-103.4538

G1X64.8989Y-103.5506

G1X65.1570Y-103.4554

G1X65.5365Y-103.0644

G1X66.5991Y-101.4520

G1X66.8647Y-101.2201

G1X67.1304Y-101.1146

G1X67.3429Y-101.1479

G1X67.6616Y-101.3498

G1X68.7242Y-102.6874

G1X69.0784Y-102.9958

G1X69.3618Y-103.1035

G1X69.8754Y-102.9599

G1X71.1150Y-101.7645

G1X71.3807Y-101.5965

G1X71.6995Y-101.5183

G1X72.2308Y-101.6559

G1X73.5059Y-102.5682

G1X74.1434Y-102.7547

G1X74.7809Y-102.6186

G1X76.1623Y-101.9452

G1X76.7999Y-101.8247

G1X77.4374Y-101.8889

G1X79.2438Y-102.4018

G1X80.0939Y-102.4893

G1X84.6630Y-102.0581

G1X93.6950Y-102.0801

G1 Z0F20000

(Start Block)


G1X11.3447Y-100.4257
G1Z5F20000
(Plotting speed under)
G1 F4000


G1X13.0448Y-101.4369

G1X13.5761Y-101.6096

G1X14.1074Y-101.6269

G1X14.5324Y-101.5175

G1X15.0637Y-101.2390

G1X16.9232Y-99.8553

G1X17.4014Y-99.6757

G1X17.9327Y-99.6657

G1X18.3400Y-99.8013

G1X18.8587Y-100.1378

G1X20.7308Y-101.8286

G1X21.2267Y-102.0490

G1X21.6517Y-102.0769

G1X22.0591Y-101.9568

G1X22.5777Y-101.6094

G1X24.6270Y-99.4863

G1X25.0697Y-99.2342

G1X25.5833Y-99.1571

G1X26.1146Y-99.3329

G1X26.6636Y-99.7597

G1X28.2132Y-101.5993

G1X28.8014Y-102.1871

G1X29.4086Y-102.5493

G1X29.9399Y-102.6144

G1X30.4712Y-102.4378

G1X31.0025Y-102.0466

G1X32.9948Y-99.7226

G1X33.6590Y-99.0836

G1X34.4028Y-98.6597

G1X35.0403Y-98.5773

G1X35.6779Y-98.7461

G1X36.4040Y-99.1905

G1X38.9719Y-101.6088

G1X40.2116Y-102.5250

G1X41.5221Y-103.0698

G1X43.0097Y-103.2461

G1X43.7535Y-103.2255

G1X45.5599Y-102.9806

G1X49.9165Y-103.2465

G1X50.6603Y-103.2035

G1X51.4041Y-103.0274

G1X52.0771Y-102.7051

G1X52.7855Y-102.1633

G1X53.5160Y-101.3873

G1X55.2901Y-99.1746

G1X55.7961Y-98.7537

G1X56.2920Y-98.5760

G1X56.7702Y-98.6778

G1X57.2350Y-99.0489

G1X57.7265Y-99.7026

G1X59.1019Y-102.0166

G1X59.5405Y-102.4753

G1X59.9048Y-102.6166

G1X60.2236Y-102.5450

G1X60.6031Y-102.2089

G1X62.1126Y-99.6767

G1X62.4373Y-99.3186

G1X62.7915Y-99.1554

G1X63.0571Y-99.2125

G1X63.4113Y-99.5076

G1X64.8059Y-101.7121

G1X65.1115Y-101.9893

G1X65.4302Y-102.0823

G1X65.7136Y-101.9847

G1X65.9792Y-101.7489

G1X67.1304Y-100.1028

G1X67.4846Y-99.7658

G1X67.7679Y-99.6502

G1X68.2688Y-99.8062

G1X69.6350Y-101.3677

G1X69.8931Y-101.5467

G1X70.2119Y-101.6378

G1X70.5306Y-101.5747

G1X70.8494Y-101.3806

G1X72.0891Y-100.2453

G1X72.6558Y-100.0462

G1X73.1871Y-100.1725

G1X74.4799Y-101.0460

G1X75.2060Y-101.2821

G1X75.8435Y-101.1903

G1X77.3312Y-100.5260

G1X78.1812Y-100.3556

G1X78.9250Y-100.4219

G1X80.9439Y-100.9223

G1X81.9003Y-101.0166

G1X87.8507Y-100.6365

G1X91.1447Y-100.6362

G1X93.6950Y-100.7540

G1 Z0F20000

(Start Block)


G1X11.3447Y-98.8045
G1Z5F20000
(Plotting speed under)
G1 F4000


G1X13.4698Y-99.9734

G1X14.0011Y-100.1376

G1X14.5324Y-100.1622

G1X15.0637Y-100.0332

G1X15.4888Y-99.8261

G1X17.5431Y-98.3874

G1X18.0390Y-98.2083

G1X18.5702Y-98.1885

G1X18.9953Y-98.3095

G1X19.4912Y-98.5925

G1X21.5455Y-100.3377

G1X21.9705Y-100.5419

G1X22.5018Y-100.6128

G1X23.0331Y-100.4650

G1X23.5644Y-100.1163

G1X25.6896Y-98.0351

G1X26.2209Y-97.7531

G1X26.7521Y-97.6881

G1X27.2835Y-97.8517

G1X27.8906Y-98.2882

G1X29.6363Y-100.2172

G1X30.2056Y-100.7326

G1X30.7900Y-101.0623

G1X31.3213Y-101.1616

G1X31.6223Y-101.0906

G1X31.9765Y-100.8442

G1X33.4313Y-99.2786

G1X34.2662Y-98.6855

G1X35.5185Y-97.5908

G1X36.3154Y-97.1898

G1X37.0592Y-97.1087

G1X37.8030Y-97.2913

G1X38.5291Y-97.6722

G1X41.5398Y-99.9918

G1X43.1159Y-100.8970

G1X44.0723Y-101.2457

G1X45.0286Y-101.4646

G1X47.3663Y-101.6474

G1X48.7477Y-101.6075

G1X49.8102Y-101.4805

G1X50.6603Y-101.2751

G1X51.5104Y-100.9309

G1X52.2542Y-100.4843

G1X52.9373Y-99.9436

G1X55.3660Y-97.5611

G1X55.8847Y-97.2345

G1X56.3982Y-97.1029

G1X56.9296Y-97.2179

G1X57.4785Y-97.6274

G1X58.0984Y-98.4054

G1X59.4930Y-100.5440

G1X59.9579Y-100.9940

G1X60.3298Y-101.1451

G1X60.7548Y-101.0526

G1X61.1343Y-100.7265

G1X62.7620Y-98.1782

G1X63.1457Y-97.8084

G1X63.5176Y-97.6845

G1X63.8363Y-97.7888

G1X64.1418Y-98.0526

G1X65.4775Y-100.0814

G1X65.8907Y-100.4920

G1X66.1740Y-100.6084

G1X66.4928Y-100.5576

G1X66.7509Y-100.3899

G1X68.1265Y-98.5828

G1X68.5471Y-98.2475

G1X68.8305Y-98.1743

G1X69.1493Y-98.2549

G1X69.4073Y-98.4232

G1X70.7735Y-99.9153

G1X71.0619Y-100.0915

G1X71.3807Y-100.1707

G1X72.0005Y-99.9514

G1X73.4173Y-98.7545

G1X74.0372Y-98.5732

G1X74.6570Y-98.7365

G1X76.1623Y-99.6543

G1X76.7999Y-99.8124

G1X77.5437Y-99.7088

G1X79.3501Y-99.0090

G1X80.2001Y-98.8850

G1X81.0502Y-98.9509

G1X83.3879Y-99.4244

G1X84.5567Y-99.5351

G1X90.1884Y-99.4106

G1X93.6950Y-99.4933

G1 Z0F20000

(Start Block)


G1X11.3447Y-97.2026
G1Z5F20000
(Plotting speed under)
G1 F4000


G1X12.0885Y-97.4838

G1X14.0011Y-98.4931

G1X14.5324Y-98.6555

G1X15.0637Y-98.6992

G1X15.5950Y-98.6098

G1X16.2149Y-98.3462

G1X18.4640Y-96.8882

G1X18.9953Y-96.7266

G1X19.5266Y-96.7224

G1X20.0579Y-96.8838

G1X20.5537Y-97.1690

G1X22.6789Y-98.8645

G1X23.1394Y-99.0710

G1X23.6707Y-99.1447

G1X24.2020Y-99.0274

G1X24.8041Y-98.6789

G1X26.6003Y-96.9771

G1X27.1949Y-96.5184

G1X27.8147Y-96.2501

G1X28.3460Y-96.2281

G1X28.8773Y-96.4039

G1X29.4845Y-96.8186

G1X31.8880Y-99.1996

G1X32.4901Y-99.5558

G1X32.9151Y-99.6304

G1X33.2036Y-99.5313

G1X33.6590Y-99.0836

G1X34.2662Y-98.6855

G1X35.5185Y-97.5908

G1X36.6696Y-96.9829

G1X37.8207Y-96.1007

G1X38.5468Y-95.7604

G1X39.2906Y-95.6335

G1X40.1407Y-95.7438

G1X40.9908Y-96.0729

G1X44.1077Y-97.9551

G1X45.4536Y-98.6150

G1X46.8350Y-99.0546

G1X48.3226Y-99.2616

G1X49.2789Y-99.2552

G1X50.1290Y-99.1529

G1X51.7229Y-98.6705

G1X53.0511Y-97.9277

G1X55.6190Y-96.0160

G1X56.1857Y-95.7414

G1X56.7170Y-95.6343

G1X57.3546Y-95.7551

G1X58.0098Y-96.1995

G1X58.6887Y-96.9733

G1X60.2236Y-99.0990

G1X60.6789Y-99.5082

G1X61.1799Y-99.6810

G1X61.6049Y-99.5650

G1X61.9503Y-99.2916

G1X63.7434Y-96.7010

G1X64.1197Y-96.3555

G1X64.4739Y-96.2156

G1X64.7927Y-96.2725

G1X65.1570Y-96.5261

G1X66.6750Y-98.6496

G1X67.0544Y-99.0090

G1X67.4491Y-99.1583

G1X67.7945Y-99.0069

G1X68.1929Y-98.5150

G1X68.7242Y-98.0673

G1X69.6350Y-96.9587

G1X69.8931Y-96.7891

G1X70.2119Y-96.7051

G1X70.5306Y-96.7687

G1X70.9253Y-97.0226

G1X72.3547Y-98.4773

G1X72.9746Y-98.7009

G1X73.2934Y-98.6455

G1X73.6830Y-98.4507

G1X75.0997Y-97.3313

G1X75.5248Y-97.1486

G1X75.8435Y-97.1046

G1X76.5874Y-97.2877

G1X78.1812Y-98.1653

G1X78.9250Y-98.3410

G1X79.8814Y-98.2190

G1X81.9003Y-97.5476

G1X82.9628Y-97.4153

G1X83.9192Y-97.4635

G1X86.5757Y-97.8528

G1X88.1695Y-97.9952

G1X93.6950Y-98.0433

G1 Z0F20000

(Start Block)


G1X11.3447Y-95.6531
G1Z5F20000
(Plotting speed under)
G1 F4000


G1X12.5135Y-95.9689

G1X14.8512Y-97.0697

G1X15.3825Y-97.1995

G1X15.9138Y-97.2275

G1X16.4451Y-97.1438

G1X17.0826Y-96.9026

G1X18.9599Y-95.7356

G1X19.6328Y-95.3998

G1X20.2704Y-95.2428

G1X20.8017Y-95.2616

G1X21.3330Y-95.4213

G1X21.8820Y-95.7187

G1X24.0957Y-97.3678

G1X24.7332Y-97.6253

G1X25.2645Y-97.6723

G1X25.7958Y-97.5543

G1X26.2209Y-97.3385

G1X28.3460Y-95.5168

G1X28.9836Y-95.0552

G1X29.6211Y-94.7885

G1X30.1524Y-94.7503

G1X30.6837Y-94.8863

G1X31.2681Y-95.2202

G1X33.6590Y-97.4623

G1X34.4028Y-97.9876

G1X34.7215Y-98.1043

G1X35.7841Y-97.4217

G1X36.6696Y-96.9829

G1X37.9093Y-96.0481

G1X39.0604Y-95.6090

G1X40.4772Y-94.5952

G1X41.3096Y-94.2644

G1X42.0534Y-94.1635

G1X42.9034Y-94.2499

G1X43.7535Y-94.5052

G1X46.7287Y-95.8811

G1X48.0038Y-96.3550

G1X49.1727Y-96.6249

G1X50.3415Y-96.7155

G1X51.5104Y-96.6143

G1X52.5729Y-96.3466

G1X53.8481Y-95.8070

G1X56.3982Y-94.4201

G1X57.1421Y-94.1941

G1X57.8859Y-94.2020

G1X58.5234Y-94.4541

G1X59.0724Y-94.8683

G1X59.7587Y-95.6124

G1X61.2861Y-97.5606

G1X61.8174Y-98.0196

G1X62.3487Y-98.2098

G1X62.6675Y-98.1436

G1X62.8800Y-97.9914

G1X63.7434Y-96.7078

G1X64.4739Y-96.1228

G1X65.3088Y-95.0591

G1X65.6427Y-94.8264

G1X65.9615Y-94.7440

G1X66.3334Y-94.8367

G1X66.7319Y-95.1393

G1X68.1265Y-97.0256

G1X68.4965Y-97.4318

G1X68.7242Y-97.5713

G1X69.1493Y-97.4272

G1X69.7868Y-96.8466

G1X70.3181Y-96.7085

G1X71.3048Y-95.5918

G1X71.6463Y-95.3483

G1X72.0182Y-95.2355

G1X72.6204Y-95.4147

G1X74.2142Y-96.9006

G1X74.5684Y-97.1212

G1X74.9935Y-97.2287

G1X75.3123Y-97.1967

G1X75.7196Y-97.0325

G1X77.4374Y-95.8265

G1X78.1812Y-95.6345

G1X78.9250Y-95.7761

G1X80.8377Y-96.6959

G1X81.7940Y-96.8744

G1X82.7503Y-96.7678

G1X85.1943Y-96.1064

G1X86.3631Y-95.9608

G1X87.7445Y-95.9631

G1X91.4635Y-96.1908

G1X93.6950Y-96.2010

G1 Z0F20000

(Start Block)


G1X11.3447Y-94.1641
G1Z5F20000
(Plotting speed under)
G1 F4000


G1X11.9822Y-94.1997

G1X12.7260Y-94.3572

G1X15.5950Y-95.5397

G1X16.3388Y-95.7236

G1X16.9764Y-95.7575

G1X17.6139Y-95.6619

G1X18.3577Y-95.3951

G1X21.0142Y-93.9548

G1X21.6517Y-93.7880

G1X22.2893Y-93.7820

G1X22.8206Y-93.9085

G1X23.4581Y-94.2055

G1X26.0083Y-95.9426

G1X26.5396Y-96.1408

G1X27.0709Y-96.2102

G1X27.4960Y-96.1415

G1X27.8147Y-95.9953

G1X28.7002Y-95.2395

G1X29.5857Y-94.7359

G1X31.1087Y-93.5884

G1X31.7463Y-93.3277

G1X32.3839Y-93.2844

G1X32.9151Y-93.4221

G1X33.5704Y-93.7900

G1X35.9612Y-95.9519

G1X36.6696Y-96.4604

G1X36.9530Y-96.5346

G1X37.3780Y-96.4080

G1X38.2281Y-95.8838

G1X38.9719Y-95.6605

G1X40.2116Y-94.7491

G1X40.8845Y-94.4062

G1X41.6283Y-94.1739

G1X42.4253Y-93.5455

G1X43.1337Y-93.1163

G1X43.9660Y-92.8012

G1X44.7098Y-92.6955

G1X45.4536Y-92.7381

G1X46.3037Y-92.9306

G1X49.0664Y-93.9668

G1X50.2353Y-94.3272

G1X51.2978Y-94.5279

G1X52.2542Y-94.5856

G1X53.3167Y-94.5025

G1X54.4856Y-94.2309

G1X57.9921Y-92.8203

G1X58.6297Y-92.7018

G1X59.2672Y-92.7315

G1X59.9579Y-92.9769

G1X60.6663Y-93.4830

G1X61.3525Y-94.1930

G1X62.8136Y-95.9602

G1X63.2595Y-96.3956

G1X63.6238Y-96.5417

G1X63.9426Y-96.4925

G1X64.2968Y-96.2873

G1X65.3847Y-94.9922

G1X65.6427Y-94.8385

G1X66.1437Y-94.6984

G1X67.2189Y-93.5710

G1X67.5731Y-93.3433

G1X67.8742Y-93.2755

G1X68.2815Y-93.3657

G1X68.7242Y-93.6951

G1X70.1853Y-95.5710

G1X70.5838Y-95.9767

G1X70.8494Y-96.0884

G1X71.6463Y-95.3483

G1X71.9120Y-95.2486

G1X72.3370Y-95.3420

G1X72.5097Y-95.2764

G1X73.5059Y-94.1619

G1X73.8601Y-93.9057

G1X74.2497Y-93.7727

G1X74.5684Y-93.7852

G1X74.9935Y-93.9683

G1X76.6051Y-95.3837

G1X77.0124Y-95.6334

G1X77.3312Y-95.7280

G1X78.2875Y-95.5725

G1X79.9876Y-94.4591

G1X80.4127Y-94.2717

G1X80.9439Y-94.1669

G1X81.9003Y-94.3214

G1X84.1317Y-95.2474

G1X85.1943Y-95.4050

G1X86.2569Y-95.3179

G1X88.5946Y-94.8283

G1X89.9759Y-94.6244

G1X93.6950Y-94.4836

G1 Z0F20000

(Start Block)


G1X11.3447Y-92.7212
G1Z5F20000
(Plotting speed under)
G1 F4000


G1X12.3010Y-92.7044

G1X13.2573Y-92.8372

G1X14.2137Y-93.1074

G1X16.8701Y-94.0922

G1X17.6139Y-94.2507

G1X18.3577Y-94.2878

G1X19.1016Y-94.1871

G1X19.8453Y-93.9522

G1X22.8206Y-92.4926

G1X23.5644Y-92.3145

G1X24.2020Y-92.3089

G1X24.8395Y-92.4508

G1X25.4771Y-92.7308

G1X28.1335Y-94.4459

G1X28.7711Y-94.6767

G1X29.3024Y-94.7466

G1X29.8336Y-94.5414

G1X31.0025Y-93.6498

G1X32.0651Y-93.1854

G1X33.4818Y-92.1128

G1X34.0840Y-91.8671

G1X34.7215Y-91.8093

G1X35.3591Y-91.9714

G1X35.9612Y-92.3106

G1X38.3647Y-94.4724

G1X39.1844Y-95.0386

G1X39.5032Y-95.1545

G1X40.6720Y-94.4976

G1X41.6283Y-94.1739

G1X42.6024Y-93.4251

G1X43.7535Y-92.8615

G1X45.4536Y-91.6564

G1X46.1974Y-91.3556

G1X47.0475Y-91.2242

G1X47.7913Y-91.2760

G1X48.6414Y-91.4802

G1X52.3604Y-92.8260

G1X53.4230Y-93.0348

G1X54.3793Y-93.0981

G1X55.4419Y-93.0205

G1X56.6108Y-92.7549

G1X60.2236Y-91.3322

G1X60.8611Y-91.2280

G1X61.4986Y-91.2713

G1X62.2425Y-91.5568

G1X62.8800Y-92.0193

G1X63.5441Y-92.6912

G1X65.1570Y-94.5845

G1X65.4606Y-94.8501

G1X65.6427Y-94.8998

G1X66.2196Y-94.6380

G1X67.3960Y-93.4397

G1X67.6616Y-93.3109

G1X68.1929Y-93.3278

G1X68.6180Y-93.1778

G1X69.6350Y-92.0692

G1X69.9993Y-91.8619

G1X70.3181Y-91.8032

G1X70.7431Y-91.9205

G1X71.1530Y-92.2238

G1X72.7469Y-94.2121

G1X72.9746Y-94.3936

G1X73.1871Y-94.3638

G1X74.0372Y-93.8234

G1X75.0997Y-93.8201

G1X76.1623Y-92.6800

G1X76.6051Y-92.3938

G1X77.0124Y-92.2958

G1X77.3312Y-92.3301

G1X77.7562Y-92.5203

G1X79.4386Y-93.9209

G1X79.8814Y-94.1703

G1X80.3064Y-94.2680

G1X80.7314Y-94.2249

G1X81.3690Y-94.0237

G1X83.0691Y-92.9900

G1X83.6004Y-92.7843

G1X84.1317Y-92.6968

G1X85.0880Y-92.8176

G1X87.3195Y-93.6371

G1X88.7008Y-93.9091

G1X90.0822Y-93.9096

G1X93.6950Y-93.5710

G1 Z0F20000

(Start Block)


G1X11.3447Y-91.2997
G1Z5F20000
(Plotting speed under)
G1 F4000


G1X12.8323Y-91.2268

G1X14.2137Y-91.3674

G1X15.4888Y-91.6719

G1X18.4640Y-92.6140

G1X19.3141Y-92.7760

G1X20.1641Y-92.8190

G1X21.0142Y-92.7204

G1X21.8643Y-92.4785

G1X25.1583Y-90.9966

G1X25.9021Y-90.8406

G1X26.5396Y-90.8397

G1X27.1772Y-90.9738

G1X27.9033Y-91.2822

G1X30.5775Y-92.9744

G1X31.2150Y-93.2068

G1X31.7463Y-93.2600

G1X32.1410Y-93.1402

G1X33.3933Y-92.1631

G1X34.5444Y-91.6481

G1X35.8904Y-90.6514

G1X36.5279Y-90.3890

G1X37.0592Y-90.3359

G1X37.6968Y-90.4854

G1X38.2635Y-90.8012

G1X40.8314Y-93.1608

G1X41.4512Y-93.5690

G1X42.0534Y-93.7544

G1X42.2482Y-93.7041

G1X43.0451Y-93.1622

G1X43.8420Y-92.8054

G1X45.6130Y-91.5191

G1X47.1183Y-90.2938

G1X47.6851Y-89.9928

G1X48.3226Y-89.7990

G1X49.0664Y-89.7624

G1X49.8102Y-89.9030

G1X50.7666Y-90.2714

G1X52.9980Y-91.4007

G1X54.1668Y-91.8863

G1X55.4419Y-92.2246

G1X56.7170Y-92.3376

G1X58.0984Y-92.1867

G1X59.4797Y-91.5809

G1X60.7548Y-91.1471

G1X62.8800Y-90.0058

G1X63.5176Y-89.8058

G1X64.0489Y-89.7539

G1X64.7927Y-89.9097

G1X65.6124Y-90.4296

G1X66.3334Y-91.1649

G1X67.9653Y-93.1610

G1X68.2815Y-93.3387

G1X68.7242Y-93.0999

G1X69.2555Y-92.4292

G1X69.7868Y-91.9645

G1X70.3181Y-91.8032

G1X70.8494Y-91.9805

G1X71.1682Y-91.9080

G1X71.4471Y-91.7057

G1X71.9120Y-91.0759

G1X72.3674Y-90.6203

G1X72.7620Y-90.3909

G1X73.0808Y-90.3339

G1X73.5059Y-90.4467

G1X73.9486Y-90.7776

G1X75.4318Y-92.6285

G1X75.7373Y-92.8252

G1X76.9061Y-92.3058

G1X77.2249Y-92.3075

G1X77.7562Y-92.5203

G1X79.0844Y-91.1620

G1X79.4563Y-90.9341

G1X79.8814Y-90.8249

G1X80.3064Y-90.8860

G1X80.6783Y-91.0600

G1X82.3607Y-92.4169

G1X83.1754Y-92.7838

G1X83.8129Y-92.7644

G1X84.2380Y-92.6596

G1X86.2569Y-91.5445

G1X86.8944Y-91.3179

G1X87.5320Y-91.2263

G1X88.5946Y-91.3356

G1X91.6761Y-92.1781

G1X93.6950Y-92.4151

G1 Z0F20000

(Start Block)


G1X11.3447Y-89.8770
G1Z5F20000
(Plotting speed under)
G1 F4000


G1X13.5761Y-89.7539

G1X15.4888Y-89.8783

G1X17.2952Y-90.2215

G1X20.8017Y-91.1674

G1X21.7580Y-91.3186

G1X22.6081Y-91.3479

G1X23.4581Y-91.2559

G1X24.4145Y-90.9996

G1X27.7085Y-89.5478

G1X28.4523Y-89.3789

G1X29.0898Y-89.3634

G1X29.7274Y-89.4841

G1X30.3649Y-89.7391

G1X32.9506Y-91.4205

G1X33.5527Y-91.6848

G1X34.0840Y-91.8045

G1X34.6153Y-91.5994

G1X35.8904Y-90.6524

G1X36.8467Y-90.2768

G1X37.6436Y-89.5673

G1X38.2635Y-89.1369

G1X38.7594Y-88.9269

G1X39.2906Y-88.8661

G1X39.9282Y-89.0337

G1X40.5658Y-89.4443

G1X42.4632Y-91.3737

G1X43.1337Y-91.9408

G1X43.6473Y-92.2191

G1X44.1785Y-92.3416

G1X44.5504Y-92.2154

G1X45.7901Y-91.3794

G1X48.5351Y-88.8106

G1X49.2789Y-88.4110

G1X49.9165Y-88.2851

G1X50.6603Y-88.3810

G1X51.4572Y-88.7228

G1X54.2908Y-90.6908

G1X55.5482Y-91.3989

G1X56.7170Y-91.8385

G1X57.9921Y-92.1069

G1X58.4172Y-92.0283

G1X60.7548Y-91.1471

G1X62.2602Y-90.2985

G1X63.0925Y-89.9253

G1X63.7301Y-89.7700

G1X64.3676Y-89.8122

G1X64.6864Y-89.7460

G1X66.4220Y-88.5731

G1X66.9178Y-88.3650

G1X67.3429Y-88.2867

G1X68.0867Y-88.4196

G1X68.8001Y-88.8988

G1X69.4548Y-89.6091

G1X70.7166Y-91.2985

G1X71.2921Y-91.7793

G1X71.5135Y-91.6645

G1X72.2156Y-90.7536

G1X72.7620Y-90.3909

G1X73.1871Y-90.3511

G1X73.5059Y-90.4467

G1X73.8601Y-90.6806

G1X74.0372Y-90.6935

G1X75.0333Y-89.3672

G1X75.4539Y-89.0177

G1X75.8435Y-88.8724

G1X76.2509Y-88.9191

G1X76.6936Y-89.1959

G1X77.2249Y-89.7672

G1X78.2211Y-91.0717

G1X78.7302Y-91.3887

G1X78.9073Y-91.3563

G1X79.3501Y-90.9859

G1X79.6688Y-90.8590

G1X79.9876Y-90.8335

G1X80.4127Y-90.9238

G1X80.7314Y-90.8197

G1X81.9306Y-89.6874

G1X82.6441Y-89.3644

G1X83.0691Y-89.3860

G1X83.4942Y-89.5567

G1X85.3714Y-90.9844

G1X85.8318Y-91.2190

G1X86.3631Y-91.3448

G1X86.7882Y-91.3326

G1X87.3195Y-91.1975

G1X89.4446Y-90.1614

G1X90.5072Y-89.8361

G1X91.7823Y-89.7625

G1X93.6950Y-90.0079

G1 Z0F20000

(Start Block)


G1X11.3447Y-88.4401
G1Z5F20000
(Plotting speed under)
G1 F4000


G1X14.9575Y-88.2847

G1X17.7202Y-88.4002

G1X19.9516Y-88.7516

G1X23.8832Y-89.7279

G1X25.4771Y-89.8802

G1X26.3271Y-89.7978

G1X27.0709Y-89.6154

G1X28.0272Y-89.2418

G1X30.3649Y-88.1192

G1X31.1087Y-87.9203

G1X31.7463Y-87.8903

G1X32.3839Y-88.0133

G1X33.1277Y-88.3477

G1X35.6070Y-90.0639

G1X36.1029Y-90.2611

G1X36.6342Y-90.3299

G1X36.9226Y-90.2310

G1X38.0864Y-89.2455

G1X38.9719Y-88.8479

G1X39.8068Y-88.0466

G1X40.3001Y-87.6799

G1X40.7783Y-87.4572

G1X41.3096Y-87.3998

G1X41.8940Y-87.5858

G1X42.4632Y-87.9985

G1X44.2089Y-89.9434

G1X44.7402Y-90.4379

G1X45.3474Y-90.7868

G1X45.8787Y-90.8575

G1X46.4100Y-90.6972

G1X47.0171Y-90.2572

G1X49.0000Y-87.9371

G1X49.6863Y-87.2844

G1X50.3415Y-86.9096

G1X50.9791Y-86.8171

G1X51.6166Y-86.9851

G1X52.3427Y-87.4370

G1X54.8347Y-89.7811

G1X56.1503Y-90.7201

G1X56.9296Y-91.0744

G1X57.6734Y-91.2884

G1X59.5860Y-91.4873

G1X60.7548Y-91.1471

G1X62.2602Y-90.2985

G1X63.0925Y-89.9253

G1X63.7301Y-89.7700

G1X64.3676Y-89.8122

G1X64.6864Y-89.7460

G1X66.0678Y-88.7825

G1X66.8116Y-88.4006

G1X67.4491Y-88.2832

G1X68.1929Y-88.4690

G1X68.5117Y-88.3826

G1X69.8754Y-87.1767

G1X70.3181Y-86.9252

G1X70.7431Y-86.8170

G1X71.3807Y-86.9417

G1X71.9784Y-87.3826

G1X72.6204Y-88.1546

G1X73.8379Y-89.9774

G1X74.1257Y-90.1907

G1X74.5684Y-89.9339

G1X75.0997Y-89.3014

G1X75.6310Y-88.9276

G1X76.1623Y-88.8912

G1X76.6051Y-89.1892

G1X76.7695Y-89.1659

G1X77.9080Y-87.8011

G1X78.2875Y-87.5048

G1X78.6063Y-87.4005

G1X78.9959Y-87.4549

G1X79.5019Y-87.8068

G1X80.8775Y-89.5562

G1X81.2476Y-89.9746

G1X81.4753Y-90.0981

G1X82.0065Y-89.6334

G1X82.3253Y-89.4551

G1X82.6441Y-89.3703

G1X83.2816Y-89.3615

G1X83.6004Y-89.2468

G1X84.5871Y-88.2588

G1X84.9818Y-88.0153

G1X85.4068Y-87.8920

G1X85.8318Y-87.9164

G1X86.2569Y-88.0748

G1X88.2935Y-89.5050

G1X88.9133Y-89.7770

G1X89.4446Y-89.8756

G1X89.9759Y-89.8569

G1X90.6135Y-89.7126

G1X92.6324Y-88.9299

G1X93.6950Y-88.6044

G1 Z0F20000

(Start Block)


G1X11.3447Y-86.9859
G1Z5F20000
(Plotting speed under)
G1 F4000


G1X18.2515Y-86.8163

G1X21.1205Y-86.9018

G1X23.5644Y-87.2765

G1X27.2835Y-88.2744

G1X28.6648Y-88.4098

G1X29.4086Y-88.3289

G1X30.1524Y-88.1219

G1X33.0214Y-86.6662

G1X33.6590Y-86.4648

G1X34.2965Y-86.4191

G1X34.8278Y-86.5213

G1X35.3414Y-86.7433

G1X37.7322Y-88.5399

G1X38.2281Y-88.7732

G1X38.7594Y-88.8786

G1X39.0478Y-88.7880

G1X39.9586Y-87.9208

G1X41.0085Y-87.2317

G1X42.0711Y-86.2357

G1X42.5847Y-85.9743

G1X43.0097Y-85.9281

G1X43.4879Y-86.0733

G1X44.0571Y-86.5022

G1X45.6794Y-88.4797

G1X46.1823Y-88.9892

G1X46.7287Y-89.3245

G1X47.1538Y-89.3893

G1X47.6496Y-89.2368

G1X48.2315Y-88.7695

G1X49.9962Y-86.4527

G1X50.5844Y-85.8190

G1X51.1916Y-85.4286

G1X51.7229Y-85.3470

G1X52.3427Y-85.5564

G1X52.9373Y-86.0200

G1X55.0624Y-88.5120

G1X55.9732Y-89.3590

G1X56.9296Y-89.8722

G1X57.8859Y-90.0168

G1X58.8422Y-89.8942

G1X61.1799Y-89.2338

G1X62.3487Y-89.0255

G1X63.6238Y-89.0132

G1X65.2177Y-89.2482

G1X65.5365Y-89.1603

G1X66.3334Y-88.6218

G1X67.0241Y-88.3355

G1X67.5554Y-88.2869

G1X68.0867Y-88.4566

G1X68.4055Y-88.4268

G1X68.8001Y-88.1920

G1X69.7109Y-87.2978

G1X70.3181Y-86.9252

G1X70.8494Y-86.8132

G1X71.6995Y-87.0167

G1X71.9120Y-86.9731

G1X72.9746Y-85.7387

G1X73.4173Y-85.4433

G1X73.8246Y-85.3444

G1X74.3028Y-85.4626

G1X74.8720Y-85.9335

G1X75.3949Y-86.6269

G1X76.5165Y-88.4451

G1X76.6936Y-88.6481

G1X76.9061Y-88.7471

G1X77.2913Y-88.6145

G1X77.8321Y-87.8786

G1X78.3938Y-87.4560

G1X78.8188Y-87.4037

G1X79.2615Y-87.6770

G1X79.4165Y-87.6334

G1X80.4127Y-86.3299

G1X80.7669Y-86.0456

G1X81.1565Y-85.9259

G1X81.5638Y-86.0224

G1X82.0065Y-86.3651

G1X83.4676Y-88.2204

G1X84.0431Y-88.6671

G1X84.2076Y-88.6435

G1X84.6630Y-88.2034

G1X84.9818Y-88.0153

G1X85.7256Y-87.8971

G1X86.1506Y-87.7370

G1X87.3195Y-86.7088

G1X87.7445Y-86.4981

G1X88.1695Y-86.4160

G1X88.5946Y-86.4562

G1X89.1258Y-86.6525

G1X90.9500Y-87.8048

G1X91.7823Y-88.1955

G1X92.7386Y-88.3987

G1X93.6950Y-88.3743

G1 Z0F20000

(Start Block)


G1X11.3447Y-85.5187
G1Z5F20000
(Plotting speed under)
G1 F4000


G1X16.6576Y-85.6113

G1X23.1394Y-85.3533

G1X25.0520Y-85.3861

G1X26.8584Y-85.6559

G1X30.3649Y-86.7690

G1X31.6400Y-86.9408

G1X32.2776Y-86.8694

G1X32.9151Y-86.6751

G1X35.5716Y-85.1630

G1X36.1029Y-84.9867

G1X36.6342Y-84.9493

G1X37.0592Y-85.0344

G1X37.5551Y-85.2637

G1X39.6803Y-87.0337

G1X40.1407Y-87.2889

G1X40.5658Y-87.3852

G1X40.8845Y-87.2899

G1X41.1729Y-87.0951

G1X41.8054Y-86.4519

G1X42.6909Y-85.8146

G1X43.6776Y-84.7726

G1X44.0723Y-84.5367

G1X44.4973Y-84.4555

G1X44.9932Y-84.6085

G1X45.4802Y-85.0047

G1X46.9413Y-86.9480

G1X47.4725Y-87.5416

G1X47.9153Y-87.8421

G1X48.3226Y-87.9197

G1X48.8008Y-87.7573

G1X49.3321Y-87.2806

G1X50.9259Y-84.9673

G1X51.4952Y-84.2993

G1X52.0417Y-83.9369

G1X52.4667Y-83.8787

G1X52.9626Y-84.0591

G1X53.5160Y-84.5381

G1X55.3829Y-87.0983

G1X56.0618Y-87.8670

G1X56.7170Y-88.3469

G1X57.4608Y-88.5459

G1X58.0984Y-88.4526

G1X58.7182Y-88.1810

G1X61.1976Y-86.4518

G1X62.2425Y-85.8551

G1X63.1988Y-85.4889

G1X64.1551Y-85.3048

G1X65.4302Y-85.3419

G1X66.5991Y-85.6648

G1X67.7502Y-86.2555

G1X69.2555Y-87.3414

G1X69.5743Y-87.3205

G1X70.3181Y-86.9252

G1X70.7431Y-86.8170

G1X71.8057Y-87.0141

G1X72.0448Y-86.8495

G1X72.8228Y-85.8764

G1X73.3288Y-85.4882

G1X73.9309Y-85.3499

G1X74.3913Y-85.5860

G1X74.5684Y-85.5995

G1X75.4982Y-84.3390

G1X75.8967Y-84.0153

G1X76.2686Y-83.8802

G1X76.7822Y-83.9935

G1X77.2839Y-84.4350

G1X77.8093Y-85.1776

G1X79.0844Y-87.3121

G1X79.3501Y-87.5653

G1X79.5778Y-87.4188

G1X80.5897Y-86.1706

G1X80.9439Y-85.9635

G1X81.4753Y-85.9826

G1X81.9003Y-85.8178

G1X82.7655Y-84.7678

G1X83.0691Y-84.5493

G1X83.3879Y-84.4577

G1X83.7775Y-84.5296

G1X84.2076Y-84.8254

G1X85.7256Y-86.6764

G1X86.1051Y-87.0615

G1X86.3631Y-87.1905

G1X86.7882Y-87.1318

G1X87.3195Y-86.7088

G1X87.7445Y-86.4981

G1X88.4706Y-86.3806

G1X89.7988Y-85.3342

G1X90.2947Y-85.0786

G1X90.7197Y-84.9655

G1X91.2510Y-84.9577

G1X91.8886Y-85.1115

G1X93.6950Y-85.9794

G1 Z0F20000

(Start Block)


G1X11.3447Y-84.0478
G1Z5F20000
(Plotting speed under)
G1 F4000


G1X16.2326Y-84.4762

G1X19.7391Y-84.5759

G1X22.5018Y-84.4595

G1X27.1772Y-83.9282

G1X28.7711Y-83.8876

G1X30.3649Y-84.1576

G1X33.2339Y-85.2830

G1X33.8715Y-85.4379

G1X34.4028Y-85.4695

G1X35.0403Y-85.3635

G1X35.6779Y-85.0953

G1X37.8207Y-83.6801

G1X38.3343Y-83.5023

G1X38.7594Y-83.4809

G1X39.1844Y-83.5867

G1X39.6803Y-83.8677

G1X41.6283Y-85.6555

G1X42.0534Y-85.8706

G1X42.3721Y-85.9114

G1X42.7573Y-85.7624

G1X43.3740Y-85.0497

G1X44.2848Y-84.3137

G1X45.1956Y-83.2822

G1X45.5599Y-83.0574

G1X45.9849Y-82.9896

G1X46.4100Y-83.1539

G1X46.8654Y-83.5718

G1X48.6237Y-86.0143

G1X49.0664Y-86.3616

G1X49.4915Y-86.4482

G1X49.8633Y-86.3208

G1X50.1880Y-86.0419

G1X52.3301Y-82.8918

G1X52.7855Y-82.5151

G1X53.2105Y-82.4045

G1X53.6709Y-82.5538

G1X54.2275Y-83.0673

G1X55.9142Y-85.6474

G1X56.5804Y-86.4842

G1X57.1421Y-86.9209

G1X57.7796Y-87.0764

G1X58.3109Y-86.9468

G1X58.9839Y-86.5109

G1X61.3620Y-84.1081

G1X62.5258Y-83.1857

G1X63.8363Y-82.5580

G1X65.2177Y-82.2714

G1X66.2803Y-82.2387

G1X67.2366Y-82.3356

G1X68.1929Y-82.5783

G1X68.9899Y-82.9270

G1X69.6983Y-83.3730

G1X70.3940Y-83.9443

G1X72.4433Y-86.0966

G1X73.6121Y-85.3756

G1X74.0372Y-85.3637

G1X74.3913Y-85.5860

G1X74.5684Y-85.5995

G1X75.0997Y-84.8164

G1X75.6310Y-84.2127

G1X76.1623Y-83.8995

G1X76.5874Y-83.9719

G1X76.7695Y-83.9011

G1X77.7562Y-82.7409

G1X78.1104Y-82.4868

G1X78.3938Y-82.4068

G1X78.8947Y-82.5485

G1X79.3501Y-82.9802

G1X80.8908Y-85.4952

G1X81.2096Y-85.8436

G1X81.4753Y-85.9826

G1X81.7409Y-85.9295

G1X82.0065Y-85.7326

G1X82.5378Y-85.0003

G1X82.9173Y-84.6428

G1X83.1754Y-84.5138

G1X83.6004Y-84.4706

G1X83.9546Y-84.2843

G1X84.8401Y-83.2884

G1X85.4068Y-82.9952

G1X85.8141Y-83.0325

G1X86.3328Y-83.3545

G1X88.0784Y-85.3287

G1X88.6477Y-85.7724

G1X88.9133Y-85.8632

G1X89.1790Y-85.7672

G1X90.1884Y-85.1225

G1X91.1270Y-84.8987

G1X92.6324Y-83.8467

G1X93.6950Y-83.5044

G1 Z0F20000

(Start Block)


G1X11.3447Y-82.5846
G1Z5F20000
(Plotting speed under)
G1 F4000


G1X14.8512Y-83.1650

G1X16.8701Y-83.4081

G1X19.3141Y-83.5509

G1X22.2893Y-83.5814

G1X24.5207Y-83.5204

G1X26.3271Y-83.3704

G1X27.9210Y-83.1179

G1X30.7900Y-82.4989

G1X32.0651Y-82.4088

G1X33.3402Y-82.6491

G1X35.6779Y-83.7569

G1X36.2091Y-83.9356

G1X36.7404Y-84.0020

G1X37.2717Y-83.9282

G1X37.6968Y-83.7572

G1X39.7688Y-82.2590

G1X40.2470Y-82.0511

G1X40.6720Y-82.0084

G1X41.0970Y-82.1200

G1X41.4512Y-82.3320

G1X43.1463Y-84.0426

G1X43.5764Y-84.3440

G1X43.9660Y-84.4259

G1X44.3512Y-84.2571

G1X44.8161Y-83.6548

G1X45.8787Y-82.7211

G1X46.6756Y-81.7849

G1X47.0475Y-81.5605

G1X47.3663Y-81.5184

G1X47.7382Y-81.6608

G1X48.0702Y-81.9454

G1X49.7495Y-84.4233

G1X50.1290Y-84.8027

G1X50.5540Y-84.9866

G1X50.8374Y-84.9128

G1X51.1916Y-84.5986

G1X51.7819Y-83.6273

G1X53.3167Y-81.4441

G1X53.7595Y-81.0482

G1X54.1668Y-80.9358

G1X54.6450Y-81.1177

G1X55.1099Y-81.5861

G1X56.7406Y-84.2589

G1X57.3394Y-85.0545

G1X57.9213Y-85.5045

G1X58.4172Y-85.6049

G1X58.9485Y-85.4394

G1X59.4646Y-85.0549

G1X61.9692Y-82.1167

G1X62.6144Y-81.5146

G1X63.3228Y-81.0196

G1X64.1551Y-80.6421

G1X65.0052Y-80.4325

G1X66.0678Y-80.3239

G1X67.4491Y-80.2996

G1X68.6180Y-80.3450

G1X69.5743Y-80.4740

G1X70.4244Y-80.7250

G1X71.1150Y-81.0696

G1X72.2915Y-82.0248

G1X74.4356Y-84.6317

G1X74.8872Y-84.8639

G1X75.1662Y-84.7711

G1X75.6310Y-84.2127

G1X75.9852Y-83.9663

G1X76.2686Y-83.8959

G1X76.5874Y-83.9719

G1X76.7695Y-83.9011

G1X77.7562Y-82.7409

G1X78.7125Y-82.2533

G1X79.5272Y-81.2561

G1X79.8814Y-81.0061

G1X80.2001Y-80.9353

G1X80.5897Y-81.0485

G1X81.0768Y-81.4839

G1X82.8035Y-84.2504

G1X83.1754Y-84.5870

G1X83.6890Y-84.4341

G1X84.0431Y-84.2168

G1X84.6630Y-83.4555

G1X85.0172Y-83.1527

G1X85.3005Y-83.0335

G1X85.7256Y-83.0071

G1X86.7123Y-81.8623

G1X87.1069Y-81.6038

G1X87.4257Y-81.5176

G1X87.8507Y-81.5764

G1X88.2935Y-81.8255

G1X90.2795Y-83.8340

G1X90.7728Y-84.1876

G1X91.2510Y-84.4002

G1X91.6583Y-84.4205

G1X92.8449Y-83.7463

G1X93.6950Y-83.5044

G1 Z0F20000

(Start Block)


G1X11.3447Y-81.1420
G1Z5F20000
(Plotting speed under)
G1 F4000


G1X14.5324Y-81.8874

G1X16.5513Y-82.1395

G1X18.2515Y-82.1741

G1X23.4581Y-82.0460

G1X28.4523Y-82.1760

G1X29.6211Y-82.1244

G1X30.6837Y-81.9771

G1X33.8715Y-81.0574

G1X35.0403Y-80.9416

G1X35.9966Y-81.1618

G1X38.1218Y-82.3254

G1X38.9719Y-82.5320

G1X39.6803Y-82.3466

G1X40.4772Y-81.8129

G1X41.6283Y-80.8351

G1X42.0534Y-80.6068

G1X42.4784Y-80.5360

G1X42.8680Y-80.6277

G1X43.2981Y-80.9013

G1X44.7402Y-82.4944

G1X45.1703Y-82.8533

G1X45.4536Y-82.9260

G1X45.9451Y-82.6574

G1X46.4100Y-82.0422

G1X47.3966Y-81.2097

G1X48.1809Y-80.2857

G1X48.4466Y-80.1089

G1X48.7477Y-80.0470

G1X49.1423Y-80.1808

G1X49.5218Y-80.5419

G1X51.0145Y-82.8850

G1X51.4572Y-83.3742

G1X51.7229Y-83.4880

G1X51.9506Y-83.3442

G1X52.3132Y-82.9018

G1X53.3167Y-81.4441

G1X53.8481Y-80.9830

G1X54.6070Y-79.8472

G1X55.0169Y-79.5291

G1X55.3357Y-79.4662

G1X55.7961Y-79.6651

G1X56.2389Y-80.1381

G1X57.8032Y-82.7967

G1X58.3261Y-83.5268

G1X58.8953Y-84.0127

G1X59.3735Y-84.1369

G1X59.8694Y-84.0023

G1X60.3754Y-83.6313

G1X62.9559Y-80.4783

G1X63.6770Y-79.8115

G1X64.3854Y-79.3495

G1X65.2177Y-79.0216

G1X66.1740Y-78.8509

G1X69.5743Y-78.8021

G1X70.6369Y-78.8691

G1X71.3807Y-79.0081

G1X72.1245Y-79.2783

G1X72.7975Y-79.6744

G1X73.8854Y-80.6686

G1X75.8303Y-83.1034

G1X76.6177Y-83.8994

G1X76.7695Y-83.8879

G1X76.9213Y-83.7607

G1X77.8447Y-82.6680

G1X78.8188Y-82.1735

G1X79.3501Y-81.4369

G1X80.1091Y-80.7816

G1X80.9439Y-79.8068

G1X81.2981Y-79.5526

G1X81.5815Y-79.4683

G1X82.0951Y-79.5974

G1X82.6042Y-80.0617

G1X84.3973Y-82.8235

G1X84.7693Y-83.1376

G1X85.7256Y-83.0071

G1X86.7123Y-81.8623

G1X87.5851Y-81.3416

G1X88.5591Y-80.3781

G1X89.0196Y-80.1152

G1X89.4446Y-80.0442

G1X89.8697Y-80.1325

G1X90.3301Y-80.3782

G1X92.5438Y-82.3237

G1X93.1637Y-82.7015

G1X93.6950Y-82.8963

G1 Z0F20000

(Start Block)


G1X11.3447Y-79.7360
G1Z5F20000
(Plotting speed under)
G1 F4000


G1X13.7886Y-80.4754

G1X15.3825Y-80.6980

G1X16.9764Y-80.6438

G1X21.5455Y-80.0994

G1X24.6270Y-79.9875

G1X27.7085Y-80.1183

G1X31.5338Y-80.6324

G1X32.7026Y-80.7064

G1X34.0840Y-80.5341

G1X36.6342Y-79.5917

G1X37.5905Y-79.4695

G1X38.5291Y-79.7297

G1X40.2470Y-80.8164

G1X40.9908Y-81.0657

G1X41.3096Y-80.9965

G1X42.1596Y-80.5733

G1X43.5764Y-79.3290

G1X43.9660Y-79.1237

G1X44.2848Y-79.0641

G1X44.7098Y-79.1708

G1X45.0438Y-79.3958

G1X46.5871Y-81.1680

G1X46.8527Y-81.3869

G1X47.0298Y-81.4140

G1X47.4725Y-81.1308

G1X48.0924Y-80.3697

G1X48.9779Y-79.7320

G1X49.6863Y-78.8606

G1X49.9519Y-78.6610

G1X50.2353Y-78.5767

G1X50.6603Y-78.7090

G1X51.0398Y-79.0847

G1X52.5198Y-81.5025

G1X52.7191Y-81.7362

G1X52.8740Y-81.7788

G1X53.7721Y-81.0709

G1X54.4552Y-80.0282

G1X55.4419Y-79.1817

G1X56.0618Y-78.3174

G1X56.4160Y-78.0553

G1X56.7170Y-77.9965

G1X57.1117Y-78.1388

G1X57.6261Y-78.6674

G1X59.1078Y-81.1973

G1X59.6923Y-82.0312

G1X60.2236Y-82.5060

G1X60.7548Y-82.6676

G1X61.0736Y-82.6362

G1X61.3525Y-82.4717

G1X62.9559Y-80.4784

G1X65.2708Y-78.3472

G1X65.8907Y-77.9705

G1X66.4928Y-77.7175

G1X67.9804Y-77.4259

G1X69.6805Y-77.3720

G1X71.1682Y-77.4525

G1X72.2308Y-77.6617

G1X73.0631Y-77.9934

G1X73.7715Y-78.4350

G1X74.4166Y-78.9810

G1X76.9213Y-81.8509

G1X77.4905Y-82.3652

G1X77.8624Y-82.5267

G1X78.5000Y-82.3577

G1X78.8188Y-82.1735

G1X79.3501Y-81.4369

G1X79.9573Y-80.9341

G1X80.6119Y-80.2204

G1X81.9401Y-78.4861

G1X82.3607Y-78.1393

G1X82.7503Y-78.0007

G1X83.2462Y-78.0945

G1X83.7332Y-78.4676

G1X84.2498Y-79.1056

G1X85.6075Y-81.1422

G1X86.1051Y-81.7026

G1X86.3631Y-81.8424

G1X86.8944Y-81.7654

G1X87.4080Y-81.4736

G1X88.3820Y-80.5262

G1X89.3561Y-79.8102

G1X90.1530Y-79.0299

G1X90.9322Y-78.6192

G1X91.4635Y-78.5841

G1X92.1011Y-78.7725

G1X92.7209Y-79.1344

G1X93.6950Y-79.8733

G1 Z0F20000

(Start Block)


G1X11.3447Y-78.3844
G1Z5F20000
(Plotting speed under)
G1 F4000


G1X13.1511Y-79.0435

G1X14.4262Y-79.2348

G1X15.5950Y-79.1525

G1X18.5702Y-78.5450

G1X20.2704Y-78.3498

G1X29.3024Y-78.3049

G1X31.8526Y-78.4525

G1X34.9340Y-79.1324

G1X35.9966Y-79.2357

G1X37.0592Y-79.0549

G1X39.0781Y-78.1536

G1X39.9282Y-77.9953

G1X40.7428Y-78.2120

G1X42.4253Y-79.3647

G1X43.1159Y-79.6047

G1X43.3108Y-79.5536

G1X43.7535Y-79.2183

G1X44.2848Y-79.0371

G1X45.6130Y-77.7815

G1X46.1974Y-77.5970

G1X46.5871Y-77.7086

G1X46.9413Y-77.9710

G1X48.3074Y-79.6545

G1X48.6414Y-79.8497

G1X49.0664Y-79.6439

G1X49.7748Y-78.7972

G1X50.6603Y-78.3485

G1X51.4572Y-77.3184

G1X51.9354Y-77.1078

G1X52.3301Y-77.2369

G1X52.7096Y-77.6187

G1X54.0473Y-79.8159

G1X54.3793Y-80.1232

G1X54.5311Y-80.0492

G1X54.9106Y-79.5849

G1X55.4419Y-79.1817

G1X56.0618Y-78.3207

G1X56.5045Y-78.0216

G1X57.0358Y-77.8100

G1X57.7442Y-76.8246

G1X58.0984Y-76.5772

G1X58.4172Y-76.5291

G1X58.8068Y-76.6819

G1X59.2200Y-77.0764

G1X61.1681Y-80.1945

G1X61.6656Y-80.7664

G1X62.2602Y-81.1755

G1X62.4815Y-81.0746

G1X63.0318Y-80.4005

G1X64.7775Y-78.7421

G1X65.7136Y-78.0650

G1X66.9178Y-77.5317

G1X67.8742Y-76.9936

G1X68.6180Y-76.7040

G1X69.6805Y-76.4806

G1X70.8494Y-76.4349

G1X72.4433Y-76.6877

G1X73.1871Y-76.9609

G1X73.8601Y-77.3152

G1X75.0997Y-78.2572

G1X77.5791Y-80.6594

G1X78.1989Y-81.0458

G1X78.8188Y-81.1974

G1X79.4386Y-81.0609

G1X80.1091Y-80.5709

G1X80.7447Y-79.8195

G1X82.4714Y-77.3421

G1X82.9932Y-76.8240

G1X83.4942Y-76.5592

G1X84.0254Y-76.5650

G1X84.6630Y-76.9532

G1X85.2533Y-77.6125

G1X86.9400Y-79.8859

G1X87.4965Y-80.3609

G1X88.0632Y-80.5633

G1X88.4706Y-80.4870

G1X89.1790Y-79.9561

G1X91.4180Y-77.8779

G1X92.0125Y-77.4410

G1X92.8449Y-77.1299

G1X93.6950Y-77.1632

G1 Z0F20000

(Start Block)


G1X11.3447Y-77.0964
G1Z5F20000
(Plotting speed under)
G1 F4000


G1X12.6198Y-77.6144

G1X13.6824Y-77.7667

G1X14.7449Y-77.6304

G1X17.0826Y-77.0019

G1X18.3577Y-76.8440

G1X19.7391Y-76.8755

G1X23.8832Y-77.2731

G1X26.6459Y-77.3529

G1X29.5149Y-77.2629

G1X33.2339Y-76.8816

G1X34.4028Y-76.8376

G1X35.6779Y-76.9884

G1X37.8030Y-77.6282

G1X38.7594Y-77.7666

G1X39.6094Y-77.6232

G1X41.5221Y-76.6705

G1X42.2659Y-76.5264

G1X43.0097Y-76.7450

G1X44.5504Y-77.8924

G1X45.0286Y-78.0464

G1X45.3474Y-77.9796

G1X45.8787Y-77.6467

G1X46.4100Y-77.4806

G1X47.3966Y-76.4552

G1X47.7913Y-76.2005

G1X48.1101Y-76.1264

G1X48.4289Y-76.1904

G1X48.7628Y-76.4045

G1X50.0626Y-78.0170

G1X50.5717Y-78.3684

G1X50.7784Y-78.2423

G1X51.1326Y-77.6638

G1X51.4572Y-77.3184

G1X51.7229Y-77.1492

G1X52.2542Y-77.1902

G1X53.2503Y-75.8873

G1X53.5293Y-75.6983

G1X53.8481Y-75.6376

G1X54.2023Y-75.7964

G1X54.4974Y-76.0810

G1X55.7961Y-78.2374

G1X56.0618Y-78.4114

G1X56.5045Y-78.0216

G1X57.0358Y-77.8100

G1X57.5081Y-77.0888

G1X57.8327Y-76.7449

G1X58.0984Y-76.5772

G1X58.6297Y-76.5828

G1X59.6923Y-75.3401

G1X60.0465Y-75.1101

G1X60.3298Y-75.0543

G1X60.8308Y-75.2340

G1X61.3452Y-75.7370

G1X63.0792Y-78.3645

G1X63.7149Y-79.1632

G1X63.9426Y-79.3219

G1X64.2082Y-79.2376

G1X65.6250Y-78.1160

G1X68.0867Y-76.8980

G1X69.3618Y-76.5271

G1X70.7431Y-76.4313

G1X72.0182Y-76.5810

G1X73.7184Y-77.0846

G1X74.9226Y-77.7016

G1X77.5437Y-79.3989

G1X78.1812Y-79.6492

G1X78.8188Y-79.7264

G1X79.5626Y-79.5414

G1X80.3241Y-79.0185

G1X81.0768Y-78.2099

G1X82.9173Y-75.8582

G1X83.5119Y-75.3354

G1X84.0254Y-75.0929

G1X84.6630Y-75.1041

G1X85.2702Y-75.4333

G1X85.9248Y-76.0749

G1X87.8507Y-78.4201

G1X88.4883Y-78.9026

G1X89.1258Y-79.0988

G1X89.6571Y-79.0364

G1X90.3301Y-78.6991

G1X92.6324Y-76.6427

G1X93.6950Y-75.9466

G1 Z0F20000

(Start Block)


G1X11.3447Y-75.8508
G1Z5F20000
(Plotting speed under)
G1 F4000


G1X12.3010Y-76.2216

G1X13.1511Y-76.2886

G1X14.0011Y-76.1188

G1X15.9138Y-75.5002

G1X17.1889Y-75.3660

G1X18.1452Y-75.4515

G1X20.6954Y-75.8865

G1X22.1830Y-76.0115

G1X32.2776Y-76.0270

G1X33.9777Y-75.9173

G1X36.7404Y-75.4336

G1X37.6968Y-75.3660

G1X38.6531Y-75.4919

G1X40.5658Y-76.1669

G1X41.4158Y-76.2957

G1X42.1596Y-76.1413

G1X43.7535Y-75.2549

G1X44.4973Y-75.0565

G1X44.9223Y-75.1223

G1X45.3474Y-75.3292

G1X46.6756Y-76.4061

G1X47.0475Y-76.5478

G1X48.5351Y-75.9659

G1X49.5218Y-74.9236

G1X50.1290Y-74.6550

G1X50.4478Y-74.7194

G1X50.8121Y-74.9598

G1X52.0549Y-76.5775

G1X52.3427Y-76.7580

G1X52.7855Y-76.4535

G1X53.4230Y-75.7622

G1X53.8481Y-75.6376

G1X54.3793Y-75.5968

G1X55.1383Y-74.5244

G1X55.4419Y-74.2672

G1X55.7607Y-74.1680

G1X56.1503Y-74.2854

G1X56.5045Y-74.6115

G1X57.6556Y-76.3942

G1X57.9213Y-76.5312

G1X58.4172Y-76.6361

G1X58.7815Y-76.4591

G1X59.7808Y-75.2674

G1X60.2236Y-75.0608

G1X60.6486Y-75.1976

G1X60.8308Y-75.1442

G1X61.9060Y-73.9019

G1X62.2602Y-73.6665

G1X62.6675Y-73.5864

G1X63.1457Y-73.7374

G1X63.6390Y-74.1301

G1X65.6693Y-76.7362

G1X66.3714Y-77.5021

G1X66.5991Y-77.6482

G1X66.8116Y-77.6115

G1X67.9804Y-76.9444

G1X68.8305Y-76.6427

G1X69.8931Y-76.4579

G1X70.9557Y-76.4399

G1X72.0182Y-76.5810

G1X73.3996Y-76.9656

G1X75.4185Y-77.9192

G1X76.5874Y-78.1683

G1X77.5437Y-78.2580

G1X78.7125Y-78.0727

G1X79.7043Y-77.5571

G1X80.6404Y-76.7574

G1X82.9173Y-74.3291

G1X83.6004Y-73.8307

G1X84.2380Y-73.6022

G1X84.8755Y-73.6406

G1X85.6370Y-74.0348

G1X86.3328Y-74.6633

G1X88.3061Y-76.8359

G1X89.0196Y-77.3640

G1X89.6571Y-77.6023

G1X90.4010Y-77.5833

G1X91.1270Y-77.2929

G1X91.8354Y-76.8204

G1X93.6950Y-75.3303

G1 Z0F20000

(Start Block)


G1X11.3447Y-74.5922
G1Z5F20000
(Plotting speed under)
G1 F4000


G1X11.9822Y-74.7947

G1X12.7260Y-74.7947

G1X14.8512Y-74.0554

G1X15.8075Y-73.8973

G1X16.6576Y-73.9589

G1X18.7828Y-74.4272

G1X20.0579Y-74.5578

G1X25.0520Y-74.2234

G1X28.4523Y-74.1555

G1X31.7463Y-74.2267

G1X36.3154Y-74.5617

G1X37.5905Y-74.4627

G1X39.7157Y-73.9794

G1X40.5658Y-73.8955

G1X41.4158Y-74.0223

G1X43.1159Y-74.6982

G1X43.8598Y-74.8262

G1X44.6036Y-74.6573

G1X46.1974Y-73.7208

G1X46.8350Y-73.5866

G1X47.1538Y-73.6483

G1X47.5611Y-73.8487

G1X48.8893Y-74.9708

G1X49.1727Y-75.0521

G1X50.6603Y-74.4970

G1X51.6470Y-73.4406

G1X51.9354Y-73.2637

G1X52.2542Y-73.1845

G1X52.5729Y-73.2614

G1X52.9373Y-73.5163

G1X54.1801Y-75.1573

G1X54.3793Y-75.3076

G1X54.5311Y-75.2448

G1X55.4419Y-74.2672

G1X56.2920Y-74.2029

G1X56.5045Y-74.1214

G1X57.3394Y-72.9919

G1X57.6734Y-72.7574

G1X57.9921Y-72.6979

G1X58.3640Y-72.8439

G1X58.6961Y-73.1455

G1X59.7808Y-74.7551

G1X60.1350Y-75.0151

G1X60.6486Y-75.2085

G1X60.9066Y-75.0821

G1X61.7510Y-74.0503

G1X62.0831Y-73.7663

G1X62.5612Y-73.5943

G1X63.4113Y-73.7855

G1X63.9426Y-73.0491

G1X64.4739Y-72.4962

G1X64.9166Y-72.2181

G1X65.4302Y-72.1152

G1X65.9615Y-72.2377

G1X66.5991Y-72.6270

G1X68.9013Y-74.7940

G1X70.1410Y-75.6835

G1X71.4869Y-76.2410

G1X73.0808Y-76.5090

G1X74.3559Y-76.5448

G1X75.6310Y-76.4582

G1X76.6936Y-76.2658

G1X77.7562Y-75.9175

G1X79.3501Y-75.0282

G1X82.4493Y-72.6304

G1X83.1754Y-72.2700

G1X83.8129Y-72.1228

G1X84.6630Y-72.2195

G1X85.4599Y-72.6183

G1X86.3328Y-73.3323

G1X88.3820Y-75.3234

G1X89.1258Y-75.8344

G1X89.7634Y-76.0904

G1X90.5072Y-76.1559

G1X91.3573Y-75.9442

G1X92.2782Y-75.4555

G1X93.6950Y-74.4682

G1 Z0F20000

(Start Block)


G1X11.3447Y-73.2674
G1Z5F20000
(Plotting speed under)
G1 F4000


G1X11.8760Y-73.3570

G1X12.4073Y-73.2900

G1X14.2137Y-72.5650

G1X15.0637Y-72.4254

G1X15.8075Y-72.5049

G1X17.7202Y-72.9989

G1X18.7828Y-73.0916

G1X22.0768Y-72.7207

G1X23.8832Y-72.6458

G1X29.0898Y-72.7356

G1X35.1466Y-72.6549

G1X39.7157Y-73.0902

G1X40.6720Y-72.9849

G1X42.4784Y-72.5033

G1X43.2222Y-72.4258

G1X44.0723Y-72.5842

G1X45.6662Y-73.2683

G1X46.3037Y-73.3545

G1X47.0298Y-73.1467

G1X48.4466Y-72.2563

G1X49.0664Y-72.1158

G1X49.6863Y-72.3191

G1X51.0145Y-73.4575

G1X51.2978Y-73.5535

G1X52.2542Y-73.1845

G1X52.7855Y-73.0731

G1X53.7721Y-72.0034

G1X54.3793Y-71.7162

G1X54.8044Y-71.8216

G1X55.1383Y-72.0751

G1X56.3053Y-73.6070

G1X56.5045Y-73.7683

G1X56.7322Y-73.6628

G1X57.4153Y-72.9323

G1X57.6734Y-72.7607

G1X58.0984Y-72.7146

G1X58.5234Y-72.8888

G1X58.6297Y-72.8627

G1X59.6258Y-71.5352

G1X60.0111Y-71.2808

G1X60.3298Y-71.2269

G1X60.7548Y-71.3881

G1X61.1343Y-71.7356

G1X62.3487Y-73.4660

G1X63.3051Y-73.8101

G1X63.5294Y-73.6789

G1X64.2462Y-72.7067

G1X64.8281Y-72.2600

G1X65.3240Y-72.1177

G1X66.0678Y-72.2855

G1X66.3865Y-72.2150

G1X67.8388Y-70.9774

G1X68.4055Y-70.7309

G1X69.0430Y-70.6446

G1X70.2119Y-70.8753

G1X72.3370Y-71.7635

G1X73.3996Y-72.1268

G1X74.4622Y-72.3466

G1X75.4185Y-72.4086

G1X76.4811Y-72.3285

G1X77.5437Y-72.1052

G1X81.4753Y-70.7666

G1X82.3253Y-70.6481

G1X83.1754Y-70.7056

G1X84.0254Y-70.9690

G1X84.9287Y-71.4727

G1X87.4965Y-73.5660

G1X88.2935Y-74.1261

G1X89.1258Y-74.5245

G1X89.8697Y-74.6833

G1X90.6135Y-74.6492

G1X91.4635Y-74.3986

G1X92.3667Y-73.9500

G1X93.6950Y-73.1316

G1 Z0F20000

(Start Block)


G1X11.3447Y-71.8646
G1Z5F20000
(Plotting speed under)
G1 F4000


G1X12.0885Y-71.8144

G1X13.6824Y-71.1097

G1X14.4262Y-70.9578

G1X15.0637Y-71.0140

G1X16.6576Y-71.4853

G1X17.6139Y-71.6201

G1X21.4392Y-71.1781

G1X26.1146Y-71.4041

G1X30.0462Y-71.4430

G1X33.9777Y-71.4013

G1X38.4406Y-71.1759

G1X39.6094Y-71.2405

G1X42.3721Y-71.6213

G1X43.2222Y-71.5439

G1X44.9223Y-71.0526

G1X45.6662Y-70.9562

G1X46.4100Y-71.0887

G1X47.8976Y-71.7681

G1X48.5351Y-71.8872

G1X49.1550Y-71.7464

G1X50.5717Y-70.8410

G1X51.1916Y-70.6463

G1X51.5104Y-70.6821

G1X51.9000Y-70.8520

G1X53.1397Y-71.9280

G1X53.4230Y-72.0505

G1X54.3793Y-71.7162

G1X54.9106Y-71.6889

G1X55.8973Y-70.6162

G1X56.3274Y-70.3215

G1X56.6108Y-70.2482

G1X56.9296Y-70.2974

G1X57.3015Y-70.5265

G1X57.6999Y-70.9327

G1X58.4969Y-71.9955

G1X58.8422Y-72.1774

G1X59.2274Y-72.0286

G1X59.6258Y-71.5403

G1X60.0111Y-71.2808

G1X60.3298Y-71.2406

G1X60.7548Y-71.3881

G1X61.0205Y-71.2755

G1X62.1969Y-70.0051

G1X62.5612Y-69.8034

G1X62.8800Y-69.7556

G1X63.3051Y-69.8887

G1X63.7149Y-70.1994

G1X65.0937Y-71.8765

G1X65.7490Y-72.2154

G1X66.0678Y-72.2855

G1X66.5991Y-72.0943

G1X67.5731Y-71.1518

G1X68.4055Y-70.7309

G1X69.2555Y-70.6541

G1X70.3181Y-70.8911

G1X71.5578Y-70.0357

G1X72.7620Y-69.5376

G1X74.1434Y-69.2788

G1X76.2686Y-69.1891

G1X79.5626Y-69.2832

G1X80.7314Y-69.4565

G1X81.6878Y-69.7101

G1X83.4233Y-70.4818

G1X86.8944Y-72.6292

G1X87.7445Y-72.9932

G1X88.5946Y-73.1923

G1X89.5509Y-73.1943

G1X90.6135Y-72.9327

G1X91.7469Y-72.4199

G1X93.6950Y-71.3211

G1 Z0F20000

(Start Block)


G1X11.3447Y-70.4124
G1Z5F20000
(Plotting speed under)
G1 F4000


G1X11.9822Y-70.3231

G1X13.3636Y-69.6523

G1X14.1074Y-69.4868

G1X14.6387Y-69.5352

G1X16.1263Y-70.0140

G1X16.9764Y-70.1494

G1X17.7202Y-70.1016

G1X19.5266Y-69.7653

G1X20.3767Y-69.7064

G1X24.6270Y-69.9726

G1X30.8962Y-69.9088

G1X36.5279Y-69.9764

G1X38.2281Y-69.9348

G1X41.4158Y-69.7060

G1X42.4784Y-69.7735

G1X44.9223Y-70.1515

G1X45.7724Y-70.0563

G1X47.3663Y-69.5608

G1X48.0038Y-69.4859

G1X48.6414Y-69.5972

G1X50.1290Y-70.2916

G1X50.7666Y-70.4162

G1X51.4041Y-70.2614

G1X52.7855Y-69.3670

G1X53.4230Y-69.1768

G1X54.0251Y-69.3382

G1X55.3534Y-70.4509

G1X55.7607Y-70.5761

G1X56.0618Y-70.5193

G1X56.5045Y-70.2615

G1X57.0358Y-70.3346

G1X58.2755Y-69.0673

G1X58.6297Y-68.8465

G1X58.9485Y-68.7774

G1X59.3381Y-68.8637

G1X59.7682Y-69.1652

G1X61.0584Y-70.7176

G1X61.2861Y-70.8779

G1X61.4380Y-70.8093

G1X62.3487Y-69.9013

G1X62.8800Y-69.7556

G1X63.3051Y-69.9440

G1X63.4998Y-69.9244

G1X63.9426Y-69.5706

G1X64.9166Y-68.5602

G1X65.3240Y-68.3470

G1X65.7490Y-68.2871

G1X66.1563Y-68.3829

G1X66.6750Y-68.6947

G1X68.4586Y-70.4810

G1X68.8305Y-70.6893

G1X69.3618Y-70.6651

G1X70.3181Y-70.8911

G1X71.1150Y-70.3013

G1X71.9120Y-69.8564

G1X72.7620Y-69.5376

G1X73.7184Y-69.3321

G1X75.7373Y-69.1956

G1X78.9250Y-69.2345

G1X80.3064Y-69.3783

G1X81.5815Y-69.6762

G1X83.1577Y-70.3379

G1X85.1943Y-71.5575

G1X86.8944Y-71.7528

G1X88.0632Y-71.6259

G1X89.2321Y-71.2782

G1X93.6950Y-69.1158

G1 Z0F20000

(Start Block)


G1X11.3447Y-68.9405
G1Z5F20000
(Plotting speed under)
G1 F4000


G1X11.9822Y-68.8492

G1X13.3636Y-68.1490

G1X14.0011Y-68.0161

G1X14.6387Y-68.1045

G1X16.0201Y-68.5857

G1X16.7639Y-68.6821

G1X17.4014Y-68.6217

G1X18.9953Y-68.2924

G1X19.8453Y-68.2362

G1X23.5644Y-68.5065

G1X31.5338Y-68.3679

G1X40.3532Y-68.5042

G1X44.1785Y-68.2373

G1X47.3663Y-68.6807

G1X48.1101Y-68.5746

G1X49.4915Y-68.1171

G1X50.1290Y-68.0160

G1X50.7666Y-68.1060

G1X52.2542Y-68.8037

G1X52.9980Y-68.9432

G1X53.6355Y-68.7583

G1X55.1232Y-67.8193

G1X55.6544Y-67.7078

G1X55.9732Y-67.7626

G1X56.3274Y-67.9360

G1X57.4912Y-68.9064

G1X57.8327Y-69.1405

G1X58.0984Y-69.2168

G1X58.6297Y-68.8465

G1X59.1610Y-68.7990

G1X59.4266Y-68.6821

G1X60.6663Y-67.5604

G1X61.0736Y-67.3511

G1X61.3924Y-67.3064

G1X61.8174Y-67.4231

G1X62.1716Y-67.6634

G1X63.7149Y-69.3335

G1X63.9426Y-69.4635

G1X65.1115Y-68.4404

G1X65.6427Y-68.2892

G1X66.5991Y-68.4083

G1X67.3581Y-67.6193

G1X67.9273Y-67.1627

G1X68.5117Y-66.8848

G1X69.0430Y-66.8160

G1X69.5743Y-66.9103

G1X70.2119Y-67.1972

G1X72.7089Y-68.9584

G1X73.5059Y-69.3665

G1X75.7373Y-69.1956

G1X79.3501Y-69.2641

G1X81.0502Y-69.5285

G1X83.1754Y-70.1974

G1X84.7693Y-69.9702

G1X86.2569Y-69.5944

G1X87.6382Y-69.0926

G1X91.3573Y-67.5118

G1X92.5261Y-67.1504

G1X93.6950Y-66.9198

G1 Z0F20000

(Start Block)


G1X11.3447Y-67.4345
G1Z5F20000
(Plotting speed under)
G1 F4000


G1X11.9822Y-67.4321

G1X13.4698Y-66.6796

G1X14.1074Y-66.5459

G1X14.6387Y-66.6200

G1X16.0201Y-67.1203

G1X16.6576Y-67.2117

G1X17.2952Y-67.1543

G1X18.7828Y-66.8232

G1X19.5266Y-66.7663

G1X22.7143Y-67.0357

G1X26.9647Y-66.9001

G1X37.5905Y-66.8967

G1X42.6909Y-67.0365

G1X46.4100Y-66.7664

G1X47.1538Y-66.8224

G1X48.8539Y-67.1652

G1X49.4915Y-67.2114

G1X50.2353Y-67.1063

G1X51.6166Y-66.6418

G1X52.2542Y-66.5457

G1X52.8917Y-66.6452

G1X54.3793Y-67.3449

G1X55.0169Y-67.4765

G1X55.6544Y-67.3334

G1X57.0358Y-66.4602

G1X57.4608Y-66.2796

G1X57.7796Y-66.2373

G1X58.0984Y-66.2795

G1X58.5234Y-66.4742

G1X59.9579Y-67.6163

G1X60.2236Y-67.7366

G1X61.1799Y-67.3371

G1X61.8174Y-67.2500

G1X63.0571Y-66.1210

G1X63.4113Y-65.9242

G1X63.8363Y-65.8357

G1X64.2614Y-65.9157

G1X64.6510Y-66.1222

G1X66.4220Y-67.7876

G1X66.8116Y-67.9311

G1X67.2062Y-67.7926

G1X67.7502Y-67.2870

G1X68.2992Y-66.9613

G1X69.0430Y-66.8160

G1X69.7868Y-66.9871

G1X71.4869Y-65.7737

G1X72.1245Y-65.5017

G1X72.8683Y-65.3562

G1X73.6121Y-65.3706

G1X74.3559Y-65.5048

G1X77.1186Y-66.3542

G1X78.3938Y-66.6690

G1X79.5626Y-66.8503

G1X80.8377Y-66.9267

G1X82.2191Y-66.8761

G1X83.7067Y-66.6866

G1X88.1695Y-65.6953

G1X89.8697Y-65.4212

G1X91.6761Y-65.3511

G1X93.6950Y-65.5570

G1 Z0F20000

(Start Block)


G1X11.3447Y-65.8057
G1Z5F20000
(Plotting speed under)
G1 F4000


G1X11.8760Y-66.0000

G1X12.3010Y-65.9650

G1X13.7886Y-65.2034

G1X14.4262Y-65.0773

G1X15.0637Y-65.2020

G1X16.2326Y-65.6478

G1X16.8701Y-65.7413

G1X17.4014Y-65.6948

G1X18.7828Y-65.3701

G1X19.5266Y-65.2969

G1X22.6081Y-65.5665

G1X26.7521Y-65.4268

G1X41.0970Y-65.4282

G1X45.0286Y-65.5666

G1X48.4289Y-65.2962

G1X49.1727Y-65.3490

G1X51.4041Y-65.7414

G1X52.1479Y-65.6541

G1X53.6355Y-65.1641

G1X54.2731Y-65.0759

G1X54.9106Y-65.1827

G1X56.3982Y-65.8754

G1X57.0358Y-66.0075

G1X57.6734Y-65.8791

G1X59.1610Y-64.9778

G1X59.9048Y-64.7671

G1X60.2236Y-64.8035

G1X60.6486Y-64.9781

G1X62.1716Y-66.1099

G1X62.7738Y-66.2691

G1X63.4113Y-65.9242

G1X64.2082Y-65.7252

G1X65.6427Y-64.6173

G1X66.0678Y-64.4263

G1X66.4928Y-64.3657

G1X66.9178Y-64.4375

G1X67.3960Y-64.6590

G1X69.5212Y-66.3381

G1X70.2119Y-66.6125

G1X70.4066Y-66.5562

G1X71.2921Y-65.8837

G1X72.0182Y-65.5373

G1X72.9746Y-65.3490

G1X74.0372Y-65.4358

G1X75.6310Y-64.6489

G1X76.9061Y-64.2312

G1X78.7125Y-63.9567

G1X81.2627Y-63.8789

G1X85.3005Y-63.9070

G1X87.8507Y-64.0885

G1X90.2947Y-64.5156

G1X93.6950Y-65.4057

G1 Z0F20000

(Start Block)


G1X11.3447Y-63.9369
G1Z5F20000
(Plotting speed under)
G1 F4000


G1X11.9822Y-64.3903

G1X12.5135Y-64.5369

G1X13.0448Y-64.4197

G1X14.3199Y-63.7184

G1X14.8512Y-63.6084

G1X15.3825Y-63.6855

G1X16.6576Y-64.1741

G1X17.2952Y-64.2721

G1X17.8264Y-64.2236

G1X19.2078Y-63.8909

G1X19.9516Y-63.8262

G1X22.9268Y-64.0965

G1X26.5396Y-63.9569

G1X34.2965Y-64.0108

G1X43.3285Y-63.9582

G1X47.1538Y-64.0954

G1X50.3415Y-63.8271

G1X53.3167Y-64.2719

G1X54.0606Y-64.1681

G1X55.5482Y-63.6835

G1X56.1857Y-63.6075

G1X56.9296Y-63.7568

G1X58.4172Y-64.4327

G1X59.0547Y-64.5369

G1X59.7808Y-64.3590

G1X61.3924Y-63.4321

G1X62.0300Y-63.2968

G1X62.4550Y-63.3621

G1X62.8800Y-63.5481

G1X64.2968Y-64.5443

G1X65.0052Y-64.8564

G1X66.0678Y-64.4263

G1X66.5991Y-64.3708

G1X68.1929Y-63.2108

G1X68.7242Y-62.9788

G1X69.2555Y-62.8952

G1X69.7868Y-62.9629

G1X70.3181Y-63.1626

G1X72.7975Y-64.7369

G1X74.0372Y-65.2264

G1X74.5684Y-65.1645

G1X75.5248Y-64.6938

G1X76.3748Y-64.3787

G1X77.7562Y-64.0645

G1X79.5626Y-63.9084

G1X82.6441Y-63.8769

G1X85.7256Y-63.9224

G1X87.9570Y-64.1015

G1X90.0822Y-64.4684

G1X92.6324Y-65.1153

G1X93.6950Y-65.2451

G1 Z0F20000

(Start Block)


G1X11.3447Y-61.9446
G1Z5F20000
(Plotting speed under)
G1 F4000


G1X12.5844Y-62.8618

G1X13.1511Y-63.0620

G1X13.6824Y-62.9717

G1X15.0637Y-62.2251

G1X15.5950Y-62.1362

G1X16.1263Y-62.2352

G1X17.2952Y-62.6954

G1X17.9327Y-62.8010

G1X20.4829Y-62.3570

G1X23.3519Y-62.6263

G1X26.7521Y-62.4876

G1X38.7594Y-62.5411

G1X44.8161Y-62.4870

G1X48.6414Y-62.6267

G1X51.9354Y-62.3568

G1X52.7855Y-62.4272

G1X54.2731Y-62.7411

G1X54.9106Y-62.8022

G1X55.6544Y-62.7221

G1X57.2483Y-62.2219

G1X57.8859Y-62.1366

G1X58.6297Y-62.2579

G1X60.1173Y-62.9134

G1X60.8611Y-63.0669

G1X61.7112Y-62.8815

G1X63.4113Y-61.9613

G1X64.1551Y-61.8278

G1X64.8989Y-62.0211

G1X66.5991Y-63.0892

G1X67.5554Y-63.4249

G1X67.8742Y-63.3607

G1X68.7242Y-62.9788

G1X69.2555Y-62.8598

G1X70.5838Y-61.9811

G1X71.2744Y-61.6368

G1X71.9120Y-61.4605

G1X72.4433Y-61.4265

G1X73.0808Y-61.5110

G1X73.7184Y-61.7062

G1X76.1623Y-62.8385

G1X77.3312Y-63.2888

G1X78.5000Y-63.5913

G1X79.7751Y-63.7717

G1X82.1128Y-63.8657

G1X88.5946Y-63.8419

G1X91.1447Y-63.6927

G1X93.6950Y-63.3713

G1 Z0F20000

(Start Block)


G1X11.3447Y-60.4736
G1Z5F20000
(Plotting speed under)
G1 F4000


G1X11.7697Y-60.3579

G1X12.0885Y-60.4176

G1X12.4958Y-60.6435

G1X13.4698Y-61.4017

G1X14.1074Y-61.5973

G1X14.6210Y-61.4779

G1X15.9138Y-60.7660

G1X16.4451Y-60.6683

G1X16.9764Y-60.7588

G1X18.2515Y-61.2502

G1X18.7828Y-61.3314

G1X19.4203Y-61.2701

G1X20.8017Y-60.9357

G1X21.4392Y-60.8865

G1X24.2020Y-61.1565

G1X27.6022Y-61.0176

G1X40.4595Y-61.0711

G1X46.1974Y-61.0171

G1X50.0227Y-61.1570

G1X53.3167Y-60.8865

G1X54.1668Y-60.9483

G1X56.3982Y-61.3322

G1X57.1421Y-61.2602

G1X58.7359Y-60.7758

G1X59.4797Y-60.6667

G1X60.2236Y-60.7732

G1X61.8174Y-61.4348

G1X62.6675Y-61.5972

G1X63.5176Y-61.4201

G1X65.4302Y-60.4691

G1X66.1740Y-60.3571

G1X66.5991Y-60.4177

G1X67.1304Y-60.6103

G1X69.1493Y-61.7357

G1X69.6805Y-61.9015

G1X70.2119Y-61.9547

G1X70.7431Y-61.8654

G1X71.9120Y-61.4288

G1X74.1434Y-60.2928

G1X74.8872Y-60.0719

G1X75.6310Y-59.9670

G1X76.3748Y-59.9674

G1X77.3312Y-60.0859

G1X81.9003Y-61.0548

G1X84.6630Y-61.2874

G1X86.3631Y-61.2703

G1X88.2758Y-61.1323

G1X93.6950Y-60.3851

G1 Z0F20000

(Start Block)


G1X11.3447Y-59.9426
G1Z5F20000
(Plotting speed under)
G1 F4000


G1X12.2302Y-59.0952

G1X12.5135Y-58.9443

G1X12.8323Y-58.8883

G1X13.4698Y-59.1313

G1X14.5324Y-59.9423

G1X15.1700Y-60.1273

G1X15.6836Y-60.0035

G1X16.9764Y-59.2959

G1X17.5077Y-59.1983

G1X18.0390Y-59.2863

G1X19.3141Y-59.7749

G1X19.9516Y-59.8625

G1X20.4829Y-59.8064

G1X21.8643Y-59.4732

G1X22.5018Y-59.4167

G1X25.4771Y-59.6868

G1X28.9836Y-59.5471

G1X34.6153Y-59.6012

G1X47.4725Y-59.5482

G1X51.1916Y-59.6868

G1X54.5919Y-59.4173

G1X57.7796Y-59.8618

G1X58.5234Y-59.7775

G1X60.1173Y-59.3081

G1X60.9674Y-59.1969

G1X61.8174Y-59.3376

G1X63.6238Y-60.0338

G1X64.3676Y-60.1266

G1X65.2177Y-59.9505

G1X67.1304Y-59.0575

G1X68.0867Y-58.8862

G1X68.6180Y-58.9510

G1X69.1493Y-59.1192

G1X71.5932Y-60.2879

G1X72.7620Y-60.4831

G1X73.3996Y-60.4269

G1X74.1434Y-60.2443

G1X77.7562Y-58.9127

G1X79.7751Y-58.5604

G1X81.4753Y-58.4866

G1X90.4010Y-58.4859

G1X93.6950Y-58.6065

G1 Z0F20000

(Start Block)


G1X11.3447Y-58.9714
G1Z5F20000
(Plotting speed under)
G1 F4000


G1X11.6634Y-59.0044

G1X11.9645Y-58.9125

G1X13.3813Y-57.6430

G1X14.0011Y-57.4158

G1X14.6210Y-57.6314

G1X15.8075Y-58.5067

G1X16.3388Y-58.6552

G1X16.8701Y-58.5460

G1X18.1452Y-57.8509

G1X18.7828Y-57.7265

G1X19.4203Y-57.8544

G1X20.5892Y-58.3026

G1X21.2267Y-58.3915

G1X23.7769Y-57.9484

G1X26.7521Y-58.2165

G1X30.2587Y-58.0785

G1X40.3532Y-58.1313

G1X47.6851Y-58.0773

G1X51.8292Y-58.2170

G1X55.4419Y-57.9467

G1X56.2920Y-58.0065

G1X57.9921Y-58.3254

G1X58.7359Y-58.3921

G1X59.5860Y-58.3126

G1X61.2861Y-57.8409

G1X62.1362Y-57.7267

G1X63.0925Y-57.8645

G1X65.0052Y-58.5549

G1X65.8553Y-58.6564

G1X66.8116Y-58.4691

G1X68.9367Y-57.5748

G1X69.8931Y-57.4162

G1X70.5306Y-57.4712

G1X71.1682Y-57.6403

G1X74.0372Y-58.7931

G1X75.4185Y-59.0099

G1X77.1186Y-58.8630

G1X81.6878Y-57.8990

G1X84.6630Y-57.6281

G1X86.6819Y-57.6175

G1X88.8071Y-57.7276

G1X93.6950Y-58.3306

G1 Z0F20000

(Start Block)


G1X11.3447Y-56.2562
G1Z5F20000
(Plotting speed under)
G1 F4000


G1X12.2555Y-57.2789

G1X12.8323Y-57.5405

G1X13.3636Y-57.3763

G1X14.6210Y-56.2328

G1X14.9752Y-56.0168

G1X15.2762Y-55.9502

G1X15.7721Y-56.0615

G1X17.1003Y-57.0093

G1X17.7202Y-57.1882

G1X18.3400Y-57.0360

G1X19.6328Y-56.3502

G1X20.1641Y-56.2582

G1X20.6954Y-56.3391

G1X21.9705Y-56.8132

G1X22.6081Y-56.9207

G1X23.1394Y-56.8888

G1X24.6270Y-56.5503

G1X25.3708Y-56.4776

G1X28.4523Y-56.7467

G1X32.2776Y-56.6083

G1X47.6851Y-56.6074

G1X52.1479Y-56.7473

G1X55.9732Y-56.4767

G1X56.8233Y-56.5275

G1X58.7359Y-56.8600

G1X59.5860Y-56.9225

G1X60.5423Y-56.8135

G1X62.3487Y-56.3408

G1X63.1988Y-56.2570

G1X64.0489Y-56.3694

G1X66.0678Y-57.0460

G1X67.0241Y-57.1879

G1X68.1929Y-57.0046

G1X70.6369Y-56.0970

G1X71.8057Y-55.9462

G1X73.1871Y-56.1566

G1X76.4811Y-57.2170

G1X78.2875Y-57.5026

G1X79.9876Y-57.5366

G1X85.8318Y-57.3173

G1X93.6950Y-57.5409

G1 Z0F20000

(Start Block)


G1X11.3447Y-54.1556
G1Z5F20000
(Plotting speed under)
G1 F4000


G1X11.7697Y-54.0856

G1X12.1416Y-54.2423

G1X12.5401Y-54.5894

G1X13.5584Y-55.7363

G1X13.9126Y-55.9878

G1X14.2137Y-56.0683

G1X14.7095Y-55.9433

G1X16.0504Y-54.7539

G1X16.4451Y-54.5350

G1X16.7639Y-54.4768

G1X17.3660Y-54.6695

G1X18.6057Y-55.5531

G1X19.2078Y-55.7167

G1X19.7391Y-55.6071

G1X20.9079Y-54.9857

G1X21.6517Y-54.7893

G1X22.1830Y-54.8459

G1X23.5644Y-55.3379

G1X24.3082Y-55.4520

G1X24.9458Y-55.3931

G1X26.4334Y-55.0671

G1X27.1772Y-55.0073

G1X30.4712Y-55.2771

G1X34.6153Y-55.1403

G1X46.6225Y-55.1375

G1X52.0417Y-55.2773

G1X56.0795Y-55.0070

G1X57.1421Y-55.0699

G1X59.0547Y-55.3864

G1X59.9048Y-55.4524

G1X60.8611Y-55.3745

G1X62.8800Y-54.8893

G1X63.8363Y-54.7864

G1X65.0052Y-54.9445

G1X67.1304Y-55.5993

G1X68.1929Y-55.7179

G1X69.3618Y-55.5467

G1X72.2308Y-54.6273

G1X73.6121Y-54.4759

G1X75.2060Y-54.6478

G1X79.5626Y-55.6078

G1X82.7503Y-55.9119

G1X85.6193Y-55.9621

G1X88.5946Y-55.8853

G1X91.0385Y-55.7035

G1X93.6950Y-55.3700

G1 Z0F20000

(Start Block)


G1X11.3447Y-54.1556
G1Z5F20000
(Plotting speed under)
G1 F4000


G1X12.4073Y-52.9326

G1X12.7615Y-52.6847

G1X13.0448Y-52.6085

G1X13.3636Y-52.6642

G1X13.6470Y-52.8255

G1X14.9878Y-54.2517

G1X15.3294Y-54.4928

G1X15.7013Y-54.6019

G1X16.2149Y-54.4590

G1X17.6316Y-53.2317

G1X18.2515Y-53.0065

G1X18.8713Y-53.1795

G1X20.1995Y-54.0940

G1X20.8017Y-54.2469

G1X21.4392Y-54.1013

G1X22.7143Y-53.4503

G1X23.3519Y-53.3185

G1X23.9894Y-53.4068

G1X25.4771Y-53.9077

G1X26.1146Y-53.9823

G1X26.8584Y-53.9086

G1X28.3460Y-53.5978

G1X29.0898Y-53.5379

G1X32.7026Y-53.8057

G1X37.3780Y-53.6825

G1X42.4784Y-53.6676

G1X51.0853Y-53.8075

G1X55.7607Y-53.5370

G1X56.8233Y-53.5946

G1X58.9485Y-53.9142

G1X59.9048Y-53.9827

G1X60.8611Y-53.9152

G1X63.1988Y-53.4077

G1X64.2614Y-53.3172

G1X65.4302Y-53.4672

G1X67.8742Y-54.1394

G1X68.9367Y-54.2482

G1X70.3181Y-54.0854

G1X73.5059Y-53.2113

G1X75.0997Y-53.0155

G1X76.9061Y-53.0721

G1X81.7940Y-53.6214

G1X84.4505Y-53.7281

G1X87.7445Y-53.6112

G1X93.6950Y-53.0776

G1 Z0F20000

(Start Block)


G1X11.3447Y-53.5283
G1Z5F20000
(Plotting speed under)
G1 F4000


G1X11.6634Y-53.5911

G1X11.9424Y-53.4837

G1X12.4073Y-52.9326

G1X12.9386Y-52.5330

G1X13.8493Y-51.4458

G1X14.2137Y-51.2074

G1X14.5324Y-51.1359

G1X15.1396Y-51.3847

G1X16.5058Y-52.8101

G1X16.8701Y-53.0464

G1X17.1889Y-53.1325

G1X17.8087Y-52.9415

G1X19.1370Y-51.7963

G1X19.5266Y-51.5949

G1X19.8453Y-51.5362

G1X20.4652Y-51.7106

G1X21.8820Y-52.6459

G1X22.5018Y-52.7781

G1X23.1394Y-52.6267

G1X24.5207Y-51.9560

G1X25.1583Y-51.8466

G1X25.7958Y-51.9337

G1X27.2835Y-52.4161

G1X28.1335Y-52.5122

G1X30.4712Y-52.1353

G1X31.5338Y-52.0672

G1X34.6153Y-52.2966

G1X36.2091Y-52.3375

G1X42.3721Y-52.2629

G1X49.5977Y-52.3331

G1X54.9106Y-52.0688

G1X56.1857Y-52.1519

G1X58.5234Y-52.4683

G1X59.5860Y-52.5107

G1X60.7548Y-52.3949

G1X63.1988Y-51.9091

G1X64.2614Y-51.8490

G1X65.5365Y-52.0093

G1X68.1929Y-52.6643

G1X69.4680Y-52.7784

G1X71.0619Y-52.6137

G1X74.8872Y-51.7648

G1X76.9061Y-51.5617

G1X83.8129Y-51.6377

G1X90.1884Y-51.5382

G1X93.6950Y-51.7313

G1 Z0F20000

(Start Block)


G1X11.3447Y-50.7246
G1Z5F20000
(Plotting speed under)
G1 F4000


G1X12.2555Y-51.8040

G1X12.6198Y-52.0402

G1X12.9386Y-52.1092

G1X13.2042Y-52.0227

G1X13.6217Y-51.7181

G1X15.3294Y-49.9088

G1X15.5950Y-49.7439

G1X15.9138Y-49.6691

G1X16.2149Y-49.7155

G1X16.5691Y-49.9185

G1X17.9858Y-51.3431

G1X18.3577Y-51.5791

G1X18.6765Y-51.6608

G1X18.9953Y-51.6221

G1X19.3141Y-51.4763

G1X20.7308Y-50.3069

G1X21.1205Y-50.1199

G1X21.4392Y-50.0663

G1X22.0591Y-50.2285

G1X23.4759Y-51.1351

G1X24.2020Y-51.3083

G1X24.8395Y-51.1766

G1X26.3271Y-50.5004

G1X27.0709Y-50.3776

G1X27.8147Y-50.4812

G1X29.4086Y-50.9500

G1X30.2587Y-51.0426

G1X31.1087Y-50.9822

G1X33.1277Y-50.6628

G1X34.4028Y-50.5971

G1X38.9719Y-50.8167

G1X42.9034Y-50.8596

G1X47.0475Y-50.8211

G1X52.9980Y-50.6010

G1X54.4856Y-50.6880

G1X57.1421Y-50.9975

G1X58.3109Y-51.0417

G1X59.6923Y-50.9236

G1X62.3487Y-50.4493

G1X63.6238Y-50.3790

G1X65.0052Y-50.5294

G1X68.0867Y-51.1955

G1X69.5743Y-51.3085

G1X71.1682Y-51.1868

G1X74.8872Y-50.5216

G1X77.0124Y-50.2608

G1X79.6688Y-50.1235

G1X83.6004Y-50.1002

G1X88.5946Y-50.2973

G1X93.6950Y-50.9379

G1 Z0F20000

(Start Block)


G1X11.3447Y-47.9623
G1Z5F20000
(Plotting speed under)
G1 F4000


G1X11.9424Y-48.5368

G1X13.3180Y-50.2149

G1X13.7355Y-50.5220

G1X14.1074Y-50.6363

G1X14.4262Y-50.5992

G1X14.7095Y-50.4526

G1X15.2914Y-49.9169

G1X16.5058Y-48.5472

G1X16.8701Y-48.3001

G1X17.2952Y-48.1970

G1X17.6139Y-48.2665

G1X17.9858Y-48.4865

G1X19.4912Y-49.9333

G1X19.8453Y-50.1301

G1X20.1641Y-50.1913

G1X20.4829Y-50.1489

G1X20.9079Y-49.9385

G1X22.4133Y-48.7654

G1X23.0331Y-48.5964

G1X23.6529Y-48.7388

G1X25.0697Y-49.5965

G1X25.9021Y-49.8358

G1X26.5396Y-49.7541

G1X28.2398Y-49.0599

G1X29.0898Y-48.9084

G1X29.9399Y-48.9924

G1X31.9588Y-49.4889

G1X33.0214Y-49.5730

G1X36.8467Y-49.1972

G1X39.1844Y-49.1272

G1X49.5977Y-49.1454

G1X54.6981Y-49.5320

G1X56.1857Y-49.5694

G1X57.6734Y-49.4553

G1X60.7548Y-48.9787

G1X62.2425Y-48.9099

G1X63.8363Y-49.0684

G1X67.2366Y-49.7142

G1X69.0430Y-49.8386

G1X70.9557Y-49.7207

G1X76.4811Y-49.0278

G1X80.7314Y-48.8647

G1X85.0880Y-49.0265

G1X91.3573Y-49.6988

G1X93.6950Y-49.8354

G1 Z0F20000

(Start Block)


G1X11.3447Y-46.2467
G1Z5F20000
(Plotting speed under)
G1 F4000


G1X11.8760Y-46.3036

G1X12.4073Y-46.6181

G1X14.3047Y-48.7247

G1X14.7449Y-49.0412

G1X15.1700Y-49.1669

G1X15.5950Y-49.0937

G1X15.9492Y-48.8853

G1X17.6443Y-47.1136

G1X18.0744Y-46.8274

G1X18.4640Y-46.7288

G1X18.7828Y-46.7685

G1X19.1370Y-46.9387

G1X20.7308Y-48.3815

G1X21.1205Y-48.6157

G1X21.5455Y-48.7224

G1X22.1476Y-48.5871

G1X23.8301Y-47.3808

G1X24.2020Y-47.2084

G1X24.6270Y-47.1273

G1X25.3708Y-47.2827

G1X27.1772Y-48.2339

G1X27.9210Y-48.3687

G1X28.7711Y-48.2306

G1X30.6837Y-47.5603

G1X31.6400Y-47.4372

G1X32.5964Y-47.5127

G1X35.1466Y-47.9897

G1X36.7404Y-48.1015

G1X43.8598Y-47.8874

G1X52.4667Y-48.0911

G1X54.3793Y-47.9590

G1X57.8859Y-47.5123

G1X59.3735Y-47.4369

G1X61.0736Y-47.5398

G1X65.1115Y-48.2003

G1X67.1304Y-48.3636

G1X69.3618Y-48.2931

G1X75.0997Y-47.7453

G1X78.1812Y-47.6326

G1X82.1128Y-47.7442

G1X89.5509Y-48.3527

G1X91.5698Y-48.3454

G1X93.6950Y-48.1704

G1 Z0F20000

(Start Block)


G1X11.3447Y-44.9261
G1Z5F20000
(Plotting speed under)
G1 F4000


G1X12.0885Y-44.7699

G1X12.7615Y-44.9941

G1X13.4698Y-45.5679

G1X15.0637Y-47.2628

G1X15.5065Y-47.5619

G1X16.0201Y-47.6986

G1X16.4451Y-47.6238

G1X16.8347Y-47.4157

G1X18.6310Y-45.6684

G1X19.1016Y-45.3682

G1X19.5266Y-45.2594

G1X19.8453Y-45.2867

G1X20.2704Y-45.4652

G1X21.9705Y-46.8835

G1X22.5018Y-47.1727

G1X22.9268Y-47.2531

G1X23.6529Y-47.0793

G1X25.3708Y-45.9498

G1X25.9021Y-45.7274

G1X26.3271Y-45.6582

G1X26.7521Y-45.6887

G1X27.2835Y-45.8448

G1X29.3024Y-46.7590

G1X30.2587Y-46.8984

G1X31.2150Y-46.7754

G1X33.6590Y-46.1139

G1X35.1466Y-45.9677

G1X40.5658Y-46.4019

G1X44.0723Y-46.4981

G1X47.4725Y-46.4250

G1X53.3167Y-46.0101

G1X55.5482Y-45.9792

G1X57.5671Y-46.1395

G1X62.0300Y-46.7697

G1X64.3676Y-46.8985

G1X66.5991Y-46.8199

G1X72.4433Y-46.3399

G1X75.8435Y-46.2399

G1X79.0313Y-46.3262

G1X85.4068Y-46.8303

G1X87.9570Y-46.8935

G1X90.2947Y-46.7395

G1X93.6950Y-46.2728

G1 Z0F20000

(Start Block)


G1X11.3447Y-43.4166
G1Z5F20000
(Plotting speed under)
G1 F4000


G1X11.7697Y-43.3111

G1X12.1948Y-43.3080

G1X12.9386Y-43.5587

G1X13.6217Y-44.0493

G1X15.5065Y-45.8199

G1X16.0201Y-46.1150

G1X16.5513Y-46.2291

G1X16.9764Y-46.1658

G1X17.4545Y-45.9392

G1X19.4912Y-44.1655

G1X19.9516Y-43.9043

G1X20.4829Y-43.7869

G1X20.9079Y-43.8448

G1X21.4392Y-44.0880

G1X23.3873Y-45.5301

G1X23.8832Y-45.7282

G1X24.3082Y-45.7837

G1X24.7332Y-45.7338

G1X25.2645Y-45.5423

G1X27.2835Y-44.4109

G1X27.8147Y-44.2450

G1X28.3460Y-44.1867

G1X29.4086Y-44.3609

G1X31.9588Y-45.2636

G1X33.3402Y-45.4289

G1X34.5090Y-45.3496

G1X37.4843Y-44.8656

G1X39.1844Y-44.6737

G1X44.1785Y-44.5274

G1X49.5977Y-44.6646

G1X55.9732Y-45.2967

G1X58.2046Y-45.4225

G1X61.1799Y-45.3434

G1X68.4055Y-44.7355

G1X72.3370Y-44.6239

G1X76.2686Y-44.7436

G1X82.8566Y-45.3380

G1X85.4068Y-45.4266

G1X87.6382Y-45.2885

G1X91.8886Y-44.6915

G1X93.6950Y-44.5265

G1 Z0F20000

(Start Block)


G1X11.3447Y-41.8298
G1Z5F20000
(Plotting speed under)
G1 F4000


G1X11.9822Y-41.9434

G1X12.6729Y-42.2452

G1X13.3813Y-42.7209

G1X15.4179Y-44.3441

G1X16.0201Y-44.6426

G1X16.6576Y-44.7596

G1X17.1889Y-44.6829

G1X17.7202Y-44.4547

G1X20.0225Y-42.7099

G1X20.6954Y-42.3960

G1X21.2267Y-42.3170

G1X21.7580Y-42.3934

G1X22.2893Y-42.6075

G1X24.6270Y-44.0666

G1X25.1583Y-44.2479

G1X25.6896Y-44.3141

G1X26.2209Y-44.2671

G1X26.8584Y-44.0854

G1X29.4086Y-42.9587

G1X30.0462Y-42.7966

G1X30.7900Y-42.7187

G1X32.1713Y-42.8443

G1X34.9340Y-43.4958

G1X36.4217Y-43.7566

G1X38.0155Y-43.9035

G1X40.0344Y-43.9575

G1X50.8728Y-43.8984

G1X53.6355Y-43.7152

G1X61.1799Y-42.9816

G1X64.1551Y-42.8466

G1X67.6616Y-42.8014

G1X71.0619Y-42.8464

G1X73.9309Y-42.9873

G1X76.3748Y-43.2198

G1X81.1565Y-43.8358

G1X83.7067Y-43.9569

G1X85.8318Y-43.8080

G1X90.7197Y-43.1055

G1X92.2073Y-43.0286

G1X93.6950Y-43.0655

G1 Z0F20000

(Start Block)


G1X11.3447Y-40.9469
G1Z5F20000
(Plotting speed under)
G1 F4000


G1X14.5324Y-42.8684

G1X15.2762Y-43.1663

G1X16.0201Y-43.2885

G1X16.6576Y-43.2314

G1X17.2952Y-43.0270

G1X17.9858Y-42.6655

G1X20.1995Y-41.2342

G1X20.9079Y-40.9522

G1X21.6517Y-40.8467

G1X22.2893Y-40.9186

G1X22.9268Y-41.1221

G1X25.0520Y-42.2299

G1X25.9021Y-42.5939

G1X26.6459Y-42.7858

G1X27.2835Y-42.8439

G1X28.0272Y-42.7957

G1X28.7711Y-42.6465

G1X32.5964Y-41.5206

G1X33.8715Y-41.3273

G1X35.2528Y-41.2499

G1X42.2659Y-41.4634

G1X52.5729Y-41.2468

G1X62.4550Y-41.4778

G1X72.2308Y-41.2597

G1X74.8872Y-41.4538

G1X79.9876Y-42.3108

G1X82.2191Y-42.4888

G1X84.2380Y-42.3616

G1X87.8507Y-41.7606

G1X89.4446Y-41.5888

G1X91.3573Y-41.5805

G1X93.6950Y-41.8012

G1 Z0F20000

(Start Block)


G1X11.3447Y-40.9469
G1Z5F20000
(Plotting speed under)
G1 F4000


G1X12.4073Y-41.5010

G1X13.0448Y-41.6722

G1X14.1074Y-41.8161

G1X15.0637Y-41.7603

G1X16.5513Y-41.3149

G1X19.8453Y-39.7096

G1X20.6954Y-39.4668

G1X21.5455Y-39.3769

G1X22.3956Y-39.4433

G1X23.2456Y-39.6435

G1X26.1146Y-40.7326

G1X27.2835Y-41.0900

G1X28.3460Y-41.2909

G1X29.5149Y-41.3733

G1X31.3213Y-41.2833

G1X36.7404Y-40.6471

G1X40.4595Y-40.4894

G1X44.3910Y-40.5883

G1X54.1668Y-41.1921

G1X57.8859Y-41.2581

G1X61.2861Y-41.2049

G1X65.1115Y-40.9183

G1X70.9557Y-39.9626

G1X73.1871Y-39.7776

G1X75.3123Y-39.9296

G1X79.3501Y-40.8014

G1X81.1565Y-41.0127

G1X82.9628Y-40.9233

G1X86.5757Y-40.2666

G1X88.2758Y-40.0974

G1X90.1884Y-40.1498

G1X93.6950Y-40.5719

G1 Z0F20000

(Start Block)


G1X11.3447Y-40.2220
G1Z5F20000
(Plotting speed under)
G1 F4000


G1X13.5761Y-39.7262

G1X18.0390Y-38.2262

G1X19.2078Y-37.9941

G1X20.3767Y-37.9072

G1X21.4392Y-37.9549

G1X22.6081Y-38.1248

G1X26.7521Y-39.1059

G1X28.8773Y-39.4926

G1X31.2150Y-39.7323

G1X34.0840Y-39.8446

G1X38.3343Y-39.8566

G1X42.0534Y-39.7665

G1X51.4041Y-39.0905

G1X54.9106Y-38.9780

G1X58.2046Y-39.1095

G1X64.0489Y-39.8096

G1X66.2803Y-39.8955

G1X68.2992Y-39.6492

G1X72.3370Y-38.5400

G1X74.1434Y-38.3078

G1X75.7373Y-38.4539

G1X79.0313Y-39.3251

G1X80.5189Y-39.5389

G1X82.1128Y-39.4623

G1X85.5131Y-38.7765

G1X87.2132Y-38.6191

G1X88.8071Y-38.6923

G1X91.9948Y-39.1121

G1X93.6950Y-39.2552

G1 Z0F20000

(Start Block)


G1X11.3447Y-36.9241
G1Z5F20000
(Plotting speed under)
G1 F4000


G1X14.5324Y-36.5115

G1X17.2952Y-36.4544

G1X19.5266Y-36.6303

G1X26.1146Y-37.4500

G1X28.4523Y-37.5972

G1X30.7900Y-37.6307

G1X34.8278Y-37.4345

G1X41.5221Y-36.6828

G1X44.2848Y-36.4794

G1X46.9413Y-36.4398

G1X53.2105Y-36.5618

G1X59.0547Y-36.4388

G1X60.7548Y-36.5308

G1X62.2425Y-36.7674

G1X63.6238Y-37.1380

G1X66.5991Y-38.1454

G1X67.4491Y-38.3419

G1X68.2992Y-38.4316

G1X69.0430Y-38.4056

G1X69.8931Y-38.2544

G1X73.0808Y-37.1073

G1X73.8246Y-36.9224

G1X74.5684Y-36.8400

G1X75.9498Y-36.9809

G1X78.7125Y-37.8420

G1X80.0939Y-38.0710

G1X81.4753Y-37.9902

G1X84.4505Y-37.3166

G1X86.0443Y-37.1492

G1X87.5320Y-37.2263

G1X91.3573Y-37.7423

G1X93.6950Y-37.8070

G1 Z0F20000

(Start Block)


G1X11.3447Y-35.4262
G1Z5F20000
(Plotting speed under)
G1 F4000


G1X18.8890Y-36.1257

G1X21.5455Y-36.2498

G1X23.9894Y-36.2605

G1X27.8147Y-36.0455

G1X34.7215Y-35.1078

G1X37.4843Y-34.9719

G1X38.8656Y-35.0624

G1X40.3532Y-35.2806

G1X45.3474Y-36.4216

G1X53.6355Y-36.5592

G1X58.0984Y-36.4070

G1X61.9237Y-35.2143

G1X62.8800Y-35.0205

G1X63.7301Y-34.9676

G1X64.4739Y-35.0368

G1X65.3240Y-35.2551

G1X68.2992Y-36.6349

G1X69.0430Y-36.8719

G1X69.6805Y-36.9610

G1X70.3181Y-36.9308

G1X70.9557Y-36.7855

G1X73.6121Y-35.6268

G1X74.2497Y-35.4443

G1X74.8872Y-35.3688

G1X75.9498Y-35.4908

G1X78.5000Y-36.3884

G1X79.7751Y-36.6062

G1X80.9439Y-36.5125

G1X83.6004Y-35.8428

G1X84.9818Y-35.6805

G1X86.3631Y-35.7539

G1X90.2947Y-36.3053

G1X91.7823Y-36.3419

G1X93.6950Y-36.2509

G1 Z0F20000

(Start Block)


G1X11.3447Y-35.4262
G1Z5F20000
(Plotting speed under)
G1 F4000


G1X12.5135Y-35.4917

G1X19.6328Y-35.4870

G1X23.9894Y-35.3285

G1X27.0709Y-34.8885

G1X31.9588Y-33.6938

G1X33.7652Y-33.4978

G1X34.8278Y-33.5515

G1X35.9966Y-33.7693

G1X37.2717Y-34.1684

G1X39.9282Y-35.1943

G1X43.4347Y-35.9392

G1X45.0286Y-35.8853

G1X49.2789Y-35.3432

G1X51.5104Y-35.2189

G1X53.8481Y-35.3481

G1X57.8859Y-35.9078

G1X59.4797Y-35.8936

G1X60.2236Y-35.7457

G1X61.3924Y-35.3528

G1X64.4739Y-33.7456

G1X65.1115Y-33.5566

G1X65.6427Y-33.4976

G1X66.1740Y-33.5396

G1X66.8116Y-33.7231

G1X69.3618Y-35.1708

G1X69.9993Y-35.4102

G1X70.5306Y-35.4922

G1X71.0619Y-35.4571

G1X71.5932Y-35.3119

G1X73.8246Y-34.1798

G1X74.4622Y-33.9687

G1X74.9935Y-33.8991

G1X75.9498Y-34.0241

G1X78.1812Y-34.9081

G1X79.3501Y-35.1360

G1X80.4127Y-35.0435

G1X82.7503Y-34.3911

G1X84.0254Y-34.2128

G1X85.3005Y-34.2775

G1X87.8507Y-34.7132

G1X89.3384Y-34.8589

G1X91.0385Y-34.8468

G1X93.6950Y-34.6451

G1 Z0F20000

(Start Block)


G1X11.3447Y-32.9074
G1Z5F20000
(Plotting speed under)
G1 F4000


G1X16.5513Y-33.1313

G1X23.0331Y-33.9273

G1X25.1583Y-34.0159

G1X26.3271Y-33.8991

G1X27.4960Y-33.6347

G1X31.4275Y-32.2157

G1X32.2776Y-32.0557

G1X33.0214Y-32.0328

G1X33.8715Y-32.1560

G1X34.7215Y-32.4310

G1X37.3780Y-33.7821

G1X38.3343Y-34.1864

G1X39.1844Y-34.4061

G1X39.9282Y-34.4702

G1X40.7783Y-34.3972

G1X41.7346Y-34.1557

G1X45.1349Y-32.7604

G1X46.8350Y-32.2184

G1X48.6414Y-31.8883

G1X50.6603Y-31.7485

G1X53.3167Y-31.8185

G1X55.4419Y-32.1568

G1X57.1421Y-32.7229

G1X60.2236Y-34.1693

G1X60.9674Y-34.3938

G1X61.6049Y-34.4697

G1X62.3487Y-34.3880

G1X62.9863Y-34.1628

G1X63.6770Y-33.7738

G1X65.6427Y-32.4004

G1X66.2803Y-32.1197

G1X66.8116Y-32.0287

G1X67.2366Y-32.0611

G1X67.7679Y-32.2311

G1X70.0525Y-33.7257

G1X70.5306Y-33.9299

G1X71.0619Y-34.0235

G1X71.9120Y-33.8647

G1X73.9486Y-32.7137

G1X74.4622Y-32.5168

G1X74.9935Y-32.4299

G1X75.8435Y-32.5454

G1X77.9687Y-33.4639

G1X79.0313Y-33.6684

G1X79.8814Y-33.5840

G1X82.1128Y-32.9104

G1X83.2816Y-32.7412

G1X84.3442Y-32.7991

G1X86.8944Y-33.2667

G1X88.3820Y-33.3997

G1X89.8697Y-33.3633

G1X93.6950Y-33.0497

G1 Z0F20000

(Start Block)


G1X11.3447Y-31.1966
G1Z5F20000
(Plotting speed under)
G1 F4000


G1X16.6576Y-30.9662

G1X19.3141Y-31.0312

G1X21.5455Y-31.3885

G1X25.1583Y-32.4031

G1X26.6459Y-32.5520

G1X27.4960Y-32.4442

G1X28.3460Y-32.1825

G1X31.3213Y-30.7599

G1X31.9588Y-30.5964

G1X32.5964Y-30.5614

G1X33.2339Y-30.6677

G1X33.9777Y-30.9612

G1X36.8467Y-32.7089

G1X37.4843Y-32.9254

G1X38.1218Y-33.0002

G1X38.8656Y-32.9013

G1X39.6094Y-32.6250

G1X42.2482Y-31.0190

G1X43.3285Y-30.4878

G1X44.3910Y-30.1758

G1X45.4536Y-30.0681

G1X46.7287Y-30.1360

G1X49.7040Y-30.5260

G1X51.1916Y-30.6012

G1X52.8917Y-30.5096

G1X56.0795Y-30.0898

G1X57.5671Y-30.1372

G1X58.3109Y-30.3218

G1X59.0547Y-30.6377

G1X59.8694Y-31.1262

G1X61.9945Y-32.6212

G1X62.6675Y-32.9138

G1X63.1988Y-32.9995

G1X63.7301Y-32.9354

G1X64.2614Y-32.7200

G1X64.9166Y-32.2774

G1X66.5105Y-30.9580

G1X67.0241Y-30.6801

G1X67.5554Y-30.5593

G1X67.9804Y-30.6000

G1X68.4586Y-30.7848

G1X70.4066Y-32.2253

G1X70.8494Y-32.4470

G1X71.3807Y-32.5545

G1X72.1245Y-32.4005

G1X74.0372Y-31.2223

G1X74.5684Y-31.0177

G1X74.9935Y-30.9585

G1X75.8435Y-31.1149

G1X77.7562Y-32.0210

G1X78.7125Y-32.1993

G1X79.4563Y-32.1124

G1X81.4753Y-31.4486

G1X82.5378Y-31.2732

G1X83.4942Y-31.3199

G1X85.9381Y-31.8016

G1X87.3195Y-31.9312

G1X93.6950Y-31.5042

G1 Z0F20000

(Start Block)


G1X11.3447Y-30.7108
G1Z5F20000
(Plotting speed under)
G1 F4000


G1X15.1700Y-30.4705

G1X20.1641Y-29.6021

G1X21.7580Y-29.4900

G1X23.2456Y-29.7029

G1X26.3271Y-30.8855

G1X27.0709Y-31.0572

G1X27.7085Y-31.0771

G1X28.3460Y-30.9597

G1X28.9659Y-30.7172

G1X31.4275Y-29.2861

G1X32.3839Y-29.0878

G1X33.0214Y-29.1973

G1X33.6590Y-29.4949

G1X35.5185Y-30.8909

G1X36.1383Y-31.2710

G1X36.7404Y-31.4873

G1X37.2717Y-31.5260

G1X37.9093Y-31.3806

G1X38.5291Y-31.0628

G1X40.4772Y-29.5523

G1X41.3096Y-29.0126

G1X42.0534Y-28.7089

G1X42.7972Y-28.5977

G1X43.5410Y-28.6655

G1X44.2848Y-28.8733

G1X47.4725Y-30.2309

G1X49.5977Y-30.5156

G1X51.1916Y-30.6012

G1X52.7855Y-30.5206

G1X54.8044Y-30.2409

G1X57.9921Y-28.8134

G1X58.7359Y-28.6275

G1X59.4797Y-28.6189

G1X60.1173Y-28.7882

G1X60.6663Y-29.0712

G1X63.1457Y-31.1346

G1X63.7301Y-31.4403

G1X64.1551Y-31.5274

G1X64.5801Y-31.4867

G1X65.0937Y-31.2663

G1X65.6124Y-30.8823

G1X67.1304Y-29.4792

G1X67.6616Y-29.1770

G1X68.0867Y-29.0884

G1X68.5117Y-29.1490

G1X68.9013Y-29.3247

G1X70.6723Y-30.7583

G1X71.1682Y-31.0096

G1X71.5932Y-31.0841

G1X72.3370Y-30.8910

G1X74.0372Y-29.7491

G1X74.4622Y-29.5660

G1X74.8872Y-29.4904

G1X75.6310Y-29.6150

G1X77.4374Y-30.5295

G1X78.2875Y-30.7270

G1X79.0313Y-30.6521

G1X80.9439Y-29.9807

G1X82.0065Y-29.8003

G1X82.8566Y-29.8546

G1X85.0880Y-30.3329

G1X86.3631Y-30.4616

G1X87.5320Y-30.4239

G1X91.0385Y-30.0782

G1X93.6950Y-30.0204

G1 Z0F20000

(Start Block)


G1X11.3447Y-28.7395
G1Z5F20000
(Plotting speed under)
G1 F4000


G1X15.7013Y-29.2039

G1X17.7202Y-29.2399

G1X19.4203Y-28.9954

G1X22.5018Y-28.1197

G1X23.6707Y-28.0243

G1X24.3082Y-28.1167

G1X24.9458Y-28.3184

G1X27.2835Y-29.4499

G1X28.2398Y-29.6138

G1X28.7711Y-29.5267

G1X29.4086Y-29.2524

G1X31.5338Y-27.8241

G1X32.0651Y-27.6452

G1X32.4901Y-27.6229

G1X33.0214Y-27.7576

G1X33.4818Y-28.0098

G1X35.1643Y-29.4400

G1X35.6956Y-29.8065

G1X36.2091Y-30.0160

G1X36.6342Y-30.0585

G1X37.1655Y-29.9393

G1X37.7322Y-29.6212

G1X39.5032Y-28.0295

G1X40.2116Y-27.4988

G1X40.8845Y-27.1992

G1X41.5221Y-27.1305

G1X42.1596Y-27.2600

G1X42.7795Y-27.5405

G1X45.3474Y-29.2775

G1X47.0475Y-30.0858

G1X47.6851Y-30.2567

G1X49.3852Y-30.4945

G1X51.1916Y-30.5517

G1X53.4230Y-30.4476

G1X54.4856Y-30.2746

G1X55.3357Y-30.0188

G1X56.7702Y-29.2898

G1X59.2672Y-27.5222

G1X59.9048Y-27.2297

G1X60.4361Y-27.1294

G1X61.0736Y-27.2218

G1X61.6403Y-27.5100

G1X62.2728Y-28.0308

G1X63.8667Y-29.6196

G1X64.3854Y-29.9450

G1X64.8989Y-30.0602

G1X65.3240Y-29.9796

G1X65.7136Y-29.7732

G1X67.5858Y-27.9781

G1X67.9804Y-27.7336

G1X68.4055Y-27.6210

G1X68.7242Y-27.6477

G1X69.1493Y-27.8309

G1X70.8494Y-29.2896

G1X71.2744Y-29.5263

G1X71.6995Y-29.6134

G1X72.0182Y-29.5787

G1X72.4433Y-29.4049

G1X73.9486Y-28.3150

G1X74.3559Y-28.1162

G1X74.7809Y-28.0225

G1X75.5248Y-28.1518

G1X77.2249Y-29.0665

G1X78.0750Y-29.2586

G1X78.8188Y-29.1526

G1X80.5189Y-28.5061

G1X81.4753Y-28.3312

G1X82.2191Y-28.3736

G1X84.4505Y-28.8791

G1X85.6193Y-28.9933

G1X90.1884Y-28.5821

G1X93.6950Y-28.5867

G1 Z0F20000


G00 X0.0000 Y0.0000


