$H
G21
G17
G90
G1 Z0F20000
G1 F15000

(Start Layer)

(Start Block)


G1X61.5585Y-89.0889
G1Z5F20000
(Plotting speed under)
G1 F4000


G1X59.3727Y-91.0505

G1X57.0922Y-92.6295

G1X54.6578Y-93.8754

G1X52.2878Y-94.7100

G1X49.5171Y-95.2778

G1X47.9873Y-95.4349

G1X46.2787Y-95.4986

G1X42.5761Y-95.2986

G1X41.9054Y-95.0896

G1X41.5895Y-94.7372

G1X41.6027Y-94.3293

G1X41.9928Y-93.6816

G1X42.7180Y-92.9574

G1X43.7682Y-92.1303

G1X46.2273Y-90.5082

G1X52.1916Y-86.9503

G1X56.3750Y-84.3416

G1X60.2392Y-81.6286

G1X63.4962Y-78.9164

G1X66.3585Y-76.1275

G1X69.1924Y-72.8432

G1X71.4007Y-69.7147

G1X73.2503Y-66.4862

G1X74.1759Y-64.4863

G1X74.9437Y-62.4765

G1X75.5572Y-60.4686

G1X75.9969Y-58.5216

G1X76.2702Y-56.5793

G1X76.3855Y-54.5921

G1X76.3380Y-52.8079

G1X76.1014Y-50.9656

G1X75.6803Y-49.1532

G1X75.1168Y-47.5301

G1X74.3358Y-45.9699

G1X73.3765Y-44.5242

G1X72.3004Y-43.3490

G1X71.0227Y-42.3420

G1X69.8896Y-41.7466

G1X68.6807Y-41.4165

G1X67.9935Y-41.3828

G1X67.3842Y-41.4909

G1X66.7549Y-41.7619

G1X66.2318Y-42.1625

G1X65.8081Y-42.7069

G1X65.4846Y-43.3749

G1X65.2565Y-44.1967

G1X65.1470Y-45.0842

G1X65.1851Y-47.0042

G1X65.5752Y-49.5548

G1X67.5473Y-58.1172

G1X68.4127Y-62.7767

G1X68.8449Y-66.4092

G1X69.0347Y-69.8612

G1X69.0112Y-72.0857

G1X68.8740Y-74.3113

G1X68.6361Y-76.3579

G1X68.3064Y-78.2187

G1X67.8529Y-80.1087

G1X67.2983Y-81.8949

G1X66.6676Y-83.4577

G1X65.8718Y-85.0450

G1X64.9794Y-86.5133

G1X63.8254Y-88.0144

G1X62.3556Y-89.6844

G1X60.6903Y-91.2812

G1X59.2458Y-92.4455

G1X57.6349Y-93.5420

G1X55.9409Y-94.4822

G1X54.3354Y-95.1925

G1X52.6152Y-95.7788

G1X50.6693Y-96.2381

G1X48.6906Y-96.5109

G1X46.6766Y-96.6264

G1X43.8858Y-96.6015

G1X40.3913Y-96.3979

G1X39.7465Y-96.2751

G1X39.3411Y-96.1134

G1X39.0033Y-95.8511

G1X38.8792Y-95.5958

G1X38.9263Y-95.0610

G1X39.3725Y-94.3527

G1X40.2272Y-93.5312

G1X41.4815Y-92.5992

G1X44.1971Y-90.9323

G1X52.5111Y-86.3521

G1X55.2636Y-84.7439

G1X59.4881Y-81.9802

G1X63.1308Y-79.1308

G1X66.2292Y-76.2890

G1X67.8746Y-74.5572

G1X69.4000Y-72.8008

G1X70.6418Y-71.2185

G1X71.7967Y-69.5750

G1X72.8823Y-67.8615

G1X73.8710Y-66.1109

G1X74.8625Y-64.0694

G1X75.7371Y-61.8677

G1X76.4307Y-59.6517

G1X76.9111Y-57.5566

G1X77.1969Y-55.4925

G1X77.2992Y-53.3723

G1X77.2123Y-51.3369

G1X76.9508Y-49.5683

G1X76.4415Y-47.6126

G1X75.7382Y-45.7803

G1X74.8765Y-44.2198

G1X73.7668Y-42.7161

G1X72.6153Y-41.5385

G1X71.2101Y-40.5215

G1X69.8961Y-39.8564

G1X68.4890Y-39.4856

G1X67.4876Y-39.4290

G1X66.7576Y-39.5435

G1X66.0148Y-39.8473

G1X65.3191Y-40.3531

G1X64.8300Y-40.9436

G1X64.4205Y-41.7652

G1X64.1809Y-42.6290

G1X64.0728Y-43.5785

G1X64.1526Y-45.5619

G1X64.5906Y-47.9188

G1X65.1095Y-50.0016

G1X67.3349Y-57.8030

G1X68.3822Y-62.4227

G1X68.9630Y-66.0288

G1X69.3098Y-69.9502

G1X69.3606Y-72.1494

G1X69.2808Y-74.5259

G1X69.0702Y-76.8517

G1X68.7521Y-78.9312

G1X68.2744Y-81.0529

G1X67.6515Y-83.1092

G1X67.0055Y-84.7433

G1X66.2072Y-86.3038

G1X65.1686Y-87.9736

G1X64.1476Y-89.2864

G1X62.3625Y-91.1857

G1X60.6987Y-92.6841

G1X59.0584Y-93.9269

G1X57.2582Y-95.0521

G1X55.5430Y-95.9128

G1X53.7507Y-96.6181

G1X51.8070Y-97.1698

G1X49.9268Y-97.5074

G1X48.1094Y-97.6777

G1X45.8822Y-97.7190

G1X38.1132Y-97.3404

G1X37.3581Y-97.1971

G1X36.7876Y-96.9795

G1X36.3741Y-96.6763

G1X36.1846Y-96.3492

G1X36.1383Y-96.0436

G1X36.2018Y-95.7010

G1X36.6889Y-94.8837

G1X37.6747Y-93.9445

G1X39.0089Y-92.9885

G1X42.1267Y-91.1912

G1X51.5197Y-86.4327

G1X54.2940Y-84.9254

G1X58.9592Y-82.0598

G1X63.0006Y-79.0584

G1X64.7269Y-77.6166

G1X66.3158Y-76.1589

G1X68.1483Y-74.3062

G1X69.7849Y-72.4912

G1X71.1275Y-70.8439

G1X72.3157Y-69.2146

G1X73.4952Y-67.4152

G1X74.5712Y-65.5697

G1X75.6786Y-63.3568

G1X76.5760Y-61.1516

G1X77.3231Y-58.8074

G1X77.8532Y-56.5039

G1X78.1421Y-54.3743

G1X78.2283Y-52.2409

G1X78.1041Y-50.0148

G1X77.7889Y-48.0968

G1X77.1828Y-46.0291

G1X76.3462Y-44.0820

G1X75.4193Y-42.5418

G1X74.2719Y-41.1190

G1X72.9203Y-39.8285

G1X71.5168Y-38.8802

G1X69.7587Y-38.0763

G1X68.2943Y-37.7306

G1X67.1976Y-37.6777

G1X66.1678Y-37.8085

G1X65.3070Y-38.1397

G1X64.5007Y-38.6984

G1X63.8662Y-39.4017

G1X63.3996Y-40.2685

G1X63.1020Y-41.2737

G1X62.9816Y-42.3749

G1X63.1229Y-44.4915

G1X63.6113Y-46.7253

G1X64.3720Y-49.3002

G1X67.1204Y-57.5258

G1X68.2794Y-61.8328

G1X69.0931Y-65.8003

G1X69.5967Y-70.0331

G1X69.7272Y-72.5635

G1X69.7011Y-75.0010

G1X69.5251Y-77.4513

G1X69.1944Y-79.8835

G1X68.7177Y-82.1190

G1X68.0859Y-84.2480

G1X67.3616Y-86.1256

G1X66.5444Y-87.7098

G1X65.3187Y-89.5551

G1X64.1524Y-90.9985

G1X62.2171Y-92.8839

G1X60.6260Y-94.2066

G1X58.7900Y-95.4889

G1X56.8343Y-96.5920

G1X54.9743Y-97.4189

G1X52.9716Y-98.0840

G1X50.2792Y-98.6303

G1X47.4507Y-98.8243

G1X45.3243Y-98.7698

G1X40.2840Y-98.3923

G1X36.6195Y-98.2194

G1X35.4914Y-98.0804

G1X34.5097Y-97.8053

G1X33.8502Y-97.3997

G1X33.4905Y-96.8327

G1X33.4494Y-96.4435

G1X33.5379Y-96.0468

G1X33.7895Y-95.5460

G1X34.1287Y-95.0964

G1X35.2241Y-94.0934

G1X36.7592Y-93.0510

G1X40.1318Y-91.2382

G1X50.3114Y-86.5000

G1X53.2236Y-85.0389

G1X56.1909Y-83.3895

G1X58.3757Y-82.0741

G1X60.2633Y-80.8127

G1X62.6541Y-79.0744

G1X64.6486Y-77.4963

G1X66.3438Y-76.0203

G1X68.2276Y-74.2024

G1X69.9125Y-72.4247

G1X71.3731Y-70.7292

G1X72.6595Y-69.0655

G1X73.9427Y-67.2038

G1X75.1205Y-65.2808

G1X76.3376Y-62.9770

G1X77.3374Y-60.6586

G1X78.1584Y-58.2059

G1X78.7467Y-55.7748

G1X79.0787Y-53.5160

G1X79.1755Y-51.2514

G1X79.0391Y-48.9753

G1X78.6820Y-46.8555

G1X78.0789Y-44.8739

G1X77.1871Y-42.8826

G1X76.2153Y-41.2773

G1X74.9539Y-39.7635

G1X73.4240Y-38.3840

G1X71.9519Y-37.4098

G1X70.1518Y-36.6237

G1X68.3117Y-36.1719

G1X66.9464Y-36.1163

G1X65.7084Y-36.2777

G1X64.7650Y-36.5930

G1X63.8294Y-37.1806

G1X63.0160Y-38.0037

G1X62.4504Y-38.9344

G1X62.0600Y-40.1227

G1X61.9159Y-41.3663

G1X61.9529Y-42.4387

G1X62.1072Y-43.5989

G1X62.6996Y-45.9718

G1X63.7267Y-48.9507

G1X66.8508Y-57.1345

G1X68.1433Y-61.2330

G1X69.2892Y-65.9783

G1X69.9162Y-70.2901

G1X70.1189Y-73.0194

G1X70.1509Y-75.6087

G1X69.9955Y-78.3028

G1X69.6665Y-80.9033

G1X69.1923Y-83.2606

G1X68.5462Y-85.4753

G1X67.6645Y-87.7316

G1X66.7971Y-89.3915

G1X65.6376Y-91.0303

G1X64.0708Y-92.8406

G1X62.4948Y-94.2655

G1X60.4745Y-95.8240

G1X58.4236Y-97.1191

G1X56.4822Y-98.0990

G1X54.4980Y-98.8779

G1X52.2864Y-99.4889

G1X49.4584Y-99.8968

G1X46.7192Y-99.9304

G1X44.1842Y-99.7158

G1X39.3899Y-99.1427

G1X34.0161Y-98.8567

G1X32.7937Y-98.6271

G1X31.8855Y-98.2865

G1X31.1963Y-97.7700

G1X30.8686Y-97.1808

G1X30.8158Y-96.7736

G1X30.9134Y-96.2579

G1X31.1422Y-95.7699

G1X31.5099Y-95.2527

G1X32.7386Y-94.1195

G1X34.4548Y-92.9915

G1X36.2098Y-92.0488

G1X38.2482Y-91.0804

G1X49.2171Y-86.3882

G1X52.2697Y-84.9694

G1X55.4819Y-83.2945

G1X57.8946Y-81.9269

G1X59.8488Y-80.6954

G1X62.4246Y-78.9155

G1X64.5263Y-77.3362

G1X66.4055Y-75.7834

G1X68.3281Y-74.0123

G1X70.1205Y-72.2046

G1X71.7549Y-70.3909

G1X73.1388Y-68.6826

G1X74.5020Y-66.7839

G1X75.7145Y-64.8823

G1X77.0735Y-62.4153

G1X78.1662Y-59.9904

G1X79.0466Y-57.4508

G1X79.6768Y-54.9165

G1X80.0390Y-52.5339

G1X80.1400Y-50.2340

G1X79.9758Y-47.8072

G1X79.5595Y-45.5367

G1X78.9149Y-43.5450

G1X77.9472Y-41.5327

G1X76.7795Y-39.7444

G1X75.4612Y-38.2813

G1X73.8340Y-36.9430

G1X72.1482Y-35.9172

G1X70.3112Y-35.2030

G1X68.3440Y-34.7815

G1X66.9444Y-34.7240

G1X65.4243Y-34.9271

G1X64.1468Y-35.3425

G1X63.1580Y-35.9448

G1X62.2210Y-36.8657

G1X61.4894Y-38.0193

G1X61.0694Y-39.2630

G1X60.9074Y-40.6489

G1X60.9549Y-41.7107

G1X61.1248Y-42.8477

G1X61.4363Y-44.1833

G1X61.8347Y-45.4314

G1X63.2020Y-48.9052

G1X65.1137Y-53.2198

G1X66.4332Y-56.4410

G1X68.0811Y-60.9489

G1X68.8881Y-63.7213

G1X69.5073Y-66.1995

G1X69.9490Y-68.4077

G1X70.2811Y-70.7104

G1X70.5551Y-73.7644

G1X70.6266Y-76.6652

G1X70.4945Y-79.3408

G1X70.1565Y-82.0906

G1X69.6502Y-84.6451

G1X68.9899Y-86.9139

G1X68.0580Y-89.2494

G1X67.0031Y-91.2410

G1X65.8137Y-92.8135

G1X63.8869Y-94.7979

G1X62.3089Y-96.0890

G1X60.1403Y-97.5773

G1X57.9384Y-98.8038

G1X55.8434Y-99.7184

G1X53.7214Y-100.4086

G1X51.4704Y-100.8820

G1X49.2136Y-101.0987

G1X46.7656Y-101.0610

G1X44.5427Y-100.8139

G1X38.1545Y-99.7406

G1X36.0071Y-99.5877

G1X33.3272Y-99.5215

G1X31.6434Y-99.3631

G1X30.4111Y-99.0771

G1X29.3915Y-98.6289

G1X28.6799Y-98.0234

G1X28.3354Y-97.3553

G1X28.2762Y-96.8618

G1X28.3655Y-96.3369

G1X28.6301Y-95.7440

G1X29.0724Y-95.1206

G1X30.3817Y-93.9310

G1X32.3439Y-92.6898

G1X34.2909Y-91.7061

G1X36.4177Y-90.7671

G1X48.1298Y-86.1579

G1X51.3695Y-84.7646

G1X54.7059Y-83.1320

G1X57.3132Y-81.7461

G1X59.4713Y-80.4695

G1X62.0291Y-78.7918

G1X64.3371Y-77.1492

G1X66.3445Y-75.5813

G1X68.1675Y-73.9990

G1X70.0668Y-72.1886

G1X71.8190Y-70.3562

G1X73.3893Y-68.5378

G1X74.7776Y-66.7303

G1X76.1092Y-64.7706

G1X77.6045Y-62.2258

G1X78.8477Y-59.6675

G1X79.7939Y-57.1703

G1X80.5066Y-54.5865

G1X80.9528Y-52.0572

G1X81.1213Y-49.6572

G1X81.0070Y-47.2862

G1X80.6187Y-44.9439

G1X80.0089Y-42.8664

G1X79.1046Y-40.8912

G1X77.8704Y-38.9586

G1X76.4362Y-37.3013

G1X74.7507Y-35.9206

G1X72.7110Y-34.7170

G1X70.9632Y-34.0387

G1X68.9612Y-33.6124

G1X67.2110Y-33.4964

G1X65.6274Y-33.6708

G1X64.0105Y-34.1469

G1X62.6870Y-34.8535

G1X61.6277Y-35.8216

G1X60.7309Y-37.1204

G1X60.1954Y-38.5345

G1X59.9897Y-40.0721

G1X60.0382Y-41.1868

G1X60.2299Y-42.3710

G1X60.6142Y-43.8567

G1X61.0354Y-45.0736

G1X62.7938Y-49.0678

G1X65.4731Y-54.6143

G1X67.2347Y-58.6980

G1X68.2998Y-61.5161

G1X69.1633Y-64.2927

G1X69.8470Y-66.8483

G1X70.3693Y-69.2492

G1X70.7207Y-71.4480

G1X71.0432Y-74.7143

G1X71.1388Y-77.8549

G1X71.0125Y-80.6770

G1X70.6489Y-83.5524

G1X70.0486Y-86.4285

G1X69.3228Y-88.8077

G1X68.3062Y-91.1850

G1X67.0790Y-93.3409

G1X65.7918Y-94.8921

G1X63.6673Y-96.7818

G1X62.0155Y-97.9877

G1X59.6908Y-99.3828

G1X57.4991Y-100.4454

G1X55.2811Y-101.2763

G1X53.0264Y-101.8734

G1X50.7236Y-102.2205

G1X48.6791Y-102.3126

G1X46.3360Y-102.1708

G1X43.7211Y-101.7290

G1X39.1117Y-100.6058

G1X37.0342Y-100.2239

G1X35.1253Y-100.0458

G1X31.2790Y-99.9607

G1X29.3102Y-99.7219

G1X28.0164Y-99.3467

G1X26.9705Y-98.7966

G1X26.2762Y-98.1224

G1X25.9060Y-97.3141

G1X25.8630Y-96.6861

G1X25.9769Y-96.1380

G1X26.2894Y-95.4670

G1X26.7992Y-94.7716

G1X27.4285Y-94.1491

G1X28.2698Y-93.4810

G1X30.3437Y-92.2260

G1X32.4270Y-91.2300

G1X34.7575Y-90.2706

G1X47.0703Y-85.8071

G1X50.6372Y-84.3851

G1X54.1324Y-82.7717

G1X56.8687Y-81.3987

G1X59.1530Y-80.1260

G1X61.6101Y-78.5964

G1X64.0322Y-76.9639

G1X66.1645Y-75.3939

G1X68.0454Y-73.8655

G1X69.9109Y-72.1863

G1X71.7902Y-70.3358

G1X73.5627Y-68.4075

G1X75.1224Y-66.5075

G1X76.4938Y-64.6109

G1X78.1328Y-61.9883

G1X79.4750Y-59.4131

G1X80.5007Y-56.9609

G1X81.3061Y-54.3633

G1X81.8387Y-51.7848

G1X82.1010Y-49.2011

G1X82.0503Y-46.7858

G1X81.7144Y-44.4648

G1X81.0757Y-42.1351

G1X80.2185Y-40.1668

G1X78.9748Y-38.1931

G1X77.3961Y-36.3583

G1X75.8141Y-35.0432

G1X73.8895Y-33.8969

G1X71.8912Y-33.0624

G1X69.8484Y-32.5937

G1X67.7417Y-32.4389

G1X65.8308Y-32.6029

G1X63.9556Y-33.1545

G1X62.3228Y-33.9964

G1X61.6593Y-34.5089

G1X61.0767Y-35.0860

G1X60.0510Y-36.5318

G1X59.6747Y-37.3311

G1X59.4271Y-38.0836

G1X59.1876Y-39.6964

G1X59.2263Y-40.8305

G1X59.4350Y-42.0863

G1X59.8330Y-43.5308

G1X60.3695Y-44.9975

G1X62.5589Y-49.5008

G1X65.5465Y-55.1964

G1X67.3977Y-59.2353

G1X68.5615Y-62.1035

G1X69.4274Y-64.6995

G1X70.2271Y-67.5173

G1X70.8088Y-70.0112

G1X71.2298Y-72.4055

G1X71.5786Y-75.7314

G1X71.6884Y-79.1713

G1X71.5526Y-82.2187

G1X71.1659Y-85.1340

G1X70.4938Y-88.1725

G1X69.6463Y-90.8193

G1X68.5458Y-93.2107

G1X67.1606Y-95.4434

G1X66.0474Y-96.7428

G1X64.5870Y-97.9383

G1X62.1227Y-99.6293

G1X59.3036Y-101.1268

G1X56.9484Y-102.1065

G1X54.6383Y-102.8242

G1X52.3154Y-103.3002

G1X50.0704Y-103.5147

G1X47.5599Y-103.4677

G1X44.8783Y-103.0784

G1X42.2966Y-102.4089

G1X37.7598Y-100.9841

G1X35.5822Y-100.5212

G1X33.8709Y-100.3459

G1X29.2724Y-100.2773

G1X27.1293Y-99.9553

G1X25.7598Y-99.4826

G1X24.7183Y-98.8506

G1X24.0189Y-98.0964

G1X23.6372Y-97.2077

G1X23.5886Y-96.4946

G1X23.7138Y-95.8574

G1X24.0700Y-95.0868

G1X24.6295Y-94.3227

G1X25.3407Y-93.6262

G1X26.2632Y-92.9099

G1X28.4524Y-91.6279

G1X30.6534Y-90.6247

G1X33.1086Y-89.6740

G1X46.0694Y-85.3333

G1X50.0127Y-83.8738

G1X53.5419Y-82.3344

G1X56.4573Y-80.9517

G1X58.9299Y-79.6508

G1X61.2700Y-78.2685

G1X63.7901Y-76.6516

G1X66.0337Y-75.0845

G1X68.0350Y-73.5506

G1X69.8617Y-71.9986

G1X71.8671Y-70.1251

G1X73.7746Y-68.1570

G1X75.4737Y-66.2035

G1X76.9113Y-64.3384

G1X78.5754Y-61.8417

G1X80.0602Y-59.1895

G1X81.2256Y-56.6328

G1X82.0965Y-54.1247

G1X82.7338Y-51.4360

G1X83.0707Y-48.8208

G1X83.1031Y-46.3514

G1X82.8214Y-43.9903

G1X82.2379Y-41.6758

G1X81.3635Y-39.5084

G1X80.1878Y-37.5773

G1X78.7043Y-35.8080

G1X77.0878Y-34.3696

G1X75.2475Y-33.2208

G1X73.0117Y-32.2608

G1X70.8609Y-31.7052

G1X68.4708Y-31.5158

G1X66.1263Y-31.7006

G1X64.2159Y-32.2440

G1X62.3014Y-33.2122

G1X61.4881Y-33.7863

G1X60.7995Y-34.4158

G1X60.2023Y-35.1051

G1X59.6449Y-35.9179

G1X59.1895Y-36.7759

G1X58.8673Y-37.6085

G1X58.6270Y-38.5789

G1X58.5218Y-39.4912

G1X58.5451Y-40.6715

G1X58.7646Y-41.9981

G1X59.2043Y-43.5063

G1X59.8375Y-45.1301

G1X61.0305Y-47.4734

G1X65.7128Y-55.8629

G1X67.6449Y-59.8792

G1X68.9372Y-62.8996

G1X69.7683Y-65.2345

G1X70.6490Y-68.2037

G1X71.3052Y-70.8884

G1X71.7920Y-73.4895

G1X72.1623Y-76.8213

G1X72.2780Y-80.3215

G1X72.1297Y-83.6910

G1X71.7329Y-86.6682

G1X70.9926Y-89.8637

G1X69.9891Y-92.8458

G1X68.9014Y-95.0950

G1X67.4969Y-97.2284

G1X66.3101Y-98.6202

G1X65.0178Y-99.6553

G1X61.9339Y-101.4586

G1X59.4469Y-102.6261

G1X56.9542Y-103.5553

G1X54.4285Y-104.2392

G1X51.9463Y-104.6485

G1X49.5140Y-104.7782

G1X46.7945Y-104.5868

G1X43.9436Y-103.9835

G1X41.0929Y-103.0118

G1X36.8380Y-101.3504

G1X34.6774Y-100.7689

G1X32.5566Y-100.5062

G1X27.4096Y-100.4805

G1X26.2781Y-100.3362

G1X25.1427Y-100.0844

G1X23.8151Y-99.5809

G1X22.7152Y-98.8664

G1X21.9730Y-98.0364

G1X21.6857Y-97.4905

G1X21.5392Y-97.0179

G1X21.4782Y-96.2244

G1X21.6044Y-95.5001

G1X21.9509Y-94.6969

G1X22.5227Y-93.8663

G1X23.2595Y-93.1114

G1X24.2184Y-92.3484

G1X25.3001Y-91.6503

G1X26.6670Y-90.9220

G1X29.0073Y-89.8960

G1X31.6765Y-88.9197

G1X41.9134Y-85.7722

G1X46.7412Y-84.2209

G1X49.5946Y-83.2039

G1X53.0100Y-81.7908

G1X56.2108Y-80.3473

G1X58.8877Y-79.0070

G1X61.2835Y-77.6555

G1X63.8243Y-76.0852

G1X66.0966Y-74.5614

G1X68.2172Y-73.0082

G1X70.1463Y-71.4469

G1X72.1977Y-69.6040

G1X74.1598Y-67.6582

G1X75.9230Y-65.7187

G1X77.5218Y-63.7451

G1X79.2919Y-61.2032

G1X80.8010Y-58.6215

G1X82.0844Y-55.9406

G1X83.0140Y-53.4295

G1X83.6855Y-50.8052

G1X84.0707Y-48.1320

G1X84.1450Y-45.6474

G1X83.8941Y-43.2580

G1X83.2786Y-40.8031

G1X82.3664Y-38.5795

G1X81.2416Y-36.7486

G1X79.7901Y-35.0473

G1X78.0160Y-33.5038

G1X76.3005Y-32.4436

G1X74.1393Y-31.5324

G1X71.7542Y-30.9118

G1X70.5152Y-30.7584

G1X69.2567Y-30.7154

G1X67.9159Y-30.7788

G1X66.5527Y-30.9568

G1X65.4857Y-31.1925

G1X64.4787Y-31.5318

G1X63.4397Y-32.0056

G1X62.4830Y-32.5548

G1X61.4735Y-33.2584

G1X60.6835Y-33.9416

G1X59.9930Y-34.6946

G1X59.3502Y-35.5794

G1X58.8314Y-36.4976

G1X58.4112Y-37.5060

G1X58.1277Y-38.5657

G1X58.0000Y-39.5682

G1X58.0254Y-40.8623

G1X58.2698Y-42.2368

G1X58.7189Y-43.6811

G1X59.4391Y-45.4204

G1X60.5527Y-47.4916

G1X65.9717Y-56.6083

G1X67.9364Y-60.5325

G1X69.3536Y-63.7038

G1X70.2690Y-66.1366

G1X71.1095Y-68.8855

G1X71.8282Y-71.7249

G1X72.3580Y-74.4091

G1X72.7762Y-77.7801

G1X72.9094Y-81.2807

G1X72.7579Y-84.9137

G1X72.3418Y-88.1677

G1X71.5939Y-91.3464

G1X70.5120Y-94.4803

G1X69.4115Y-96.7895

G1X68.7324Y-97.8787

G1X67.9532Y-98.9372

G1X66.4126Y-100.6377

G1X65.2230Y-101.5778

G1X63.8203Y-102.3227

G1X59.7643Y-104.0963

G1X56.9644Y-105.0157

G1X54.2051Y-105.6541

G1X51.5789Y-105.9849

G1X49.0562Y-106.0234

G1X47.6194Y-105.9064

G1X46.1257Y-105.6808

G1X43.3561Y-104.9347

G1X41.2568Y-104.1177

G1X35.9418Y-101.6159

G1X34.7981Y-101.1770

G1X33.7218Y-100.8763

G1X32.5291Y-100.6563

G1X31.1910Y-100.5346

G1X28.3626Y-100.6316

G1X25.6996Y-100.5752

G1X24.5079Y-100.4128

G1X23.2986Y-100.1063

G1X21.9394Y-99.5356

G1X20.7727Y-98.6913

G1X20.0326Y-97.7730

G1X19.7702Y-97.2271

G1X19.6072Y-96.6600

G1X19.5548Y-95.7832

G1X19.7317Y-94.8710

G1X20.1421Y-93.9797

G1X20.7156Y-93.1648

G1X21.4751Y-92.3832

G1X22.5747Y-91.5172

G1X23.7429Y-90.7814

G1X25.1427Y-90.0577

G1X27.5835Y-89.0287

G1X30.3880Y-88.0550

G1X34.8509Y-86.7247

G1X41.3402Y-84.9318

G1X46.3742Y-83.4051

G1X49.3253Y-82.4119

G1X52.5267Y-81.1535

G1X55.9923Y-79.6609

G1X58.7713Y-78.3364

G1X61.3097Y-76.9776

G1X63.8783Y-75.4467

G1X66.3518Y-73.8449

G1X68.5916Y-72.2603

G1X70.6405Y-70.6635

G1X72.6230Y-68.9446

G1X74.5490Y-67.1050

G1X76.3617Y-65.1937

G1X77.9643Y-63.3165

G1X79.8009Y-60.8467

G1X81.4539Y-58.1907

G1X82.8294Y-55.4990

G1X83.8976Y-52.8394

G1X84.6170Y-50.3097

G1X85.0596Y-47.7037

G1X85.1993Y-45.1110

G1X85.0290Y-42.8203

G1X84.4935Y-40.4244

G1X83.6502Y-38.2205

G1X82.6000Y-36.3608

G1X81.1928Y-34.6297

G1X79.4768Y-33.0864

G1X77.5916Y-31.8534

G1X75.5367Y-30.9630

G1X73.1845Y-30.3275

G1X71.8300Y-30.1152

G1X70.5955Y-30.0379

G1X69.2373Y-30.0731

G1X67.8001Y-30.2307

G1X66.4434Y-30.4922

G1X65.2184Y-30.8424

G1X64.1533Y-31.2845

G1X63.0748Y-31.8726

G1X61.9333Y-32.6498

G1X60.8104Y-33.5755

G1X60.0049Y-34.4054

G1X59.2529Y-35.3784

G1X58.5963Y-36.4803

G1X58.1240Y-37.5615

G1X57.7921Y-38.7102

G1X57.6362Y-39.8006

G1X57.6504Y-41.1235

G1X57.9102Y-42.5726

G1X58.4054Y-44.0826

G1X59.1884Y-45.8630

G1X60.2644Y-47.7758

G1X66.3216Y-57.4277

G1X68.1759Y-60.9952

G1X69.7419Y-64.3621

G1X70.7690Y-66.9433

G1X71.5482Y-69.3490

G1X72.3448Y-72.3706

G1X72.9447Y-75.2833

G1X73.4304Y-78.8771

G1X73.5823Y-82.3607

G1X73.4189Y-86.1666

G1X72.9446Y-89.8205

G1X72.1982Y-92.9628

G1X71.1020Y-96.0533

G1X69.8306Y-98.6991

G1X69.1729Y-99.7406

G1X68.4044Y-100.7454

G1X66.7858Y-102.4037

G1X65.7959Y-103.2272

G1X65.0711Y-103.7026

G1X63.7820Y-104.3000

G1X59.8982Y-105.6646

G1X56.8723Y-106.5099

G1X53.8503Y-107.0794

G1X51.1071Y-107.3099

G1X48.4952Y-107.2438

G1X46.9774Y-107.0510

G1X45.5074Y-106.7539

G1X44.1497Y-106.3772

G1X42.7225Y-105.8546

G1X40.3450Y-104.7584

G1X35.5399Y-102.0124

G1X33.9533Y-101.2609

G1X32.7142Y-100.8333

G1X31.3286Y-100.5604

G1X29.8541Y-100.4431

G1X26.5943Y-100.6370

G1X24.2472Y-100.5758

G1X22.8970Y-100.3935

G1X21.5822Y-100.0224

G1X20.1750Y-99.3633

G1X19.0378Y-98.4541

G1X18.2812Y-97.4267

G1X18.0329Y-96.8574

G1X17.8591Y-96.1651

G1X17.8322Y-95.1842

G1X18.0463Y-94.1907

G1X18.4702Y-93.2780

G1X19.1493Y-92.3194

G1X19.9997Y-91.4598

G1X21.0983Y-90.6089

G1X22.3396Y-89.8371

G1X23.8511Y-89.0737

G1X26.3323Y-88.0635

G1X29.3513Y-87.0641

G1X34.2221Y-85.7087

G1X40.9035Y-83.9981

G1X46.1575Y-82.4813

G1X49.2050Y-81.5061

G1X52.2074Y-80.3839

G1X56.0401Y-78.7921

G1X59.0228Y-77.4190

G1X61.6735Y-76.0514

G1X64.1869Y-74.5963

G1X66.6742Y-73.0307

G1X68.9369Y-71.4804

G1X71.0211Y-69.9185

G1X72.8522Y-68.4061

G1X74.7677Y-66.6634

G1X76.5873Y-64.8423

G1X78.2162Y-63.0464

G1X80.2178Y-60.5469

G1X81.9132Y-58.0368

G1X83.4190Y-55.3410

G1X84.6192Y-52.6583

G1X85.4376Y-50.2289

G1X85.9929Y-47.6893

G1X86.2520Y-45.1171

G1X86.1958Y-42.6678

G1X85.8135Y-40.4220

G1X85.0876Y-38.2153

G1X84.0876Y-36.2273

G1X82.8638Y-34.5414

G1X81.1867Y-32.9085

G1X79.3010Y-31.5768

G1X77.3513Y-30.6211

G1X75.1014Y-29.9346

G1X73.5999Y-29.6543

G1X72.1331Y-29.5034

G1X70.8117Y-29.4896

G1X69.4683Y-29.5948

G1X67.8436Y-29.8626

G1X66.3198Y-30.2531

G1X65.0218Y-30.7200

G1X63.8957Y-31.2860

G1X62.6135Y-32.1262

G1X61.3251Y-33.1748

G1X60.2374Y-34.2341

G1X59.3265Y-35.3521

G1X58.5826Y-36.5257

G1X58.0485Y-37.6594

G1X57.6491Y-38.8946

G1X57.4351Y-40.1674

G1X57.4386Y-41.5879

G1X57.7012Y-43.0377

G1X58.2395Y-44.6115

G1X59.1278Y-46.5139

G1X60.1894Y-48.3172

G1X65.3336Y-56.0541

G1X66.7728Y-58.3383

G1X68.2230Y-60.9940

G1X70.1074Y-64.9021

G1X71.2565Y-67.6531

G1X72.1342Y-70.1889

G1X72.9399Y-73.1782

G1X73.5689Y-76.1797

G1X74.1167Y-80.1078

G1X74.2920Y-83.6205

G1X74.1169Y-87.4616

G1X73.5929Y-91.3225

G1X72.8392Y-94.5587

G1X71.7242Y-97.6597

G1X70.9746Y-99.2817

G1X70.1910Y-100.7279

G1X69.4921Y-101.8226

G1X68.7330Y-102.7749

G1X67.3397Y-104.1044

G1X65.5427Y-105.3892

G1X64.4362Y-105.9849

G1X63.0141Y-106.4680

G1X58.0406Y-107.7442

G1X54.4505Y-108.3726

G1X52.6590Y-108.5516

G1X51.0409Y-108.6107

G1X49.3916Y-108.5711

G1X47.7852Y-108.4199

G1X46.2644Y-108.1534

G1X44.6839Y-107.7451

G1X43.2563Y-107.2602

G1X41.8675Y-106.6525

G1X39.3235Y-105.2606

G1X34.3824Y-101.9267

G1X32.8544Y-101.1072

G1X31.6516Y-100.6330

G1X30.3142Y-100.3499

G1X28.6923Y-100.2415

G1X27.7028Y-100.2653

G1X25.0622Y-100.5367

G1X23.1090Y-100.4948

G1X21.4313Y-100.2767

G1X20.0239Y-99.8490

G1X18.5968Y-99.1092

G1X17.5115Y-98.1722

G1X17.0296Y-97.5444

G1X16.6997Y-96.9580

G1X16.3273Y-95.7109

G1X16.2938Y-94.7270

G1X16.4660Y-93.7581

G1X16.8469Y-92.7877

G1X17.4023Y-91.8899

G1X18.1173Y-91.0365

G1X18.9854Y-90.2457

G1X20.1284Y-89.4168

G1X21.3944Y-88.6704

G1X24.2582Y-87.3849

G1X27.9471Y-86.1440

G1X33.6788Y-84.6305

G1X40.7237Y-82.9469

G1X48.6461Y-80.6837

G1X53.0209Y-79.1163

G1X58.3678Y-76.8660

G1X61.3275Y-75.4398

G1X63.9051Y-74.0381

G1X66.9289Y-72.2079

G1X69.7179Y-70.3412

G1X72.1311Y-68.5533

G1X74.2623Y-66.7941

G1X76.4014Y-64.8218

G1X78.4725Y-62.6882

G1X80.5972Y-60.2044

G1X82.4111Y-57.7303

G1X83.9954Y-55.1291

G1X85.2925Y-52.5106

G1X86.2792Y-49.9501

G1X86.9283Y-47.5197

G1X87.2942Y-44.9910

G1X87.3459Y-42.5753

G1X87.0910Y-40.3415

G1X86.4838Y-38.1568

G1X85.5267Y-36.0628

G1X84.3406Y-34.2906

G1X82.7960Y-32.6990

G1X80.9928Y-31.3632

G1X79.0583Y-30.3349

G1X76.9833Y-29.6319

G1X75.3771Y-29.2963

G1X73.7596Y-29.1046

G1X72.1833Y-29.0539

G1X70.7535Y-29.1486

G1X69.1093Y-29.4143

G1X67.4230Y-29.8448

G1X65.7939Y-30.4239

G1X64.5816Y-31.0143

G1X63.2954Y-31.8498

G1X61.9909Y-32.9139

G1X60.6545Y-34.2047

G1X59.5657Y-35.4912

G1X58.7193Y-36.7601

G1X58.1141Y-37.9675

G1X57.6464Y-39.3228

G1X57.4011Y-40.6103

G1X57.3721Y-42.0392

G1X57.6190Y-43.5252

G1X58.1426Y-45.0650

G1X59.0216Y-46.9069

G1X60.1772Y-48.8570

G1X63.0079Y-52.8673

G1X67.2603Y-59.2347

G1X68.6961Y-61.7397

G1X70.4927Y-65.4145

G1X71.8179Y-68.4948

G1X72.8271Y-71.2995

G1X73.6064Y-74.1064

G1X74.2510Y-77.1772

G1X74.8260Y-81.3286

G1X75.0263Y-85.1779

G1X74.8408Y-88.9138

G1X74.2882Y-92.7474

G1X73.4018Y-96.4611

G1X72.3067Y-99.4485

G1X71.5443Y-101.0494

G1X70.6837Y-102.5826

G1X69.7570Y-103.9822

G1X68.9389Y-104.9846

G1X67.7569Y-106.0393

G1X66.2861Y-106.9689

G1X64.3216Y-107.9297

G1X62.6738Y-108.4069

G1X57.0791Y-109.4295

G1X53.4695Y-109.8346

G1X51.7547Y-109.9130

G1X50.1466Y-109.8867

G1X48.5202Y-109.7632

G1X46.9350Y-109.5342

G1X45.4596Y-109.1997

G1X43.9085Y-108.7124

G1X42.3337Y-108.0761

G1X40.9827Y-107.3884

G1X38.2050Y-105.6015

G1X33.2429Y-101.6930

G1X31.7473Y-100.7951

G1X30.6382Y-100.3056

G1X29.3892Y-100.0105

G1X27.8895Y-99.9239

G1X26.3482Y-99.9778

G1X23.5839Y-100.3323

G1X22.0514Y-100.3213

G1X20.0455Y-100.0508

G1X18.5159Y-99.5447

G1X17.1337Y-98.7332

G1X16.1019Y-97.7496

G1X15.3612Y-96.5254

G1X15.1257Y-95.8638

G1X14.9881Y-95.1616

G1X14.9744Y-94.0350

G1X15.1802Y-92.9853

G1X15.5971Y-91.9406

G1X16.2249Y-90.9368

G1X16.9935Y-90.0270

G1X17.9645Y-89.1499

G1X19.1809Y-88.2846

G1X20.6234Y-87.4572

G1X23.6169Y-86.1647

G1X27.4478Y-84.9351

G1X33.5813Y-83.4103

G1X40.7170Y-81.8070

G1X48.4587Y-79.6729

G1X52.5329Y-78.3079

G1X57.8822Y-76.1484

G1X60.9620Y-74.7436

G1X63.7812Y-73.3069

G1X66.5771Y-71.6989

G1X69.4187Y-69.8949

G1X71.9926Y-68.0946

G1X74.4099Y-66.2219

G1X76.6272Y-64.2955

G1X78.7096Y-62.2702

G1X80.9518Y-59.8074

G1X82.9117Y-57.3271

G1X84.4883Y-54.9713

G1X85.8927Y-52.4295

G1X87.0039Y-49.9117

G1X87.8208Y-47.4208

G1X88.3142Y-44.9428

G1X88.4860Y-42.5434

G1X88.3386Y-40.2037

G1X87.8904Y-38.1805

G1X87.0591Y-36.1003

G1X85.9330Y-34.2446

G1X84.5823Y-32.7050

G1X82.9281Y-31.3722

G1X80.8949Y-30.2039

G1X78.8645Y-29.4299

G1X77.2809Y-29.0594

G1X75.5329Y-28.8244

G1X73.7927Y-28.7485

G1X72.1003Y-28.8339

G1X70.3695Y-29.1140

G1X68.6641Y-29.5600

G1X66.9655Y-30.1672

G1X65.4524Y-30.8759

G1X64.1385Y-31.7113

G1X62.7276Y-32.8592

G1X61.0562Y-34.5069

G1X59.8354Y-35.9493

G1X58.9752Y-37.2073

G1X58.3045Y-38.4862

G1X57.7908Y-39.9125

G1X57.5103Y-41.2862

G1X57.4670Y-42.6960

G1X57.7073Y-44.1987

G1X58.2284Y-45.7137

G1X59.1102Y-47.5103

G1X60.3805Y-49.6128

G1X63.6394Y-54.0445

G1X67.7220Y-60.0303

G1X69.3007Y-62.6656

G1X70.7687Y-65.6039

G1X72.2996Y-69.0672

G1X73.5138Y-72.3288

G1X74.3400Y-75.1618

G1X75.0128Y-78.3834

G1X75.5831Y-82.7380

G1X75.7705Y-87.0148

G1X75.5640Y-90.6865

G1X74.9571Y-94.5021

G1X74.4791Y-96.5544

G1X73.9324Y-98.4717

G1X73.3551Y-100.1569

G1X72.7019Y-101.7021

G1X71.8688Y-103.3349

G1X70.9720Y-104.8150

G1X69.9937Y-106.1844

G1X68.9918Y-107.3508

G1X67.8879Y-108.2652

G1X66.5722Y-108.9752

G1X63.8821Y-109.9360

G1X62.1020Y-110.3112

G1X55.9155Y-111.0244

G1X52.3558Y-111.2126

G1X49.2105Y-111.0988

G1X47.5726Y-110.8903

G1X46.0746Y-110.5993

G1X44.5224Y-110.1658

G1X43.0051Y-109.5949

G1X41.3755Y-108.8204

G1X39.9837Y-108.0041

G1X37.0803Y-105.8259

G1X32.1323Y-101.3196

G1X30.7978Y-100.4178

G1X29.6446Y-99.8438

G1X28.5024Y-99.5371

G1X27.2201Y-99.4690

G1X25.1208Y-99.5939

G1X22.1552Y-100.0266

G1X20.9444Y-100.0452

G1X18.8770Y-99.7556

G1X17.9510Y-99.4867

G1X17.1876Y-99.1641

G1X15.8963Y-98.3245

G1X14.8662Y-97.2509

G1X14.1843Y-95.9793

G1X13.8525Y-94.6334

G1X13.8459Y-93.4241

G1X14.0722Y-92.2653

G1X14.5512Y-91.0579

G1X15.1958Y-90.0168

G1X16.0680Y-88.9786

G1X17.0876Y-88.0516

G1X18.4258Y-87.1064

G1X19.9347Y-86.2511

G1X21.3779Y-85.5815

G1X23.0260Y-84.9387

G1X27.0501Y-83.6866

G1X33.7598Y-82.1022

G1X40.9993Y-80.5533

G1X48.2102Y-78.6182

G1X52.7747Y-77.1593

G1X57.4350Y-75.3394

G1X60.6942Y-73.9152

G1X63.7251Y-72.4477

G1X66.3703Y-71.0133

G1X69.1670Y-69.3247

G1X71.9756Y-67.4546

G1X74.6382Y-65.4927

G1X76.9702Y-63.5784

G1X79.1308Y-61.5870

G1X81.4035Y-59.2222

G1X83.4822Y-56.7483

G1X85.1506Y-54.4447

G1X86.6190Y-52.0118

G1X87.8462Y-49.4940

G1X88.7860Y-46.9630

G1X89.3610Y-44.6118

G1X89.6247Y-42.2793

G1X89.5785Y-40.0676

G1X89.2131Y-37.9680

G1X88.4878Y-35.9604

G1X87.4520Y-34.1403

G1X86.2272Y-32.6459

G1X84.6530Y-31.3083

G1X82.7359Y-30.1560

G1X80.6767Y-29.3130

G1X78.9757Y-28.8873

G1X77.1533Y-28.6392

G1X75.1973Y-28.5645

G1X73.3086Y-28.6768

G1X71.6114Y-28.9690

G1X69.8234Y-29.4676

G1X68.0229Y-30.1508

G1X66.3670Y-30.9524

G1X64.9533Y-31.8572

G1X63.5263Y-33.0270

G1X61.7151Y-34.8316

G1X60.3471Y-36.4197

G1X59.3495Y-37.8311

G1X58.6563Y-39.0948

G1X58.0898Y-40.5864

G1X57.7817Y-41.9465

G1X57.7072Y-43.4362

G1X57.9149Y-44.8670

G1X58.4156Y-46.3605

G1X59.2830Y-48.1100

G1X60.7723Y-50.5282

G1X64.3706Y-55.2534

G1X68.1236Y-60.6863

G1X69.8332Y-63.4175

G1X71.1658Y-65.9448

G1X72.8759Y-69.7833

G1X74.2126Y-73.3319

G1X75.2059Y-76.6799

G1X75.8523Y-79.8195

G1X76.1673Y-82.0353

G1X76.3855Y-84.2855

G1X76.5253Y-88.7356

G1X76.2876Y-92.5930

G1X76.0104Y-94.4877

G1X75.6148Y-96.4538

G1X75.0784Y-98.5501

G1X74.4336Y-100.6160

G1X73.6696Y-102.6628

G1X72.9760Y-104.1953

G1X72.1262Y-105.7378

G1X71.1489Y-107.2179

G1X70.0741Y-108.5812

G1X69.0048Y-109.7076

G1X67.8510Y-110.6091

G1X66.5364Y-111.1952

G1X63.2026Y-111.9049

G1X61.5938Y-112.1104

G1X54.8136Y-112.4938

G1X51.2558Y-112.4985

G1X48.2560Y-112.2497

G1X46.6438Y-111.9661

G1X45.1685Y-111.6081

G1X43.5544Y-111.0728

G1X41.8898Y-110.3310

G1X40.2210Y-109.3930

G1X38.7980Y-108.4179

G1X37.4492Y-107.3054

G1X35.8001Y-105.7852

G1X31.1847Y-100.9349

G1X30.3654Y-100.2603

G1X29.2346Y-99.5254

G1X28.1428Y-99.0590

G1X26.9957Y-98.8679

G1X26.0138Y-98.9028

G1X23.9111Y-99.1375

G1X21.2839Y-99.5611

G1X20.1893Y-99.6643

G1X18.6383Y-99.5461

G1X17.1437Y-99.1793

G1X16.2674Y-98.8290

G1X15.5269Y-98.4072

G1X14.7973Y-97.8318

G1X14.1834Y-97.1881

G1X13.7182Y-96.5474

G1X13.3447Y-95.8100

G1X13.0581Y-94.9321

G1X12.9032Y-94.0428

G1X12.9068Y-92.8177

G1X13.1665Y-91.4977

G1X13.6644Y-90.2280

G1X14.4172Y-88.9906

G1X15.3446Y-87.8912

G1X16.4902Y-86.8492

G1X17.9474Y-85.8340

G1X19.5272Y-84.9545

G1X22.3072Y-83.7732

G1X25.9507Y-82.6212

G1X29.6866Y-81.6970

G1X40.2177Y-79.4923

G1X43.4124Y-78.7333

G1X51.2860Y-76.5149

G1X54.1611Y-75.5472

G1X57.0678Y-74.4283

G1X60.4927Y-72.9814

G1X63.7281Y-71.4745

G1X66.5907Y-69.9945

G1X69.2108Y-68.4813

G1X72.0751Y-66.6525

G1X74.8165Y-64.7197

G1X77.3707Y-62.7264

G1X79.6567Y-60.7318

G1X81.9517Y-58.4655

G1X84.0132Y-56.1538

G1X85.9119Y-53.7091

G1X87.3862Y-51.4652

G1X88.7021Y-49.0180

G1X89.7085Y-46.6239

G1X90.3850Y-44.3761

G1X90.7627Y-42.1083

G1X90.8183Y-39.8426

G1X90.5500Y-37.7983

G1X89.9706Y-35.9559

G1X89.0399Y-34.1679

G1X87.8952Y-32.6730

G1X86.4698Y-31.3794

G1X84.6817Y-30.2433

G1X82.6949Y-29.3703

G1X80.9771Y-28.8836

G1X79.1024Y-28.5973

G1X77.0330Y-28.5019

G1X74.8902Y-28.6228

G1X73.1192Y-28.9207

G1X71.3414Y-29.4287

G1X69.5235Y-30.1389

G1X67.6623Y-31.0580

G1X66.1032Y-32.0305

G1X64.5044Y-33.3171

G1X62.7310Y-35.0548

G1X61.0288Y-36.9728

G1X59.9354Y-38.4498

G1X59.1183Y-39.8640

G1X58.5326Y-41.3329

G1X58.1789Y-42.7769

G1X58.0843Y-44.2485

G1X58.2766Y-45.6870

G1X58.7598Y-47.1419

G1X59.6065Y-48.8266

G1X61.3104Y-51.5350

G1X65.2561Y-56.5762

G1X68.6194Y-61.4336

G1X70.6033Y-64.5422

G1X72.1099Y-67.3370

G1X73.7147Y-71.0280

G1X75.0469Y-74.6556

G1X76.0606Y-78.1094

G1X76.7206Y-81.2641

G1X77.0082Y-83.3544

G1X77.2080Y-85.5988

G1X77.3066Y-87.8615

G1X77.3043Y-90.2053

G1X77.1973Y-92.4840

G1X76.9887Y-94.6542

G1X76.7163Y-96.4324

G1X76.3173Y-98.3085

G1X75.7363Y-100.4357

G1X75.0274Y-102.5519

G1X74.2155Y-104.5923

G1X73.3068Y-106.5303

G1X72.4463Y-108.0229

G1X71.5086Y-109.3684

G1X70.4581Y-110.6288

G1X69.3924Y-111.6955

G1X67.9318Y-112.8401

G1X66.6721Y-113.3854

G1X65.4100Y-113.5926

G1X61.5650Y-113.8028

G1X53.6513Y-113.8574

G1X50.4292Y-113.7216

G1X47.4617Y-113.3770

G1X44.4216Y-112.6262

G1X42.6466Y-111.9612

G1X41.0178Y-111.1417

G1X39.3828Y-110.1092

G1X37.7725Y-108.8755

G1X36.4231Y-107.6117

G1X34.6741Y-105.7618

G1X30.1450Y-100.3351

G1X29.3284Y-99.5684

G1X28.2217Y-98.7934

G1X27.1430Y-98.3095

G1X25.9884Y-98.1274

G1X25.1241Y-98.1979

G1X19.1757Y-99.1528

G1X17.9000Y-99.1182

G1X16.4671Y-98.7999

G1X15.5461Y-98.4412

G1X14.7117Y-97.9857

G1X14.0512Y-97.4701

G1X13.4883Y-96.8737

G1X12.9706Y-96.1465

G1X12.5619Y-95.3459

G1X12.2877Y-94.4591

G1X12.1435Y-93.5408

G1X12.1531Y-92.1394

G1X12.4395Y-90.7294

G1X13.0234Y-89.2633

G1X13.8087Y-87.9660

G1X14.8897Y-86.6921

G1X16.0852Y-85.6107

G1X17.5832Y-84.5684

G1X19.3058Y-83.6166

G1X22.2099Y-82.3995

G1X25.8472Y-81.2728

G1X29.5397Y-80.3719

G1X40.8105Y-78.0693

G1X44.0569Y-77.3197

G1X51.5586Y-75.2114

G1X54.4137Y-74.2802

G1X57.0394Y-73.3147

G1X60.4355Y-71.9156

G1X63.7727Y-70.4044

G1X66.8559Y-68.8659

G1X69.6256Y-67.3325

G1X72.4508Y-65.5903

G1X75.2538Y-63.6800

G1X77.8869Y-61.7019

G1X80.2721Y-59.7209

G1X82.5361Y-57.6058

G1X84.6541Y-55.3661

G1X86.5757Y-53.0545

G1X88.2166Y-50.7681

G1X89.5727Y-48.4849

G1X90.6406Y-46.2403

G1X91.4211Y-44.0594

G1X91.8969Y-41.9584

G1X92.0753Y-39.8319

G1X91.9319Y-37.8386

G1X91.4786Y-36.0444

G1X90.7267Y-34.4009

G1X89.7037Y-32.9196

G1X88.3964Y-31.6154

G1X86.7830Y-30.5073

G1X84.9245Y-29.6139

G1X83.1311Y-29.0369

G1X81.3171Y-28.7077

G1X79.1777Y-28.5712

G1X76.9981Y-28.6584

G1X75.1146Y-28.9276

G1X73.4559Y-29.3619

G1X71.6365Y-30.0481

G1X69.7188Y-30.9763

G1X67.7453Y-32.1385

G1X66.0098Y-33.4376

G1X64.1442Y-35.1450

G1X62.1400Y-37.2808

G1X60.7849Y-38.9747

G1X59.8441Y-40.4525

G1X59.1342Y-42.0641

G1X58.7115Y-43.6193

G1X58.5876Y-45.1012

G1X58.7464Y-46.4903

G1X59.1980Y-47.9161

G1X60.0130Y-49.5429

G1X62.0944Y-52.7672

G1X65.6208Y-57.1370

G1X67.1554Y-59.2237

G1X70.9669Y-64.9571

G1X72.1823Y-67.0201

G1X73.2044Y-68.9897

G1X74.6401Y-72.3769

G1X75.9763Y-76.1745

G1X76.9773Y-79.7377

G1X77.6622Y-83.1132

G1X77.9305Y-85.1892

G1X78.0913Y-87.3288

G1X78.1519Y-89.6041

G1X78.1088Y-91.8766

G1X77.9605Y-94.2083

G1X77.7145Y-96.4522

G1X77.3884Y-98.5117

G1X76.9663Y-100.4164

G1X76.3666Y-102.4821

G1X75.6232Y-104.5576

G1X74.7595Y-106.5871

G1X73.7680Y-108.5796

G1X72.8973Y-110.0837

G1X71.9710Y-111.3980

G1X70.9144Y-112.6273

G1X69.8234Y-113.6697

G1X68.5867Y-114.6229

G1X67.3983Y-115.3261

G1X66.4947Y-115.6316

G1X65.4004Y-115.7376

G1X62.5353Y-115.4708

G1X52.6604Y-115.1300

G1X49.8414Y-114.9147

G1X46.6356Y-114.4595

G1X43.7324Y-113.6419

G1X41.8806Y-112.8845

G1X40.1333Y-111.9211

G1X38.4022Y-110.6970

G1X36.7207Y-109.2505

G1X35.3299Y-107.7807

G1X33.4684Y-105.5256

G1X30.9688Y-102.0348

G1X29.0609Y-99.5452

G1X28.2830Y-98.7267

G1X27.3108Y-97.9878

G1X26.1655Y-97.4411

G1X25.0001Y-97.2726

G1X24.0790Y-97.3997

G1X21.6385Y-98.0347

G1X18.6666Y-98.5028

G1X17.1013Y-98.5612

G1X15.7648Y-98.3007

G1X14.8967Y-97.9656

G1X14.0415Y-97.4916

G1X13.4215Y-97.0299

G1X12.8499Y-96.4295

G1X12.3330Y-95.6637

G1X11.9049Y-94.7619

G1X11.6758Y-94.0077

G1X11.5394Y-93.1101

G1X11.5591Y-91.5009

G1X11.8579Y-90.0236

G1X12.4447Y-88.5053

G1X13.3371Y-86.9787

G1X14.4313Y-85.6508

G1X15.7921Y-84.3934

G1X17.2565Y-83.3507

G1X19.1794Y-82.2772

G1X22.1532Y-81.0257

G1X25.8100Y-79.8974

G1X29.5950Y-78.9751

G1X41.5946Y-76.5545

G1X44.9992Y-75.7788

G1X52.2465Y-73.7201

G1X57.9023Y-71.7814

G1X61.2436Y-70.4125

G1X64.5798Y-68.9047

G1X67.7661Y-67.3245

G1X70.6341Y-65.7605

G1X73.2668Y-64.1723

G1X75.9473Y-62.3908

G1X78.5625Y-60.4847

G1X80.9771Y-58.5576

G1X83.3103Y-56.4931

G1X85.4563Y-54.3474

G1X87.4185Y-52.1270

G1X89.1710Y-49.8583

G1X90.5372Y-47.7639

G1X91.6381Y-45.7042

G1X92.5001Y-43.6276

G1X93.0603Y-41.6687

G1X93.3386Y-39.7205

G1X93.3152Y-37.8761

G1X93.0012Y-36.2117

G1X92.3764Y-34.6276

G1X91.4624Y-33.1753

G1X90.2887Y-31.9120

G1X88.8404Y-30.8478

G1X87.1347Y-29.9677

G1X85.4536Y-29.3656

G1X83.6611Y-28.9721

G1X81.6095Y-28.7888

G1X79.4363Y-28.8235

G1X77.3945Y-29.0581

G1X75.6552Y-29.4493

G1X73.8531Y-30.0923

G1X72.0188Y-30.9619

G1X69.5179Y-32.4154

G1X67.6025Y-33.7686

G1X65.5237Y-35.5462

G1X63.4864Y-37.5894

G1X61.8428Y-39.4861

G1X60.6582Y-41.1865

G1X59.8646Y-42.8323

G1X59.3502Y-44.5653

G1X59.2074Y-46.0300

G1X59.3535Y-47.4390

G1X59.7586Y-48.7616

G1X60.4984Y-50.2585

G1X62.9087Y-53.9300

G1X66.7480Y-58.6261

G1X68.3423Y-60.7876

G1X72.0551Y-66.5125

G1X73.3030Y-68.6710

G1X74.3141Y-70.6406

G1X75.6171Y-73.7481

G1X76.9388Y-77.6941

G1X77.9314Y-81.4612

G1X78.5983Y-84.9626

G1X78.8557Y-87.0278

G1X78.9972Y-89.1353

G1X79.0245Y-91.4039

G1X78.9380Y-93.6865

G1X78.7381Y-96.0478

G1X78.4238Y-98.4392

G1X77.9972Y-100.8002

G1X77.4965Y-102.9129

G1X76.8778Y-104.8895

G1X76.1454Y-106.7890

G1X75.2416Y-108.7646

G1X74.2337Y-110.6548

G1X73.1653Y-112.3879

G1X72.2421Y-113.6633

G1X71.1786Y-114.8435

G1X70.0730Y-115.8228

G1X68.7929Y-116.7107

G1X67.3803Y-117.4356

G1X66.3119Y-117.7876

G1X65.3064Y-117.8514

G1X64.3155Y-117.7194

G1X61.4548Y-117.0826

G1X55.6365Y-116.5608

G1X51.0611Y-116.2785

G1X47.6428Y-115.8536

G1X45.0024Y-115.2988

G1X42.1666Y-114.2882

G1X40.3742Y-113.3921

G1X38.7928Y-112.3577

G1X37.0781Y-110.9462

G1X35.4279Y-109.3082

G1X34.0810Y-107.6755

G1X32.1984Y-105.0642

G1X29.8204Y-101.2956

G1X28.1577Y-98.8599

G1X27.3634Y-97.8798

G1X26.6587Y-97.2508

G1X25.9858Y-96.7977

G1X25.3799Y-96.5198

G1X24.7214Y-96.3579

G1X24.0887Y-96.3156

G1X23.0127Y-96.5072

G1X20.2732Y-97.4269

G1X17.9841Y-97.7962

G1X16.8335Y-97.8841

G1X15.9614Y-97.8600

G1X15.1804Y-97.7200

G1X14.3786Y-97.4366

G1X13.4839Y-96.9398

G1X12.6601Y-96.2775

G1X12.0841Y-95.5991

G1X11.6418Y-94.8062

G1X11.2680Y-93.7644

G1X11.0663Y-92.6912

G1X11.0457Y-91.5565

G1X11.1886Y-90.3134

G1 Z0F20000


G00 X0.0000 Y0.0000


